{"type":"FeatureCollection","features":[{"type":"Feature","properties":{"id":"ticari-0","kind":"district","btype":"ticari","name":"Hong Kong Disneyland Resort","lab":1},"geometry":{"type":"MultiPolygon","coordinates":[[[[114.03776,22.31724],[114.0417,22.31559],[114.04493,22.31524],[114.04492,22.31483],[114.04647,22.31483],[114.04646,22.3152],[114.04863,22.31549],[114.05084,22.31683],[114.05108,22.31654],[114.0497,22.31555],[114.04825,22.315],[114.04833,22.31466],[114.04707,22.31449],[114.04707,22.30953],[114.04828,22.30756],[114.04755,22.30724],[114.04512,22.30737],[114.04214,22.30628],[114.03966,22.30599],[114.0371,22.30654],[114.03406,22.30831],[114.03366,22.30897],[114.03408,22.30913],[114.03427,22.30876],[114.03804,22.3109],[114.037,22.3151],[114.03776,22.31724]]]]}},{"type":"Feature","properties":{"id":"ticari-lab-0","kind":"district-label","btype":"ticari","name":"Hong Kong Disneyland Resort"},"geometry":{"type":"Point","coordinates":[114.0417,22.31106]}},{"type":"Feature","properties":{"id":"ticari-1","kind":"district","btype":"ticari","name":"互联网+未来科技城","lab":1},"geometry":{"type":"MultiPolygon","coordinates":[[[[113.85669,22.54934],[113.86014,22.5501],[113.86698,22.52945],[113.8667,22.52922],[113.8638,22.52817],[113.85866,22.54483],[113.85809,22.54564],[113.85669,22.54934]]]]}},{"type":"Feature","properties":{"id":"ticari-lab-1","kind":"district-label","btype":"ticari","name":"互联网+未来科技城"},"geometry":{"type":"Point","coordinates":[113.86201,22.53923]}},{"type":"Feature","properties":{"id":"ticari-2","kind":"district","btype":"ticari","name":"Ocean Park Hong Kong","lab":1},"geometry":{"type":"MultiPolygon","coordinates":[[[[114.16719,22.23444],[114.1672,22.23592],[114.16521,22.23624],[114.16446,22.23786],[114.16441,22.23823],[114.16609,22.23934],[114.16751,22.23933],[114.16767,22.23768],[114.16894,22.23797],[114.16904,22.23824],[114.17536,22.23872],[114.17563,22.2385],[114.17432,22.23578],[114.17427,22.23372],[114.17385,22.23348],[114.1731,22.23076],[114.17199,22.23013],[114.17051,22.23108],[114.16973,22.23099],[114.16938,22.23149],[114.16838,22.23186],[114.16838,22.23216],[114.16763,22.23209],[114.16733,22.23271],[114.1668,22.23258],[114.16684,22.23289],[114.16616,22.23309],[114.16719,22.23444]]]]}},{"type":"Feature","properties":{"id":"ticari-lab-2","kind":"district-label","btype":"ticari","name":"Ocean Park Hong Kong"},"geometry":{"type":"Point","coordinates":[114.1703,22.23527]}},{"type":"Feature","properties":{"id":"ticari-3","kind":"district","btype":"ticari","name":"OCT Harbour","lab":1},"geometry":{"type":"MultiPolygon","coordinates":[[[[113.97805,22.52809],[113.97798,22.52396],[113.97829,22.52351],[113.98239,22.52351],[113.98621,22.52422],[113.98818,22.52498],[113.98732,22.52968],[113.97805,22.52809]]]]}},{"type":"Feature","properties":{"id":"ticari-lab-3","kind":"district-label","btype":"ticari","name":"OCT Harbour"},"geometry":{"type":"Point","coordinates":[113.98297,22.52634]}},{"type":"Feature","properties":{"id":"ticari-4","kind":"district","btype":"ticari","name":"OH Bay","lab":1},"geometry":{"type":"MultiPolygon","coordinates":[[[[113.873,22.5471],[113.8769,22.54819],[113.87694,22.54902],[113.87836,22.54904],[113.87835,22.54883],[113.88016,22.54865],[113.88015,22.54816],[113.88245,22.54747],[113.8851,22.54591],[113.8844,22.54532],[113.88467,22.54511],[113.88284,22.54356],[113.88104,22.54463],[113.8782,22.54513],[113.87749,22.54629],[113.87619,22.54652],[113.87511,22.54578],[113.87501,22.54446],[113.87413,22.54402],[113.87211,22.54654],[113.873,22.5471]]]]}},{"type":"Feature","properties":{"id":"ticari-lab-4","kind":"district-label","btype":"ticari","name":"OH Bay"},"geometry":{"type":"Point","coordinates":[113.8789,22.54638]}},{"type":"Feature","properties":{"id":"ticari-5","kind":"district","btype":"ticari","name":"Kai Tak Sports Park","lab":1},"geometry":{"type":"MultiPolygon","coordinates":[[[[114.19774,22.32403],[114.19927,22.32428],[114.19958,22.323],[114.19953,22.32252],[114.19858,22.32171],[114.19729,22.31963],[114.19522,22.32135],[114.19572,22.32183],[114.19317,22.3241],[114.19692,22.32762],[114.19856,22.32576],[114.199,22.32481],[114.19762,22.32444],[114.19774,22.32403]]]]}},{"type":"Feature","properties":{"id":"ticari-lab-5","kind":"district-label","btype":"ticari","name":"Kai Tak Sports Park"},"geometry":{"type":"Point","coordinates":[114.19671,22.3237]}},{"type":"Feature","properties":{"id":"ticari-6","kind":"district","btype":"ticari","name":"Shenzhen Virtual University Park","lab":1},"geometry":{"type":"MultiPolygon","coordinates":[[[[113.9386,22.53211],[113.93702,22.53607],[113.93864,22.53677],[113.93862,22.53915],[113.94017,22.53916],[113.94044,22.53807],[113.94052,22.53031],[113.93915,22.5299],[113.93818,22.52921],[113.93741,22.53006],[113.93653,22.52993],[113.93589,22.53022],[113.93774,22.53181],[113.9386,22.53211]]]]}},{"type":"Feature","properties":{"id":"ticari-lab-6","kind":"district-label","btype":"ticari","name":"Shenzhen Virtual University Park"},"geometry":{"type":"Point","coordinates":[113.939,22.53392]}},{"type":"Feature","properties":{"id":"ticari-7","kind":"district","btype":"ticari","name":"Vanke Cloud City","lab":1},"geometry":{"type":"MultiPolygon","coordinates":[[[[113.93427,22.5777],[113.93444,22.57557],[113.94318,22.57551],[113.94305,22.57801],[113.93427,22.5777]]]]}},{"type":"Feature","properties":{"id":"ticari-lab-7","kind":"district-label","btype":"ticari","name":"Vanke Cloud City"},"geometry":{"type":"Point","coordinates":[113.93885,22.5767]}},{"type":"Feature","properties":{"id":"ticari-8","kind":"district","btype":"ticari","name":"TCL Science Park International E City","lab":1},"geometry":{"type":"MultiPolygon","coordinates":[[[[113.92488,22.57181],[113.92269,22.57176],[113.92253,22.57191],[113.92294,22.57223],[113.92053,22.57495],[113.92186,22.57605],[113.92139,22.57659],[113.92274,22.57811],[113.92323,22.5782],[113.92336,22.57866],[113.9247,22.57858],[113.92437,22.57473],[113.92568,22.574],[113.92612,22.5732],[113.92697,22.57302],[113.92669,22.57236],[113.92492,22.57238],[113.92488,22.57181]]]]}},{"type":"Feature","properties":{"id":"ticari-lab-8","kind":"district-label","btype":"ticari","name":"TCL Science Park International E City"},"geometry":{"type":"Point","coordinates":[113.92348,22.57485]}},{"type":"Feature","properties":{"id":"ticari-9","kind":"district","btype":"ticari","name":"Hong Kong Science Park","lab":1},"geometry":{"type":"MultiPolygon","coordinates":[[[[114.21256,22.42359],[114.20779,22.42698],[114.20783,22.42739],[114.20953,22.42932],[114.21381,22.42607],[114.21442,22.42522],[114.2148,22.42373],[114.21414,22.42333],[114.21379,22.42409],[114.21256,22.42359]]]]}},{"type":"Feature","properties":{"id":"ticari-lab-9","kind":"district-label","btype":"ticari","name":"Hong Kong Science Park"},"geometry":{"type":"Point","coordinates":[114.21129,22.42622]}},{"type":"Feature","properties":{"id":"ticari-10","kind":"district","btype":"ticari","name":"Dongmen Commercial Pedestrian Street","lab":1},"geometry":{"type":"MultiPolygon","coordinates":[[[[114.11367,22.55056],[114.11637,22.55012],[114.11676,22.54659],[114.1126,22.54593],[114.11251,22.54639],[114.11138,22.54678],[114.11063,22.54668],[114.11059,22.54757],[114.11147,22.54763],[114.11367,22.55056]]]]}},{"type":"Feature","properties":{"id":"ticari-lab-10","kind":"district-label","btype":"ticari","name":"Dongmen Commercial Pedestrian Street"},"geometry":{"type":"Point","coordinates":[114.11415,22.54808]}},{"type":"Feature","properties":{"id":"ticari-11","kind":"district","btype":"ticari","name":"Shenzhen Bay Science and Technology Ecological Park","lab":1},"geometry":{"type":"MultiPolygon","coordinates":[[[[113.94948,22.53041],[113.94993,22.53533],[113.94542,22.53547],[113.94536,22.53281],[113.94752,22.53275],[113.94765,22.53027],[113.94948,22.53041]]]]}},{"type":"Feature","properties":{"id":"ticari-lab-11","kind":"district-label","btype":"ticari","name":"Shenzhen Bay Science and Technology Ecological Park"},"geometry":{"type":"Point","coordinates":[113.94788,22.53336]}},{"type":"Feature","properties":{"id":"ticari-12","kind":"district","btype":"ticari","name":"GO PARK Sai Sha","lab":1},"geometry":{"type":"MultiPolygon","coordinates":[[[[114.26432,22.42987],[114.26466,22.43034],[114.26533,22.43041],[114.2664,22.43232],[114.26754,22.43242],[114.26761,22.43153],[114.26735,22.43127],[114.26788,22.43032],[114.26779,22.42812],[114.2642,22.42621],[114.26391,22.42755],[114.26432,22.42987]]]]}},{"type":"Feature","properties":{"id":"ticari-lab-12","kind":"district-label","btype":"ticari","name":"GO PARK Sai Sha"},"geometry":{"type":"Point","coordinates":[114.266,22.42924]}},{"type":"Feature","properties":{"id":"ticari-13","kind":"district","btype":"ticari","name":"OCT-LOFT Creative Culture Park","lab":1},"geometry":{"type":"MultiPolygon","coordinates":[[[[113.98704,22.54163],[113.98637,22.54196],[113.986,22.54404],[113.98695,22.54414],[113.99017,22.54346],[113.9903,22.54055],[113.98924,22.54049],[113.98931,22.53919],[113.98785,22.53909],[113.98781,22.53963],[113.98696,22.53958],[113.98704,22.54163]]]]}},{"type":"Feature","properties":{"id":"ticari-lab-13","kind":"district-label","btype":"ticari","name":"OCT-LOFT Creative Culture Park"},"geometry":{"type":"Point","coordinates":[113.98826,22.54185]}},{"type":"Feature","properties":{"id":"ticari-14","kind":"district","btype":"ticari","name":"Shum Yip UpperHills","lab":1},"geometry":{"type":"MultiPolygon","coordinates":[[[[114.06293,22.56121],[114.06451,22.56123],[114.0645,22.56178],[114.06573,22.5618],[114.06575,22.56052],[114.0673,22.56055],[114.0673,22.55907],[114.06672,22.55849],[114.06324,22.55851],[114.06297,22.55881],[114.06293,22.56121]]]]}},{"type":"Feature","properties":{"id":"ticari-lab-14","kind":"district-label","btype":"ticari","name":"Shum Yip UpperHills"},"geometry":{"type":"Point","coordinates":[114.06497,22.55989]}},{"type":"Feature","properties":{"id":"ticari-15","kind":"district","btype":"ticari","name":"Shenzhen Software Industry Base","lab":1},"geometry":{"type":"MultiPolygon","coordinates":[[[[113.93626,22.52581],[113.93634,22.52635],[113.93715,22.52651],[113.93636,22.52675],[113.93628,22.52785],[113.93167,22.5279],[113.93165,22.5271],[113.93094,22.52664],[113.93128,22.52598],[113.93266,22.5259],[113.93265,22.52511],[113.93323,22.52515],[113.93342,22.52586],[113.93626,22.52581]]]]}},{"type":"Feature","properties":{"id":"ticari-lab-15","kind":"district-label","btype":"ticari","name":"Shenzhen Software Industry Base"},"geometry":{"type":"Point","coordinates":[113.93386,22.52678]}},{"type":"Feature","properties":{"id":"ticari-16","kind":"district","btype":"ticari","name":"Tian'an Cyber Park","lab":1},"geometry":{"type":"MultiPolygon","coordinates":[[[[114.02818,22.53252],[114.02712,22.53718],[114.02455,22.53679],[114.02511,22.53479],[114.02556,22.53487],[114.02613,22.53215],[114.02818,22.53252]]]]}},{"type":"Feature","properties":{"id":"ticari-lab-16","kind":"district-label","btype":"ticari","name":"Tian'an Cyber Park"},"geometry":{"type":"Point","coordinates":[114.02649,22.53479]}},{"type":"Feature","properties":{"id":"ticari-17","kind":"district","btype":"ticari","name":"南山科技创新中心","lab":1},"geometry":{"type":"MultiPolygon","coordinates":[[[[113.93443,22.57449],[113.93445,22.57183],[113.93782,22.57182],[113.93783,22.57318],[113.93934,22.57334],[113.93913,22.57455],[113.93443,22.57449]]]]}},{"type":"Feature","properties":{"id":"ticari-lab-17","kind":"district-label","btype":"ticari","name":"南山科技创新中心"},"geometry":{"type":"Point","coordinates":[113.93653,22.57329]}},{"type":"Feature","properties":{"id":"ticari-18","kind":"district","btype":"ticari","name":"皇冠科技园","lab":1},"geometry":{"type":"MultiPolygon","coordinates":[[[[114.01897,22.53722],[114.01465,22.5365],[114.01486,22.53539],[114.01437,22.5353],[114.01446,22.53485],[114.01587,22.53429],[114.01951,22.5349],[114.01897,22.53722]]]]}},{"type":"Feature","properties":{"id":"ticari-lab-18","kind":"district-label","btype":"ticari","name":"皇冠科技园"},"geometry":{"type":"Point","coordinates":[114.01702,22.5357]}},{"type":"Feature","properties":{"id":"ticari-19","kind":"district","btype":"ticari","name":"上步工业区","lab":1},"geometry":{"type":"MultiPolygon","coordinates":[[[[114.0765,22.55098],[114.0775,22.55099],[114.07749,22.55147],[114.08125,22.55153],[114.08127,22.54925],[114.07653,22.54919],[114.0765,22.55098]]]]}},{"type":"Feature","properties":{"id":"ticari-lab-19","kind":"district-label","btype":"ticari","name":"上步工业区"},"geometry":{"type":"Point","coordinates":[114.07898,22.55032]}},{"type":"Feature","properties":{"id":"ticari-20","kind":"district","btype":"ticari","name":"Vanke Design Community","lab":1},"geometry":{"type":"MultiPolygon","coordinates":[[[[113.93396,22.57957],[113.94016,22.57971],[113.94017,22.57903],[113.94117,22.57905],[113.94118,22.57825],[113.93444,22.57819],[113.93396,22.57957]]]]}},{"type":"Feature","properties":{"id":"ticari-lab-20","kind":"district-label","btype":"ticari","name":"Vanke Design Community"},"geometry":{"type":"Point","coordinates":[113.93751,22.57891]}},{"type":"Feature","properties":{"id":"ticari-21","kind":"district","btype":"ticari","name":"Enterprise Dream Park","lab":1},"geometry":{"type":"MultiPolygon","coordinates":[[[[113.89492,22.51869],[113.89772,22.52145],[113.89916,22.51997],[113.89679,22.51707],[113.89492,22.51869]]]]}},{"type":"Feature","properties":{"id":"ticari-lab-21","kind":"district-label","btype":"ticari","name":"Enterprise Dream Park"},"geometry":{"type":"Point","coordinates":[113.8971,22.51926]}},{"type":"Feature","properties":{"id":"ticari-22","kind":"district","btype":"ticari","name":"Europe Town","lab":1},"geometry":{"type":"MultiPolygon","coordinates":[[[[113.95983,22.55739],[113.96143,22.55771],[113.96184,22.55982],[113.96129,22.56149],[113.96013,22.56188],[113.9596,22.56166],[113.95947,22.56113],[113.95951,22.55787],[113.95983,22.55739]]]]}},{"type":"Feature","properties":{"id":"ticari-lab-22","kind":"district-label","btype":"ticari","name":"Europe Town"},"geometry":{"type":"Point","coordinates":[113.96053,22.55962]}},{"type":"Feature","properties":{"id":"ticari-23","kind":"district","btype":"ticari","name":"Harbour City","lab":1},"geometry":{"type":"MultiPolygon","coordinates":[[[[114.16839,22.29481],[114.16477,22.29422],[114.16461,22.29488],[114.16806,22.29557],[114.16781,22.29573],[114.16815,22.2958],[114.16783,22.29727],[114.16607,22.29704],[114.16749,22.29735],[114.16775,22.29761],[114.16763,22.29815],[114.16555,22.29775],[114.1655,22.29797],[114.16758,22.29838],[114.16728,22.29967],[114.16832,22.29986],[114.1694,22.29496],[114.16854,22.29478],[114.16851,22.29415],[114.16839,22.29481]]]]}},{"type":"Feature","properties":{"id":"ticari-lab-23","kind":"district-label","btype":"ticari","name":"Harbour City"},"geometry":{"type":"Point","coordinates":[114.16766,22.29658]}},{"type":"Feature","properties":{"id":"ticari-24","kind":"district","btype":"ticari","name":"Unicenter","lab":1},"geometry":{"type":"MultiPolygon","coordinates":[[[[113.88097,22.55451],[113.88097,22.55591],[113.88226,22.55701],[113.88259,22.55702],[113.88497,22.55479],[113.88339,22.55321],[113.88212,22.55439],[113.88097,22.55451]]]]}},{"type":"Feature","properties":{"id":"ticari-lab-24","kind":"district-label","btype":"ticari","name":"Unicenter"},"geometry":{"type":"Point","coordinates":[113.88279,22.55517]}},{"type":"Feature","properties":{"id":"ticari-25","kind":"district","btype":"ticari","name":"One Avenue","lab":1},"geometry":{"type":"MultiPolygon","coordinates":[[[[114.0609,22.54111],[114.06093,22.53949],[114.06189,22.5395],[114.06193,22.53784],[114.05942,22.53774],[114.05941,22.53871],[114.05902,22.53871],[114.05899,22.54184],[114.06022,22.54185],[114.06023,22.54111],[114.0609,22.54111]]]]}},{"type":"Feature","properties":{"id":"ticari-lab-25","kind":"district-label","btype":"ticari","name":"One Avenue"},"geometry":{"type":"Point","coordinates":[114.06024,22.53955]}},{"type":"Feature","properties":{"id":"ticari-26","kind":"district","btype":"ticari","name":"Sea World","lab":1},"geometry":{"type":"MultiPolygon","coordinates":[[[[113.91176,22.48455],[113.91285,22.48527],[113.91396,22.48663],[113.91321,22.48763],[113.91226,22.48723],[113.91189,22.48756],[113.91116,22.48719],[113.91064,22.48753],[113.90968,22.48693],[113.91023,22.4861],[113.90989,22.48542],[113.91176,22.48455]]]]}},{"type":"Feature","properties":{"id":"ticari-lab-26","kind":"district-label","btype":"ticari","name":"Sea World"},"geometry":{"type":"Point","coordinates":[113.91176,22.48623]}},{"type":"Feature","properties":{"id":"ticari-27","kind":"district","btype":"ticari","name":"Cyberport","lab":1},"geometry":{"type":"MultiPolygon","coordinates":[[[[114.13084,22.25856],[114.13153,22.25908],[114.1321,22.25867],[114.13279,22.2588],[114.13218,22.26006],[114.13092,22.26102],[114.13099,22.26256],[114.13022,22.2629],[114.12931,22.262],[114.12911,22.26072],[114.13084,22.25856]]]]}},{"type":"Feature","properties":{"id":"ticari-lab-27","kind":"district-label","btype":"ticari","name":"Cyberport"},"geometry":{"type":"Point","coordinates":[114.13068,22.26055]}},{"type":"Feature","properties":{"id":"ticari-28","kind":"district","btype":"ticari","name":"Qianhai Kerry Centre","lab":1},"geometry":{"type":"MultiPolygon","coordinates":[[[[113.88469,22.52801],[113.8868,22.53035],[113.88857,22.52911],[113.88736,22.52667],[113.88649,22.52742],[113.88568,22.52662],[113.88469,22.52801]]]]}},{"type":"Feature","properties":{"id":"ticari-lab-28","kind":"district-label","btype":"ticari","name":"Qianhai Kerry Centre"},"geometry":{"type":"Point","coordinates":[113.88668,22.52841]}},{"type":"Feature","properties":{"id":"ticari-29","kind":"district","btype":"ticari","name":"Hong Kong Convention and Exhibition Centre","lab":1},"geometry":{"type":"MultiPolygon","coordinates":[[[[114.1725,22.2815],[114.17106,22.28125],[114.17092,22.28073],[114.17409,22.28087],[114.17364,22.28209],[114.17409,22.28286],[114.17394,22.28451],[114.17288,22.28468],[114.17218,22.28434],[114.17181,22.2828],[114.17232,22.28264],[114.1725,22.2815]]]]}},{"type":"Feature","properties":{"id":"ticari-lab-29","kind":"district-label","btype":"ticari","name":"Hong Kong Convention and Exhibition Centre"},"geometry":{"type":"Point","coordinates":[114.17291,22.28261]}},{"type":"Feature","properties":{"id":"ticari-30","kind":"district","btype":"ticari","name":"North Zone of Qianhai Shenzhen-Hong Kong Youth Innovation and Entrepreneur Hub","lab":1},"geometry":{"type":"MultiPolygon","coordinates":[[[[113.89696,22.53785],[113.89987,22.53797],[113.89997,22.5354],[113.897,22.53531],[113.89696,22.53785]]]]}},{"type":"Feature","properties":{"id":"ticari-lab-30","kind":"district-label","btype":"ticari","name":"North Zone of Qianhai Shenzhen-Hong Kong Youth Innovation and Entrepreneur Hub"},"geometry":{"type":"Point","coordinates":[113.89845,22.53663]}},{"type":"Feature","properties":{"id":"ticari-31","kind":"district","btype":"ticari","name":"Nanshan Kexing Science Park","lab":1},"geometry":{"type":"MultiPolygon","coordinates":[[[[113.93719,22.55248],[113.94005,22.5525],[113.94012,22.55025],[113.93733,22.54956],[113.93719,22.55248]]]]}},{"type":"Feature","properties":{"id":"ticari-lab-31","kind":"district-label","btype":"ticari","name":"Nanshan Kexing Science Park"},"geometry":{"type":"Point","coordinates":[113.93861,22.55119]}},{"type":"Feature","properties":{"id":"ticari-32","kind":"district","btype":"ticari","name":"MixC World","lab":1},"geometry":{"type":"MultiPolygon","coordinates":[[[[113.94937,22.54565],[113.95272,22.54592],[113.95288,22.54469],[113.95264,22.54387],[113.94937,22.54378],[113.94937,22.54565]]]]}},{"type":"Feature","properties":{"id":"ticari-lab-32","kind":"district-label","btype":"ticari","name":"MixC World"},"geometry":{"type":"Point","coordinates":[113.9511,22.54481]}},{"type":"Feature","properties":{"id":"ticari-33","kind":"district","btype":"ticari","name":"Qianhai Shenzhen-Hong Kong Fund Town","lab":1},"geometry":{"type":"MultiPolygon","coordinates":[[[[113.89777,22.53155],[113.90096,22.53159],[113.9009,22.53488],[113.90027,22.53488],[113.89943,22.53348],[113.89778,22.53286],[113.89777,22.53155]]]]}},{"type":"Feature","properties":{"id":"ticari-lab-33","kind":"district-label","btype":"ticari","name":"Qianhai Shenzhen-Hong Kong Fund Town"},"geometry":{"type":"Point","coordinates":[113.89964,22.5328]}},{"type":"Feature","properties":{"id":"ticari-34","kind":"district","btype":"ticari","name":"Nanshan Zhigu Industrial Park","lab":1},"geometry":{"type":"MultiPolygon","coordinates":[[[[113.94886,22.57553],[113.94843,22.57465],[113.94745,22.57462],[113.94704,22.57358],[113.9466,22.57377],[113.94626,22.57292],[113.94639,22.57215],[113.94829,22.57212],[113.9483,22.57247],[113.94944,22.57245],[113.94925,22.57528],[113.94886,22.57553]]]]}},{"type":"Feature","properties":{"id":"ticari-lab-34","kind":"district-label","btype":"ticari","name":"Nanshan Zhigu Industrial Park"},"geometry":{"type":"Point","coordinates":[113.94803,22.57344]}},{"type":"Feature","properties":{"id":"ticari-35","kind":"district","btype":"ticari","name":"Hong Kong Business Aviation Centre","lab":1},"geometry":{"type":"MultiPolygon","coordinates":[[[[113.90998,22.29754],[113.91047,22.29737],[113.91069,22.2976],[113.91121,22.2972],[113.91121,22.29763],[113.91353,22.29827],[113.91404,22.29737],[113.91334,22.29596],[113.91109,22.29573],[113.90998,22.29754]]]]}},{"type":"Feature","properties":{"id":"ticari-lab-35","kind":"district-label","btype":"ticari","name":"Hong Kong Business Aviation Centre"},"geometry":{"type":"Point","coordinates":[113.91223,22.29693]}},{"type":"Feature","properties":{"id":"ticari-36","kind":"district","btype":"ticari","name":"Yufa Business Park","lab":1},"geometry":{"type":"MultiPolygon","coordinates":[[[[113.9119,22.51572],[113.91293,22.5167],[113.91452,22.51591],[113.91431,22.51539],[113.91476,22.515],[113.91304,22.51322],[113.9117,22.5149],[113.9119,22.51572]]]]}},{"type":"Feature","properties":{"id":"ticari-lab-36","kind":"district-label","btype":"ticari","name":"Yufa Business Park"},"geometry":{"type":"Point","coordinates":[113.91316,22.51508]}},{"type":"Feature","properties":{"id":"ticari-37","kind":"district","btype":"ticari","name":"Vanke One City","lab":1},"geometry":{"type":"MultiPolygon","coordinates":[[[[114.23323,22.55582],[114.23559,22.55721],[114.2343,22.55907],[114.23202,22.55774],[114.23323,22.55582]]]]}},{"type":"Feature","properties":{"id":"ticari-lab-37","kind":"district-label","btype":"ticari","name":"Vanke One City"},"geometry":{"type":"Point","coordinates":[114.23379,22.55745]}},{"type":"Feature","properties":{"id":"ticari-38","kind":"district","btype":"ticari","name":"瑧湾汇","lab":1},"geometry":{"type":"MultiPolygon","coordinates":[[[[113.96256,22.52795],[113.96559,22.52798],[113.96579,22.52628],[113.9626,22.52613],[113.96256,22.52795]]]]}},{"type":"Feature","properties":{"id":"ticari-lab-38","kind":"district-label","btype":"ticari","name":"瑧湾汇"},"geometry":{"type":"Point","coordinates":[113.96412,22.52708]}},{"type":"Feature","properties":{"id":"ticari-39","kind":"district","btype":"ticari","name":"Jiajinlong Qianhai Auto City","lab":1},"geometry":{"type":"MultiPolygon","coordinates":[[[[113.89907,22.55032],[113.90143,22.55236],[113.90261,22.55121],[113.90467,22.55272],[113.90453,22.55193],[113.90116,22.55018],[113.89986,22.54982],[113.89907,22.55032]]]]}},{"type":"Feature","properties":{"id":"ticari-lab-39","kind":"district-label","btype":"ticari","name":"Jiajinlong Qianhai Auto City"},"geometry":{"type":"Point","coordinates":[113.90146,22.5511]}},{"type":"Feature","properties":{"id":"ticari-40","kind":"district","btype":"ticari","name":"The MixC","lab":1},"geometry":{"type":"MultiPolygon","coordinates":[[[[114.10512,22.54419],[114.10589,22.54446],[114.10621,22.54427],[114.10666,22.5403],[114.10617,22.5401],[114.10477,22.54051],[114.10519,22.54105],[114.10493,22.54312],[114.10533,22.54329],[114.10512,22.54419]]]]}},{"type":"Feature","properties":{"id":"ticari-lab-40","kind":"district-label","btype":"ticari","name":"The MixC"},"geometry":{"type":"Point","coordinates":[114.10577,22.54213]}},{"type":"Feature","properties":{"id":"ticari-41","kind":"district","btype":"ticari","name":"SCPG Center","lab":1},"geometry":{"type":"MultiPolygon","coordinates":[[[[114.00523,22.5473],[114.00682,22.54879],[114.009,22.54749],[114.00798,22.54644],[114.00646,22.54658],[114.00523,22.5473]]]]}},{"type":"Feature","properties":{"id":"ticari-lab-41","kind":"district-label","btype":"ticari","name":"SCPG Center"},"geometry":{"type":"Point","coordinates":[114.00712,22.54746]}},{"type":"Feature","properties":{"id":"ticari-42","kind":"district","btype":"ticari","name":"Shenzhen Software Park Phase 1","lab":1},"geometry":{"type":"MultiPolygon","coordinates":[[[[113.93379,22.54737],[113.9368,22.54737],[113.93685,22.54902],[113.93423,22.54907],[113.93379,22.54737]]]]}},{"type":"Feature","properties":{"id":"ticari-lab-42","kind":"district-label","btype":"ticari","name":"Shenzhen Software Park Phase 1"},"geometry":{"type":"Point","coordinates":[113.93541,22.54819]}},{"type":"Feature","properties":{"id":"ticari-43","kind":"district","btype":"ticari","name":"Dutch Flower Town","lab":1},"geometry":{"type":"MultiPolygon","coordinates":[[[[113.90617,22.54637],[113.90821,22.54637],[113.9082,22.54702],[113.90898,22.54703],[113.90898,22.54741],[113.90531,22.54773],[113.90525,22.54723],[113.90499,22.54723],[113.90494,22.5463],[113.90532,22.54553],[113.90618,22.54554],[113.90617,22.54637]]]]}},{"type":"Feature","properties":{"id":"ticari-lab-43","kind":"district-label","btype":"ticari","name":"Dutch Flower Town"},"geometry":{"type":"Point","coordinates":[113.90654,22.54682]}},{"type":"Feature","properties":{"id":"ticari-44","kind":"district","btype":"ticari","name":"International Finance Centre","lab":1},"geometry":{"type":"MultiPolygon","coordinates":[[[[114.15761,22.28656],[114.15984,22.28534],[114.15895,22.28396],[114.15666,22.28505],[114.1575,22.28583],[114.15659,22.2859],[114.15633,22.28672],[114.15761,22.28656]]]]}},{"type":"Feature","properties":{"id":"ticari-lab-44","kind":"district-label","btype":"ticari","name":"International Finance Centre"},"geometry":{"type":"Point","coordinates":[114.15809,22.28538]}},{"type":"Feature","properties":{"id":"ticari-45","kind":"district","btype":"ticari","name":"China Resources Qianhai Center","lab":1},"geometry":{"type":"MultiPolygon","coordinates":[[[[113.89309,22.53462],[113.89637,22.53478],[113.89644,22.53331],[113.89315,22.53325],[113.89309,22.53462]]]]}},{"type":"Feature","properties":{"id":"ticari-lab-45","kind":"district-label","btype":"ticari","name":"China Resources Qianhai Center"},"geometry":{"type":"Point","coordinates":[113.89478,22.53399]}},{"type":"Feature","properties":{"id":"ticari-46","kind":"district","btype":"ticari","name":"Eyes of the GBA","lab":1},"geometry":{"type":"MultiPolygon","coordinates":[[[[113.88012,22.55233],[113.87877,22.55253],[113.87863,22.54882],[113.8801,22.54867],[113.8802,22.55012],[113.87934,22.55042],[113.8794,22.55072],[113.8801,22.55069],[113.88012,22.55233]]]]}},{"type":"Feature","properties":{"id":"ticari-lab-46","kind":"district-label","btype":"ticari","name":"Eyes of the GBA"},"geometry":{"type":"Point","coordinates":[113.87939,22.55055]}},{"type":"Feature","properties":{"id":"ticari-47","kind":"district","btype":"ticari","name":"Qianhai Shenzhen-Hong Kong Youth Innovation and Entrepreneur Hub","lab":1},"geometry":{"type":"MultiPolygon","coordinates":[[[[113.89617,22.52023],[113.89749,22.5217],[113.89554,22.52319],[113.89431,22.52175],[113.89617,22.52023]]]]}},{"type":"Feature","properties":{"id":"ticari-lab-47","kind":"district-label","btype":"ticari","name":"Qianhai Shenzhen-Hong Kong Youth Innovation and Entrepreneur Hub"},"geometry":{"type":"Point","coordinates":[113.89589,22.52171]}},{"type":"Feature","properties":{"id":"ticari-48","kind":"district","btype":"ticari","name":"Haiya Mega Mall","lab":1},"geometry":{"type":"MultiPolygon","coordinates":[[[[113.90125,22.56089],[113.90249,22.5633],[113.90134,22.56456],[113.90033,22.56369],[113.90093,22.5631],[113.89994,22.56215],[113.90125,22.56089]]]]}},{"type":"Feature","properties":{"id":"ticari-lab-48","kind":"district-label","btype":"ticari","name":"Haiya Mega Mall"},"geometry":{"type":"Point","coordinates":[113.90125,22.56278]}},{"type":"Feature","properties":{"id":"ticari-49","kind":"district","btype":"ticari","name":"One Shenzhen Bay","lab":1},"geometry":{"type":"MultiPolygon","coordinates":[[[[113.93688,22.50842],[113.93857,22.50843],[113.93855,22.51175],[113.93717,22.51174],[113.93688,22.50842]]]]}},{"type":"Feature","properties":{"id":"ticari-lab-49","kind":"district-label","btype":"ticari","name":"One Shenzhen Bay"},"geometry":{"type":"Point","coordinates":[113.93779,22.51003]}},{"type":"Feature","properties":{"id":"ticari-50","kind":"district","btype":"ticari","name":"麻雀岭工业区","lab":1},"geometry":{"type":"MultiPolygon","coordinates":[[[[113.93376,22.54386],[113.93705,22.54409],[113.9371,22.54549],[113.93378,22.54543],[113.93376,22.54386]]]]}},{"type":"Feature","properties":{"id":"ticari-lab-50","kind":"district-label","btype":"ticari","name":"麻雀岭工业区"},"geometry":{"type":"Point","coordinates":[113.93539,22.54472]}},{"type":"Feature","properties":{"id":"ticari-51","kind":"district","btype":"ticari","name":"Ecology Plaza","lab":1},"geometry":{"type":"MultiPolygon","coordinates":[[[[113.98017,22.53969],[113.97994,22.54141],[113.98029,22.54141],[113.98029,22.54175],[113.97969,22.54215],[113.97983,22.54331],[113.97903,22.54318],[113.97837,22.54257],[113.97881,22.54241],[113.97865,22.54199],[113.97827,22.54199],[113.97869,22.54109],[113.97808,22.5406],[113.979,22.53974],[113.98017,22.53969]]]]}},{"type":"Feature","properties":{"id":"ticari-lab-51","kind":"district-label","btype":"ticari","name":"Ecology Plaza"},"geometry":{"type":"Point","coordinates":[113.97927,22.54135]}},{"type":"Feature","properties":{"id":"ticari-52","kind":"district","btype":"ticari","name":"One Excellence","lab":1},"geometry":{"type":"MultiPolygon","coordinates":[[[[113.89312,22.53304],[113.89646,22.53308],[113.89648,22.53176],[113.89327,22.5316],[113.89312,22.53304]]]]}},{"type":"Feature","properties":{"id":"ticari-lab-52","kind":"district-label","btype":"ticari","name":"One Excellence"},"geometry":{"type":"Point","coordinates":[113.89481,22.53237]}},{"type":"Feature","properties":{"id":"ticari-53","kind":"district","btype":"ticari","name":"Bao’an Fucheng Wanda Plaza","lab":1},"geometry":{"type":"MultiPolygon","coordinates":[[[[113.88459,22.57554],[113.88541,22.57621],[113.88887,22.57278],[113.88822,22.57221],[113.88459,22.57554]]]]}},{"type":"Feature","properties":{"id":"ticari-lab-53","kind":"district-label","btype":"ticari","name":"Bao’an Fucheng Wanda Plaza"},"geometry":{"type":"Point","coordinates":[113.88671,22.57424]}},{"type":"Feature","properties":{"id":"ticari-54","kind":"district","btype":"ticari","name":"大铲湾蓝色未来科技园","lab":1},"geometry":{"type":"MultiPolygon","coordinates":[[[[113.85486,22.55616],[113.85664,22.55664],[113.85582,22.55891],[113.8542,22.55843],[113.85486,22.55616]]]]}},{"type":"Feature","properties":{"id":"ticari-lab-54","kind":"district-label","btype":"ticari","name":"大铲湾蓝色未来科技园"},"geometry":{"type":"Point","coordinates":[113.85539,22.55752]}},{"type":"Feature","properties":{"id":"ticari-55","kind":"district","btype":"ticari","name":"Guangxingyuan Internet Industry Base","lab":1},"geometry":{"type":"MultiPolygon","coordinates":[[[[113.86589,22.56647],[113.86488,22.56426],[113.86613,22.5634],[113.86755,22.56489],[113.86752,22.56525],[113.86589,22.56647]]]]}},{"type":"Feature","properties":{"id":"ticari-lab-55","kind":"district-label","btype":"ticari","name":"Guangxingyuan Internet Industry Base"},"geometry":{"type":"Point","coordinates":[113.86619,22.56487]}},{"type":"Feature","properties":{"id":"ticari-56","kind":"district","btype":"ticari","name":"园西工业区","lab":1},"geometry":{"type":"MultiPolygon","coordinates":[[[[113.93853,22.54856],[113.94028,22.54852],[113.94031,22.5463],[113.93821,22.54626],[113.93808,22.54716],[113.93854,22.54717],[113.93853,22.54856]]]]}},{"type":"Feature","properties":{"id":"ticari-lab-56","kind":"district-label","btype":"ticari","name":"园西工业区"},"geometry":{"type":"Point","coordinates":[113.93932,22.54736]}},{"type":"Feature","properties":{"id":"ticari-57","kind":"district","btype":"ticari","name":"q-plex","lab":1},"geometry":{"type":"MultiPolygon","coordinates":[[[[113.97393,22.55485],[113.97499,22.55592],[113.97644,22.55633],[113.97727,22.55567],[113.97529,22.55369],[113.97393,22.55485]]]]}},{"type":"Feature","properties":{"id":"ticari-lab-57","kind":"district-label","btype":"ticari","name":"q-plex"},"geometry":{"type":"Point","coordinates":[113.97557,22.55514]}},{"type":"Feature","properties":{"id":"ticari-58","kind":"district","btype":"ticari","name":"iN CITY PARK","lab":1},"geometry":{"type":"MultiPolygon","coordinates":[[[[114.09223,22.54316],[114.09512,22.54319],[114.09514,22.54159],[114.09226,22.54162],[114.09223,22.54316]]]]}},{"type":"Feature","properties":{"id":"ticari-lab-58","kind":"district-label","btype":"ticari","name":"iN CITY PARK"},"geometry":{"type":"Point","coordinates":[114.0937,22.54239]}},{"type":"Feature","properties":{"id":"ticari-59","kind":"district","btype":"ticari","name":"Fuzhongfu Commercial City","lab":1},"geometry":{"type":"MultiPolygon","coordinates":[[[[113.86732,22.56837],[113.86934,22.56672],[113.87031,22.56775],[113.8683,22.56965],[113.86732,22.56837]]]]}},{"type":"Feature","properties":{"id":"ticari-lab-59","kind":"district-label","btype":"ticari","name":"Fuzhongfu Commercial City"},"geometry":{"type":"Point","coordinates":[113.8688,22.56815]}}]}