{"type":"FeatureCollection","features":[{"type":"Feature","properties":{"id":"egitim-0","kind":"district","btype":"egitim","name":"Humanitas University","lab":1},"geometry":{"type":"MultiPolygon","coordinates":[[[[9.16877,45.37039],[9.17047,45.37091],[9.17068,45.37115],[9.17036,45.37215],[9.17408,45.3711],[9.17396,45.37092],[9.17509,45.37029],[9.17369,45.36891],[9.1726,45.36904],[9.16998,45.36859],[9.1693,45.36874],[9.16877,45.37039]]]]}},{"type":"Feature","properties":{"id":"egitim-lab-0","kind":"district-label","btype":"egitim","name":"Humanitas University"},"geometry":{"type":"Point","coordinates":[9.17175,45.37015]}},{"type":"Feature","properties":{"id":"egitim-1","kind":"district","btype":"egitim","name":"University of Milan","lab":1},"geometry":{"type":"MultiPolygon","coordinates":[[[[9.22671,45.47659],[9.22985,45.47679],[9.22989,45.47482],[9.22909,45.47482],[9.22911,45.47436],[9.22675,45.47433],[9.22671,45.47659]]]]}},{"type":"Feature","properties":{"id":"egitim-lab-1","kind":"district-label","btype":"egitim","name":"University of Milan"},"geometry":{"type":"Point","coordinates":[9.22826,45.47557]}},{"type":"Feature","properties":{"id":"egitim-2","kind":"district","btype":"egitim","name":"Politecnico di Milano, Sede Milano Città Studi","lab":1},"geometry":{"type":"MultiPolygon","coordinates":[[[[9.23163,45.4778],[9.23169,45.47844],[9.23043,45.47843],[9.23021,45.47919],[9.2342,45.47935],[9.23423,45.4771],[9.23119,45.47708],[9.23118,45.4778],[9.23163,45.4778]]]]}},{"type":"Feature","properties":{"id":"egitim-lab-2","kind":"district-label","btype":"egitim","name":"Politecnico di Milano, Sede Milano Città Studi"},"geometry":{"type":"Point","coordinates":[9.23258,45.47825]}},{"type":"Feature","properties":{"id":"egitim-3","kind":"district","btype":"egitim","name":"Bocconi University","lab":1},"geometry":{"type":"MultiPolygon","coordinates":[[[[9.18816,45.44831],[9.1904,45.44852],[9.19021,45.45085],[9.18765,45.45148],[9.18719,45.44989],[9.18824,45.44993],[9.18833,45.44946],[9.1879,45.44942],[9.18816,45.44831]]]]}},{"type":"Feature","properties":{"id":"egitim-lab-3","kind":"district-label","btype":"egitim","name":"Bocconi University"},"geometry":{"type":"Point","coordinates":[9.18894,45.44986]}},{"type":"Feature","properties":{"id":"egitim-4","kind":"district","btype":"egitim","name":"Politecnico di Milano, Campus Bovisa Candiani","lab":1},"geometry":{"type":"MultiPolygon","coordinates":[[[[9.16382,45.50529],[9.16707,45.5065],[9.16818,45.50452],[9.16552,45.50409],[9.16542,45.50385],[9.16525,45.50424],[9.1643,45.50404],[9.16382,45.50529]]]]}},{"type":"Feature","properties":{"id":"egitim-lab-4","kind":"district-label","btype":"egitim","name":"Politecnico di Milano, Campus Bovisa Candiani"},"geometry":{"type":"Point","coordinates":[9.16601,45.50509]}},{"type":"Feature","properties":{"id":"egitim-5","kind":"district","btype":"egitim","name":"Polytechnic University of Milan, Milan Site","lab":1},"geometry":{"type":"MultiPolygon","coordinates":[[[[9.16382,45.50529],[9.16707,45.5065],[9.16818,45.50452],[9.16552,45.50409],[9.16542,45.50385],[9.16525,45.50424],[9.1643,45.50404],[9.16382,45.50529]]]]}},{"type":"Feature","properties":{"id":"egitim-lab-5","kind":"district-label","btype":"egitim","name":"Polytechnic University of Milan, Milan Site"},"geometry":{"type":"Point","coordinates":[9.16601,45.50509]}},{"type":"Feature","properties":{"id":"egitim-6","kind":"district","btype":"egitim","name":"Università degli Studi di Milano","lab":1},"geometry":{"type":"MultiPolygon","coordinates":[[[[9.23423,45.47683],[9.23426,45.4744],[9.23249,45.47439],[9.23247,45.47589],[9.23025,45.4756],[9.23023,45.47681],[9.23423,45.47683]]]]}},{"type":"Feature","properties":{"id":"egitim-lab-6","kind":"district-label","btype":"egitim","name":"Università degli Studi di Milano"},"geometry":{"type":"Point","coordinates":[9.23263,45.47585]}},{"type":"Feature","properties":{"id":"egitim-7","kind":"district","btype":"egitim","name":"Politecnico di Milano, Sede Milano Bovisa","lab":1},"geometry":{"type":"MultiPolygon","coordinates":[[[[9.15491,45.50071],[9.1531,45.50143],[9.15351,45.50187],[9.15466,45.50192],[9.15459,45.50244],[9.15596,45.50253],[9.15605,45.50205],[9.15742,45.50237],[9.15841,45.50225],[9.15853,45.50154],[9.15491,45.50071]]]]}},{"type":"Feature","properties":{"id":"egitim-lab-7","kind":"district-label","btype":"egitim","name":"Politecnico di Milano, Sede Milano Bovisa"},"geometry":{"type":"Point","coordinates":[9.15586,45.50165]}},{"type":"Feature","properties":{"id":"egitim-8","kind":"district","btype":"egitim","name":"LIUC - Università Carlo Cattaneo","lab":1},"geometry":{"type":"MultiPolygon","coordinates":[[[[8.90312,45.61101],[8.90224,45.61071],[8.89947,45.61371],[8.90045,45.61402],[8.90165,45.61289],[8.90122,45.61373],[8.90164,45.6139],[8.90317,45.61208],[8.90324,45.61188],[8.90265,45.61172],[8.90312,45.61101]]]]}},{"type":"Feature","properties":{"id":"egitim-lab-8","kind":"district-label","btype":"egitim","name":"LIUC - Università Carlo Cattaneo"},"geometry":{"type":"Point","coordinates":[8.90159,45.61249]}},{"type":"Feature","properties":{"id":"egitim-9","kind":"district","btype":"egitim","name":"Università degli Studi di Milano - Sede Centrale","lab":1},"geometry":{"type":"MultiPolygon","coordinates":[[[[9.1927,45.45942],[9.19312,45.46047],[9.19375,45.46037],[9.19475,45.46153],[9.19565,45.46136],[9.19632,45.46079],[9.19474,45.45911],[9.19447,45.45922],[9.19404,45.45878],[9.1927,45.45942]]]]}},{"type":"Feature","properties":{"id":"egitim-lab-9","kind":"district-label","btype":"egitim","name":"Università degli Studi di Milano - Sede Centrale"},"geometry":{"type":"Point","coordinates":[9.19449,45.46017]}},{"type":"Feature","properties":{"id":"egitim-10","kind":"district","btype":"egitim","name":"Aloisianum","lab":1},"geometry":{"type":"MultiPolygon","coordinates":[[[[8.77799,45.65653],[8.7795,45.65582],[8.77964,45.65608],[8.78031,45.65599],[8.78062,45.65693],[8.78042,45.65709],[8.78118,45.65698],[8.7812,45.65729],[8.78073,45.65736],[8.78044,45.65784],[8.77986,45.65787],[8.77988,45.6581],[8.77867,45.6581],[8.77799,45.65653]]]]}},{"type":"Feature","properties":{"id":"egitim-lab-10","kind":"district-label","btype":"egitim","name":"Aloisianum"},"geometry":{"type":"Point","coordinates":[8.77947,45.65703]}},{"type":"Feature","properties":{"id":"egitim-11","kind":"district","btype":"egitim","name":"Università degli Studi di Milano Bicocca","lab":1},"geometry":{"type":"MultiPolygon","coordinates":[[[[9.21523,45.51879],[9.21346,45.51931],[9.21229,45.51721],[9.21405,45.51672],[9.21523,45.51879]]]]}},{"type":"Feature","properties":{"id":"egitim-lab-11","kind":"district-label","btype":"egitim","name":"Università degli Studi di Milano Bicocca"},"geometry":{"type":"Point","coordinates":[9.21376,45.51801]}},{"type":"Feature","properties":{"id":"egitim-12","kind":"district","btype":"egitim","name":"Nuovo Campus Università Bocconi","lab":1},"geometry":{"type":"MultiPolygon","coordinates":[[[[9.18785,45.44603],[9.18707,45.44784],[9.18904,45.44807],[9.1891,45.44742],[9.18972,45.44736],[9.19005,45.44686],[9.1893,45.44668],[9.18949,45.4463],[9.18785,45.44603]]]]}},{"type":"Feature","properties":{"id":"egitim-lab-12","kind":"district-label","btype":"egitim","name":"Nuovo Campus Università Bocconi"},"geometry":{"type":"Point","coordinates":[9.18846,45.44708]}},{"type":"Feature","properties":{"id":"egitim-13","kind":"district","btype":"egitim","name":"Università Vita-Salute San Raffaele","lab":1},"geometry":{"type":"MultiPolygon","coordinates":[[[[9.26297,45.507],[9.26716,45.50751],[9.26746,45.50626],[9.26635,45.50614],[9.26623,45.50662],[9.26316,45.50626],[9.26297,45.507]]]]}},{"type":"Feature","properties":{"id":"egitim-lab-13","kind":"district-label","btype":"egitim","name":"Università Vita-Salute San Raffaele"},"geometry":{"type":"Point","coordinates":[9.26541,45.50682]}}]}