{"type":"FeatureCollection","features":[{"type":"Feature","properties":{"id":"ticari-0","kind":"district","btype":"ticari","name":"MIND - Milano Innovation District","lab":1},"geometry":{"type":"MultiPolygon","coordinates":[[[[9.10243,45.5229],[9.10277,45.52129],[9.10329,45.52079],[9.10523,45.52184],[9.10544,45.52142],[9.10582,45.52151],[9.1074,45.52237],[9.11456,45.51844],[9.11692,45.51599],[9.11466,45.51556],[9.10674,45.51532],[9.09908,45.5179],[9.09998,45.51884],[9.0997,45.5194],[9.09692,45.52025],[9.09514,45.51939],[9.0897,45.52139],[9.09226,45.52244],[9.09322,45.52357],[9.09472,45.52279],[9.0964,45.52394],[9.1002,45.52193],[9.10243,45.5229]]]]}},{"type":"Feature","properties":{"id":"ticari-lab-0","kind":"district-label","btype":"ticari","name":"MIND - Milano Innovation District"},"geometry":{"type":"Point","coordinates":[9.10428,45.51928]}},{"type":"Feature","properties":{"id":"ticari-1","kind":"district","btype":"ticari","name":"Ortomercato","lab":1},"geometry":{"type":"MultiPolygon","coordinates":[[[[9.22954,45.45608],[9.23652,45.45613],[9.23597,45.4501],[9.23458,45.44816],[9.23352,45.44744],[9.23202,45.44701],[9.23048,45.44744],[9.23044,45.44826],[9.22961,45.44883],[9.22954,45.45608]]]]}},{"type":"Feature","properties":{"id":"ticari-lab-1","kind":"district-label","btype":"ticari","name":"Ortomercato"},"geometry":{"type":"Point","coordinates":[9.2328,45.45204]}},{"type":"Feature","properties":{"id":"ticari-2","kind":"district","btype":"ticari","name":"Centro Direzionale Milanofiori","lab":1},"geometry":{"type":"MultiPolygon","coordinates":[[[[9.14735,45.39692],[9.14548,45.39775],[9.14543,45.39821],[9.14732,45.40157],[9.14777,45.40185],[9.14769,45.4023],[9.14818,45.40307],[9.15286,45.40175],[9.15291,45.40128],[9.15423,45.40069],[9.15132,45.39581],[9.15039,45.396],[9.14881,45.39332],[9.1457,45.39425],[9.14735,45.39692]]]]}},{"type":"Feature","properties":{"id":"ticari-lab-2","kind":"district-label","btype":"ticari","name":"Centro Direzionale Milanofiori"},"geometry":{"type":"Point","coordinates":[9.14941,45.39855]}},{"type":"Feature","properties":{"id":"ticari-3","kind":"district","btype":"ticari","name":"Campo Prova Pneumatici Pirelli","lab":1},"geometry":{"type":"MultiPolygon","coordinates":[[[[8.67714,45.62775],[8.67396,45.62673],[8.67035,45.6272],[8.66856,45.62883],[8.66687,45.62719],[8.67075,45.62625],[8.68083,45.62499],[8.68077,45.62681],[8.68023,45.62751],[8.67915,45.62801],[8.67714,45.62775]]]]}},{"type":"Feature","properties":{"id":"ticari-lab-3","kind":"district-label","btype":"ticari","name":"Campo Prova Pneumatici Pirelli"},"geometry":{"type":"Point","coordinates":[8.67519,45.62668]}},{"type":"Feature","properties":{"id":"ticari-4","kind":"district","btype":"ticari","name":"Scalo Milano","lab":1},"geometry":{"type":"MultiPolygon","coordinates":[[[[9.21167,45.35922],[9.21706,45.36016],[9.21954,45.35826],[9.22052,45.35932],[9.21943,45.3608],[9.21898,45.36295],[9.21777,45.36297],[9.21727,45.36289],[9.21719,45.36244],[9.21127,45.36127],[9.21167,45.35922]]]]}},{"type":"Feature","properties":{"id":"ticari-lab-4","kind":"district-label","btype":"ticari","name":"Scalo Milano"},"geometry":{"type":"Point","coordinates":[9.21616,45.36077]}},{"type":"Feature","properties":{"id":"ticari-5","kind":"district","btype":"ticari","name":"Milano 3 City","lab":1},"geometry":{"type":"MultiPolygon","coordinates":[[[[9.15376,45.35455],[9.15211,45.35528],[9.1513,45.35682],[9.14905,45.35829],[9.14753,45.35766],[9.14782,45.35648],[9.14564,45.35526],[9.1456,45.355],[9.14674,45.35376],[9.14777,45.35326],[9.14816,45.35337],[9.14872,45.35432],[9.14992,45.35443],[9.15253,45.35371],[9.15353,45.35413],[9.15338,45.35431],[9.15376,45.35455]]]]}},{"type":"Feature","properties":{"id":"ticari-lab-5","kind":"district-label","btype":"ticari","name":"Milano 3 City"},"geometry":{"type":"Point","coordinates":[9.14933,45.35554]}},{"type":"Feature","properties":{"id":"ticari-6","kind":"district","btype":"ticari","name":"Mondadori","lab":1},"geometry":{"type":"MultiPolygon","coordinates":[[[[9.29631,45.4737],[9.29622,45.47328],[9.30239,45.47377],[9.30174,45.47708],[9.29994,45.47662],[9.29771,45.47675],[9.2963,45.47641],[9.29591,45.47479],[9.29605,45.47381],[9.29631,45.4737]]]]}},{"type":"Feature","properties":{"id":"ticari-lab-6","kind":"district-label","btype":"ticari","name":"Mondadori"},"geometry":{"type":"Point","coordinates":[9.29908,45.47508]}},{"type":"Feature","properties":{"id":"ticari-7","kind":"district","btype":"ticari","name":"Centro Commerciale Brianza","lab":1},"geometry":{"type":"MultiPolygon","coordinates":[[[[9.18344,45.57427],[9.17882,45.57285],[9.17906,45.57228],[9.17815,45.57208],[9.17882,45.57063],[9.1786,45.57059],[9.17716,45.57126],[9.17653,45.57499],[9.18052,45.57607],[9.18152,45.5759],[9.18344,45.57427]]]]}},{"type":"Feature","properties":{"id":"ticari-lab-7","kind":"district-label","btype":"ticari","name":"Centro Commerciale Brianza"},"geometry":{"type":"Point","coordinates":[9.1793,45.57399]}},{"type":"Feature","properties":{"id":"ticari-8","kind":"district","btype":"ticari","name":"Centro Tessile Milano","lab":1},"geometry":{"type":"MultiPolygon","coordinates":[[[[9.34688,45.51634],[9.34347,45.51581],[9.34415,45.5129],[9.34593,45.51298],[9.34597,45.51249],[9.3469,45.5125],[9.34721,45.51319],[9.35006,45.51363],[9.34957,45.51514],[9.34737,45.51481],[9.34688,45.51634]]]]}},{"type":"Feature","properties":{"id":"ticari-lab-8","kind":"district-label","btype":"ticari","name":"Centro Tessile Milano"},"geometry":{"type":"Point","coordinates":[9.34636,45.51439]}},{"type":"Feature","properties":{"id":"ticari-9","kind":"district","btype":"ticari","name":"Segrate 4 Porte","lab":1},"geometry":{"type":"MultiPolygon","coordinates":[[[[9.29849,45.47023],[9.29734,45.47026],[9.29743,45.47061],[9.29708,45.47066],[9.29756,45.47281],[9.30282,45.47283],[9.30342,45.47132],[9.30346,45.47071],[9.30263,45.47053],[9.29856,45.47085],[9.29849,45.47023]]]]}},{"type":"Feature","properties":{"id":"ticari-lab-9","kind":"district-label","btype":"ticari","name":"Segrate 4 Porte"},"geometry":{"type":"Point","coordinates":[9.30023,45.47166]}},{"type":"Feature","properties":{"id":"ticari-10","kind":"district","btype":"ticari","name":"Caldera Business Park","lab":1},"geometry":{"type":"MultiPolygon","coordinates":[[[[9.1007,45.47669],[9.10155,45.4774],[9.10141,45.47785],[9.10217,45.47818],[9.10286,45.47766],[9.10376,45.47782],[9.10457,45.47847],[9.10553,45.47836],[9.10628,45.47784],[9.10405,45.47461],[9.10216,45.47489],[9.1007,45.47669]]]]}},{"type":"Feature","properties":{"id":"ticari-lab-10","kind":"district-label","btype":"ticari","name":"Caldera Business Park"},"geometry":{"type":"Point","coordinates":[9.10345,45.47663]}},{"type":"Feature","properties":{"id":"ticari-11","kind":"district","btype":"ticari","name":"Parco Commerciale di Corsico","lab":1},"geometry":{"type":"MultiPolygon","coordinates":[[[[9.08329,45.43092],[9.07783,45.42891],[9.07721,45.42937],[9.07774,45.42972],[9.07717,45.43011],[9.07855,45.43068],[9.07811,45.43124],[9.08162,45.43333],[9.08329,45.43092]]]]}},{"type":"Feature","properties":{"id":"ticari-lab-11","kind":"district-label","btype":"ticari","name":"Parco Commerciale di Corsico"},"geometry":{"type":"Point","coordinates":[9.08027,45.43102]}},{"type":"Feature","properties":{"id":"ticari-12","kind":"district","btype":"ticari","name":"Mediaset","lab":1},"geometry":{"type":"MultiPolygon","coordinates":[[[[9.26408,45.52228],[9.26499,45.5258],[9.26427,45.52603],[9.26149,45.52497],[9.26109,45.52423],[9.26138,45.52352],[9.26122,45.52256],[9.26408,45.52228]]]]}},{"type":"Feature","properties":{"id":"ticari-lab-12","kind":"district-label","btype":"ticari","name":"Mediaset"},"geometry":{"type":"Point","coordinates":[9.26305,45.52406]}},{"type":"Feature","properties":{"id":"ticari-13","kind":"district","btype":"ticari","name":"Parco commerciale di Baranzate","lab":1},"geometry":{"type":"MultiPolygon","coordinates":[[[[9.10652,45.53344],[9.1054,45.53317],[9.10501,45.53003],[9.10771,45.5303],[9.10795,45.53201],[9.10747,45.53206],[9.10751,45.53274],[9.10652,45.53344]]]]}},{"type":"Feature","properties":{"id":"ticari-lab-13","kind":"district-label","btype":"ticari","name":"Parco commerciale di Baranzate"},"geometry":{"type":"Point","coordinates":[9.10642,45.53161]}},{"type":"Feature","properties":{"id":"ticari-14","kind":"district","btype":"ticari","name":"Malpensa Fiere","lab":1},"geometry":{"type":"MultiPolygon","coordinates":[[[[8.85311,45.63694],[8.85299,45.63412],[8.85051,45.63413],[8.85025,45.63598],[8.85048,45.63725],[8.85311,45.63694]]]]}},{"type":"Feature","properties":{"id":"ticari-lab-14","kind":"district-label","btype":"ticari","name":"Malpensa Fiere"},"geometry":{"type":"Point","coordinates":[8.85169,45.63563]}},{"type":"Feature","properties":{"id":"ticari-15","kind":"district","btype":"ticari","name":"Novovillage","lab":1},"geometry":{"type":"MultiPolygon","coordinates":[[[[9.23566,45.55268],[9.23546,45.55511],[9.23618,45.55521],[9.23607,45.5556],[9.23686,45.55567],[9.23693,45.55511],[9.23759,45.55529],[9.23904,45.55485],[9.2386,45.55331],[9.23801,45.55323],[9.23807,45.55299],[9.23566,45.55268]]]]}},{"type":"Feature","properties":{"id":"ticari-lab-15","kind":"district-label","btype":"ticari","name":"Novovillage"},"geometry":{"type":"Point","coordinates":[9.23706,45.55412]}},{"type":"Feature","properties":{"id":"ticari-16","kind":"district","btype":"ticari","name":"Mizar Park","lab":1},"geometry":{"type":"MultiPolygon","coordinates":[[[[8.83339,45.63331],[8.83447,45.63405],[8.83498,45.63349],[8.83665,45.6345],[8.83324,45.63675],[8.83214,45.63631],[8.8334,45.63486],[8.83227,45.63403],[8.83339,45.63331]]]]}},{"type":"Feature","properties":{"id":"ticari-lab-16","kind":"district-label","btype":"ticari","name":"Mizar Park"},"geometry":{"type":"Point","coordinates":[8.83413,45.63491]}},{"type":"Feature","properties":{"id":"ticari-17","kind":"district","btype":"ticari","name":"Segreen Business Park","lab":1},"geometry":{"type":"MultiPolygon","coordinates":[[[[9.30419,45.47682],[9.30537,45.4769],[9.30538,45.47739],[9.30682,45.47735],[9.30732,45.47763],[9.30713,45.47603],[9.30738,45.47505],[9.30659,45.47508],[9.30518,45.47442],[9.30439,45.47469],[9.30414,45.47489],[9.30414,45.47608],[9.30419,45.47682]]]]}},{"type":"Feature","properties":{"id":"ticari-lab-17","kind":"district-label","btype":"ticari","name":"Segreen Business Park"},"geometry":{"type":"Point","coordinates":[9.30572,45.47598]}},{"type":"Feature","properties":{"id":"ticari-18","kind":"district","btype":"ticari","name":"Centro Direzionale Commerciale Milano Oltre","lab":1},"geometry":{"type":"MultiPolygon","coordinates":[[[[9.30501,45.4979],[9.305,45.49583],[9.30524,45.49555],[9.30815,45.49553],[9.30815,45.49759],[9.3068,45.49765],[9.3068,45.49828],[9.30501,45.4979]]]]}},{"type":"Feature","properties":{"id":"ticari-lab-18","kind":"district-label","btype":"ticari","name":"Centro Direzionale Commerciale Milano Oltre"},"geometry":{"type":"Point","coordinates":[9.30652,45.49673]}},{"type":"Feature","properties":{"id":"ticari-19","kind":"district","btype":"ticari","name":"Il Destriero Shopping Center","lab":1},"geometry":{"type":"MultiPolygon","coordinates":[[[[8.95005,45.47892],[8.94865,45.48101],[8.94588,45.48104],[8.94674,45.47856],[8.95005,45.47892]]]]}},{"type":"Feature","properties":{"id":"ticari-lab-19","kind":"district-label","btype":"ticari","name":"Il Destriero Shopping Center"},"geometry":{"type":"Point","coordinates":[8.94781,45.47983]}},{"type":"Feature","properties":{"id":"ticari-20","kind":"district","btype":"ticari","name":"Centro Direzionale Colleoni","lab":1},"geometry":{"type":"MultiPolygon","coordinates":[[[[9.33531,45.57283],[9.33783,45.57213],[9.33658,45.56994],[9.33516,45.56991],[9.33384,45.57028],[9.33531,45.57283]]]]}},{"type":"Feature","properties":{"id":"ticari-lab-20","kind":"district-label","btype":"ticari","name":"Centro Direzionale Colleoni"},"geometry":{"type":"Point","coordinates":[9.33583,45.57125]}},{"type":"Feature","properties":{"id":"ticari-21","kind":"district","btype":"ticari","name":"Centro Commerciale Vulcano","lab":1},"geometry":{"type":"MultiPolygon","coordinates":[[[[9.25443,45.54998],[9.25594,45.55161],[9.25652,45.5518],[9.2582,45.55092],[9.25705,45.54895],[9.25658,45.54869],[9.25558,45.54897],[9.25443,45.54998]]]]}},{"type":"Feature","properties":{"id":"ticari-lab-21","kind":"district-label","btype":"ticari","name":"Centro Commerciale Vulcano"},"geometry":{"type":"Point","coordinates":[9.25636,45.55024]}},{"type":"Feature","properties":{"id":"ticari-22","kind":"district","btype":"ticari","name":"Bennet","lab":1},"geometry":{"type":"MultiPolygon","coordinates":[[[[9.30062,45.55694],[9.30156,45.55754],[9.30153,45.55813],[9.304,45.55802],[9.30411,45.55777],[9.30388,45.55611],[9.30355,45.55578],[9.30109,45.55566],[9.30062,45.55694]]]]}},{"type":"Feature","properties":{"id":"ticari-lab-22","kind":"district-label","btype":"ticari","name":"Bennet"},"geometry":{"type":"Point","coordinates":[9.30248,45.55687]}},{"type":"Feature","properties":{"id":"ticari-23","kind":"district","btype":"ticari","name":"Galleria Borromea Shopping Center","lab":1},"geometry":{"type":"MultiPolygon","coordinates":[[[[9.2927,45.42202],[9.29214,45.42369],[9.29573,45.4241],[9.29631,45.42263],[9.2927,45.42202]]]]}},{"type":"Feature","properties":{"id":"ticari-lab-23","kind":"district-label","btype":"ticari","name":"Galleria Borromea Shopping Center"},"geometry":{"type":"Point","coordinates":[9.29419,45.4231]}},{"type":"Feature","properties":{"id":"ticari-24","kind":"district","btype":"ticari","name":"Garden Tuttoverde","lab":1},"geometry":{"type":"MultiPolygon","coordinates":[[[[9.22646,45.64666],[9.22816,45.64666],[9.22849,45.64418],[9.22574,45.64395],[9.22575,45.64491],[9.22624,45.64493],[9.22614,45.646],[9.22637,45.64601],[9.22646,45.64666]]]]}},{"type":"Feature","properties":{"id":"ticari-lab-24","kind":"district-label","btype":"ticari","name":"Garden Tuttoverde"},"geometry":{"type":"Point","coordinates":[9.22718,45.64525]}}]}