{"type":"FeatureCollection","features":[{"type":"Feature","properties":{"id":"ih-eczane-0","kind":"poi","name":"Farmacia Bligny","theme":"eczane","lab":1},"geometry":{"type":"Point","coordinates":[9.19242,45.45105]}},{"type":"Feature","properties":{"id":"ih-eczane-1","kind":"poi","name":"Farmacia Buon Gesù","theme":"eczane","lab":1},"geometry":{"type":"Point","coordinates":[8.88381,45.61651]}},{"type":"Feature","properties":{"id":"ih-eczane-2","kind":"poi","name":"Vercesi sas","theme":"eczane","lab":1},"geometry":{"type":"Point","coordinates":[9.1318,45.50944]}},{"type":"Feature","properties":{"id":"ih-eczane-3","kind":"poi","name":"Varedo","theme":"eczane","lab":1},"geometry":{"type":"Point","coordinates":[9.15299,45.5969]}},{"type":"Feature","properties":{"id":"ih-eczane-4","kind":"poi","name":"Tolstoj","theme":"eczane","lab":1},"geometry":{"type":"Point","coordinates":[9.15075,45.45117]}},{"type":"Feature","properties":{"id":"ih-eczane-5","kind":"poi","name":"Tibaldi SNC","theme":"eczane","lab":1},"geometry":{"type":"Point","coordinates":[9.17918,45.44373]}},{"type":"Feature","properties":{"id":"ih-eczane-6","kind":"poi","name":"Tadini","theme":"eczane","lab":1},"geometry":{"type":"Point","coordinates":[9.20624,45.46753]}},{"type":"Feature","properties":{"id":"ih-eczane-7","kind":"poi","name":"Taddei snc","theme":"eczane","lab":1},"geometry":{"type":"Point","coordinates":[9.19285,45.50226]}},{"type":"Feature","properties":{"id":"ih-eczane-8","kind":"poi","name":"Sant'Agostino","theme":"eczane","lab":1},"geometry":{"type":"Point","coordinates":[9.17723,45.45874]}},{"type":"Feature","properties":{"id":"ih-eczane-9","kind":"poi","name":"San Lorenzo","theme":"eczane","lab":1},"geometry":{"type":"Point","coordinates":[8.96238,45.56706]}},{"type":"Feature","properties":{"id":"ih-eczane-10","kind":"poi","name":"San Guido","theme":"eczane","lab":1},"geometry":{"type":"Point","coordinates":[9.13753,45.50412]}},{"type":"Feature","properties":{"id":"ih-eczane-11","kind":"poi","name":"Salvi","theme":"eczane","lab":1},"geometry":{"type":"Point","coordinates":[9.18856,45.47524]}},{"type":"Feature","properties":{"id":"ih-eczane-12","kind":"poi","name":"S. Spirito snc","theme":"eczane","lab":1},"geometry":{"type":"Point","coordinates":[9.22555,45.51859]}},{"type":"Feature","properties":{"id":"ih-eczane-13","kind":"poi","name":"S. Elena","theme":"eczane","lab":1},"geometry":{"type":"Point","coordinates":[9.10878,45.47115]}},{"type":"Feature","properties":{"id":"ih-eczane-14","kind":"poi","name":"S. Camillo Snc","theme":"eczane","lab":1},"geometry":{"type":"Point","coordinates":[9.22203,45.45743]}},{"type":"Feature","properties":{"id":"ih-eczane-15","kind":"poi","name":"S. Anna Dr.Ssa Bravi Cristina","theme":"eczane","lab":1},"geometry":{"type":"Point","coordinates":[9.13412,45.4736]}},{"type":"Feature","properties":{"id":"ih-eczane-16","kind":"poi","name":"Rondò Farini","theme":"eczane","lab":1},"geometry":{"type":"Point","coordinates":[9.18401,45.49757]}},{"type":"Feature","properties":{"id":"ih-eczane-17","kind":"poi","name":"Rombon","theme":"eczane","lab":1},"geometry":{"type":"Point","coordinates":[9.24081,45.4864]}},{"type":"Feature","properties":{"id":"ih-eczane-18","kind":"poi","name":"Roma snc","theme":"eczane","lab":1},"geometry":{"type":"Point","coordinates":[9.20576,45.44925]}},{"type":"Feature","properties":{"id":"ih-eczane-19","kind":"poi","name":"QT8","theme":"eczane","lab":1},"geometry":{"type":"Point","coordinates":[9.14232,45.48623]}},{"type":"Feature","properties":{"id":"ih-eczane-20","kind":"poi","name":"Ponte Nuovo","theme":"eczane","lab":1},"geometry":{"type":"Point","coordinates":[9.23682,45.50768]}},{"type":"Feature","properties":{"id":"ih-eczane-21","kind":"poi","name":"Parafarmacia degli Arcimboldi","theme":"eczane","lab":1},"geometry":{"type":"Point","coordinates":[9.21165,45.51463]}},{"type":"Feature","properties":{"id":"ih-eczane-22","kind":"poi","name":"Parafarmacia La Boutique del Benessere","theme":"eczane","lab":1},"geometry":{"type":"Point","coordinates":[9.19215,45.59331]}},{"type":"Feature","properties":{"id":"ih-eczane-23","kind":"poi","name":"Parafarmacia Giada","theme":"eczane","lab":1},"geometry":{"type":"Point","coordinates":[9.07467,45.55586]}},{"type":"Feature","properties":{"id":"ih-eczane-24","kind":"poi","name":"Parafarmacia Esselunga","theme":"eczane","lab":1},"geometry":{"type":"Point","coordinates":[9.17019,45.37783]}},{"type":"Feature","properties":{"id":"ih-eczane-25","kind":"poi","name":"Parafarmacia Esselunga","theme":"eczane","lab":1},"geometry":{"type":"Point","coordinates":[9.16742,45.60088]}},{"type":"Feature","properties":{"id":"ih-eczane-26","kind":"poi","name":"Parafarmacia Esselunga","theme":"eczane","lab":1},"geometry":{"type":"Point","coordinates":[9.06391,45.48937]}},{"type":"Feature","properties":{"id":"ih-eczane-27","kind":"poi","name":"Parafarmacia Conad","theme":"eczane","lab":1},"geometry":{"type":"Point","coordinates":[9.3419,45.53556]}},{"type":"Feature","properties":{"id":"ih-eczane-28","kind":"poi","name":"Parafarmacia Conad","theme":"eczane","lab":1},"geometry":{"type":"Point","coordinates":[9.30201,45.51082]}},{"type":"Feature","properties":{"id":"ih-eczane-29","kind":"poi","name":"Parafarmacia Conad","theme":"eczane","lab":1},"geometry":{"type":"Point","coordinates":[8.96355,45.60887]}},{"type":"Feature","properties":{"id":"ih-eczane-30","kind":"poi","name":"Parafarmacia Bosciaclub","theme":"eczane","lab":1},"geometry":{"type":"Point","coordinates":[9.23816,45.43383]}},{"type":"Feature","properties":{"id":"ih-eczane-31","kind":"poi","name":"Parafarmacia Arese","theme":"eczane","lab":1},"geometry":{"type":"Point","coordinates":[9.0784,45.54917]}},{"type":"Feature","properties":{"id":"ih-eczane-32","kind":"poi","name":"Palmanova","theme":"eczane","lab":1},"geometry":{"type":"Point","coordinates":[9.23718,45.49147]}},{"type":"Feature","properties":{"id":"ih-eczane-33","kind":"poi","name":"Ovidio snc","theme":"eczane","lab":1},"geometry":{"type":"Point","coordinates":[9.24205,45.45857]}},{"type":"Feature","properties":{"id":"ih-eczane-34","kind":"poi","name":"Nostra Signora Di Montallegro","theme":"eczane","lab":1},"geometry":{"type":"Point","coordinates":[9.14971,45.43893]}},{"type":"Feature","properties":{"id":"ih-eczane-35","kind":"poi","name":"Municipale n.86","theme":"eczane","lab":1},"geometry":{"type":"Point","coordinates":[9.2404,45.41586]}},{"type":"Feature","properties":{"id":"ih-eczane-36","kind":"poi","name":"Municipale n.82","theme":"eczane","lab":1},"geometry":{"type":"Point","coordinates":[9.23503,45.50011]}},{"type":"Feature","properties":{"id":"ih-eczane-37","kind":"poi","name":"Municipale n.79","theme":"eczane","lab":1},"geometry":{"type":"Point","coordinates":[9.17461,45.41876]}},{"type":"Feature","properties":{"id":"ih-eczane-38","kind":"poi","name":"Municipale n.5","theme":"eczane","lab":1},"geometry":{"type":"Point","coordinates":[9.09131,45.45634]}},{"type":"Feature","properties":{"id":"ih-eczane-39","kind":"poi","name":"Municipale n.43","theme":"eczane","lab":1},"geometry":{"type":"Point","coordinates":[9.22471,45.45103]}},{"type":"Feature","properties":{"id":"ih-eczane-40","kind":"poi","name":"Municipale n.41","theme":"eczane","lab":1},"geometry":{"type":"Point","coordinates":[9.20667,45.52257]}},{"type":"Feature","properties":{"id":"ih-eczane-41","kind":"poi","name":"Municipale n.35","theme":"eczane","lab":1},"geometry":{"type":"Point","coordinates":[9.22541,45.50288]}},{"type":"Feature","properties":{"id":"ih-eczane-42","kind":"poi","name":"Municipale n.33","theme":"eczane","lab":1},"geometry":{"type":"Point","coordinates":[9.17569,45.5266]}},{"type":"Feature","properties":{"id":"ih-eczane-43","kind":"poi","name":"Municipale n.22","theme":"eczane","lab":1},"geometry":{"type":"Point","coordinates":[9.10944,45.47411]}},{"type":"Feature","properties":{"id":"ih-eczane-44","kind":"poi","name":"Municipale n.20","theme":"eczane","lab":1},"geometry":{"type":"Point","coordinates":[9.12371,45.475]}},{"type":"Feature","properties":{"id":"ih-eczane-45","kind":"poi","name":"Municipale n.10","theme":"eczane","lab":1},"geometry":{"type":"Point","coordinates":[9.19209,45.51834]}},{"type":"Feature","properties":{"id":"ih-eczane-46","kind":"poi","name":"Municipale n.1","theme":"eczane","lab":1},"geometry":{"type":"Point","coordinates":[9.24838,45.44574]}},{"type":"Feature","properties":{"id":"ih-eczane-47","kind":"poi","name":"Municipale n. 81","theme":"eczane","lab":1},"geometry":{"type":"Point","coordinates":[9.12199,45.49101]}},{"type":"Feature","properties":{"id":"ih-eczane-48","kind":"poi","name":"Municipale N.14","theme":"eczane","lab":1},"geometry":{"type":"Point","coordinates":[9.15669,45.49316]}},{"type":"Feature","properties":{"id":"ih-eczane-49","kind":"poi","name":"Municipale N. 13","theme":"eczane","lab":1},"geometry":{"type":"Point","coordinates":[9.21359,45.44149]}},{"type":"Feature","properties":{"id":"ih-eczane-50","kind":"poi","name":"Montegani Snc","theme":"eczane","lab":1},"geometry":{"type":"Point","coordinates":[9.17767,45.43384]}},{"type":"Feature","properties":{"id":"ih-eczane-51","kind":"poi","name":"Melchiorre Gioia","theme":"eczane","lab":1},"geometry":{"type":"Point","coordinates":[9.20684,45.49488]}},{"type":"Feature","properties":{"id":"ih-eczane-52","kind":"poi","name":"Medical Parafarmacia","theme":"eczane","lab":1},"geometry":{"type":"Point","coordinates":[9.32932,45.54547]}},{"type":"Feature","properties":{"id":"ih-eczane-53","kind":"poi","name":"Mariscotti","theme":"eczane","lab":1},"geometry":{"type":"Point","coordinates":[9.17078,45.48109]}},{"type":"Feature","properties":{"id":"ih-eczane-54","kind":"poi","name":"LloydsFarmacia Milano n.40","theme":"eczane","lab":1},"geometry":{"type":"Point","coordinates":[9.17037,45.4271]}},{"type":"Feature","properties":{"id":"ih-market-0","kind":"poi","name":"U2","theme":"market","lab":1},"geometry":{"type":"Point","coordinates":[9.27288,45.5809]}},{"type":"Feature","properties":{"id":"ih-market-1","kind":"poi","name":"to.market","theme":"market","lab":1},"geometry":{"type":"Point","coordinates":[9.20246,45.47847]}},{"type":"Feature","properties":{"id":"ih-market-2","kind":"poi","name":"il Gigante","theme":"market","lab":1},"geometry":{"type":"Point","coordinates":[9.16486,45.62885]}},{"type":"Feature","properties":{"id":"ih-market-3","kind":"poi","name":"famila","theme":"market","lab":1},"geometry":{"type":"Point","coordinates":[9.34961,45.54298]}},{"type":"Feature","properties":{"id":"ih-market-4","kind":"poi","name":"famila","theme":"market","lab":1},"geometry":{"type":"Point","coordinates":[9.28747,45.53444]}},{"type":"Feature","properties":{"id":"ih-market-5","kind":"poi","name":"famila","theme":"market","lab":1},"geometry":{"type":"Point","coordinates":[9.26454,45.39421]}},{"type":"Feature","properties":{"id":"ih-market-6","kind":"poi","name":"famila","theme":"market","lab":1},"geometry":{"type":"Point","coordinates":[9.20108,45.58349]}},{"type":"Feature","properties":{"id":"ih-market-7","kind":"poi","name":"famila","theme":"market","lab":1},"geometry":{"type":"Point","coordinates":[9.15229,45.64021]}},{"type":"Feature","properties":{"id":"ih-market-8","kind":"poi","name":"famila","theme":"market","lab":1},"geometry":{"type":"Point","coordinates":[8.94093,45.60052]}},{"type":"Feature","properties":{"id":"ih-market-9","kind":"poi","name":"famila","theme":"market","lab":1},"geometry":{"type":"Point","coordinates":[8.93441,45.49721]}},{"type":"Feature","properties":{"id":"ih-market-10","kind":"poi","name":"famila","theme":"market","lab":1},"geometry":{"type":"Point","coordinates":[8.67188,45.50033]}},{"type":"Feature","properties":{"id":"ih-market-11","kind":"poi","name":"Viaggiator Goloso","theme":"market","lab":1},"geometry":{"type":"Point","coordinates":[9.26073,45.57487]}},{"type":"Feature","properties":{"id":"ih-market-12","kind":"poi","name":"Unes","theme":"market","lab":1},"geometry":{"type":"Point","coordinates":[9.28048,45.51093]}},{"type":"Feature","properties":{"id":"ih-market-13","kind":"poi","name":"Unes","theme":"market","lab":1},"geometry":{"type":"Point","coordinates":[9.23107,45.48497]}},{"type":"Feature","properties":{"id":"ih-market-14","kind":"poi","name":"Unes","theme":"market","lab":1},"geometry":{"type":"Point","coordinates":[9.20964,45.50035]}},{"type":"Feature","properties":{"id":"ih-market-15","kind":"poi","name":"Unes","theme":"market","lab":1},"geometry":{"type":"Point","coordinates":[9.20658,45.46711]}},{"type":"Feature","properties":{"id":"ih-market-16","kind":"poi","name":"Unes","theme":"market","lab":1},"geometry":{"type":"Point","coordinates":[9.1913,45.59351]}},{"type":"Feature","properties":{"id":"ih-market-17","kind":"poi","name":"Unes","theme":"market","lab":1},"geometry":{"type":"Point","coordinates":[9.17315,45.56148]}},{"type":"Feature","properties":{"id":"ih-market-18","kind":"poi","name":"Unes","theme":"market","lab":1},"geometry":{"type":"Point","coordinates":[9.16421,45.5689]}},{"type":"Feature","properties":{"id":"ih-market-19","kind":"poi","name":"Unes","theme":"market","lab":1},"geometry":{"type":"Point","coordinates":[9.16203,45.55942]}},{"type":"Feature","properties":{"id":"ih-market-20","kind":"poi","name":"Unes","theme":"market","lab":1},"geometry":{"type":"Point","coordinates":[9.05123,45.64815]}},{"type":"Feature","properties":{"id":"ih-market-21","kind":"poi","name":"Unes","theme":"market","lab":1},"geometry":{"type":"Point","coordinates":[8.88898,45.55186]}},{"type":"Feature","properties":{"id":"ih-market-22","kind":"poi","name":"Unes","theme":"market","lab":1},"geometry":{"type":"Point","coordinates":[8.8331,45.6343]}},{"type":"Feature","properties":{"id":"ih-market-23","kind":"poi","name":"Unes","theme":"market","lab":1},"geometry":{"type":"Point","coordinates":[8.73425,45.53551]}},{"type":"Feature","properties":{"id":"ih-market-24","kind":"poi","name":"Unes","theme":"market","lab":1},"geometry":{"type":"Point","coordinates":[8.73249,45.53497]}},{"type":"Feature","properties":{"id":"ih-market-25","kind":"poi","name":"U2","theme":"market","lab":1},"geometry":{"type":"Point","coordinates":[9.3266,45.48631]}},{"type":"Feature","properties":{"id":"ih-market-26","kind":"poi","name":"U2","theme":"market","lab":1},"geometry":{"type":"Point","coordinates":[9.29803,45.54646]}},{"type":"Feature","properties":{"id":"ih-market-27","kind":"poi","name":"U2","theme":"market","lab":1},"geometry":{"type":"Point","coordinates":[9.27682,45.52617]}},{"type":"Feature","properties":{"id":"ih-market-28","kind":"poi","name":"U2","theme":"market","lab":1},"geometry":{"type":"Point","coordinates":[9.261,45.62852]}},{"type":"Feature","properties":{"id":"ih-market-29","kind":"poi","name":"U2","theme":"market","lab":1},"geometry":{"type":"Point","coordinates":[9.2418,45.48799]}},{"type":"Feature","properties":{"id":"ih-market-30","kind":"poi","name":"U2","theme":"market","lab":1},"geometry":{"type":"Point","coordinates":[9.19462,45.6568]}},{"type":"Feature","properties":{"id":"ih-market-31","kind":"poi","name":"U2","theme":"market","lab":1},"geometry":{"type":"Point","coordinates":[9.14265,45.51497]}},{"type":"Feature","properties":{"id":"ih-market-32","kind":"poi","name":"U2","theme":"market","lab":1},"geometry":{"type":"Point","coordinates":[9.13238,45.59907]}},{"type":"Feature","properties":{"id":"ih-market-33","kind":"poi","name":"U2","theme":"market","lab":1},"geometry":{"type":"Point","coordinates":[9.11664,45.41546]}},{"type":"Feature","properties":{"id":"ih-market-34","kind":"poi","name":"U2","theme":"market","lab":1},"geometry":{"type":"Point","coordinates":[9.0376,45.52341]}},{"type":"Feature","properties":{"id":"ih-market-35","kind":"poi","name":"U2","theme":"market","lab":1},"geometry":{"type":"Point","coordinates":[8.94231,45.55027]}},{"type":"Feature","properties":{"id":"ih-market-36","kind":"poi","name":"U2","theme":"market","lab":1},"geometry":{"type":"Point","coordinates":[8.89681,45.58082]}},{"type":"Feature","properties":{"id":"ih-market-37","kind":"poi","name":"U2","theme":"market","lab":1},"geometry":{"type":"Point","coordinates":[8.8956,45.45946]}},{"type":"Feature","properties":{"id":"ih-market-38","kind":"poi","name":"U2","theme":"market","lab":1},"geometry":{"type":"Point","coordinates":[8.87836,45.47173]}},{"type":"Feature","properties":{"id":"ih-market-39","kind":"poi","name":"U2","theme":"market","lab":1},"geometry":{"type":"Point","coordinates":[8.80783,45.51351]}},{"type":"Feature","properties":{"id":"ih-market-40","kind":"poi","name":"Tigros Saronno","theme":"market","lab":1},"geometry":{"type":"Point","coordinates":[9.05192,45.6241]}},{"type":"Feature","properties":{"id":"ih-market-41","kind":"poi","name":"Tigros","theme":"market","lab":1},"geometry":{"type":"Point","coordinates":[9.20284,45.49623]}},{"type":"Feature","properties":{"id":"ih-market-42","kind":"poi","name":"Tigros","theme":"market","lab":1},"geometry":{"type":"Point","coordinates":[9.14961,45.45054]}},{"type":"Feature","properties":{"id":"ih-market-43","kind":"poi","name":"Tigros","theme":"market","lab":1},"geometry":{"type":"Point","coordinates":[9.12781,45.46837]}},{"type":"Feature","properties":{"id":"ih-market-44","kind":"poi","name":"Tigros","theme":"market","lab":1},"geometry":{"type":"Point","coordinates":[9.09138,45.45912]}},{"type":"Feature","properties":{"id":"ih-market-45","kind":"poi","name":"Tigros","theme":"market","lab":1},"geometry":{"type":"Point","coordinates":[9.08295,45.51315]}},{"type":"Feature","properties":{"id":"ih-market-46","kind":"poi","name":"Tigros","theme":"market","lab":1},"geometry":{"type":"Point","coordinates":[9.04874,45.59079]}},{"type":"Feature","properties":{"id":"ih-market-47","kind":"poi","name":"Tigros","theme":"market","lab":1},"geometry":{"type":"Point","coordinates":[9.04758,45.62956]}},{"type":"Feature","properties":{"id":"ih-market-48","kind":"poi","name":"Tigros","theme":"market","lab":1},"geometry":{"type":"Point","coordinates":[9.04232,45.44069]}},{"type":"Feature","properties":{"id":"ih-market-49","kind":"poi","name":"Tigros","theme":"market","lab":1},"geometry":{"type":"Point","coordinates":[9.01093,45.63487]}},{"type":"Feature","properties":{"id":"ih-market-50","kind":"poi","name":"Tigros","theme":"market","lab":1},"geometry":{"type":"Point","coordinates":[8.94685,45.49905]}},{"type":"Feature","properties":{"id":"ih-market-51","kind":"poi","name":"Tigros","theme":"market","lab":1},"geometry":{"type":"Point","coordinates":[8.92552,45.5754]}},{"type":"Feature","properties":{"id":"ih-market-52","kind":"poi","name":"Tigros","theme":"market","lab":1},"geometry":{"type":"Point","coordinates":[8.9235,45.40797]}},{"type":"Feature","properties":{"id":"ih-market-53","kind":"poi","name":"Tigros","theme":"market","lab":1},"geometry":{"type":"Point","coordinates":[8.90571,45.6259]}},{"type":"Feature","properties":{"id":"ih-market-54","kind":"poi","name":"Tigros","theme":"market","lab":1},"geometry":{"type":"Point","coordinates":[8.89794,45.56621]}},{"type":"Feature","properties":{"id":"ih-yakit-0","kind":"poi","name":"keropetrol","theme":"yakit","lab":1},"geometry":{"type":"Point","coordinates":[9.11741,45.42391]}},{"type":"Feature","properties":{"id":"ih-yakit-1","kind":"poi","name":"enilive","theme":"yakit","lab":1},"geometry":{"type":"Point","coordinates":[9.20273,45.42658]}},{"type":"Feature","properties":{"id":"ih-yakit-2","kind":"poi","name":"Vega","theme":"yakit","lab":1},"geometry":{"type":"Point","coordinates":[9.26402,45.48672]}},{"type":"Feature","properties":{"id":"ih-yakit-3","kind":"poi","name":"Vega","theme":"yakit","lab":1},"geometry":{"type":"Point","coordinates":[9.17492,45.40897]}},{"type":"Feature","properties":{"id":"ih-yakit-4","kind":"poi","name":"Vargas","theme":"yakit","lab":1},"geometry":{"type":"Point","coordinates":[8.81669,45.64914]}},{"type":"Feature","properties":{"id":"ih-yakit-5","kind":"poi","name":"TotalErg","theme":"yakit","lab":1},"geometry":{"type":"Point","coordinates":[9.32052,45.40356]}},{"type":"Feature","properties":{"id":"ih-yakit-6","kind":"poi","name":"TotalErg","theme":"yakit","lab":1},"geometry":{"type":"Point","coordinates":[9.31062,45.3596]}},{"type":"Feature","properties":{"id":"ih-yakit-7","kind":"poi","name":"TotalErg","theme":"yakit","lab":1},"geometry":{"type":"Point","coordinates":[9.29884,45.58986]}},{"type":"Feature","properties":{"id":"ih-yakit-8","kind":"poi","name":"TotalErg","theme":"yakit","lab":1},"geometry":{"type":"Point","coordinates":[9.28478,45.51183]}},{"type":"Feature","properties":{"id":"ih-yakit-9","kind":"poi","name":"TotalErg","theme":"yakit","lab":1},"geometry":{"type":"Point","coordinates":[9.26811,45.53233]}},{"type":"Feature","properties":{"id":"ih-yakit-10","kind":"poi","name":"TotalErg","theme":"yakit","lab":1},"geometry":{"type":"Point","coordinates":[9.2348,45.5375]}},{"type":"Feature","properties":{"id":"ih-yakit-11","kind":"poi","name":"TotalErg","theme":"yakit","lab":1},"geometry":{"type":"Point","coordinates":[9.2301,45.57582]}},{"type":"Feature","properties":{"id":"ih-yakit-12","kind":"poi","name":"TotalErg","theme":"yakit","lab":1},"geometry":{"type":"Point","coordinates":[9.21128,45.43708]}},{"type":"Feature","properties":{"id":"ih-yakit-13","kind":"poi","name":"TotalErg","theme":"yakit","lab":1},"geometry":{"type":"Point","coordinates":[9.20546,45.55233]}},{"type":"Feature","properties":{"id":"ih-yakit-14","kind":"poi","name":"TotalErg","theme":"yakit","lab":1},"geometry":{"type":"Point","coordinates":[9.20525,45.64051]}},{"type":"Feature","properties":{"id":"ih-yakit-15","kind":"poi","name":"TotalErg","theme":"yakit","lab":1},"geometry":{"type":"Point","coordinates":[9.1758,45.383]}},{"type":"Feature","properties":{"id":"ih-yakit-16","kind":"poi","name":"TotalErg","theme":"yakit","lab":1},"geometry":{"type":"Point","coordinates":[9.17458,45.52642]}},{"type":"Feature","properties":{"id":"ih-yakit-17","kind":"poi","name":"TotalErg","theme":"yakit","lab":1},"geometry":{"type":"Point","coordinates":[9.15006,45.44132]}},{"type":"Feature","properties":{"id":"ih-yakit-18","kind":"poi","name":"TotalErg","theme":"yakit","lab":1},"geometry":{"type":"Point","coordinates":[9.13002,45.48544]}},{"type":"Feature","properties":{"id":"ih-yakit-19","kind":"poi","name":"TotalErg","theme":"yakit","lab":1},"geometry":{"type":"Point","coordinates":[9.12573,45.42671]}},{"type":"Feature","properties":{"id":"ih-yakit-20","kind":"poi","name":"TotalErg","theme":"yakit","lab":1},"geometry":{"type":"Point","coordinates":[9.03669,45.53642]}},{"type":"Feature","properties":{"id":"ih-yakit-21","kind":"poi","name":"TotalErg","theme":"yakit","lab":1},"geometry":{"type":"Point","coordinates":[9.01924,45.54105]}},{"type":"Feature","properties":{"id":"ih-yakit-22","kind":"poi","name":"TotalErg","theme":"yakit","lab":1},"geometry":{"type":"Point","coordinates":[9.01356,45.51128]}},{"type":"Feature","properties":{"id":"ih-yakit-23","kind":"poi","name":"TotalErg","theme":"yakit","lab":1},"geometry":{"type":"Point","coordinates":[8.90077,45.63694]}},{"type":"Feature","properties":{"id":"ih-yakit-24","kind":"poi","name":"TotalErg","theme":"yakit","lab":1},"geometry":{"type":"Point","coordinates":[8.77406,45.62412]}},{"type":"Feature","properties":{"id":"ih-yakit-25","kind":"poi","name":"TotalErg","theme":"yakit","lab":1},"geometry":{"type":"Point","coordinates":[8.77069,45.59397]}},{"type":"Feature","properties":{"id":"ih-yakit-26","kind":"poi","name":"Total Erg","theme":"yakit","lab":1},"geometry":{"type":"Point","coordinates":[9.33668,45.55961]}},{"type":"Feature","properties":{"id":"ih-yakit-27","kind":"poi","name":"Total Erg","theme":"yakit","lab":1},"geometry":{"type":"Point","coordinates":[8.99475,45.56741]}},{"type":"Feature","properties":{"id":"ih-yakit-28","kind":"poi","name":"Total","theme":"yakit","lab":1},"geometry":{"type":"Point","coordinates":[9.2996,45.53729]}},{"type":"Feature","properties":{"id":"ih-yakit-29","kind":"poi","name":"Total","theme":"yakit","lab":1},"geometry":{"type":"Point","coordinates":[9.25348,45.42427]}},{"type":"Feature","properties":{"id":"ih-kutuphane-0","kind":"poi","name":"Tilane Biblioteca","theme":"kutuphane","lab":1},"geometry":{"type":"Point","coordinates":[9.15956,45.56677]}},{"type":"Feature","properties":{"id":"ih-kutuphane-1","kind":"poi","name":"PuntoPero","theme":"kutuphane","lab":1},"geometry":{"type":"Point","coordinates":[9.08785,45.51004]}},{"type":"Feature","properties":{"id":"ih-kutuphane-2","kind":"poi","name":"PuntoCerchiate","theme":"kutuphane","lab":1},"geometry":{"type":"Point","coordinates":[9.06711,45.51798]}},{"type":"Feature","properties":{"id":"ih-kutuphane-3","kind":"poi","name":"Library Parco Sempione","theme":"kutuphane","lab":1},"geometry":{"type":"Point","coordinates":[9.17503,45.47445]}},{"type":"Feature","properties":{"id":"ih-kutuphane-4","kind":"poi","name":"Libera Scuola Rudolf Steiner","theme":"kutuphane","lab":1},"geometry":{"type":"Point","coordinates":[9.23994,45.48454]}},{"type":"Feature","properties":{"id":"ih-kutuphane-5","kind":"poi","name":"Leonardo Campus Library","theme":"kutuphane","lab":1},"geometry":{"type":"Point","coordinates":[9.22681,45.47953]}},{"type":"Feature","properties":{"id":"ih-kutuphane-6","kind":"poi","name":"Il Pertini","theme":"kutuphane","lab":1},"geometry":{"type":"Point","coordinates":[9.21402,45.55858]}},{"type":"Feature","properties":{"id":"ih-kutuphane-7","kind":"poi","name":"Biblioteca di Via Senato","theme":"kutuphane","lab":1},"geometry":{"type":"Point","coordinates":[9.19705,45.47091]}},{"type":"Feature","properties":{"id":"ih-kutuphane-8","kind":"poi","name":"Biblioteca di San Rocco","theme":"kutuphane","lab":1},"geometry":{"type":"Point","coordinates":[9.26906,45.5639]}},{"type":"Feature","properties":{"id":"ih-kutuphane-9","kind":"poi","name":"Biblioteca di Nosate","theme":"kutuphane","lab":1},"geometry":{"type":"Point","coordinates":[8.72625,45.55233]}},{"type":"Feature","properties":{"id":"ih-kutuphane-10","kind":"poi","name":"Biblioteca della Fondazione del Collegio della Guastalla","theme":"kutuphane","lab":1},"geometry":{"type":"Point","coordinates":[9.2434,45.5722]}},{"type":"Feature","properties":{"id":"ih-kutuphane-11","kind":"poi","name":"Biblioteca comunale di Turate","theme":"kutuphane","lab":1},"geometry":{"type":"Point","coordinates":[9.00019,45.65559]}},{"type":"Feature","properties":{"id":"ih-kutuphane-12","kind":"poi","name":"Biblioteca comunale di Solaro","theme":"kutuphane","lab":1},"geometry":{"type":"Point","coordinates":[9.08526,45.6164]}},{"type":"Feature","properties":{"id":"ih-kutuphane-13","kind":"poi","name":"Biblioteca comunale di Marnate","theme":"kutuphane","lab":1},"geometry":{"type":"Point","coordinates":[8.90153,45.62896]}},{"type":"Feature","properties":{"id":"ih-kutuphane-14","kind":"poi","name":"Biblioteca comunale di Limbiate","theme":"kutuphane","lab":1},"geometry":{"type":"Point","coordinates":[9.11916,45.60019]}},{"type":"Feature","properties":{"id":"ih-kutuphane-15","kind":"poi","name":"Biblioteca comunale di Gorla Minore","theme":"kutuphane","lab":1},"geometry":{"type":"Point","coordinates":[8.89888,45.64186]}},{"type":"Feature","properties":{"id":"ih-kutuphane-16","kind":"poi","name":"Biblioteca comunale di Gerenzano","theme":"kutuphane","lab":1},"geometry":{"type":"Point","coordinates":[9.00273,45.63715]}},{"type":"Feature","properties":{"id":"ih-kutuphane-17","kind":"poi","name":"Biblioteca comunale di Cislago","theme":"kutuphane","lab":1},"geometry":{"type":"Point","coordinates":[8.97165,45.65677]}},{"type":"Feature","properties":{"id":"ih-kutuphane-18","kind":"poi","name":"Biblioteca comunale di Arese","theme":"kutuphane","lab":1},"geometry":{"type":"Point","coordinates":[9.08214,45.55717]}},{"type":"Feature","properties":{"id":"ih-kutuphane-19","kind":"poi","name":"Biblioteca comunale Villa Burba","theme":"kutuphane","lab":1},"geometry":{"type":"Point","coordinates":[9.02807,45.5335]}},{"type":"Feature","properties":{"id":"ih-kutuphane-20","kind":"poi","name":"Biblioteca comunale Solbiate Olona","theme":"kutuphane","lab":1},"geometry":{"type":"Point","coordinates":[8.88409,45.65173]}},{"type":"Feature","properties":{"id":"ih-kutuphane-21","kind":"poi","name":"Biblioteca comunale N. H. Gian Domenico Oltrona Visconti","theme":"kutuphane","lab":1},"geometry":{"type":"Point","coordinates":[8.75191,45.60032]}},{"type":"Feature","properties":{"id":"ih-kutuphane-22","kind":"poi","name":"Biblioteca comunale Maestro Lino Quaglia","theme":"kutuphane","lab":1},"geometry":{"type":"Point","coordinates":[9.04069,45.65205]}},{"type":"Feature","properties":{"id":"ih-kutuphane-23","kind":"poi","name":"Biblioteca comunale Gian Battista Roggia","theme":"kutuphane","lab":1},"geometry":{"type":"Point","coordinates":[8.85126,45.61382]}},{"type":"Feature","properties":{"id":"ih-kutuphane-24","kind":"poi","name":"Biblioteca comunale 'Gianna e Carlo Schapira'","theme":"kutuphane","lab":1},"geometry":{"type":"Point","coordinates":[8.88883,45.62914]}},{"type":"Feature","properties":{"id":"ih-kutuphane-25","kind":"poi","name":"Biblioteca comunale \"Giuditta Pellegrini\"","theme":"kutuphane","lab":1},"geometry":{"type":"Point","coordinates":[9.04851,45.59628]}},{"type":"Feature","properties":{"id":"ih-kutuphane-26","kind":"poi","name":"Biblioteca civica Luigi Majno - Sezione ragazzi e famiglia","theme":"kutuphane","lab":1},"geometry":{"type":"Point","coordinates":[8.7973,45.65748]}},{"type":"Feature","properties":{"id":"ih-kutuphane-27","kind":"poi","name":"Biblioteca civica Giacinto Di Leo","theme":"kutuphane","lab":1},"geometry":{"type":"Point","coordinates":[9.07695,45.59713]}},{"type":"Feature","properties":{"id":"ih-kutuphane-28","kind":"poi","name":"Biblioteca civica 'Oriana Fallaci'","theme":"kutuphane","lab":1},"geometry":{"type":"Point","coordinates":[9.02688,45.62593]}},{"type":"Feature","properties":{"id":"ih-kutuphane-29","kind":"poi","name":"Biblioteca civica 'Maria Pia Galbiati'","theme":"kutuphane","lab":1},"geometry":{"type":"Point","coordinates":[9.01638,45.59889]}},{"type":"Feature","properties":{"id":"ih-kutuphane-30","kind":"poi","name":"Biblioteca civica","theme":"kutuphane","lab":1},"geometry":{"type":"Point","coordinates":[8.92475,45.57378]}},{"type":"Feature","properties":{"id":"ih-kutuphane-31","kind":"poi","name":"Biblioteca Università Bocconi","theme":"kutuphane","lab":1},"geometry":{"type":"Point","coordinates":[9.18864,45.44858]}},{"type":"Feature","properties":{"id":"ih-kutuphane-32","kind":"poi","name":"Biblioteca Sormani","theme":"kutuphane","lab":1},"geometry":{"type":"Point","coordinates":[9.19811,45.46213]}},{"type":"Feature","properties":{"id":"ih-kutuphane-33","kind":"poi","name":"Biblioteca Popolare di Rho","theme":"kutuphane","lab":1},"geometry":{"type":"Point","coordinates":[9.03985,45.52949]}},{"type":"Feature","properties":{"id":"ih-kutuphane-34","kind":"poi","name":"Biblioteca Nazionale Braidense","theme":"kutuphane","lab":1},"geometry":{"type":"Point","coordinates":[9.18911,45.4721]}},{"type":"Feature","properties":{"id":"ih-muze-0","kind":"poi","name":"Studio Museo Francesco Messina","theme":"muze","lab":1},"geometry":{"type":"Point","coordinates":[9.18164,45.46096]}},{"type":"Feature","properties":{"id":"ih-muze-1","kind":"poi","name":"Palazzo Morando - Costume Moda Immagine","theme":"muze","lab":1},"geometry":{"type":"Point","coordinates":[9.19626,45.46859]}},{"type":"Feature","properties":{"id":"ih-muze-2","kind":"poi","name":"Museo della Permanente","theme":"muze","lab":1},"geometry":{"type":"Point","coordinates":[9.19551,45.47659]}},{"type":"Feature","properties":{"id":"ih-muze-3","kind":"poi","name":"Museo della Macchina da Scrivere","theme":"muze","lab":1},"geometry":{"type":"Point","coordinates":[9.18726,45.4946]}},{"type":"Feature","properties":{"id":"ih-muze-4","kind":"poi","name":"Museo del Novecento","theme":"muze","lab":1},"geometry":{"type":"Point","coordinates":[9.19023,45.46339]}},{"type":"Feature","properties":{"id":"ih-muze-5","kind":"poi","name":"Museo degli Strumenti Musicali","theme":"muze","lab":1},"geometry":{"type":"Point","coordinates":[9.17897,45.47025]}},{"type":"Feature","properties":{"id":"ih-muze-6","kind":"poi","name":"Museo d'arte Paolo Pini","theme":"muze","lab":1},"geometry":{"type":"Point","coordinates":[9.16397,45.52156]}},{"type":"Feature","properties":{"id":"ih-muze-7","kind":"poi","name":"Museo Mondo Milan","theme":"muze","lab":1},"geometry":{"type":"Point","coordinates":[9.14842,45.48559]}},{"type":"Feature","properties":{"id":"ih-muze-8","kind":"poi","name":"Museo Martinitt e Stelline","theme":"muze","lab":1},"geometry":{"type":"Point","coordinates":[9.17347,45.46565]}},{"type":"Feature","properties":{"id":"ih-muze-9","kind":"poi","name":"Museo Interattivo del Cinema","theme":"muze","lab":1},"geometry":{"type":"Point","coordinates":[9.20402,45.51357]}},{"type":"Feature","properties":{"id":"ih-muze-10","kind":"poi","name":"Museo Fratelli Cozzi","theme":"muze","lab":1},"geometry":{"type":"Point","coordinates":[8.92976,45.58994]}},{"type":"Feature","properties":{"id":"ih-muze-11","kind":"poi","name":"Museo Civico Guido Sutermeister","theme":"muze","lab":1},"geometry":{"type":"Point","coordinates":[8.91328,45.60096]}},{"type":"Feature","properties":{"id":"ih-muze-12","kind":"poi","name":"Mulino Vecchio di Bellinzago","theme":"muze","lab":1},"geometry":{"type":"Point","coordinates":[8.68945,45.57205]}},{"type":"Feature","properties":{"id":"ih-muze-13","kind":"poi","name":"Mudec","theme":"muze","lab":1},"geometry":{"type":"Point","coordinates":[9.16132,45.45205]}},{"type":"Feature","properties":{"id":"ih-muze-14","kind":"poi","name":"Milan Holocaust Memorial Foundation","theme":"muze","lab":1},"geometry":{"type":"Point","coordinates":[9.2082,45.48822]}},{"type":"Feature","properties":{"id":"ih-muze-15","kind":"poi","name":"Galleria d'Arte Sacra dei Contemporanei","theme":"muze","lab":1},"geometry":{"type":"Point","coordinates":[9.18942,45.51798]}},{"type":"Feature","properties":{"id":"ih-muze-16","kind":"poi","name":"Galleria Campari","theme":"muze","lab":1},"geometry":{"type":"Point","coordinates":[9.23549,45.53917]}},{"type":"Feature","properties":{"id":"ih-muze-17","kind":"poi","name":"Fondazione Prada","theme":"muze","lab":1},"geometry":{"type":"Point","coordinates":[9.20432,45.44394]}},{"type":"Feature","properties":{"id":"ih-muze-18","kind":"poi","name":"Crespi Bonsai Museum","theme":"muze","lab":1},"geometry":{"type":"Point","coordinates":[8.95738,45.57074]}},{"type":"Feature","properties":{"id":"ih-muze-19","kind":"poi","name":"ADI Design Museum","theme":"muze","lab":1},"geometry":{"type":"Point","coordinates":[9.17928,45.48317]}},{"type":"Feature","properties":{"id":"ih-muze-20","kind":"poi","name":"Zambon","theme":"muze","lab":1},"geometry":{"type":"Point","coordinates":[9.18897,45.53082]}},{"type":"Feature","properties":{"id":"ih-muze-21","kind":"poi","name":"Volandia","theme":"muze","lab":1},"geometry":{"type":"Point","coordinates":[8.70715,45.63046]}},{"type":"Feature","properties":{"id":"ih-muze-22","kind":"poi","name":"Villa Litta","theme":"muze","lab":1},"geometry":{"type":"Point","coordinates":[9.02658,45.57143]}},{"type":"Feature","properties":{"id":"ih-muze-23","kind":"poi","name":"Pro Patria Museum","theme":"muze","lab":1},"geometry":{"type":"Point","coordinates":[8.88008,45.6138]}},{"type":"Feature","properties":{"id":"ih-muze-24","kind":"poi","name":"Museo storico civico cuggionese","theme":"muze","lab":1},"geometry":{"type":"Point","coordinates":[8.81679,45.50435]}},{"type":"Feature","properties":{"id":"ih-muze-25","kind":"poi","name":"Museo didattico archeologico San Carlo","theme":"muze","lab":1},"geometry":{"type":"Point","coordinates":[8.90493,45.61136]}},{"type":"Feature","properties":{"id":"ih-muze-26","kind":"poi","name":"Museo delle pentole nella storia","theme":"muze","lab":1},"geometry":{"type":"Point","coordinates":[9.17125,45.38812]}},{"type":"Feature","properties":{"id":"ih-muze-27","kind":"poi","name":"Museo delle arti di palazzo Bandera","theme":"muze","lab":1},"geometry":{"type":"Point","coordinates":[8.87018,45.61074]}},{"type":"Feature","properties":{"id":"ih-muze-28","kind":"poi","name":"Museo della Ceramica G. Gianetti","theme":"muze","lab":1},"geometry":{"type":"Point","coordinates":[9.03271,45.62501]}},{"type":"Feature","properties":{"id":"ih-muze-29","kind":"poi","name":"Museo della Battaglia","theme":"muze","lab":1},"geometry":{"type":"Point","coordinates":[8.88223,45.46762]}},{"type":"Feature","properties":{"id":"ih-muze-30","kind":"poi","name":"Museo del viaggio Fabrizio De André","theme":"muze","lab":1},"geometry":{"type":"Point","coordinates":[9.25004,45.42876]}},{"type":"Feature","properties":{"id":"ih-muze-31","kind":"poi","name":"Museo del Profumo","theme":"muze","lab":1},"geometry":{"type":"Point","coordinates":[9.17069,45.48887]}},{"type":"Feature","properties":{"id":"ih-muze-32","kind":"poi","name":"Museo del Naviglio Grande","theme":"muze","lab":1},"geometry":{"type":"Point","coordinates":[8.88903,45.43751]}},{"type":"Feature","properties":{"id":"ih-muze-33","kind":"poi","name":"Museo del Giocattolo e del Bambino","theme":"muze","lab":1},"geometry":{"type":"Point","coordinates":[9.17241,45.54653]}},{"type":"Feature","properties":{"id":"ih-muze-34","kind":"poi","name":"Museo d'Arte Contemporanea","theme":"muze","lab":1},"geometry":{"type":"Point","coordinates":[9.23523,45.60671]}},{"type":"Feature","properties":{"id":"ih-hastane-0","kind":"poi","name":"Ospedale di Saronno","theme":"hastane","lab":1},"geometry":{"type":"Point","coordinates":[9.03975,45.63011]}},{"type":"Feature","properties":{"id":"ih-hastane-1","kind":"poi","name":"Ospedale San Gerardo","theme":"hastane","lab":1},"geometry":{"type":"Point","coordinates":[9.26017,45.60229]}},{"type":"Feature","properties":{"id":"ih-hastane-2","kind":"poi","name":"Ospedale Galeazzi Sant'Ambrogio","theme":"hastane","lab":1},"geometry":{"type":"Point","coordinates":[9.09638,45.52234]}},{"type":"Feature","properties":{"id":"ih-hastane-3","kind":"poi","name":"National Cancer Institute","theme":"hastane","lab":1},"geometry":{"type":"Point","coordinates":[9.23137,45.47513]}},{"type":"Feature","properties":{"id":"ih-hastane-4","kind":"poi","name":"I.R.C.C.S. Policlinico San Donato","theme":"hastane","lab":1},"geometry":{"type":"Point","coordinates":[9.27712,45.41041]}},{"type":"Feature","properties":{"id":"ih-hastane-5","kind":"poi","name":"Presidio Ospedaliero Gaetano Pini - ASST Pini-CTO","theme":"hastane","lab":1},"geometry":{"type":"Point","coordinates":[9.19371,45.45487]}},{"type":"Feature","properties":{"id":"ih-hastane-6","kind":"poi","name":"Ospedale vecchio di Legnano","theme":"hastane","lab":1},"geometry":{"type":"Point","coordinates":[8.93135,45.59538]}},{"type":"Feature","properties":{"id":"ih-hastane-7","kind":"poi","name":"Ospedale nuovo di Legnano","theme":"hastane","lab":1},"geometry":{"type":"Point","coordinates":[8.88793,45.58033]}},{"type":"Feature","properties":{"id":"ih-hastane-8","kind":"poi","name":"Ospedale di Circolo - Rho","theme":"hastane","lab":1},"geometry":{"type":"Point","coordinates":[9.03474,45.53452]}},{"type":"Feature","properties":{"id":"ih-hastane-9","kind":"poi","name":"Ospedale dei Bambini \"Vittore Buzzi\"","theme":"hastane","lab":1},"geometry":{"type":"Point","coordinates":[9.16664,45.4857]}},{"type":"Feature","properties":{"id":"ih-hastane-10","kind":"poi","name":"Ospedale città di Sesto San Giovanni","theme":"hastane","lab":1},"geometry":{"type":"Point","coordinates":[9.22421,45.53661]}},{"type":"Feature","properties":{"id":"ih-hastane-11","kind":"poi","name":"Ospedale San Paolo","theme":"hastane","lab":1},"geometry":{"type":"Point","coordinates":[9.15988,45.4343]}},{"type":"Feature","properties":{"id":"ih-hastane-12","kind":"poi","name":"Ospedale San Giuseppe","theme":"hastane","lab":1},"geometry":{"type":"Point","coordinates":[9.17191,45.4635]}},{"type":"Feature","properties":{"id":"ih-hastane-13","kind":"poi","name":"Ospedale San Carlo Borromeo","theme":"hastane","lab":1},"geometry":{"type":"Point","coordinates":[9.11418,45.46811]}},{"type":"Feature","properties":{"id":"ih-hastane-14","kind":"poi","name":"Ospedale Macedonio Melloni","theme":"hastane","lab":1},"geometry":{"type":"Point","coordinates":[9.21909,45.46634]}},{"type":"Feature","properties":{"id":"ih-hastane-15","kind":"poi","name":"Ospedale Luigi Sacco","theme":"hastane","lab":1},"geometry":{"type":"Point","coordinates":[9.12346,45.51973]}},{"type":"Feature","properties":{"id":"ih-hastane-16","kind":"poi","name":"Ospedale Costantino Cantù","theme":"hastane","lab":1},"geometry":{"type":"Point","coordinates":[8.91288,45.39417]}},{"type":"Feature","properties":{"id":"ih-hastane-17","kind":"poi","name":"Istituto di Ricovero e Cura a Carattere Scientifico San Raffaele","theme":"hastane","lab":1},"geometry":{"type":"Point","coordinates":[9.26543,45.50618]}},{"type":"Feature","properties":{"id":"ih-hastane-18","kind":"poi","name":"Istituto Clinico Humanitas","theme":"hastane","lab":1},"geometry":{"type":"Point","coordinates":[9.16512,45.37344]}},{"type":"Feature","properties":{"id":"ih-hastane-19","kind":"poi","name":"Humanitas Mater Domini","theme":"hastane","lab":1},"geometry":{"type":"Point","coordinates":[8.90669,45.60913]}},{"type":"Feature","properties":{"id":"ih-hastane-20","kind":"poi","name":"Centro Cardiologico Monzino","theme":"hastane","lab":1},"geometry":{"type":"Point","coordinates":[9.26174,45.44385]}},{"type":"Feature","properties":{"id":"ih-hastane-21","kind":"poi","name":"Azienda Ospedaliera Sant'Antonio Abate","theme":"hastane","lab":1},"geometry":{"type":"Point","coordinates":[8.79199,45.65665]}},{"type":"Feature","properties":{"id":"ih-hastane-22","kind":"poi","name":"Azienda Ospedaliera Ospedale di Circolo di Busto Arsizio","theme":"hastane","lab":1},"geometry":{"type":"Point","coordinates":[8.84562,45.62253]}},{"type":"Feature","properties":{"id":"ih-hastane-23","kind":"poi","name":"ASST Grande Ospedale Metropolitano Niguarda","theme":"hastane","lab":1},"geometry":{"type":"Point","coordinates":[9.18624,45.50988]}},{"type":"Feature","properties":{"id":"ih-hastane-24","kind":"poi","name":"Unità Operativa di Neuropsichiatria dell’Infanzia e dell’Adolescenza - Polo Territoriale Rhodense","theme":"hastane","lab":1},"geometry":{"type":"Point","coordinates":[9.05396,45.53275]}},{"type":"Feature","properties":{"id":"ih-kiralik-arac-0","kind":"poi","name":"Movly","theme":"kiralik-arac","lab":1},"geometry":{"type":"Point","coordinates":[8.71156,45.62707]}},{"type":"Feature","properties":{"id":"ih-kiralik-arac-1","kind":"poi","name":"Centauro Rent a Car","theme":"kiralik-arac","lab":1},"geometry":{"type":"Point","coordinates":[8.70371,45.63473]}},{"type":"Feature","properties":{"id":"ih-kiralik-arac-2","kind":"poi","name":"Viaggi Broggi","theme":"kiralik-arac","lab":1},"geometry":{"type":"Point","coordinates":[9.09075,45.55097]}},{"type":"Feature","properties":{"id":"ih-kiralik-arac-3","kind":"poi","name":"Sixt","theme":"kiralik-arac","lab":1},"geometry":{"type":"Point","coordinates":[9.30475,45.47828]}},{"type":"Feature","properties":{"id":"ih-kiralik-arac-4","kind":"poi","name":"Sixt","theme":"kiralik-arac","lab":1},"geometry":{"type":"Point","coordinates":[9.20796,45.44995]}},{"type":"Feature","properties":{"id":"ih-kiralik-arac-5","kind":"poi","name":"Sixt","theme":"kiralik-arac","lab":1},"geometry":{"type":"Point","coordinates":[9.20363,45.48559]}},{"type":"Feature","properties":{"id":"ih-kiralik-arac-6","kind":"poi","name":"Sixt","theme":"kiralik-arac","lab":1},"geometry":{"type":"Point","coordinates":[9.20108,45.48334]}},{"type":"Feature","properties":{"id":"ih-kiralik-arac-7","kind":"poi","name":"Sixt","theme":"kiralik-arac","lab":1},"geometry":{"type":"Point","coordinates":[9.17019,45.45379]}},{"type":"Feature","properties":{"id":"ih-kiralik-arac-8","kind":"poi","name":"SIXT","theme":"kiralik-arac","lab":1},"geometry":{"type":"Point","coordinates":[8.7132,45.62741]}},{"type":"Feature","properties":{"id":"ih-kiralik-arac-9","kind":"poi","name":"Morini","theme":"kiralik-arac","lab":1},"geometry":{"type":"Point","coordinates":[9.22138,45.53123]}},{"type":"Feature","properties":{"id":"ih-kiralik-arac-10","kind":"poi","name":"Locauto","theme":"kiralik-arac","lab":1},"geometry":{"type":"Point","coordinates":[9.22654,45.52327]}},{"type":"Feature","properties":{"id":"ih-kiralik-arac-11","kind":"poi","name":"Hertz","theme":"kiralik-arac","lab":1},"geometry":{"type":"Point","coordinates":[9.26278,45.41575]}},{"type":"Feature","properties":{"id":"ih-kiralik-arac-12","kind":"poi","name":"Hertz","theme":"kiralik-arac","lab":1},"geometry":{"type":"Point","coordinates":[9.21584,45.55067]}},{"type":"Feature","properties":{"id":"ih-kiralik-arac-13","kind":"poi","name":"Hertz","theme":"kiralik-arac","lab":1},"geometry":{"type":"Point","coordinates":[9.15297,45.49018]}},{"type":"Feature","properties":{"id":"ih-kiralik-arac-14","kind":"poi","name":"Hertz","theme":"kiralik-arac","lab":1},"geometry":{"type":"Point","coordinates":[9.05273,45.42297]}},{"type":"Feature","properties":{"id":"ih-kiralik-arac-15","kind":"poi","name":"Europcar","theme":"kiralik-arac","lab":1},"geometry":{"type":"Point","coordinates":[9.29631,45.59002]}},{"type":"Feature","properties":{"id":"ih-kiralik-arac-16","kind":"poi","name":"Europcar","theme":"kiralik-arac","lab":1},"geometry":{"type":"Point","coordinates":[9.29378,45.48726]}},{"type":"Feature","properties":{"id":"ih-kiralik-arac-17","kind":"poi","name":"Europcar","theme":"kiralik-arac","lab":1},"geometry":{"type":"Point","coordinates":[9.27998,45.46178]}},{"type":"Feature","properties":{"id":"ih-kiralik-arac-18","kind":"poi","name":"Europcar","theme":"kiralik-arac","lab":1},"geometry":{"type":"Point","coordinates":[9.13838,45.5025]}},{"type":"Feature","properties":{"id":"ih-kiralik-arac-19","kind":"poi","name":"Elle autonoleggio","theme":"kiralik-arac","lab":1},"geometry":{"type":"Point","coordinates":[9.14127,45.65012]}}]}