{"type":"FeatureCollection","features":[{"type":"Feature","properties":{"id":"ke-tarihi-0","kind":"poi","name":"Villa Ferrari Casnedi Casati Stampa di Soncino","theme":"tarihi","lab":1},"geometry":{"type":"Point","coordinates":[9.22296,45.55438]}},{"type":"Feature","properties":{"id":"ke-tarihi-1","kind":"poi","name":"Santuario della Madonna della Cintura","theme":"tarihi","lab":1},"geometry":{"type":"Point","coordinates":[9.18576,45.55098]}},{"type":"Feature","properties":{"id":"ke-tarihi-2","kind":"poi","name":"San Maurizio al Monastero Maggiore","theme":"tarihi","lab":1},"geometry":{"type":"Point","coordinates":[9.17895,45.46544]}},{"type":"Feature","properties":{"id":"ke-tarihi-3","kind":"poi","name":"Palazzo del Credito Italiano","theme":"tarihi","lab":1},"geometry":{"type":"Point","coordinates":[9.18729,45.46593]}},{"type":"Feature","properties":{"id":"ke-tarihi-4","kind":"poi","name":"Dialogo nel Buio","theme":"tarihi","lab":1},"geometry":{"type":"Point","coordinates":[9.20294,45.4688]}},{"type":"Feature","properties":{"id":"ke-tarihi-5","kind":"poi","name":"Chiesa parrocchiale di San Giovanni Battista","theme":"tarihi","lab":1},"geometry":{"type":"Point","coordinates":[9.08628,45.56886]}},{"type":"Feature","properties":{"id":"ke-tarihi-6","kind":"poi","name":"chiesa dei Santi Carlo e Anna","theme":"tarihi","lab":1},"geometry":{"type":"Point","coordinates":[9.30841,45.47362]}},{"type":"Feature","properties":{"id":"ke-tarihi-7","kind":"poi","name":"Vitttime dei gulag","theme":"tarihi","lab":1},"geometry":{"type":"Point","coordinates":[9.09508,45.45693]}},{"type":"Feature","properties":{"id":"ke-tarihi-8","kind":"poi","name":"Villa Visconti","theme":"tarihi","lab":1},"geometry":{"type":"Point","coordinates":[8.90949,45.42664]}},{"type":"Feature","properties":{"id":"ke-tarihi-9","kind":"poi","name":"Villa Terzaghi","theme":"tarihi","lab":1},"geometry":{"type":"Point","coordinates":[8.88513,45.43447]}},{"type":"Feature","properties":{"id":"ke-tarihi-10","kind":"poi","name":"Villa Taverna","theme":"tarihi","lab":1},"geometry":{"type":"Point","coordinates":[9.2831,45.64843]}},{"type":"Feature","properties":{"id":"ke-tarihi-11","kind":"poi","name":"Villa Somaglia-Balconi","theme":"tarihi","lab":1},"geometry":{"type":"Point","coordinates":[9.3024,45.54693]}},{"type":"Feature","properties":{"id":"ke-tarihi-12","kind":"poi","name":"Villa Simonetta","theme":"tarihi","lab":1},"geometry":{"type":"Point","coordinates":[9.16852,45.49152]}},{"type":"Feature","properties":{"id":"ke-tarihi-13","kind":"poi","name":"Villa San Carlo Borromeo","theme":"tarihi","lab":1},"geometry":{"type":"Point","coordinates":[9.11821,45.57889]}},{"type":"Feature","properties":{"id":"ke-tarihi-14","kind":"poi","name":"Villa Pusterla - Crivelli","theme":"tarihi","lab":1},"geometry":{"type":"Point","coordinates":[9.12835,45.61451]}},{"type":"Feature","properties":{"id":"ke-tarihi-15","kind":"poi","name":"Villa Porro","theme":"tarihi","lab":1},"geometry":{"type":"Point","coordinates":[9.04222,45.65089]}},{"type":"Feature","properties":{"id":"ke-tarihi-16","kind":"poi","name":"Villa Mirabello","theme":"tarihi","lab":1},"geometry":{"type":"Point","coordinates":[9.28436,45.60442]}},{"type":"Feature","properties":{"id":"ke-tarihi-17","kind":"poi","name":"Villa Mirabellino","theme":"tarihi","lab":1},"geometry":{"type":"Point","coordinates":[9.27604,45.60476]}},{"type":"Feature","properties":{"id":"ke-tarihi-18","kind":"poi","name":"Villa Marietti Radice Fossati","theme":"tarihi","lab":1},"geometry":{"type":"Point","coordinates":[9.14781,45.50085]}},{"type":"Feature","properties":{"id":"ke-tarihi-19","kind":"poi","name":"Villa Magnolie","theme":"tarihi","lab":1},"geometry":{"type":"Point","coordinates":[9.07312,45.56822]}},{"type":"Feature","properties":{"id":"ke-tarihi-20","kind":"poi","name":"Villa Litta","theme":"tarihi","lab":1},"geometry":{"type":"Point","coordinates":[9.27627,45.61251]}},{"type":"Feature","properties":{"id":"ke-tarihi-21","kind":"poi","name":"Villa Ida","theme":"tarihi","lab":1},"geometry":{"type":"Point","coordinates":[8.94667,45.55459]}},{"type":"Feature","properties":{"id":"ke-tarihi-22","kind":"poi","name":"Villa Gargantini","theme":"tarihi","lab":1},"geometry":{"type":"Point","coordinates":[9.16218,45.57712]}},{"type":"Feature","properties":{"id":"ke-tarihi-23","kind":"poi","name":"Villa Gagliardi","theme":"tarihi","lab":1},"geometry":{"type":"Point","coordinates":[8.84373,45.60132]}},{"type":"Feature","properties":{"id":"ke-tarihi-24","kind":"poi","name":"Villa Durini","theme":"tarihi","lab":1},"geometry":{"type":"Point","coordinates":[9.29385,45.5806]}},{"type":"Feature","properties":{"id":"ke-tarihi-25","kind":"poi","name":"Villa Dho","theme":"tarihi","lab":1},"geometry":{"type":"Point","coordinates":[9.13315,45.64267]}},{"type":"Feature","properties":{"id":"ke-tarihi-26","kind":"poi","name":"Villa Cazzaniga","theme":"tarihi","lab":1},"geometry":{"type":"Point","coordinates":[9.29929,45.51922]}},{"type":"Feature","properties":{"id":"ke-tarihi-27","kind":"poi","name":"Villa Castello del Torneamento","theme":"tarihi","lab":1},"geometry":{"type":"Point","coordinates":[9.24615,45.58031]}},{"type":"Feature","properties":{"id":"ke-tarihi-28","kind":"poi","name":"Villa Casati Stampa","theme":"tarihi","lab":1},"geometry":{"type":"Point","coordinates":[9.22961,45.59362]}},{"type":"Feature","properties":{"id":"ke-tarihi-29","kind":"poi","name":"Villa Calcaterra","theme":"tarihi","lab":1},"geometry":{"type":"Point","coordinates":[8.84612,45.59786]}},{"type":"Feature","properties":{"id":"ke-tarihi-30","kind":"poi","name":"Villa Busca Serbelloni \"La Palazzetta\"","theme":"tarihi","lab":1},"geometry":{"type":"Point","coordinates":[9.24231,45.48676]}},{"type":"Feature","properties":{"id":"ke-tarihi-31","kind":"poi","name":"Villa Borsani","theme":"tarihi","lab":1},"geometry":{"type":"Point","coordinates":[9.14881,45.59722]}},{"type":"Feature","properties":{"id":"ke-tarihi-32","kind":"poi","name":"Villa Borromeo d'Adda","theme":"tarihi","lab":1},"geometry":{"type":"Point","coordinates":[9.32006,45.6287]}},{"type":"Feature","properties":{"id":"ke-tarihi-33","kind":"poi","name":"Villa Borletti","theme":"tarihi","lab":1},"geometry":{"type":"Point","coordinates":[9.17085,45.47]}},{"type":"Feature","properties":{"id":"ke-tarihi-34","kind":"poi","name":"Villa Bigatti","theme":"tarihi","lab":1},"geometry":{"type":"Point","coordinates":[9.19407,45.55365]}},{"type":"Feature","properties":{"id":"ke-tarihi-35","kind":"poi","name":"Villa Besozzi Casati","theme":"tarihi","lab":1},"geometry":{"type":"Point","coordinates":[9.27565,45.52972]}},{"type":"Feature","properties":{"id":"ke-tarihi-36","kind":"poi","name":"Villa Barbavara di Gravellona (La Bassana)","theme":"tarihi","lab":1},"geometry":{"type":"Point","coordinates":[8.89487,45.43552]}},{"type":"Feature","properties":{"id":"ke-tarihi-37","kind":"poi","name":"Villa Bagatti Valsecchi","theme":"tarihi","lab":1},"geometry":{"type":"Point","coordinates":[9.15936,45.59695]}},{"type":"Feature","properties":{"id":"ke-tarihi-38","kind":"poi","name":"Villa Alari","theme":"tarihi","lab":1},"geometry":{"type":"Point","coordinates":[9.33446,45.52294]}},{"type":"Feature","properties":{"id":"ke-tarihi-39","kind":"poi","name":"Vertical Forest","theme":"tarihi","lab":1},"geometry":{"type":"Point","coordinates":[9.1904,45.48561]}},{"type":"Feature","properties":{"id":"ke-tarihi-40","kind":"poi","name":"Tranvia Monza-Carate","theme":"tarihi","lab":1},"geometry":{"type":"Point","coordinates":[9.26612,45.63828]}},{"type":"Feature","properties":{"id":"ke-tarihi-41","kind":"poi","name":"Torre del Palagi","theme":"tarihi","lab":1},"geometry":{"type":"Point","coordinates":[9.21453,45.61603]}},{"type":"Feature","properties":{"id":"ke-tarihi-42","kind":"poi","name":"Torre Civica","theme":"tarihi","lab":1},"geometry":{"type":"Point","coordinates":[9.20622,45.6505]}},{"type":"Feature","properties":{"id":"ke-tarihi-43","kind":"poi","name":"Tomba di Achille Varzi","theme":"tarihi","lab":1},"geometry":{"type":"Point","coordinates":[8.70195,45.47637]}},{"type":"Feature","properties":{"id":"ke-tarihi-44","kind":"poi","name":"Tomba Antonio Benigno Crespi e Maria Provasoli","theme":"tarihi","lab":1},"geometry":{"type":"Point","coordinates":[8.82875,45.60906]}},{"type":"Feature","properties":{"id":"ke-tarihi-45","kind":"poi","name":"Stele","theme":"tarihi","lab":1},"geometry":{"type":"Point","coordinates":[9.21068,45.53097]}},{"type":"Feature","properties":{"id":"ke-tarihi-46","kind":"poi","name":"Stazione Reale","theme":"tarihi","lab":1},"geometry":{"type":"Point","coordinates":[9.25915,45.591]}},{"type":"Feature","properties":{"id":"ke-tarihi-47","kind":"poi","name":"Santuario di Santa Maria delle Grazie","theme":"tarihi","lab":1},"geometry":{"type":"Point","coordinates":[9.28495,45.59166]}},{"type":"Feature","properties":{"id":"ke-tarihi-48","kind":"poi","name":"Santuario di Sant'Invenzio","theme":"tarihi","lab":1},"geometry":{"type":"Point","coordinates":[9.03308,45.407]}},{"type":"Feature","properties":{"id":"ke-tarihi-49","kind":"poi","name":"Santuario di San Martino","theme":"tarihi","lab":1},"geometry":{"type":"Point","coordinates":[9.22167,45.55073]}},{"type":"Feature","properties":{"id":"ke-tarihi-50","kind":"poi","name":"Santuario di San Fermo","theme":"tarihi","lab":1},"geometry":{"type":"Point","coordinates":[9.25419,45.6568]}},{"type":"Feature","properties":{"id":"ke-tarihi-51","kind":"poi","name":"Santuario di Maria Nascente","theme":"tarihi","lab":1},"geometry":{"type":"Point","coordinates":[8.84782,45.53911]}},{"type":"Feature","properties":{"id":"ke-tarihi-52","kind":"poi","name":"Santuario di Madonna in Campagna","theme":"tarihi","lab":1},"geometry":{"type":"Point","coordinates":[8.87069,45.56669]}},{"type":"Feature","properties":{"id":"ke-tarihi-53","kind":"poi","name":"Santuario dellaBeata Vergine Assunta","theme":"tarihi","lab":1},"geometry":{"type":"Point","coordinates":[9.32177,45.48757]}},{"type":"Feature","properties":{"id":"ke-tarihi-54","kind":"poi","name":"Santuario della Madonna di San Cassiano","theme":"tarihi","lab":1},"geometry":{"type":"Point","coordinates":[8.66865,45.50639]}},{"type":"Feature","properties":{"id":"ke-tarihi-55","kind":"poi","name":"Santuario della Madonna di Acquanegra","theme":"tarihi","lab":1},"geometry":{"type":"Point","coordinates":[8.81538,45.45542]}},{"type":"Feature","properties":{"id":"ke-tarihi-56","kind":"poi","name":"Santuario della Madonna delle Grazie","theme":"tarihi","lab":1},"geometry":{"type":"Point","coordinates":[9.22912,45.58079]}},{"type":"Feature","properties":{"id":"ke-tarihi-57","kind":"poi","name":"Santuario della Madonna della Neve","theme":"tarihi","lab":1},"geometry":{"type":"Point","coordinates":[8.94306,45.62253]}},{"type":"Feature","properties":{"id":"ke-tarihi-58","kind":"poi","name":"Santuario della Madonna dell'Albero","theme":"tarihi","lab":1},"geometry":{"type":"Point","coordinates":[8.91556,45.64091]}},{"type":"Feature","properties":{"id":"ke-tarihi-59","kind":"poi","name":"Santuario della Beata Vergine del Rosario","theme":"tarihi","lab":1},"geometry":{"type":"Point","coordinates":[9.08053,45.57876]}},{"type":"Feature","properties":{"id":"ke-tarihi-60","kind":"poi","name":"Santuario della Beata Vergine dei Miracoli","theme":"tarihi","lab":1},"geometry":{"type":"Point","coordinates":[9.02557,45.62626]}},{"type":"Feature","properties":{"id":"ke-tarihi-61","kind":"poi","name":"Santuario dell'Immacolata","theme":"tarihi","lab":1},"geometry":{"type":"Point","coordinates":[8.95435,45.59302]}},{"type":"Feature","properties":{"id":"ke-tarihi-62","kind":"poi","name":"Santo Stefano Maggiore","theme":"tarihi","lab":1},"geometry":{"type":"Point","coordinates":[9.19607,45.46222]}},{"type":"Feature","properties":{"id":"ke-tarihi-63","kind":"poi","name":"Santa Maria di Caravaggio","theme":"tarihi","lab":1},"geometry":{"type":"Point","coordinates":[9.18052,45.44431]}},{"type":"Feature","properties":{"id":"ke-tarihi-64","kind":"poi","name":"Santa Maria Nascente e San Giacomo","theme":"tarihi","lab":1},"geometry":{"type":"Point","coordinates":[9.33213,45.63927]}},{"type":"Feature","properties":{"id":"ke-tarihi-65","kind":"poi","name":"Santa Maria Assunta","theme":"tarihi","lab":1},"geometry":{"type":"Point","coordinates":[9.23184,45.3999]}},{"type":"Feature","properties":{"id":"ke-tarihi-66","kind":"poi","name":"Santa Barbara","theme":"tarihi","lab":1},"geometry":{"type":"Point","coordinates":[9.26175,45.4242]}},{"type":"Feature","properties":{"id":"ke-tarihi-67","kind":"poi","name":"Sant'Anna Matrona","theme":"tarihi","lab":1},"geometry":{"type":"Point","coordinates":[9.14512,45.48244]}},{"type":"Feature","properties":{"id":"ke-tarihi-68","kind":"poi","name":"Sant'Andrea","theme":"tarihi","lab":1},"geometry":{"type":"Point","coordinates":[8.86955,45.42947]}},{"type":"Feature","properties":{"id":"ke-tarihi-69","kind":"poi","name":"Sanctuary of the Blessed Virgin of the Sorrows","theme":"tarihi","lab":1},"geometry":{"type":"Point","coordinates":[9.03884,45.53298]}},{"type":"Feature","properties":{"id":"ke-tarihi-70","kind":"poi","name":"San Rocco","theme":"tarihi","lab":1},"geometry":{"type":"Point","coordinates":[8.78745,45.62608]}},{"type":"Feature","properties":{"id":"ke-tarihi-71","kind":"poi","name":"San Pio X","theme":"tarihi","lab":1},"geometry":{"type":"Point","coordinates":[9.16847,45.63128]}},{"type":"Feature","properties":{"id":"ke-tarihi-72","kind":"poi","name":"San Pietro in Vulpiate","theme":"tarihi","lab":1},"geometry":{"type":"Point","coordinates":[8.72168,45.47816]}},{"type":"Feature","properties":{"id":"ke-tarihi-73","kind":"poi","name":"San Giuseppe","theme":"tarihi","lab":1},"geometry":{"type":"Point","coordinates":[9.13635,45.63395]}},{"type":"Feature","properties":{"id":"ke-tarihi-74","kind":"poi","name":"San Carlo Borromeo","theme":"tarihi","lab":1},"geometry":{"type":"Point","coordinates":[9.27287,45.58572]}},{"type":"Feature","properties":{"id":"ke-tarihi-75","kind":"poi","name":"San Bernardo","theme":"tarihi","lab":1},"geometry":{"type":"Point","coordinates":[8.88556,45.41755]}},{"type":"Feature","properties":{"id":"ke-tarihi-76","kind":"poi","name":"San Basilio Magno","theme":"tarihi","lab":1},"geometry":{"type":"Point","coordinates":[9.23603,45.50626]}},{"type":"Feature","properties":{"id":"ke-tarihi-77","kind":"poi","name":"San Bartolomeo Apostolo","theme":"tarihi","lab":1},"geometry":{"type":"Point","coordinates":[8.98014,45.5787]}},{"type":"Feature","properties":{"id":"ke-tarihi-78","kind":"poi","name":"Saletta Reale","theme":"tarihi","lab":1},"geometry":{"type":"Point","coordinates":[9.27279,45.57764]}},{"type":"Feature","properties":{"id":"ke-tarihi-79","kind":"poi","name":"Rocca Brivio","theme":"tarihi","lab":1},"geometry":{"type":"Point","coordinates":[9.32317,45.37009]}},{"type":"Feature","properties":{"id":"ke-tarihi-80","kind":"poi","name":"Pirelli HangarBicocca","theme":"tarihi","lab":1},"geometry":{"type":"Point","coordinates":[9.2199,45.52198]}},{"type":"Feature","properties":{"id":"ke-tarihi-81","kind":"poi","name":"Pieve di San Giovanni Battista","theme":"tarihi","lab":1},"geometry":{"type":"Point","coordinates":[8.67646,45.35213]}},{"type":"Feature","properties":{"id":"ke-tarihi-82","kind":"poi","name":"Palazzo alla Torre","theme":"tarihi","lab":1},"geometry":{"type":"Point","coordinates":[9.04464,45.52965]}},{"type":"Feature","properties":{"id":"ke-tarihi-83","kind":"poi","name":"Palazzo Terragni","theme":"tarihi","lab":1},"geometry":{"type":"Point","coordinates":[9.24149,45.61081]}},{"type":"Feature","properties":{"id":"ke-tarihi-84","kind":"poi","name":"Palazzo Taccona","theme":"tarihi","lab":1},"geometry":{"type":"Point","coordinates":[9.228,45.5753]}},{"type":"Feature","properties":{"id":"ke-tarihi-85","kind":"poi","name":"Palazzo Seccoborella","theme":"tarihi","lab":1},"geometry":{"type":"Point","coordinates":[9.11772,45.54229]}},{"type":"Feature","properties":{"id":"ke-tarihi-86","kind":"poi","name":"Palazzo Rasini","theme":"tarihi","lab":1},"geometry":{"type":"Point","coordinates":[8.85489,45.58788]}},{"type":"Feature","properties":{"id":"ke-tarihi-87","kind":"poi","name":"Palazzo Pozzobonelli Porro Lambertenghi Dell'Acqua","theme":"tarihi","lab":1},"geometry":{"type":"Point","coordinates":[8.94418,45.50491]}},{"type":"Feature","properties":{"id":"ke-tarihi-88","kind":"poi","name":"Palazzo Lucini Arborio Mella","theme":"tarihi","lab":1},"geometry":{"type":"Point","coordinates":[8.91246,45.57528]}},{"type":"Feature","properties":{"id":"ke-tarihi-89","kind":"poi","name":"Palazzo Calderara","theme":"tarihi","lab":1},"geometry":{"type":"Point","coordinates":[8.99801,45.52646]}},{"type":"Feature","properties":{"id":"ke-tarihi-90","kind":"poi","name":"Ossario Piccoli Martiri di Gorla","theme":"tarihi","lab":1},"geometry":{"type":"Point","coordinates":[9.22416,45.50443]}},{"type":"Feature","properties":{"id":"ke-modern-0","kind":"poi","name":"Torre Telecom di Rozzano","theme":"modern","lab":1},"geometry":{"type":"Point","coordinates":[9.16438,45.38319]}},{"type":"Feature","properties":{"id":"ke-modern-1","kind":"poi","name":"Torre RAI","theme":"modern","lab":1},"geometry":{"type":"Point","coordinates":[9.16583,45.47857]}},{"type":"Feature","properties":{"id":"ke-modern-2","kind":"poi","name":"Teatro San Filippo Neri","theme":"modern","lab":1},"geometry":{"type":"Point","coordinates":[8.99615,45.63893]}},{"type":"Feature","properties":{"id":"ke-modern-3","kind":"poi","name":"Piccolo Teatro Strehler","theme":"modern","lab":1},"geometry":{"type":"Point","coordinates":[9.18231,45.47256]}},{"type":"Feature","properties":{"id":"ke-modern-4","kind":"poi","name":"Institut Français Milano","theme":"modern","lab":1},"geometry":{"type":"Point","coordinates":[9.17162,45.46553]}},{"type":"Feature","properties":{"id":"ke-modern-5","kind":"poi","name":"Ex Dogana Austroungarica","theme":"modern","lab":1},"geometry":{"type":"Point","coordinates":[8.71008,45.59067]}},{"type":"Feature","properties":{"id":"ke-modern-6","kind":"poi","name":"Zelig","theme":"modern","lab":1},"geometry":{"type":"Point","coordinates":[9.22287,45.50406]}},{"type":"Feature","properties":{"id":"ke-modern-7","kind":"poi","name":"Torre di Teodolinda","theme":"modern","lab":1},"geometry":{"type":"Point","coordinates":[9.27683,45.58398]}},{"type":"Feature","properties":{"id":"ke-modern-8","kind":"poi","name":"Torre di Castelletto","theme":"modern","lab":1},"geometry":{"type":"Point","coordinates":[8.93725,45.39926]}},{"type":"Feature","properties":{"id":"ke-modern-9","kind":"poi","name":"Torre dell'Orologio","theme":"modern","lab":1},"geometry":{"type":"Point","coordinates":[9.1475,45.62821]}},{"type":"Feature","properties":{"id":"ke-modern-10","kind":"poi","name":"Torre ai Caduti","theme":"modern","lab":1},"geometry":{"type":"Point","coordinates":[9.01821,45.59903]}},{"type":"Feature","properties":{"id":"ke-modern-11","kind":"poi","name":"Torre Romana del Carrobbio","theme":"modern","lab":1},"geometry":{"type":"Point","coordinates":[9.18122,45.4604]}},{"type":"Feature","properties":{"id":"ke-modern-13","kind":"poi","name":"Torre Arcobaleno","theme":"modern","lab":1},"geometry":{"type":"Point","coordinates":[9.18256,45.48639]}},{"type":"Feature","properties":{"id":"ke-modern-14","kind":"poi","name":"Torrazzo","theme":"modern","lab":1},"geometry":{"type":"Point","coordinates":[9.14722,45.62795]}},{"type":"Feature","properties":{"id":"ke-modern-15","kind":"poi","name":"Teatro degli Arcimboldi","theme":"modern","lab":1},"geometry":{"type":"Point","coordinates":[9.21366,45.51446]}},{"type":"Feature","properties":{"id":"ke-modern-16","kind":"poi","name":"Teatro Sociale Delia Cajelli","theme":"modern","lab":1},"geometry":{"type":"Point","coordinates":[8.84987,45.6072]}},{"type":"Feature","properties":{"id":"ke-modern-17","kind":"poi","name":"Teatro Nazionale","theme":"modern","lab":1},"geometry":{"type":"Point","coordinates":[9.15393,45.46675]}},{"type":"Feature","properties":{"id":"ke-modern-18","kind":"poi","name":"Teatro Manzoni","theme":"modern","lab":1},"geometry":{"type":"Point","coordinates":[9.27195,45.58304]}},{"type":"Feature","properties":{"id":"ke-modern-19","kind":"poi","name":"Teatro Lirico","theme":"modern","lab":1},"geometry":{"type":"Point","coordinates":[8.88329,45.46816]}},{"type":"Feature","properties":{"id":"ke-modern-20","kind":"poi","name":"Teatrino Breda","theme":"modern","lab":1},"geometry":{"type":"Point","coordinates":[9.21086,45.53054]}},{"type":"Feature","properties":{"id":"ke-modern-21","kind":"poi","name":"Quadreria dell'ospedale di Busto Arsizio","theme":"modern","lab":1},"geometry":{"type":"Point","coordinates":[8.84668,45.6217]}},{"type":"Feature","properties":{"id":"ke-modern-24","kind":"poi","name":"La Torretta","theme":"modern","lab":1},"geometry":{"type":"Point","coordinates":[8.79947,45.48607]}},{"type":"Feature","properties":{"id":"ke-modern-25","kind":"poi","name":"Circolo anarchico Ponte della Ghisolfa","theme":"modern","lab":1},"geometry":{"type":"Point","coordinates":[9.22372,45.51117]}},{"type":"Feature","properties":{"id":"ke-modern-26","kind":"poi","name":"Cinema Teatro San Giovanni Bosco","theme":"modern","lab":1},"geometry":{"type":"Point","coordinates":[8.85954,45.60235]}},{"type":"Feature","properties":{"id":"ke-modern-27","kind":"poi","name":"Cinema Teatro Fratello Sole","theme":"modern","lab":1},"geometry":{"type":"Point","coordinates":[8.86343,45.61075]}},{"type":"Feature","properties":{"id":"ke-modern-28","kind":"poi","name":"Casa degli artisti","theme":"modern","lab":1},"geometry":{"type":"Point","coordinates":[9.18335,45.47674]}},{"type":"Feature","properties":{"id":"ke-modern-29","kind":"poi","name":"Auditorium di Milano","theme":"modern","lab":1},"geometry":{"type":"Point","coordinates":[9.17914,45.44658]}},{"type":"Feature","properties":{"id":"ke-modern-30","kind":"poi","name":"il MOSAIKO","theme":"modern","lab":1},"geometry":{"type":"Point","coordinates":[8.90967,45.46681]}},{"type":"Feature","properties":{"id":"ke-modern-31","kind":"poi","name":"MiCamera","theme":"modern","lab":1},"geometry":{"type":"Point","coordinates":[9.18564,45.48969]}},{"type":"Feature","properties":{"id":"ke-modern-32","kind":"poi","name":"Galleria Massimo De Carlo","theme":"modern","lab":1},"geometry":{"type":"Point","coordinates":[9.22332,45.48265]}},{"type":"Feature","properties":{"id":"ke-modern-33","kind":"poi","name":"BaseB Metriquadricreativi","theme":"modern","lab":1},"geometry":{"type":"Point","coordinates":[9.15268,45.50275]}},{"type":"Feature","properties":{"id":"ke-modern-34","kind":"poi","name":"BEAT Scuola d'Arte","theme":"modern","lab":1},"geometry":{"type":"Point","coordinates":[9.16133,45.38635]}},{"type":"Feature","properties":{"id":"ke-modern-35","kind":"poi","name":"Ambrosianeum","theme":"modern","lab":1},"geometry":{"type":"Point","coordinates":[9.19256,45.46289]}},{"type":"Feature","properties":{"id":"ke-modern-36","kind":"poi","name":"29 ARTS IN PROGRESS gallery","theme":"modern","lab":1},"geometry":{"type":"Point","coordinates":[9.17162,45.46277]}},{"type":"Feature","properties":{"id":"ke-modern-37","kind":"poi","name":"spazio artepassante","theme":"modern","lab":1},"geometry":{"type":"Point","coordinates":[9.22348,45.45711]}},{"type":"Feature","properties":{"id":"ke-modern-38","kind":"poi","name":"auditorium aldomoro","theme":"modern","lab":1},"geometry":{"type":"Point","coordinates":[9.02674,45.62684]}},{"type":"Feature","properties":{"id":"ke-modern-39","kind":"poi","name":"The Immersive Experience","theme":"modern","lab":1},"geometry":{"type":"Point","coordinates":[9.17381,45.49293]}},{"type":"Feature","properties":{"id":"ke-modern-40","kind":"poi","name":"Teatro del popolo","theme":"modern","lab":1},"geometry":{"type":"Point","coordinates":[8.78772,45.65903]}},{"type":"Feature","properties":{"id":"ke-modern-41","kind":"poi","name":"Stamperia d'arte 74b","theme":"modern","lab":1},"geometry":{"type":"Point","coordinates":[9.11687,45.45204]}},{"type":"Feature","properties":{"id":"ke-modern-42","kind":"poi","name":"Stamberga","theme":"modern","lab":1},"geometry":{"type":"Point","coordinates":[9.20412,45.4694]}},{"type":"Feature","properties":{"id":"ke-modern-43","kind":"poi","name":"Spazio Ventura XV","theme":"modern","lab":1},"geometry":{"type":"Point","coordinates":[9.24352,45.4842]}},{"type":"Feature","properties":{"id":"ke-modern-44","kind":"poi","name":"Spazio Bidet","theme":"modern","lab":1},"geometry":{"type":"Point","coordinates":[9.22265,45.49194]}},{"type":"Feature","properties":{"id":"ke-doga-0","kind":"poi","name":"Roseto Niso Fumagalli","theme":"doga","lab":1},"geometry":{"type":"Point","coordinates":[9.27232,45.59383]}},{"type":"Feature","properties":{"id":"ke-doga-1","kind":"poi","name":"Parco ex OM","theme":"doga","lab":1},"geometry":{"type":"Point","coordinates":[9.19151,45.44417]}},{"type":"Feature","properties":{"id":"ke-doga-2","kind":"poi","name":"Giardino dei Giusti di tutto il mondo","theme":"doga","lab":1},"geometry":{"type":"Point","coordinates":[9.13591,45.48861]}},{"type":"Feature","properties":{"id":"ke-doga-3","kind":"poi","name":"Piazzale Selinunte","theme":"doga","lab":1},"geometry":{"type":"Point","coordinates":[9.13742,45.4721]}},{"type":"Feature","properties":{"id":"ke-doga-4","kind":"poi","name":"Piazzale Martini","theme":"doga","lab":1},"geometry":{"type":"Point","coordinates":[9.22059,45.45671]}},{"type":"Feature","properties":{"id":"ke-doga-5","kind":"poi","name":"Piazzale Francesco Baracca","theme":"doga","lab":1},"geometry":{"type":"Point","coordinates":[9.16542,45.4665]}},{"type":"Feature","properties":{"id":"ke-doga-6","kind":"poi","name":"Piazzale Damiano Chiesa","theme":"doga","lab":1},"geometry":{"type":"Point","coordinates":[9.15615,45.48432]}},{"type":"Feature","properties":{"id":"ke-doga-7","kind":"poi","name":"Piazzale Brescia","theme":"doga","lab":1},"geometry":{"type":"Point","coordinates":[9.14483,45.47082]}},{"type":"Feature","properties":{"id":"ke-doga-8","kind":"poi","name":"Piazza Agrippa","theme":"doga","lab":1},"geometry":{"type":"Point","coordinates":[9.1838,45.4332]}},{"type":"Feature","properties":{"id":"ke-doga-9","kind":"poi","name":"Parco per la Vita","theme":"doga","lab":1},"geometry":{"type":"Point","coordinates":[8.845,45.62052]}},{"type":"Feature","properties":{"id":"ke-doga-10","kind":"poi","name":"Parco in memoria delle Vittime Italiane nei Gulag","theme":"doga","lab":1},"geometry":{"type":"Point","coordinates":[9.09605,45.45574]}},{"type":"Feature","properties":{"id":"ke-doga-11","kind":"poi","name":"Parco di Villa Scheibler","theme":"doga","lab":1},"geometry":{"type":"Point","coordinates":[9.13335,45.51544]}},{"type":"Feature","properties":{"id":"ke-doga-12","kind":"poi","name":"Parco di Villa Finzi","theme":"doga","lab":1},"geometry":{"type":"Point","coordinates":[9.21947,45.50518]}},{"type":"Feature","properties":{"id":"ke-doga-13","kind":"poi","name":"Parco di Villa Conti Rossi e Martini","theme":"doga","lab":1},"geometry":{"type":"Point","coordinates":[9.2622,45.64938]}},{"type":"Feature","properties":{"id":"ke-doga-14","kind":"poi","name":"Parco di Via della Quercia","theme":"doga","lab":1},"geometry":{"type":"Point","coordinates":[9.16962,45.55682]}},{"type":"Feature","properties":{"id":"ke-doga-15","kind":"poi","name":"Parco di Via San Michele del Carso","theme":"doga","lab":1},"geometry":{"type":"Point","coordinates":[9.16752,45.57347]}},{"type":"Feature","properties":{"id":"ke-doga-16","kind":"poi","name":"Parco di Via Roma","theme":"doga","lab":1},"geometry":{"type":"Point","coordinates":[9.14635,45.6118]}},{"type":"Feature","properties":{"id":"ke-doga-17","kind":"poi","name":"Parco di Via Rimini – Via La Spezia","theme":"doga","lab":1},"geometry":{"type":"Point","coordinates":[9.16955,45.43967]}},{"type":"Feature","properties":{"id":"ke-doga-18","kind":"poi","name":"Parco di Via Gadames","theme":"doga","lab":1},"geometry":{"type":"Point","coordinates":[9.15504,45.55597]}},{"type":"Feature","properties":{"id":"ke-doga-19","kind":"poi","name":"Parco di Baggio","theme":"doga","lab":1},"geometry":{"type":"Point","coordinates":[9.09023,45.46383]}},{"type":"Feature","properties":{"id":"ke-doga-20","kind":"poi","name":"Parco delle Favole","theme":"doga","lab":1},"geometry":{"type":"Point","coordinates":[9.17807,45.51333]}},{"type":"Feature","properties":{"id":"ke-doga-21","kind":"poi","name":"Parco delle Delizie","theme":"doga","lab":1},"geometry":{"type":"Point","coordinates":[9.14124,45.44679]}},{"type":"Feature","properties":{"id":"ke-doga-22","kind":"poi","name":"Parco delle Cave","theme":"doga","lab":1},"geometry":{"type":"Point","coordinates":[9.09935,45.4684]}},{"type":"Feature","properties":{"id":"ke-doga-23","kind":"poi","name":"Parco delle Cascine","theme":"doga","lab":1},"geometry":{"type":"Point","coordinates":[9.25445,45.64691]}},{"type":"Feature","properties":{"id":"ke-doga-24","kind":"poi","name":"Parco delle Basiliche","theme":"doga","lab":1},"geometry":{"type":"Point","coordinates":[9.18252,45.45818]}},{"type":"Feature","properties":{"id":"ke-doga-25","kind":"poi","name":"Parco della Vettabbia","theme":"doga","lab":1},"geometry":{"type":"Point","coordinates":[9.22748,45.4228]}},{"type":"Feature","properties":{"id":"ke-doga-26","kind":"poi","name":"Parco della Resistenza","theme":"doga","lab":1},"geometry":{"type":"Point","coordinates":[9.18361,45.44651]}},{"type":"Feature","properties":{"id":"ke-doga-27","kind":"poi","name":"Parco della Lambretta","theme":"doga","lab":1},"geometry":{"type":"Point","coordinates":[9.25223,45.47979]}},{"type":"Feature","properties":{"id":"ke-doga-28","kind":"poi","name":"Parco della Besozza","theme":"doga","lab":1},"geometry":{"type":"Point","coordinates":[9.32571,45.46944]}},{"type":"Feature","properties":{"id":"ke-doga-29","kind":"poi","name":"Parco dell'Acqua","theme":"doga","lab":1},"geometry":{"type":"Point","coordinates":[9.16733,45.54641]}},{"type":"Feature","properties":{"id":"ke-doga-30","kind":"poi","name":"Parco dei Fontanili","theme":"doga","lab":1},"geometry":{"type":"Point","coordinates":[9.05682,45.50695]}},{"type":"Feature","properties":{"id":"ke-doga-31","kind":"poi","name":"Parco dei Bambini","theme":"doga","lab":1},"geometry":{"type":"Point","coordinates":[9.06827,45.57768]}},{"type":"Feature","properties":{"id":"ke-doga-32","kind":"poi","name":"Parco degli Alpini","theme":"doga","lab":1},"geometry":{"type":"Point","coordinates":[8.85841,45.61489]}},{"type":"Feature","properties":{"id":"ke-doga-33","kind":"poi","name":"Parco archeologico industriale ex-Breda","theme":"doga","lab":1},"geometry":{"type":"Point","coordinates":[9.22225,45.52951]}},{"type":"Feature","properties":{"id":"ke-doga-34","kind":"poi","name":"Parco Vittorio Formentano","theme":"doga","lab":1},"geometry":{"type":"Point","coordinates":[9.21573,45.46034]}},{"type":"Feature","properties":{"id":"ke-doga-35","kind":"poi","name":"Parco Villoresi - Monza","theme":"doga","lab":1},"geometry":{"type":"Point","coordinates":[9.24543,45.58785]}},{"type":"Feature","properties":{"id":"ke-doga-36","kind":"poi","name":"Parco Villa Visconti Banfi","theme":"doga","lab":1},"geometry":{"type":"Point","coordinates":[9.0396,45.52718]}},{"type":"Feature","properties":{"id":"ke-doga-37","kind":"poi","name":"Parco Villa Litta","theme":"doga","lab":1},"geometry":{"type":"Point","coordinates":[9.16556,45.51608]}},{"type":"Feature","properties":{"id":"ke-doga-38","kind":"poi","name":"Parco Vertua","theme":"doga","lab":1},"geometry":{"type":"Point","coordinates":[9.19812,45.59051]}},{"type":"Feature","properties":{"id":"ke-doga-39","kind":"poi","name":"Parco Trotter","theme":"doga","lab":1},"geometry":{"type":"Point","coordinates":[9.22394,45.49451]}},{"type":"Feature","properties":{"id":"ke-doga-40","kind":"poi","name":"Parco Travaglia","theme":"doga","lab":1},"geometry":{"type":"Point","coordinates":[9.1073,45.44169]}},{"type":"Feature","properties":{"id":"ke-doga-41","kind":"poi","name":"Parco Trapezio","theme":"doga","lab":1},"geometry":{"type":"Point","coordinates":[9.24358,45.43637]}},{"type":"Feature","properties":{"id":"ke-doga-42","kind":"poi","name":"Parco Serenella","theme":"doga","lab":1},"geometry":{"type":"Point","coordinates":[9.2817,45.39497]}},{"type":"Feature","properties":{"id":"ke-doga-43","kind":"poi","name":"Parco Sandro Pertini","theme":"doga","lab":1},"geometry":{"type":"Point","coordinates":[9.09004,45.44309]}},{"type":"Feature","properties":{"id":"ke-doga-44","kind":"poi","name":"Parco Rurale Cascina Gatti","theme":"doga","lab":1},"geometry":{"type":"Point","coordinates":[9.24913,45.5274]}},{"type":"Feature","properties":{"id":"ke-doga-45","kind":"poi","name":"Parco Renzo Rivolta","theme":"doga","lab":1},"geometry":{"type":"Point","coordinates":[9.19091,45.5357]}},{"type":"Feature","properties":{"id":"ke-doga-46","kind":"poi","name":"Parco Pastore","theme":"doga","lab":1},"geometry":{"type":"Point","coordinates":[8.82948,45.62588]}},{"type":"Feature","properties":{"id":"ke-doga-47","kind":"poi","name":"Parco OPAI","theme":"doga","lab":1},"geometry":{"type":"Point","coordinates":[8.88992,45.6285]}},{"type":"Feature","properties":{"id":"ke-doga-48","kind":"poi","name":"Parco Nord di San Giuliano Milanese","theme":"doga","lab":1},"geometry":{"type":"Point","coordinates":[9.27601,45.40579]}},{"type":"Feature","properties":{"id":"ke-doga-49","kind":"poi","name":"Parco Nicolò Savarino","theme":"doga","lab":1},"geometry":{"type":"Point","coordinates":[9.17706,45.499]}},{"type":"Feature","properties":{"id":"ke-doga-50","kind":"poi","name":"Parco Naturale Bosco delle Querce","theme":"doga","lab":1},"geometry":{"type":"Point","coordinates":[9.15278,45.64665]}},{"type":"Feature","properties":{"id":"ke-doga-51","kind":"poi","name":"Parco Martiri della Libertà Iracheni Vittime del Terrorismo","theme":"doga","lab":1},"geometry":{"type":"Point","coordinates":[9.23312,45.50269]}},{"type":"Feature","properties":{"id":"ke-doga-52","kind":"poi","name":"Parco Martin Luther King","theme":"doga","lab":1},"geometry":{"type":"Point","coordinates":[9.10937,45.54378]}},{"type":"Feature","properties":{"id":"ke-doga-53","kind":"poi","name":"Parco Lago Nord","theme":"doga","lab":1},"geometry":{"type":"Point","coordinates":[9.18183,45.57702]}},{"type":"Feature","properties":{"id":"ke-doga-54","kind":"poi","name":"Parco Industria Alfa Romeo Portello","theme":"doga","lab":1},"geometry":{"type":"Point","coordinates":[9.14594,45.4875]}},{"type":"Feature","properties":{"id":"ke-doga-55","kind":"poi","name":"Parco Giovanni Testori","theme":"doga","lab":1},"geometry":{"type":"Point","coordinates":[9.15491,45.49902]}},{"type":"Feature","properties":{"id":"ke-doga-56","kind":"poi","name":"Parco Giorgella","theme":"doga","lab":1},"geometry":{"type":"Point","coordinates":[9.11167,45.44017]}},{"type":"Feature","properties":{"id":"ke-doga-57","kind":"poi","name":"Parco Gino Cassinis","theme":"doga","lab":1},"geometry":{"type":"Point","coordinates":[9.23348,45.43349]}},{"type":"Feature","properties":{"id":"ke-doga-58","kind":"poi","name":"Parco Francesco di Cataldo","theme":"doga","lab":1},"geometry":{"type":"Point","coordinates":[9.23288,45.51364]}},{"type":"Feature","properties":{"id":"ke-doga-59","kind":"poi","name":"Parco Cava Increa","theme":"doga","lab":1},"geometry":{"type":"Point","coordinates":[9.31946,45.54122]}},{"type":"Feature","properties":{"id":"ke-doga-60","kind":"poi","name":"Parco Carlo Marx","theme":"doga","lab":1},"geometry":{"type":"Point","coordinates":[9.24822,45.53101]}},{"type":"Feature","properties":{"id":"ke-doga-61","kind":"poi","name":"Parco Cabassina","theme":"doga","lab":1},"geometry":{"type":"Point","coordinates":[9.09509,45.43695]}},{"type":"Feature","properties":{"id":"ke-doga-62","kind":"poi","name":"Parco Borromeo","theme":"doga","lab":1},"geometry":{"type":"Point","coordinates":[9.15127,45.62968]}},{"type":"Feature","properties":{"id":"ke-doga-63","kind":"poi","name":"Parco Baden Powell","theme":"doga","lab":1},"geometry":{"type":"Point","coordinates":[9.34281,45.36586]}},{"type":"Feature","properties":{"id":"ke-doga-64","kind":"poi","name":"Parco Arcadia","theme":"doga","lab":1},"geometry":{"type":"Point","coordinates":[8.98727,45.4796]}},{"type":"Feature","properties":{"id":"ke-doga-65","kind":"poi","name":"Parco Andrea Campagna","theme":"doga","lab":1},"geometry":{"type":"Point","coordinates":[9.14285,45.43573]}},{"type":"Feature","properties":{"id":"ke-doga-66","kind":"poi","name":"Parco Aldo Aniasi","theme":"doga","lab":1},"geometry":{"type":"Point","coordinates":[9.10637,45.48452]}},{"type":"Feature","properties":{"id":"ke-doga-67","kind":"poi","name":"Parco Adriano","theme":"doga","lab":1},"geometry":{"type":"Point","coordinates":[9.25167,45.51783]}},{"type":"Feature","properties":{"id":"ke-doga-68","kind":"poi","name":"Parco 2 Giugno alla Porada","theme":"doga","lab":1},"geometry":{"type":"Point","coordinates":[9.18341,45.65992]}},{"type":"Feature","properties":{"id":"ke-doga-69","kind":"poi","name":"Parchetto della Maddalena","theme":"doga","lab":1},"geometry":{"type":"Point","coordinates":[9.2288,45.5136]}},{"type":"Feature","properties":{"id":"ke-doga-70","kind":"poi","name":"Orto botanico Universitario \"Cascina Rosa\"","theme":"doga","lab":1},"geometry":{"type":"Point","coordinates":[9.23554,45.4745]}},{"type":"Feature","properties":{"id":"ke-doga-71","kind":"poi","name":"Largo Oreste Murani","theme":"doga","lab":1},"geometry":{"type":"Point","coordinates":[9.23474,45.47313]}},{"type":"Feature","properties":{"id":"ke-doga-72","kind":"poi","name":"ILA community park","theme":"doga","lab":1},"geometry":{"type":"Point","coordinates":[8.93154,45.59761]}},{"type":"Feature","properties":{"id":"ke-doga-73","kind":"poi","name":"Giardino di via Giacomo della Porta","theme":"doga","lab":1},"geometry":{"type":"Point","coordinates":[9.20647,45.51799]}},{"type":"Feature","properties":{"id":"ke-doga-74","kind":"poi","name":"Giardino della Villa Belgiojoso Bonaparte","theme":"doga","lab":1},"geometry":{"type":"Point","coordinates":[9.19938,45.47201]}},{"type":"Feature","properties":{"id":"ke-doga-75","kind":"poi","name":"Giardino Wanda Osiris","theme":"doga","lab":1},"geometry":{"type":"Point","coordinates":[9.19523,45.50246]}},{"type":"Feature","properties":{"id":"ke-doga-76","kind":"poi","name":"Giardino Teresa Pomodoro","theme":"doga","lab":1},"geometry":{"type":"Point","coordinates":[9.22365,45.48032]}},{"type":"Feature","properties":{"id":"ke-doga-77","kind":"poi","name":"Giardino Roberto Bazlen e Luciano Foà","theme":"doga","lab":1},"geometry":{"type":"Point","coordinates":[9.19747,45.45428]}},{"type":"Feature","properties":{"id":"ke-doga-78","kind":"poi","name":"Giardino Robert Baden-Powell","theme":"doga","lab":1},"geometry":{"type":"Point","coordinates":[9.16695,45.44842]}},{"type":"Feature","properties":{"id":"ke-doga-79","kind":"poi","name":"Giardino Piazzale Bologna","theme":"doga","lab":1},"geometry":{"type":"Point","coordinates":[9.22299,45.4451]}},{"type":"Feature","properties":{"id":"ke-doga-80","kind":"poi","name":"Giardino Oreste del Buono","theme":"doga","lab":1},"geometry":{"type":"Point","coordinates":[9.22495,45.46356]}},{"type":"Feature","properties":{"id":"ke-doga-81","kind":"poi","name":"Giardino Marisa Bellisario","theme":"doga","lab":1},"geometry":{"type":"Point","coordinates":[9.23801,45.49023]}},{"type":"Feature","properties":{"id":"ke-doga-82","kind":"poi","name":"Giardino Luigi Marangoni","theme":"doga","lab":1},"geometry":{"type":"Point","coordinates":[9.12244,45.47437]}},{"type":"Feature","properties":{"id":"ke-doga-83","kind":"poi","name":"Giardino La Strescia","theme":"doga","lab":1},"geometry":{"type":"Point","coordinates":[9.17744,45.54843]}},{"type":"Feature","properties":{"id":"ke-gastronomi-0","kind":"poi","name":"Small Café","theme":"gastronomi","lab":1},"geometry":{"type":"Point","coordinates":[9.18487,45.49388]}},{"type":"Feature","properties":{"id":"ke-gastronomi-1","kind":"poi","name":"Mudec Bistrot","theme":"gastronomi","lab":1},"geometry":{"type":"Point","coordinates":[9.16146,45.45169]}},{"type":"Feature","properties":{"id":"ke-gastronomi-2","kind":"poi","name":"Mono Bar","theme":"gastronomi","lab":1},"geometry":{"type":"Point","coordinates":[9.20396,45.47638]}},{"type":"Feature","properties":{"id":"ke-gastronomi-3","kind":"poi","name":"Jamaica","theme":"gastronomi","lab":1},"geometry":{"type":"Point","coordinates":[9.18754,45.4726]}},{"type":"Feature","properties":{"id":"ke-gastronomi-4","kind":"poi","name":"Bagutto","theme":"gastronomi","lab":1},"geometry":{"type":"Point","coordinates":[9.26095,45.44416]}},{"type":"Feature","properties":{"id":"ke-gastronomi-5","kind":"poi","name":"Antica Osteria del Ponte","theme":"gastronomi","lab":1},"geometry":{"type":"Point","coordinates":[8.90965,45.42588]}},{"type":"Feature","properties":{"id":"ke-gastronomi-6","kind":"poi","name":"Mercato Crespi","theme":"gastronomi","lab":1},"geometry":{"type":"Point","coordinates":[9.21926,45.49326]}},{"type":"Feature","properties":{"id":"ke-gastronomi-7","kind":"poi","name":"La Gravina","theme":"gastronomi","lab":1},"geometry":{"type":"Point","coordinates":[9.18306,45.43968]}},{"type":"Feature","properties":{"id":"ke-gastronomi-8","kind":"poi","name":"Gusto italiano","theme":"gastronomi","lab":1},"geometry":{"type":"Point","coordinates":[8.91449,45.56152]}},{"type":"Feature","properties":{"id":"ke-gastronomi-9","kind":"poi","name":"Fiera di Sinigaglia","theme":"gastronomi","lab":1},"geometry":{"type":"Point","coordinates":[9.16827,45.45033]}},{"type":"Feature","properties":{"id":"ke-gastronomi-10","kind":"poi","name":"Birrificio Lambrate","theme":"gastronomi","lab":1},"geometry":{"type":"Point","coordinates":[9.23151,45.48571]}},{"type":"Feature","properties":{"id":"ke-gastronomi-11","kind":"poi","name":"Bar Luce","theme":"gastronomi","lab":1},"geometry":{"type":"Point","coordinates":[9.20529,45.44381]}},{"type":"Feature","properties":{"id":"ke-gastronomi-12","kind":"poi","name":"Bar Basso","theme":"gastronomi","lab":1},"geometry":{"type":"Point","coordinates":[9.21758,45.47677]}},{"type":"Feature","properties":{"id":"ke-gastronomi-13","kind":"poi","name":"Wasabi","theme":"gastronomi","lab":1},"geometry":{"type":"Point","coordinates":[9.18819,45.47845]}},{"type":"Feature","properties":{"id":"ke-gastronomi-14","kind":"poi","name":"Wagamama","theme":"gastronomi","lab":1},"geometry":{"type":"Point","coordinates":[8.71349,45.62545]}},{"type":"Feature","properties":{"id":"ke-gastronomi-15","kind":"poi","name":"Trattoria Caprese","theme":"gastronomi","lab":1},"geometry":{"type":"Point","coordinates":[9.27469,45.58488]}},{"type":"Feature","properties":{"id":"ke-gastronomi-16","kind":"poi","name":"Tourlé","theme":"gastronomi","lab":1},"geometry":{"type":"Point","coordinates":[8.96111,45.56835]}},{"type":"Feature","properties":{"id":"ke-gastronomi-17","kind":"poi","name":"The Kitchen Beer Restaurant","theme":"gastronomi","lab":1},"geometry":{"type":"Point","coordinates":[8.90072,45.52624]}},{"type":"Feature","properties":{"id":"ke-gastronomi-18","kind":"poi","name":"Sushiko","theme":"gastronomi","lab":1},"geometry":{"type":"Point","coordinates":[9.27126,45.49105]}},{"type":"Feature","properties":{"id":"ke-gastronomi-19","kind":"poi","name":"Sushi Club","theme":"gastronomi","lab":1},"geometry":{"type":"Point","coordinates":[9.03415,45.61413]}},{"type":"Feature","properties":{"id":"ke-gastronomi-20","kind":"poi","name":"Signorvino Arese","theme":"gastronomi","lab":1},"geometry":{"type":"Point","coordinates":[9.05425,45.56346]}},{"type":"Feature","properties":{"id":"ke-gastronomi-21","kind":"poi","name":"Rossopomodoro","theme":"gastronomi","lab":1},"geometry":{"type":"Point","coordinates":[9.28205,45.42277]}},{"type":"Feature","properties":{"id":"ke-gastronomi-22","kind":"poi","name":"Rossopomodoro","theme":"gastronomi","lab":1},"geometry":{"type":"Point","coordinates":[9.21592,45.36098]}},{"type":"Feature","properties":{"id":"ke-gastronomi-23","kind":"poi","name":"Rossopomodoro","theme":"gastronomi","lab":1},"geometry":{"type":"Point","coordinates":[9.18138,45.45737]}},{"type":"Feature","properties":{"id":"ke-gastronomi-24","kind":"poi","name":"Roadhouse Restaurant Lainate Casello","theme":"gastronomi","lab":1},"geometry":{"type":"Point","coordinates":[9.02903,45.5613]}},{"type":"Feature","properties":{"id":"ke-gastronomi-25","kind":"poi","name":"Roadhouse","theme":"gastronomi","lab":1},"geometry":{"type":"Point","coordinates":[9.309,45.57501]}},{"type":"Feature","properties":{"id":"ke-gastronomi-26","kind":"poi","name":"Roadhouse","theme":"gastronomi","lab":1},"geometry":{"type":"Point","coordinates":[9.21824,45.52984]}},{"type":"Feature","properties":{"id":"ke-gastronomi-27","kind":"poi","name":"Roadhouse","theme":"gastronomi","lab":1},"geometry":{"type":"Point","coordinates":[9.19601,45.46288]}},{"type":"Feature","properties":{"id":"ke-gastronomi-28","kind":"poi","name":"Roadhouse","theme":"gastronomi","lab":1},"geometry":{"type":"Point","coordinates":[8.80837,45.64991]}},{"type":"Feature","properties":{"id":"ke-gastronomi-29","kind":"poi","name":"Reginè","theme":"gastronomi","lab":1},"geometry":{"type":"Point","coordinates":[9.14029,45.57734]}},{"type":"Feature","properties":{"id":"ke-gastronomi-30","kind":"poi","name":"Reginè","theme":"gastronomi","lab":1},"geometry":{"type":"Point","coordinates":[9.04377,45.61479]}},{"type":"Feature","properties":{"id":"ke-gastronomi-31","kind":"poi","name":"Red Bistrot Libreria","theme":"gastronomi","lab":1},"geometry":{"type":"Point","coordinates":[9.15538,45.47818]}},{"type":"Feature","properties":{"id":"ke-gastronomi-32","kind":"poi","name":"Radicetonda","theme":"gastronomi","lab":1},"geometry":{"type":"Point","coordinates":[9.20706,45.44954]}},{"type":"Feature","properties":{"id":"ke-gastronomi-33","kind":"poi","name":"Poormanger","theme":"gastronomi","lab":1},"geometry":{"type":"Point","coordinates":[9.17393,45.45305]}},{"type":"Feature","properties":{"id":"ke-gastronomi-34","kind":"poi","name":"Pizzikotto","theme":"gastronomi","lab":1},"geometry":{"type":"Point","coordinates":[9.24003,45.43358]}},{"type":"Feature","properties":{"id":"ke-gastronomi-35","kind":"poi","name":"Pizzeria Belvedere - Mazzo di Rho","theme":"gastronomi","lab":1},"geometry":{"type":"Point","coordinates":[9.06849,45.53163]}},{"type":"Feature","properties":{"id":"ke-gastronomi-36","kind":"poi","name":"Pizzeria Belvedere","theme":"gastronomi","lab":1},"geometry":{"type":"Point","coordinates":[9.07795,45.57285]}},{"type":"Feature","properties":{"id":"ke-gastronomi-37","kind":"poi","name":"PizzaClubNoLimits","theme":"gastronomi","lab":1},"geometry":{"type":"Point","coordinates":[8.93641,45.59082]}},{"type":"Feature","properties":{"id":"ke-gastronomi-38","kind":"poi","name":"Pizza a pezzi","theme":"gastronomi","lab":1},"geometry":{"type":"Point","coordinates":[9.23034,45.47044]}},{"type":"Feature","properties":{"id":"ke-gastronomi-39","kind":"poi","name":"Osteria Nanin","theme":"gastronomi","lab":1},"geometry":{"type":"Point","coordinates":[9.20705,45.46514]}},{"type":"Feature","properties":{"id":"ke-alisveris-0","kind":"poi","name":"La Rinascente","theme":"alisveris","lab":1},"geometry":{"type":"Point","coordinates":[9.27415,45.58037]}},{"type":"Feature","properties":{"id":"ke-alisveris-1","kind":"poi","name":"City Life Shopping District","theme":"alisveris","lab":1},"geometry":{"type":"Point","coordinates":[9.1567,45.47819]}},{"type":"Feature","properties":{"id":"ke-alisveris-2","kind":"poi","name":"Westfield Milano","theme":"alisveris","lab":1},"geometry":{"type":"Point","coordinates":[9.28571,45.48168]}},{"type":"Feature","properties":{"id":"ke-alisveris-3","kind":"poi","name":"Upim","theme":"alisveris","lab":1},"geometry":{"type":"Point","coordinates":[9.23213,45.54714]}},{"type":"Feature","properties":{"id":"ke-alisveris-4","kind":"poi","name":"Upim","theme":"alisveris","lab":1},"geometry":{"type":"Point","coordinates":[9.22354,45.43995]}},{"type":"Feature","properties":{"id":"ke-alisveris-5","kind":"poi","name":"Upim","theme":"alisveris","lab":1},"geometry":{"type":"Point","coordinates":[9.21013,45.47975]}},{"type":"Feature","properties":{"id":"ke-alisveris-6","kind":"poi","name":"Upim","theme":"alisveris","lab":1},"geometry":{"type":"Point","coordinates":[9.18513,45.49526]}},{"type":"Feature","properties":{"id":"ke-alisveris-7","kind":"poi","name":"Upim","theme":"alisveris","lab":1},"geometry":{"type":"Point","coordinates":[9.1425,45.45257]}},{"type":"Feature","properties":{"id":"ke-alisveris-8","kind":"poi","name":"Upim","theme":"alisveris","lab":1},"geometry":{"type":"Point","coordinates":[9.09698,45.45116]}},{"type":"Feature","properties":{"id":"ke-alisveris-9","kind":"poi","name":"Upim","theme":"alisveris","lab":1},"geometry":{"type":"Point","coordinates":[8.85395,45.61205]}},{"type":"Feature","properties":{"id":"ke-alisveris-10","kind":"poi","name":"Pubblistore","theme":"alisveris","lab":1},"geometry":{"type":"Point","coordinates":[8.93805,45.591]}},{"type":"Feature","properties":{"id":"ke-alisveris-11","kind":"poi","name":"Olly","theme":"alisveris","lab":1},"geometry":{"type":"Point","coordinates":[9.16974,45.51938]}},{"type":"Feature","properties":{"id":"ke-alisveris-12","kind":"poi","name":"Muji","theme":"alisveris","lab":1},"geometry":{"type":"Point","coordinates":[9.1866,45.46252]}},{"type":"Feature","properties":{"id":"ke-alisveris-13","kind":"poi","name":"MilanoHome","theme":"alisveris","lab":1},"geometry":{"type":"Point","coordinates":[9.15647,45.65397]}},{"type":"Feature","properties":{"id":"ke-alisveris-14","kind":"poi","name":"Mec","theme":"alisveris","lab":1},"geometry":{"type":"Point","coordinates":[8.89129,45.60162]}},{"type":"Feature","properties":{"id":"ke-alisveris-15","kind":"poi","name":"La Rinascente","theme":"alisveris","lab":1},"geometry":{"type":"Point","coordinates":[9.19191,45.46496]}},{"type":"Feature","properties":{"id":"ke-alisveris-16","kind":"poi","name":"Iperal Milano via Ripamonti","theme":"alisveris","lab":1},"geometry":{"type":"Point","coordinates":[9.20171,45.43409]}},{"type":"Feature","properties":{"id":"ke-alisveris-17","kind":"poi","name":"In's Mercato","theme":"alisveris","lab":1},"geometry":{"type":"Point","coordinates":[9.29125,45.39681]}},{"type":"Feature","properties":{"id":"ke-alisveris-18","kind":"poi","name":"Grancasa","theme":"alisveris","lab":1},"geometry":{"type":"Point","coordinates":[8.9828,45.55352]}},{"type":"Feature","properties":{"id":"ke-alisveris-19","kind":"poi","name":"Eataly Smeraldo","theme":"alisveris","lab":1},"geometry":{"type":"Point","coordinates":[9.18788,45.48057]}},{"type":"Feature","properties":{"id":"ke-alisveris-20","kind":"poi","name":"Coin","theme":"alisveris","lab":1},"geometry":{"type":"Point","coordinates":[9.20639,45.46248]}},{"type":"Feature","properties":{"id":"ke-alisveris-21","kind":"poi","name":"Coin","theme":"alisveris","lab":1},"geometry":{"type":"Point","coordinates":[9.17246,45.45532]}},{"type":"Feature","properties":{"id":"ke-alisveris-22","kind":"poi","name":"Coin","theme":"alisveris","lab":1},"geometry":{"type":"Point","coordinates":[9.16059,45.46662]}},{"type":"Feature","properties":{"id":"ke-alisveris-23","kind":"poi","name":"Centro Commerciale Villasanta Il Gigante","theme":"alisveris","lab":1},"geometry":{"type":"Point","coordinates":[9.30875,45.61907]}},{"type":"Feature","properties":{"id":"ke-alisveris-24","kind":"poi","name":"Centro Commerciale Move In","theme":"alisveris","lab":1},"geometry":{"type":"Point","coordinates":[8.94864,45.60081]}},{"type":"Feature","properties":{"id":"ke-alisveris-25","kind":"poi","name":"Centro Commerciale Arese Shopping","theme":"alisveris","lab":1},"geometry":{"type":"Point","coordinates":[9.05186,45.56345]}},{"type":"Feature","properties":{"id":"ke-alisveris-26","kind":"poi","name":"hangar 107","theme":"alisveris","lab":1},"geometry":{"type":"Point","coordinates":[9.21212,45.51584]}},{"type":"Feature","properties":{"id":"ke-alisveris-27","kind":"poi","name":"Your Shop","theme":"alisveris","lab":1},"geometry":{"type":"Point","coordinates":[9.26722,45.58104]}},{"type":"Feature","properties":{"id":"ke-alisveris-28","kind":"poi","name":"Top Shop","theme":"alisveris","lab":1},"geometry":{"type":"Point","coordinates":[9.01523,45.63251]}},{"type":"Feature","properties":{"id":"ke-alisveris-29","kind":"poi","name":"Tigros","theme":"alisveris","lab":1},"geometry":{"type":"Point","coordinates":[9.14937,45.4507]}},{"type":"Feature","properties":{"id":"ke-alisveris-30","kind":"poi","name":"Tigros","theme":"alisveris","lab":1},"geometry":{"type":"Point","coordinates":[8.81233,45.53969]}},{"type":"Feature","properties":{"id":"ke-alisveris-31","kind":"poi","name":"SuperDí","theme":"alisveris","lab":1},"geometry":{"type":"Point","coordinates":[8.96579,45.65783]}},{"type":"Feature","properties":{"id":"ke-alisveris-32","kind":"poi","name":"Shun Fa","theme":"alisveris","lab":1},"geometry":{"type":"Point","coordinates":[8.72819,45.43863]}},{"type":"Feature","properties":{"id":"ke-alisveris-33","kind":"poi","name":"Shopping Room","theme":"alisveris","lab":1},"geometry":{"type":"Point","coordinates":[9.18351,45.48496]}},{"type":"Feature","properties":{"id":"ke-alisveris-34","kind":"poi","name":"Shanghai Mercato","theme":"alisveris","lab":1},"geometry":{"type":"Point","coordinates":[9.29454,45.58139]}},{"type":"Feature","properties":{"id":"ke-otel-0","kind":"poi","name":"nhow Milano","theme":"otel","lab":1},"geometry":{"type":"Point","coordinates":[9.16062,45.45024]}},{"type":"Feature","properties":{"id":"ke-otel-1","kind":"poi","name":"iH Hotels Milano Lorenteggio","theme":"otel","lab":1},"geometry":{"type":"Point","coordinates":[9.11597,45.44431]}},{"type":"Feature","properties":{"id":"ke-otel-2","kind":"poi","name":"Voco Milan - Fiere","theme":"otel","lab":1},"geometry":{"type":"Point","coordinates":[9.12419,45.5115]}},{"type":"Feature","properties":{"id":"ke-otel-3","kind":"poi","name":"Unahotels Scandinavia","theme":"otel","lab":1},"geometry":{"type":"Point","coordinates":[9.16412,45.48551]}},{"type":"Feature","properties":{"id":"ke-otel-4","kind":"poi","name":"Unahotels Mediterraneo","theme":"otel","lab":1},"geometry":{"type":"Point","coordinates":[9.20582,45.45176]}},{"type":"Feature","properties":{"id":"ke-otel-5","kind":"poi","name":"Unahotels Cusani","theme":"otel","lab":1},"geometry":{"type":"Point","coordinates":[9.18338,45.46851]}},{"type":"Feature","properties":{"id":"ke-otel-6","kind":"poi","name":"Starhotels Anderson","theme":"otel","lab":1},"geometry":{"type":"Point","coordinates":[9.20706,45.48529]}},{"type":"Feature","properties":{"id":"ke-otel-7","kind":"poi","name":"Radisson Blu Hotel","theme":"otel","lab":1},"geometry":{"type":"Point","coordinates":[9.14437,45.5007]}},{"type":"Feature","properties":{"id":"ke-otel-8","kind":"poi","name":"NH Collection Milano President","theme":"otel","lab":1},"geometry":{"type":"Point","coordinates":[9.19789,45.46307]}},{"type":"Feature","properties":{"id":"ke-otel-9","kind":"poi","name":"NH Collection Milano Porta Nuova","theme":"otel","lab":1},"geometry":{"type":"Point","coordinates":[9.19194,45.48141]}},{"type":"Feature","properties":{"id":"ke-otel-10","kind":"poi","name":"Maison Borella","theme":"otel","lab":1},"geometry":{"type":"Point","coordinates":[9.17576,45.45212]}},{"type":"Feature","properties":{"id":"ke-otel-11","kind":"poi","name":"IQ Hotel Milano","theme":"otel","lab":1},"geometry":{"type":"Point","coordinates":[9.20117,45.48414]}},{"type":"Feature","properties":{"id":"ke-otel-12","kind":"poi","name":"Hotel de la Ville","theme":"otel","lab":1},"geometry":{"type":"Point","coordinates":[9.27151,45.59247]}},{"type":"Feature","properties":{"id":"ke-otel-13","kind":"poi","name":"Hotel VIU Milan","theme":"otel","lab":1},"geometry":{"type":"Point","coordinates":[9.17756,45.4833]}},{"type":"Feature","properties":{"id":"ke-otel-14","kind":"poi","name":"Hilton Milan","theme":"otel","lab":1},"geometry":{"type":"Point","coordinates":[9.20013,45.48616]}},{"type":"Feature","properties":{"id":"ke-otel-15","kind":"poi","name":"Grand Hotel Villa Torretta Milan Sesto, Curio Collection by Hilton","theme":"otel","lab":1},"geometry":{"type":"Point","coordinates":[9.21684,45.53109]}},{"type":"Feature","properties":{"id":"ke-otel-16","kind":"poi","name":"Four Seasons","theme":"otel","lab":1},"geometry":{"type":"Point","coordinates":[9.1953,45.46941]}},{"type":"Feature","properties":{"id":"ke-otel-17","kind":"poi","name":"DoubleTree by Hilton Hotel Milan","theme":"otel","lab":1},"geometry":{"type":"Point","coordinates":[9.13801,45.50024]}},{"type":"Feature","properties":{"id":"ke-otel-18","kind":"poi","name":"Domina Milano Fiera","theme":"otel","lab":1},"geometry":{"type":"Point","coordinates":[9.12451,45.53483]}},{"type":"Feature","properties":{"id":"ke-otel-19","kind":"poi","name":"Best Western Antares Hotel Concorde","theme":"otel","lab":1},"geometry":{"type":"Point","coordinates":[9.22193,45.50242]}},{"type":"Feature","properties":{"id":"ke-otel-20","kind":"poi","name":"B&B Hotel Milano La Spezia","theme":"otel","lab":1},"geometry":{"type":"Point","coordinates":[9.17285,45.44094]}},{"type":"Feature","properties":{"id":"ke-otel-21","kind":"poi","name":"Antares Hotel Rubens","theme":"otel","lab":1},"geometry":{"type":"Point","coordinates":[9.14301,45.46713]}},{"type":"Feature","properties":{"id":"ke-otel-22","kind":"poi","name":"AS Hotel Monza","theme":"otel","lab":1},"geometry":{"type":"Point","coordinates":[9.24966,45.58279]}},{"type":"Feature","properties":{"id":"ke-otel-23","kind":"poi","name":"Savona 18 Suites","theme":"otel","lab":1},"geometry":{"type":"Point","coordinates":[9.16762,45.45528]}},{"type":"Feature","properties":{"id":"ke-otel-24","kind":"poi","name":"Poli","theme":"otel","lab":1},"geometry":{"type":"Point","coordinates":[8.94952,45.58148]}},{"type":"Feature","properties":{"id":"ke-otel-25","kind":"poi","name":"Idea Hotel Milano San Siro","theme":"otel","lab":1},"geometry":{"type":"Point","coordinates":[9.07735,45.4712]}},{"type":"Feature","properties":{"id":"ke-otel-26","kind":"poi","name":"Hotel del Riale","theme":"otel","lab":1},"geometry":{"type":"Point","coordinates":[8.94773,45.55789]}},{"type":"Feature","properties":{"id":"ke-otel-27","kind":"poi","name":"Hotel Villa Malpensa","theme":"otel","lab":1},"geometry":{"type":"Point","coordinates":[8.69749,45.62552]}},{"type":"Feature","properties":{"id":"ke-otel-28","kind":"poi","name":"Hotel The Square Milano Duomo","theme":"otel","lab":1},"geometry":{"type":"Point","coordinates":[9.18931,45.46078]}},{"type":"Feature","properties":{"id":"ke-otel-29","kind":"poi","name":"Hotel Silver","theme":"otel","lab":1},"geometry":{"type":"Point","coordinates":[9.06831,45.4591]}},{"type":"Feature","properties":{"id":"ke-yurt-0","kind":"poi","name":"Residenza Bligny","theme":"yurt","lab":1},"geometry":{"type":"Point","coordinates":[9.18959,45.45089]}},{"type":"Feature","properties":{"id":"ke-yurt-1","kind":"poi","name":"Politecnico di Milano - Residenza Galileo Galilei","theme":"yurt","lab":1},"geometry":{"type":"Point","coordinates":[9.20293,45.46317]}},{"type":"Feature","properties":{"id":"ke-yurt-2","kind":"poi","name":"Palazzo del Consorzio Agrario Provinciale","theme":"yurt","lab":1},"geometry":{"type":"Point","coordinates":[9.19882,45.44596]}},{"type":"Feature","properties":{"id":"ke-yurt-3","kind":"poi","name":"Augustinianum","theme":"yurt","lab":1},"geometry":{"type":"Point","coordinates":[9.17753,45.463]}},{"type":"Feature","properties":{"id":"ke-yurt-4","kind":"poi","name":"Politecnico di Milano - Residenza Isaac Newton","theme":"yurt","lab":1},"geometry":{"type":"Point","coordinates":[9.10071,45.50198]}},{"type":"Feature","properties":{"id":"ke-yurt-5","kind":"poi","name":"CXMilan I Bicocca campus","theme":"yurt","lab":1},"geometry":{"type":"Point","coordinates":[9.20294,45.5137]}},{"type":"Feature","properties":{"id":"ke-yurt-6","kind":"poi","name":"Residenza Ripamonti UNIMI","theme":"yurt","lab":1},"geometry":{"type":"Point","coordinates":[9.20095,45.42683]}},{"type":"Feature","properties":{"id":"ke-yurt-7","kind":"poi","name":"Residenza Javotte","theme":"yurt","lab":1},"geometry":{"type":"Point","coordinates":[9.18444,45.44922]}},{"type":"Feature","properties":{"id":"ke-yurt-8","kind":"poi","name":"Residenza Albert Einstein","theme":"yurt","lab":1},"geometry":{"type":"Point","coordinates":[9.21695,45.45033]}},{"type":"Feature","properties":{"id":"ke-yurt-9","kind":"poi","name":"Residence A","theme":"yurt","lab":1},"geometry":{"type":"Point","coordinates":[9.17201,45.37303]}},{"type":"Feature","properties":{"id":"ke-yurt-10","kind":"poi","name":"Politecnico di Milano - Residenza Vilfredo Pareto","theme":"yurt","lab":1},"geometry":{"type":"Point","coordinates":[9.14522,45.50334]}},{"type":"Feature","properties":{"id":"ke-yurt-11","kind":"poi","name":"Ludovicianum","theme":"yurt","lab":1},"geometry":{"type":"Point","coordinates":[9.16897,45.46345]}},{"type":"Feature","properties":{"id":"ke-yurt-12","kind":"poi","name":"Campus Monneret","theme":"yurt","lab":1},"geometry":{"type":"Point","coordinates":[9.2469,45.48624]}},{"type":"Feature","properties":{"id":"ke-yurt-13","kind":"poi","name":"Camplus Sesto San Giovanni - Residenza Universitaria","theme":"yurt","lab":1},"geometry":{"type":"Point","coordinates":[9.24418,45.52687]}},{"type":"Feature","properties":{"id":"ke-yurt-14","kind":"poi","name":"Aparto","theme":"yurt","lab":1},"geometry":{"type":"Point","coordinates":[9.16319,45.50528]}},{"type":"Feature","properties":{"id":"ke-kamu-0","kind":"poi","name":"Municipio di Vespolate","theme":"kamu","lab":1},"geometry":{"type":"Point","coordinates":[8.66906,45.34953]}},{"type":"Feature","properties":{"id":"ke-kamu-1","kind":"poi","name":"Municipio di Trecate","theme":"kamu","lab":1},"geometry":{"type":"Point","coordinates":[8.73501,45.43188]}},{"type":"Feature","properties":{"id":"ke-kamu-2","kind":"poi","name":"Municipio di Tornaco","theme":"kamu","lab":1},"geometry":{"type":"Point","coordinates":[8.71797,45.35743]}},{"type":"Feature","properties":{"id":"ke-kamu-3","kind":"poi","name":"Municipio di Terdobbiate","theme":"kamu","lab":1},"geometry":{"type":"Point","coordinates":[8.69513,45.37637]}},{"type":"Feature","properties":{"id":"ke-kamu-4","kind":"poi","name":"Municipio di Sozzago","theme":"kamu","lab":1},"geometry":{"type":"Point","coordinates":[8.72092,45.39783]}},{"type":"Feature","properties":{"id":"ke-kamu-5","kind":"poi","name":"Municipio di Romentino","theme":"kamu","lab":1},"geometry":{"type":"Point","coordinates":[8.72086,45.46259]}},{"type":"Feature","properties":{"id":"ke-kamu-6","kind":"poi","name":"Municipio di Cesate","theme":"kamu","lab":1},"geometry":{"type":"Point","coordinates":[9.07555,45.59508]}},{"type":"Feature","properties":{"id":"ke-kamu-7","kind":"poi","name":"Municipio di Cerano","theme":"kamu","lab":1},"geometry":{"type":"Point","coordinates":[8.78091,45.41082]}},{"type":"Feature","properties":{"id":"ke-kamu-8","kind":"poi","name":"Municipio di Canegrate","theme":"kamu","lab":1},"geometry":{"type":"Point","coordinates":[8.92668,45.57066]}},{"type":"Feature","properties":{"id":"ke-kamu-9","kind":"poi","name":"Palazzo di Giustizia","theme":"kamu","lab":1},"geometry":{"type":"Point","coordinates":[9.27759,45.58533]}},{"type":"Feature","properties":{"id":"ke-kamu-10","kind":"poi","name":"Municipio di Vizzola Ticino","theme":"kamu","lab":1},"geometry":{"type":"Point","coordinates":[8.68545,45.6312]}},{"type":"Feature","properties":{"id":"ke-kamu-12","kind":"poi","name":"Municipio di Uboldo","theme":"kamu","lab":1},"geometry":{"type":"Point","coordinates":[9.00307,45.6107]}},{"type":"Feature","properties":{"id":"ke-kamu-13","kind":"poi","name":"Municipio di Sovico","theme":"kamu","lab":1},"geometry":{"type":"Point","coordinates":[9.26513,45.64941]}},{"type":"Feature","properties":{"id":"ke-kamu-14","kind":"poi","name":"Municipio di Solbiate Olona","theme":"kamu","lab":1},"geometry":{"type":"Point","coordinates":[8.88681,45.65291]}},{"type":"Feature","properties":{"id":"ke-kamu-15","kind":"poi","name":"Municipio di Settimo Milanese","theme":"kamu","lab":1},"geometry":{"type":"Point","coordinates":[9.05554,45.48044]}},{"type":"Feature","properties":{"id":"ke-kamu-16","kind":"poi","name":"Municipio di Senago","theme":"kamu","lab":1},"geometry":{"type":"Point","coordinates":[9.11738,45.57522]}},{"type":"Feature","properties":{"id":"ke-kamu-17","kind":"poi","name":"Municipio di Saronno","theme":"kamu","lab":1},"geometry":{"type":"Point","coordinates":[9.03625,45.62376]}},{"type":"Feature","properties":{"id":"ke-kamu-18","kind":"poi","name":"Municipio di Samarate","theme":"kamu","lab":1},"geometry":{"type":"Point","coordinates":[8.78506,45.63034]}},{"type":"Feature","properties":{"id":"ke-kamu-19","kind":"poi","name":"Municipio di Pregnana Milanese","theme":"kamu","lab":1},"geometry":{"type":"Point","coordinates":[9.00909,45.51682]}},{"type":"Feature","properties":{"id":"ke-kamu-20","kind":"poi","name":"Municipio di Pieve Emanuele","theme":"kamu","lab":1},"geometry":{"type":"Point","coordinates":[9.20032,45.35324]}},{"type":"Feature","properties":{"id":"ke-kamu-21","kind":"poi","name":"Municipio di Parabiago","theme":"kamu","lab":1},"geometry":{"type":"Point","coordinates":[8.95127,45.55688]}},{"type":"Feature","properties":{"id":"ke-kamu-22","kind":"poi","name":"Municipio di Origgio","theme":"kamu","lab":1},"geometry":{"type":"Point","coordinates":[9.01766,45.59968]}},{"type":"Feature","properties":{"id":"ke-kamu-23","kind":"poi","name":"Municipio di Noviglio","theme":"kamu","lab":1},"geometry":{"type":"Point","coordinates":[9.07105,45.35773]}},{"type":"Feature","properties":{"id":"ke-kamu-24","kind":"poi","name":"Municipio di Mediglia","theme":"kamu","lab":1},"geometry":{"type":"Point","coordinates":[9.32382,45.40124]}},{"type":"Feature","properties":{"id":"ke-kamu-25","kind":"poi","name":"Municipio di Marnate","theme":"kamu","lab":1},"geometry":{"type":"Point","coordinates":[8.90142,45.62923]}},{"type":"Feature","properties":{"id":"ke-kamu-26","kind":"poi","name":"Municipio di Magnago","theme":"kamu","lab":1},"geometry":{"type":"Point","coordinates":[8.80153,45.58006]}},{"type":"Feature","properties":{"id":"ke-kamu-27","kind":"poi","name":"Municipio di Lonate Pozzolo","theme":"kamu","lab":1},"geometry":{"type":"Point","coordinates":[8.75123,45.5993]}},{"type":"Feature","properties":{"id":"ke-kamu-28","kind":"poi","name":"Municipio di Lainate","theme":"kamu","lab":1},"geometry":{"type":"Point","coordinates":[9.02706,45.57157]}},{"type":"Feature","properties":{"id":"ke-kamu-29","kind":"poi","name":"Municipio di Gerenzano","theme":"kamu","lab":1},"geometry":{"type":"Point","coordinates":[8.9988,45.63885]}},{"type":"Feature","properties":{"id":"ke-kamu-30","kind":"poi","name":"Municipio di Gaggiano","theme":"kamu","lab":1},"geometry":{"type":"Point","coordinates":[9.03423,45.40631]}},{"type":"Feature","properties":{"id":"ke-kamu-31","kind":"poi","name":"Municipio di Cusano Milanino","theme":"kamu","lab":1},"geometry":{"type":"Point","coordinates":[9.18142,45.55132]}},{"type":"Feature","properties":{"id":"ke-kamu-32","kind":"poi","name":"Municipio di Cusago","theme":"kamu","lab":1},"geometry":{"type":"Point","coordinates":[9.03373,45.44663]}},{"type":"Feature","properties":{"id":"ke-kamu-33","kind":"poi","name":"Municipio di Corsico","theme":"kamu","lab":1},"geometry":{"type":"Point","coordinates":[9.10874,45.43186]}},{"type":"Feature","properties":{"id":"ke-kamu-34","kind":"poi","name":"Municipio di Cornaredo","theme":"kamu","lab":1},"geometry":{"type":"Point","coordinates":[9.02593,45.50196]}},{"type":"Feature","properties":{"id":"ke-kamu-35","kind":"poi","name":"Municipio di Concorezzo","theme":"kamu","lab":1},"geometry":{"type":"Point","coordinates":[9.3374,45.59043]}},{"type":"Feature","properties":{"id":"ke-kamu-36","kind":"poi","name":"Municipio di Colturano","theme":"kamu","lab":1},"geometry":{"type":"Point","coordinates":[9.34773,45.38103]}},{"type":"Feature","properties":{"id":"ke-kamu-37","kind":"poi","name":"Municipio di Castellanza","theme":"kamu","lab":1},"geometry":{"type":"Point","coordinates":[8.89918,45.61246]}},{"type":"Feature","properties":{"id":"ke-kamu-38","kind":"poi","name":"Municipio di Cassinetta di Lugagnano","theme":"kamu","lab":1},"geometry":{"type":"Point","coordinates":[8.91003,45.42566]}},{"type":"Feature","properties":{"id":"ke-kamu-39","kind":"poi","name":"Municipio di Caronno Pertusella","theme":"kamu","lab":1},"geometry":{"type":"Point","coordinates":[9.04891,45.59727]}},{"type":"Feature","properties":{"id":"ke-kamu-40","kind":"poi","name":"Municipio di Cameri","theme":"kamu","lab":1},"geometry":{"type":"Point","coordinates":[8.66225,45.50106]}},{"type":"Feature","properties":{"id":"ke-kamu-41","kind":"poi","name":"Municipio di Bollate","theme":"kamu","lab":1},"geometry":{"type":"Point","coordinates":[9.11767,45.54382]}},{"type":"Feature","properties":{"id":"ke-kamu-42","kind":"poi","name":"Municipio di Arese","theme":"kamu","lab":1},"geometry":{"type":"Point","coordinates":[9.07872,45.54998]}},{"type":"Feature","properties":{"id":"ke-kamu-43","kind":"poi","name":"Municipio di Albairate","theme":"kamu","lab":1},"geometry":{"type":"Point","coordinates":[8.93794,45.42007]}},{"type":"Feature","properties":{"id":"ke-kamu-44","kind":"poi","name":"Municipio","theme":"kamu","lab":1},"geometry":{"type":"Point","coordinates":[8.81817,45.47977]}},{"type":"Feature","properties":{"id":"ke-kamu-45","kind":"poi","name":"Ente Regionale per i Servizi all’Agricoltura e alle Foreste","theme":"kamu","lab":1},"geometry":{"type":"Point","coordinates":[9.19369,45.48921]}},{"type":"Feature","properties":{"id":"ke-kamu-46","kind":"poi","name":"Consulate General of the United Arab Emirates","theme":"kamu","lab":1},"geometry":{"type":"Point","coordinates":[9.20238,45.47021]}},{"type":"Feature","properties":{"id":"ke-kamu-47","kind":"poi","name":"Consulate General of France","theme":"kamu","lab":1},"geometry":{"type":"Point","coordinates":[9.19457,45.47621]}},{"type":"Feature","properties":{"id":"ke-kamu-48","kind":"poi","name":"Comune di Limbiate","theme":"kamu","lab":1},"geometry":{"type":"Point","coordinates":[9.12385,45.60354]}},{"type":"Feature","properties":{"id":"ke-nom-0","kind":"poi","name":"Galleria Vittorio Emanuele II","theme":"alisveris","lab":1},"geometry":{"type":"Point","coordinates":[9.19001,45.46564]}},{"type":"Feature","properties":{"id":"ke-nom-1","kind":"poi","name":"Teatro alla Scala","theme":"tarihi","lab":1},"geometry":{"type":"Point","coordinates":[9.18911,45.4676]}},{"type":"Feature","properties":{"id":"ke-nom-2","kind":"poi","name":"Castello Sforzesco","theme":"tarihi","lab":1},"geometry":{"type":"Point","coordinates":[9.17809,45.4703]}},{"type":"Feature","properties":{"id":"ke-nom-3","kind":"poi","name":"Santa Maria delle Grazie","theme":"tarihi","lab":1},"geometry":{"type":"Point","coordinates":[9.16962,45.46671]}},{"type":"Feature","properties":{"id":"ke-nom-4","kind":"poi","name":"Basilica di Sant'Ambrogio","theme":"tarihi","lab":1},"geometry":{"type":"Point","coordinates":[9.17585,45.46238]}},{"type":"Feature","properties":{"id":"ke-nom-5","kind":"poi","name":"Cimitero Monumentale","theme":"tarihi","lab":1},"geometry":{"type":"Point","coordinates":[9.1778,45.48772]}},{"type":"Feature","properties":{"id":"ke-nom-6","kind":"poi","name":"Arco della Pace","theme":"tarihi","lab":1},"geometry":{"type":"Point","coordinates":[9.17243,45.47569]}},{"type":"Feature","properties":{"id":"ke-nom-7","kind":"poi","name":"Palazzo Reale","theme":"tarihi","lab":1},"geometry":{"type":"Point","coordinates":[9.19087,45.4629]}},{"type":"Feature","properties":{"id":"ke-nom-8","kind":"poi","name":"San Siro (Stadio Meazza)","theme":"modern","lab":1},"geometry":{"type":"Point","coordinates":[9.12396,45.4782]}},{"type":"Feature","properties":{"id":"ke-nom-9","kind":"poi","name":"Torre Velasca","theme":"modern","lab":1},"geometry":{"type":"Point","coordinates":[9.19074,45.45991]}},{"type":"Feature","properties":{"id":"ke-nom-10","kind":"poi","name":"Bosco Verticale","theme":"modern","lab":1},"geometry":{"type":"Point","coordinates":[9.19126,45.48674]}},{"type":"Feature","properties":{"id":"ke-nom-11","kind":"poi","name":"Torre Unicredit","theme":"modern","lab":1},"geometry":{"type":"Point","coordinates":[9.18991,45.48386]}},{"type":"Feature","properties":{"id":"ke-nom-12","kind":"poi","name":"Museo Nazionale Scienza e Tecnologia","theme":"modern","lab":1},"geometry":{"type":"Point","coordinates":[9.17059,45.46178]}},{"type":"Feature","properties":{"id":"ke-nom-13","kind":"poi","name":"Triennale Milano","theme":"modern","lab":1},"geometry":{"type":"Point","coordinates":[9.17365,45.47183]}},{"type":"Feature","properties":{"id":"ke-nom-14","kind":"poi","name":"Parco Sempione","theme":"doga","lab":1},"geometry":{"type":"Point","coordinates":[9.17697,45.473]}},{"type":"Feature","properties":{"id":"ke-nom-15","kind":"poi","name":"Giardini Indro Montanelli","theme":"doga","lab":1},"geometry":{"type":"Point","coordinates":[9.20035,45.47457]}},{"type":"Feature","properties":{"id":"ke-nom-16","kind":"poi","name":"Parco Nord Milano","theme":"doga","lab":1},"geometry":{"type":"Point","coordinates":[9.1476,45.5406]}},{"type":"Feature","properties":{"id":"ke-nom-17","kind":"poi","name":"Boscoincitta","theme":"doga","lab":1},"geometry":{"type":"Point","coordinates":[9.09173,45.48588]}},{"type":"Feature","properties":{"id":"ke-nom-18","kind":"poi","name":"Idroscalo","theme":"doga","lab":1},"geometry":{"type":"Point","coordinates":[9.28903,45.46421]}},{"type":"Feature","properties":{"id":"ke-nom-19","kind":"poi","name":"Parco Lambro","theme":"doga","lab":1},"geometry":{"type":"Point","coordinates":[9.25052,45.49683]}},{"type":"Feature","properties":{"id":"ke-nom-20","kind":"poi","name":"Navigli (Darsena)","theme":"doga","lab":1},"geometry":{"type":"Point","coordinates":[9.17857,45.45291]}},{"type":"Feature","properties":{"id":"ke-nom-21","kind":"poi","name":"Mercato Centrale Milano","theme":"gastronomi","lab":1},"geometry":{"type":"Point","coordinates":[9.20406,45.48729]}},{"type":"Feature","properties":{"id":"ke-nom-22","kind":"poi","name":"Corso Buenos Aires","theme":"alisveris","lab":1},"geometry":{"type":"Point","coordinates":[9.20879,45.47816]}}]}