{"type":"FeatureCollection","features":[{"type":"Feature","properties":{"id":"link-mxp","kind":"link","subKey":"mi.mxp.sub","real":true,"via":"Malpensa Express"},"geometry":{"type":"LineString","coordinates":[[8.7113,45.6306],[8.71034,45.63056],[8.71291,45.62132],[8.71459,45.61687],[8.71576,45.61417],[8.71722,45.61229],[8.71892,45.61084],[8.72127,45.60941],[8.72386,45.60841],[8.72718,45.60771],[8.73054,45.60754],[8.7347,45.60792],[8.74632,45.60948],[8.74831,45.60958],[8.75028,45.6095],[8.75403,45.60887],[8.7593,45.60747],[8.76084,45.60688],[8.76619,45.60425],[8.76875,45.60339],[8.77204,45.60267],[8.77415,45.60243],[8.7824,45.60202],[8.79473,45.60073],[8.80705,45.59943],[8.81938,45.59814],[8.82168,45.59799],[8.82491,45.59825],[8.82635,45.59851],[8.82793,45.59898],[8.82957,45.59966],[8.83867,45.60412],[8.84047,45.60472],[8.85863,45.60697],[8.87429,45.61027],[8.88584,45.6122],[8.89129,45.61279],[8.8934,45.6132],[8.89488,45.61368],[8.89574,45.61409],[8.90115,45.61759],[8.90299,45.61833],[8.90527,45.61881],[8.91273,45.61958],[8.92633,45.62065],[8.93992,45.62173],[8.95351,45.6228],[8.96711,45.62387],[8.98071,45.62495],[8.9943,45.62602],[9.00789,45.6271],[9.02149,45.62817],[9.02426,45.62821],[9.02616,45.62781],[9.02746,45.6272],[9.03195,45.62399],[9.03412,45.62275],[9.03768,45.62017],[9.04035,45.61747],[9.0467,45.61059],[9.05304,45.60371],[9.05939,45.59683],[9.06645,45.59087],[9.07775,45.58164],[9.08344,45.57761],[9.09096,45.5712],[9.09848,45.5648],[9.106,45.55839],[9.11303,45.55201],[9.12006,45.54563],[9.12737,45.53837],[9.13467,45.53111],[9.14204,45.52273],[9.14941,45.51435],[9.15846,45.50439],[9.15883,45.50359],[9.15947,45.50109],[9.16038,45.49414],[9.16093,45.49094],[9.16054,45.48384],[9.16085,45.48253],[9.16172,45.4813],[9.16556,45.47773],[9.16767,45.47518],[9.16914,45.4738],[9.17029,45.47237],[9.17201,45.471],[9.17314,45.46976],[9.17504,45.4684],[9.17646,45.46823]]}},{"type":"Feature","properties":{"id":"gate-mxp","kind":"gate","name":"Malpensa (MXP) T1","gtype":"air","mode":"plane","subKey":"mi.mxp.sub","lab":1},"geometry":{"type":"Point","coordinates":[8.7113,45.6306]}},{"type":"Feature","properties":{"id":"gate-lin","kind":"gate","name":"Linate (LIN)","gtype":"air","mode":"plane","subKey":"mi.lin.sub","lab":1},"geometry":{"type":"Point","coordinates":[9.2778,45.4505]}},{"type":"Feature","properties":{"id":"gate-centrale","kind":"gate","name":"Milano Centrale","gtype":"rail","mode":"train","subKey":"mi.centrale.sub","lab":1},"geometry":{"type":"Point","coordinates":[9.20426,45.48588]}},{"type":"Feature","properties":{"id":"gate-cadorna","kind":"gate","name":"Cadorna","gtype":"rail","mode":"train","subKey":"mi.cadorna.sub","lab":1},"geometry":{"type":"Point","coordinates":[9.17646,45.46823]}},{"type":"Feature","properties":{"id":"gate-garibaldi","kind":"gate","name":"Porta Garibaldi","gtype":"rail","mode":"train","subKey":"mi.garibaldi.sub","lab":1},"geometry":{"type":"Point","coordinates":[9.18771,45.48352]}},{"type":"Feature","properties":{"id":"gate-lampugnano","kind":"gate","name":"Lampugnano otogarı","gtype":"bus","mode":"bus","subKey":"mi.lampugnano.sub","lab":1},"geometry":{"type":"Point","coordinates":[9.1075,45.493]}}]}