{"type":"FeatureCollection","features":[{"type":"Feature","properties":{"id":"turistik-0","kind":"district","btype":"turistik","name":"Centro · Monserrat","lab":1},"geometry":{"type":"MultiPolygon","coordinates":[[[[-58.29737,-34.80566],[-58.30253,-34.80011],[-58.30159,-34.79917],[-58.30083,-34.7977],[-58.3012,-34.79652],[-58.30087,-34.79598],[-58.30107,-34.79523],[-58.30089,-34.79386],[-58.2982,-34.79759],[-58.29191,-34.79429],[-58.28725,-34.80036],[-58.29737,-34.80566]]],[[[-58.36775,-34.6073],[-58.36679,-34.61562],[-58.37743,-34.61629],[-58.37737,-34.61744],[-58.39169,-34.61815],[-58.39196,-34.60923],[-58.37373,-34.60787],[-58.37129,-34.60783],[-58.37039,-34.60722],[-58.37022,-34.60659],[-58.36973,-34.60627],[-58.36894,-34.60652],[-58.36834,-34.60732],[-58.36775,-34.6073]]]]}},{"type":"Feature","properties":{"id":"turistik-lab-0","kind":"district-label","btype":"turistik","name":"Centro · Monserrat"},"geometry":{"type":"Point","coordinates":[-58.35368,-34.67037]}},{"type":"Feature","properties":{"id":"turistik-1","kind":"district","btype":"turistik","name":"San Telmo","lab":1},"geometry":{"type":"MultiPolygon","coordinates":[[[[-58.37067,-34.62942],[-58.37096,-34.62663],[-58.37459,-34.62678],[-58.37562,-34.62726],[-58.37624,-34.62627],[-58.37673,-34.62523],[-58.3771,-34.62348],[-58.37743,-34.61629],[-58.36679,-34.61562],[-58.36586,-34.62334],[-58.36598,-34.624],[-58.36544,-34.62396],[-58.36389,-34.62485],[-58.363,-34.6251],[-58.36788,-34.62521],[-58.36789,-34.62704],[-58.36868,-34.62755],[-58.37067,-34.62942]]]]}},{"type":"Feature","properties":{"id":"turistik-lab-1","kind":"district-label","btype":"turistik","name":"San Telmo"},"geometry":{"type":"Point","coordinates":[-58.37155,-34.6215]}},{"type":"Feature","properties":{"id":"turistik-2","kind":"district","btype":"turistik","name":"La Boca","lab":1},"geometry":{"type":"MultiPolygon","coordinates":[[[[-58.37067,-34.62942],[-58.36789,-34.62704],[-58.36788,-34.62521],[-58.363,-34.6251],[-58.36327,-34.62506],[-58.35602,-34.61761],[-58.35522,-34.61938],[-58.35135,-34.61908],[-58.35087,-34.61947],[-58.35092,-34.61985],[-58.35069,-34.61956],[-58.34958,-34.6198],[-58.34907,-34.61965],[-58.34832,-34.61904],[-58.34783,-34.61896],[-58.34656,-34.6191],[-58.34521,-34.61881],[-58.3446,-34.61899],[-58.34464,-34.61958],[-58.3452,-34.61984],[-58.34546,-34.61989],[-58.34634,-34.61921],[-58.34716,-34.61998],[-58.34704,-34.62093],[-58.34646,-34.62161],[-58.34652,-34.62198],[-58.34626,-34.62242],[-58.34569,-34.62305],[-58.34482,-34.62312],[-58.3442,-34.62289],[-58.34449,-34.62263],[-58.34532,-34.62263],[-58.34576,-34.622],[-58.34528,-34.62141],[-58.34453,-34.62138],[-58.34401,-34.62194],[-58.3442,-34.62251],[-58.34398,-34.62273],[-58.34366,-34.62242],[-58.34431,-34.62063],[-58.34408,-34.61999],[-58.34436,-34.61972],[-58.34425,-34.61909],[-58.34338,-34.6187],[-58.34176,-34.61848],[-58.33837,-34.61869],[-58.33758,-34.61995],[-58.33743,-34.62104],[-58.33714,-34.62145],[-58.33698,-34.62234],[-58.33779,-34.62273],[-58.33962,-34.62261],[-58.34172,-34.62287],[-58.34202,-34.62274],[-58.34193,-34.62233],[-58.34222,-34.62227],[-58.34305,-34.62266],[-58.34238,-34.62334],[-58.34189,-34.62303],[-58.34067,-34.62303],[-58.34003,-34.62325],[-58.33843,-34.62457],[-58.33702,-34.62488],[-58.33515,-34.62644],[-58.33514,-34.62711],[-58.33625,-34.62803],[-58.33815,-34.62872],[-58.33822,-34.62856],[-58.33914,-34.62879],[-58.33944,-34.62861],[-58.33973,-34.62783],[-58.34025,-34.62798],[-58.34242,-34.62617],[-58.34427,-34.62639],[-58.34436,-34.62647],[-58.34139,-34.6289],[-58.34154,-34.62909],[-58.34284,-34.62944],[-58.34457,-34.62801],[-58.34536,-34.62867],[-58.34706,-34.62725],[-58.34781,-34.62791],[-58.34747,-34.6282],[-58.34766,-34.62838],[-58.34803,-34.62809],[-58.34876,-34.62867],[-58.34879,-34.62907],[-58.34849,-34.6294],[-58.34843,-34.62987],[-58.34799,-34.62993],[-58.34789,-34.63012],[-58.34826,-34.6301],[-58.3483,-34.63029],[-58.34793,-34.63116],[-58.34731,-34.63149],[-58.34674,-34.63141],[-58.34608,-34.63165],[-58.34766,-34.63209],[-58.34791,-34.63235],[-58.34902,-34.63249],[-58.35119,-34.63428],[-58.35394,-34.63715],[-58.35538,-34.63784],[-58.3576,-34.63989],[-58.35773,-34.64108],[-58.35652,-34.64419],[-58.35655,-34.64487],[-58.35878,-34.64594],[-58.3618,-34.64841],[-58.364,-34.64887],[-58.36763,-34.65074],[-58.37038,-34.63267],[-58.37067,-34.62942]]]]}},{"type":"Feature","properties":{"id":"turistik-lab-2","kind":"district-label","btype":"turistik","name":"La Boca"},"geometry":{"type":"Point","coordinates":[-58.35683,-34.63143]}},{"type":"Feature","properties":{"id":"turistik-3","kind":"district","btype":"turistik","name":"Puerto Madero","lab":1},"geometry":{"type":"MultiPolygon","coordinates":[[[[-58.36327,-34.62506],[-58.36544,-34.62396],[-58.36598,-34.624],[-58.36586,-34.62334],[-58.36843,-34.60112],[-58.36954,-34.59827],[-58.36819,-34.59842],[-58.36326,-34.59813],[-58.36352,-34.59715],[-58.35926,-34.59524],[-58.35636,-34.59503],[-58.35561,-34.59519],[-58.35315,-34.59695],[-58.3524,-34.59807],[-58.35163,-34.59877],[-58.35074,-34.59915],[-58.34978,-34.60006],[-58.34826,-34.60103],[-58.34787,-34.60147],[-58.34729,-34.60169],[-58.34693,-34.60211],[-58.34611,-34.60508],[-58.34609,-34.6062],[-58.34574,-34.60688],[-58.34399,-34.60793],[-58.34175,-34.60965],[-58.34082,-34.61071],[-58.33992,-34.61416],[-58.33979,-34.61604],[-58.34088,-34.61698],[-58.34283,-34.61713],[-58.34482,-34.61772],[-58.34839,-34.61695],[-58.34979,-34.61715],[-58.3504,-34.61767],[-58.35028,-34.61793],[-58.35044,-34.61823],[-58.35146,-34.61891],[-58.35135,-34.61908],[-58.35307,-34.61929],[-58.35522,-34.61938],[-58.35602,-34.61761],[-58.36131,-34.62316],[-58.36327,-34.62506]]]]}},{"type":"Feature","properties":{"id":"turistik-lab-3","kind":"district-label","btype":"turistik","name":"Puerto Madero"},"geometry":{"type":"Point","coordinates":[-58.35638,-34.60917]}},{"type":"Feature","properties":{"id":"turistik-4","kind":"district","btype":"turistik","name":"Recoleta","lab":1},"geometry":{"type":"MultiPolygon","coordinates":[[[[-58.3997,-34.57005],[-58.39989,-34.56951],[-58.39503,-34.57224],[-58.39287,-34.57223],[-58.39296,-34.57198],[-58.38794,-34.57484],[-58.38665,-34.57323],[-58.39121,-34.57059],[-58.39117,-34.57023],[-58.39049,-34.56941],[-58.38397,-34.56883],[-58.3837,-34.56853],[-58.38319,-34.56837],[-58.38123,-34.56842],[-58.38088,-34.56865],[-58.38069,-34.57014],[-58.38068,-34.57049],[-58.38116,-34.57052],[-58.38112,-34.57073],[-58.37829,-34.57229],[-58.37825,-34.57274],[-58.38361,-34.57317],[-58.38359,-34.5734],[-58.38184,-34.57439],[-58.37548,-34.57389],[-58.37074,-34.5766],[-58.37069,-34.57701],[-58.3769,-34.57752],[-58.37405,-34.57914],[-58.3751,-34.58039],[-58.37644,-34.58],[-58.38003,-34.58001],[-58.38278,-34.57867],[-58.38575,-34.57787],[-58.38995,-34.57823],[-58.39164,-34.58083],[-58.38959,-34.58179],[-58.38737,-34.58321],[-58.38577,-34.58484],[-58.38427,-34.58708],[-58.38367,-34.58748],[-58.38796,-34.5916],[-58.38755,-34.59284],[-58.38729,-34.59462],[-58.38685,-34.59931],[-58.39873,-34.59977],[-58.40201,-34.59939],[-58.40453,-34.59807],[-58.41031,-34.59811],[-58.41599,-34.59786],[-58.41439,-34.59405],[-58.41001,-34.58893],[-58.40616,-34.58344],[-58.40191,-34.58345],[-58.40057,-34.58445],[-58.39661,-34.57856],[-58.39854,-34.57719],[-58.40134,-34.57564],[-58.40267,-34.57414],[-58.39978,-34.57088],[-58.3997,-34.57005]]],[[[-58.37628,-34.5718],[-58.37108,-34.5749],[-58.37877,-34.57043],[-58.38038,-34.57046],[-58.38035,-34.56837],[-58.38013,-34.56822],[-58.36819,-34.56719],[-58.36824,-34.56758],[-58.36873,-34.56793],[-58.37067,-34.56843],[-58.37002,-34.57026],[-58.36397,-34.56988],[-58.36265,-34.56999],[-58.36206,-34.57065],[-58.37628,-34.5718]]]]}},{"type":"Feature","properties":{"id":"turistik-lab-4","kind":"district-label","btype":"turistik","name":"Recoleta"},"geometry":{"type":"Point","coordinates":[-58.39347,-34.58462]}},{"type":"Feature","properties":{"id":"turistik-5","kind":"district","btype":"turistik","name":"Palermo","lab":1},"geometry":{"type":"MultiPolygon","coordinates":[[[[-58.39522,-34.57219],[-58.39989,-34.56951],[-58.39971,-34.57078],[-58.40267,-34.57414],[-58.40134,-34.57564],[-58.39854,-34.57719],[-58.39661,-34.57856],[-58.40047,-34.58434],[-58.40057,-34.58445],[-58.40191,-34.58345],[-58.40616,-34.58344],[-58.41001,-34.58893],[-58.41439,-34.59405],[-58.41599,-34.59786],[-58.42251,-34.59771],[-58.42354,-34.59762],[-58.42703,-34.59616],[-58.44479,-34.58452],[-58.44438,-34.58307],[-58.44349,-34.58185],[-58.43995,-34.57854],[-58.44185,-34.57676],[-58.44397,-34.57538],[-58.4408,-34.57214],[-58.4491,-34.56794],[-58.44789,-34.56672],[-58.44247,-34.56359],[-58.44118,-34.56214],[-58.4385,-34.5625],[-58.43541,-34.56256],[-58.43491,-34.56209],[-58.43491,-34.56179],[-58.43643,-34.56192],[-58.43785,-34.56179],[-58.43918,-34.56131],[-58.44013,-34.5607],[-58.44111,-34.55957],[-58.44136,-34.55876],[-58.44117,-34.55809],[-58.43999,-34.55705],[-58.43762,-34.55613],[-58.43582,-34.55479],[-58.4341,-34.55394],[-58.43468,-34.55355],[-58.43458,-34.55321],[-58.43408,-34.55287],[-58.43101,-34.55113],[-58.42959,-34.55093],[-58.42883,-34.55104],[-58.42582,-34.55238],[-58.42569,-34.55216],[-58.42043,-34.5536],[-58.41607,-34.55433],[-58.41596,-34.55422],[-58.41594,-34.55436],[-58.41418,-34.55489],[-58.41405,-34.55478],[-58.41405,-34.55493],[-58.41108,-34.55629],[-58.41094,-34.55621],[-58.41097,-34.55635],[-58.41018,-34.55671],[-58.40954,-34.55663],[-58.40925,-34.55843],[-58.40482,-34.56267],[-58.40447,-34.56324],[-58.40465,-34.56293],[-58.40441,-34.56281],[-58.40386,-34.56364],[-58.40274,-34.56395],[-58.40106,-34.56335],[-58.40087,-34.56359],[-58.4011,-34.56404],[-58.4007,-34.56431],[-58.3997,-34.56366],[-58.39923,-34.56371],[-58.39696,-34.56515],[-58.39682,-34.56553],[-58.39696,-34.56587],[-58.39749,-34.56619],[-58.40019,-34.56903],[-58.39993,-34.56917],[-58.39751,-34.56671],[-58.39717,-34.56661],[-58.39646,-34.5669],[-58.39525,-34.56862],[-58.39524,-34.56894],[-58.39492,-34.56927],[-58.39459,-34.56923],[-58.39287,-34.57223],[-58.39522,-34.57219]]]]}},{"type":"Feature","properties":{"id":"turistik-lab-5","kind":"district-label","btype":"turistik","name":"Palermo"},"geometry":{"type":"Point","coordinates":[-58.42232,-34.57378]}}]}