{"type":"FeatureCollection","features":[{"type":"Feature","properties":{"id":"dogal-0","kind":"district","btype":"dogal","name":"Reserva Natural Integral Laguna de Rocha","lab":1},"geometry":{"type":"MultiPolygon","coordinates":[[[[-58.51704,-34.79106],[-58.52364,-34.78176],[-58.52425,-34.78028],[-58.52398,-34.77903],[-58.52346,-34.77854],[-58.52219,-34.7564],[-58.51283,-34.76838],[-58.5007,-34.76034],[-58.5001,-34.76107],[-58.5009,-34.76147],[-58.50056,-34.76193],[-58.49975,-34.76153],[-58.49407,-34.76918],[-58.50057,-34.77315],[-58.5,-34.77406],[-58.5009,-34.77512],[-58.50051,-34.77703],[-58.50337,-34.77854],[-58.50351,-34.78071],[-58.50434,-34.78119],[-58.50326,-34.7846],[-58.50413,-34.78592],[-58.50365,-34.78667],[-58.50395,-34.78706],[-58.5037,-34.78817],[-58.50325,-34.78829],[-58.49984,-34.78655],[-58.49796,-34.78949],[-58.49728,-34.78984],[-58.49048,-34.79903],[-58.48971,-34.79866],[-58.48772,-34.79941],[-58.48646,-34.79876],[-58.48606,-34.7993],[-58.48528,-34.79889],[-58.48361,-34.80123],[-58.4843,-34.80154],[-58.48299,-34.80351],[-58.48426,-34.80415],[-58.48636,-34.80164],[-58.49173,-34.80425],[-58.49101,-34.80473],[-58.48996,-34.80733],[-58.48856,-34.80859],[-58.48931,-34.80895],[-58.49053,-34.8075],[-58.49136,-34.80533],[-58.49194,-34.80481],[-58.49475,-34.80613],[-58.4977,-34.80236],[-58.50586,-34.80649],[-58.50661,-34.80545],[-58.50494,-34.80429],[-58.50814,-34.79994],[-58.51001,-34.80086],[-58.51302,-34.80138],[-58.51518,-34.79445],[-58.51704,-34.79106]]]]}},{"type":"Feature","properties":{"id":"dogal-lab-0","kind":"district-label","btype":"dogal","name":"Reserva Natural Integral Laguna de Rocha"},"geometry":{"type":"Point","coordinates":[-58.50787,-34.78313]}},{"type":"Feature","properties":{"id":"dogal-1","kind":"district","btype":"dogal","name":"Reserva Ecológica Costanera Sur","lab":1},"geometry":{"type":"MultiPolygon","coordinates":[[[[-58.35568,-34.61815],[-58.36326,-34.59712],[-58.35868,-34.59497],[-58.3571,-34.59483],[-58.35561,-34.59519],[-58.35346,-34.59669],[-58.35163,-34.59877],[-58.34715,-34.60184],[-58.34574,-34.60688],[-58.34175,-34.60965],[-58.34082,-34.61071],[-58.33975,-34.61539],[-58.33985,-34.61621],[-58.34088,-34.61698],[-58.34482,-34.61772],[-58.34606,-34.61744],[-58.34645,-34.61783],[-58.3468,-34.61741],[-58.34767,-34.6179],[-58.34784,-34.61854],[-58.35139,-34.61901],[-58.35028,-34.61793],[-58.35085,-34.61663],[-58.35568,-34.61815]]]]}},{"type":"Feature","properties":{"id":"dogal-lab-1","kind":"district-label","btype":"dogal","name":"Reserva Ecológica Costanera Sur"},"geometry":{"type":"Point","coordinates":[-58.35199,-34.6076]}},{"type":"Feature","properties":{"id":"dogal-2","kind":"district","btype":"dogal","name":"Eco Área Municipal","lab":1},"geometry":{"type":"MultiPolygon","coordinates":[[[[-58.32109,-34.66304],[-58.3163,-34.65819],[-58.31485,-34.6583],[-58.30705,-34.66316],[-58.3038,-34.66573],[-58.30289,-34.66574],[-58.301,-34.66675],[-58.2998,-34.66661],[-58.2993,-34.66739],[-58.30515,-34.67227],[-58.31604,-34.66651],[-58.32109,-34.66304]]]]}},{"type":"Feature","properties":{"id":"dogal-lab-2","kind":"district-label","btype":"dogal","name":"Eco Área Municipal"},"geometry":{"type":"Point","coordinates":[-58.3106,-34.66521]}},{"type":"Feature","properties":{"id":"dogal-3","kind":"district","btype":"dogal","name":"Reserva Natural de San Martín","lab":1},"geometry":{"type":"MultiPolygon","coordinates":[[[[-58.60061,-34.50568],[-58.59217,-34.50623],[-58.59061,-34.5098],[-58.59135,-34.51556],[-58.59325,-34.51651],[-58.5935,-34.517],[-58.59335,-34.51756],[-58.59164,-34.51873],[-58.59216,-34.52145],[-58.59342,-34.5212],[-58.59551,-34.51945],[-58.59619,-34.51838],[-58.60177,-34.51397],[-58.60206,-34.51173],[-58.60061,-34.50568]]]]}},{"type":"Feature","properties":{"id":"dogal-lab-3","kind":"district-label","btype":"dogal","name":"Reserva Natural de San Martín"},"geometry":{"type":"Point","coordinates":[-58.59602,-34.51218]}},{"type":"Feature","properties":{"id":"dogal-4","kind":"district","btype":"dogal","name":"Parque Indoamericano","lab":1},"geometry":{"type":"MultiPolygon","coordinates":[[[[-58.46853,-34.66439],[-58.46219,-34.65872],[-58.46004,-34.65745],[-58.4586,-34.65844],[-58.4579,-34.65931],[-58.45839,-34.65884],[-58.46093,-34.65884],[-58.46161,-34.65999],[-58.46124,-34.66127],[-58.45955,-34.6628],[-58.45738,-34.66363],[-58.45816,-34.66425],[-58.45577,-34.66632],[-58.45519,-34.66657],[-58.45455,-34.66612],[-58.45306,-34.6672],[-58.46172,-34.67076],[-58.46291,-34.66925],[-58.46478,-34.66846],[-58.46834,-34.66546],[-58.46849,-34.66466],[-58.4654,-34.66467],[-58.46853,-34.66439]]]]}},{"type":"Feature","properties":{"id":"dogal-lab-4","kind":"district-label","btype":"dogal","name":"Parque Indoamericano"},"geometry":{"type":"Point","coordinates":[-58.46167,-34.66515]}},{"type":"Feature","properties":{"id":"dogal-5","kind":"district","btype":"dogal","name":"Parque de la Ciudad","lab":1},"geometry":{"type":"MultiPolygon","coordinates":[[[[-58.44874,-34.6768],[-58.44483,-34.67013],[-58.44962,-34.66598],[-58.45157,-34.66678],[-58.45192,-34.66795],[-58.45415,-34.66897],[-58.45597,-34.67085],[-58.4545,-34.67198],[-58.45485,-34.67354],[-58.45401,-34.67427],[-58.45245,-34.67546],[-58.45062,-34.67517],[-58.44874,-34.6768]]]]}},{"type":"Feature","properties":{"id":"dogal-lab-5","kind":"district-label","btype":"dogal","name":"Parque de la Ciudad"},"geometry":{"type":"Point","coordinates":[-58.45028,-34.67128]}},{"type":"Feature","properties":{"id":"dogal-6","kind":"district","btype":"dogal","name":"Parque Julio Argentino Roca","lab":1},"geometry":{"type":"MultiPolygon","coordinates":[[[[-58.44984,-34.68006],[-58.44553,-34.67261],[-58.44367,-34.67096],[-58.44265,-34.67087],[-58.43683,-34.67323],[-58.43633,-34.67374],[-58.43631,-34.67467],[-58.43699,-34.67564],[-58.44039,-34.6776],[-58.44075,-34.67814],[-58.44082,-34.68029],[-58.44286,-34.67862],[-58.44648,-34.67869],[-58.44858,-34.67937],[-58.44918,-34.68019],[-58.44913,-34.68081],[-58.44984,-34.68006]]]]}},{"type":"Feature","properties":{"id":"dogal-lab-6","kind":"district-label","btype":"dogal","name":"Parque Julio Argentino Roca"},"geometry":{"type":"Point","coordinates":[-58.44272,-34.67539]}},{"type":"Feature","properties":{"id":"dogal-7","kind":"district","btype":"dogal","name":"Parque Presidente Sarmiento","lab":1},"geometry":{"type":"MultiPolygon","coordinates":[[[[-58.50243,-34.56032],[-58.50349,-34.55836],[-58.50074,-34.55238],[-58.49964,-34.55193],[-58.49642,-34.55578],[-58.49703,-34.55681],[-58.49599,-34.55904],[-58.49641,-34.56173],[-58.49702,-34.56273],[-58.49691,-34.56358],[-58.49914,-34.56442],[-58.50243,-34.56032]]]]}},{"type":"Feature","properties":{"id":"dogal-lab-7","kind":"district-label","btype":"dogal","name":"Parque Presidente Sarmiento"},"geometry":{"type":"Point","coordinates":[-58.49945,-34.55833]}},{"type":"Feature","properties":{"id":"dogal-8","kind":"district","btype":"dogal","name":"Parque Natural Municipal Ribera Norte","lab":1},"geometry":{"type":"MultiPolygon","coordinates":[[[[-58.49508,-34.46647],[-58.48889,-34.46232],[-58.48572,-34.4667],[-58.49136,-34.47019],[-58.49202,-34.47117],[-58.49507,-34.47078],[-58.49723,-34.46925],[-58.49446,-34.46726],[-58.49508,-34.46647]]]]}},{"type":"Feature","properties":{"id":"dogal-lab-8","kind":"district-label","btype":"dogal","name":"Parque Natural Municipal Ribera Norte"},"geometry":{"type":"Point","coordinates":[-58.49126,-34.46714]}},{"type":"Feature","properties":{"id":"dogal-9","kind":"district","btype":"dogal","name":"Parque Avellaneda","lab":1},"geometry":{"type":"MultiPolygon","coordinates":[[[[-58.47531,-34.64862],[-58.47742,-34.64712],[-58.47996,-34.64658],[-58.48036,-34.64728],[-58.48319,-34.64643],[-58.4844,-34.64528],[-58.48218,-34.64337],[-58.4815,-34.64366],[-58.48139,-34.64331],[-58.4819,-34.6431],[-58.47983,-34.64143],[-58.47309,-34.64682],[-58.47531,-34.64862]]]]}},{"type":"Feature","properties":{"id":"dogal-lab-9","kind":"district-label","btype":"dogal","name":"Parque Avellaneda"},"geometry":{"type":"Point","coordinates":[-58.47887,-34.64522]}},{"type":"Feature","properties":{"id":"dogal-10","kind":"district","btype":"dogal","name":"Parque El Batallón","lab":1},"geometry":{"type":"MultiPolygon","coordinates":[[[[-58.69867,-34.49126],[-58.69945,-34.49101],[-58.70111,-34.49128],[-58.70275,-34.49231],[-58.70472,-34.49432],[-58.69676,-34.49785],[-58.69479,-34.49613],[-58.69867,-34.49126]]]]}},{"type":"Feature","properties":{"id":"dogal-lab-10","kind":"district-label","btype":"dogal","name":"Parque El Batallón"},"geometry":{"type":"Point","coordinates":[-58.69949,-34.49433]}},{"type":"Feature","properties":{"id":"dogal-11","kind":"district","btype":"dogal","name":"Paseo Costero","lab":1},"geometry":{"type":"MultiPolygon","coordinates":[[[[-58.47229,-34.51538],[-58.46948,-34.51521],[-58.46879,-34.51601],[-58.46892,-34.51669],[-58.46982,-34.51707],[-58.47004,-34.51822],[-58.46883,-34.52008],[-58.46884,-34.52162],[-58.4679,-34.52392],[-58.46736,-34.52328],[-58.46579,-34.52428],[-58.46594,-34.52385],[-58.46534,-34.52397],[-58.46541,-34.5245],[-58.46475,-34.52479],[-58.46428,-34.52597],[-58.46221,-34.52759],[-58.46267,-34.52843],[-58.46204,-34.52782],[-58.46211,-34.52695],[-58.461,-34.52664],[-58.4598,-34.52711],[-58.45957,-34.52758],[-58.46155,-34.53027],[-58.46313,-34.52859],[-58.46685,-34.52663],[-58.46806,-34.52478],[-58.46978,-34.52068],[-58.47103,-34.51986],[-58.47127,-34.51833],[-58.47226,-34.51715],[-58.47229,-34.51538]]]]}},{"type":"Feature","properties":{"id":"dogal-lab-11","kind":"district-label","btype":"dogal","name":"Paseo Costero"},"geometry":{"type":"Point","coordinates":[-58.46662,-34.52322]}},{"type":"Feature","properties":{"id":"dogal-12","kind":"district","btype":"dogal","name":"Parque de las Victorias","lab":1},"geometry":{"type":"MultiPolygon","coordinates":[[[[-58.46254,-34.6774],[-58.4625,-34.6786],[-58.46071,-34.6821],[-58.45557,-34.68304],[-58.45477,-34.68235],[-58.45381,-34.68273],[-58.45287,-34.68187],[-58.4533,-34.68154],[-58.45402,-34.6818],[-58.45477,-34.67936],[-58.45545,-34.67849],[-58.45493,-34.67776],[-58.45427,-34.67776],[-58.45398,-34.6788],[-58.45337,-34.67864],[-58.45288,-34.67928],[-58.45229,-34.67877],[-58.45177,-34.67919],[-58.45159,-34.67949],[-58.45231,-34.6801],[-58.45165,-34.68062],[-58.45207,-34.68122],[-58.45621,-34.68502],[-58.45706,-34.68517],[-58.45817,-34.68435],[-58.45888,-34.68499],[-58.45932,-34.68492],[-58.46481,-34.68083],[-58.46337,-34.67924],[-58.46377,-34.6782],[-58.46254,-34.6774]]]]}},{"type":"Feature","properties":{"id":"dogal-lab-12","kind":"district-label","btype":"dogal","name":"Parque de las Victorias"},"geometry":{"type":"Point","coordinates":[-58.45829,-34.68167]}},{"type":"Feature","properties":{"id":"dogal-13","kind":"district","btype":"dogal","name":"Reserva Ecológica Lago Lugano","lab":1},"geometry":{"type":"MultiPolygon","coordinates":[[[[-58.44286,-34.67862],[-58.44082,-34.68029],[-58.44438,-34.68453],[-58.44913,-34.68081],[-58.44918,-34.68019],[-58.44858,-34.67937],[-58.44737,-34.67888],[-58.44286,-34.67862]]]]}},{"type":"Feature","properties":{"id":"dogal-lab-13","kind":"district-label","btype":"dogal","name":"Reserva Ecológica Lago Lugano"},"geometry":{"type":"Point","coordinates":[-58.445,-34.68096]}},{"type":"Feature","properties":{"id":"dogal-14","kind":"district","btype":"dogal","name":"Parque de la Memoria","lab":1},"geometry":{"type":"MultiPolygon","coordinates":[[[[-58.43797,-34.54268],[-58.43795,-34.5417],[-58.44083,-34.54175],[-58.4419,-34.54108],[-58.44158,-34.5407],[-58.44309,-34.54012],[-58.44419,-34.53877],[-58.446,-34.53773],[-58.44685,-34.53771],[-58.44707,-34.53722],[-58.44808,-34.53681],[-58.44624,-34.53593],[-58.44362,-34.5363],[-58.4415,-34.53786],[-58.44083,-34.53915],[-58.44087,-34.53986],[-58.43649,-34.54025],[-58.43536,-34.54112],[-58.43475,-34.54242],[-58.43403,-34.54298],[-58.43625,-34.54251],[-58.43797,-34.54268]]]]}},{"type":"Feature","properties":{"id":"dogal-lab-14","kind":"district-label","btype":"dogal","name":"Parque de la Memoria"},"geometry":{"type":"Point","coordinates":[-58.44126,-34.53943]}},{"type":"Feature","properties":{"id":"dogal-15","kind":"district","btype":"dogal","name":"Reserva Natural Urbana Morón","lab":1},"geometry":{"type":"MultiPolygon","coordinates":[[[[-58.65178,-34.67175],[-58.65124,-34.66995],[-58.6557,-34.66913],[-58.65652,-34.67288],[-58.6545,-34.67323],[-58.6547,-34.67444],[-58.65018,-34.67522],[-58.64925,-34.67218],[-58.65178,-34.67175]]]]}},{"type":"Feature","properties":{"id":"dogal-lab-15","kind":"district-label","btype":"dogal","name":"Reserva Natural Urbana Morón"},"geometry":{"type":"Point","coordinates":[-58.65303,-34.67224]}},{"type":"Feature","properties":{"id":"dogal-16","kind":"district","btype":"dogal","name":"Chacabuco Park","lab":1},"geometry":{"type":"MultiPolygon","coordinates":[[[[-58.44667,-34.63556],[-58.44593,-34.63468],[-58.44636,-34.63418],[-58.44217,-34.6311],[-58.43899,-34.6352],[-58.44575,-34.63652],[-58.44667,-34.63556]]]]}},{"type":"Feature","properties":{"id":"dogal-lab-16","kind":"district-label","btype":"dogal","name":"Chacabuco Park"},"geometry":{"type":"Point","coordinates":[-58.44302,-34.63421]}},{"type":"Feature","properties":{"id":"dogal-17","kind":"district","btype":"dogal","name":"Reserva Natural Urbana Río Reconquista","lab":1},"geometry":{"type":"MultiPolygon","coordinates":[[[[-58.72426,-34.62783],[-58.72351,-34.62449],[-58.72394,-34.62361],[-58.7234,-34.61939],[-58.72094,-34.61617],[-58.71854,-34.61036],[-58.7172,-34.60847],[-58.71622,-34.60909],[-58.71735,-34.61014],[-58.72186,-34.61974],[-58.72244,-34.62237],[-58.72202,-34.62489],[-58.7223,-34.62589],[-58.72323,-34.62728],[-58.72426,-34.62783]]]]}},{"type":"Feature","properties":{"id":"dogal-lab-17","kind":"district-label","btype":"dogal","name":"Reserva Natural Urbana Río Reconquista"},"geometry":{"type":"Point","coordinates":[-58.72141,-34.61885]}},{"type":"Feature","properties":{"id":"dogal-18","kind":"district","btype":"dogal","name":"Parque Público del Golf","lab":1},"geometry":{"type":"MultiPolygon","coordinates":[[[[-58.53926,-34.5086],[-58.53611,-34.50727],[-58.53735,-34.50544],[-58.54095,-34.50367],[-58.542,-34.5044],[-58.5443,-34.50309],[-58.54501,-34.50373],[-58.53926,-34.5086]]]]}},{"type":"Feature","properties":{"id":"dogal-lab-18","kind":"district-label","btype":"dogal","name":"Parque Público del Golf"},"geometry":{"type":"Point","coordinates":[-58.54015,-34.50586]}},{"type":"Feature","properties":{"id":"dogal-19","kind":"district","btype":"dogal","name":"Parque de los Niños - Buenos Aires Playa","lab":1},"geometry":{"type":"MultiPolygon","coordinates":[[[[-58.45449,-34.53089],[-58.45552,-34.52981],[-58.46137,-34.53127],[-58.4611,-34.53],[-58.45939,-34.52749],[-58.45771,-34.52655],[-58.45562,-34.52742],[-58.45402,-34.52932],[-58.45353,-34.53109],[-58.45449,-34.53089]]]]}},{"type":"Feature","properties":{"id":"dogal-lab-19","kind":"district-label","btype":"dogal","name":"Parque de los Niños - Buenos Aires Playa"},"geometry":{"type":"Point","coordinates":[-58.45757,-34.52904]}},{"type":"Feature","properties":{"id":"dogal-20","kind":"district","btype":"dogal","name":"Parque San Francisco","lab":1},"geometry":{"type":"MultiPolygon","coordinates":[[[[-58.6664,-34.57313],[-58.65669,-34.56693],[-58.65625,-34.56673],[-58.6559,-34.56725],[-58.65562,-34.56876],[-58.65931,-34.57016],[-58.6625,-34.57201],[-58.6631,-34.57294],[-58.66473,-34.57404],[-58.6664,-34.57313]]]]}},{"type":"Feature","properties":{"id":"dogal-lab-20","kind":"district-label","btype":"dogal","name":"Parque San Francisco"},"geometry":{"type":"Point","coordinates":[-58.66061,-34.57034]}},{"type":"Feature","properties":{"id":"dogal-21","kind":"district","btype":"dogal","name":"Reserva Ecológica Santa Catalina","lab":1},"geometry":{"type":"MultiPolygon","coordinates":[[[[-58.43855,-34.77891],[-58.4382,-34.77938],[-58.43705,-34.77876],[-58.43332,-34.78373],[-58.43141,-34.78417],[-58.43464,-34.78567],[-58.43946,-34.77945],[-58.43855,-34.77891]]]]}},{"type":"Feature","properties":{"id":"dogal-lab-21","kind":"district-label","btype":"dogal","name":"Reserva Ecológica Santa Catalina"},"geometry":{"type":"Point","coordinates":[-58.43581,-34.78222]}},{"type":"Feature","properties":{"id":"dogal-22","kind":"district","btype":"dogal","name":"Parque Bosque Alegre","lab":1},"geometry":{"type":"MultiPolygon","coordinates":[[[[-58.40539,-34.56752],[-58.40214,-34.56813],[-58.39988,-34.56994],[-58.39973,-34.57056],[-58.40015,-34.57112],[-58.40208,-34.57174],[-58.40159,-34.5725],[-58.40189,-34.57315],[-58.40551,-34.5693],[-58.40501,-34.56867],[-58.40544,-34.56837],[-58.40539,-34.56752]]]]}},{"type":"Feature","properties":{"id":"dogal-lab-22","kind":"district-label","btype":"dogal","name":"Parque Bosque Alegre"},"geometry":{"type":"Point","coordinates":[-58.40273,-34.56989]}},{"type":"Feature","properties":{"id":"dogal-23","kind":"district","btype":"dogal","name":"Centenary Park","lab":1},"geometry":{"type":"MultiPolygon","coordinates":[[[[-58.43804,-34.60562],[-58.4368,-34.60464],[-58.43495,-34.60459],[-58.43345,-34.60541],[-58.4329,-34.60698],[-58.43335,-34.60786],[-58.43421,-34.60842],[-58.43464,-34.60761],[-58.43567,-34.6077],[-58.43581,-34.60859],[-58.43667,-34.60858],[-58.43808,-34.60703],[-58.43804,-34.60562]]]]}},{"type":"Feature","properties":{"id":"dogal-lab-23","kind":"district-label","btype":"dogal","name":"Centenary Park"},"geometry":{"type":"Point","coordinates":[-58.43559,-34.60648]}},{"type":"Feature","properties":{"id":"dogal-24","kind":"district","btype":"dogal","name":"Ecopark","lab":1},"geometry":{"type":"MultiPolygon","coordinates":[[[[-58.42004,-34.58116],[-58.42022,-34.58086],[-58.41514,-34.57547],[-58.41346,-34.57603],[-58.41698,-34.58138],[-58.42004,-34.58116]]]]}},{"type":"Feature","properties":{"id":"dogal-lab-24","kind":"district-label","btype":"dogal","name":"Ecopark"},"geometry":{"type":"Point","coordinates":[-58.41672,-34.57874]}},{"type":"Feature","properties":{"id":"dogal-25","kind":"district","btype":"dogal","name":"Plaza Sicilia","lab":1},"geometry":{"type":"MultiPolygon","coordinates":[[[[-58.40831,-34.57503],[-58.41229,-34.57221],[-58.41454,-34.57476],[-58.41001,-34.57697],[-58.40831,-34.57503]]]]}},{"type":"Feature","properties":{"id":"dogal-lab-25","kind":"district-label","btype":"dogal","name":"Plaza Sicilia"},"geometry":{"type":"Point","coordinates":[-58.41138,-34.57468]}},{"type":"Feature","properties":{"id":"dogal-26","kind":"district","btype":"dogal","name":"Plaza Paseo Ernesto Jaimovich","lab":1},"geometry":{"type":"MultiPolygon","coordinates":[[[[-58.42822,-34.55996],[-58.43004,-34.56117],[-58.43148,-34.56085],[-58.43377,-34.5587],[-58.43519,-34.55613],[-58.4353,-34.55528],[-58.43427,-34.55532],[-58.43158,-34.55805],[-58.4303,-34.5584],[-58.43033,-34.55894],[-58.42957,-34.55921],[-58.42938,-34.55865],[-58.42916,-34.55928],[-58.42822,-34.55996]]]]}},{"type":"Feature","properties":{"id":"dogal-lab-26","kind":"district-label","btype":"dogal","name":"Plaza Paseo Ernesto Jaimovich"},"geometry":{"type":"Point","coordinates":[-58.43204,-34.55857]}},{"type":"Feature","properties":{"id":"dogal-27","kind":"district","btype":"dogal","name":"Plaza Nogales","lab":1},"geometry":{"type":"MultiPolygon","coordinates":[[[[-58.70096,-34.51921],[-58.69805,-34.51689],[-58.69477,-34.51969],[-58.69768,-34.522],[-58.70096,-34.51921]]]]}},{"type":"Feature","properties":{"id":"dogal-lab-27","kind":"district-label","btype":"dogal","name":"Plaza Nogales"},"geometry":{"type":"Point","coordinates":[-58.69787,-34.51945]}}]}