{"type":"FeatureCollection","features":[{"type":"Feature","properties":{"id":"ticari-0","kind":"district","btype":"ticari","name":"Mercado Central","lab":1},"geometry":{"type":"MultiPolygon","coordinates":[[[[-58.50205,-34.70907],[-58.50219,-34.70863],[-58.50012,-34.70652],[-58.49964,-34.70515],[-58.49852,-34.70381],[-58.49758,-34.7042],[-58.49369,-34.70443],[-58.47548,-34.7183],[-58.48889,-34.7168],[-58.49358,-34.71766],[-58.49545,-34.71754],[-58.50449,-34.7108],[-58.50376,-34.71073],[-58.50252,-34.70976],[-58.499,-34.71198],[-58.49741,-34.71044],[-58.49884,-34.70925],[-58.50007,-34.71025],[-58.50205,-34.70907]]]]}},{"type":"Feature","properties":{"id":"ticari-lab-0","kind":"district-label","btype":"ticari","name":"Mercado Central"},"geometry":{"type":"Point","coordinates":[-58.49189,-34.71195]}},{"type":"Feature","properties":{"id":"ticari-1","kind":"district","btype":"ticari","name":"Parque Logístico Tres de Febrero","lab":1},"geometry":{"type":"MultiPolygon","coordinates":[[[[-58.62889,-34.56061],[-58.63575,-34.55556],[-58.63612,-34.55494],[-58.63287,-34.55378],[-58.63103,-34.55239],[-58.62756,-34.55487],[-58.62829,-34.55721],[-58.62869,-34.55763],[-58.62849,-34.55832],[-58.62899,-34.5588],[-58.62862,-34.5591],[-58.62889,-34.56061]]]]}},{"type":"Feature","properties":{"id":"ticari-lab-1","kind":"district-label","btype":"ticari","name":"Parque Logístico Tres de Febrero"},"geometry":{"type":"Point","coordinates":[-58.63115,-34.55604]}},{"type":"Feature","properties":{"id":"ticari-2","kind":"district","btype":"ticari","name":"Buenos Aires 2","lab":1},"geometry":{"type":"MultiPolygon","coordinates":[[[[-58.54022,-34.70059],[-58.53377,-34.70547],[-58.53455,-34.70468],[-58.53454,-34.70431],[-58.53326,-34.70306],[-58.53284,-34.70336],[-58.53111,-34.70185],[-58.5314,-34.7016],[-58.53086,-34.70079],[-58.53157,-34.70078],[-58.5342,-34.69881],[-58.53596,-34.70038],[-58.53855,-34.69858],[-58.54048,-34.69973],[-58.54062,-34.70014],[-58.54022,-34.70059]]]]}},{"type":"Feature","properties":{"id":"ticari-lab-2","kind":"district-label","btype":"ticari","name":"Buenos Aires 2"},"geometry":{"type":"Point","coordinates":[-58.53558,-34.70134]}},{"type":"Feature","properties":{"id":"ticari-3","kind":"district","btype":"ticari","name":"Depósito Fiscal Integrado Avellaneda","lab":1},"geometry":{"type":"MultiPolygon","coordinates":[[[[-58.3394,-34.66662],[-58.33796,-34.66667],[-58.33795,-34.66608],[-58.3367,-34.6661],[-58.33626,-34.66748],[-58.33543,-34.66821],[-58.33492,-34.66805],[-58.33505,-34.66739],[-58.33383,-34.66738],[-58.33385,-34.67054],[-58.33497,-34.6715],[-58.33607,-34.67101],[-58.33803,-34.6696],[-58.33802,-34.66841],[-58.33944,-34.66811],[-58.3394,-34.66662]]]]}},{"type":"Feature","properties":{"id":"ticari-lab-3","kind":"district-label","btype":"ticari","name":"Depósito Fiscal Integrado Avellaneda"},"geometry":{"type":"Point","coordinates":[-58.33633,-34.66869]}},{"type":"Feature","properties":{"id":"ticari-4","kind":"district","btype":"ticari","name":"Centro de Transferencia de Cargas Sur","lab":1},"geometry":{"type":"MultiPolygon","coordinates":[[[[-58.4409,-34.66738],[-58.4404,-34.66727],[-58.43707,-34.66863],[-58.43885,-34.6718],[-58.44252,-34.67013],[-58.4409,-34.66738]]]]}},{"type":"Feature","properties":{"id":"ticari-lab-4","kind":"district-label","btype":"ticari","name":"Centro de Transferencia de Cargas Sur"},"geometry":{"type":"Point","coordinates":[-58.43978,-34.66944]}},{"type":"Feature","properties":{"id":"ticari-5","kind":"district","btype":"ticari","name":"Feria La Salada","lab":1},"geometry":{"type":"MultiPolygon","coordinates":[[[[-58.47908,-34.7235],[-58.47851,-34.72419],[-58.47759,-34.72343],[-58.47554,-34.7244],[-58.47257,-34.72045],[-58.47429,-34.71913],[-58.47908,-34.7235]]]]}},{"type":"Feature","properties":{"id":"ticari-lab-5","kind":"district-label","btype":"ticari","name":"Feria La Salada"},"geometry":{"type":"Point","coordinates":[-58.47554,-34.72195]}},{"type":"Feature","properties":{"id":"ticari-6","kind":"district","btype":"ticari","name":"Plaza Logística Mercado Libre","lab":1},"geometry":{"type":"MultiPolygon","coordinates":[[[[-58.47284,-34.70841],[-58.46846,-34.71149],[-58.46986,-34.71297],[-58.47148,-34.71187],[-58.47173,-34.71212],[-58.47527,-34.71083],[-58.47284,-34.70841]]]]}},{"type":"Feature","properties":{"id":"ticari-lab-6","kind":"district-label","btype":"ticari","name":"Plaza Logística Mercado Libre"},"geometry":{"type":"Point","coordinates":[-58.47182,-34.71076]}},{"type":"Feature","properties":{"id":"ticari-7","kind":"district","btype":"ticari","name":"Parque de Innovación","lab":1},"geometry":{"type":"MultiPolygon","coordinates":[[[[-58.45375,-34.54798],[-58.45587,-34.54684],[-58.45204,-34.5421],[-58.45058,-34.54316],[-58.45041,-34.54377],[-58.45375,-34.54798]]]]}},{"type":"Feature","properties":{"id":"ticari-lab-7","kind":"district-label","btype":"ticari","name":"Parque de Innovación"},"geometry":{"type":"Point","coordinates":[-58.45299,-34.54511]}},{"type":"Feature","properties":{"id":"ticari-8","kind":"district","btype":"ticari","name":"Terrazas de Mayo Shopping","lab":1},"geometry":{"type":"MultiPolygon","coordinates":[[[[-58.70418,-34.53059],[-58.70124,-34.52785],[-58.69837,-34.52996],[-58.70033,-34.53172],[-58.70252,-34.53169],[-58.70418,-34.53059]]]]}},{"type":"Feature","properties":{"id":"ticari-lab-8","kind":"district-label","btype":"ticari","name":"Terrazas de Mayo Shopping"},"geometry":{"type":"Point","coordinates":[-58.70126,-34.53009]}},{"type":"Feature","properties":{"id":"ticari-9","kind":"district","btype":"ticari","name":"Car One","lab":1},"geometry":{"type":"MultiPolygon","coordinates":[[[[-58.71789,-34.45728],[-58.71414,-34.45522],[-58.71211,-34.45781],[-58.71407,-34.45886],[-58.71735,-34.4578],[-58.71789,-34.45728]]]]}},{"type":"Feature","properties":{"id":"ticari-lab-9","kind":"district-label","btype":"ticari","name":"Car One"},"geometry":{"type":"Point","coordinates":[-58.71479,-34.45722]}},{"type":"Feature","properties":{"id":"ticari-10","kind":"district","btype":"ticari","name":"Caromar","lab":1},"geometry":{"type":"MultiPolygon","coordinates":[[[[-58.55301,-34.69638],[-58.55512,-34.69475],[-58.55221,-34.69211],[-58.55007,-34.69375],[-58.55301,-34.69638]]]]}},{"type":"Feature","properties":{"id":"ticari-lab-10","kind":"district-label","btype":"ticari","name":"Caromar"},"geometry":{"type":"Point","coordinates":[-58.5526,-34.69425]}},{"type":"Feature","properties":{"id":"ticari-11","kind":"district","btype":"ticari","name":"Costa Salguero","lab":1},"geometry":{"type":"MultiPolygon","coordinates":[[[[-58.39874,-34.56976],[-58.39884,-34.56926],[-58.39849,-34.56921],[-58.39839,-34.56972],[-58.39809,-34.56967],[-58.39795,-34.56916],[-58.39691,-34.56891],[-58.39697,-34.56948],[-58.3963,-34.56981],[-58.39529,-34.56864],[-58.39319,-34.57203],[-58.39479,-34.57215],[-58.39874,-34.56976]]]]}},{"type":"Feature","properties":{"id":"ticari-lab-11","kind":"district-label","btype":"ticari","name":"Costa Salguero"},"geometry":{"type":"Point","coordinates":[-58.39577,-34.57046]}},{"type":"Feature","properties":{"id":"ticari-12","kind":"district","btype":"ticari","name":"Nini","lab":1},"geometry":{"type":"MultiPolygon","coordinates":[[[[-58.72756,-34.63313],[-58.72715,-34.63091],[-58.72537,-34.62984],[-58.72625,-34.62885],[-58.72751,-34.62921],[-58.72847,-34.62991],[-58.72888,-34.62984],[-58.7302,-34.63114],[-58.72756,-34.63313]]]]}},{"type":"Feature","properties":{"id":"ticari-lab-12","kind":"district-label","btype":"ticari","name":"Nini"},"geometry":{"type":"Point","coordinates":[-58.72784,-34.63073]}},{"type":"Feature","properties":{"id":"ticari-13","kind":"district","btype":"ticari","name":"Parque Brown Factory","lab":1},"geometry":{"type":"MultiPolygon","coordinates":[[[[-58.45836,-34.67402],[-58.45665,-34.67537],[-58.45766,-34.67632],[-58.45937,-34.67633],[-58.46014,-34.67691],[-58.46198,-34.67619],[-58.45946,-34.67405],[-58.45836,-34.67402]]]]}},{"type":"Feature","properties":{"id":"ticari-lab-13","kind":"district-label","btype":"ticari","name":"Parque Brown Factory"},"geometry":{"type":"Point","coordinates":[-58.45922,-34.67546]}},{"type":"Feature","properties":{"id":"ticari-14","kind":"district","btype":"ticari","name":"Plaza Logística","lab":1},"geometry":{"type":"MultiPolygon","coordinates":[[[[-58.4337,-34.67176],[-58.43424,-34.67233],[-58.43609,-34.67305],[-58.4387,-34.67206],[-58.43758,-34.67017],[-58.4337,-34.67176]]]]}},{"type":"Feature","properties":{"id":"ticari-lab-14","kind":"district-label","btype":"ticari","name":"Plaza Logística"},"geometry":{"type":"Point","coordinates":[-58.43639,-34.67173]}},{"type":"Feature","properties":{"id":"ticari-15","kind":"district","btype":"ticari","name":"Carrefour","lab":1},"geometry":{"type":"MultiPolygon","coordinates":[[[[-58.63763,-34.62297],[-58.63382,-34.62078],[-58.63398,-34.61985],[-58.63471,-34.6193],[-58.63873,-34.62175],[-58.63763,-34.62297]]]]}},{"type":"Feature","properties":{"id":"ticari-lab-15","kind":"district-label","btype":"ticari","name":"Carrefour"},"geometry":{"type":"Point","coordinates":[-58.63613,-34.62113]}},{"type":"Feature","properties":{"id":"ticari-16","kind":"district","btype":"ticari","name":"Portal Lomas Centro Comercial","lab":1},"geometry":{"type":"MultiPolygon","coordinates":[[[[-58.41874,-34.79191],[-58.4183,-34.79248],[-58.41876,-34.79274],[-58.41764,-34.79418],[-58.41481,-34.79278],[-58.41644,-34.79072],[-58.41874,-34.79191]]]]}},{"type":"Feature","properties":{"id":"ticari-lab-16","kind":"district-label","btype":"ticari","name":"Portal Lomas Centro Comercial"},"geometry":{"type":"Point","coordinates":[-58.41693,-34.79246]}},{"type":"Feature","properties":{"id":"ticari-17","kind":"district","btype":"ticari","name":"Easy","lab":1},"geometry":{"type":"MultiPolygon","coordinates":[[[[-58.72297,-34.55282],[-58.71995,-34.55497],[-58.72192,-34.55682],[-58.72248,-34.55643],[-58.72221,-34.55613],[-58.72302,-34.55558],[-58.72263,-34.55521],[-58.72425,-34.55402],[-58.72297,-34.55282]]]]}},{"type":"Feature","properties":{"id":"ticari-lab-17","kind":"district-label","btype":"ticari","name":"Easy"},"geometry":{"type":"Point","coordinates":[-58.7221,-34.55474]}},{"type":"Feature","properties":{"id":"ticari-18","kind":"district","btype":"ticari","name":"Coto Ciudadela","lab":1},"geometry":{"type":"MultiPolygon","coordinates":[[[[-58.54791,-34.62849],[-58.54968,-34.62919],[-58.54943,-34.62988],[-58.54571,-34.63121],[-58.54484,-34.63115],[-58.54474,-34.63093],[-58.54791,-34.62849]]]]}},{"type":"Feature","properties":{"id":"ticari-lab-18","kind":"district-label","btype":"ticari","name":"Coto Ciudadela"},"geometry":{"type":"Point","coordinates":[-58.54737,-34.6299]}},{"type":"Feature","properties":{"id":"ticari-19","kind":"district","btype":"ticari","name":"Kyndryl","lab":1},"geometry":{"type":"MultiPolygon","coordinates":[[[[-58.52762,-34.49975],[-58.52484,-34.49851],[-58.52371,-34.50016],[-58.5265,-34.50142],[-58.52762,-34.49975]]]]}},{"type":"Feature","properties":{"id":"ticari-lab-19","kind":"district-label","btype":"ticari","name":"Kyndryl"},"geometry":{"type":"Point","coordinates":[-58.52567,-34.49996]}},{"type":"Feature","properties":{"id":"ticari-20","kind":"district","btype":"ticari","name":"General Tomas Guido S.A.C.I.F.","lab":1},"geometry":{"type":"MultiPolygon","coordinates":[[[[-58.33143,-34.77758],[-58.32839,-34.78069],[-58.32729,-34.77996],[-58.33019,-34.7769],[-58.33143,-34.77758]]]]}},{"type":"Feature","properties":{"id":"ticari-lab-20","kind":"district-label","btype":"ticari","name":"General Tomas Guido S.A.C.I.F."},"geometry":{"type":"Point","coordinates":[-58.32934,-34.77877]}},{"type":"Feature","properties":{"id":"ticari-21","kind":"district","btype":"ticari","name":"Mercado Frutihortícola Abasto XXI","lab":1},"geometry":{"type":"MultiPolygon","coordinates":[[[[-58.32635,-34.67387],[-58.32538,-34.67462],[-58.32464,-34.67401],[-58.323,-34.67524],[-58.32189,-34.67469],[-58.32478,-34.67231],[-58.32635,-34.67387]]]]}},{"type":"Feature","properties":{"id":"ticari-lab-21","kind":"district-label","btype":"ticari","name":"Mercado Frutihortícola Abasto XXI"},"geometry":{"type":"Point","coordinates":[-58.32422,-34.67385]}},{"type":"Feature","properties":{"id":"ticari-22","kind":"district","btype":"ticari","name":"Defiba","lab":1},"geometry":{"type":"MultiPolygon","coordinates":[[[[-58.35281,-34.62725],[-58.35143,-34.62695],[-58.35361,-34.62475],[-58.35406,-34.62509],[-58.35436,-34.62476],[-58.35555,-34.62554],[-58.35281,-34.62725]]]]}},{"type":"Feature","properties":{"id":"ticari-lab-22","kind":"district-label","btype":"ticari","name":"Defiba"},"geometry":{"type":"Point","coordinates":[-58.35349,-34.626]}},{"type":"Feature","properties":{"id":"ticari-23","kind":"district","btype":"ticari","name":"Telecom","lab":1},"geometry":{"type":"MultiPolygon","coordinates":[[[[-58.53474,-34.50134],[-58.53359,-34.50303],[-58.53482,-34.50357],[-58.53406,-34.50478],[-58.53193,-34.50394],[-58.53391,-34.50097],[-58.53474,-34.50134]]]]}},{"type":"Feature","properties":{"id":"ticari-lab-23","kind":"district-label","btype":"ticari","name":"Telecom"},"geometry":{"type":"Point","coordinates":[-58.53352,-34.50312]}}]}