{"type":"FeatureCollection","features":[{"type":"Feature","properties":{"id":"ke-tarihi-0","kind":"poi","name":"Puente Transbordador Nicolás Avellaneda","theme":"tarihi","lab":1},"geometry":{"type":"Point","coordinates":[-58.35624,-34.63856]}},{"type":"Feature","properties":{"id":"ke-tarihi-1","kind":"poi","name":"Museo Casa Carlos Gardel","theme":"tarihi","lab":1},"geometry":{"type":"Point","coordinates":[-58.40781,-34.60167]}},{"type":"Feature","properties":{"id":"ke-tarihi-2","kind":"poi","name":"Jardín Botánico Carlos Thays","theme":"tarihi","lab":1},"geometry":{"type":"Point","coordinates":[-58.41734,-34.58286]}},{"type":"Feature","properties":{"id":"ke-tarihi-3","kind":"poi","name":"El Ateneo Grand Splendid","theme":"tarihi","lab":1},"geometry":{"type":"Point","coordinates":[-58.39426,-34.59598]}},{"type":"Feature","properties":{"id":"ke-tarihi-4","kind":"poi","name":"Cabildo de Buenos Aires","theme":"tarihi","lab":1},"geometry":{"type":"Point","coordinates":[-58.37368,-34.60881]}},{"type":"Feature","properties":{"id":"ke-tarihi-5","kind":"poi","name":"Vertigorama","theme":"tarihi","lab":1},"geometry":{"type":"Point","coordinates":[-58.44944,-34.6734]}},{"type":"Feature","properties":{"id":"ke-tarihi-6","kind":"poi","name":"San Cayetano","theme":"tarihi","lab":1},"geometry":{"type":"Point","coordinates":[-58.52827,-34.63785]}},{"type":"Feature","properties":{"id":"ke-tarihi-7","kind":"poi","name":"Primer partido de fútbol en Sudamérica","theme":"tarihi","lab":1},"geometry":{"type":"Point","coordinates":[-58.41252,-34.57024]}},{"type":"Feature","properties":{"id":"ke-tarihi-8","kind":"poi","name":"Parroquia Santa María","theme":"tarihi","lab":1},"geometry":{"type":"Point","coordinates":[-58.42818,-34.61801]}},{"type":"Feature","properties":{"id":"ke-tarihi-9","kind":"poi","name":"Parroquia San Isidro Labrador","theme":"tarihi","lab":1},"geometry":{"type":"Point","coordinates":[-58.47468,-34.54242]}},{"type":"Feature","properties":{"id":"ke-tarihi-10","kind":"poi","name":"Parroquia Nuestra Señora de Balvanera","theme":"tarihi","lab":1},"geometry":{"type":"Point","coordinates":[-58.40081,-34.6082]}},{"type":"Feature","properties":{"id":"ke-tarihi-11","kind":"poi","name":"Nuestra Señora del Buen Viaje","theme":"tarihi","lab":1},"geometry":{"type":"Point","coordinates":[-58.6215,-34.65203]}},{"type":"Feature","properties":{"id":"ke-tarihi-12","kind":"poi","name":"Museo Sitio de Memoria ESMA","theme":"tarihi","lab":1},"geometry":{"type":"Point","coordinates":[-58.46528,-34.53665]}},{"type":"Feature","properties":{"id":"ke-tarihi-13","kind":"poi","name":"Monumento de Francia a la Argentina","theme":"tarihi","lab":1},"geometry":{"type":"Point","coordinates":[-58.39347,-34.58497]}},{"type":"Feature","properties":{"id":"ke-tarihi-14","kind":"poi","name":"Monumento al General San Martín","theme":"tarihi","lab":1},"geometry":{"type":"Point","coordinates":[-58.3771,-34.59498]}},{"type":"Feature","properties":{"id":"ke-tarihi-15","kind":"poi","name":"Monumento a los Caídos en Malvinas","theme":"tarihi","lab":1},"geometry":{"type":"Point","coordinates":[-58.37515,-34.59393]}},{"type":"Feature","properties":{"id":"ke-tarihi-16","kind":"poi","name":"Monumento a la Cordialidad Argentino-Uruguaya","theme":"tarihi","lab":1},"geometry":{"type":"Point","coordinates":[-58.36964,-34.62799]}},{"type":"Feature","properties":{"id":"ke-tarihi-17","kind":"poi","name":"Monumento a Rubén Darío","theme":"tarihi","lab":1},"geometry":{"type":"Point","coordinates":[-58.39655,-34.58287]}},{"type":"Feature","properties":{"id":"ke-tarihi-18","kind":"poi","name":"Monumento a España","theme":"tarihi","lab":1},"geometry":{"type":"Point","coordinates":[-58.35342,-34.6236]}},{"type":"Feature","properties":{"id":"ke-tarihi-19","kind":"poi","name":"Monumento a El Cid Campeador","theme":"tarihi","lab":1},"geometry":{"type":"Point","coordinates":[-58.44573,-34.60758]}},{"type":"Feature","properties":{"id":"ke-tarihi-20","kind":"poi","name":"Monumento Guardacostas","theme":"tarihi","lab":1},"geometry":{"type":"Point","coordinates":[-58.35898,-34.61142]}},{"type":"Feature","properties":{"id":"ke-tarihi-21","kind":"poi","name":"Monument to Christopher Columbus","theme":"tarihi","lab":1},"geometry":{"type":"Point","coordinates":[-58.40976,-34.55688]}},{"type":"Feature","properties":{"id":"ke-tarihi-22","kind":"poi","name":"Luís Vaz de Camões","theme":"tarihi","lab":1},"geometry":{"type":"Point","coordinates":[-58.4574,-34.56942]}},{"type":"Feature","properties":{"id":"ke-tarihi-23","kind":"poi","name":"Lisandro de la Torre","theme":"tarihi","lab":1},"geometry":{"type":"Point","coordinates":[-58.37781,-34.60581]}},{"type":"Feature","properties":{"id":"ke-tarihi-24","kind":"poi","name":"La toma del '59","theme":"tarihi","lab":1},"geometry":{"type":"Point","coordinates":[-58.50115,-34.66133]}},{"type":"Feature","properties":{"id":"ke-tarihi-25","kind":"poi","name":"Kilómetro Cero","theme":"tarihi","lab":1},"geometry":{"type":"Point","coordinates":[-58.38883,-34.60956]}},{"type":"Feature","properties":{"id":"ke-tarihi-26","kind":"poi","name":"Kavanagh Building","theme":"tarihi","lab":1},"geometry":{"type":"Point","coordinates":[-58.37468,-34.5954]}},{"type":"Feature","properties":{"id":"ke-tarihi-27","kind":"poi","name":"Iglesia de Dios","theme":"tarihi","lab":1},"geometry":{"type":"Point","coordinates":[-58.53727,-34.5804]}},{"type":"Feature","properties":{"id":"ke-tarihi-28","kind":"poi","name":"Iglesia Santa Cruz","theme":"tarihi","lab":1},"geometry":{"type":"Point","coordinates":[-58.40954,-34.6216]}},{"type":"Feature","properties":{"id":"ke-tarihi-29","kind":"poi","name":"Hito de la Argentinidad Nº 10","theme":"tarihi","lab":1},"geometry":{"type":"Point","coordinates":[-58.45121,-34.58861]}},{"type":"Feature","properties":{"id":"ke-tarihi-30","kind":"poi","name":"Glorieta Antonio Malvagni","theme":"tarihi","lab":1},"geometry":{"type":"Point","coordinates":[-58.44983,-34.55992]}},{"type":"Feature","properties":{"id":"ke-tarihi-31","kind":"poi","name":"Fundación Vitra","theme":"tarihi","lab":1},"geometry":{"type":"Point","coordinates":[-58.37658,-34.62962]}},{"type":"Feature","properties":{"id":"ke-tarihi-32","kind":"poi","name":"Espacio Memoria y Derechos Humanos","theme":"tarihi","lab":1},"geometry":{"type":"Point","coordinates":[-58.46289,-34.53848]}},{"type":"Feature","properties":{"id":"ke-tarihi-33","kind":"poi","name":"El Pueblo Armenio a la Nación Argentina","theme":"tarihi","lab":1},"geometry":{"type":"Point","coordinates":[-58.43108,-34.55716]}},{"type":"Feature","properties":{"id":"ke-tarihi-34","kind":"poi","name":"Club Español","theme":"tarihi","lab":1},"geometry":{"type":"Point","coordinates":[-58.38043,-34.61037]}},{"type":"Feature","properties":{"id":"ke-tarihi-35","kind":"poi","name":"Centro Cultural Islámico Rey Fahd","theme":"tarihi","lab":1},"geometry":{"type":"Point","coordinates":[-58.42525,-34.57277]}},{"type":"Feature","properties":{"id":"ke-tarihi-36","kind":"poi","name":"Cemento","theme":"tarihi","lab":1},"geometry":{"type":"Point","coordinates":[-58.38345,-34.61865]}},{"type":"Feature","properties":{"id":"ke-tarihi-37","kind":"poi","name":"Cathedral Basilica of Our Lady of Peace","theme":"tarihi","lab":1},"geometry":{"type":"Point","coordinates":[-58.40256,-34.75827]}},{"type":"Feature","properties":{"id":"ke-tarihi-38","kind":"poi","name":"Catedral de San Isidro","theme":"tarihi","lab":1},"geometry":{"type":"Point","coordinates":[-58.50917,-34.46717]}},{"type":"Feature","properties":{"id":"ke-tarihi-39","kind":"poi","name":"Catedral Nuestra Señora del Patrocinio (Pokrov)","theme":"tarihi","lab":1},"geometry":{"type":"Point","coordinates":[-58.48149,-34.63564]}},{"type":"Feature","properties":{"id":"ke-tarihi-40","kind":"poi","name":"Casa de los Pavos Reales","theme":"tarihi","lab":1},"geometry":{"type":"Point","coordinates":[-58.41215,-34.6108]}},{"type":"Feature","properties":{"id":"ke-tarihi-41","kind":"poi","name":"Casa de Ernesto Sabato","theme":"tarihi","lab":1},"geometry":{"type":"Point","coordinates":[-58.53782,-34.60253]}},{"type":"Feature","properties":{"id":"ke-tarihi-42","kind":"poi","name":"Caminito","theme":"tarihi","lab":1},"geometry":{"type":"Point","coordinates":[-58.36255,-34.63926]}},{"type":"Feature","properties":{"id":"ke-tarihi-43","kind":"poi","name":"Bernardo O'Higgins","theme":"tarihi","lab":1},"geometry":{"type":"Point","coordinates":[-58.39994,-34.58148]}},{"type":"Feature","properties":{"id":"ke-tarihi-44","kind":"poi","name":"Basílica de San José de Flores","theme":"tarihi","lab":1},"geometry":{"type":"Point","coordinates":[-58.46311,-34.62972]}},{"type":"Feature","properties":{"id":"ke-tarihi-45","kind":"poi","name":"Avión de los Vuelos de la Muerte","theme":"tarihi","lab":1},"geometry":{"type":"Point","coordinates":[-58.4978,-34.73767]}},{"type":"Feature","properties":{"id":"ke-tarihi-46","kind":"poi","name":"Placa del Ombú de Los Polvorines","theme":"tarihi","lab":1},"geometry":{"type":"Point","coordinates":[-58.69581,-34.49061]}},{"type":"Feature","properties":{"id":"ke-tarihi-47","kind":"poi","name":"Placa del Olivo Papa Francisco","theme":"tarihi","lab":1},"geometry":{"type":"Point","coordinates":[-58.69819,-34.49812]}},{"type":"Feature","properties":{"id":"ke-tarihi-48","kind":"poi","name":"Casa del niño y el adolescente (El Pabellón)","theme":"tarihi","lab":1},"geometry":{"type":"Point","coordinates":[-58.36688,-34.64002]}},{"type":"Feature","properties":{"id":"ke-tarihi-49","kind":"poi","name":"soldado de malvinas","theme":"tarihi","lab":1},"geometry":{"type":"Point","coordinates":[-58.74157,-34.51443]}},{"type":"Feature","properties":{"id":"ke-tarihi-50","kind":"poi","name":"monumento vicente lopez y planes","theme":"tarihi","lab":1},"geometry":{"type":"Point","coordinates":[-58.4862,-34.50891]}},{"type":"Feature","properties":{"id":"ke-tarihi-51","kind":"poi","name":"escudo jose c paz","theme":"tarihi","lab":1},"geometry":{"type":"Point","coordinates":[-58.73937,-34.51791]}},{"type":"Feature","properties":{"id":"ke-tarihi-52","kind":"poi","name":"campanario de parroquia","theme":"tarihi","lab":1},"geometry":{"type":"Point","coordinates":[-58.54836,-34.58615]}},{"type":"Feature","properties":{"id":"ke-tarihi-53","kind":"poi","name":"Zamudio Mosaicos","theme":"tarihi","lab":1},"geometry":{"type":"Point","coordinates":[-58.43208,-34.66136]}},{"type":"Feature","properties":{"id":"ke-tarihi-54","kind":"poi","name":"Yerba Mate (Morón)","theme":"tarihi","lab":1},"geometry":{"type":"Point","coordinates":[-58.5893,-34.61274]}},{"type":"Feature","properties":{"id":"ke-tarihi-55","kind":"poi","name":"Virgen del Luján","theme":"tarihi","lab":1},"geometry":{"type":"Point","coordinates":[-58.54097,-34.45609]}},{"type":"Feature","properties":{"id":"ke-tarihi-56","kind":"poi","name":"Virgen de Luján","theme":"tarihi","lab":1},"geometry":{"type":"Point","coordinates":[-58.47092,-34.59589]}},{"type":"Feature","properties":{"id":"ke-tarihi-57","kind":"poi","name":"Virgen de Itatí","theme":"tarihi","lab":1},"geometry":{"type":"Point","coordinates":[-58.74479,-34.48065]}},{"type":"Feature","properties":{"id":"ke-tarihi-58","kind":"poi","name":"Virgen María de Luján","theme":"tarihi","lab":1},"geometry":{"type":"Point","coordinates":[-58.51856,-34.58373]}},{"type":"Feature","properties":{"id":"ke-tarihi-59","kind":"poi","name":"Virgen María","theme":"tarihi","lab":1},"geometry":{"type":"Point","coordinates":[-58.63399,-34.68712]}},{"type":"Feature","properties":{"id":"ke-tarihi-60","kind":"poi","name":"Virgen Maria","theme":"tarihi","lab":1},"geometry":{"type":"Point","coordinates":[-58.62275,-34.68994]}},{"type":"Feature","properties":{"id":"ke-tarihi-61","kind":"poi","name":"Virgen","theme":"tarihi","lab":1},"geometry":{"type":"Point","coordinates":[-58.36804,-34.67858]}},{"type":"Feature","properties":{"id":"ke-tarihi-62","kind":"poi","name":"Villa de los Granados","theme":"tarihi","lab":1},"geometry":{"type":"Point","coordinates":[-58.61997,-34.48668]}},{"type":"Feature","properties":{"id":"ke-tarihi-63","kind":"poi","name":"Valko, Mario Luis","theme":"tarihi","lab":1},"geometry":{"type":"Point","coordinates":[-58.5392,-34.717]}},{"type":"Feature","properties":{"id":"ke-tarihi-64","kind":"poi","name":"Tuneles de San Andres","theme":"tarihi","lab":1},"geometry":{"type":"Point","coordinates":[-58.54317,-34.56129]}},{"type":"Feature","properties":{"id":"ke-tarihi-65","kind":"poi","name":"Tomb of 10","theme":"tarihi","lab":1},"geometry":{"type":"Point","coordinates":[-58.7157,-34.60031]}},{"type":"Feature","properties":{"id":"ke-tarihi-66","kind":"poi","name":"Sobre Rieles","theme":"tarihi","lab":1},"geometry":{"type":"Point","coordinates":[-58.53657,-34.5059]}},{"type":"Feature","properties":{"id":"ke-tarihi-67","kind":"poi","name":"Silla Firmada por Maradona","theme":"tarihi","lab":1},"geometry":{"type":"Point","coordinates":[-58.3967,-34.64301]}},{"type":"Feature","properties":{"id":"ke-tarihi-68","kind":"poi","name":"Seccional Sarmiento","theme":"tarihi","lab":1},"geometry":{"type":"Point","coordinates":[-58.65199,-34.65573]}},{"type":"Feature","properties":{"id":"ke-tarihi-69","kind":"poi","name":"Scholem Aleijem","theme":"tarihi","lab":1},"geometry":{"type":"Point","coordinates":[-58.42244,-34.59783]}},{"type":"Feature","properties":{"id":"ke-tarihi-70","kind":"poi","name":"Sarmiento","theme":"tarihi","lab":1},"geometry":{"type":"Point","coordinates":[-58.56601,-34.61021]}},{"type":"Feature","properties":{"id":"ke-tarihi-71","kind":"poi","name":"Santuario de San Expedito","theme":"tarihi","lab":1},"geometry":{"type":"Point","coordinates":[-58.69917,-34.55546]}},{"type":"Feature","properties":{"id":"ke-tarihi-72","kind":"poi","name":"San Martín","theme":"tarihi","lab":1},"geometry":{"type":"Point","coordinates":[-58.58619,-34.6464]}},{"type":"Feature","properties":{"id":"ke-tarihi-73","kind":"poi","name":"San Joaquín","theme":"tarihi","lab":1},"geometry":{"type":"Point","coordinates":[-58.40297,-34.79166]}},{"type":"Feature","properties":{"id":"ke-tarihi-74","kind":"poi","name":"San Cura Brochero","theme":"tarihi","lab":1},"geometry":{"type":"Point","coordinates":[-58.6414,-34.57865]}},{"type":"Feature","properties":{"id":"ke-tarihi-75","kind":"poi","name":"Rotary International","theme":"tarihi","lab":1},"geometry":{"type":"Point","coordinates":[-58.52994,-34.57763]}},{"type":"Feature","properties":{"id":"ke-tarihi-76","kind":"poi","name":"Rotary Club Villa Sarmiento","theme":"tarihi","lab":1},"geometry":{"type":"Point","coordinates":[-58.5679,-34.63619]}},{"type":"Feature","properties":{"id":"ke-tarihi-77","kind":"poi","name":"Roberto Goyeneche","theme":"tarihi","lab":1},"geometry":{"type":"Point","coordinates":[-58.47253,-34.55954]}},{"type":"Feature","properties":{"id":"ke-tarihi-78","kind":"poi","name":"Rafael Hernández","theme":"tarihi","lab":1},"geometry":{"type":"Point","coordinates":[-58.45381,-34.54942]}},{"type":"Feature","properties":{"id":"ke-tarihi-79","kind":"poi","name":"Quinta Los Naranjos","theme":"tarihi","lab":1},"geometry":{"type":"Point","coordinates":[-58.50701,-34.46759]}},{"type":"Feature","properties":{"id":"ke-tarihi-80","kind":"poi","name":"Plazoleta Ex Combatientes Malvinas","theme":"tarihi","lab":1},"geometry":{"type":"Point","coordinates":[-58.57259,-34.46089]}},{"type":"Feature","properties":{"id":"ke-tarihi-81","kind":"poi","name":"Plaza de los Héroes Egresados","theme":"tarihi","lab":1},"geometry":{"type":"Point","coordinates":[-58.60244,-34.69594]}},{"type":"Feature","properties":{"id":"ke-tarihi-82","kind":"poi","name":"Placa detenidos desaparecidos","theme":"tarihi","lab":1},"geometry":{"type":"Point","coordinates":[-58.61842,-34.6497]}},{"type":"Feature","properties":{"id":"ke-tarihi-83","kind":"poi","name":"Pedro Bonifacio Palacios (Almafuerte)","theme":"tarihi","lab":1},"geometry":{"type":"Point","coordinates":[-58.56028,-34.6777]}},{"type":"Feature","properties":{"id":"ke-tarihi-84","kind":"poi","name":"Pedro Asquini","theme":"tarihi","lab":1},"geometry":{"type":"Point","coordinates":[-58.41586,-34.63076]}},{"type":"Feature","properties":{"id":"ke-tarihi-85","kind":"poi","name":"Padraic Pearse","theme":"tarihi","lab":1},"geometry":{"type":"Point","coordinates":[-58.45729,-34.61361]}},{"type":"Feature","properties":{"id":"ke-tarihi-86","kind":"poi","name":"Nuestra Señora del Sagrado Corazón","theme":"tarihi","lab":1},"geometry":{"type":"Point","coordinates":[-58.52898,-34.65448]}},{"type":"Feature","properties":{"id":"ke-modern-0","kind":"poi","name":"Espacio Cultural Nuestros Hijos","theme":"modern","lab":1},"geometry":{"type":"Point","coordinates":[-58.46357,-34.53669]}},{"type":"Feature","properties":{"id":"ke-modern-1","kind":"poi","name":"Torre de los Ingleses","theme":"modern","lab":1},"geometry":{"type":"Point","coordinates":[-58.37374,-34.59218]}},{"type":"Feature","properties":{"id":"ke-modern-2","kind":"poi","name":"Torre Ader","theme":"modern","lab":1},"geometry":{"type":"Point","coordinates":[-58.54517,-34.534]}},{"type":"Feature","properties":{"id":"ke-modern-3","kind":"poi","name":"Teatro Colón","theme":"modern","lab":1},"geometry":{"type":"Point","coordinates":[-58.38318,-34.60108]}},{"type":"Feature","properties":{"id":"ke-modern-4","kind":"poi","name":"Stadium Luna Park","theme":"modern","lab":1},"geometry":{"type":"Point","coordinates":[-58.3687,-34.60232]}},{"type":"Feature","properties":{"id":"ke-modern-5","kind":"poi","name":"Gran Rivadavia","theme":"modern","lab":1},"geometry":{"type":"Point","coordinates":[-58.48528,-34.63509]}},{"type":"Feature","properties":{"id":"ke-modern-6","kind":"poi","name":"Fundación Proa","theme":"modern","lab":1},"geometry":{"type":"Point","coordinates":[-58.36212,-34.63988]}},{"type":"Feature","properties":{"id":"ke-modern-7","kind":"poi","name":"Faena Arts Center","theme":"modern","lab":1},"geometry":{"type":"Point","coordinates":[-58.36217,-34.61127]}},{"type":"Feature","properties":{"id":"ke-modern-8","kind":"poi","name":"Centro de Exposiciones","theme":"modern","lab":1},"geometry":{"type":"Point","coordinates":[-58.39013,-34.58228]}},{"type":"Feature","properties":{"id":"ke-modern-9","kind":"poi","name":"Centro Metropolitano de Diseño","theme":"modern","lab":1},"geometry":{"type":"Point","coordinates":[-58.37993,-34.65488]}},{"type":"Feature","properties":{"id":"ke-modern-10","kind":"poi","name":"Centro Cultural Recoleta","theme":"modern","lab":1},"geometry":{"type":"Point","coordinates":[-58.39257,-34.58623]}},{"type":"Feature","properties":{"id":"ke-modern-11","kind":"poi","name":"Centro Cultural General San Martín","theme":"modern","lab":1},"geometry":{"type":"Point","coordinates":[-58.38856,-34.60479]}},{"type":"Feature","properties":{"id":"ke-modern-12","kind":"poi","name":"Centro Cultural 25 de Mayo","theme":"modern","lab":1},"geometry":{"type":"Point","coordinates":[-58.48373,-34.57641]}},{"type":"Feature","properties":{"id":"ke-modern-13","kind":"poi","name":"Academia Nacional de Bellas Artes","theme":"modern","lab":1},"geometry":{"type":"Point","coordinates":[-58.40141,-34.58271]}},{"type":"Feature","properties":{"id":"ke-modern-14","kind":"poi","name":"Galería de Arte","theme":"modern","lab":1},"geometry":{"type":"Point","coordinates":[-58.37164,-34.61624]}},{"type":"Feature","properties":{"id":"ke-modern-15","kind":"poi","name":"Complejo Municipal de Cultura de los Santos Lugares","theme":"modern","lab":1},"geometry":{"type":"Point","coordinates":[-58.5439,-34.60134]}},{"type":"Feature","properties":{"id":"ke-modern-16","kind":"poi","name":"Complejo Cultural Sanidad","theme":"modern","lab":1},"geometry":{"type":"Point","coordinates":[-58.39853,-34.61489]}},{"type":"Feature","properties":{"id":"ke-modern-17","kind":"poi","name":"Tehanú","theme":"modern","lab":1},"geometry":{"type":"Point","coordinates":[-58.50378,-34.48378]}},{"type":"Feature","properties":{"id":"ke-modern-18","kind":"poi","name":"Taller Yaotamo","theme":"modern","lab":1},"geometry":{"type":"Point","coordinates":[-58.70478,-34.62447]}},{"type":"Feature","properties":{"id":"ke-modern-19","kind":"poi","name":"Sociedad Cultural Polaca","theme":"modern","lab":1},"geometry":{"type":"Point","coordinates":[-58.50767,-34.54287]}},{"type":"Feature","properties":{"id":"ke-modern-20","kind":"poi","name":"Sala PAyS","theme":"modern","lab":1},"geometry":{"type":"Point","coordinates":[-58.4369,-34.5407]}},{"type":"Feature","properties":{"id":"ke-modern-21","kind":"poi","name":"Ruth Benzacar","theme":"modern","lab":1},"geometry":{"type":"Point","coordinates":[-58.44304,-34.5914]}},{"type":"Feature","properties":{"id":"ke-modern-22","kind":"poi","name":"Rojo al Frente","theme":"modern","lab":1},"geometry":{"type":"Point","coordinates":[-58.53308,-34.57565]}},{"type":"Feature","properties":{"id":"ke-modern-23","kind":"poi","name":"Oxido y Resistencia","theme":"modern","lab":1},"geometry":{"type":"Point","coordinates":[-58.3583,-34.63882]}},{"type":"Feature","properties":{"id":"ke-modern-24","kind":"poi","name":"Nicolás Caubarrere Art","theme":"modern","lab":1},"geometry":{"type":"Point","coordinates":[-58.52846,-34.49186]}},{"type":"Feature","properties":{"id":"ke-modern-25","kind":"poi","name":"Multiespacio Cultural UNGS","theme":"modern","lab":1},"geometry":{"type":"Point","coordinates":[-58.69987,-34.52063]}},{"type":"Feature","properties":{"id":"ke-modern-26","kind":"poi","name":"Marier","theme":"modern","lab":1},"geometry":{"type":"Point","coordinates":[-58.44668,-34.56887]}},{"type":"Feature","properties":{"id":"ke-modern-27","kind":"poi","name":"La Ira de Dios","theme":"modern","lab":1},"geometry":{"type":"Point","coordinates":[-58.43987,-34.59295]}},{"type":"Feature","properties":{"id":"ke-modern-28","kind":"poi","name":"La Estación","theme":"modern","lab":1},"geometry":{"type":"Point","coordinates":[-58.41048,-34.6014]}},{"type":"Feature","properties":{"id":"ke-modern-29","kind":"poi","name":"La Abadía, Centro de Arte y Estudios Latinoamericanos","theme":"modern","lab":1},"geometry":{"type":"Point","coordinates":[-58.43812,-34.56764]}},{"type":"Feature","properties":{"id":"ke-modern-30","kind":"poi","name":"Hoy en el Arte","theme":"modern","lab":1},"geometry":{"type":"Point","coordinates":[-58.37921,-34.59296]}},{"type":"Feature","properties":{"id":"ke-modern-31","kind":"poi","name":"Galería de Arte Mosaik","theme":"modern","lab":1},"geometry":{"type":"Point","coordinates":[-58.55588,-34.47275]}},{"type":"Feature","properties":{"id":"ke-modern-32","kind":"poi","name":"Galeria del Asombro","theme":"modern","lab":1},"geometry":{"type":"Point","coordinates":[-58.37136,-34.62295]}},{"type":"Feature","properties":{"id":"ke-modern-33","kind":"poi","name":"Espacio Granola","theme":"modern","lab":1},"geometry":{"type":"Point","coordinates":[-58.66109,-34.66265]}},{"type":"Feature","properties":{"id":"ke-modern-34","kind":"poi","name":"Espacio Cultural del Sur","theme":"modern","lab":1},"geometry":{"type":"Point","coordinates":[-58.38647,-34.6337]}},{"type":"Feature","properties":{"id":"ke-modern-35","kind":"poi","name":"Espacio Cultural Marcó del Pont","theme":"modern","lab":1},"geometry":{"type":"Point","coordinates":[-58.46538,-34.62738]}},{"type":"Feature","properties":{"id":"ke-modern-36","kind":"poi","name":"Ernesto Zanotti","theme":"modern","lab":1},"geometry":{"type":"Point","coordinates":[-58.40139,-34.59036]}},{"type":"Feature","properties":{"id":"ke-modern-37","kind":"poi","name":"Dynart","theme":"modern","lab":1},"geometry":{"type":"Point","coordinates":[-58.46682,-34.54856]}},{"type":"Feature","properties":{"id":"ke-modern-38","kind":"poi","name":"Cultura del Sur","theme":"modern","lab":1},"geometry":{"type":"Point","coordinates":[-58.39744,-34.77411]}},{"type":"Feature","properties":{"id":"ke-modern-39","kind":"poi","name":"Copérnico","theme":"modern","lab":1},"geometry":{"type":"Point","coordinates":[-58.56328,-34.6776]}},{"type":"Feature","properties":{"id":"ke-modern-40","kind":"poi","name":"Conservatorio Juan José Castro","theme":"modern","lab":1},"geometry":{"type":"Point","coordinates":[-58.50138,-34.48755]}},{"type":"Feature","properties":{"id":"ke-modern-41","kind":"poi","name":"Club 911","theme":"modern","lab":1},"geometry":{"type":"Point","coordinates":[-58.42672,-34.59442]}},{"type":"Feature","properties":{"id":"ke-modern-42","kind":"poi","name":"Centro de Producción Audiovisual Leonardo Favio","theme":"modern","lab":1},"geometry":{"type":"Point","coordinates":[-58.28975,-34.71373]}},{"type":"Feature","properties":{"id":"ke-modern-43","kind":"poi","name":"Centro cultural amigos de Eladia Blázquez","theme":"modern","lab":1},"geometry":{"type":"Point","coordinates":[-58.43511,-34.57542]}},{"type":"Feature","properties":{"id":"ke-modern-44","kind":"poi","name":"Centro cultural IMPA La Fábrica","theme":"modern","lab":1},"geometry":{"type":"Point","coordinates":[-58.4269,-34.61131]}},{"type":"Feature","properties":{"id":"ke-doga-0","kind":"poi","name":"Plaza María Eva Duarte de Perón","theme":"doga","lab":1},"geometry":{"type":"Point","coordinates":[-58.3587,-34.61897]}},{"type":"Feature","properties":{"id":"ke-doga-1","kind":"poi","name":"Parque de la Ciudad","theme":"doga","lab":1},"geometry":{"type":"Point","coordinates":[-58.4504,-34.67139]}},{"type":"Feature","properties":{"id":"ke-doga-3","kind":"poi","name":"Buenos Aires Japanese Gardens","theme":"doga","lab":1},"geometry":{"type":"Point","coordinates":[-58.40941,-34.57519]}},{"type":"Feature","properties":{"id":"ke-doga-4","kind":"poi","name":"Reserva Natural Urbana Morón","theme":"doga","lab":1},"geometry":{"type":"Point","coordinates":[-58.65288,-34.67218]}},{"type":"Feature","properties":{"id":"ke-doga-5","kind":"poi","name":"Plazoleta del Arbol","theme":"doga","lab":1},"geometry":{"type":"Point","coordinates":[-58.40871,-34.59344]}},{"type":"Feature","properties":{"id":"ke-doga-6","kind":"poi","name":"Plazoleta Villa Santa Rita","theme":"doga","lab":1},"geometry":{"type":"Point","coordinates":[-58.47941,-34.62042]}},{"type":"Feature","properties":{"id":"ke-doga-7","kind":"poi","name":"Plazoleta Vicente Bellini","theme":"doga","lab":1},"geometry":{"type":"Point","coordinates":[-58.49341,-34.63685]}},{"type":"Feature","properties":{"id":"ke-doga-8","kind":"poi","name":"Plazoleta Sur","theme":"doga","lab":1},"geometry":{"type":"Point","coordinates":[-58.41686,-34.61595]}},{"type":"Feature","properties":{"id":"ke-doga-9","kind":"poi","name":"Plazoleta Scholem Aleijem","theme":"doga","lab":1},"geometry":{"type":"Point","coordinates":[-58.42285,-34.59784]}},{"type":"Feature","properties":{"id":"ke-doga-10","kind":"poi","name":"Plazoleta Rómulo Zabala","theme":"doga","lab":1},"geometry":{"type":"Point","coordinates":[-58.52047,-34.65726]}},{"type":"Feature","properties":{"id":"ke-doga-11","kind":"poi","name":"Plazoleta Roberto Jorge Santoro","theme":"doga","lab":1},"geometry":{"type":"Point","coordinates":[-58.45475,-34.58459]}},{"type":"Feature","properties":{"id":"ke-doga-12","kind":"poi","name":"Plazoleta Pelagio Luna","theme":"doga","lab":1},"geometry":{"type":"Point","coordinates":[-58.50731,-34.64835]}},{"type":"Feature","properties":{"id":"ke-doga-13","kind":"poi","name":"Plazoleta Paquita Bernardo","theme":"doga","lab":1},"geometry":{"type":"Point","coordinates":[-58.38112,-34.60464]}},{"type":"Feature","properties":{"id":"ke-doga-14","kind":"poi","name":"Plazoleta Obispo Enrique Angelelli","theme":"doga","lab":1},"geometry":{"type":"Point","coordinates":[-58.42277,-34.65873]}},{"type":"Feature","properties":{"id":"ke-doga-15","kind":"poi","name":"Plazoleta Miguel de Unamuno","theme":"doga","lab":1},"geometry":{"type":"Point","coordinates":[-58.39313,-34.65338]}},{"type":"Feature","properties":{"id":"ke-doga-16","kind":"poi","name":"Plazoleta Miguel Abuelo","theme":"doga","lab":1},"geometry":{"type":"Point","coordinates":[-58.43472,-34.57535]}},{"type":"Feature","properties":{"id":"ke-doga-17","kind":"poi","name":"Plazoleta Lindor B. Sotomayor","theme":"doga","lab":1},"geometry":{"type":"Point","coordinates":[-58.4929,-34.61036]}},{"type":"Feature","properties":{"id":"ke-doga-18","kind":"poi","name":"Plazoleta Julián Besteiro","theme":"doga","lab":1},"geometry":{"type":"Point","coordinates":[-58.47085,-34.59608]}},{"type":"Feature","properties":{"id":"ke-doga-19","kind":"poi","name":"Plazoleta Julio Cortázar","theme":"doga","lab":1},"geometry":{"type":"Point","coordinates":[-58.43018,-34.58876]}},{"type":"Feature","properties":{"id":"ke-doga-20","kind":"poi","name":"Plazoleta José Hernandez","theme":"doga","lab":1},"geometry":{"type":"Point","coordinates":[-58.37277,-34.65152]}},{"type":"Feature","properties":{"id":"ke-doga-21","kind":"poi","name":"Plazoleta General Francisco Morazán","theme":"doga","lab":1},"geometry":{"type":"Point","coordinates":[-58.44939,-34.56567]}},{"type":"Feature","properties":{"id":"ke-doga-22","kind":"poi","name":"Plazoleta Francisco Lomuto","theme":"doga","lab":1},"geometry":{"type":"Point","coordinates":[-58.48559,-34.55468]}},{"type":"Feature","properties":{"id":"ke-doga-23","kind":"poi","name":"Plazoleta Falucho","theme":"doga","lab":1},"geometry":{"type":"Point","coordinates":[-58.4288,-34.57706]}},{"type":"Feature","properties":{"id":"ke-doga-24","kind":"poi","name":"Plazoleta Enrique Santos Discepolo","theme":"doga","lab":1},"geometry":{"type":"Point","coordinates":[-58.42436,-34.63978]}},{"type":"Feature","properties":{"id":"ke-doga-25","kind":"poi","name":"Plazoleta Emilio Troncoso","theme":"doga","lab":1},"geometry":{"type":"Point","coordinates":[-58.48385,-34.66602]}},{"type":"Feature","properties":{"id":"ke-doga-26","kind":"poi","name":"Plazoleta Elena Larroque de Roffo","theme":"doga","lab":1},"geometry":{"type":"Point","coordinates":[-58.505,-34.60184]}},{"type":"Feature","properties":{"id":"ke-doga-27","kind":"poi","name":"Plazoleta El Resero","theme":"doga","lab":1},"geometry":{"type":"Point","coordinates":[-58.50002,-34.66246]}},{"type":"Feature","properties":{"id":"ke-doga-28","kind":"poi","name":"Plazoleta Curuzú Cuatiá","theme":"doga","lab":1},"geometry":{"type":"Point","coordinates":[-58.4726,-34.55947]}},{"type":"Feature","properties":{"id":"ke-doga-29","kind":"poi","name":"Plazoleta Crisólogo Larralde","theme":"doga","lab":1},"geometry":{"type":"Point","coordinates":[-58.44157,-34.61949]}},{"type":"Feature","properties":{"id":"ke-doga-30","kind":"poi","name":"Plazoleta Carlos de la Púa","theme":"doga","lab":1},"geometry":{"type":"Point","coordinates":[-58.48631,-34.59613]}},{"type":"Feature","properties":{"id":"ke-doga-31","kind":"poi","name":"Plazoleta Beato Luis Guanella","theme":"doga","lab":1},"geometry":{"type":"Point","coordinates":[-58.51124,-34.65021]}},{"type":"Feature","properties":{"id":"ke-doga-32","kind":"poi","name":"Plazoleta Baron Hirsch","theme":"doga","lab":1},"geometry":{"type":"Point","coordinates":[-58.4398,-34.60317]}},{"type":"Feature","properties":{"id":"ke-doga-33","kind":"poi","name":"Plazoleta Aeronáutica Argentina","theme":"doga","lab":1},"geometry":{"type":"Point","coordinates":[-58.46642,-34.67978]}},{"type":"Feature","properties":{"id":"ke-doga-34","kind":"poi","name":"Plaza del Ángel Gris","theme":"doga","lab":1},"geometry":{"type":"Point","coordinates":[-58.45664,-34.62204]}},{"type":"Feature","properties":{"id":"ke-doga-35","kind":"poi","name":"Plaza del Caballito","theme":"doga","lab":1},"geometry":{"type":"Point","coordinates":[-58.44354,-34.61943]}},{"type":"Feature","properties":{"id":"ke-doga-36","kind":"poi","name":"Plaza de los Periodistas","theme":"doga","lab":1},"geometry":{"type":"Point","coordinates":[-58.47298,-34.62145]}},{"type":"Feature","properties":{"id":"ke-doga-37","kind":"poi","name":"Plaza de los Mataderos","theme":"doga","lab":1},"geometry":{"type":"Point","coordinates":[-58.5068,-34.65773]}},{"type":"Feature","properties":{"id":"ke-doga-38","kind":"poi","name":"Plaza de las Américas","theme":"doga","lab":1},"geometry":{"type":"Point","coordinates":[-58.38815,-34.60521]}},{"type":"Feature","properties":{"id":"ke-doga-39","kind":"poi","name":"Plaza de la unidad Latinoamericana","theme":"doga","lab":1},"geometry":{"type":"Point","coordinates":[-58.41989,-34.59218]}},{"type":"Feature","properties":{"id":"ke-doga-40","kind":"poi","name":"Plaza de la Misericordia","theme":"doga","lab":1},"geometry":{"type":"Point","coordinates":[-58.45578,-34.63257]}},{"type":"Feature","properties":{"id":"ke-doga-41","kind":"poi","name":"Plaza de la Defensa","theme":"doga","lab":1},"geometry":{"type":"Point","coordinates":[-58.37205,-34.61417]}},{"type":"Feature","properties":{"id":"ke-doga-42","kind":"poi","name":"Plaza de Burzaco","theme":"doga","lab":1},"geometry":{"type":"Point","coordinates":[-58.39499,-34.82585]}},{"type":"Feature","properties":{"id":"ke-doga-43","kind":"poi","name":"Plaza Vélez Sarsfield","theme":"doga","lab":1},"geometry":{"type":"Point","coordinates":[-58.48275,-34.62987]}},{"type":"Feature","properties":{"id":"ke-doga-44","kind":"poi","name":"Plaza Teniente General Emilio Mitre","theme":"doga","lab":1},"geometry":{"type":"Point","coordinates":[-58.39753,-34.58826]}},{"type":"Feature","properties":{"id":"ke-doga-45","kind":"poi","name":"Plaza Sudamérica","theme":"doga","lab":1},"geometry":{"type":"Point","coordinates":[-58.47507,-34.68839]}},{"type":"Feature","properties":{"id":"ke-doga-46","kind":"poi","name":"Plaza Solís","theme":"doga","lab":1},"geometry":{"type":"Point","coordinates":[-58.35525,-34.6344]}},{"type":"Feature","properties":{"id":"ke-doga-47","kind":"poi","name":"Plaza San Martín","theme":"doga","lab":1},"geometry":{"type":"Point","coordinates":[-58.62195,-34.65116]}},{"type":"Feature","properties":{"id":"ke-doga-48","kind":"poi","name":"Plaza Roma","theme":"doga","lab":1},"geometry":{"type":"Point","coordinates":[-58.36979,-34.60121]}},{"type":"Feature","properties":{"id":"ke-doga-49","kind":"poi","name":"Plaza Roberto Arlt","theme":"doga","lab":1},"geometry":{"type":"Point","coordinates":[-58.37828,-34.60777]}},{"type":"Feature","properties":{"id":"ke-doga-50","kind":"poi","name":"Plaza República del Ecuador","theme":"doga","lab":1},"geometry":{"type":"Point","coordinates":[-58.4217,-34.56385]}},{"type":"Feature","properties":{"id":"ke-doga-51","kind":"poi","name":"Plaza República Oriental del Uruguay","theme":"doga","lab":1},"geometry":{"type":"Point","coordinates":[-58.39768,-34.58188]}},{"type":"Feature","properties":{"id":"ke-doga-52","kind":"poi","name":"Plaza Paseo del Riachuelo","theme":"doga","lab":1},"geometry":{"type":"Point","coordinates":[-58.41228,-34.65778]}},{"type":"Feature","properties":{"id":"ke-doga-53","kind":"poi","name":"Plaza Noruega","theme":"doga","lab":1},"geometry":{"type":"Point","coordinates":[-58.45868,-34.56217]}},{"type":"Feature","properties":{"id":"ke-doga-54","kind":"poi","name":"Plaza Nicolás Granada","theme":"doga","lab":1},"geometry":{"type":"Point","coordinates":[-58.47868,-34.67407]}},{"type":"Feature","properties":{"id":"ke-doga-55","kind":"poi","name":"Plaza Nicaragua","theme":"doga","lab":1},"geometry":{"type":"Point","coordinates":[-58.40889,-34.6453]}},{"type":"Feature","properties":{"id":"ke-doga-56","kind":"poi","name":"Plaza Monseñor Miguel de Andrea","theme":"doga","lab":1},"geometry":{"type":"Point","coordinates":[-58.40728,-34.59741]}},{"type":"Feature","properties":{"id":"ke-doga-57","kind":"poi","name":"Plaza Mitre","theme":"doga","lab":1},"geometry":{"type":"Point","coordinates":[-58.46591,-34.81938]}},{"type":"Feature","properties":{"id":"ke-doga-58","kind":"poi","name":"Plaza Miserere","theme":"doga","lab":1},"geometry":{"type":"Point","coordinates":[-58.40738,-34.60971]}},{"type":"Feature","properties":{"id":"ke-doga-59","kind":"poi","name":"Plaza Matheu","theme":"doga","lab":1},"geometry":{"type":"Point","coordinates":[-58.36685,-34.64028]}},{"type":"Feature","properties":{"id":"ke-doga-60","kind":"poi","name":"Plaza Martín Rodríguez","theme":"doga","lab":1},"geometry":{"type":"Point","coordinates":[-58.50111,-34.59084]}},{"type":"Feature","properties":{"id":"ke-doga-61","kind":"poi","name":"Plaza Martín Fierro","theme":"doga","lab":1},"geometry":{"type":"Point","coordinates":[-58.4078,-34.62595]}},{"type":"Feature","properties":{"id":"ke-doga-62","kind":"poi","name":"Plaza Mario Abel Amaya","theme":"doga","lab":1},"geometry":{"type":"Point","coordinates":[-58.41664,-34.62778]}},{"type":"Feature","properties":{"id":"ke-doga-63","kind":"poi","name":"Plaza Marcos Sastre","theme":"doga","lab":1},"geometry":{"type":"Point","coordinates":[-58.48157,-34.57117]}},{"type":"Feature","properties":{"id":"ke-doga-64","kind":"poi","name":"Plaza Mafalda","theme":"doga","lab":1},"geometry":{"type":"Point","coordinates":[-58.44551,-34.58069]}},{"type":"Feature","properties":{"id":"ke-doga-65","kind":"poi","name":"Plaza Leandro N. Alem","theme":"doga","lab":1},"geometry":{"type":"Point","coordinates":[-58.50324,-34.57633]}},{"type":"Feature","properties":{"id":"ke-doga-66","kind":"poi","name":"Plaza Juan Bautista Alberdi","theme":"doga","lab":1},"geometry":{"type":"Point","coordinates":[-58.48719,-34.55993]}},{"type":"Feature","properties":{"id":"ke-doga-67","kind":"poi","name":"Plaza José Martí","theme":"doga","lab":1},"geometry":{"type":"Point","coordinates":[-58.46332,-34.64964]}},{"type":"Feature","properties":{"id":"ke-doga-68","kind":"poi","name":"Plaza José C. Paz","theme":"doga","lab":1},"geometry":{"type":"Point","coordinates":[-58.41049,-34.64459]}},{"type":"Feature","properties":{"id":"ke-doga-69","kind":"poi","name":"Plaza Jamaica","theme":"doga","lab":1},"geometry":{"type":"Point","coordinates":[-58.48287,-34.58897]}},{"type":"Feature","properties":{"id":"ke-doga-70","kind":"poi","name":"Plaza Israel","theme":"doga","lab":1},"geometry":{"type":"Point","coordinates":[-58.42589,-34.56079]}},{"type":"Feature","properties":{"id":"ke-doga-71","kind":"poi","name":"Plaza Irlanda","theme":"doga","lab":1},"geometry":{"type":"Point","coordinates":[-58.45778,-34.61447]}},{"type":"Feature","properties":{"id":"ke-doga-72","kind":"poi","name":"Plaza Hungría","theme":"doga","lab":1},"geometry":{"type":"Point","coordinates":[-58.49101,-34.55056]}},{"type":"Feature","properties":{"id":"ke-doga-73","kind":"poi","name":"Plaza Holanda","theme":"doga","lab":1},"geometry":{"type":"Point","coordinates":[-58.41939,-34.57214]}},{"type":"Feature","properties":{"id":"ke-doga-74","kind":"poi","name":"Plaza Henry Dunant","theme":"doga","lab":1},"geometry":{"type":"Point","coordinates":[-58.48111,-34.6575]}},{"type":"Feature","properties":{"id":"ke-doga-75","kind":"poi","name":"Plaza General Manuel Belgrano","theme":"doga","lab":1},"geometry":{"type":"Point","coordinates":[-58.45478,-34.56165]}},{"type":"Feature","properties":{"id":"ke-doga-76","kind":"poi","name":"Plaza General Benito Nazar","theme":"doga","lab":1},"geometry":{"type":"Point","coordinates":[-58.4455,-34.60485]}},{"type":"Feature","properties":{"id":"ke-doga-77","kind":"poi","name":"Plaza Garay","theme":"doga","lab":1},"geometry":{"type":"Point","coordinates":[-58.38839,-34.62665]}},{"type":"Feature","properties":{"id":"ke-doga-78","kind":"poi","name":"Plaza Fuerza Aérea Argentina","theme":"doga","lab":1},"geometry":{"type":"Point","coordinates":[-58.37381,-34.5923]}},{"type":"Feature","properties":{"id":"ke-doga-79","kind":"poi","name":"Plaza El Salvador","theme":"doga","lab":1},"geometry":{"type":"Point","coordinates":[-58.44595,-34.54877]}},{"type":"Feature","properties":{"id":"ke-doga-80","kind":"poi","name":"Plaza Echeverría","theme":"doga","lab":1},"geometry":{"type":"Point","coordinates":[-58.4893,-34.57198]}},{"type":"Feature","properties":{"id":"ke-doga-81","kind":"poi","name":"Plaza Díaz Velez","theme":"doga","lab":1},"geometry":{"type":"Point","coordinates":[-58.37767,-34.65259]}},{"type":"Feature","properties":{"id":"ke-doga-82","kind":"poi","name":"Plaza Don Segundo Sombra","theme":"doga","lab":1},"geometry":{"type":"Point","coordinates":[-58.45035,-34.64215]}},{"type":"Feature","properties":{"id":"ke-doga-83","kind":"poi","name":"Plaza Don Bosco","theme":"doga","lab":1},"geometry":{"type":"Point","coordinates":[-58.50838,-34.62601]}},{"type":"Feature","properties":{"id":"ke-doga-84","kind":"poi","name":"Plaza Doctor Roque Sáenz Peña","theme":"doga","lab":1},"geometry":{"type":"Point","coordinates":[-58.4676,-34.61044]}},{"type":"Feature","properties":{"id":"ke-gastronomi-0","kind":"poi","name":"Miramar","theme":"gastronomi","lab":1},"geometry":{"type":"Point","coordinates":[-58.39366,-34.62272]}},{"type":"Feature","properties":{"id":"ke-gastronomi-1","kind":"poi","name":"Mar Azul","theme":"gastronomi","lab":1},"geometry":{"type":"Point","coordinates":[-58.39109,-34.602]}},{"type":"Feature","properties":{"id":"ke-gastronomi-2","kind":"poi","name":"Las Violetas","theme":"gastronomi","lab":1},"geometry":{"type":"Point","coordinates":[-58.42092,-34.61127]}},{"type":"Feature","properties":{"id":"ke-gastronomi-3","kind":"poi","name":"La Poesía","theme":"gastronomi","lab":1},"geometry":{"type":"Point","coordinates":[-58.37322,-34.61613]}},{"type":"Feature","properties":{"id":"ke-gastronomi-4","kind":"poi","name":"La Americana","theme":"gastronomi","lab":1},"geometry":{"type":"Point","coordinates":[-58.40577,-34.61028]}},{"type":"Feature","properties":{"id":"ke-gastronomi-5","kind":"poi","name":"Don Julio","theme":"gastronomi","lab":1},"geometry":{"type":"Point","coordinates":[-58.42428,-34.58629]}},{"type":"Feature","properties":{"id":"ke-gastronomi-6","kind":"poi","name":"Café de los Angelitos","theme":"gastronomi","lab":1},"geometry":{"type":"Point","coordinates":[-58.39615,-34.60962]}},{"type":"Feature","properties":{"id":"ke-gastronomi-7","kind":"poi","name":"Café Tortoni","theme":"gastronomi","lab":1},"geometry":{"type":"Point","coordinates":[-58.37814,-34.60869]}},{"type":"Feature","properties":{"id":"ke-gastronomi-8","kind":"poi","name":"Café Palacio","theme":"gastronomi","lab":1},"geometry":{"type":"Point","coordinates":[-58.45368,-34.58438]}},{"type":"Feature","properties":{"id":"ke-gastronomi-9","kind":"poi","name":"Café La Biela","theme":"gastronomi","lab":1},"geometry":{"type":"Point","coordinates":[-58.39083,-34.58787]}},{"type":"Feature","properties":{"id":"ke-gastronomi-10","kind":"poi","name":"Cafe de Garcia","theme":"gastronomi","lab":1},"geometry":{"type":"Point","coordinates":[-58.51065,-34.60638]}},{"type":"Feature","properties":{"id":"ke-gastronomi-11","kind":"poi","name":"Barbaro","theme":"gastronomi","lab":1},"geometry":{"type":"Point","coordinates":[-58.37323,-34.59786]}},{"type":"Feature","properties":{"id":"ke-gastronomi-12","kind":"poi","name":"Bar Británico","theme":"gastronomi","lab":1},"geometry":{"type":"Point","coordinates":[-58.37097,-34.62526]}},{"type":"Feature","properties":{"id":"ke-gastronomi-13","kind":"poi","name":"Banchero","theme":"gastronomi","lab":1},"geometry":{"type":"Point","coordinates":[-58.38498,-34.60405]}},{"type":"Feature","properties":{"id":"ke-gastronomi-14","kind":"poi","name":"Pizza Factory","theme":"gastronomi","lab":1},"geometry":{"type":"Point","coordinates":[-58.43183,-34.57449]}},{"type":"Feature","properties":{"id":"ke-gastronomi-15","kind":"poi","name":"Outback Steakhouse","theme":"gastronomi","lab":1},"geometry":{"type":"Point","coordinates":[-58.53997,-34.81312]}},{"type":"Feature","properties":{"id":"ke-gastronomi-16","kind":"poi","name":"Mercado Leon","theme":"gastronomi","lab":1},"geometry":{"type":"Point","coordinates":[-58.4128,-34.68765]}},{"type":"Feature","properties":{"id":"ke-gastronomi-17","kind":"poi","name":"Kentucky","theme":"gastronomi","lab":1},"geometry":{"type":"Point","coordinates":[-58.39018,-34.63391]}},{"type":"Feature","properties":{"id":"ke-gastronomi-18","kind":"poi","name":"Kentucky","theme":"gastronomi","lab":1},"geometry":{"type":"Point","coordinates":[-58.4159,-34.62474]}},{"type":"Feature","properties":{"id":"ke-gastronomi-19","kind":"poi","name":"Jaime","theme":"gastronomi","lab":1},"geometry":{"type":"Point","coordinates":[-58.60586,-34.66483]}},{"type":"Feature","properties":{"id":"ke-gastronomi-20","kind":"poi","name":"Hard Rock Cafe","theme":"gastronomi","lab":1},"geometry":{"type":"Point","coordinates":[-58.41393,-34.55631]}},{"type":"Feature","properties":{"id":"ke-gastronomi-21","kind":"poi","name":"El Club de la Milanesa","theme":"gastronomi","lab":1},"geometry":{"type":"Point","coordinates":[-58.54095,-34.5771]}},{"type":"Feature","properties":{"id":"ke-gastronomi-22","kind":"poi","name":"El Club de la Milanesa","theme":"gastronomi","lab":1},"geometry":{"type":"Point","coordinates":[-58.65742,-34.64557]}},{"type":"Feature","properties":{"id":"ke-gastronomi-23","kind":"poi","name":"Club Milanesa","theme":"gastronomi","lab":1},"geometry":{"type":"Point","coordinates":[-58.40201,-34.76661]}},{"type":"Feature","properties":{"id":"ke-gastronomi-24","kind":"poi","name":"Club Milanesa","theme":"gastronomi","lab":1},"geometry":{"type":"Point","coordinates":[-58.43497,-34.61746]}},{"type":"Feature","properties":{"id":"ke-gastronomi-25","kind":"poi","name":"Club Milanesa","theme":"gastronomi","lab":1},"geometry":{"type":"Point","coordinates":[-58.44989,-34.55247]}},{"type":"Feature","properties":{"id":"ke-gastronomi-26","kind":"poi","name":"Club Milanesa","theme":"gastronomi","lab":1},"geometry":{"type":"Point","coordinates":[-58.50212,-34.59293]}},{"type":"Feature","properties":{"id":"ke-gastronomi-27","kind":"poi","name":"Club Milanesa","theme":"gastronomi","lab":1},"geometry":{"type":"Point","coordinates":[-58.69512,-34.62543]}},{"type":"Feature","properties":{"id":"ke-gastronomi-28","kind":"poi","name":"Centro de Abastecimiento Municipal - Mercado Belgrano","theme":"gastronomi","lab":1},"geometry":{"type":"Point","coordinates":[-58.45828,-34.56262]}},{"type":"Feature","properties":{"id":"ke-gastronomi-29","kind":"poi","name":"Centro de Abastecimiento Municipal","theme":"gastronomi","lab":1},"geometry":{"type":"Point","coordinates":[-58.41581,-34.64947]}},{"type":"Feature","properties":{"id":"ke-gastronomi-30","kind":"poi","name":"Bravo","theme":"gastronomi","lab":1},"geometry":{"type":"Point","coordinates":[-58.43155,-34.61627]}},{"type":"Feature","properties":{"id":"ke-gastronomi-31","kind":"poi","name":"¡Q' Pizza!","theme":"gastronomi","lab":1},"geometry":{"type":"Point","coordinates":[-58.56252,-34.63779]}},{"type":"Feature","properties":{"id":"ke-gastronomi-32","kind":"poi","name":"Sonrisas","theme":"gastronomi","lab":1},"geometry":{"type":"Point","coordinates":[-58.44955,-34.609]}},{"type":"Feature","properties":{"id":"ke-gastronomi-33","kind":"poi","name":"SkyTeam Lounge","theme":"gastronomi","lab":1},"geometry":{"type":"Point","coordinates":[-58.54159,-34.81597]}},{"type":"Feature","properties":{"id":"ke-gastronomi-34","kind":"poi","name":"Patio de los Lecheros","theme":"gastronomi","lab":1},"geometry":{"type":"Point","coordinates":[-58.45433,-34.62334]}},{"type":"Feature","properties":{"id":"ke-gastronomi-35","kind":"poi","name":"Patio de comidas","theme":"gastronomi","lab":1},"geometry":{"type":"Point","coordinates":[-58.40595,-34.7819]}},{"type":"Feature","properties":{"id":"ke-gastronomi-36","kind":"poi","name":"Patio de Comidas","theme":"gastronomi","lab":1},"geometry":{"type":"Point","coordinates":[-58.36812,-34.67606]}},{"type":"Feature","properties":{"id":"ke-gastronomi-37","kind":"poi","name":"Patio de Comidas","theme":"gastronomi","lab":1},"geometry":{"type":"Point","coordinates":[-58.45904,-34.67614]}},{"type":"Feature","properties":{"id":"ke-gastronomi-38","kind":"poi","name":"Paseo de Compras Zagala","theme":"gastronomi","lab":1},"geometry":{"type":"Point","coordinates":[-58.53645,-34.54743]}},{"type":"Feature","properties":{"id":"ke-gastronomi-39","kind":"poi","name":"Paseo Monroe","theme":"gastronomi","lab":1},"geometry":{"type":"Point","coordinates":[-58.48665,-34.57479]}},{"type":"Feature","properties":{"id":"ke-alisveris-0","kind":"poi","name":"Tortugas Open Mall","theme":"alisveris","lab":1},"geometry":{"type":"Point","coordinates":[-58.72689,-34.45264]}},{"type":"Feature","properties":{"id":"ke-alisveris-1","kind":"poi","name":"Alto Avellaneda","theme":"alisveris","lab":1},"geometry":{"type":"Point","coordinates":[-58.36747,-34.67533]}},{"type":"Feature","properties":{"id":"ke-alisveris-2","kind":"poi","name":"Unicenter Shopping","theme":"alisveris","lab":1},"geometry":{"type":"Point","coordinates":[-58.52533,-34.5079]}},{"type":"Feature","properties":{"id":"ke-alisveris-3","kind":"poi","name":"Spinetto Shopping","theme":"alisveris","lab":1},"geometry":{"type":"Point","coordinates":[-58.39958,-34.61258]}},{"type":"Feature","properties":{"id":"ke-alisveris-4","kind":"poi","name":"Recoleta Urban Mall","theme":"alisveris","lab":1},"geometry":{"type":"Point","coordinates":[-58.39388,-34.58921]}},{"type":"Feature","properties":{"id":"ke-alisveris-5","kind":"poi","name":"Plaza Oeste","theme":"alisveris","lab":1},"geometry":{"type":"Point","coordinates":[-58.62952,-34.6344]}},{"type":"Feature","properties":{"id":"ke-alisveris-6","kind":"poi","name":"Plaza Liniers Shopping","theme":"alisveris","lab":1},"geometry":{"type":"Point","coordinates":[-58.52702,-34.63977]}},{"type":"Feature","properties":{"id":"ke-alisveris-7","kind":"poi","name":"Patio Bullrich","theme":"alisveris","lab":1},"geometry":{"type":"Point","coordinates":[-58.38381,-34.58869]}},{"type":"Feature","properties":{"id":"ke-alisveris-8","kind":"poi","name":"Paseo La Plaza","theme":"alisveris","lab":1},"geometry":{"type":"Point","coordinates":[-58.38982,-34.60492]}},{"type":"Feature","properties":{"id":"ke-alisveris-9","kind":"poi","name":"Mercado del Progreso","theme":"alisveris","lab":1},"geometry":{"type":"Point","coordinates":[-58.44145,-34.62142]}},{"type":"Feature","properties":{"id":"ke-alisveris-10","kind":"poi","name":"Galerías Pacífico","theme":"alisveris","lab":1},"geometry":{"type":"Point","coordinates":[-58.37474,-34.59924]}},{"type":"Feature","properties":{"id":"ke-alisveris-11","kind":"poi","name":"El Solar de la Abadía","theme":"alisveris","lab":1},"geometry":{"type":"Point","coordinates":[-58.43738,-34.56759]}},{"type":"Feature","properties":{"id":"ke-alisveris-12","kind":"poi","name":"Dot Baires","theme":"alisveris","lab":1},"geometry":{"type":"Point","coordinates":[-58.48808,-34.54625]}},{"type":"Feature","properties":{"id":"ke-alisveris-13","kind":"poi","name":"Alto Palermo","theme":"alisveris","lab":1},"geometry":{"type":"Point","coordinates":[-58.41013,-34.58796]}},{"type":"Feature","properties":{"id":"ke-alisveris-14","kind":"poi","name":"Alcorta Shopping","theme":"alisveris","lab":1},"geometry":{"type":"Point","coordinates":[-58.40392,-34.57455]}},{"type":"Feature","properties":{"id":"ke-alisveris-15","kind":"poi","name":"Abasto Shopping","theme":"alisveris","lab":1},"geometry":{"type":"Point","coordinates":[-58.41075,-34.60305]}},{"type":"Feature","properties":{"id":"ke-alisveris-16","kind":"poi","name":"Hiper ChangoMâs","theme":"alisveris","lab":1},"geometry":{"type":"Point","coordinates":[-58.33466,-34.67882]}},{"type":"Feature","properties":{"id":"ke-alisveris-17","kind":"poi","name":"Factory San Martín","theme":"alisveris","lab":1},"geometry":{"type":"Point","coordinates":[-58.55696,-34.56253]}},{"type":"Feature","properties":{"id":"ke-alisveris-18","kind":"poi","name":"Coppel","theme":"alisveris","lab":1},"geometry":{"type":"Point","coordinates":[-58.36112,-34.76072]}},{"type":"Feature","properties":{"id":"ke-alisveris-19","kind":"poi","name":"Coppel","theme":"alisveris","lab":1},"geometry":{"type":"Point","coordinates":[-58.41751,-34.65454]}},{"type":"Feature","properties":{"id":"ke-alisveris-20","kind":"poi","name":"Coppel","theme":"alisveris","lab":1},"geometry":{"type":"Point","coordinates":[-58.52265,-34.53008]}},{"type":"Feature","properties":{"id":"ke-alisveris-21","kind":"poi","name":"Coppel","theme":"alisveris","lab":1},"geometry":{"type":"Point","coordinates":[-58.53343,-34.57387]}},{"type":"Feature","properties":{"id":"ke-alisveris-22","kind":"poi","name":"Coppel","theme":"alisveris","lab":1},"geometry":{"type":"Point","coordinates":[-58.55831,-34.68568]}},{"type":"Feature","properties":{"id":"ke-alisveris-23","kind":"poi","name":"Coppel","theme":"alisveris","lab":1},"geometry":{"type":"Point","coordinates":[-58.6191,-34.66021]}},{"type":"Feature","properties":{"id":"ke-alisveris-24","kind":"poi","name":"Coppel","theme":"alisveris","lab":1},"geometry":{"type":"Point","coordinates":[-58.62143,-34.64939]}},{"type":"Feature","properties":{"id":"ke-alisveris-25","kind":"poi","name":"Coppel","theme":"alisveris","lab":1},"geometry":{"type":"Point","coordinates":[-58.6467,-34.77028]}},{"type":"Feature","properties":{"id":"ke-alisveris-26","kind":"poi","name":"Coppel","theme":"alisveris","lab":1},"geometry":{"type":"Point","coordinates":[-58.70972,-34.54435]}},{"type":"Feature","properties":{"id":"ke-alisveris-27","kind":"poi","name":"Coppel","theme":"alisveris","lab":1},"geometry":{"type":"Point","coordinates":[-58.72816,-34.66536]}},{"type":"Feature","properties":{"id":"ke-alisveris-28","kind":"poi","name":"Viva Celina","theme":"alisveris","lab":1},"geometry":{"type":"Point","coordinates":[-58.49109,-34.69509]}},{"type":"Feature","properties":{"id":"ke-alisveris-29","kind":"poi","name":"Urkupiña","theme":"alisveris","lab":1},"geometry":{"type":"Point","coordinates":[-58.47384,-34.72074]}},{"type":"Feature","properties":{"id":"ke-alisveris-30","kind":"poi","name":"Turdera Outlet Factory","theme":"alisveris","lab":1},"geometry":{"type":"Point","coordinates":[-58.40842,-34.79314]}},{"type":"Feature","properties":{"id":"ke-alisveris-31","kind":"poi","name":"Torcuato Mall","theme":"alisveris","lab":1},"geometry":{"type":"Point","coordinates":[-58.62273,-34.48891]}},{"type":"Feature","properties":{"id":"ke-alisveris-32","kind":"poi","name":"Terrazas","theme":"alisveris","lab":1},"geometry":{"type":"Point","coordinates":[-58.59257,-34.60223]}},{"type":"Feature","properties":{"id":"ke-alisveris-33","kind":"poi","name":"Sombrero la rojo","theme":"alisveris","lab":1},"geometry":{"type":"Point","coordinates":[-58.40757,-34.62318]}},{"type":"Feature","properties":{"id":"ke-alisveris-34","kind":"poi","name":"Shopping Terrazas de Mayo","theme":"alisveris","lab":1},"geometry":{"type":"Point","coordinates":[-58.70182,-34.52948]}},{"type":"Feature","properties":{"id":"ke-otel-0","kind":"poi","name":"Palacio Duhau - Park Hyatt Buenos Aires","theme":"otel","lab":1},"geometry":{"type":"Point","coordinates":[-58.38637,-34.58934]}},{"type":"Feature","properties":{"id":"ke-otel-1","kind":"poi","name":"Claridge Hotel","theme":"otel","lab":1},"geometry":{"type":"Point","coordinates":[-58.37452,-34.60078]}},{"type":"Feature","properties":{"id":"ke-otel-2","kind":"poi","name":"Sheraton Hotel & Convention Center","theme":"otel","lab":1},"geometry":{"type":"Point","coordinates":[-58.37271,-34.59334]}},{"type":"Feature","properties":{"id":"ke-otel-3","kind":"poi","name":"Hotel Hilton Buenos Aires","theme":"otel","lab":1},"geometry":{"type":"Point","coordinates":[-58.36367,-34.60594]}},{"type":"Feature","properties":{"id":"ke-otel-4","kind":"poi","name":"Alvear Palace Hotel","theme":"otel","lab":1},"geometry":{"type":"Point","coordinates":[-58.38874,-34.58775]}},{"type":"Feature","properties":{"id":"ke-otel-5","kind":"poi","name":"Alvear Icon Hotel","theme":"otel","lab":1},"geometry":{"type":"Point","coordinates":[-58.36159,-34.61058]}},{"type":"Feature","properties":{"id":"ke-otel-6","kind":"poi","name":"Savoy Hotel","theme":"otel","lab":1},"geometry":{"type":"Point","coordinates":[-58.39176,-34.60683]}},{"type":"Feature","properties":{"id":"ke-otel-7","kind":"poi","name":"Palermitano","theme":"otel","lab":1},"geometry":{"type":"Point","coordinates":[-58.43174,-34.58696]}},{"type":"Feature","properties":{"id":"ke-otel-8","kind":"poi","name":"Nogaró Hotel","theme":"otel","lab":1},"geometry":{"type":"Point","coordinates":[-58.37416,-34.60999]}},{"type":"Feature","properties":{"id":"ke-otel-9","kind":"poi","name":"Hotel República","theme":"otel","lab":1},"geometry":{"type":"Point","coordinates":[-58.3824,-34.60422]}},{"type":"Feature","properties":{"id":"ke-otel-10","kind":"poi","name":"Hotel Chile","theme":"otel","lab":1},"geometry":{"type":"Point","coordinates":[-58.38474,-34.60904]}},{"type":"Feature","properties":{"id":"ke-otel-11","kind":"poi","name":"Hotel Bauen","theme":"otel","lab":1},"geometry":{"type":"Point","coordinates":[-58.39246,-34.60512]}},{"type":"Feature","properties":{"id":"ke-otel-12","kind":"poi","name":"Espacio Barrancas","theme":"otel","lab":1},"geometry":{"type":"Point","coordinates":[-58.44912,-34.55763]}},{"type":"Feature","properties":{"id":"ke-otel-13","kind":"poi","name":"BetHotel","theme":"otel","lab":1},"geometry":{"type":"Point","coordinates":[-58.40272,-34.61572]}},{"type":"Feature","properties":{"id":"ke-otel-14","kind":"poi","name":"Abasto Plaza Hotel","theme":"otel","lab":1},"geometry":{"type":"Point","coordinates":[-58.41011,-34.60419]}},{"type":"Feature","properties":{"id":"ke-otel-15","kind":"poi","name":"Hotel Holiday Inn Aeropuerto Ezeiza","theme":"otel","lab":1},"geometry":{"type":"Point","coordinates":[-58.52004,-34.73382]}},{"type":"Feature","properties":{"id":"ke-otel-16","kind":"poi","name":"Fierro Hotel","theme":"otel","lab":1},"geometry":{"type":"Point","coordinates":[-58.43538,-34.57891]}},{"type":"Feature","properties":{"id":"ke-otel-17","kind":"poi","name":"Bulnes Eco Suites","theme":"otel","lab":1},"geometry":{"type":"Point","coordinates":[-58.41252,-34.58923]}},{"type":"Feature","properties":{"id":"ke-otel-18","kind":"poi","name":"Wanna Palermo","theme":"otel","lab":1},"geometry":{"type":"Point","coordinates":[-58.40869,-34.59596]}},{"type":"Feature","properties":{"id":"ke-otel-19","kind":"poi","name":"Progreso","theme":"otel","lab":1},"geometry":{"type":"Point","coordinates":[-58.53691,-34.59102]}},{"type":"Feature","properties":{"id":"ke-otel-20","kind":"poi","name":"Hotel 27 de Junio","theme":"otel","lab":1},"geometry":{"type":"Point","coordinates":[-58.37125,-34.62501]}},{"type":"Feature","properties":{"id":"ke-otel-21","kind":"poi","name":"Yberia","theme":"otel","lab":1},"geometry":{"type":"Point","coordinates":[-58.46442,-34.61796]}},{"type":"Feature","properties":{"id":"ke-otel-22","kind":"poi","name":"Voitu","theme":"otel","lab":1},"geometry":{"type":"Point","coordinates":[-58.57202,-34.47345]}},{"type":"Feature","properties":{"id":"ke-otel-23","kind":"poi","name":"Villa Isidro","theme":"otel","lab":1},"geometry":{"type":"Point","coordinates":[-58.50762,-34.47004]}},{"type":"Feature","properties":{"id":"ke-otel-24","kind":"poi","name":"Villa","theme":"otel","lab":1},"geometry":{"type":"Point","coordinates":[-58.41706,-34.62117]}},{"type":"Feature","properties":{"id":"ke-otel-25","kind":"poi","name":"Versalles Palace Hotel","theme":"otel","lab":1},"geometry":{"type":"Point","coordinates":[-58.37573,-34.63057]}},{"type":"Feature","properties":{"id":"ke-otel-26","kind":"poi","name":"Torre San Jose","theme":"otel","lab":1},"geometry":{"type":"Point","coordinates":[-58.38615,-34.61708]}},{"type":"Feature","properties":{"id":"ke-otel-27","kind":"poi","name":"The Migueletes Plaza","theme":"otel","lab":1},"geometry":{"type":"Point","coordinates":[-58.43938,-34.56318]}},{"type":"Feature","properties":{"id":"ke-otel-28","kind":"poi","name":"TBC","theme":"otel","lab":1},"geometry":{"type":"Point","coordinates":[-58.60494,-34.56967]}},{"type":"Feature","properties":{"id":"ke-otel-29","kind":"poi","name":"Saboya","theme":"otel","lab":1},"geometry":{"type":"Point","coordinates":[-58.39627,-34.76351]}},{"type":"Feature","properties":{"id":"ke-kamu-0","kind":"poi","name":"Registro Nacional de Reincidencia","theme":"kamu","lab":1},"geometry":{"type":"Point","coordinates":[-58.38608,-34.60152]}},{"type":"Feature","properties":{"id":"ke-kamu-1","kind":"poi","name":"Embassy of South Africa","theme":"kamu","lab":1},"geometry":{"type":"Point","coordinates":[-58.37516,-34.59637]}},{"type":"Feature","properties":{"id":"ke-kamu-2","kind":"poi","name":"Dirección de Captación de Comunicaciones","theme":"kamu","lab":1},"geometry":{"type":"Point","coordinates":[-58.4662,-34.577]}},{"type":"Feature","properties":{"id":"ke-kamu-3","kind":"poi","name":"AFIP","theme":"kamu","lab":1},"geometry":{"type":"Point","coordinates":[-58.61916,-34.65159]}},{"type":"Feature","properties":{"id":"ke-kamu-4","kind":"poi","name":"Municipalidad de la Matanza","theme":"kamu","lab":1},"geometry":{"type":"Point","coordinates":[-58.56048,-34.67716]}},{"type":"Feature","properties":{"id":"ke-kamu-5","kind":"poi","name":"Municipalidad de Lomas de Zamora","theme":"kamu","lab":1},"geometry":{"type":"Point","coordinates":[-58.40415,-34.75744]}},{"type":"Feature","properties":{"id":"ke-kamu-6","kind":"poi","name":"Embassy of Qatar","theme":"kamu","lab":1},"geometry":{"type":"Point","coordinates":[-58.36107,-34.61927]}},{"type":"Feature","properties":{"id":"ke-kamu-7","kind":"poi","name":"Embassy of Nigeria","theme":"kamu","lab":1},"geometry":{"type":"Point","coordinates":[-58.39834,-34.57976]}},{"type":"Feature","properties":{"id":"ke-kamu-8","kind":"poi","name":"Embassy of Nicaragua","theme":"kamu","lab":1},"geometry":{"type":"Point","coordinates":[-58.39398,-34.59567]}},{"type":"Feature","properties":{"id":"ke-kamu-9","kind":"poi","name":"Embassy of Israel","theme":"kamu","lab":1},"geometry":{"type":"Point","coordinates":[-58.37672,-34.60853]}},{"type":"Feature","properties":{"id":"ke-kamu-10","kind":"poi","name":"Embassy of Ecuador","theme":"kamu","lab":1},"geometry":{"type":"Point","coordinates":[-58.39053,-34.58775]}},{"type":"Feature","properties":{"id":"ke-kamu-11","kind":"poi","name":"Embassy of Democratic Republic of the Congo","theme":"kamu","lab":1},"geometry":{"type":"Point","coordinates":[-58.44141,-34.57205]}},{"type":"Feature","properties":{"id":"ke-kamu-12","kind":"poi","name":"Embassy of Colombia","theme":"kamu","lab":1},"geometry":{"type":"Point","coordinates":[-58.3814,-34.59198]}},{"type":"Feature","properties":{"id":"ke-kamu-13","kind":"poi","name":"Embassy of Belgium","theme":"kamu","lab":1},"geometry":{"type":"Point","coordinates":[-58.36413,-34.60691]}},{"type":"Feature","properties":{"id":"ke-kamu-14","kind":"poi","name":"Dirección Nacional de Vialidad - Distrito 1º Buenos Aires","theme":"kamu","lab":1},"geometry":{"type":"Point","coordinates":[-58.52267,-34.65757]}},{"type":"Feature","properties":{"id":"ke-kamu-15","kind":"poi","name":"Dirección Nacional de Vialidad - Departamento Vial Puente Pueyrredón","theme":"kamu","lab":1},"geometry":{"type":"Point","coordinates":[-58.37088,-34.65581]}},{"type":"Feature","properties":{"id":"ke-kamu-16","kind":"poi","name":"Comisión Nacional de Energía Atómica","theme":"kamu","lab":1},"geometry":{"type":"Point","coordinates":[-58.46514,-34.53974]}},{"type":"Feature","properties":{"id":"ke-kamu-17","kind":"poi","name":"Casa de Moneda","theme":"kamu","lab":1},"geometry":{"type":"Point","coordinates":[-58.37188,-34.58388]}},{"type":"Feature","properties":{"id":"ke-kamu-18","kind":"poi","name":"Auditoría General de la Nación","theme":"kamu","lab":1},"geometry":{"type":"Point","coordinates":[-58.38405,-34.60986]}},{"type":"Feature","properties":{"id":"ke-kamu-19","kind":"poi","name":"ARCA","theme":"kamu","lab":1},"geometry":{"type":"Point","coordinates":[-58.56229,-34.60627]}},{"type":"Feature","properties":{"id":"ke-kamu-20","kind":"poi","name":"Tribunales de Familia","theme":"kamu","lab":1},"geometry":{"type":"Point","coordinates":[-58.53676,-34.57166]}},{"type":"Feature","properties":{"id":"ke-kamu-21","kind":"poi","name":"Supervisión de Educación Especial","theme":"kamu","lab":1},"geometry":{"type":"Point","coordinates":[-58.47861,-34.5667]}},{"type":"Feature","properties":{"id":"ke-kamu-22","kind":"poi","name":"Subsecretaría de Personal","theme":"kamu","lab":1},"geometry":{"type":"Point","coordinates":[-58.73177,-34.6737]}},{"type":"Feature","properties":{"id":"ke-kamu-23","kind":"poi","name":"Subsecretaría de Industria y Comercio","theme":"kamu","lab":1},"geometry":{"type":"Point","coordinates":[-58.72444,-34.6699]}},{"type":"Feature","properties":{"id":"ke-kamu-24","kind":"poi","name":"Subsecretaría de Atención Primaria y Zoonosis","theme":"kamu","lab":1},"geometry":{"type":"Point","coordinates":[-58.7466,-34.66965]}},{"type":"Feature","properties":{"id":"ke-kamu-25","kind":"poi","name":"Servicio Social Zonal 7","theme":"kamu","lab":1},"geometry":{"type":"Point","coordinates":[-58.46412,-34.62779]}},{"type":"Feature","properties":{"id":"ke-kamu-26","kind":"poi","name":"Secretaría de Derechos Humanos de la Nación","theme":"kamu","lab":1},"geometry":{"type":"Point","coordinates":[-58.46287,-34.53815]}},{"type":"Feature","properties":{"id":"ke-kamu-27","kind":"poi","name":"Secretaria de Economía y Finanzas","theme":"kamu","lab":1},"geometry":{"type":"Point","coordinates":[-58.61566,-34.64921]}},{"type":"Feature","properties":{"id":"ke-kamu-28","kind":"poi","name":"Región Descentralizada I Noroeste - Ramos Mejía","theme":"kamu","lab":1},"geometry":{"type":"Point","coordinates":[-58.55745,-34.64025]}},{"type":"Feature","properties":{"id":"ke-kamu-29","kind":"poi","name":"Registro Nacional de la Propiedad del Automotor Seccional Merlo 3","theme":"kamu","lab":1},"geometry":{"type":"Point","coordinates":[-58.691,-34.67329]}},{"type":"Feature","properties":{"id":"ke-kamu-30","kind":"poi","name":"Oficina Campo Experimental CICVyA","theme":"kamu","lab":1},"geometry":{"type":"Point","coordinates":[-58.68327,-34.59543]}},{"type":"Feature","properties":{"id":"ke-kamu-31","kind":"poi","name":"Obras y Servicios Públicos Unidad Operacional 3","theme":"kamu","lab":1},"geometry":{"type":"Point","coordinates":[-58.58266,-34.54635]}},{"type":"Feature","properties":{"id":"ke-kamu-32","kind":"poi","name":"Obrador Municipal - Dirección de Infraestructura","theme":"kamu","lab":1},"geometry":{"type":"Point","coordinates":[-58.52638,-34.55945]}},{"type":"Feature","properties":{"id":"ke-kamu-33","kind":"poi","name":"Ministerio de Trabajo de la Provincia de Buenos Aires","theme":"kamu","lab":1},"geometry":{"type":"Point","coordinates":[-58.34759,-34.67692]}},{"type":"Feature","properties":{"id":"ke-kamu-34","kind":"poi","name":"Habitat La Loma","theme":"kamu","lab":1},"geometry":{"type":"Point","coordinates":[-58.51345,-34.51193]}},{"type":"Feature","properties":{"id":"ke-kamu-35","kind":"poi","name":"Fiscalía Federal de Primera Instancia de 3 de Febrero","theme":"kamu","lab":1},"geometry":{"type":"Point","coordinates":[-58.54056,-34.60263]}},{"type":"Feature","properties":{"id":"ke-kamu-36","kind":"poi","name":"Espacio Sarmiento","theme":"kamu","lab":1},"geometry":{"type":"Point","coordinates":[-58.53422,-34.57578]}},{"type":"Feature","properties":{"id":"ke-kamu-37","kind":"poi","name":"Economía Social y Solidaria","theme":"kamu","lab":1},"geometry":{"type":"Point","coordinates":[-58.54987,-34.57399]}},{"type":"Feature","properties":{"id":"ke-kamu-38","kind":"poi","name":"Dirección de Estacionamiento Medido","theme":"kamu","lab":1},"geometry":{"type":"Point","coordinates":[-58.54299,-34.58454]}},{"type":"Feature","properties":{"id":"ke-kamu-39","kind":"poi","name":"Dirección Nacional de Puertos y Vías Navegables","theme":"kamu","lab":1},"geometry":{"type":"Point","coordinates":[-58.35134,-34.63007]}},{"type":"Feature","properties":{"id":"ke-kamu-40","kind":"poi","name":"Dirección Nacional de Promoción y Fortalecimiento para el Acceso a la Justicia","theme":"kamu","lab":1},"geometry":{"type":"Point","coordinates":[-58.35173,-34.62507]}},{"type":"Feature","properties":{"id":"ke-kamu-41","kind":"poi","name":"Dirección General Sistema Pluvial","theme":"kamu","lab":1},"geometry":{"type":"Point","coordinates":[-58.42976,-34.55881]}},{"type":"Feature","properties":{"id":"ke-kamu-42","kind":"poi","name":"Delegación Municipal Villa Martelli","theme":"kamu","lab":1},"geometry":{"type":"Point","coordinates":[-58.50565,-34.54878]}},{"type":"Feature","properties":{"id":"ke-kamu-43","kind":"poi","name":"Delegación Municipal","theme":"kamu","lab":1},"geometry":{"type":"Point","coordinates":[-58.555,-34.65466]}},{"type":"Feature","properties":{"id":"ke-kamu-44","kind":"poi","name":"DNI","theme":"kamu","lab":1},"geometry":{"type":"Point","coordinates":[-58.47761,-34.53725]}},{"type":"Feature","properties":{"id":"ke-kamu-45","kind":"poi","name":"DINAI","theme":"kamu","lab":1},"geometry":{"type":"Point","coordinates":[-58.66926,-34.6603]}},{"type":"Feature","properties":{"id":"ke-kamu-46","kind":"poi","name":"Centro Único de Coordinación y Control","theme":"kamu","lab":1},"geometry":{"type":"Point","coordinates":[-58.45181,-34.59048]}},{"type":"Feature","properties":{"id":"ke-kamu-47","kind":"poi","name":"Centro de Documentación","theme":"kamu","lab":1},"geometry":{"type":"Point","coordinates":[-58.42291,-34.57168]}},{"type":"Feature","properties":{"id":"ke-kamu-48","kind":"poi","name":"Centro de Atención al Vecino Villa Maipú","theme":"kamu","lab":1},"geometry":{"type":"Point","coordinates":[-58.5253,-34.57074]}},{"type":"Feature","properties":{"id":"ke-ikonik-0","kind":"poi","name":"Casa Rosada","theme":"tarihi","lab":1},"geometry":{"type":"Point","coordinates":[-58.36956,-34.60834]}},{"type":"Feature","properties":{"id":"ke-ikonik-1","kind":"poi","name":"Plaza de Mayo","theme":"tarihi","lab":1},"geometry":{"type":"Point","coordinates":[-58.37218,-34.60843]}},{"type":"Feature","properties":{"id":"ke-ikonik-2","kind":"poi","name":"Catedral Metropolitana","theme":"tarihi","lab":1},"geometry":{"type":"Point","coordinates":[-58.37325,-34.60748]}},{"type":"Feature","properties":{"id":"ke-ikonik-3","kind":"poi","name":"Congreso de la Nación","theme":"tarihi","lab":1},"geometry":{"type":"Point","coordinates":[-58.3927,-34.60981]}},{"type":"Feature","properties":{"id":"ke-ikonik-4","kind":"poi","name":"Cementerio de la Recoleta","theme":"tarihi","lab":1},"geometry":{"type":"Point","coordinates":[-58.3935,-34.58765]}},{"type":"Feature","properties":{"id":"ke-ikonik-5","kind":"poi","name":"La Bombonera","theme":"modern","lab":1},"geometry":{"type":"Point","coordinates":[-58.3648,-34.63563]}},{"type":"Feature","properties":{"id":"ke-ikonik-6","kind":"poi","name":"El Monumental","theme":"modern","lab":1},"geometry":{"type":"Point","coordinates":[-58.52547,-34.59601]}},{"type":"Feature","properties":{"id":"ke-ikonik-7","kind":"poi","name":"Puente de la Mujer","theme":"modern","lab":1},"geometry":{"type":"Point","coordinates":[-58.36513,-34.60802]}},{"type":"Feature","properties":{"id":"ke-ikonik-8","kind":"poi","name":"Museo MALBA","theme":"modern","lab":1},"geometry":{"type":"Point","coordinates":[-58.40342,-34.57692]}},{"type":"Feature","properties":{"id":"ke-ikonik-9","kind":"poi","name":"Museo Nacional de Bellas Artes","theme":"modern","lab":1},"geometry":{"type":"Point","coordinates":[-58.39288,-34.58393]}},{"type":"Feature","properties":{"id":"ke-ikonik-10","kind":"poi","name":"Floralis Genérica","theme":"modern","lab":1},"geometry":{"type":"Point","coordinates":[-58.394,-34.5817]}},{"type":"Feature","properties":{"id":"ke-ikonik-11","kind":"poi","name":"Reserva Ecológica Costanera Sur","theme":"doga","lab":1},"geometry":{"type":"Point","coordinates":[-58.3515,-34.60692]}},{"type":"Feature","properties":{"id":"ke-ikonik-12","kind":"poi","name":"Bosques de Palermo","theme":"doga","lab":1},"geometry":{"type":"Point","coordinates":[-58.40794,-34.5746]}},{"type":"Feature","properties":{"id":"ke-ikonik-13","kind":"poi","name":"Parque Centenario","theme":"doga","lab":1},"geometry":{"type":"Point","coordinates":[-58.43556,-34.60655]}},{"type":"Feature","properties":{"id":"ke-ikonik-14","kind":"poi","name":"Mercado de San Telmo","theme":"gastronomi","lab":1},"geometry":{"type":"Point","coordinates":[-58.37224,-34.61906]}},{"type":"Feature","properties":{"id":"ke-ikonik-0-2","kind":"poi","name":"Centro Cultural Kirchner","theme":"modern","lab":1},"geometry":{"type":"Point","coordinates":[-58.36948,-34.60356]}}]}