{"type":"FeatureCollection","features":[{"type":"Feature","properties":{"id":"ticari-0-0","kind":"district","btype":"ticari","name":"キングスカイフロント","lab":1},"geometry":{"type":"Polygon","coordinates":[[[139.75423,35.538],[139.75414,35.53873],[139.75152,35.53881],[139.75151,35.54007],[139.75254,35.54024],[139.75258,35.54108],[139.75595,35.54097],[139.76054,35.53961],[139.7668,35.53665],[139.76441,35.53457],[139.75791,35.53809],[139.75423,35.538]]]}},{"type":"Feature","properties":{"id":"ticari-0-lbl","kind":"district-label","btype":"ticari","name":"キングスカイフロント"},"geometry":{"type":"Point","coordinates":[139.76235,35.53732]}},{"type":"Feature","properties":{"id":"ticari-1-0","kind":"district","btype":"ticari","name":"Riken","lab":1},"geometry":{"type":"Polygon","coordinates":[[[139.61141,35.7824],[139.61845,35.77877],[139.61641,35.77809],[139.61369,35.77885],[139.6109,35.77871],[139.61081,35.77804],[139.61211,35.77799],[139.61261,35.77525],[139.6093,35.77546],[139.60769,35.77646],[139.61141,35.7824]]]}},{"type":"Feature","properties":{"id":"ticari-1-lbl","kind":"district-label","btype":"ticari","name":"Riken"},"geometry":{"type":"Point","coordinates":[139.6161,35.77881]}},{"type":"Feature","properties":{"id":"ticari-2-0","kind":"district","btype":"ticari","name":"Shiodome Sio-Site","lab":1},"geometry":{"type":"Polygon","coordinates":[[[139.75934,35.65931],[139.75998,35.65615],[139.75824,35.65643],[139.7589,35.65958],[139.75598,35.66033],[139.76103,35.66639],[139.76244,35.66624],[139.76303,35.66479],[139.76278,35.6637],[139.75934,35.65931]]]}},{"type":"Feature","properties":{"id":"ticari-2-lbl","kind":"district-label","btype":"ticari","name":"Shiodome Sio-Site"},"geometry":{"type":"Point","coordinates":[139.75942,35.66201]}},{"type":"Feature","properties":{"id":"ticari-3-0","kind":"district","btype":"ticari","name":"京浜トラックターミナル","lab":1},"geometry":{"type":"Polygon","coordinates":[[[139.74667,35.58974],[139.74736,35.58947],[139.74899,35.58597],[139.74417,35.58454],[139.74086,35.58809],[139.74667,35.58974]]]}},{"type":"Feature","properties":{"id":"ticari-3-lbl","kind":"district-label","btype":"ticari","name":"京浜トラックターミナル"},"geometry":{"type":"Point","coordinates":[139.74517,35.58703]}},{"type":"Feature","properties":{"id":"ticari-4-0","kind":"district","btype":"ticari","name":"TRC","lab":1},"geometry":{"type":"Polygon","coordinates":[[[139.7507,35.57774],[139.74802,35.57685],[139.74652,35.58002],[139.74706,35.58137],[139.74857,35.58207],[139.7507,35.57774]]]}},{"type":"Feature","properties":{"id":"ticari-4-lbl","kind":"district-label","btype":"ticari","name":"TRC"},"geometry":{"type":"Point","coordinates":[139.7486,35.57888]}},{"type":"Feature","properties":{"id":"ticari-5-0","kind":"district","btype":"ticari","name":"Tokyo Dome City","lab":1},"geometry":{"type":"Polygon","coordinates":[[[139.75452,35.70279],[139.75109,35.70325],[139.75131,35.70461],[139.75055,35.70526],[139.75104,35.70682],[139.75348,35.70583],[139.75195,35.7073],[139.75371,35.70731],[139.75414,35.70583],[139.7536,35.70576],[139.75435,35.70525],[139.75501,35.70309],[139.75452,35.70279]]]}},{"type":"Feature","properties":{"id":"ticari-5-lbl","kind":"district-label","btype":"ticari","name":"Tokyo Dome City"},"geometry":{"type":"Point","coordinates":[139.75269,35.70493]}},{"type":"Feature","properties":{"id":"ticari-6-0","kind":"district","btype":"ticari","name":"Roppongi Hills","lab":1},"geometry":{"type":"Polygon","coordinates":[[[139.72807,35.65875],[139.72771,35.65901],[139.72808,35.66108],[139.73045,35.66219],[139.73054,35.66117],[139.73003,35.6608],[139.73173,35.66012],[139.73238,35.65841],[139.72807,35.65875]]]}},{"type":"Feature","properties":{"id":"ticari-6-lbl","kind":"district-label","btype":"ticari","name":"Roppongi Hills"},"geometry":{"type":"Point","coordinates":[139.72942,35.66046]}},{"type":"Feature","properties":{"id":"ticari-7-0","kind":"district","btype":"ticari","name":"Canon","lab":1},"geometry":{"type":"Polygon","coordinates":[[[139.68221,35.56897],[139.68414,35.56666],[139.68107,35.56497],[139.67911,35.56728],[139.68221,35.56897]]]}},{"type":"Feature","properties":{"id":"ticari-7-lbl","kind":"district-label","btype":"ticari","name":"Canon"},"geometry":{"type":"Point","coordinates":[139.68163,35.56697]}},{"type":"Feature","properties":{"id":"ticari-8-0","kind":"district","btype":"ticari","name":"Yoshiwara","lab":1},"geometry":{"type":"Polygon","coordinates":[[[139.79505,35.72558],[139.79743,35.72285],[139.79492,35.72137],[139.79255,35.72411],[139.79505,35.72558]]]}},{"type":"Feature","properties":{"id":"ticari-8-lbl","kind":"district-label","btype":"ticari","name":"Yoshiwara"},"geometry":{"type":"Point","coordinates":[139.79499,35.72348]}},{"type":"Feature","properties":{"id":"ticari-9-0","kind":"district","btype":"ticari","name":"Honda","lab":1},"geometry":{"type":"Polygon","coordinates":[[[139.60922,35.78968],[139.60844,35.78765],[139.60483,35.78836],[139.60579,35.79103],[139.60922,35.78968]]]}},{"type":"Feature","properties":{"id":"ticari-9-lbl","kind":"district-label","btype":"ticari","name":"Honda"},"geometry":{"type":"Point","coordinates":[139.60702,35.78902]}},{"type":"Feature","properties":{"id":"ticari-10-0","kind":"district","btype":"ticari","name":"羽田クロノゲート","lab":1},"geometry":{"type":"Polygon","coordinates":[[[139.75264,35.55177],[139.75046,35.55215],[139.75018,35.55119],[139.74858,35.55149],[139.74832,35.55367],[139.75224,35.55407],[139.75264,35.55177]]]}},{"type":"Feature","properties":{"id":"ticari-10-lbl","kind":"district-label","btype":"ticari","name":"羽田クロノゲート"},"geometry":{"type":"Point","coordinates":[139.75043,35.55291]}},{"type":"Feature","properties":{"id":"ticari-11-0","kind":"district","btype":"ticari","name":"Tokyo Sea Life Park","lab":1},"geometry":{"type":"Polygon","coordinates":[[[139.86136,35.63917],[139.86002,35.641],[139.86092,35.64261],[139.86291,35.6424],[139.86299,35.64121],[139.86387,35.64038],[139.86328,35.63938],[139.86136,35.63917]]]}},{"type":"Feature","properties":{"id":"ticari-11-lbl","kind":"district-label","btype":"ticari","name":"Tokyo Sea Life Park"},"geometry":{"type":"Point","coordinates":[139.8619,35.64069]}},{"type":"Feature","properties":{"id":"ticari-12-0","kind":"district","btype":"ticari","name":"NHK Broadcasting Center","lab":1},"geometry":{"type":"Polygon","coordinates":[[[139.69868,35.66486],[139.69548,35.66382],[139.69403,35.66584],[139.6974,35.66707],[139.69868,35.66486]]]}},{"type":"Feature","properties":{"id":"ticari-12-lbl","kind":"district-label","btype":"ticari","name":"NHK Broadcasting Center"},"geometry":{"type":"Point","coordinates":[139.69639,35.66535]}},{"type":"Feature","properties":{"id":"ticari-13-0","kind":"district","btype":"ticari","name":"東京都中央卸売市場 葛西市場","lab":1},"geometry":{"type":"Polygon","coordinates":[[[139.86507,35.65069],[139.86456,35.65008],[139.86546,35.64934],[139.86454,35.64763],[139.86146,35.64875],[139.86344,35.65098],[139.86507,35.65069]]]}},{"type":"Feature","properties":{"id":"ticari-13-lbl","kind":"district-label","btype":"ticari","name":"東京都中央卸売市場 葛西市場"},"geometry":{"type":"Point","coordinates":[139.86351,35.64904]}}]}