{"type":"FeatureCollection","features":[{"type":"Feature","properties":{"id":"turistik-0-0","kind":"district","btype":"turistik","name":"Nishi-Asakusa 2","lab":1},"geometry":{"type":"Polygon","coordinates":[[[139.79243,35.71377],[139.79201,35.71164],[139.78851,35.71235],[139.78891,35.71448],[139.79243,35.71377]]]}},{"type":"Feature","properties":{"id":"turistik-0-lbl","kind":"district-label","btype":"turistik","name":"Nishi-Asakusa 2"},"geometry":{"type":"Point","coordinates":[139.79047,35.71306]}},{"type":"Feature","properties":{"id":"turistik-4-0","kind":"district","btype":"turistik","name":"Ueno 1","lab":1},"geometry":{"type":"Polygon","coordinates":[[[139.77008,35.70735],[139.7723,35.70717],[139.77243,35.70806],[139.7731,35.70799],[139.772,35.7051],[139.76996,35.70523],[139.77008,35.70735]]]}},{"type":"Feature","properties":{"id":"turistik-4-lbl","kind":"district-label","btype":"turistik","name":"Ueno 1"},"geometry":{"type":"Point","coordinates":[139.77122,35.7062]}},{"type":"Feature","properties":{"id":"turistik-5-0","kind":"district","btype":"turistik","name":"Akihabara","lab":1},"geometry":{"type":"Polygon","coordinates":[[[139.77339,35.70175],[139.77369,35.7028],[139.77577,35.70262],[139.77565,35.70152],[139.77339,35.70175]]]}},{"type":"Feature","properties":{"id":"turistik-5-lbl","kind":"district-label","btype":"turistik","name":"Akihabara"},"geometry":{"type":"Point","coordinates":[139.77462,35.70219]}},{"type":"Feature","properties":{"id":"turistik-7-0","kind":"district","btype":"turistik","name":"Roppongi","lab":1},"geometry":{"type":"Polygon","coordinates":[[[139.73367,35.65709],[139.73268,35.65794],[139.73158,35.65714],[139.73065,35.65788],[139.72757,35.65855],[139.72819,35.66128],[139.72866,35.66152],[139.72683,35.66289],[139.72591,35.66221],[139.72366,35.66207],[139.72476,35.66514],[139.7245,35.66643],[139.72762,35.66679],[139.73109,35.66437],[139.73362,35.66693],[139.73443,35.66641],[139.73764,35.66868],[139.73992,35.66756],[139.73939,35.66688],[139.74,35.66655],[139.74033,35.66693],[139.74238,35.66591],[139.74291,35.66683],[139.74366,35.66653],[139.74195,35.66407],[139.74203,35.66314],[139.74144,35.66328],[139.74124,35.66246],[139.73856,35.66326],[139.73808,35.66114],[139.73668,35.66012],[139.73642,35.6576],[139.73367,35.65709]]]}},{"type":"Feature","properties":{"id":"turistik-7-lbl","kind":"district-label","btype":"turistik","name":"Roppongi"},"geometry":{"type":"Point","coordinates":[139.73277,35.66268]}},{"type":"Feature","properties":{"id":"turistik-8-0","kind":"district","btype":"turistik","name":"Marunouchi","lab":1},"geometry":{"type":"Polygon","coordinates":[[[139.76006,35.67643],[139.76263,35.68418],[139.76023,35.68449],[139.76051,35.68537],[139.76095,35.68573],[139.77065,35.68369],[139.7671,35.67702],[139.76538,35.67522],[139.76006,35.67643]]]}},{"type":"Feature","properties":{"id":"turistik-8-lbl","kind":"district-label","btype":"turistik","name":"Marunouchi"},"geometry":{"type":"Point","coordinates":[139.76512,35.68035]}}]}