{"type":"FeatureCollection","features":[{"type":"Feature","properties":{"id":"tarihi-1","kind":"poi","name":"Karasumori Shrine","theme":"tarihi"},"geometry":{"type":"Point","coordinates":[139.75682,35.6668]}},{"type":"Feature","properties":{"id":"tarihi-2","kind":"poi","name":"Myofuku Ji","theme":"tarihi"},"geometry":{"type":"Point","coordinates":[139.69202,35.60114]}},{"type":"Feature","properties":{"id":"tarihi-3","kind":"poi","name":"天照皇大神","theme":"tarihi"},"geometry":{"type":"Point","coordinates":[139.66371,35.55043]}},{"type":"Feature","properties":{"id":"tarihi-4","kind":"poi","name":"Ebisu Shrine","theme":"tarihi"},"geometry":{"type":"Point","coordinates":[139.70778,35.64722]}},{"type":"Feature","properties":{"id":"tarihi-5","kind":"poi","name":"Myozoji Temple","theme":"tarihi"},"geometry":{"type":"Point","coordinates":[139.73549,35.66575]}},{"type":"Feature","properties":{"id":"tarihi-6","kind":"poi","name":"神楽坂若宮八幡宮","theme":"tarihi"},"geometry":{"type":"Point","coordinates":[139.74011,35.69973]}},{"type":"Feature","properties":{"id":"tarihi-7","kind":"poi","name":"Shiba Toshogu","theme":"tarihi"},"geometry":{"type":"Point","coordinates":[139.74863,35.6551]}},{"type":"Feature","properties":{"id":"tarihi-8","kind":"poi","name":"白山神社","theme":"tarihi"},"geometry":{"type":"Point","coordinates":[139.63717,35.68696]}},{"type":"Feature","properties":{"id":"tarihi-9","kind":"poi","name":"永福寺","theme":"tarihi"},"geometry":{"type":"Point","coordinates":[139.64411,35.67225]}},{"type":"Feature","properties":{"id":"tarihi-10","kind":"poi","name":"八幡神社","theme":"tarihi"},"geometry":{"type":"Point","coordinates":[139.63042,35.67523]}},{"type":"Feature","properties":{"id":"tarihi-11","kind":"poi","name":"松林寺","theme":"tarihi"},"geometry":{"type":"Point","coordinates":[139.62085,35.68638]}},{"type":"Feature","properties":{"id":"tarihi-12","kind":"poi","name":"勝林寺","theme":"tarihi"},"geometry":{"type":"Point","coordinates":[139.65189,35.66391]}},{"type":"Feature","properties":{"id":"tarihi-13","kind":"poi","name":"Myoshoji Temple","theme":"tarihi"},"geometry":{"type":"Point","coordinates":[139.61762,35.71595]}},{"type":"Feature","properties":{"id":"tarihi-14","kind":"poi","name":"松戸新田開村三百年記念碑","theme":"tarihi"},"geometry":{"type":"Point","coordinates":[139.91569,35.78458]}},{"type":"Feature","properties":{"id":"tarihi-15","kind":"poi","name":"Seikoji Temple","theme":"tarihi"},"geometry":{"type":"Point","coordinates":[139.90074,35.77213]}},{"type":"Feature","properties":{"id":"tarihi-16","kind":"poi","name":"Gangyo-ji","theme":"tarihi"},"geometry":{"type":"Point","coordinates":[139.75882,35.71818]}},{"type":"Feature","properties":{"id":"tarihi-17","kind":"poi","name":"Memorial Monument of the 2.26 Incident","theme":"tarihi"},"geometry":{"type":"Point","coordinates":[139.69696,35.66432]}},{"type":"Feature","properties":{"id":"tarihi-18","kind":"poi","name":"松龍寺","theme":"tarihi"},"geometry":{"type":"Point","coordinates":[139.89838,35.77931]}},{"type":"Feature","properties":{"id":"tarihi-19","kind":"poi","name":"三輪里稲荷神社 （こんにゃく稲荷）","theme":"tarihi"},"geometry":{"type":"Point","coordinates":[139.82638,35.72045]}},{"type":"Feature","properties":{"id":"tarihi-20","kind":"poi","name":"旧松戸宿本陣跡地","theme":"tarihi"},"geometry":{"type":"Point","coordinates":[139.89637,35.78044]}},{"type":"Feature","properties":{"id":"tarihi-21","kind":"poi","name":"多田神社","theme":"tarihi"},"geometry":{"type":"Point","coordinates":[139.66378,35.68326]}},{"type":"Feature","properties":{"id":"tarihi-22","kind":"poi","name":"福昌寺","theme":"tarihi"},"geometry":{"type":"Point","coordinates":[139.63624,35.65052]}},{"type":"Feature","properties":{"id":"tarihi-23","kind":"poi","name":"二ツ井戸跡","theme":"tarihi"},"geometry":{"type":"Point","coordinates":[139.9147,35.79871]}},{"type":"Feature","properties":{"id":"tarihi-24","kind":"poi","name":"Ikegami Honmonji","theme":"tarihi"},"geometry":{"type":"Point","coordinates":[139.7052,35.5789]}},{"type":"Feature","properties":{"id":"tarihi-25","kind":"poi","name":"宗延寺","theme":"tarihi"},"geometry":{"type":"Point","coordinates":[139.65385,35.69401]}},{"type":"Feature","properties":{"id":"tarihi-26","kind":"poi","name":"Monjuin","theme":"tarihi"},"geometry":{"type":"Point","coordinates":[139.70964,35.75595]}},{"type":"Feature","properties":{"id":"tarihi-27","kind":"poi","name":"観音寺","theme":"tarihi"},"geometry":{"type":"Point","coordinates":[139.60163,35.62362]}},{"type":"Feature","properties":{"id":"tarihi-28","kind":"poi","name":"医王寺","theme":"tarihi"},"geometry":{"type":"Point","coordinates":[139.61193,35.67403]}},{"type":"Feature","properties":{"id":"tarihi-29","kind":"poi","name":"Tokyo Baptist Church","theme":"tarihi"},"geometry":{"type":"Point","coordinates":[139.69755,35.65042]}},{"type":"Feature","properties":{"id":"tarihi-30","kind":"poi","name":"Kitano Shrine","theme":"tarihi"},"geometry":{"type":"Point","coordinates":[139.67192,35.70722]}},{"type":"Feature","properties":{"id":"tarihi-31","kind":"poi","name":"浄元寺","theme":"tarihi"},"geometry":{"type":"Point","coordinates":[139.60617,35.6062]}},{"type":"Feature","properties":{"id":"tarihi-32","kind":"poi","name":"Hikawa Shrine","theme":"tarihi"},"geometry":{"type":"Point","coordinates":[139.67107,35.61878]}},{"type":"Feature","properties":{"id":"tarihi-33","kind":"poi","name":"圓福寺","theme":"tarihi"},"geometry":{"type":"Point","coordinates":[139.73508,35.70215]}},{"type":"Feature","properties":{"id":"tarihi-34","kind":"poi","name":"Ichigaya-Kamegaoka-Hachiman-gū","theme":"tarihi"},"geometry":{"type":"Point","coordinates":[139.73372,35.69274]}},{"type":"Feature","properties":{"id":"tarihi-35","kind":"poi","name":"Ogikubo Hachiman","theme":"tarihi"},"geometry":{"type":"Point","coordinates":[139.60633,35.71062]}},{"type":"Feature","properties":{"id":"tarihi-36","kind":"poi","name":"Moyai Statue","theme":"tarihi"},"geometry":{"type":"Point","coordinates":[139.69997,35.65729]}},{"type":"Feature","properties":{"id":"tarihi-37","kind":"poi","name":"願泉寺","theme":"tarihi"},"geometry":{"type":"Point","coordinates":[139.61222,35.70397]}},{"type":"Feature","properties":{"id":"tarihi-38","kind":"poi","name":"三界寺","theme":"tarihi"},"geometry":{"type":"Point","coordinates":[139.6438,35.65863]}},{"type":"Feature","properties":{"id":"tarihi-39","kind":"poi","name":"安養寺","theme":"tarihi"},"geometry":{"type":"Point","coordinates":[139.84262,35.71251]}},{"type":"Feature","properties":{"id":"tarihi-40","kind":"poi","name":"白髭神社","theme":"tarihi"},"geometry":{"type":"Point","coordinates":[139.8403,35.73284]}},{"type":"Feature","properties":{"id":"tarihi-41","kind":"poi","name":"慈眼院","theme":"tarihi"},"geometry":{"type":"Point","coordinates":[139.83372,35.7399]}},{"type":"Feature","properties":{"id":"tarihi-42","kind":"poi","name":"春日神社","theme":"tarihi"},"geometry":{"type":"Point","coordinates":[139.64534,35.58597]}},{"type":"Feature","properties":{"id":"tarihi-43","kind":"poi","name":"Katori Shrine","theme":"tarihi"},"geometry":{"type":"Point","coordinates":[139.86739,35.70908]}},{"type":"Feature","properties":{"id":"tarihi-44","kind":"poi","name":"興安寺","theme":"tarihi"},"geometry":{"type":"Point","coordinates":[139.75799,35.70378]}},{"type":"Feature","properties":{"id":"tarihi-45","kind":"poi","name":"蓮光寺","theme":"tarihi"},"geometry":{"type":"Point","coordinates":[139.65491,35.69565]}},{"type":"Feature","properties":{"id":"tarihi-46","kind":"poi","name":"Saizoin","theme":"tarihi"},"geometry":{"type":"Point","coordinates":[139.74091,35.64723]}},{"type":"Feature","properties":{"id":"tarihi-47","kind":"poi","name":"Irugi Jinja","theme":"tarihi"},"geometry":{"type":"Point","coordinates":[139.72526,35.61985]}},{"type":"Feature","properties":{"id":"tarihi-48","kind":"poi","name":"Big Thunder Mountain","theme":"tarihi"},"geometry":{"type":"Point","coordinates":[139.88408,35.63264]}},{"type":"Feature","properties":{"id":"tarihi-49","kind":"poi","name":"Port Discovery Station","theme":"tarihi"},"geometry":{"type":"Point","coordinates":[139.8831,35.62539]}},{"type":"Feature","properties":{"id":"tarihi-50","kind":"poi","name":"大安楽寺","theme":"tarihi"},"geometry":{"type":"Point","coordinates":[139.77803,35.69085]}},{"type":"Feature","properties":{"id":"tarihi-51","kind":"poi","name":"円乗院","theme":"tarihi"},"geometry":{"type":"Point","coordinates":[139.66092,35.65542]}},{"type":"Feature","properties":{"id":"tarihi-52","kind":"poi","name":"Senju Honhikawa-jinja Shrine","theme":"tarihi"},"geometry":{"type":"Point","coordinates":[139.80225,35.75253]}},{"type":"Feature","properties":{"id":"tarihi-53","kind":"poi","name":"海雲寺","theme":"tarihi"},"geometry":{"type":"Point","coordinates":[139.63762,35.69637]}},{"type":"Feature","properties":{"id":"tarihi-54","kind":"poi","name":"栄松寺","theme":"tarihi"},"geometry":{"type":"Point","coordinates":[139.91132,35.79185]}},{"type":"Feature","properties":{"id":"tarihi-55","kind":"poi","name":"吉祥院","theme":"tarihi"},"geometry":{"type":"Point","coordinates":[139.61345,35.68077]}},{"type":"Feature","properties":{"id":"tarihi-56","kind":"poi","name":"Hibiya-jinja Shrine","theme":"tarihi"},"geometry":{"type":"Point","coordinates":[139.7583,35.6634]}},{"type":"Feature","properties":{"id":"tarihi-57","kind":"poi","name":"中道寺","theme":"tarihi"},"geometry":{"type":"Point","coordinates":[139.6195,35.69653]}},{"type":"Feature","properties":{"id":"tarihi-58","kind":"poi","name":"Kayadera","theme":"tarihi"},"geometry":{"type":"Point","coordinates":[139.79227,35.70526]}},{"type":"Feature","properties":{"id":"tarihi-59","kind":"poi","name":"サレジオ教会","theme":"tarihi"},"geometry":{"type":"Point","coordinates":[139.68699,35.61992]}},{"type":"Feature","properties":{"id":"tarihi-60","kind":"poi","name":"御嶽神社","theme":"tarihi"},"geometry":{"type":"Point","coordinates":[139.6748,35.75748]}},{"type":"Feature","properties":{"id":"tarihi-61","kind":"poi","name":"青龍山 勝国寺","theme":"tarihi"},"geometry":{"type":"Point","coordinates":[139.6524,35.64796]}},{"type":"Feature","properties":{"id":"tarihi-62","kind":"poi","name":"光明寺","theme":"tarihi"},"geometry":{"type":"Point","coordinates":[139.78561,35.71035]}},{"type":"Feature","properties":{"id":"tarihi-63","kind":"poi","name":"Higashi Honganji","theme":"tarihi"},"geometry":{"type":"Point","coordinates":[139.78952,35.71172]}},{"type":"Feature","properties":{"id":"tarihi-64","kind":"poi","name":"亀鶴山 易行院 誓閑寺","theme":"tarihi"},"geometry":{"type":"Point","coordinates":[139.71936,35.7049]}},{"type":"Feature","properties":{"id":"tarihi-65","kind":"poi","name":"Tokoji Temple","theme":"tarihi"},"geometry":{"type":"Point","coordinates":[139.73907,35.6526]}},{"type":"Feature","properties":{"id":"tarihi-66","kind":"poi","name":"寳性寺","theme":"tarihi"},"geometry":{"type":"Point","coordinates":[139.61722,35.6542]}},{"type":"Feature","properties":{"id":"tarihi-67","kind":"poi","name":"Katori-jinja Shrine","theme":"tarihi"},"geometry":{"type":"Point","coordinates":[139.82549,35.70442]}},{"type":"Feature","properties":{"id":"tarihi-68","kind":"poi","name":"龍善寺","theme":"tarihi"},"geometry":{"type":"Point","coordinates":[139.7234,35.70575]}},{"type":"Feature","properties":{"id":"tarihi-69","kind":"poi","name":"境妙寺","theme":"tarihi"},"geometry":{"type":"Point","coordinates":[139.67962,35.71223]}},{"type":"Feature","properties":{"id":"tarihi-70","kind":"poi","name":"Mishuku Shrine","theme":"tarihi"},"geometry":{"type":"Point","coordinates":[139.67424,35.6509]}},{"type":"Feature","properties":{"id":"tarihi-71","kind":"poi","name":"Cinderella's Fairy Tale Hall","theme":"tarihi"},"geometry":{"type":"Point","coordinates":[139.88085,35.63195]}},{"type":"Feature","properties":{"id":"tarihi-72","kind":"poi","name":"Catholic Church of St. Francis Xavier","theme":"tarihi"},"geometry":{"type":"Point","coordinates":[139.75757,35.69942]}},{"type":"Feature","properties":{"id":"tarihi-73","kind":"poi","name":"総寧寺","theme":"tarihi"},"geometry":{"type":"Point","coordinates":[139.89976,35.74813]}},{"type":"Feature","properties":{"id":"tarihi-74","kind":"poi","name":"正真寺","theme":"tarihi"},"geometry":{"type":"Point","coordinates":[139.90272,35.80893]}},{"type":"Feature","properties":{"id":"tarihi-75","kind":"poi","name":"Nomi Sukune Shrine","theme":"tarihi"},"geometry":{"type":"Point","coordinates":[139.80131,35.69695]}},{"type":"Feature","properties":{"id":"modern-76","kind":"poi","name":"Hachiko Memorial Statue","theme":"modern"},"geometry":{"type":"Point","coordinates":[139.70063,35.65906]}},{"type":"Feature","properties":{"id":"modern-77","kind":"poi","name":"Ni-Tele Big Clock","theme":"modern"},"geometry":{"type":"Point","coordinates":[139.75994,35.66411]}},{"type":"Feature","properties":{"id":"modern-78","kind":"poi","name":"Flame of Freedom","theme":"modern"},"geometry":{"type":"Point","coordinates":[139.77396,35.62415]}},{"type":"Feature","properties":{"id":"modern-79","kind":"poi","name":"Shigenobu Okuma Statue","theme":"modern"},"geometry":{"type":"Point","coordinates":[139.71962,35.70879]}},{"type":"Feature","properties":{"id":"modern-80","kind":"poi","name":"新宿眼科画廊","theme":"modern"},"geometry":{"type":"Point","coordinates":[139.70631,35.69473]}},{"type":"Feature","properties":{"id":"modern-81","kind":"poi","name":"賑わいの像","theme":"modern"},"geometry":{"type":"Point","coordinates":[139.77455,35.7101]}},{"type":"Feature","properties":{"id":"modern-82","kind":"poi","name":"三谷長三郎胸像","theme":"modern"},"geometry":{"type":"Point","coordinates":[139.76698,35.70229]}},{"type":"Feature","properties":{"id":"modern-83","kind":"poi","name":"親鸞聖人像","theme":"modern"},"geometry":{"type":"Point","coordinates":[139.77124,35.66661]}},{"type":"Feature","properties":{"id":"modern-84","kind":"poi","name":"Beheading Jizo","theme":"modern"},"geometry":{"type":"Point","coordinates":[139.79771,35.73157]}},{"type":"Feature","properties":{"id":"modern-85","kind":"poi","name":"Liszt Hungarian Cultural Institute Tokyo","theme":"modern"},"geometry":{"type":"Point","coordinates":[139.73441,35.65362]}},{"type":"Feature","properties":{"id":"modern-86","kind":"poi","name":"Captain","theme":"modern"},"geometry":{"type":"Point","coordinates":[139.71756,35.6724]}},{"type":"Feature","properties":{"id":"modern-87","kind":"poi","name":"Niimi Jumbo Cook","theme":"modern"},"geometry":{"type":"Point","coordinates":[139.78813,35.71056]}},{"type":"Feature","properties":{"id":"modern-88","kind":"poi","name":"Jan Joosten van Lodensteijn Memorial Statue (B1)","theme":"modern"},"geometry":{"type":"Point","coordinates":[139.76851,35.67993]}},{"type":"Feature","properties":{"id":"modern-89","kind":"poi","name":"Mutsu Munemitsu","theme":"modern"},"geometry":{"type":"Point","coordinates":[139.75039,35.67479]}},{"type":"Feature","properties":{"id":"modern-90","kind":"poi","name":"Ito Hirobumi","theme":"modern"},"geometry":{"type":"Point","coordinates":[139.7453,35.67734]}},{"type":"Feature","properties":{"id":"modern-91","kind":"poi","name":"Korakuen Hall","theme":"modern"},"geometry":{"type":"Point","coordinates":[139.75206,35.70426]}},{"type":"Feature","properties":{"id":"modern-92","kind":"poi","name":"Shoto Museum of Art","theme":"modern"},"geometry":{"type":"Point","coordinates":[139.69179,35.65868]}},{"type":"Feature","properties":{"id":"modern-93","kind":"poi","name":"Institut Français of Tokyo","theme":"modern"},"geometry":{"type":"Point","coordinates":[139.73984,35.69838]}},{"type":"Feature","properties":{"id":"modern-94","kind":"poi","name":"Akasaka BLITZ","theme":"modern"},"geometry":{"type":"Point","coordinates":[139.73533,35.6725]}},{"type":"Feature","properties":{"id":"modern-95","kind":"poi","name":"3331 Arts Chiyoda","theme":"modern"},"geometry":{"type":"Point","coordinates":[139.77081,35.70424]}},{"type":"Feature","properties":{"id":"modern-96","kind":"poi","name":"日仏会館","theme":"modern"},"geometry":{"type":"Point","coordinates":[139.71567,35.64411]}},{"type":"Feature","properties":{"id":"modern-97","kind":"poi","name":"ママン","theme":"modern"},"geometry":{"type":"Point","coordinates":[139.72966,35.66101]}},{"type":"Feature","properties":{"id":"modern-98","kind":"poi","name":"Godzilla Head","theme":"modern"},"geometry":{"type":"Point","coordinates":[139.70188,35.69507]}},{"type":"Feature","properties":{"id":"modern-99","kind":"poi","name":"Gallery TEN","theme":"modern"},"geometry":{"type":"Point","coordinates":[139.76471,35.72102]}},{"type":"Feature","properties":{"id":"modern-100","kind":"poi","name":"Stamp Store","theme":"modern"},"geometry":{"type":"Point","coordinates":[139.76433,35.7231]}},{"type":"Feature","properties":{"id":"modern-101","kind":"poi","name":"Seigetsudo Art Gallery","theme":"modern"},"geometry":{"type":"Point","coordinates":[139.76489,35.67012]}},{"type":"Feature","properties":{"id":"modern-102","kind":"poi","name":"エビス・ギャラリーコウゲツ","theme":"modern"},"geometry":{"type":"Point","coordinates":[139.71118,35.64742]}},{"type":"Feature","properties":{"id":"modern-103","kind":"poi","name":"visionary arts","theme":"modern"},"geometry":{"type":"Point","coordinates":[139.6998,35.65584]}},{"type":"Feature","properties":{"id":"modern-104","kind":"poi","name":"gallery 遊美","theme":"modern"},"geometry":{"type":"Point","coordinates":[139.61844,35.70153]}},{"type":"Feature","properties":{"id":"modern-105","kind":"poi","name":"BANK GALLERY","theme":"modern"},"geometry":{"type":"Point","coordinates":[139.70548,35.66615]}},{"type":"Feature","properties":{"id":"modern-106","kind":"poi","name":"池坊いけばな教室","theme":"modern"},"geometry":{"type":"Point","coordinates":[139.8922,35.66154]}},{"type":"Feature","properties":{"id":"modern-107","kind":"poi","name":"Art Front Gallery","theme":"modern"},"geometry":{"type":"Point","coordinates":[139.70146,35.64737]}},{"type":"Feature","properties":{"id":"modern-108","kind":"poi","name":"ザムザ阿佐ヶ谷・ラピュタ阿佐ヶ谷","theme":"modern"},"geometry":{"type":"Point","coordinates":[139.63479,35.7055]}},{"type":"Feature","properties":{"id":"modern-109","kind":"poi","name":"オバケンプレミアム","theme":"modern"},"geometry":{"type":"Point","coordinates":[139.66319,35.683]}},{"type":"Feature","properties":{"id":"modern-110","kind":"poi","name":"SNOW Contemporary","theme":"modern"},"geometry":{"type":"Point","coordinates":[139.65158,35.63636]}},{"type":"Feature","properties":{"id":"modern-111","kind":"poi","name":"The Artcomplex Center of Tokyo","theme":"modern"},"geometry":{"type":"Point","coordinates":[139.71789,35.68434]}},{"type":"Feature","properties":{"id":"modern-112","kind":"poi","name":"アート☆アイガ","theme":"modern"},"geometry":{"type":"Point","coordinates":[139.7772,35.67628]}},{"type":"Feature","properties":{"id":"modern-113","kind":"poi","name":"T-Art Gallery","theme":"modern"},"geometry":{"type":"Point","coordinates":[139.7489,35.62083]}},{"type":"Feature","properties":{"id":"doga-114","kind":"poi","name":"Tokyo City View","theme":"doga"},"geometry":{"type":"Point","coordinates":[139.72906,35.66043]}},{"type":"Feature","properties":{"id":"doga-115","kind":"poi","name":"Yumenoshima Tropical Greenhouse Dome","theme":"doga"},"geometry":{"type":"Point","coordinates":[139.8294,35.65134]}},{"type":"Feature","properties":{"id":"doga-116","kind":"poi","name":"Itabashi Botanical Garden","theme":"doga"},"geometry":{"type":"Point","coordinates":[139.66408,35.79191]}},{"type":"Feature","properties":{"id":"doga-117","kind":"poi","name":"プラタナス公園","theme":"doga"},"geometry":{"type":"Point","coordinates":[139.75221,35.64063]}},{"type":"Feature","properties":{"id":"doga-118","kind":"poi","name":"Shibuya Sky","theme":"doga"},"geometry":{"type":"Point","coordinates":[139.70226,35.65829]}},{"type":"Feature","properties":{"id":"doga-119","kind":"poi","name":"里美公園","theme":"doga"},"geometry":{"type":"Point","coordinates":[139.90024,35.74712]}},{"type":"Feature","properties":{"id":"doga-120","kind":"poi","name":"Shinjuku Chuo Park","theme":"doga"},"geometry":{"type":"Point","coordinates":[139.68927,35.69038]}},{"type":"Feature","properties":{"id":"doga-121","kind":"poi","name":"Kyu Shiba Rikyu Garden","theme":"doga"},"geometry":{"type":"Point","coordinates":[139.75857,35.65498]}},{"type":"Feature","properties":{"id":"doga-122","kind":"poi","name":"Hama-rikyū Gardens","theme":"doga"},"geometry":{"type":"Point","coordinates":[139.7637,35.6602]}},{"type":"Feature","properties":{"id":"doga-123","kind":"poi","name":"Shinjuku Gyoen National Garden","theme":"doga"},"geometry":{"type":"Point","coordinates":[139.70989,35.6851]}},{"type":"Feature","properties":{"id":"doga-124","kind":"poi","name":"Koishikawa Kōrakuen Gardens","theme":"doga"},"geometry":{"type":"Point","coordinates":[139.74946,35.70536]}},{"type":"Feature","properties":{"id":"doga-125","kind":"poi","name":"Kiyosumi Gardens","theme":"doga"},"geometry":{"type":"Point","coordinates":[139.79772,35.67986]}},{"type":"Feature","properties":{"id":"doga-126","kind":"poi","name":"Koishikawa Botanical Gardens","theme":"doga"},"geometry":{"type":"Point","coordinates":[139.74431,35.72021]}},{"type":"Feature","properties":{"id":"doga-127","kind":"poi","name":"Baji koen","theme":"doga"},"geometry":{"type":"Point","coordinates":[139.63334,35.63663]}},{"type":"Feature","properties":{"id":"doga-128","kind":"poi","name":"Komazawa Olympic Park","theme":"doga"},"geometry":{"type":"Point","coordinates":[139.66087,35.62519]}},{"type":"Feature","properties":{"id":"doga-129","kind":"poi","name":"Komaba Park","theme":"doga"},"geometry":{"type":"Point","coordinates":[139.68019,35.66214]}},{"type":"Feature","properties":{"id":"doga-130","kind":"poi","name":"Yumemigasaki Park","theme":"doga"},"geometry":{"type":"Point","coordinates":[139.66602,35.54945]}},{"type":"Feature","properties":{"id":"doga-131","kind":"poi","name":"Daishi park","theme":"doga"},"geometry":{"type":"Point","coordinates":[139.73169,35.53171]}},{"type":"Feature","properties":{"id":"doga-132","kind":"poi","name":"Metropolitan Shioiri Park","theme":"doga"},"geometry":{"type":"Point","coordinates":[139.81092,35.73688]}},{"type":"Feature","properties":{"id":"doga-133","kind":"poi","name":"Shiba Park","theme":"doga"},"geometry":{"type":"Point","coordinates":[139.75013,35.66045]}},{"type":"Feature","properties":{"id":"doga-134","kind":"poi","name":"綱島公園","theme":"doga"},"geometry":{"type":"Point","coordinates":[139.63531,35.54024]}},{"type":"Feature","properties":{"id":"doga-135","kind":"poi","name":"Kinuta Park","theme":"doga"},"geometry":{"type":"Point","coordinates":[139.62031,35.63048]}},{"type":"Feature","properties":{"id":"doga-136","kind":"poi","name":"Hikarigaoka Park","theme":"doga"},"geometry":{"type":"Point","coordinates":[139.63039,35.76624]}},{"type":"Feature","properties":{"id":"doga-137","kind":"poi","name":"Nakahara Peace Park","theme":"doga"},"geometry":{"type":"Point","coordinates":[139.6595,35.56765]}},{"type":"Feature","properties":{"id":"doga-138","kind":"poi","name":"Kyū-Furukawa Gardens","theme":"doga"},"geometry":{"type":"Point","coordinates":[139.74625,35.74252]}},{"type":"Feature","properties":{"id":"doga-139","kind":"poi","name":"Suginami Children's Traffic Park","theme":"doga"},"geometry":{"type":"Point","coordinates":[139.63157,35.68849]}},{"type":"Feature","properties":{"id":"doga-140","kind":"poi","name":"Asukayama Park","theme":"doga"},"geometry":{"type":"Point","coordinates":[139.73875,35.75057]}},{"type":"Feature","properties":{"id":"doga-141","kind":"poi","name":"Myoshoji Park","theme":"doga"},"geometry":{"type":"Point","coordinates":[139.61821,35.71729]}},{"type":"Feature","properties":{"id":"doga-142","kind":"poi","name":"Shōkei Bridge Park","theme":"doga"},"geometry":{"type":"Point","coordinates":[139.62314,35.6971]}},{"type":"Feature","properties":{"id":"doga-143","kind":"poi","name":"Midorigaoka 2nd Park","theme":"doga"},"geometry":{"type":"Point","coordinates":[139.9158,35.78811]}},{"type":"Feature","properties":{"id":"doga-144","kind":"poi","name":"Matsudo Central Park","theme":"doga"},"geometry":{"type":"Point","coordinates":[139.90308,35.78264]}},{"type":"Feature","properties":{"id":"doga-145","kind":"poi","name":"Roka Kōshun-en","theme":"doga"},"geometry":{"type":"Point","coordinates":[139.61229,35.66129]}},{"type":"Feature","properties":{"id":"doga-146","kind":"poi","name":"成城三丁目緑地","theme":"doga"},"geometry":{"type":"Point","coordinates":[139.59866,35.63426]}},{"type":"Feature","properties":{"id":"doga-147","kind":"poi","name":"Mukojima Hyakkaen Garden","theme":"doga"},"geometry":{"type":"Point","coordinates":[139.81554,35.72425]}},{"type":"Feature","properties":{"id":"doga-148","kind":"poi","name":"Chidorigafuchi","theme":"doga"},"geometry":{"type":"Point","coordinates":[139.74495,35.68591]}},{"type":"Feature","properties":{"id":"doga-149","kind":"poi","name":"Kasinomiya park","theme":"doga"},"geometry":{"type":"Point","coordinates":[139.6257,35.67832]}},{"type":"Feature","properties":{"id":"doga-150","kind":"poi","name":"Okakura Tenshin Memorial Park","theme":"doga"},"geometry":{"type":"Point","coordinates":[139.7664,35.72633]}},{"type":"Feature","properties":{"id":"doga-151","kind":"poi","name":"Wako Jurin Park","theme":"doga"},"geometry":{"type":"Point","coordinates":[139.60197,35.77712]}},{"type":"Feature","properties":{"id":"doga-152","kind":"poi","name":"Oizumi Chuo Park","theme":"doga"},"geometry":{"type":"Point","coordinates":[139.59765,35.77524]}},{"type":"Feature","properties":{"id":"doga-153","kind":"poi","name":"Tojogaoka Historical Park","theme":"doga"},"geometry":{"type":"Point","coordinates":[139.89922,35.77719]}},{"type":"Feature","properties":{"id":"doga-154","kind":"poi","name":"Otonashi Water Park","theme":"doga"},"geometry":{"type":"Point","coordinates":[139.73588,35.75267]}},{"type":"Feature","properties":{"id":"doga-155","kind":"poi","name":"Shinkoiwa Park","theme":"doga"},"geometry":{"type":"Point","coordinates":[139.85384,35.71567]}},{"type":"Feature","properties":{"id":"doga-156","kind":"poi","name":"新井薬師公園","theme":"doga"},"geometry":{"type":"Point","coordinates":[139.66754,35.71485]}},{"type":"Feature","properties":{"id":"doga-157","kind":"poi","name":"渋谷区立鍋島松涛公園","theme":"doga"},"geometry":{"type":"Point","coordinates":[139.69126,35.65975]}},{"type":"Feature","properties":{"id":"doga-158","kind":"poi","name":"shikinokaori park","theme":"doga"},"geometry":{"type":"Point","coordinates":[139.62431,35.75985]}},{"type":"Feature","properties":{"id":"doga-159","kind":"poi","name":"秋の陽公園","theme":"doga"},"geometry":{"type":"Point","coordinates":[139.63395,35.76254]}},{"type":"Feature","properties":{"id":"doga-160","kind":"poi","name":"東立石緑地公園","theme":"doga"},"geometry":{"type":"Point","coordinates":[139.85377,35.73183]}},{"type":"Feature","properties":{"id":"doga-161","kind":"poi","name":"Horikiri Iris Garden","theme":"doga"},"geometry":{"type":"Point","coordinates":[139.82618,35.74245]}},{"type":"Feature","properties":{"id":"doga-162","kind":"poi","name":"鉢山公園","theme":"doga"},"geometry":{"type":"Point","coordinates":[139.69887,35.65302]}},{"type":"Feature","properties":{"id":"doga-163","kind":"poi","name":"Todoroki Ryokuchi","theme":"doga"},"geometry":{"type":"Point","coordinates":[139.65062,35.58757]}},{"type":"Feature","properties":{"id":"gastronomi-164","kind":"poi","name":"Esaki","theme":"gastronomi"},"geometry":{"type":"Point","coordinates":[139.71317,35.6717]}},{"type":"Feature","properties":{"id":"gastronomi-165","kind":"poi","name":"Matsumotoro","theme":"gastronomi"},"geometry":{"type":"Point","coordinates":[139.75581,35.67379]}},{"type":"Feature","properties":{"id":"gastronomi-166","kind":"poi","name":"Obana","theme":"gastronomi"},"geometry":{"type":"Point","coordinates":[139.79693,35.73151]}},{"type":"Feature","properties":{"id":"gastronomi-167","kind":"poi","name":"Kanda Yabu Soba","theme":"gastronomi"},"geometry":{"type":"Point","coordinates":[139.76867,35.69702]}},{"type":"Feature","properties":{"id":"gastronomi-168","kind":"poi","name":"Tully's Coffee","theme":"gastronomi"},"geometry":{"type":"Point","coordinates":[139.70862,35.706]}},{"type":"Feature","properties":{"id":"gastronomi-169","kind":"poi","name":"Dozeu","theme":"gastronomi"},"geometry":{"type":"Point","coordinates":[139.79158,35.71403]}},{"type":"Feature","properties":{"id":"gastronomi-170","kind":"poi","name":"Ichiran","theme":"gastronomi"},"geometry":{"type":"Point","coordinates":[139.71417,35.73256]}},{"type":"Feature","properties":{"id":"gastronomi-171","kind":"poi","name":"Ryogoku Terrace","theme":"gastronomi"},"geometry":{"type":"Point","coordinates":[139.79205,35.69589]}},{"type":"Feature","properties":{"id":"gastronomi-172","kind":"poi","name":"Doutor Coffee Shop","theme":"gastronomi"},"geometry":{"type":"Point","coordinates":[139.68057,35.53871]}},{"type":"Feature","properties":{"id":"gastronomi-173","kind":"poi","name":"Kanda Matsuya","theme":"gastronomi"},"geometry":{"type":"Point","coordinates":[139.76878,35.69612]}},{"type":"Feature","properties":{"id":"gastronomi-174","kind":"poi","name":"Simokitazawa Opensource Cafe","theme":"gastronomi"},"geometry":{"type":"Point","coordinates":[139.66341,35.66554]}},{"type":"Feature","properties":{"id":"gastronomi-175","kind":"poi","name":"Gusto","theme":"gastronomi"},"geometry":{"type":"Point","coordinates":[139.69609,35.65767]}},{"type":"Feature","properties":{"id":"gastronomi-176","kind":"poi","name":"寿司の美登利総本店 本館","theme":"gastronomi"},"geometry":{"type":"Point","coordinates":[139.65417,35.65558]}},{"type":"Feature","properties":{"id":"gastronomi-177","kind":"poi","name":"ファーイーストカフェ","theme":"gastronomi"},"geometry":{"type":"Point","coordinates":[139.71064,35.66277]}},{"type":"Feature","properties":{"id":"gastronomi-178","kind":"poi","name":"R25 café","theme":"gastronomi"},"geometry":{"type":"Point","coordinates":[139.76104,35.6707]}},{"type":"Feature","properties":{"id":"gastronomi-179","kind":"poi","name":"Gotanda Tokyu Plaza","theme":"gastronomi"},"geometry":{"type":"Point","coordinates":[139.72451,35.62559]}},{"type":"Feature","properties":{"id":"gastronomi-180","kind":"poi","name":"Hantei","theme":"gastronomi"},"geometry":{"type":"Point","coordinates":[139.76603,35.71728]}},{"type":"Feature","properties":{"id":"gastronomi-181","kind":"poi","name":"Ranburu","theme":"gastronomi"},"geometry":{"type":"Point","coordinates":[139.70404,35.69066]}},{"type":"Feature","properties":{"id":"gastronomi-182","kind":"poi","name":"Starbucks","theme":"gastronomi"},"geometry":{"type":"Point","coordinates":[139.80438,35.75066]}},{"type":"Feature","properties":{"id":"gastronomi-183","kind":"poi","name":"みさき","theme":"gastronomi"},"geometry":{"type":"Point","coordinates":[139.77436,35.7117]}},{"type":"Feature","properties":{"id":"gastronomi-184","kind":"poi","name":"Kanda-Nishikicho Sarashina","theme":"gastronomi"},"geometry":{"type":"Point","coordinates":[139.76167,35.69379]}},{"type":"Feature","properties":{"id":"gastronomi-185","kind":"poi","name":"Tokyo Shiba Tofuya Ukai","theme":"gastronomi"},"geometry":{"type":"Point","coordinates":[139.7451,35.6576]}},{"type":"Feature","properties":{"id":"gastronomi-186","kind":"poi","name":"ヴィオロン","theme":"gastronomi"},"geometry":{"type":"Point","coordinates":[139.63248,35.7052]}},{"type":"Feature","properties":{"id":"gastronomi-187","kind":"poi","name":"Komagata Dojo","theme":"gastronomi"},"geometry":{"type":"Point","coordinates":[139.79501,35.70752]}},{"type":"Feature","properties":{"id":"gastronomi-188","kind":"poi","name":"Taimeiken","theme":"gastronomi"},"geometry":{"type":"Point","coordinates":[139.77512,35.68442]}},{"type":"Feature","properties":{"id":"gastronomi-189","kind":"poi","name":"Soranoiro","theme":"gastronomi"},"geometry":{"type":"Point","coordinates":[139.73941,35.68305]}},{"type":"Feature","properties":{"id":"gastronomi-190","kind":"poi","name":"キッチンオトボケ","theme":"gastronomi"},"geometry":{"type":"Point","coordinates":[139.71908,35.70662]}},{"type":"Feature","properties":{"id":"gastronomi-191","kind":"poi","name":"Sukiyabashi Jiro","theme":"gastronomi"},"geometry":{"type":"Point","coordinates":[139.76401,35.67271]}},{"type":"Feature","properties":{"id":"gastronomi-192","kind":"poi","name":"Tokyo Ramen Kokugikan Mai","theme":"gastronomi"},"geometry":{"type":"Point","coordinates":[139.7728,35.62763]}},{"type":"Feature","properties":{"id":"gastronomi-193","kind":"poi","name":"Kototoi Dango","theme":"gastronomi"},"geometry":{"type":"Point","coordinates":[139.80913,35.71853]}},{"type":"Feature","properties":{"id":"gastronomi-194","kind":"poi","name":"Ishikawa restaurant","theme":"gastronomi"},"geometry":{"type":"Point","coordinates":[139.73943,35.70126]}},{"type":"Feature","properties":{"id":"gastronomi-195","kind":"poi","name":"Ribera","theme":"gastronomi"},"geometry":{"type":"Point","coordinates":[139.72876,35.63025]}},{"type":"Feature","properties":{"id":"gastronomi-196","kind":"poi","name":"麦","theme":"gastronomi"},"geometry":{"type":"Point","coordinates":[139.76045,35.70673]}},{"type":"Feature","properties":{"id":"gastronomi-197","kind":"poi","name":"Kirby Cafe","theme":"gastronomi"},"geometry":{"type":"Point","coordinates":[139.8119,35.71037]}},{"type":"Feature","properties":{"id":"gastronomi-198","kind":"poi","name":"室町 砂場","theme":"gastronomi"},"geometry":{"type":"Point","coordinates":[139.77179,35.6894]}},{"type":"Feature","properties":{"id":"gastronomi-199","kind":"poi","name":"麺処 三虎","theme":"gastronomi"},"geometry":{"type":"Point","coordinates":[139.90025,35.78566]}},{"type":"Feature","properties":{"id":"gastronomi-200","kind":"poi","name":"伊勢屋本店","theme":"gastronomi"},"geometry":{"type":"Point","coordinates":[139.79707,35.72506]}},{"type":"Feature","properties":{"id":"gastronomi-201","kind":"poi","name":"蒙古タンメン 中本","theme":"gastronomi"},"geometry":{"type":"Point","coordinates":[139.67626,35.76395]}},{"type":"Feature","properties":{"id":"gastronomi-202","kind":"poi","name":"Yakiniku Gyugujo","theme":"gastronomi"},"geometry":{"type":"Point","coordinates":[139.69812,35.66148]}},{"type":"Feature","properties":{"id":"gastronomi-203","kind":"poi","name":"Blue Bayou Restaurant","theme":"gastronomi"},"geometry":{"type":"Point","coordinates":[139.8812,35.6345]}},{"type":"Feature","properties":{"id":"gastronomi-204","kind":"poi","name":"Vegan Gyoza Yu","theme":"gastronomi"},"geometry":{"type":"Point","coordinates":[139.77968,35.72436]}},{"type":"Feature","properties":{"id":"gastronomi-205","kind":"poi","name":"青木亭","theme":"gastronomi"},"geometry":{"type":"Point","coordinates":[139.84304,35.80391]}},{"type":"Feature","properties":{"id":"gastronomi-206","kind":"poi","name":"THE CITY BAKERY","theme":"gastronomi"},"geometry":{"type":"Point","coordinates":[139.66035,35.57408]}},{"type":"Feature","properties":{"id":"gastronomi-207","kind":"poi","name":"諭吉そば","theme":"gastronomi"},"geometry":{"type":"Point","coordinates":[139.90451,35.78713]}},{"type":"Feature","properties":{"id":"gastronomi-208","kind":"poi","name":"Adachi Market","theme":"gastronomi"},"geometry":{"type":"Point","coordinates":[139.79958,35.74048]}},{"type":"Feature","properties":{"id":"gastronomi-209","kind":"poi","name":"Matsudo-nanbuichiba","theme":"gastronomi"},"geometry":{"type":"Point","coordinates":[139.91661,35.77912]}},{"type":"Feature","properties":{"id":"gastronomi-210","kind":"poi","name":"L'atelier de Joël Robuchon","theme":"gastronomi"},"geometry":{"type":"Point","coordinates":[139.72935,35.6601]}},{"type":"Feature","properties":{"id":"gastronomi-211","kind":"poi","name":"Tsukiji Outer Market","theme":"gastronomi"},"geometry":{"type":"Point","coordinates":[139.77053,35.66536]}},{"type":"Feature","properties":{"id":"gastronomi-212","kind":"poi","name":"Otonari Stand & Works","theme":"gastronomi"},"geometry":{"type":"Point","coordinates":[139.71161,35.75138]}},{"type":"Feature","properties":{"id":"gastronomi-213","kind":"poi","name":"雪うさぎ","theme":"gastronomi"},"geometry":{"type":"Point","coordinates":[139.6532,35.63065]}},{"type":"Feature","properties":{"id":"gastronomi-214","kind":"poi","name":"Okamoto's Tofu Store","theme":"gastronomi"},"geometry":{"type":"Point","coordinates":[139.62254,35.70601]}},{"type":"Feature","properties":{"id":"gastronomi-215","kind":"poi","name":"Akatogarashi","theme":"gastronomi"},"geometry":{"type":"Point","coordinates":[139.74886,35.73689]}},{"type":"Feature","properties":{"id":"gastronomi-216","kind":"poi","name":"Kita Adachi Wholesale Market","theme":"gastronomi"},"geometry":{"type":"Point","coordinates":[139.76438,35.79812]}},{"type":"Feature","properties":{"id":"gastronomi-217","kind":"poi","name":"Vegetable Vendors","theme":"gastronomi"},"geometry":{"type":"Point","coordinates":[139.86923,35.71617]}},{"type":"Feature","properties":{"id":"gastronomi-218","kind":"poi","name":"Sonali Star (Indian Market)","theme":"gastronomi"},"geometry":{"type":"Point","coordinates":[139.72256,35.76136]}},{"type":"Feature","properties":{"id":"gastronomi-219","kind":"poi","name":"新東京木材商業組合 池袋市場","theme":"gastronomi"},"geometry":{"type":"Point","coordinates":[139.6986,35.7323]}},{"type":"Feature","properties":{"id":"gastronomi-220","kind":"poi","name":"中央卸売市場 豊島市場","theme":"gastronomi"},"geometry":{"type":"Point","coordinates":[139.73542,35.73773]}},{"type":"Feature","properties":{"id":"gastronomi-221","kind":"poi","name":"AEON","theme":"gastronomi"},"geometry":{"type":"Point","coordinates":[139.67468,35.78714]}},{"type":"Feature","properties":{"id":"gastronomi-222","kind":"poi","name":"八百富","theme":"gastronomi"},"geometry":{"type":"Point","coordinates":[139.60156,35.70148]}},{"type":"Feature","properties":{"id":"gastronomi-223","kind":"poi","name":"Tsukishima Second Children's Park Farmers Market","theme":"gastronomi"},"geometry":{"type":"Point","coordinates":[139.77642,35.65911]}},{"type":"Feature","properties":{"id":"gastronomi-224","kind":"poi","name":"麒麟堂","theme":"gastronomi"},"geometry":{"type":"Point","coordinates":[139.66564,35.70722]}},{"type":"Feature","properties":{"id":"gastronomi-225","kind":"poi","name":"おたからや","theme":"gastronomi"},"geometry":{"type":"Point","coordinates":[139.73762,35.7339]}},{"type":"Feature","properties":{"id":"gastronomi-226","kind":"poi","name":"あおもり地域アンテナショップ","theme":"gastronomi"},"geometry":{"type":"Point","coordinates":[139.73749,35.673]}},{"type":"Feature","properties":{"id":"gastronomi-227","kind":"poi","name":"新大久保アジアンマーケット","theme":"gastronomi"},"geometry":{"type":"Point","coordinates":[139.70003,35.70113]}},{"type":"Feature","properties":{"id":"gastronomi-228","kind":"poi","name":"自由が丘ライトニングマルシェ","theme":"gastronomi"},"geometry":{"type":"Point","coordinates":[139.66959,35.60913]}},{"type":"Feature","properties":{"id":"gastronomi-229","kind":"poi","name":"べじふるセンター練馬","theme":"gastronomi"},"geometry":{"type":"Point","coordinates":[139.62472,35.74658]}},{"type":"Feature","properties":{"id":"gastronomi-230","kind":"poi","name":"淀橋市場","theme":"gastronomi"},"geometry":{"type":"Point","coordinates":[139.69362,35.70561]}},{"type":"Feature","properties":{"id":"gastronomi-231","kind":"poi","name":"葛西食品市場","theme":"gastronomi"},"geometry":{"type":"Point","coordinates":[139.864,35.65119]}},{"type":"Feature","properties":{"id":"gastronomi-232","kind":"poi","name":"Setagaya Wholesale Market","theme":"gastronomi"},"geometry":{"type":"Point","coordinates":[139.62106,35.63326]}},{"type":"Feature","properties":{"id":"gastronomi-233","kind":"poi","name":"Toyosu Wholesale Market (5th Block)","theme":"gastronomi"},"geometry":{"type":"Point","coordinates":[139.78799,35.64542]}},{"type":"Feature","properties":{"id":"alisveris-234","kind":"poi","name":"KITE MITE MATSIDO","theme":"alisveris"},"geometry":{"type":"Point","coordinates":[139.89871,35.78222]}},{"type":"Feature","properties":{"id":"alisveris-235","kind":"poi","name":"Coredo Nihombashi","theme":"alisveris"},"geometry":{"type":"Point","coordinates":[139.77458,35.68259]}},{"type":"Feature","properties":{"id":"alisveris-236","kind":"poi","name":"日吉東急","theme":"alisveris"},"geometry":{"type":"Point","coordinates":[139.64696,35.55335]}},{"type":"Feature","properties":{"id":"alisveris-237","kind":"poi","name":"フレンテ笹塚","theme":"alisveris"},"geometry":{"type":"Point","coordinates":[139.66799,35.67351]}},{"type":"Feature","properties":{"id":"alisveris-238","kind":"poi","name":"Miel Kawaguchi","theme":"alisveris"},"geometry":{"type":"Point","coordinates":[139.72756,35.80104]}},{"type":"Feature","properties":{"id":"alisveris-239","kind":"poi","name":"Seibu Shinjuku PePe","theme":"alisveris"},"geometry":{"type":"Point","coordinates":[139.70027,35.69445]}},{"type":"Feature","properties":{"id":"alisveris-240","kind":"poi","name":"TOKYO Midtown HIBIYA","theme":"alisveris"},"geometry":{"type":"Point","coordinates":[139.75925,35.67347]}},{"type":"Feature","properties":{"id":"alisveris-241","kind":"poi","name":"Hankyu Men's Tokyo","theme":"alisveris"},"geometry":{"type":"Point","coordinates":[139.76249,35.67376]}},{"type":"Feature","properties":{"id":"alisveris-242","kind":"poi","name":"Odakyu Department Store","theme":"alisveris"},"geometry":{"type":"Point","coordinates":[139.69886,35.69245]}},{"type":"Feature","properties":{"id":"alisveris-243","kind":"poi","name":"八重洲地下街","theme":"alisveris"},"geometry":{"type":"Point","coordinates":[139.76868,35.68054]}},{"type":"Feature","properties":{"id":"alisveris-244","kind":"poi","name":"ララテラス川口","theme":"alisveris"},"geometry":{"type":"Point","coordinates":[139.7185,35.80302]}},{"type":"Feature","properties":{"id":"alisveris-245","kind":"poi","name":"LaLaPort Toyosu","theme":"alisveris"},"geometry":{"type":"Point","coordinates":[139.79234,35.65552]}},{"type":"Feature","properties":{"id":"alisveris-246","kind":"poi","name":"NEW Shiba Building","theme":"alisveris"},"geometry":{"type":"Point","coordinates":[139.75736,35.66633]}},{"type":"Feature","properties":{"id":"alisveris-247","kind":"poi","name":"イオン新浦安ショッピングセンター","theme":"alisveris"},"geometry":{"type":"Point","coordinates":[139.9149,35.64896]}},{"type":"Feature","properties":{"id":"alisveris-248","kind":"poi","name":"Ario-Nishiarai","theme":"alisveris"},"geometry":{"type":"Point","coordinates":[139.78569,35.77467]}},{"type":"Feature","properties":{"id":"alisveris-249","kind":"poi","name":"プラーレ松戸","theme":"alisveris"},"geometry":{"type":"Point","coordinates":[139.90228,35.78351]}},{"type":"Feature","properties":{"id":"alisveris-250","kind":"poi","name":"Yodobashi Multimedia Akiba","theme":"alisveris"},"geometry":{"type":"Point","coordinates":[139.77473,35.69878]}},{"type":"Feature","properties":{"id":"alisveris-251","kind":"poi","name":"イオン板橋ショッピングセンター","theme":"alisveris"},"geometry":{"type":"Point","coordinates":[139.66084,35.77011]}},{"type":"Feature","properties":{"id":"alisveris-252","kind":"poi","name":"Bicqlo","theme":"alisveris"},"geometry":{"type":"Point","coordinates":[139.703,35.69137]}},{"type":"Feature","properties":{"id":"alisveris-253","kind":"poi","name":"Shibuya 109","theme":"alisveris"},"geometry":{"type":"Point","coordinates":[139.69876,35.6596]}},{"type":"Feature","properties":{"id":"alisveris-254","kind":"poi","name":"Daikanyama T-SITE","theme":"alisveris"},"geometry":{"type":"Point","coordinates":[139.69982,35.64933]}},{"type":"Feature","properties":{"id":"alisveris-255","kind":"poi","name":"Ogikubo Town Seven","theme":"alisveris"},"geometry":{"type":"Point","coordinates":[139.61965,35.70509]}},{"type":"Feature","properties":{"id":"alisveris-256","kind":"poi","name":"Ario Kitasuna","theme":"alisveris"},"geometry":{"type":"Point","coordinates":[139.82579,35.68245]}},{"type":"Feature","properties":{"id":"alisveris-257","kind":"poi","name":"Seijo corty","theme":"alisveris"},"geometry":{"type":"Point","coordinates":[139.59914,35.64016]}},{"type":"Feature","properties":{"id":"alisveris-258","kind":"poi","name":"Ikspiari","theme":"alisveris"},"geometry":{"type":"Point","coordinates":[139.88556,35.63429]}},{"type":"Feature","properties":{"id":"alisveris-259","kind":"poi","name":"Asakusa Rox","theme":"alisveris"},"geometry":{"type":"Point","coordinates":[139.79277,35.71289]}},{"type":"Feature","properties":{"id":"alisveris-260","kind":"poi","name":"WAKO","theme":"alisveris"},"geometry":{"type":"Point","coordinates":[139.76502,35.67166]}},{"type":"Feature","properties":{"id":"alisveris-261","kind":"poi","name":"フレンテ明大前","theme":"alisveris"},"geometry":{"type":"Point","coordinates":[139.65019,35.66893]}},{"type":"Feature","properties":{"id":"alisveris-262","kind":"poi","name":"Le FRONT","theme":"alisveris"},"geometry":{"type":"Point","coordinates":[139.69665,35.5295]}},{"type":"Feature","properties":{"id":"alisveris-263","kind":"poi","name":"Metro Plaza","theme":"alisveris"},"geometry":{"type":"Point","coordinates":[139.70261,35.66149]}},{"type":"Feature","properties":{"id":"alisveris-264","kind":"poi","name":"Laforet Harajuku","theme":"alisveris"},"geometry":{"type":"Point","coordinates":[139.70541,35.66911]}},{"type":"Feature","properties":{"id":"alisveris-265","kind":"poi","name":"Ario Kameari","theme":"alisveris"},"geometry":{"type":"Point","coordinates":[139.85273,35.76463]}},{"type":"Feature","properties":{"id":"alisveris-266","kind":"poi","name":"EKIMISE Asakusa","theme":"alisveris"},"geometry":{"type":"Point","coordinates":[139.79839,35.71191]}},{"type":"Feature","properties":{"id":"alisveris-267","kind":"poi","name":"Diver City Tokyo","theme":"alisveris"},"geometry":{"type":"Point","coordinates":[139.77545,35.62521]}},{"type":"Feature","properties":{"id":"alisveris-268","kind":"poi","name":"TOC Building","theme":"alisveris"},"geometry":{"type":"Point","coordinates":[139.71898,35.6218]}},{"type":"Feature","properties":{"id":"alisveris-269","kind":"poi","name":"Wira Ooi","theme":"alisveris"},"geometry":{"type":"Point","coordinates":[139.74463,35.59702]}},{"type":"Feature","properties":{"id":"alisveris-270","kind":"poi","name":"ララガーデン川口","theme":"alisveris"},"geometry":{"type":"Point","coordinates":[139.69834,35.80484]}},{"type":"Feature","properties":{"id":"alisveris-271","kind":"poi","name":"グランツリー武蔵小杉","theme":"alisveris"},"geometry":{"type":"Point","coordinates":[139.66017,35.57376]}},{"type":"Feature","properties":{"id":"otel-272","kind":"poi","name":"Shinjuku Washington Hotel","theme":"otel"},"geometry":{"type":"Point","coordinates":[139.69286,35.68683]}},{"type":"Feature","properties":{"id":"otel-273","kind":"poi","name":"Century Southern Tower Hotel","theme":"otel"},"geometry":{"type":"Point","coordinates":[139.70037,35.68644]}},{"type":"Feature","properties":{"id":"otel-274","kind":"poi","name":"Shinjuku Prince Hotel","theme":"otel"},"geometry":{"type":"Point","coordinates":[139.70012,35.69475]}},{"type":"Feature","properties":{"id":"otel-275","kind":"poi","name":"Mandarin Oriental, Tokyo","theme":"otel"},"geometry":{"type":"Point","coordinates":[139.77289,35.68715]}},{"type":"Feature","properties":{"id":"otel-276","kind":"poi","name":"ANA Intercontinental Tokyo","theme":"otel"},"geometry":{"type":"Point","coordinates":[139.74068,35.66801]}},{"type":"Feature","properties":{"id":"otel-277","kind":"poi","name":"Tobu Hotel","theme":"otel"},"geometry":{"type":"Point","coordinates":[139.69899,35.66319]}},{"type":"Feature","properties":{"id":"otel-278","kind":"poi","name":"The b' Akasaka","theme":"otel"},"geometry":{"type":"Point","coordinates":[139.73316,35.67127]}},{"type":"Feature","properties":{"id":"otel-279","kind":"poi","name":"The Prince Sakura Tower Tokyo","theme":"otel"},"geometry":{"type":"Point","coordinates":[139.73549,35.63095]}},{"type":"Feature","properties":{"id":"otel-280","kind":"poi","name":"Shinagawa Prince Hotel","theme":"otel"},"geometry":{"type":"Point","coordinates":[139.7367,35.62764]}},{"type":"Feature","properties":{"id":"otel-281","kind":"poi","name":"Hyatt Regency Tokyo","theme":"otel"},"geometry":{"type":"Point","coordinates":[139.69116,35.69071]}},{"type":"Feature","properties":{"id":"otel-282","kind":"poi","name":"Intercontinental Tokyo Bay","theme":"otel"},"geometry":{"type":"Point","coordinates":[139.76222,35.65306]}},{"type":"Feature","properties":{"id":"otel-283","kind":"poi","name":"Sheraton Grande Tokyo bay Hotel","theme":"otel"},"geometry":{"type":"Point","coordinates":[139.87817,35.62571]}},{"type":"Feature","properties":{"id":"otel-284","kind":"poi","name":"Tokyo DisneySea Hotel MiraCosta","theme":"otel"},"geometry":{"type":"Point","coordinates":[139.88797,35.6273]}},{"type":"Feature","properties":{"id":"otel-285","kind":"poi","name":"Hotel Wing International Korakuen","theme":"otel"},"geometry":{"type":"Point","coordinates":[139.75587,35.70564]}},{"type":"Feature","properties":{"id":"otel-286","kind":"poi","name":"Sakura Hotel Hatagaya","theme":"otel"},"geometry":{"type":"Point","coordinates":[139.67668,35.67615]}},{"type":"Feature","properties":{"id":"otel-287","kind":"poi","name":"Mitsui Garden Hotel Ueno","theme":"otel"},"geometry":{"type":"Point","coordinates":[139.77821,35.71183]}},{"type":"Feature","properties":{"id":"otel-288","kind":"poi","name":"Dai-ichi Hotel Ryogoku","theme":"otel"},"geometry":{"type":"Point","coordinates":[139.79707,35.69823]}},{"type":"Feature","properties":{"id":"otel-289","kind":"poi","name":"The Capitol Hotel Tokyu","theme":"otel"},"geometry":{"type":"Point","coordinates":[139.74092,35.6741]}},{"type":"Feature","properties":{"id":"otel-290","kind":"poi","name":"Remm Roppongi","theme":"otel"},"geometry":{"type":"Point","coordinates":[139.73141,35.66381]}},{"type":"Feature","properties":{"id":"otel-291","kind":"poi","name":"JUYOH HOTEL","theme":"otel"},"geometry":{"type":"Point","coordinates":[139.80077,35.7267]}},{"type":"Feature","properties":{"id":"otel-292","kind":"poi","name":"The Strings by Intercontinental Tokyo","theme":"otel"},"geometry":{"type":"Point","coordinates":[139.74074,35.62782]}},{"type":"Feature","properties":{"id":"otel-293","kind":"poi","name":"Hotel MYSTAYS Hamamatsucho","theme":"otel"},"geometry":{"type":"Point","coordinates":[139.7552,35.65821]}},{"type":"Feature","properties":{"id":"otel-294","kind":"poi","name":"Hotel JAL City Haneda Tokyo","theme":"otel"},"geometry":{"type":"Point","coordinates":[139.7481,35.55164]}},{"type":"Feature","properties":{"id":"otel-295","kind":"poi","name":"Richmond Hotel Premier Musashikosugi","theme":"otel"},"geometry":{"type":"Point","coordinates":[139.6625,35.5747]}},{"type":"Feature","properties":{"id":"otel-296","kind":"poi","name":"HOTEL MYSTAYS PREMIER Omori","theme":"otel"},"geometry":{"type":"Point","coordinates":[139.73246,35.59044]}},{"type":"Feature","properties":{"id":"otel-297","kind":"poi","name":"Celestine Hotel","theme":"otel"},"geometry":{"type":"Point","coordinates":[139.74885,35.65105]}},{"type":"Feature","properties":{"id":"otel-298","kind":"poi","name":"Comfort Hotel Tokyo Kiyosumi-Shirakawa","theme":"otel"},"geometry":{"type":"Point","coordinates":[139.79956,35.68223]}},{"type":"Feature","properties":{"id":"otel-299","kind":"poi","name":"Keio Presso Inn","theme":"otel"},"geometry":{"type":"Point","coordinates":[139.71555,35.72782]}},{"type":"Feature","properties":{"id":"otel-300","kind":"poi","name":"Agora Place Asakusa","theme":"otel"},"geometry":{"type":"Point","coordinates":[139.791,35.70894]}},{"type":"Feature","properties":{"id":"otel-301","kind":"poi","name":"Park Hotel Tokyo","theme":"otel"},"geometry":{"type":"Point","coordinates":[139.75963,35.66335]}},{"type":"Feature","properties":{"id":"otel-302","kind":"poi","name":"Akihabara Washington Hotel","theme":"otel"},"geometry":{"type":"Point","coordinates":[139.77383,35.69725]}},{"type":"Feature","properties":{"id":"otel-303","kind":"poi","name":"Comfort Hotel Tokyo Higashi Nihombashi","theme":"otel"},"geometry":{"type":"Point","coordinates":[139.78297,35.69414]}},{"type":"Feature","properties":{"id":"otel-304","kind":"poi","name":"Hotel Gracery Ginza","theme":"otel"},"geometry":{"type":"Point","coordinates":[139.76357,35.66894]}},{"type":"Feature","properties":{"id":"otel-305","kind":"poi","name":"Nishitetsu Inn Nihombashi","theme":"otel"},"geometry":{"type":"Point","coordinates":[139.77957,35.68543]}},{"type":"Feature","properties":{"id":"otel-306","kind":"poi","name":"Park Hyatt Tokyo","theme":"otel"},"geometry":{"type":"Point","coordinates":[139.69096,35.68514]}},{"type":"Feature","properties":{"id":"otel-307","kind":"poi","name":"HOTEL ROUTE-INN TOKYO ASAGAYA","theme":"otel"},"geometry":{"type":"Point","coordinates":[139.63349,35.70008]}},{"type":"Feature","properties":{"id":"otel-308","kind":"poi","name":"Citadines Central Shinjuku Tokyo","theme":"otel"},"geometry":{"type":"Point","coordinates":[139.70432,35.69441]}},{"type":"Feature","properties":{"id":"otel-309","kind":"poi","name":"Tokyo Station Hotel","theme":"otel"},"geometry":{"type":"Point","coordinates":[139.76592,35.68101]}},{"type":"Feature","properties":{"id":"otel-310","kind":"poi","name":"KKR Hotel Tokyo","theme":"otel"},"geometry":{"type":"Point","coordinates":[139.76051,35.69068]}},{"type":"Feature","properties":{"id":"otel-311","kind":"poi","name":"Hilltop Hotel","theme":"otel"},"geometry":{"type":"Point","coordinates":[139.76125,35.69811]}},{"type":"Feature","properties":{"id":"otel-312","kind":"poi","name":"Sotetsu Fresa Inn Tokyo-Toyocho","theme":"otel"},"geometry":{"type":"Point","coordinates":[139.81764,35.66989]}},{"type":"Feature","properties":{"id":"otel-313","kind":"poi","name":"Hotel Tetora Akabane","theme":"otel"},"geometry":{"type":"Point","coordinates":[139.71974,35.78025]}},{"type":"Feature","properties":{"id":"otel-314","kind":"poi","name":"Tokyu Stay Yoga","theme":"otel"},"geometry":{"type":"Point","coordinates":[139.63362,35.62643]}},{"type":"Feature","properties":{"id":"otel-315","kind":"poi","name":"Futakotamagawa Excel Hotel Tokyu","theme":"otel"},"geometry":{"type":"Point","coordinates":[139.62992,35.61031]}},{"type":"Feature","properties":{"id":"otel-316","kind":"poi","name":"Daiwa Roynet Hotel Ginza Premier","theme":"otel"},"geometry":{"type":"Point","coordinates":[139.76905,35.67328]}},{"type":"Feature","properties":{"id":"otel-317","kind":"poi","name":"Remm Hibiya","theme":"otel"},"geometry":{"type":"Point","coordinates":[139.75955,35.67256]}},{"type":"Feature","properties":{"id":"otel-318","kind":"poi","name":"山崎製パン企業年金基金会館","theme":"otel"},"geometry":{"type":"Point","coordinates":[139.90955,35.72933]}},{"type":"Feature","properties":{"id":"otel-319","kind":"poi","name":"Hundred Stay Tokyo Shinjuku","theme":"otel"},"geometry":{"type":"Point","coordinates":[139.69539,35.70254]}},{"type":"Feature","properties":{"id":"yurt-320","kind":"poi","name":"Tokyo Sumidagawa Youth Hostel","theme":"yurt"},"geometry":{"type":"Point","coordinates":[139.78924,35.69925]}},{"type":"Feature","properties":{"id":"yurt-321","kind":"poi","name":"Khaosan Tokyo Laboratory","theme":"yurt"},"geometry":{"type":"Point","coordinates":[139.79135,35.71188]}},{"type":"Feature","properties":{"id":"yurt-322","kind":"poi","name":"Khaosan Tokyo Origami","theme":"yurt"},"geometry":{"type":"Point","coordinates":[139.7974,35.71628]}},{"type":"Feature","properties":{"id":"yurt-323","kind":"poi","name":"J's Backpackers","theme":"yurt"},"geometry":{"type":"Point","coordinates":[139.86227,35.74505]}},{"type":"Feature","properties":{"id":"yurt-324","kind":"poi","name":"Imano Tokyo Hostel","theme":"yurt"},"geometry":{"type":"Point","coordinates":[139.70777,35.69356]}},{"type":"Feature","properties":{"id":"yurt-325","kind":"poi","name":"Top Edge Hostel Koenji","theme":"yurt"},"geometry":{"type":"Point","coordinates":[139.6475,35.70054]}},{"type":"Feature","properties":{"id":"yurt-326","kind":"poi","name":"Almond Hostel & Cafe","theme":"yurt"},"geometry":{"type":"Point","coordinates":[139.6875,35.66998]}},{"type":"Feature","properties":{"id":"yurt-327","kind":"poi","name":"Hostel Kura","theme":"yurt"},"geometry":{"type":"Point","coordinates":[139.78452,35.71265]}},{"type":"Feature","properties":{"id":"yurt-328","kind":"poi","name":"TOKYO-W-INN Asakusa","theme":"yurt"},"geometry":{"type":"Point","coordinates":[139.79227,35.70828]}},{"type":"Feature","properties":{"id":"yurt-329","kind":"poi","name":"plat hostel keikyu haneda home","theme":"yurt"},"geometry":{"type":"Point","coordinates":[139.74877,35.54792]}},{"type":"Feature","properties":{"id":"yurt-330","kind":"poi","name":"Wise Owl Hostels Shibuya","theme":"yurt"},"geometry":{"type":"Point","coordinates":[139.6898,35.6537]}},{"type":"Feature","properties":{"id":"yurt-331","kind":"poi","name":"Sakura Hotel Ikebukuro","theme":"yurt"},"geometry":{"type":"Point","coordinates":[139.70884,35.73358]}},{"type":"Feature","properties":{"id":"yurt-332","kind":"poi","name":"Sakura Hostel Asakusa","theme":"yurt"},"geometry":{"type":"Point","coordinates":[139.79483,35.71601]}},{"type":"Feature","properties":{"id":"yurt-333","kind":"poi","name":"Sakura Hotel Jimbocho","theme":"yurt"},"geometry":{"type":"Point","coordinates":[139.75644,35.69499]}},{"type":"Feature","properties":{"id":"yurt-334","kind":"poi","name":"CITAN","theme":"yurt"},"geometry":{"type":"Point","coordinates":[139.78137,35.69156]}},{"type":"Feature","properties":{"id":"yurt-335","kind":"poi","name":"＆AND HOSTEL AKIHABARA","theme":"yurt"},"geometry":{"type":"Point","coordinates":[139.77745,35.69742]}},{"type":"Feature","properties":{"id":"yurt-336","kind":"poi","name":"Oak Hostel Zen","theme":"yurt"},"geometry":{"type":"Point","coordinates":[139.78074,35.72177]}},{"type":"Feature","properties":{"id":"yurt-337","kind":"poi","name":"9h nine hours","theme":"yurt"},"geometry":{"type":"Point","coordinates":[139.70174,35.70127]}},{"type":"Feature","properties":{"id":"yurt-338","kind":"poi","name":"GRIDS Akihabara","theme":"yurt"},"geometry":{"type":"Point","coordinates":[139.78033,35.69659]}},{"type":"Feature","properties":{"id":"yurt-339","kind":"poi","name":"Wise Owl River Tokyo","theme":"yurt"},"geometry":{"type":"Point","coordinates":[139.80477,35.71072]}},{"type":"Feature","properties":{"id":"yurt-340","kind":"poi","name":"9h nine hours Otemachi","theme":"yurt"},"geometry":{"type":"Point","coordinates":[139.76004,35.69207]}},{"type":"Feature","properties":{"id":"yurt-341","kind":"poi","name":"9h nine hours Hamamatsucho","theme":"yurt"},"geometry":{"type":"Point","coordinates":[139.75593,35.65738]}},{"type":"Feature","properties":{"id":"yurt-342","kind":"poi","name":"9h nine hours woman","theme":"yurt"},"geometry":{"type":"Point","coordinates":[139.78125,35.68679]}},{"type":"Feature","properties":{"id":"yurt-343","kind":"poi","name":"Yoyogi Youth Hostel","theme":"yurt"},"geometry":{"type":"Point","coordinates":[139.69465,35.67746]}},{"type":"Feature","properties":{"id":"kamu-344","kind":"poi","name":"Cabinet Office","theme":"kamu"},"geometry":{"type":"Point","coordinates":[139.74495,35.673]}},{"type":"Feature","properties":{"id":"kamu-345","kind":"poi","name":"Ministry of Health, Labour & Welfare","theme":"kamu"},"geometry":{"type":"Point","coordinates":[139.75294,35.67316]}},{"type":"Feature","properties":{"id":"kamu-346","kind":"poi","name":"Matsudo City Hall","theme":"kamu"},"geometry":{"type":"Point","coordinates":[139.90327,35.78766]}},{"type":"Feature","properties":{"id":"kamu-347","kind":"poi","name":"MOFA Iikura House","theme":"kamu"},"geometry":{"type":"Point","coordinates":[139.73944,35.66122]}},{"type":"Feature","properties":{"id":"kamu-348","kind":"poi","name":"松戸市役所矢切支所","theme":"kamu"},"geometry":{"type":"Point","coordinates":[139.90034,35.76657]}},{"type":"Feature","properties":{"id":"kamu-349","kind":"poi","name":"松戸市消防局","theme":"kamu"},"geometry":{"type":"Point","coordinates":[139.91651,35.78196]}},{"type":"Feature","properties":{"id":"kamu-350","kind":"poi","name":"Setagaya City Hall","theme":"kamu"},"geometry":{"type":"Point","coordinates":[139.65325,35.64653]}},{"type":"Feature","properties":{"id":"kamu-351","kind":"poi","name":"Chuo City Hall","theme":"kamu"},"geometry":{"type":"Point","coordinates":[139.77198,35.6706]}},{"type":"Feature","properties":{"id":"kamu-352","kind":"poi","name":"The Small and Medium Enterprise Agency","theme":"kamu"},"geometry":{"type":"Point","coordinates":[139.75204,35.67148]}},{"type":"Feature","properties":{"id":"kamu-353","kind":"poi","name":"Kita City Hall","theme":"kamu"},"geometry":{"type":"Point","coordinates":[139.73368,35.75278]}},{"type":"Feature","properties":{"id":"kamu-354","kind":"poi","name":"Chiyoda City Hall","theme":"kamu"},"geometry":{"type":"Point","coordinates":[139.75356,35.69416]}},{"type":"Feature","properties":{"id":"kamu-355","kind":"poi","name":"Taito City Hall","theme":"kamu"},"geometry":{"type":"Point","coordinates":[139.77977,35.71263]}},{"type":"Feature","properties":{"id":"kamu-356","kind":"poi","name":"Shinagawa City Hall","theme":"kamu"},"geometry":{"type":"Point","coordinates":[139.7302,35.60921]}},{"type":"Feature","properties":{"id":"kamu-357","kind":"poi","name":"Ota City","theme":"kamu"},"geometry":{"type":"Point","coordinates":[139.71608,35.56139]}},{"type":"Feature","properties":{"id":"kamu-358","kind":"poi","name":"Bunkyo City Hall","theme":"kamu"},"geometry":{"type":"Point","coordinates":[139.75227,35.70796]}},{"type":"Feature","properties":{"id":"kamu-359","kind":"poi","name":"Shinjuku City Hall","theme":"kamu"},"geometry":{"type":"Point","coordinates":[139.70345,35.69386]}},{"type":"Feature","properties":{"id":"kamu-360","kind":"poi","name":"Supreme Court","theme":"kamu"},"geometry":{"type":"Point","coordinates":[139.74371,35.68025]}},{"type":"Feature","properties":{"id":"kamu-361","kind":"poi","name":"Edogawa North Tax Office","theme":"kamu"},"geometry":{"type":"Point","coordinates":[139.84919,35.70394]}},{"type":"Feature","properties":{"id":"kamu-362","kind":"poi","name":"東京税関","theme":"kamu"},"geometry":{"type":"Point","coordinates":[139.77608,35.61683]}},{"type":"Feature","properties":{"id":"kamu-363","kind":"poi","name":"Itabashi City Hall","theme":"kamu"},"geometry":{"type":"Point","coordinates":[139.7093,35.75098]}},{"type":"Feature","properties":{"id":"kamu-364","kind":"poi","name":"Minato City Hall","theme":"kamu"},"geometry":{"type":"Point","coordinates":[139.75156,35.65804]}},{"type":"Feature","properties":{"id":"kamu-365","kind":"poi","name":"Japan Patent Office","theme":"kamu"},"geometry":{"type":"Point","coordinates":[139.7458,35.67096]}},{"type":"Feature","properties":{"id":"kamu-366","kind":"poi","name":"Meguro City Hall","theme":"kamu"},"geometry":{"type":"Point","coordinates":[139.69827,35.64141]}},{"type":"Feature","properties":{"id":"kamu-367","kind":"poi","name":"katsushika city office","theme":"kamu"},"geometry":{"type":"Point","coordinates":[139.84724,35.74345]}},{"type":"Feature","properties":{"id":"kamu-368","kind":"poi","name":"Adachi City Hall","theme":"kamu"},"geometry":{"type":"Point","coordinates":[139.80451,35.77487]}},{"type":"Feature","properties":{"id":"kamu-369","kind":"poi","name":"都市再生機構","theme":"kamu"},"geometry":{"type":"Point","coordinates":[139.72691,35.6701]}},{"type":"Feature","properties":{"id":"kamu-370","kind":"poi","name":"Ministry of Defense","theme":"kamu"},"geometry":{"type":"Point","coordinates":[139.72876,35.69282]}},{"type":"Feature","properties":{"id":"kamu-371","kind":"poi","name":"Arakawa City Office","theme":"kamu"},"geometry":{"type":"Point","coordinates":[139.78337,35.7361]}},{"type":"Feature","properties":{"id":"kamu-372","kind":"poi","name":"Toshima City Office","theme":"kamu"},"geometry":{"type":"Point","coordinates":[139.71672,35.72611]}},{"type":"Feature","properties":{"id":"kamu-373","kind":"poi","name":"Roppongi hills - Kojipro?","theme":"kamu"},"geometry":{"type":"Point","coordinates":[139.72928,35.66045]}},{"type":"Feature","properties":{"id":"kamu-374","kind":"poi","name":"Nuclear Regulation Authority","theme":"kamu"},"geometry":{"type":"Point","coordinates":[139.74116,35.66323]}},{"type":"Feature","properties":{"id":"kamu-375","kind":"poi","name":"The Japan Art Academy","theme":"kamu"},"geometry":{"type":"Point","coordinates":[139.77515,35.71324]}},{"type":"Feature","properties":{"id":"kamu-376","kind":"poi","name":"Nerima city office","theme":"kamu"},"geometry":{"type":"Point","coordinates":[139.65166,35.73583]}},{"type":"Feature","properties":{"id":"kamu-377","kind":"poi","name":"祖師谷まちづくりセンター","theme":"kamu"},"geometry":{"type":"Point","coordinates":[139.60827,35.64695]}},{"type":"Feature","properties":{"id":"kamu-378","kind":"poi","name":"Nerima Vehicle Registration Office","theme":"kamu"},"geometry":{"type":"Point","coordinates":[139.65731,35.76615]}},{"type":"Feature","properties":{"id":"kamu-379","kind":"poi","name":"Digital Agency","theme":"kamu"},"geometry":{"type":"Point","coordinates":[139.73703,35.6796]}},{"type":"Feature","properties":{"id":"icon-1","kind":"poi","name":"Sensō-ji","theme":"tarihi"},"geometry":{"type":"Point","coordinates":[139.79595,35.71345]}},{"type":"Feature","properties":{"id":"icon-2","kind":"poi","name":"Meiji Shrine","theme":"tarihi"},"geometry":{"type":"Point","coordinates":[139.69801,35.67999]}},{"type":"Feature","properties":{"id":"icon-3","kind":"poi","name":"Imperial Palace","theme":"tarihi"},"geometry":{"type":"Point","coordinates":[139.75083,35.68386]}},{"type":"Feature","properties":{"id":"icon-4","kind":"poi","name":"Yasukuni Shrine","theme":"tarihi"},"geometry":{"type":"Point","coordinates":[139.74655,35.69523]}},{"type":"Feature","properties":{"id":"icon-5","kind":"poi","name":"Zōjō-ji","theme":"tarihi"},"geometry":{"type":"Point","coordinates":[139.74821,35.65719]}},{"type":"Feature","properties":{"id":"icon-6","kind":"poi","name":"Nezu Shrine","theme":"tarihi"},"geometry":{"type":"Point","coordinates":[139.76076,35.72]}},{"type":"Feature","properties":{"id":"icon-7","kind":"poi","name":"Tokyo Tower","theme":"modern"},"geometry":{"type":"Point","coordinates":[139.74544,35.65856]}},{"type":"Feature","properties":{"id":"icon-8","kind":"poi","name":"Tokyo Skytree","theme":"modern"},"geometry":{"type":"Point","coordinates":[139.81071,35.71005]}},{"type":"Feature","properties":{"id":"icon-9","kind":"poi","name":"teamLab","theme":"modern"},"geometry":{"type":"Point","coordinates":[139.78973,35.64938]}},{"type":"Feature","properties":{"id":"icon-10","kind":"poi","name":"Rainbow Bridge","theme":"modern"},"geometry":{"type":"Point","coordinates":[139.76749,35.63648]}},{"type":"Feature","properties":{"id":"icon-11","kind":"poi","name":"Yoyogi Park","theme":"doga"},"geometry":{"type":"Point","coordinates":[139.69631,35.66997]}},{"type":"Feature","properties":{"id":"icon-12","kind":"poi","name":"Takeshita Street","theme":"alisveris"},"geometry":{"type":"Point","coordinates":[139.70486,35.67091]}},{"type":"Feature","properties":{"id":"icon-13","kind":"poi","name":"Nakamise-dōri","theme":"alisveris"},"geometry":{"type":"Point","coordinates":[139.7965,35.71239]}},{"type":"Feature","properties":{"id":"icon-14","kind":"poi","name":"Tsukiji Market","theme":"gastronomi"},"geometry":{"type":"Point","coordinates":[139.77715,35.66817]}},{"type":"Feature","properties":{"id":"icon-15","kind":"poi","name":"Toyosu Market","theme":"gastronomi"},"geometry":{"type":"Point","coordinates":[139.78083,35.64371]}}]}