{"type":"FeatureCollection","features":[{"type":"Feature","properties":{"id":"link-haneda","kind":"link","subKey":"arr.haneda.sub","real":true},"geometry":{"type":"LineString","coordinates":[[139.7877,35.54942],[139.78829,35.55084],[139.7873,35.55216],[139.78669,35.55266],[139.78576,35.55298],[139.78498,35.55298],[139.78388,35.55247],[139.78347,35.55215],[139.78315,35.55151],[139.78331,35.55101],[139.7845,35.54915],[139.78699,35.54561],[139.78725,35.54488],[139.7873,35.54441],[139.78712,35.54349],[139.78642,35.54218],[139.78576,35.54164],[139.78025,35.5385],[139.77938,35.53812],[139.77853,35.53797],[139.77797,35.53804],[139.77719,35.53829],[139.77017,35.54149],[139.76968,35.54192],[139.76942,35.54228],[139.76896,35.54341],[139.76858,35.54401],[139.76812,35.54445],[139.76771,35.54467],[139.7576,35.5461],[139.75674,35.54631],[139.75586,35.54665],[139.75527,35.54708],[139.75501,35.54739],[139.7539,35.55045],[139.75349,35.55127],[139.75332,35.55327],[139.75345,35.55637],[139.75411,35.55786],[139.7546,35.55959],[139.75474,35.56033],[139.75467,35.561],[139.75449,35.56145],[139.75362,35.56263],[139.75024,35.56627],[139.74961,35.56731],[139.74948,35.56788],[139.7495,35.5687],[139.75007,35.57077],[139.75116,35.57553],[139.75118,35.57679],[139.75084,35.57784],[139.74692,35.58671],[139.74666,35.58772],[139.74662,35.58845],[139.74747,35.60041],[139.74768,35.60129],[139.74794,35.60182],[139.75019,35.60475],[139.75051,35.60533],[139.75071,35.60596],[139.75211,35.61958],[139.7521,35.62031],[139.75191,35.62097],[139.75039,35.62338],[139.75014,35.6242],[139.75076,35.6317],[139.75105,35.63396],[139.75089,35.63469],[139.75001,35.63625],[139.74981,35.63703],[139.74978,35.63871],[139.74987,35.63939],[139.75091,35.64099],[139.75112,35.64173],[139.75115,35.64422],[139.75102,35.64472],[139.75045,35.64573],[139.75042,35.64622],[139.75059,35.64658],[139.75096,35.6469],[139.75313,35.64799],[139.75439,35.64888],[139.75507,35.64952],[139.75633,35.65103],[139.75672,35.65173],[139.75725,35.65343],[139.75718,35.65381],[139.75674,35.65484],[139.75673,35.65532],[139.75684,35.65574],[139.7573,35.6556]]}},{"type":"Feature","properties":{"id":"link-narita","kind":"link","subKey":"arr.narita.sub","real":true},"geometry":{"type":"LineString","coordinates":[[140.3862,35.7647],[140.38573,35.76503],[140.38863,35.76929],[140.38887,35.77003],[140.3888,35.77105],[140.38843,35.77176],[140.37944,35.78412],[140.37786,35.78599],[140.37642,35.78734],[140.37475,35.78863],[140.37313,35.78964],[140.37063,35.79089],[140.36979,35.79122],[140.36704,35.79208],[140.36509,35.7925],[140.36132,35.79295],[140.35011,35.79399],[140.3389,35.79503],[140.32768,35.79608],[140.31647,35.79712],[140.31341,35.79769],[140.30825,35.79917],[140.30514,35.79966],[140.30274,35.79976],[140.29257,35.79964],[140.28456,35.7994],[140.28188,35.79905],[140.26742,35.79582],[140.26543,35.79514],[140.25648,35.7914],[140.24752,35.78765],[140.23857,35.78391],[140.2365,35.7833],[140.23425,35.78286],[140.23195,35.78264],[140.22962,35.78265],[140.22748,35.78285],[140.21744,35.78447],[140.20952,35.78595],[140.20456,35.78728],[140.19549,35.79],[140.19259,35.79107],[140.18845,35.793],[140.17367,35.8014],[140.17061,35.80265],[140.16785,35.80357],[140.16075,35.8049],[140.15568,35.80553],[140.15242,35.8057],[140.14701,35.80576],[140.14416,35.80571],[140.14156,35.80553],[140.13736,35.80497],[140.12597,35.80308],[140.12385,35.80255],[140.11011,35.79833],[140.10804,35.79759],[140.10562,35.79649],[140.09942,35.7925],[140.09597,35.79068],[140.09316,35.78957],[140.09173,35.78914],[140.08925,35.78855],[140.08695,35.78814],[140.08079,35.78738],[140.07723,35.7871],[140.06769,35.786],[140.05815,35.7849],[140.04663,35.78457],[140.03021,35.78441],[140.01722,35.78412],[140.01522,35.78397],[140.01417,35.78379],[140.00664,35.78154],[140.00096,35.78027],[139.98879,35.77649],[139.9854,35.77578],[139.98167,35.77541],[139.96673,35.77496],[139.96405,35.77498],[139.95909,35.7754],[139.95795,35.7754],[139.95636,35.77518],[139.94752,35.77239],[139.94642,35.77186],[139.93887,35.76758],[139.93717,35.7668],[139.93571,35.76629],[139.93395,35.76582],[139.9322,35.76551],[139.91449,35.76306],[139.91301,35.76278],[139.91123,35.76229],[139.9096,35.76168],[139.90495,35.75935],[139.90246,35.75818],[139.90136,35.75776],[139.89925,35.75718],[139.89249,35.75638],[139.89111,35.75607],[139.8903,35.75579],[139.88228,35.75257],[139.87813,35.75043],[139.87643,35.74941],[139.8758,35.7492],[139.87481,35.74909],[139.87369,35.74927],[139.87309,35.74956],[139.87143,35.75072],[139.87053,35.75103],[139.86711,35.75105],[139.86623,35.75097],[139.86511,35.75072],[139.86031,35.74911],[139.85823,35.74818],[139.85745,35.74752],[139.85552,35.74502],[139.85502,35.74462],[139.85439,35.74443],[139.85321,35.74444],[139.84931,35.7459],[139.84727,35.74641],[139.83916,35.74777],[139.83706,35.7479],[139.82383,35.74757],[139.81392,35.74427],[139.80968,35.74382],[139.80575,35.74308],[139.8035,35.74292],[139.80062,35.74193],[139.79986,35.74179],[139.79906,35.74184],[139.7962,35.74263],[139.79298,35.74446],[139.7917,35.74478],[139.79035,35.74464],[139.78807,35.74393],[139.78592,35.74381],[139.78487,35.74354],[139.78345,35.74334],[139.78265,35.74309],[139.78201,35.74273],[139.77812,35.73978],[139.76976,35.73461],[139.76923,35.73421],[139.7689,35.73382],[139.76858,35.73307],[139.76854,35.73238],[139.76862,35.73197],[139.76933,35.73027],[139.76981,35.72952],[139.77042,35.72883],[139.77296,35.72661],[139.77441,35.72561],[139.77467,35.72533],[139.77485,35.72487],[139.7748,35.72424],[139.77406,35.72302],[139.77362,35.72171],[139.7743,35.72015],[139.77427,35.71974],[139.77251,35.71785],[139.77225,35.717],[139.7723,35.71642],[139.77319,35.71447],[139.77293,35.71351],[139.77296,35.71306],[139.77363,35.71076],[139.777,35.7113]]}},{"type":"Feature","properties":{"id":"gate-haneda","kind":"gate","name":"Haneda (HND)","mode":"plane","subKey":"arr.haneda.sub","lab":1,"gtype":"air"},"geometry":{"type":"Point","coordinates":[139.7877,35.54942]}},{"type":"Feature","properties":{"id":"gate-narita","kind":"gate","name":"Narita (NRT)","mode":"plane","subKey":"arr.narita.sub","lab":1,"gtype":"air"},"geometry":{"type":"Point","coordinates":[140.3862,35.7647]}},{"type":"Feature","properties":{"id":"gate-tokyo","kind":"gate","name":"Tokyo Station","mode":"train","subKey":"arr.tokyo.sub","lab":1,"gtype":"rail"},"geometry":{"type":"Point","coordinates":[139.7671,35.6812]}},{"type":"Feature","properties":{"id":"gate-shinjuku","kind":"gate","name":"Shinjuku","mode":"train","subKey":"arr.shinjuku.sub","lab":1,"gtype":"rail"},"geometry":{"type":"Point","coordinates":[139.7004,35.6896]}},{"type":"Feature","properties":{"id":"gate-busta","kind":"gate","name":"Busta Shinjuku","mode":"bus","subKey":"arr.busta.sub","lab":1},"geometry":{"type":"Point","coordinates":[139.7003,35.6874]}}]}