{"type":"FeatureCollection","features":[{"type":"Feature","properties":{"id":"dogal-900","kind":"district","btype":"dogal","name":"Hyde Park","lab":1},"geometry":{"type":"Polygon","coordinates":[[[-0.15885,51.51243],[-0.15662,51.50931],[-0.15237,51.50613],[-0.15252,51.50421],[-0.15146,51.50392],[-0.15128,51.50352],[-0.15168,51.50396],[-0.15213,51.50386],[-0.15196,51.50333],[-0.1565,51.50245],[-0.15759,51.50271],[-0.17476,51.50187],[-0.17473,51.50331],[-0.17318,51.50573],[-0.17235,51.50677],[-0.17114,51.50678],[-0.1705,51.50759],[-0.1709,51.51009],[-0.17413,51.51174],[-0.16191,51.51298],[-0.16137,51.5122],[-0.15885,51.51243]]]}},{"type":"Feature","properties":{"id":"dogal-lab-900","kind":"district-label","btype":"dogal","name":"Hyde Park"},"geometry":{"type":"Point","coordinates":[-0.1623,51.50718]}},{"type":"Feature","properties":{"id":"dogal-901","kind":"district","btype":"dogal","name":"The Regent's Park","lab":1},"geometry":{"type":"MultiPolygon","coordinates":[[[[-0.16493,51.53016],[-0.16258,51.52939],[-0.16153,51.53002],[-0.16152,51.53071],[-0.16257,51.53166],[-0.1644,51.53212],[-0.16242,51.53407],[-0.15871,51.53505],[-0.1513,51.5332],[-0.15234,51.53652],[-0.14942,51.53618],[-0.1484,51.5355],[-0.14613,51.53044],[-0.14586,51.52537],[-0.15563,51.52371],[-0.15855,51.5249],[-0.15987,51.52645],[-0.16434,51.52928],[-0.16493,51.53016]]],[[[-0.16297,51.53442],[-0.15925,51.53573],[-0.15893,51.5352],[-0.16256,51.53418],[-0.16297,51.53442]]]]}},{"type":"Feature","properties":{"id":"dogal-lab-901","kind":"district-label","btype":"dogal","name":"The Regent's Park"},"geometry":{"type":"Point","coordinates":[-0.15382,51.53009]}},{"type":"Feature","properties":{"id":"dogal-902","kind":"district","btype":"dogal","name":"Kensington Gardens","lab":1},"geometry":{"type":"Polygon","coordinates":[[[-0.17455,51.50368],[-0.17483,51.5018],[-0.18074,51.50155],[-0.18746,51.50242],[-0.18833,51.50416],[-0.18697,51.50437],[-0.18991,51.50999],[-0.18264,51.51049],[-0.17413,51.51174],[-0.17331,51.51139],[-0.1708,51.50995],[-0.17052,51.50739],[-0.17114,51.50678],[-0.17235,51.50677],[-0.17455,51.50368]]]}},{"type":"Feature","properties":{"id":"dogal-lab-902","kind":"district-label","btype":"dogal","name":"Kensington Gardens"},"geometry":{"type":"Point","coordinates":[-0.1804,51.50557]}},{"type":"Feature","properties":{"id":"dogal-903","kind":"district","btype":"dogal","name":"Greenwich Park","lab":1},"geometry":{"type":"Polygon","coordinates":[[[0.00152,51.48229],[0.00968,51.47504],[1e-05,51.47207],[-0.00425,51.47605],[-0.0054,51.47631],[-0.00605,51.4778],[-0.00758,51.47893],[-0.00728,51.47952],[-0.00224,51.48153],[0.00152,51.48229]]]}},{"type":"Feature","properties":{"id":"dogal-lab-903","kind":"district-label","btype":"dogal","name":"Greenwich Park"},"geometry":{"type":"Point","coordinates":[0.00084,51.47706]}},{"type":"Feature","properties":{"id":"dogal-904","kind":"district","btype":"dogal","name":"Richmond Park","lab":1},"geometry":{"type":"Polygon","coordinates":[[[-0.28663,51.42016],[-0.29184,51.43164],[-0.29159,51.432],[-0.29206,51.432],[-0.29471,51.43651],[-0.29321,51.4372],[-0.29658,51.44059],[-0.29824,51.44142],[-0.30041,51.44554],[-0.30014,51.44623],[-0.29857,51.4466],[-0.29665,51.44853],[-0.29545,51.4511],[-0.28549,51.45634],[-0.26344,51.45706],[-0.25342,51.45223],[-0.25365,51.45173],[-0.25472,51.45193],[-0.25516,51.45074],[-0.25429,51.44419],[-0.25525,51.44053],[-0.2548,51.43827],[-0.25402,51.43732],[-0.26463,51.43285],[-0.27091,51.42955],[-0.28045,51.42189],[-0.28663,51.42016]]]}},{"type":"Feature","properties":{"id":"dogal-lab-904","kind":"district-label","btype":"dogal","name":"Richmond Park"},"geometry":{"type":"Point","coordinates":[-0.27521,51.4394]}},{"type":"Feature","properties":{"id":"dogal-905","kind":"district","btype":"dogal","name":"Hampstead Heath","lab":1},"geometry":{"type":"Polygon","coordinates":[[[-0.16409,51.5725],[-0.16052,51.57276],[-0.15874,51.57221],[-0.16111,51.57192],[-0.16176,51.57061],[-0.15852,51.57079],[-0.15815,51.56979],[-0.15848,51.56881],[-0.16026,51.56817],[-0.15607,51.56526],[-0.156,51.5641],[-0.15482,51.56312],[-0.15518,51.56277],[-0.15393,51.56231],[-0.15398,51.56132],[-0.15077,51.56126],[-0.14932,51.55914],[-0.15144,51.55955],[-0.1518,51.55923],[-0.15105,51.55842],[-0.15175,51.55788],[-0.15073,51.55739],[-0.14955,51.55554],[-0.15347,51.5562],[-0.1593,51.55623],[-0.16129,51.55879],[-0.16334,51.5593],[-0.16481,51.55822],[-0.16456,51.55771],[-0.16545,51.55632],[-0.16588,51.55636],[-0.16574,51.55548],[-0.16625,51.55533],[-0.16664,51.55665],[-0.16777,51.55749],[-0.17134,51.55752],[-0.17286,51.55819],[-0.1711,51.5584],[-0.17028,51.55898],[-0.17117,51.55946],[-0.17062,51.55983],[-0.17179,51.56049],[-0.17246,51.56014],[-0.17437,51.56089],[-0.1778,51.56092],[-0.17816,51.56156],[-0.17927,51.5613],[-0.17947,51.56259],[-0.17557,51.56778],[-0.17591,51.56694],[-0.17558,51.56653],[-0.17394,51.56699],[-0.17363,51.56749],[-0.17493,51.56863],[-0.1743,51.56826],[-0.17364,51.56889],[-0.17412,51.56949],[-0.17297,51.5715],[-0.16969,51.57279],[-0.1669,51.57296],[-0.16409,51.5725]]]}},{"type":"Feature","properties":{"id":"dogal-lab-905","kind":"district-label","btype":"dogal","name":"Hampstead Heath"},"geometry":{"type":"Point","coordinates":[-0.16697,51.56468]}},{"type":"Feature","properties":{"id":"dogal-906","kind":"district","btype":"dogal","name":"Battersea Park","lab":1},"geometry":{"type":"Polygon","coordinates":[[[-0.15273,51.47659],[-0.14874,51.47829],[-0.1498,51.48353],[-0.16608,51.48129],[-0.16318,51.47491],[-0.15758,51.47543],[-0.15273,51.47659]]]}},{"type":"Feature","properties":{"id":"dogal-lab-906","kind":"district-label","btype":"dogal","name":"Battersea Park"},"geometry":{"type":"Point","coordinates":[-0.15722,51.47979]}},{"type":"Feature","properties":{"id":"dogal-907","kind":"district","btype":"dogal","name":"Victoria Park","lab":1},"geometry":{"type":"MultiPolygon","coordinates":[[[[-0.04175,51.53337],[-0.04446,51.53203],[-0.05277,51.53535],[-0.05212,51.5361],[-0.05096,51.53645],[-0.04716,51.53547],[-0.04482,51.53582],[-0.04369,51.53649],[-0.04304,51.5361],[-0.04175,51.53337]]],[[[-0.02768,51.53982],[-0.02901,51.53953],[-0.02859,51.53919],[-0.02747,51.53934],[-0.0382,51.53423],[-0.04127,51.53336],[-0.04324,51.53662],[-0.04128,51.53759],[-0.03753,51.54115],[-0.03797,51.54147],[-0.03714,51.54142],[-0.03773,51.5418],[-0.03325,51.54467],[-0.02945,51.54302],[-0.02768,51.53982]]]]}},{"type":"Feature","properties":{"id":"dogal-lab-907","kind":"district-label","btype":"dogal","name":"Victoria Park"},"geometry":{"type":"Point","coordinates":[-0.03495,51.53839]}},{"type":"Feature","properties":{"id":"dogal-908","kind":"district","btype":"dogal","name":"Holland Park","lab":1},"geometry":{"type":"Polygon","coordinates":[[[-0.2032,51.50649],[-0.1986,51.49919],[-0.19898,51.49908],[-0.19997,51.50042],[-0.20225,51.49986],[-0.20302,51.50102],[-0.20533,51.50071],[-0.20459,51.50127],[-0.20599,51.50151],[-0.20766,51.50386],[-0.2041,51.50515],[-0.20438,51.50572],[-0.2032,51.50649]]]}},{"type":"Feature","properties":{"id":"dogal-lab-908","kind":"district-label","btype":"dogal","name":"Holland Park"},"geometry":{"type":"Point","coordinates":[-0.20381,51.50268]}},{"type":"Feature","properties":{"id":"dogal-909","kind":"district","btype":"dogal","name":"Clapham Common","lab":1},"geometry":{"type":"MultiPolygon","coordinates":[[[[-0.14917,51.45466],[-0.14723,51.45343],[-0.1475,51.45307],[-0.15099,51.45303],[-0.14917,51.45466]]],[[[-0.14706,51.45361],[-0.14662,51.45402],[-0.14661,51.45402],[-0.14706,51.45361]]],[[[-0.14935,51.45468],[-0.15117,51.45313],[-0.15249,51.45476],[-0.15471,51.4563],[-0.15366,51.45674],[-0.14935,51.45468]]],[[[-0.14398,51.45709],[-0.14646,51.45416],[-0.14728,51.45407],[-0.15088,51.45565],[-0.14398,51.45709]]],[[[-0.15484,51.45641],[-0.15592,51.45761],[-0.15645,51.45936],[-0.15436,51.45711],[-0.15387,51.45682],[-0.15484,51.45641]]],[[[-0.14274,51.45815],[-0.14552,51.45759],[-0.14521,51.45699],[-0.14457,51.45702],[-0.15118,51.45574],[-0.15428,51.45721],[-0.15639,51.45962],[-0.1563,51.4611],[-0.14341,51.46115],[-0.14164,51.4595],[-0.14274,51.45815]]],[[[-0.16196,51.46095],[-0.16166,51.46006],[-0.16072,51.45967],[-0.16163,51.45964],[-0.16196,51.46095]]],[[[-0.16173,51.461],[-0.15661,51.46122],[-0.15657,51.46034],[-0.16056,51.45978],[-0.16154,51.46012],[-0.16173,51.461]]],[[[-0.14389,51.45681],[-0.14355,51.45725],[-0.14347,51.45727],[-0.14389,51.45681]]],[[[-0.14375,51.45738],[-0.14377,51.45725],[-0.1438,51.45726],[-0.14375,51.45738]]],[[[-0.14299,51.45784],[-0.14374,51.45744],[-0.14285,51.45802],[-0.14299,51.45784]]],[[[-0.14144,51.45964],[-0.14315,51.46112],[-0.13939,51.46101],[-0.14144,51.45964]]],[[[-0.13873,51.4615],[-0.13933,51.46149],[-0.1395,51.46165],[-0.13873,51.4615]]],[[[-0.1385,51.46163],[-0.13887,51.46164],[-0.13887,51.46165],[-0.1385,51.46163]]],[[[-0.14334,51.46224],[-0.14358,51.4613],[-0.14633,51.46137],[-0.14517,51.46189],[-0.14334,51.46224]]],[[[-0.14339,51.46141],[-0.14316,51.46243],[-0.14207,51.46326],[-0.1394,51.46123],[-0.14339,51.46141]]]]}},{"type":"Feature","properties":{"id":"dogal-lab-909","kind":"district-label","btype":"dogal","name":"Clapham Common"},"geometry":{"type":"Point","coordinates":[-0.14894,51.45883]}},{"type":"Feature","properties":{"id":"dogal-910","kind":"district","btype":"dogal","name":"Finsbury Park","lab":1},"geometry":{"type":"Polygon","coordinates":[[[-0.10198,51.57487],[-0.1046,51.57383],[-0.10439,51.57223],[-0.10506,51.57225],[-0.10575,51.56553],[-0.10374,51.56528],[-0.09638,51.57059],[-0.09857,51.57539],[-0.10198,51.57487]]]}},{"type":"Feature","properties":{"id":"dogal-lab-910","kind":"district-label","btype":"dogal","name":"Finsbury Park"},"geometry":{"type":"Point","coordinates":[-0.10269,51.56806]}},{"type":"Feature","properties":{"id":"dogal-911","kind":"district","btype":"dogal","name":"Crystal Palace Park","lab":1},"geometry":{"type":"Polygon","coordinates":[[[-0.07241,51.41833],[-0.07389,51.41903],[-0.07385,51.41939],[-0.07529,51.41914],[-0.07826,51.42033],[-0.07737,51.42099],[-0.07767,51.42123],[-0.0767,51.42273],[-0.07499,51.42229],[-0.07368,51.42435],[-0.07182,51.42397],[-0.07243,51.42452],[-0.07249,51.42535],[-0.07136,51.4262],[-0.06667,51.42437],[-0.0664,51.42461],[-0.06368,51.4232],[-0.064,51.42302],[-0.06233,51.42108],[-0.06194,51.42117],[-0.06161,51.42026],[-0.06229,51.42024],[-0.0623,51.41897],[-0.06147,51.41876],[-0.06349,51.4186],[-0.06331,51.41818],[-0.06676,51.41676],[-0.06969,51.41723],[-0.07045,51.41759],[-0.07007,51.41794],[-0.07052,51.4182],[-0.07241,51.41833]]]}},{"type":"Feature","properties":{"id":"dogal-lab-911","kind":"district-label","btype":"dogal","name":"Crystal Palace Park"},"geometry":{"type":"Point","coordinates":[-0.07012,51.42176]}},{"type":"Feature","properties":{"id":"dogal-912","kind":"district","btype":"dogal","name":"Wimbledon Common","lab":1},"geometry":{"type":"MultiPolygon","coordinates":[[[[-0.22658,51.42174],[-0.22707,51.42265],[-0.22732,51.42308],[-0.22699,51.4231],[-0.22658,51.42174]]],[[[-0.22735,51.42314],[-0.22848,51.42582],[-0.22711,51.42319],[-0.22735,51.42314]]],[[[-0.22216,51.42575],[-0.22219,51.42596],[-0.22195,51.42597],[-0.22216,51.42575]]],[[[-0.22239,51.42608],[-0.22199,51.42608],[-0.22199,51.42607],[-0.22239,51.42608]]],[[[-0.23024,51.42763],[-0.23281,51.42711],[-0.23243,51.42628],[-0.23872,51.42594],[-0.24057,51.42685],[-0.24672,51.42564],[-0.24994,51.42595],[-0.25165,51.42563],[-0.25147,51.42432],[-0.24919,51.42155],[-0.25049,51.42162],[-0.24941,51.41804],[-0.24967,51.41544],[-0.25036,51.41612],[-0.25072,51.41915],[-0.25357,51.42247],[-0.25516,51.42576],[-0.25629,51.42965],[-0.25658,51.43264],[-0.25522,51.43286],[-0.25433,51.4341],[-0.25451,51.43494],[-0.25599,51.4355],[-0.25379,51.437],[-0.25326,51.43546],[-0.25125,51.43417],[-0.25108,51.43257],[-0.23132,51.43814],[-0.2259,51.4387],[-0.22589,51.43691],[-0.22474,51.43681],[-0.22462,51.43624],[-0.22363,51.4279],[-0.22218,51.42553],[-0.22147,51.42501],[-0.2264,51.42189],[-0.22721,51.42397],[-0.22829,51.42571],[-0.23024,51.42763]]]]}},{"type":"Feature","properties":{"id":"dogal-lab-912","kind":"district-label","btype":"dogal","name":"Wimbledon Common"},"geometry":{"type":"Point","coordinates":[-0.24413,51.42698]}},{"type":"Feature","properties":{"id":"dogal-4","kind":"district","btype":"dogal","name":"Southwark Park","lab":1},"geometry":{"type":"Polygon","coordinates":[[[-0.05114,51.49156],[-0.05408,51.49173],[-0.05759,51.49447],[-0.05886,51.49485],[-0.05832,51.49509],[-0.05931,51.49833],[-0.05635,51.49885],[-0.05551,51.49767],[-0.05614,51.49687],[-0.05331,51.49443],[-0.05052,51.49479],[-0.0485,51.49359],[-0.05114,51.49156]]]}},{"type":"Feature","properties":{"id":"dogal-lab-4","kind":"district-label","btype":"dogal","name":"Southwark Park"},"geometry":{"type":"Point","coordinates":[-0.05685,51.49598]}},{"type":"Feature","properties":{"id":"dogal-5","kind":"district","btype":"dogal","name":"Primrose Hill","lab":1},"geometry":{"type":"Polygon","coordinates":[[[-0.16543,51.53794],[-0.16847,51.53902],[-0.16189,51.54169],[-0.16015,51.54033],[-0.15763,51.54021],[-0.15692,51.5393],[-0.1552,51.53843],[-0.15481,51.53744],[-0.15934,51.53643],[-0.16166,51.53824],[-0.16543,51.53794]]]}},{"type":"Feature","properties":{"id":"dogal-lab-5","kind":"district-label","btype":"dogal","name":"Primrose Hill"},"geometry":{"type":"Point","coordinates":[-0.16238,51.53916]}},{"type":"Feature","properties":{"id":"dogal-6","kind":"district","btype":"dogal","name":"St. James's Park","lab":1},"geometry":{"type":"Polygon","coordinates":[[[-0.13932,51.50211],[-0.13063,51.50568],[-0.12955,51.50514],[-0.12916,51.50383],[-0.13,51.50138],[-0.13895,51.50056],[-0.1397,51.50122],[-0.13932,51.50211]]]}},{"type":"Feature","properties":{"id":"dogal-lab-6","kind":"district-label","btype":"dogal","name":"St. James's Park"},"geometry":{"type":"Point","coordinates":[-0.13334,51.50297]}},{"type":"Feature","properties":{"id":"dogal-8","kind":"district","btype":"dogal","name":"The Green Park","lab":1},"geometry":{"type":"Polygon","coordinates":[[[-0.13873,51.50274],[-0.14234,51.50677],[-0.14955,51.50314],[-0.14961,51.50269],[-0.14143,51.50228],[-0.13873,51.50274]]]}},{"type":"Feature","properties":{"id":"dogal-lab-8","kind":"district-label","btype":"dogal","name":"The Green Park"},"geometry":{"type":"Point","coordinates":[-0.14333,51.50496]}}]}