{"type":"FeatureCollection","features":[{"type":"Feature","properties":{"id":"turistik-0","kind":"district","btype":"turistik","name":"City of London","lab":1},"geometry":{"type":"Polygon","coordinates":[[[-0.11173,51.51319],[-0.11196,51.5137],[-0.11108,51.51383],[-0.11158,51.51531],[-0.11383,51.51826],[-0.10785,51.51776],[-0.09769,51.52071],[-0.09738,51.52178],[-0.09797,51.52287],[-0.09678,51.52331],[-0.09644,51.52283],[-0.09512,51.52311],[-0.09434,51.52148],[-0.08979,51.52072],[-0.08998,51.51997],[-0.08623,51.51881],[-0.08526,51.52035],[-0.08333,51.51981],[-0.08176,51.52076],[-0.08105,51.52195],[-0.07855,51.52151],[-0.07944,51.51888],[-0.07813,51.51898],[-0.07693,51.51665],[-0.07363,51.51409],[-0.07276,51.51041],[-0.07554,51.50973],[-0.07624,51.51056],[-0.07788,51.51008],[-0.07884,51.50946],[-0.0791,51.50906],[-0.07873,51.50883],[-0.08021,51.50687],[-0.09932,51.50967],[-0.10415,51.50986],[-0.10415,51.50855],[-0.10468,51.50841],[-0.10463,51.50987],[-0.11147,51.50977],[-0.11158,51.5118],[-0.11253,51.51273],[-0.11173,51.51319]]]}},{"type":"Feature","properties":{"id":"turistik-lab-0","kind":"district-label","btype":"turistik","name":"City of London"},"geometry":{"type":"Point","coordinates":[-0.0929,51.5147]}},{"type":"Feature","properties":{"id":"turistik-1","kind":"district","btype":"turistik","name":"Westminster","lab":1},"geometry":{"type":"Polygon","coordinates":[[[-0.21605,51.52792],[-0.21588,51.52975],[-0.21513,51.53017],[-0.2153,51.53135],[-0.20517,51.53295],[-0.2017,51.53256],[-0.19856,51.53071],[-0.19785,51.52995],[-0.19783,51.5279],[-0.1965,51.52764],[-0.19241,51.53289],[-0.19304,51.53395],[-0.19149,51.53629],[-0.18875,51.53453],[-0.18441,51.53811],[-0.17948,51.53971],[-0.17394,51.53947],[-0.17415,51.53826],[-0.1735,51.53764],[-0.17196,51.5384],[-0.1709,51.53778],[-0.16947,51.53859],[-0.16492,51.53578],[-0.16042,51.5373],[-0.15938,51.53634],[-0.15272,51.53752],[-0.14715,51.52503],[-0.14579,51.52526],[-0.14523,51.52398],[-0.14411,51.524],[-0.14412,51.52462],[-0.14348,51.52461],[-0.14359,51.52391],[-0.14287,51.52387],[-0.13699,51.51888],[-0.13523,51.51893],[-0.13403,51.51755],[-0.13243,51.51712],[-0.13254,51.51667],[-0.13081,51.51708],[-0.12941,51.51349],[-0.12767,51.51268],[-0.12288,51.51514],[-0.12209,51.51461],[-0.11948,51.5145],[-0.11472,51.51602],[-0.11385,51.51482],[-0.11159,51.51533],[-0.11108,51.51383],[-0.11196,51.5137],[-0.11173,51.51319],[-0.11253,51.51273],[-0.11158,51.5118],[-0.11147,51.50977],[-0.11781,51.5084],[-0.1207,51.50586],[-0.12259,51.49553],[-0.12404,51.49119],[-0.12676,51.488],[-0.12936,51.48596],[-0.13286,51.48468],[-0.13777,51.48384],[-0.14983,51.48454],[-0.15018,51.48604],[-0.15586,51.48961],[-0.15519,51.49004],[-0.15583,51.49146],[-0.15477,51.49197],[-0.15599,51.4932],[-0.155,51.49383],[-0.156,51.49446],[-0.15527,51.49505],[-0.15608,51.49777],[-0.1579,51.499],[-0.15848,51.50222],[-0.16093,51.50168],[-0.16544,51.49868],[-0.16574,51.49922],[-0.1676,51.49828],[-0.16817,51.49903],[-0.17955,51.49777],[-0.18033,51.50146],[-0.18423,51.50178],[-0.18788,51.51019],[-0.19215,51.50988],[-0.19294,51.51184],[-0.19403,51.5117],[-0.19508,51.51504],[-0.1992,51.51454],[-0.19999,51.51696],[-0.20079,51.51798],[-0.20147,51.5178],[-0.20377,51.52062],[-0.20064,51.52071],[-0.20165,51.52274],[-0.204,51.52354],[-0.20645,51.52604],[-0.21299,51.52688],[-0.21557,51.52671],[-0.21605,51.52792]]]}},{"type":"Feature","properties":{"id":"turistik-lab-1","kind":"district-label","btype":"turistik","name":"Westminster"},"geometry":{"type":"Point","coordinates":[-0.15224,51.51175]}},{"type":"Feature","properties":{"id":"turistik-2","kind":"district","btype":"turistik","name":"Camden","lab":1},"geometry":{"type":"Polygon","coordinates":[[[-0.21351,51.55519],[-0.21004,51.55675],[-0.20886,51.55572],[-0.20599,51.55643],[-0.2058,51.55532],[-0.1994,51.55619],[-0.19954,51.55707],[-0.19833,51.55886],[-0.19663,51.5592],[-0.19675,51.5607],[-0.19485,51.56048],[-0.19072,51.56187],[-0.19001,51.56469],[-0.18926,51.5655],[-0.18379,51.56747],[-0.18341,51.56777],[-0.1837,51.56795],[-0.18084,51.5694],[-0.18101,51.56967],[-0.17833,51.57001],[-0.17815,51.57051],[-0.17441,51.56925],[-0.17309,51.57142],[-0.17042,51.57265],[-0.1605,51.57278],[-0.15776,51.57205],[-0.15017,51.57155],[-0.14402,51.56996],[-0.14237,51.56925],[-0.14185,51.56816],[-0.14065,51.56441],[-0.14106,51.5605],[-0.13866,51.55714],[-0.13701,51.55526],[-0.13533,51.55464],[-0.1309,51.55138],[-0.13011,51.54956],[-0.12705,51.54744],[-0.12564,51.54201],[-0.12243,51.53705],[-0.12259,51.53075],[-0.11986,51.53095],[-0.11603,51.52989],[-0.11548,51.52776],[-0.11295,51.52641],[-0.11426,51.52551],[-0.11365,51.52456],[-0.11231,51.52368],[-0.109,51.52302],[-0.10826,51.52209],[-0.10703,51.52218],[-0.10532,51.51855],[-0.10785,51.51776],[-0.11383,51.51826],[-0.11159,51.51533],[-0.11385,51.51482],[-0.11472,51.51602],[-0.11948,51.5145],[-0.12209,51.51461],[-0.12288,51.51514],[-0.12767,51.51268],[-0.12941,51.51349],[-0.13081,51.51708],[-0.13254,51.51667],[-0.13243,51.51712],[-0.13403,51.51755],[-0.13523,51.51893],[-0.13699,51.51888],[-0.14287,51.52387],[-0.14359,51.52391],[-0.14348,51.52461],[-0.14412,51.52462],[-0.14411,51.524],[-0.14523,51.52398],[-0.14579,51.52526],[-0.14715,51.52503],[-0.15272,51.53752],[-0.15938,51.53634],[-0.16042,51.5373],[-0.16492,51.53578],[-0.16947,51.53859],[-0.1709,51.53778],[-0.17196,51.5384],[-0.1735,51.53764],[-0.17415,51.53826],[-0.17394,51.53947],[-0.17864,51.53981],[-0.18419,51.53823],[-0.18875,51.53453],[-0.1911,51.53594],[-0.20696,51.54997],[-0.21351,51.55519]]]}},{"type":"Feature","properties":{"id":"turistik-lab-2","kind":"district-label","btype":"turistik","name":"Camden"},"geometry":{"type":"Point","coordinates":[-0.16369,51.54472]}},{"type":"Feature","properties":{"id":"turistik-3","kind":"district","btype":"turistik","name":"Southwark","lab":1},"geometry":{"type":"Polygon","coordinates":[[[-0.11149,51.49646],[-0.11028,51.49676],[-0.10827,51.50047],[-0.10594,51.50203],[-0.1061,51.50252],[-0.10678,51.50221],[-0.10742,51.50303],[-0.10643,51.50337],[-0.10647,51.50491],[-0.10736,51.50707],[-0.10819,51.50692],[-0.10874,51.50776],[-0.10919,51.50987],[-0.10463,51.50987],[-0.10468,51.50841],[-0.10415,51.50855],[-0.10415,51.50986],[-0.10159,51.50981],[-0.0814,51.50711],[-0.06579,51.50245],[-0.06052,51.50168],[-0.05487,51.5028],[-0.0455,51.50793],[-0.0421,51.50859],[-0.03824,51.50849],[-0.03417,51.50759],[-0.0315,51.50644],[-0.02966,51.50406],[-0.02937,51.50269],[-0.0302,51.49607],[-0.02992,51.49353],[-0.03739,51.49222],[-0.04005,51.49293],[-0.04052,51.4928],[-0.04006,51.49218],[-0.04105,51.49183],[-0.0403,51.49104],[-0.04248,51.49001],[-0.04582,51.49021],[-0.04657,51.49067],[-0.05196,51.48911],[-0.05009,51.48833],[-0.05049,51.48792],[-0.05262,51.48755],[-0.054,51.48794],[-0.05288,51.48668],[-0.05295,51.486],[-0.05356,51.48568],[-0.05308,51.48504],[-0.05281,51.48272],[-0.05312,51.48093],[-0.05433,51.47862],[-0.05271,51.47801],[-0.05277,51.47297],[-0.05168,51.46972],[-0.0523,51.46923],[-0.05088,51.46758],[-0.05132,51.46737],[-0.05057,51.46679],[-0.05084,51.46665],[-0.0482,51.46589],[-0.04854,51.46563],[-0.04658,51.46459],[-0.04572,51.46352],[-0.04512,51.46043],[-0.04616,51.45695],[-0.04167,51.455],[-0.04612,51.44986],[-0.04902,51.45011],[-0.05388,51.44869],[-0.05758,51.45034],[-0.06183,51.44779],[-0.06346,51.44526],[-0.06409,51.44201],[-0.06506,51.44116],[-0.06407,51.44084],[-0.06343,51.43757],[-0.06442,51.43705],[-0.06588,51.43463],[-0.06684,51.43388],[-0.06945,51.43274],[-0.07256,51.43243],[-0.07356,51.43141],[-0.07489,51.42975],[-0.07509,51.4288],[-0.07394,51.42615],[-0.07497,51.4257],[-0.07831,51.42061],[-0.07924,51.42087],[-0.07893,51.42157],[-0.07986,51.42214],[-0.0809,51.42186],[-0.08176,51.42338],[-0.08349,51.423],[-0.08373,51.42509],[-0.0852,51.42728],[-0.0861,51.42782],[-0.08591,51.42847],[-0.08797,51.42914],[-0.0887,51.43007],[-0.09105,51.43755],[-0.0945,51.44333],[-0.09526,51.44571],[-0.09916,51.44897],[-0.09982,51.45015],[-0.10079,51.45034],[-0.10148,51.45222],[-0.10111,51.45393],[-0.09584,51.45741],[-0.09497,51.45879],[-0.09233,51.46099],[-0.09068,51.46332],[-0.09008,51.46615],[-0.09274,51.46979],[-0.09305,51.47212],[-0.09417,51.47067],[-0.096,51.46987],[-0.09902,51.47201],[-0.10063,51.47431],[-0.1,51.47686],[-0.10824,51.48029],[-0.10406,51.4809],[-0.10602,51.48271],[-0.10564,51.48294],[-0.1072,51.48364],[-0.10636,51.48489],[-0.10849,51.48585],[-0.10317,51.49149],[-0.10488,51.49353],[-0.11096,51.49547],[-0.11149,51.49646]]]}},{"type":"Feature","properties":{"id":"turistik-lab-3","kind":"district-label","btype":"turistik","name":"Southwark"},"geometry":{"type":"Point","coordinates":[-0.06893,51.46511]}},{"type":"Feature","properties":{"id":"turistik-4","kind":"district","btype":"turistik","name":"Kensington and Chelsea","lab":1},"geometry":{"type":"Polygon","coordinates":[[[-0.22847,51.53032],[-0.22768,51.52991],[-0.22399,51.52999],[-0.21782,51.5286],[-0.2158,51.52784],[-0.21557,51.52671],[-0.21015,51.52666],[-0.20609,51.52589],[-0.204,51.52354],[-0.20165,51.52274],[-0.20064,51.52071],[-0.20377,51.52062],[-0.20147,51.5178],[-0.20079,51.51798],[-0.19999,51.51696],[-0.1992,51.51454],[-0.19508,51.51504],[-0.19403,51.5117],[-0.19294,51.51184],[-0.19215,51.50988],[-0.18788,51.51019],[-0.18423,51.50178],[-0.18033,51.50146],[-0.17955,51.49777],[-0.16817,51.49903],[-0.1676,51.49828],[-0.16574,51.49922],[-0.16544,51.49868],[-0.16093,51.50168],[-0.15848,51.50222],[-0.1579,51.499],[-0.15608,51.49777],[-0.15527,51.49505],[-0.156,51.49446],[-0.155,51.49383],[-0.15599,51.4932],[-0.15477,51.49197],[-0.15583,51.49146],[-0.15519,51.49004],[-0.15586,51.48961],[-0.15018,51.48604],[-0.14983,51.48454],[-0.17081,51.4817],[-0.1751,51.48007],[-0.17777,51.47754],[-0.18049,51.47783],[-0.18376,51.47734],[-0.19407,51.48622],[-0.19858,51.48839],[-0.20232,51.49156],[-0.20186,51.49184],[-0.20304,51.49332],[-0.20736,51.49615],[-0.20798,51.49603],[-0.2142,51.50083],[-0.218,51.50614],[-0.21596,51.5064],[-0.21614,51.50752],[-0.21522,51.50765],[-0.21584,51.50915],[-0.21648,51.50911],[-0.21721,51.5104],[-0.21807,51.51022],[-0.21787,51.50975],[-0.21934,51.50955],[-0.22262,51.51564],[-0.2283,51.52109],[-0.22672,51.52194],[-0.22659,51.52462],[-0.22725,51.52478],[-0.22745,51.52799],[-0.22875,51.5299],[-0.22847,51.53032]]]}},{"type":"Feature","properties":{"id":"turistik-lab-4","kind":"district-label","btype":"turistik","name":"Kensington and Chelsea"},"geometry":{"type":"Point","coordinates":[-0.20093,51.50418]}},{"type":"Feature","properties":{"id":"turistik-5","kind":"district","btype":"turistik","name":"Islington","lab":1},"geometry":{"type":"Polygon","coordinates":[[[-0.14242,51.5691],[-0.14066,51.56943],[-0.13129,51.57356],[-0.12489,51.57409],[-0.11956,51.5755],[-0.1189,51.57473],[-0.11958,51.57438],[-0.11758,51.57414],[-0.11558,51.57258],[-0.11611,51.57218],[-0.11539,51.57188],[-0.11505,51.57059],[-0.10897,51.5676],[-0.09861,51.56081],[-0.09604,51.56121],[-0.0916,51.56016],[-0.09029,51.55781],[-0.09038,51.55415],[-0.08858,51.55394],[-0.08759,51.55284],[-0.08543,51.55213],[-0.07928,51.55156],[-0.07674,51.54817],[-0.07635,51.54631],[-0.08382,51.54658],[-0.0836,51.54517],[-0.08659,51.5373],[-0.09706,51.533],[-0.09513,51.53008],[-0.0954,51.5292],[-0.08886,51.52749],[-0.08699,51.52579],[-0.08504,51.52624],[-0.08477,51.52543],[-0.08549,51.52454],[-0.08523,51.52394],[-0.08424,51.52393],[-0.08498,51.52097],[-0.0862,51.51883],[-0.08998,51.51997],[-0.08979,51.52072],[-0.09434,51.52148],[-0.09512,51.52311],[-0.09644,51.52283],[-0.09678,51.52331],[-0.09797,51.52287],[-0.09738,51.52178],[-0.09769,51.52071],[-0.10532,51.51855],[-0.10703,51.52218],[-0.10826,51.52209],[-0.109,51.52302],[-0.11231,51.52368],[-0.11365,51.52456],[-0.11426,51.52551],[-0.11295,51.52641],[-0.11548,51.52776],[-0.11603,51.52989],[-0.11986,51.53095],[-0.12259,51.53075],[-0.12243,51.53705],[-0.12564,51.54201],[-0.12703,51.54741],[-0.13011,51.54956],[-0.13102,51.55148],[-0.13533,51.55464],[-0.13716,51.55538],[-0.14095,51.56023],[-0.14065,51.56446],[-0.14242,51.5691]]]}},{"type":"Feature","properties":{"id":"turistik-lab-5","kind":"district-label","btype":"turistik","name":"Islington"},"geometry":{"type":"Point","coordinates":[-0.10171,51.54699]}},{"type":"Feature","properties":{"id":"turistik-6","kind":"district","btype":"turistik","name":"Hackney","lab":1},"geometry":{"type":"Polygon","coordinates":[[[-0.1044,51.56476],[-0.09605,51.57065],[-0.09777,51.57362],[-0.08688,51.5743],[-0.08727,51.5747],[-0.08086,51.57564],[-0.07627,51.57493],[-0.07581,51.57549],[-0.06676,51.57634],[-0.06118,51.57778],[-0.05843,51.57252],[-0.0564,51.57079],[-0.05444,51.5703],[-0.05329,51.56866],[-0.05079,51.56754],[-0.04748,51.56518],[-0.04663,51.56411],[-0.04733,51.56303],[-0.04709,51.56257],[-0.04474,51.56169],[-0.04239,51.56137],[-0.04008,51.56178],[-0.03884,51.56116],[-0.03642,51.5615],[-0.03331,51.56062],[-0.02917,51.56128],[-0.02514,51.5594],[-0.02397,51.55737],[-0.01847,51.55518],[-0.0175,51.55339],[-0.01717,51.55158],[-0.019,51.5516],[-0.01894,51.55048],[-0.01713,51.54647],[-0.01658,51.54333],[-0.02561,51.54334],[-0.02902,51.54227],[-0.02958,51.54309],[-0.03326,51.54468],[-0.03776,51.5418],[-0.03717,51.54142],[-0.04139,51.53753],[-0.04485,51.53582],[-0.04719,51.53545],[-0.05094,51.53646],[-0.0524,51.53593],[-0.05288,51.53494],[-0.05505,51.53511],[-0.059,51.53409],[-0.06033,51.53427],[-0.06246,51.53553],[-0.06289,51.53492],[-0.06222,51.53326],[-0.06519,51.53315],[-0.06628,51.53122],[-0.07206,51.53088],[-0.07453,51.52991],[-0.07571,51.52839],[-0.0773,51.5273],[-0.07632,51.52714],[-0.07649,51.52432],[-0.07595,51.52434],[-0.07577,51.52368],[-0.07622,51.52218],[-0.07826,51.52191],[-0.07856,51.52151],[-0.08105,51.52195],[-0.08176,51.52076],[-0.08333,51.51981],[-0.08526,51.52035],[-0.08424,51.52393],[-0.08523,51.52394],[-0.08549,51.52454],[-0.08477,51.52543],[-0.08504,51.52624],[-0.08699,51.52579],[-0.08886,51.52749],[-0.0954,51.5292],[-0.09513,51.53008],[-0.09706,51.533],[-0.08659,51.5373],[-0.0836,51.54517],[-0.08382,51.54658],[-0.07672,51.54607],[-0.07633,51.54636],[-0.07672,51.54813],[-0.07956,51.55175],[-0.08543,51.55213],[-0.08759,51.55284],[-0.08858,51.55394],[-0.09038,51.55415],[-0.09029,51.55781],[-0.0916,51.56016],[-0.09604,51.56121],[-0.09861,51.56081],[-0.1044,51.56476]]]}},{"type":"Feature","properties":{"id":"turistik-lab-6","kind":"district-label","btype":"turistik","name":"Hackney"},"geometry":{"type":"Point","coordinates":[-0.04803,51.54931]}},{"type":"Feature","properties":{"id":"turistik-7","kind":"district","btype":"turistik","name":"Tower Hamlets","lab":1},"geometry":{"type":"Polygon","coordinates":[[[-0.08021,51.50687],[-0.07873,51.50883],[-0.0791,51.50906],[-0.07884,51.50946],[-0.07788,51.51008],[-0.07624,51.51056],[-0.07554,51.50973],[-0.07277,51.51037],[-0.07363,51.51409],[-0.07693,51.51665],[-0.07813,51.51898],[-0.07944,51.51888],[-0.07826,51.52191],[-0.07648,51.52204],[-0.07581,51.52308],[-0.07595,51.52434],[-0.07652,51.52455],[-0.07632,51.52714],[-0.0773,51.5273],[-0.07571,51.52839],[-0.0746,51.52985],[-0.07206,51.53088],[-0.06628,51.53122],[-0.06519,51.53315],[-0.06222,51.53326],[-0.06289,51.53492],[-0.06246,51.53553],[-0.06033,51.53427],[-0.059,51.53409],[-0.05505,51.53511],[-0.05288,51.53494],[-0.0524,51.53593],[-0.05094,51.53646],[-0.04719,51.53545],[-0.04485,51.53582],[-0.04139,51.53753],[-0.03717,51.54142],[-0.03776,51.5418],[-0.03315,51.54469],[-0.02958,51.54309],[-0.02902,51.54227],[-0.02561,51.54334],[-0.01658,51.54333],[-0.01609,51.54254],[-0.01652,51.54151],[-0.01775,51.54093],[-0.01943,51.53828],[-0.02109,51.53735],[-0.02117,51.53652],[-0.01935,51.53519],[-0.01896,51.53412],[-0.01799,51.53327],[-0.01823,51.53245],[-0.01744,51.53149],[-0.01397,51.52993],[-0.01093,51.5294],[-0.00752,51.5262],[-0.00815,51.52359],[-0.00781,51.52283],[-0.00904,51.52075],[-0.00885,51.51979],[-0.00681,51.51875],[-0.00538,51.51659],[-0.00456,51.5167],[-0.00365,51.51773],[-0.00229,51.51796],[0.00381,51.51513],[0.00409,51.51449],[0.0023,51.51143],[0.0025,51.51064],[0.00426,51.5109],[0.00468,51.5131],[0.00548,51.51413],[0.00729,51.51419],[0.00799,51.51271],[0.00593,51.50999],[0.00905,51.5091],[0.00986,51.50833],[0.00918,51.50698],[0.0076,51.50551],[0.00418,51.5067],[0.00157,51.50668],[-0.00132,51.50587],[-0.00367,51.50406],[-0.00469,51.50253],[-0.00509,51.50012],[-0.00411,51.49758],[-0.00083,51.49266],[-0.00045,51.49091],[-0.00078,51.48932],[-0.00219,51.48768],[-0.00575,51.48581],[-0.01337,51.48452],[-0.01765,51.48477],[-0.02108,51.48577],[-0.02469,51.48748],[-0.02785,51.49006],[-0.02982,51.49303],[-0.03014,51.49467],[-0.02937,51.50269],[-0.02966,51.50406],[-0.0315,51.50644],[-0.03417,51.50759],[-0.03962,51.50862],[-0.04393,51.50837],[-0.0455,51.50793],[-0.05487,51.5028],[-0.0599,51.50167],[-0.06579,51.50245],[-0.08021,51.50687]]]}},{"type":"Feature","properties":{"id":"turistik-lab-7","kind":"district-label","btype":"turistik","name":"Tower Hamlets"},"geometry":{"type":"Point","coordinates":[-0.0353,51.51481]}},{"type":"Feature","properties":{"id":"turistik-8","kind":"district","btype":"turistik","name":"Lambeth","lab":1},"geometry":{"type":"Polygon","coordinates":[[[-0.14969,51.4613],[-0.15097,51.46384],[-0.15123,51.46586],[-0.15047,51.46598],[-0.15062,51.46761],[-0.1431,51.47052],[-0.14268,51.47006],[-0.14034,51.47159],[-0.13987,51.47132],[-0.13835,51.47196],[-0.13692,51.47309],[-0.13535,51.47287],[-0.13445,51.47392],[-0.13523,51.47429],[-0.12995,51.48118],[-0.1275,51.48202],[-0.12636,51.48447],[-0.12817,51.48474],[-0.12949,51.48589],[-0.12676,51.488],[-0.12404,51.49119],[-0.12299,51.49378],[-0.12066,51.5059],[-0.11834,51.5081],[-0.11632,51.50895],[-0.10919,51.50987],[-0.10874,51.50776],[-0.10819,51.50692],[-0.10736,51.50707],[-0.10647,51.50491],[-0.10643,51.50337],[-0.10742,51.50303],[-0.10678,51.50221],[-0.1061,51.50252],[-0.10594,51.50203],[-0.10827,51.50047],[-0.11028,51.49676],[-0.11149,51.49646],[-0.11096,51.49547],[-0.10488,51.49353],[-0.10317,51.49149],[-0.10849,51.48585],[-0.10636,51.48489],[-0.1072,51.48364],[-0.10564,51.48294],[-0.10602,51.48271],[-0.10406,51.4809],[-0.10825,51.48031],[-0.1,51.47686],[-0.10063,51.47431],[-0.09902,51.47201],[-0.096,51.46987],[-0.09417,51.47067],[-0.09305,51.47212],[-0.09274,51.46979],[-0.09007,51.46607],[-0.09068,51.46332],[-0.09225,51.46108],[-0.09497,51.45879],[-0.09584,51.45741],[-0.10102,51.45403],[-0.10143,51.45198],[-0.10079,51.45034],[-0.09975,51.4501],[-0.09916,51.44897],[-0.09618,51.44684],[-0.09515,51.44553],[-0.0945,51.44333],[-0.09105,51.43755],[-0.08836,51.42952],[-0.08591,51.42847],[-0.0861,51.42782],[-0.0852,51.42728],[-0.08373,51.42509],[-0.08349,51.423],[-0.08176,51.42338],[-0.0809,51.42186],[-0.07986,51.42214],[-0.07893,51.42157],[-0.07927,51.42091],[-0.07831,51.42061],[-0.07858,51.41987],[-0.0864,51.4193],[-0.09379,51.42277],[-0.10599,51.42259],[-0.11266,51.42324],[-0.11572,51.42058],[-0.11985,51.41881],[-0.12248,51.41503],[-0.12407,51.41461],[-0.12447,51.41337],[-0.12791,51.412],[-0.13271,51.41235],[-0.13359,51.41258],[-0.13353,51.41294],[-0.13411,51.41099],[-0.14262,51.41335],[-0.14482,51.41239],[-0.14809,51.41287],[-0.14434,51.41535],[-0.14501,51.41579],[-0.13785,51.42111],[-0.13892,51.42457],[-0.1384,51.43056],[-0.13526,51.43033],[-0.13646,51.43383],[-0.13786,51.43378],[-0.13857,51.43435],[-0.13961,51.43531],[-0.13996,51.43685],[-0.13766,51.43859],[-0.13748,51.44019],[-0.13701,51.44025],[-0.13591,51.44201],[-0.14362,51.44184],[-0.1457,51.44587],[-0.1448,51.44854],[-0.14336,51.44951],[-0.14232,51.45099],[-0.14773,51.45234],[-0.14738,51.45296],[-0.14969,51.4613]]]}},{"type":"Feature","properties":{"id":"turistik-lab-8","kind":"district-label","btype":"turistik","name":"Lambeth"},"geometry":{"type":"Point","coordinates":[-0.12146,51.45994]}},{"type":"Feature","properties":{"id":"turistik-9","kind":"district","btype":"turistik","name":"Hammersmith and Fulham","lab":1},"geometry":{"type":"Polygon","coordinates":[[[-0.25306,51.50142],[-0.25339,51.50289],[-0.25509,51.50433],[-0.25255,51.50471],[-0.2457,51.50463],[-0.2465,51.50671],[-0.24516,51.50677],[-0.24646,51.51082],[-0.2491,51.5141],[-0.25071,51.5192],[-0.25034,51.52018],[-0.25194,51.52228],[-0.25251,51.52508],[-0.25036,51.52706],[-0.25058,51.52781],[-0.25009,51.52819],[-0.25043,51.52838],[-0.24972,51.52901],[-0.2469,51.53075],[-0.24541,51.53104],[-0.247,51.53178],[-0.24631,51.53274],[-0.24326,51.53176],[-0.23755,51.532],[-0.23441,51.53263],[-0.23157,51.53118],[-0.22847,51.53032],[-0.22875,51.5299],[-0.22745,51.52799],[-0.22725,51.52478],[-0.22659,51.52462],[-0.22672,51.52194],[-0.2283,51.52109],[-0.22262,51.51564],[-0.21934,51.50955],[-0.21787,51.50975],[-0.21807,51.51022],[-0.21721,51.5104],[-0.21648,51.50911],[-0.21584,51.50915],[-0.21522,51.50765],[-0.21614,51.50752],[-0.21596,51.5064],[-0.218,51.50614],[-0.2142,51.50083],[-0.20798,51.49603],[-0.20736,51.49615],[-0.20304,51.49332],[-0.20186,51.49184],[-0.20232,51.49156],[-0.19858,51.48839],[-0.19407,51.48622],[-0.1838,51.47737],[-0.17934,51.47782],[-0.17777,51.47754],[-0.17765,51.4768],[-0.17902,51.47342],[-0.18289,51.46753],[-0.18505,51.46606],[-0.18869,51.46469],[-0.19485,51.4639],[-0.20102,51.46415],[-0.21164,51.46645],[-0.21781,51.46923],[-0.22425,51.47475],[-0.22554,51.47699],[-0.22572,51.48211],[-0.22697,51.48517],[-0.22809,51.48646],[-0.23198,51.48898],[-0.23474,51.48965],[-0.24009,51.48934],[-0.24339,51.48789],[-0.24497,51.489],[-0.24562,51.49022],[-0.24444,51.49794],[-0.24528,51.49834],[-0.24923,51.49695],[-0.25131,51.49986],[-0.25306,51.50142]]]}},{"type":"Feature","properties":{"id":"turistik-lab-9","kind":"district-label","btype":"turistik","name":"Hammersmith and Fulham"},"geometry":{"type":"Point","coordinates":[-0.22779,51.49814]}},{"type":"Feature","properties":{"id":"turistik-10","kind":"district","btype":"turistik","name":"Greenwich","lab":1},"geometry":{"type":"Polygon","coordinates":[[[-0.02344,51.4868],[-0.01817,51.48488],[-0.01247,51.48456],[-0.00575,51.48581],[-0.00175,51.48802],[-0.00058,51.48984],[-0.00058,51.49192],[-0.00453,51.49834],[-0.00504,51.50146],[-0.00433,51.50324],[-0.00277,51.50494],[0.00048,51.5065],[0.00418,51.5067],[0.0076,51.50551],[0.01622,51.49881],[0.01919,51.49736],[0.02401,51.49615],[0.02905,51.49609],[0.04419,51.49737],[0.05863,51.49643],[0.06619,51.49677],[0.07319,51.49786],[0.0771,51.49949],[0.08027,51.50216],[0.08495,51.50749],[0.08805,51.50969],[0.09074,51.51093],[0.09971,51.5119],[0.10798,51.51154],[0.11829,51.51358],[0.1205,51.5111],[0.12144,51.48755],[0.12205,51.48571],[0.12209,51.48221],[0.12416,51.47685],[0.12087,51.47845],[0.11844,51.4789],[0.11196,51.47307],[0.10816,51.47612],[0.10615,51.47502],[0.10488,51.47553],[0.10332,51.47459],[0.10248,51.47492],[0.10198,51.47446],[0.09822,51.47545],[0.09655,51.47325],[0.09408,51.4732],[0.09152,51.47219],[0.0891,51.47045],[0.08577,51.46943],[0.08321,51.46648],[0.08229,51.46664],[0.08211,51.46476],[0.0826,51.46358],[0.08223,51.46113],[0.08292,51.45983],[0.07865,51.45929],[0.08148,51.45775],[0.08567,51.45665],[0.08683,51.45043],[0.08785,51.4487],[0.08809,51.44726],[0.08739,51.44575],[0.08634,51.44531],[0.0874,51.44328],[0.08471,51.4426],[0.08316,51.44354],[0.0828,51.44328],[0.08297,51.44273],[0.08443,51.44198],[0.08179,51.43997],[0.08086,51.4404],[0.07781,51.43644],[0.07654,51.43687],[0.07495,51.43587],[0.0765,51.43486],[0.07588,51.43446],[0.07637,51.43401],[0.07567,51.43362],[0.07608,51.43328],[0.07464,51.43215],[0.07533,51.43199],[0.07483,51.43081],[0.07333,51.43176],[0.07305,51.43136],[0.07345,51.43125],[0.07161,51.4294],[0.06659,51.4265],[0.06656,51.42601],[0.0647,51.4256],[0.06327,51.42422],[0.06168,51.4237],[0.06098,51.42508],[0.05857,51.42459],[0.05638,51.42616],[0.05103,51.43153],[0.04778,51.43375],[0.04516,51.4366],[0.04331,51.43775],[0.04215,51.43948],[0.04,51.44087],[0.03348,51.44358],[0.03052,51.44433],[0.02959,51.44174],[0.02582,51.44168],[0.02148,51.44273],[0.0206,51.44421],[0.02149,51.44444],[0.02122,51.4467],[0.02295,51.44727],[0.02195,51.44894],[0.01507,51.45001],[0.01491,51.45061],[0.0151,51.45021],[0.01986,51.45073],[0.01953,51.45171],[0.01832,51.45157],[0.01752,51.45503],[0.01151,51.45661],[0.0099,51.45953],[0.00907,51.46587],[0.01324,51.46684],[0.01268,51.4674],[0.01306,51.46815],[0.01258,51.46981],[0.01652,51.46913],[0.01498,51.47308],[0.01794,51.47383],[-0.00092,51.4718],[-0.00826,51.47276],[-0.01259,51.47234],[-0.01407,51.47267],[-0.01517,51.47175],[-0.01313,51.46894],[-0.01511,51.46805],[-0.01659,51.46926],[-0.01914,51.47001],[-0.01927,51.47051],[-0.01868,51.47069],[-0.01933,51.47204],[-0.02034,51.47231],[-0.02,51.473],[-0.02284,51.47448],[-0.02289,51.47531],[-0.02093,51.47555],[-0.02062,51.47671],[-0.01912,51.47725],[-0.0188,51.47961],[-0.01686,51.48025],[-0.01801,51.48086],[-0.02043,51.48022],[-0.02033,51.47991],[-0.02307,51.47966],[-0.02331,51.48078],[-0.0264,51.4815],[-0.0258,51.48211],[-0.02519,51.48502],[-0.02344,51.4868]]]}},{"type":"Feature","properties":{"id":"turistik-lab-10","kind":"district-label","btype":"turistik","name":"Greenwich"},"geometry":{"type":"Point","coordinates":[0.04897,51.46855]}}]}