{"type":"FeatureCollection","features":[{"type":"Feature","properties":{"id":"turistik-0","kind":"district","btype":"turistik","name":"Centro storico","lab":1},"geometry":{"type":"Polygon","coordinates":[[[11.86414,45.40406],[11.86417,45.40744],[11.86388,45.40745],[11.86372,45.40774],[11.86391,45.408],[11.86419,45.40798],[11.86455,45.4113],[11.86429,45.41131],[11.86418,45.41153],[11.86433,45.41172],[11.8646,45.4117],[11.86497,45.41529],[11.86413,45.41622],[11.86391,45.41625],[11.86382,45.41639],[11.86397,45.41654],[11.86423,45.41648],[11.86612,45.41713],[11.86769,45.41798],[11.86741,45.41819],[11.86793,45.4186],[11.86862,45.41842],[11.86856,45.41811],[11.87014,45.41796],[11.8723,45.41828],[11.87219,45.41858],[11.87302,45.41882],[11.87348,45.41833],[11.8732,45.41812],[11.87469,45.4172],[11.87533,45.41601],[11.87523,45.41591],[11.87459,45.41533],[11.87533,45.41601],[11.87649,45.41385],[11.87715,45.41333],[11.87807,45.41286],[11.87895,45.41323],[11.879,45.41309],[11.87953,45.41298],[11.87958,45.41315],[11.87982,45.41315],[11.8799,45.41305],[11.8798,45.41292],[11.88178,45.41119],[11.89802,45.40902],[11.89816,45.40918],[11.8984,45.4092],[11.89863,45.409],[11.89831,45.40878],[11.8978,45.40728],[11.89806,45.40703],[11.89809,45.4067],[11.89786,45.40642],[11.89745,45.40628],[11.89691,45.40474],[11.89706,45.4046],[11.89694,45.40441],[11.89665,45.40441],[11.89612,45.40482],[11.89582,45.40468],[11.89601,45.40444],[11.89205,45.40359],[11.89222,45.40324],[11.89173,45.40283],[11.891,45.40296],[11.89083,45.40335],[11.88639,45.40235],[11.88391,45.3989],[11.88407,45.39854],[11.8843,45.39847],[11.88437,45.39829],[11.88419,45.39817],[11.88388,45.39826],[11.88335,45.39814],[11.88072,45.39447],[11.88093,45.39428],[11.88085,45.39406],[11.88042,45.39398],[11.8802,45.39416],[11.87535,45.39277],[11.87555,45.39243],[11.87513,45.39211],[11.87453,45.39212],[11.87429,45.39248],[11.86833,45.39063],[11.86833,45.39045],[11.86803,45.39027],[11.86768,45.39031],[11.86757,45.39047],[11.86782,45.39078],[11.8658,45.3961],[11.86558,45.39618],[11.86574,45.39631],[11.86554,45.39911],[11.8646,45.39951],[11.86419,45.39939],[11.864,45.3995],[11.86415,45.39967],[11.86416,45.40343],[11.86387,45.40344],[11.86375,45.40373],[11.86389,45.40407],[11.86414,45.40406]]]}},{"type":"Feature","properties":{"id":"turistik-lab-0","kind":"district-label","btype":"turistik","name":"Centro storico"},"geometry":{"type":"Point","coordinates":[11.88005,45.40452]}}]}