{"type":"FeatureCollection","features":[{"type":"Feature","properties":{"id":"egitim-0","kind":"district","btype":"egitim","name":"Campus Agripolis","lab":1},"geometry":{"type":"Polygon","coordinates":[[[11.95546,45.34758],[11.9566,45.34683],[11.95881,45.34856],[11.95992,45.3478],[11.96026,45.34717],[11.95982,45.34649],[11.95775,45.34506],[11.95721,45.34378],[11.95594,45.34389],[11.95587,45.34342],[11.95565,45.3433],[11.95429,45.34351],[11.95455,45.34448],[11.95566,45.3458],[11.95505,45.34623],[11.95546,45.34758]]]}},{"type":"Feature","properties":{"id":"egitim-lab-0","kind":"district-label","btype":"egitim","name":"Campus Agripolis"},"geometry":{"type":"Point","coordinates":[11.95725,45.34602]}},{"type":"Feature","properties":{"id":"egitim-1","kind":"district","btype":"egitim","name":"Caserma Piave","lab":1},"geometry":{"type":"Polygon","coordinates":[[[11.86457,45.40242],[11.86458,45.40414],[11.86646,45.40436],[11.86646,45.40463],[11.86718,45.40458],[11.86712,45.40434],[11.86799,45.40423],[11.86778,45.40334],[11.86756,45.40336],[11.86745,45.40292],[11.8669,45.403],[11.86678,45.40258],[11.86721,45.40256],[11.86716,45.40228],[11.86457,45.40242]]]}},{"type":"Feature","properties":{"id":"egitim-lab-1","kind":"district-label","btype":"egitim","name":"Caserma Piave"},"geometry":{"type":"Point","coordinates":[11.86623,45.40375]}},{"type":"Feature","properties":{"id":"egitim-2","kind":"district","btype":"egitim","name":"Dipartimento di Ingegneria Meccanica","lab":1},"geometry":{"type":"Polygon","coordinates":[[[11.89361,45.4116],[11.89277,45.41022],[11.89151,45.41039],[11.89193,45.41191],[11.89361,45.4116]]]}},{"type":"Feature","properties":{"id":"egitim-lab-2","kind":"district-label","btype":"egitim","name":"Dipartimento di Ingegneria Meccanica"},"geometry":{"type":"Point","coordinates":[11.89246,45.41099]}},{"type":"Feature","properties":{"id":"egitim-3","kind":"district","btype":"egitim","name":"Dipartimento di Farmacia","lab":1},"geometry":{"type":"Polygon","coordinates":[[[11.88724,45.40932],[11.88539,45.4096],[11.8857,45.41049],[11.88796,45.41019],[11.88724,45.40932]]]}},{"type":"Feature","properties":{"id":"egitim-lab-3","kind":"district-label","btype":"egitim","name":"Dipartimento di Farmacia"},"geometry":{"type":"Point","coordinates":[11.88661,45.4099]}},{"type":"Feature","properties":{"id":"egitim-4","kind":"district","btype":"egitim","name":"Facoltà di Scienze Matematiche, Fisiche e Naturali","lab":1},"geometry":{"type":"Polygon","coordinates":[[[11.88539,45.4096],[11.88366,45.40988],[11.88315,45.41044],[11.88417,45.41074],[11.8857,45.41049],[11.88539,45.4096]]]}},{"type":"Feature","properties":{"id":"egitim-lab-4","kind":"district-label","btype":"egitim","name":"Facoltà di Scienze Matematiche, Fisiche e Naturali"},"geometry":{"type":"Point","coordinates":[11.8845,45.41016]}},{"type":"Feature","properties":{"id":"egitim-5","kind":"district","btype":"egitim","name":"Dipartimento di Ingegneria Civile, Edile e Ambientale","lab":1},"geometry":{"type":"Polygon","coordinates":[[[11.88724,45.40932],[11.88796,45.41019],[11.88972,45.40991],[11.88944,45.40899],[11.88724,45.40932]]]}},{"type":"Feature","properties":{"id":"egitim-lab-5","kind":"district-label","btype":"egitim","name":"Dipartimento di Ingegneria Civile, Edile e Ambientale"},"geometry":{"type":"Point","coordinates":[11.88856,45.40962]}},{"type":"Feature","properties":{"id":"egitim-6","kind":"district","btype":"egitim","name":"Dipartimento di Ingegneria dell'Informazione DEI, Dipartimento di Ingegneria Industriale DII","lab":1},"geometry":{"type":"Polygon","coordinates":[[[11.89413,45.40937],[11.89508,45.40925],[11.8946,45.40744],[11.89348,45.40759],[11.89359,45.4084],[11.89391,45.40836],[11.89413,45.40937]]]}},{"type":"Feature","properties":{"id":"egitim-lab-6","kind":"district-label","btype":"egitim","name":"Dipartimento di Ingegneria dell'Informazione DEI, Dipartimento di Ingegneria Industriale DII"},"geometry":{"type":"Point","coordinates":[11.89449,45.40882]}},{"type":"Feature","properties":{"id":"egitim-7","kind":"district","btype":"egitim","name":"Complesso Interdipartimentale Biologico-Medico \"A. Vallisneri\"","lab":1},"geometry":{"type":"Polygon","coordinates":[[[11.89037,45.41055],[11.89052,45.41109],[11.8903,45.41113],[11.89066,45.41187],[11.89103,45.41174],[11.89134,45.41206],[11.89193,45.41191],[11.89151,45.41039],[11.89037,45.41055]]]}},{"type":"Feature","properties":{"id":"egitim-lab-7","kind":"district-label","btype":"egitim","name":"Complesso Interdipartimentale Biologico-Medico \"A. Vallisneri\""},"geometry":{"type":"Point","coordinates":[11.89112,45.41143]}},{"type":"Feature","properties":{"id":"egitim-8","kind":"district","btype":"egitim","name":"Seminario Maggiore di Padova","lab":1},"geometry":{"type":"Polygon","coordinates":[[[11.87327,45.40042],[11.8723,45.40059],[11.8724,45.40127],[11.87417,45.40138],[11.87446,45.40097],[11.87445,45.40064],[11.87327,45.40042]]]}},{"type":"Feature","properties":{"id":"egitim-lab-8","kind":"district-label","btype":"egitim","name":"Seminario Maggiore di Padova"},"geometry":{"type":"Point","coordinates":[11.87339,45.4008]}},{"type":"Feature","properties":{"id":"egitim-9","kind":"district","btype":"egitim","name":"Complesso Didattico Campagnola","lab":1},"geometry":{"type":"Polygon","coordinates":[[[11.8678,45.41268],[11.868,45.41398],[11.86884,45.4137],[11.86882,45.41263],[11.8678,45.41268]]]}},{"type":"Feature","properties":{"id":"egitim-lab-9","kind":"district-label","btype":"egitim","name":"Complesso Didattico Campagnola"},"geometry":{"type":"Point","coordinates":[11.86836,45.41319]}}]}