{"type":"FeatureCollection","features":[{"type":"Feature","properties":{"id":"ih-eczane-0","kind":"poi","name":"Ai due Gigli","theme":"eczane","lab":1},"geometry":{"type":"Point","coordinates":[11.8732,45.40913]}},{"type":"Feature","properties":{"id":"ih-eczane-1","kind":"poi","name":"Bellato","theme":"eczane","lab":1},"geometry":{"type":"Point","coordinates":[11.86792,45.40554]}},{"type":"Feature","properties":{"id":"ih-eczane-2","kind":"poi","name":"Colombo","theme":"eczane","lab":1},"geometry":{"type":"Point","coordinates":[11.78265,45.3494]}},{"type":"Feature","properties":{"id":"ih-eczane-3","kind":"poi","name":"Dr. Max","theme":"eczane","lab":1},"geometry":{"type":"Point","coordinates":[11.79956,45.49232]}},{"type":"Feature","properties":{"id":"ih-eczane-4","kind":"poi","name":"Farmacia ai Ferri","theme":"eczane","lab":1},"geometry":{"type":"Point","coordinates":[11.86931,45.35609]}},{"type":"Feature","properties":{"id":"ih-eczane-5","kind":"poi","name":"Farmacia al Santo","theme":"eczane","lab":1},"geometry":{"type":"Point","coordinates":[11.8792,45.40312]}},{"type":"Feature","properties":{"id":"ih-eczane-6","kind":"poi","name":"Farmacia alla Castagnara","theme":"eczane","lab":1},"geometry":{"type":"Point","coordinates":[11.90154,45.45479]}},{"type":"Feature","properties":{"id":"ih-eczane-7","kind":"poi","name":"Farmacia alla Stanga","theme":"eczane","lab":1},"geometry":{"type":"Point","coordinates":[11.90608,45.4106]}},{"type":"Feature","properties":{"id":"ih-eczane-8","kind":"poi","name":"Farmacia Arcella","theme":"eczane","lab":1},"geometry":{"type":"Point","coordinates":[11.88346,45.42303]}},{"type":"Feature","properties":{"id":"ih-eczane-9","kind":"poi","name":"Farmacia Benessere","theme":"eczane","lab":1},"geometry":{"type":"Point","coordinates":[11.86857,45.43452]}},{"type":"Feature","properties":{"id":"ih-eczane-10","kind":"poi","name":"Farmacia Bresciani","theme":"eczane","lab":1},"geometry":{"type":"Point","coordinates":[11.88264,45.45744]}},{"type":"Feature","properties":{"id":"ih-eczane-11","kind":"poi","name":"Farmacia Cappellini","theme":"eczane","lab":1},"geometry":{"type":"Point","coordinates":[11.93109,45.43392]}},{"type":"Feature","properties":{"id":"ih-eczane-12","kind":"poi","name":"Farmacia Cason","theme":"eczane","lab":1},"geometry":{"type":"Point","coordinates":[11.86337,45.41571]}},{"type":"Feature","properties":{"id":"ih-eczane-13","kind":"poi","name":"Farmacia Ciato","theme":"eczane","lab":1},"geometry":{"type":"Point","coordinates":[11.88038,45.3892]}},{"type":"Feature","properties":{"id":"ih-eczane-14","kind":"poi","name":"Farmacia Comunale Alla Pace","theme":"eczane","lab":1},"geometry":{"type":"Point","coordinates":[11.88545,45.41382]}},{"type":"Feature","properties":{"id":"ih-eczane-15","kind":"poi","name":"Farmacia comunale di Villafranca Padovana","theme":"eczane","lab":1},"geometry":{"type":"Point","coordinates":[11.82945,45.44829]}},{"type":"Feature","properties":{"id":"ih-eczane-16","kind":"poi","name":"Farmacia Comunale Palestro","theme":"eczane","lab":1},"geometry":{"type":"Point","coordinates":[11.85902,45.40728]}},{"type":"Feature","properties":{"id":"ih-eczane-17","kind":"poi","name":"Farmacia Comunale S. Lorenzo","theme":"eczane","lab":1},"geometry":{"type":"Point","coordinates":[11.89563,45.42499]}},{"type":"Feature","properties":{"id":"ih-eczane-18","kind":"poi","name":"Farmacia Comunale Santa Rita","theme":"eczane","lab":1},"geometry":{"type":"Point","coordinates":[11.88871,45.39618]}},{"type":"Feature","properties":{"id":"ih-eczane-19","kind":"poi","name":"Farmacia Dott. Arturo Carraro","theme":"eczane","lab":1},"geometry":{"type":"Point","coordinates":[11.86306,45.39265]}},{"type":"Feature","properties":{"id":"ih-eczane-20","kind":"poi","name":"Farmacia Feriole Dr. Gobbin Alessandro","theme":"eczane","lab":1},"geometry":{"type":"Point","coordinates":[11.76129,45.37824]}},{"type":"Feature","properties":{"id":"ih-eczane-21","kind":"poi","name":"Farmacia Foscarin","theme":"eczane","lab":1},"geometry":{"type":"Point","coordinates":[11.76151,45.44043]}},{"type":"Feature","properties":{"id":"ih-eczane-22","kind":"poi","name":"Farmacia Fraccalanza Sas","theme":"eczane","lab":1},"geometry":{"type":"Point","coordinates":[12.01991,45.40438]}},{"type":"Feature","properties":{"id":"ih-eczane-23","kind":"poi","name":"Farmacia Gennaro","theme":"eczane","lab":1},"geometry":{"type":"Point","coordinates":[11.94279,45.40132]}},{"type":"Feature","properties":{"id":"ih-eczane-24","kind":"poi","name":"Farmacia Genta","theme":"eczane","lab":1},"geometry":{"type":"Point","coordinates":[11.84085,45.41222]}},{"type":"Feature","properties":{"id":"ih-eczane-25","kind":"poi","name":"Farmacia Giuliani","theme":"eczane","lab":1},"geometry":{"type":"Point","coordinates":[11.8932,45.44299]}},{"type":"Feature","properties":{"id":"ih-eczane-26","kind":"poi","name":"Farmacia Meltias Sanfiori","theme":"eczane","lab":1},"geometry":{"type":"Point","coordinates":[11.82549,45.41816]}},{"type":"Feature","properties":{"id":"ih-eczane-27","kind":"poi","name":"Farmacia Miani","theme":"eczane","lab":1},"geometry":{"type":"Point","coordinates":[11.85013,45.42598]}},{"type":"Feature","properties":{"id":"ih-eczane-28","kind":"poi","name":"Farmacia Moderna Bartoli","theme":"eczane","lab":1},"geometry":{"type":"Point","coordinates":[11.87835,45.42657]}},{"type":"Feature","properties":{"id":"ih-eczane-29","kind":"poi","name":"Farmacia Montagna","theme":"eczane","lab":1},"geometry":{"type":"Point","coordinates":[11.86772,45.34744]}},{"type":"Feature","properties":{"id":"ih-eczane-30","kind":"poi","name":"Farmacia Sacra Famiglia","theme":"eczane","lab":1},"geometry":{"type":"Point","coordinates":[11.86204,45.39861]}},{"type":"Feature","properties":{"id":"ih-eczane-31","kind":"poi","name":"Farmacia San Biagio","theme":"eczane","lab":1},"geometry":{"type":"Point","coordinates":[11.96205,45.33782]}},{"type":"Feature","properties":{"id":"ih-eczane-32","kind":"poi","name":"Farmacia Santa Giustina","theme":"eczane","lab":1},"geometry":{"type":"Point","coordinates":[11.87736,45.3997]}},{"type":"Feature","properties":{"id":"ih-eczane-33","kind":"poi","name":"Farmacia Sarmeola","theme":"eczane","lab":1},"geometry":{"type":"Point","coordinates":[11.80679,45.42215]}},{"type":"Feature","properties":{"id":"ih-eczane-34","kind":"poi","name":"Farmacia Tocchetto","theme":"eczane","lab":1},"geometry":{"type":"Point","coordinates":[11.86811,45.41061]}},{"type":"Feature","properties":{"id":"ih-eczane-35","kind":"poi","name":"Farmacia Veronese","theme":"eczane","lab":1},"geometry":{"type":"Point","coordinates":[11.78788,45.42698]}},{"type":"Feature","properties":{"id":"ih-eczane-36","kind":"poi","name":"Il Rimedio Parafarmacia Omeopatia","theme":"eczane","lab":1},"geometry":{"type":"Point","coordinates":[11.79522,45.43023]}},{"type":"Feature","properties":{"id":"ih-eczane-37","kind":"poi","name":"Internazionale","theme":"eczane","lab":1},"geometry":{"type":"Point","coordinates":[11.78011,45.35234]}},{"type":"Feature","properties":{"id":"ih-eczane-38","kind":"poi","name":"Lafarmacia.","theme":"eczane","lab":1},"geometry":{"type":"Point","coordinates":[11.87459,45.40766]}},{"type":"Feature","properties":{"id":"ih-eczane-39","kind":"poi","name":"Lafarmacia.","theme":"eczane","lab":1},"geometry":{"type":"Point","coordinates":[11.78105,45.39255]}},{"type":"Feature","properties":{"id":"ih-eczane-40","kind":"poi","name":"Lafarmacia.Marocchi","theme":"eczane","lab":1},"geometry":{"type":"Point","coordinates":[12.00831,45.38544]}},{"type":"Feature","properties":{"id":"ih-eczane-41","kind":"poi","name":"Parafarmacia Dott.ssa Barbara Bertin","theme":"eczane","lab":1},"geometry":{"type":"Point","coordinates":[11.96388,45.34485]}},{"type":"Feature","properties":{"id":"ih-eczane-42","kind":"poi","name":"Parafarmacia ÈQUI","theme":"eczane","lab":1},"geometry":{"type":"Point","coordinates":[11.88039,45.41757]}},{"type":"Feature","properties":{"id":"ih-eczane-43","kind":"poi","name":"Zambon","theme":"eczane","lab":1},"geometry":{"type":"Point","coordinates":[11.88444,45.38065]}},{"type":"Feature","properties":{"id":"ih-eczane-44","kind":"poi","name":"Ziliotto Pattanaro","theme":"eczane","lab":1},"geometry":{"type":"Point","coordinates":[11.91506,45.3731]}},{"type":"Feature","properties":{"id":"ih-hastane-0","kind":"poi","name":"Ambulatorio di Salute Mentale","theme":"hastane","lab":1},"geometry":{"type":"Point","coordinates":[11.78783,45.33238]}},{"type":"Feature","properties":{"id":"ih-hastane-1","kind":"poi","name":"Azienda Ospedaliera di Padova","theme":"hastane","lab":1},"geometry":{"type":"Point","coordinates":[11.89067,45.40355]}},{"type":"Feature","properties":{"id":"ih-hastane-2","kind":"poi","name":"Azienda Ospedaliera di Padova","theme":"hastane","lab":1},"geometry":{"type":"Point","coordinates":[11.88691,45.40284]}},{"type":"Feature","properties":{"id":"ih-hastane-3","kind":"poi","name":"Casa di Cura Villa Maria","theme":"hastane","lab":1},"geometry":{"type":"Point","coordinates":[11.86003,45.41005]}},{"type":"Feature","properties":{"id":"ih-hastane-4","kind":"poi","name":"Centro Medico di Foniatria - Casa di Cura \"Trieste\"","theme":"hastane","lab":1},"geometry":{"type":"Point","coordinates":[11.86012,45.39945]}},{"type":"Feature","properties":{"id":"ih-hastane-5","kind":"poi","name":"Croce Rossa","theme":"hastane","lab":1},"geometry":{"type":"Point","coordinates":[11.91603,45.41182]}},{"type":"Feature","properties":{"id":"ih-hastane-6","kind":"poi","name":"Dipartimento Socio Sanitario ai Colli","theme":"hastane","lab":1},"geometry":{"type":"Point","coordinates":[11.84265,45.39907]}},{"type":"Feature","properties":{"id":"ih-hastane-7","kind":"poi","name":"Ospedale Militare di Padova","theme":"hastane","lab":1},"geometry":{"type":"Point","coordinates":[11.87057,45.41623]}},{"type":"Feature","properties":{"id":"ih-hastane-8","kind":"poi","name":"Ospedale Sant'Antonio","theme":"hastane","lab":1},"geometry":{"type":"Point","coordinates":[11.89254,45.39326]}},{"type":"Feature","properties":{"id":"ih-hastane-9","kind":"poi","name":"ULSS 6 Euganea","theme":"hastane","lab":1},"geometry":{"type":"Point","coordinates":[11.79115,45.38803]}},{"type":"Feature","properties":{"id":"ih-hastane-10","kind":"poi","name":"Ulss6","theme":"hastane","lab":1},"geometry":{"type":"Point","coordinates":[11.88445,45.41292]}},{"type":"Feature","properties":{"id":"ih-hastane-11","kind":"poi","name":"USL 16 Albignasego","theme":"hastane","lab":1},"geometry":{"type":"Point","coordinates":[11.86477,45.35]}},{"type":"Feature","properties":{"id":"ih-kiralik-arac-0","kind":"poi","name":"Alfieri Autonoleggio","theme":"kiralik-arac","lab":1},"geometry":{"type":"Point","coordinates":[11.92263,45.41179]}},{"type":"Feature","properties":{"id":"ih-kiralik-arac-1","kind":"poi","name":"Autonoleggio Parenzan","theme":"kiralik-arac","lab":1},"geometry":{"type":"Point","coordinates":[11.90771,45.41799]}},{"type":"Feature","properties":{"id":"ih-kiralik-arac-2","kind":"poi","name":"BFREE Noleggio Padova","theme":"kiralik-arac","lab":1},"geometry":{"type":"Point","coordinates":[11.93408,45.41333]}},{"type":"Feature","properties":{"id":"ih-kiralik-arac-3","kind":"poi","name":"Hertz","theme":"kiralik-arac","lab":1},"geometry":{"type":"Point","coordinates":[11.87522,45.42091]}},{"type":"Feature","properties":{"id":"ih-kiralik-arac-4","kind":"poi","name":"Sicily by car","theme":"kiralik-arac","lab":1},"geometry":{"type":"Point","coordinates":[11.88013,45.41744]}},{"type":"Feature","properties":{"id":"ih-kiralik-arac-5","kind":"poi","name":"Strada","theme":"kiralik-arac","lab":1},"geometry":{"type":"Point","coordinates":[11.91879,45.41532]}},{"type":"Feature","properties":{"id":"ih-kutuphane-0","kind":"poi","name":"Biblioteca A. Canali","theme":"kutuphane","lab":1},"geometry":{"type":"Point","coordinates":[11.95177,45.41545]}},{"type":"Feature","properties":{"id":"ih-kutuphane-1","kind":"poi","name":"Biblioteca Civica","theme":"kutuphane","lab":1},"geometry":{"type":"Point","coordinates":[11.86861,45.34625]}},{"type":"Feature","properties":{"id":"ih-kutuphane-2","kind":"poi","name":"Biblioteca Civica","theme":"kutuphane","lab":1},"geometry":{"type":"Point","coordinates":[11.90805,45.44883]}},{"type":"Feature","properties":{"id":"ih-kutuphane-3","kind":"poi","name":"Biblioteca Civica \"Federico Talami\"","theme":"kutuphane","lab":1},"geometry":{"type":"Point","coordinates":[11.78928,45.36168]}},{"type":"Feature","properties":{"id":"ih-kutuphane-4","kind":"poi","name":"Biblioteca Civica \"Pietro Zampieri\"","theme":"kutuphane","lab":1},"geometry":{"type":"Point","coordinates":[12.00796,45.38506]}},{"type":"Feature","properties":{"id":"ih-kutuphane-5","kind":"poi","name":"Biblioteca Civica Comunale","theme":"kutuphane","lab":1},"geometry":{"type":"Point","coordinates":[12.00591,45.34802]}},{"type":"Feature","properties":{"id":"ih-kutuphane-6","kind":"poi","name":"Biblioteca Comunale \"Melchiore Cesarotti\"","theme":"kutuphane","lab":1},"geometry":{"type":"Point","coordinates":[11.78121,45.39455]}},{"type":"Feature","properties":{"id":"ih-kutuphane-7","kind":"poi","name":"Biblioteca comunale Bassanello-Voltabarozzo","theme":"kutuphane","lab":1},"geometry":{"type":"Point","coordinates":[11.87206,45.38039]}},{"type":"Feature","properties":{"id":"ih-kutuphane-8","kind":"poi","name":"Biblioteca Comunale di Villanova di Camposampiero","theme":"kutuphane","lab":1},"geometry":{"type":"Point","coordinates":[11.97276,45.48963]}},{"type":"Feature","properties":{"id":"ih-kutuphane-9","kind":"poi","name":"Biblioteca Comunale Marco Polo","theme":"kutuphane","lab":1},"geometry":{"type":"Point","coordinates":[11.98503,45.36927]}},{"type":"Feature","properties":{"id":"ih-kutuphane-10","kind":"poi","name":"Biblioteca Comunale Ponte San Ncolò","theme":"kutuphane","lab":1},"geometry":{"type":"Point","coordinates":[11.92771,45.3659]}},{"type":"Feature","properties":{"id":"ih-kutuphane-11","kind":"poi","name":"Biblioteca del Seminario - Sezione Antica","theme":"kutuphane","lab":1},"geometry":{"type":"Point","coordinates":[11.87255,45.40079]}},{"type":"Feature","properties":{"id":"ih-kutuphane-12","kind":"poi","name":"Biblioteca dell'Istituto teologico S. Antonio Dottore","theme":"kutuphane","lab":1},"geometry":{"type":"Point","coordinates":[11.88923,45.40477]}},{"type":"Feature","properties":{"id":"ih-kutuphane-13","kind":"poi","name":"Biblioteca dello Sport","theme":"kutuphane","lab":1},"geometry":{"type":"Point","coordinates":[11.8785,45.41287]}},{"type":"Feature","properties":{"id":"ih-kutuphane-14","kind":"poi","name":"Biblioteca di Geografia","theme":"kutuphane","lab":1},"geometry":{"type":"Point","coordinates":[11.87915,45.40488]}},{"type":"Feature","properties":{"id":"ih-kutuphane-15","kind":"poi","name":"Biblioteca di Legnaro","theme":"kutuphane","lab":1},"geometry":{"type":"Point","coordinates":[11.96319,45.34213]}},{"type":"Feature","properties":{"id":"ih-kutuphane-16","kind":"poi","name":"Biblioteca di Quartiere","theme":"kutuphane","lab":1},"geometry":{"type":"Point","coordinates":[11.94702,45.42507]}},{"type":"Feature","properties":{"id":"ih-kutuphane-17","kind":"poi","name":"Biblioteca di Quartiere","theme":"kutuphane","lab":1},"geometry":{"type":"Point","coordinates":[11.84403,45.40848]}},{"type":"Feature","properties":{"id":"ih-kutuphane-18","kind":"poi","name":"Biblioteca Geoscienze Padova","theme":"kutuphane","lab":1},"geometry":{"type":"Point","coordinates":[11.89372,45.40914]}},{"type":"Feature","properties":{"id":"ih-kutuphane-19","kind":"poi","name":"Biblioteca pubblica di Rubano","theme":"kutuphane","lab":1},"geometry":{"type":"Point","coordinates":[11.81916,45.42312]}},{"type":"Feature","properties":{"id":"ih-kutuphane-20","kind":"poi","name":"Biblioteca San Carlo","theme":"kutuphane","lab":1},"geometry":{"type":"Point","coordinates":[11.89053,45.43574]}},{"type":"Feature","properties":{"id":"ih-kutuphane-21","kind":"poi","name":"Biblioteca Savonarola","theme":"kutuphane","lab":1},"geometry":{"type":"Point","coordinates":[11.85966,45.40342]}},{"type":"Feature","properties":{"id":"ih-kutuphane-22","kind":"poi","name":"Biblioteca Universitaria","theme":"kutuphane","lab":1},"geometry":{"type":"Point","coordinates":[11.88052,45.40706]}},{"type":"Feature","properties":{"id":"ih-kutuphane-23","kind":"poi","name":"Emeroteca S. Croce - S. Osvaldo","theme":"kutuphane","lab":1},"geometry":{"type":"Point","coordinates":[11.87974,45.38926]}},{"type":"Feature","properties":{"id":"ih-market-0","kind":"poi","name":"Alì","theme":"market","lab":1},"geometry":{"type":"Point","coordinates":[11.83172,45.44589]}},{"type":"Feature","properties":{"id":"ih-market-1","kind":"poi","name":"Alì Via Chiesanuova","theme":"market","lab":1},"geometry":{"type":"Point","coordinates":[11.84434,45.41078]}},{"type":"Feature","properties":{"id":"ih-market-2","kind":"poi","name":"Alíper","theme":"market","lab":1},"geometry":{"type":"Point","coordinates":[11.77313,45.34709]}},{"type":"Feature","properties":{"id":"ih-market-3","kind":"poi","name":"Biosapori","theme":"market","lab":1},"geometry":{"type":"Point","coordinates":[11.95001,45.41137]}},{"type":"Feature","properties":{"id":"ih-market-4","kind":"poi","name":"Conad","theme":"market","lab":1},"geometry":{"type":"Point","coordinates":[11.90824,45.41201]}},{"type":"Feature","properties":{"id":"ih-market-5","kind":"poi","name":"Conad","theme":"market","lab":1},"geometry":{"type":"Point","coordinates":[11.86186,45.41779]}},{"type":"Feature","properties":{"id":"ih-market-6","kind":"poi","name":"Conad","theme":"market","lab":1},"geometry":{"type":"Point","coordinates":[11.85978,45.3422]}},{"type":"Feature","properties":{"id":"ih-market-7","kind":"poi","name":"Conad City","theme":"market","lab":1},"geometry":{"type":"Point","coordinates":[11.89009,45.3937]}},{"type":"Feature","properties":{"id":"ih-market-8","kind":"poi","name":"Coop","theme":"market","lab":1},"geometry":{"type":"Point","coordinates":[11.87906,45.40631]}},{"type":"Feature","properties":{"id":"ih-market-9","kind":"poi","name":"Coop","theme":"market","lab":1},"geometry":{"type":"Point","coordinates":[11.92637,45.36762]}},{"type":"Feature","properties":{"id":"ih-market-10","kind":"poi","name":"Coop","theme":"market","lab":1},"geometry":{"type":"Point","coordinates":[11.88791,45.41607]}},{"type":"Feature","properties":{"id":"ih-market-11","kind":"poi","name":"Crai","theme":"market","lab":1},"geometry":{"type":"Point","coordinates":[11.90299,45.37945]}},{"type":"Feature","properties":{"id":"ih-market-12","kind":"poi","name":"Crai","theme":"market","lab":1},"geometry":{"type":"Point","coordinates":[11.96302,45.33947]}},{"type":"Feature","properties":{"id":"ih-market-13","kind":"poi","name":"Despar","theme":"market","lab":1},"geometry":{"type":"Point","coordinates":[11.88538,45.39574]}},{"type":"Feature","properties":{"id":"ih-market-14","kind":"poi","name":"Despar","theme":"market","lab":1},"geometry":{"type":"Point","coordinates":[11.87651,45.397]}},{"type":"Feature","properties":{"id":"ih-market-15","kind":"poi","name":"Despar express","theme":"market","lab":1},"geometry":{"type":"Point","coordinates":[11.87962,45.41764]}},{"type":"Feature","properties":{"id":"ih-market-16","kind":"poi","name":"Eurospar","theme":"market","lab":1},"geometry":{"type":"Point","coordinates":[11.85793,45.41063]}},{"type":"Feature","properties":{"id":"ih-market-17","kind":"poi","name":"Eurospar","theme":"market","lab":1},"geometry":{"type":"Point","coordinates":[12.00233,45.39015]}},{"type":"Feature","properties":{"id":"ih-market-18","kind":"poi","name":"Eurospar","theme":"market","lab":1},"geometry":{"type":"Point","coordinates":[11.86413,45.39892]}},{"type":"Feature","properties":{"id":"ih-market-19","kind":"poi","name":"Eurospar","theme":"market","lab":1},"geometry":{"type":"Point","coordinates":[11.81798,45.39211]}},{"type":"Feature","properties":{"id":"ih-market-20","kind":"poi","name":"EuroSpin","theme":"market","lab":1},"geometry":{"type":"Point","coordinates":[11.82425,45.39442]}},{"type":"Feature","properties":{"id":"ih-market-21","kind":"poi","name":"famila","theme":"market","lab":1},"geometry":{"type":"Point","coordinates":[11.92411,45.47459]}},{"type":"Feature","properties":{"id":"ih-market-22","kind":"poi","name":"In's Mercato","theme":"market","lab":1},"geometry":{"type":"Point","coordinates":[11.87428,45.415]}},{"type":"Feature","properties":{"id":"ih-market-23","kind":"poi","name":"In's Mercato","theme":"market","lab":1},"geometry":{"type":"Point","coordinates":[11.88956,45.39559]}},{"type":"Feature","properties":{"id":"ih-market-24","kind":"poi","name":"In's Mercato","theme":"market","lab":1},"geometry":{"type":"Point","coordinates":[11.89406,45.41976]}},{"type":"Feature","properties":{"id":"ih-market-25","kind":"poi","name":"Iper","theme":"market","lab":1},"geometry":{"type":"Point","coordinates":[11.86948,45.41989]}},{"type":"Feature","properties":{"id":"ih-market-26","kind":"poi","name":"Ipercoop","theme":"market","lab":1},"geometry":{"type":"Point","coordinates":[11.96502,45.42498]}},{"type":"Feature","properties":{"id":"ih-market-27","kind":"poi","name":"IperLando","theme":"market","lab":1},"geometry":{"type":"Point","coordinates":[11.93885,45.39515]}},{"type":"Feature","properties":{"id":"ih-market-28","kind":"poi","name":"Lidl","theme":"market","lab":1},"geometry":{"type":"Point","coordinates":[11.7786,45.34645]}},{"type":"Feature","properties":{"id":"ih-market-29","kind":"poi","name":"Lidl","theme":"market","lab":1},"geometry":{"type":"Point","coordinates":[11.84864,45.40071]}},{"type":"Feature","properties":{"id":"ih-market-30","kind":"poi","name":"MD","theme":"market","lab":1},"geometry":{"type":"Point","coordinates":[11.89762,45.3848]}},{"type":"Feature","properties":{"id":"ih-market-31","kind":"poi","name":"Mega","theme":"market","lab":1},"geometry":{"type":"Point","coordinates":[12.00431,45.4807]}},{"type":"Feature","properties":{"id":"ih-market-32","kind":"poi","name":"Mega","theme":"market","lab":1},"geometry":{"type":"Point","coordinates":[11.95611,45.42726]}},{"type":"Feature","properties":{"id":"ih-market-33","kind":"poi","name":"NaturaSì","theme":"market","lab":1},"geometry":{"type":"Point","coordinates":[11.89844,45.43017]}},{"type":"Feature","properties":{"id":"ih-market-34","kind":"poi","name":"NaturaSì","theme":"market","lab":1},"geometry":{"type":"Point","coordinates":[11.86345,45.41143]}},{"type":"Feature","properties":{"id":"ih-market-35","kind":"poi","name":"NaturaSì","theme":"market","lab":1},"geometry":{"type":"Point","coordinates":[11.77628,45.35328]}},{"type":"Feature","properties":{"id":"ih-market-36","kind":"poi","name":"NaturaSì","theme":"market","lab":1},"geometry":{"type":"Point","coordinates":[11.81348,45.39227]}},{"type":"Feature","properties":{"id":"ih-market-37","kind":"poi","name":"Pam","theme":"market","lab":1},"geometry":{"type":"Point","coordinates":[11.87139,45.39206]}},{"type":"Feature","properties":{"id":"ih-market-38","kind":"poi","name":"Pam","theme":"market","lab":1},"geometry":{"type":"Point","coordinates":[11.87758,45.40748]}},{"type":"Feature","properties":{"id":"ih-market-39","kind":"poi","name":"Pam","theme":"market","lab":1},"geometry":{"type":"Point","coordinates":[11.86742,45.41096]}},{"type":"Feature","properties":{"id":"ih-market-40","kind":"poi","name":"Prix","theme":"market","lab":1},"geometry":{"type":"Point","coordinates":[11.82169,45.45912]}},{"type":"Feature","properties":{"id":"ih-market-41","kind":"poi","name":"Prix","theme":"market","lab":1},"geometry":{"type":"Point","coordinates":[11.95544,45.35212]}},{"type":"Feature","properties":{"id":"ih-market-42","kind":"poi","name":"Prix","theme":"market","lab":1},"geometry":{"type":"Point","coordinates":[11.94234,45.42402]}},{"type":"Feature","properties":{"id":"ih-market-43","kind":"poi","name":"SPAK Supermercato","theme":"market","lab":1},"geometry":{"type":"Point","coordinates":[11.91257,45.40303]}},{"type":"Feature","properties":{"id":"ih-market-44","kind":"poi","name":"Super A&O","theme":"market","lab":1},"geometry":{"type":"Point","coordinates":[11.83007,45.36811]}},{"type":"Feature","properties":{"id":"ih-muze-0","kind":"poi","name":"Cappella degli Scrovegni","theme":"muze","lab":1},"geometry":{"type":"Point","coordinates":[11.87949,45.41186]}},{"type":"Feature","properties":{"id":"ih-muze-1","kind":"poi","name":"Esapolis","theme":"muze","lab":1},"geometry":{"type":"Point","coordinates":[11.83416,45.39772]}},{"type":"Feature","properties":{"id":"ih-muze-2","kind":"poi","name":"Galleria comunale d'Arte Contemporanea","theme":"muze","lab":1},"geometry":{"type":"Point","coordinates":[11.77674,45.352]}},{"type":"Feature","properties":{"id":"ih-muze-3","kind":"poi","name":"Museo al Santo","theme":"muze","lab":1},"geometry":{"type":"Point","coordinates":[11.87993,45.40067]}},{"type":"Feature","properties":{"id":"ih-muze-4","kind":"poi","name":"Museo Antoniano","theme":"muze","lab":1},"geometry":{"type":"Point","coordinates":[11.88023,45.40026]}},{"type":"Feature","properties":{"id":"ih-muze-5","kind":"poi","name":"Museo Archeologico Ambientale delle Acque del Padovano","theme":"muze","lab":1},"geometry":{"type":"Point","coordinates":[11.88141,45.45099]}},{"type":"Feature","properties":{"id":"ih-muze-6","kind":"poi","name":"Museo Botanico","theme":"muze","lab":1},"geometry":{"type":"Point","coordinates":[11.88052,45.39963]}},{"type":"Feature","properties":{"id":"ih-muze-7","kind":"poi","name":"Museo del Pre Cinema","theme":"muze","lab":1},"geometry":{"type":"Point","coordinates":[11.87592,45.4002]}},{"type":"Feature","properties":{"id":"ih-muze-8","kind":"poi","name":"Museo della Fisica Giovanni Poleni","theme":"muze","lab":1},"geometry":{"type":"Point","coordinates":[11.88577,45.41041]}},{"type":"Feature","properties":{"id":"ih-muze-9","kind":"poi","name":"Museo della Natura e dell’Uomo","theme":"muze","lab":1},"geometry":{"type":"Point","coordinates":[11.87812,45.41218]}},{"type":"Feature","properties":{"id":"ih-muze-10","kind":"poi","name":"Museo di Astronomia","theme":"muze","lab":1},"geometry":{"type":"Point","coordinates":[11.86856,45.40203]}},{"type":"Feature","properties":{"id":"ih-muze-11","kind":"poi","name":"Museo di macchine \"Enrico Bernardi\"","theme":"muze","lab":1},"geometry":{"type":"Point","coordinates":[11.89211,45.41079]}},{"type":"Feature","properties":{"id":"ih-muze-12","kind":"poi","name":"Museo di Scienze Archeologiche e d'Arte","theme":"muze","lab":1},"geometry":{"type":"Point","coordinates":[11.87144,45.40801]}},{"type":"Feature","properties":{"id":"ih-muze-13","kind":"poi","name":"Museo di Storia della Medicina in Padova","theme":"muze","lab":1},"geometry":{"type":"Point","coordinates":[11.88034,45.40522]}},{"type":"Feature","properties":{"id":"ih-muze-14","kind":"poi","name":"Museo Internazionale della Maschera \"Amleto e Donato Sartori\"","theme":"muze","lab":1},"geometry":{"type":"Point","coordinates":[11.79823,45.35806]}},{"type":"Feature","properties":{"id":"ih-muze-15","kind":"poi","name":"Museo Rossimoda della Calzatura","theme":"muze","lab":1},"geometry":{"type":"Point","coordinates":[12.00665,45.40915]}},{"type":"Feature","properties":{"id":"ih-muze-16","kind":"poi","name":"Museo Storico della Terza Armata","theme":"muze","lab":1},"geometry":{"type":"Point","coordinates":[11.8807,45.40869]}},{"type":"Feature","properties":{"id":"ih-muze-17","kind":"poi","name":"Museo Veneto del Giocattolo","theme":"muze","lab":1},"geometry":{"type":"Point","coordinates":[11.8302,45.37014]}},{"type":"Feature","properties":{"id":"ih-muze-18","kind":"poi","name":"Oratorio San Rocco","theme":"muze","lab":1},"geometry":{"type":"Point","coordinates":[11.87508,45.40892]}},{"type":"Feature","properties":{"id":"ih-muze-19","kind":"poi","name":"Palazzo della Ragione","theme":"muze","lab":1},"geometry":{"type":"Point","coordinates":[11.87523,45.40726]}},{"type":"Feature","properties":{"id":"ih-muze-20","kind":"poi","name":"Palazzo Zabarella","theme":"muze","lab":1},"geometry":{"type":"Point","coordinates":[11.87934,45.40602]}},{"type":"Feature","properties":{"id":"ih-muze-21","kind":"poi","name":"Pinacoteca Civica al Montirone","theme":"muze","lab":1},"geometry":{"type":"Point","coordinates":[11.77702,45.35203]}},{"type":"Feature","properties":{"id":"ih-muze-22","kind":"poi","name":"Porta Savonarola","theme":"muze","lab":1},"geometry":{"type":"Point","coordinates":[11.86476,45.41227]}},{"type":"Feature","properties":{"id":"ih-muze-23","kind":"poi","name":"Villa Bassi Rathgeb","theme":"muze","lab":1},"geometry":{"type":"Point","coordinates":[11.78479,45.36227]}},{"type":"Feature","properties":{"id":"ih-yakit-0","kind":"poi","name":"Agip","theme":"yakit","lab":1},"geometry":{"type":"Point","coordinates":[11.87955,45.39004]}},{"type":"Feature","properties":{"id":"ih-yakit-1","kind":"poi","name":"Agip","theme":"yakit","lab":1},"geometry":{"type":"Point","coordinates":[11.9705,45.4957]}},{"type":"Feature","properties":{"id":"ih-yakit-2","kind":"poi","name":"Bogoni","theme":"yakit","lab":1},"geometry":{"type":"Point","coordinates":[11.90516,45.33545]}},{"type":"Feature","properties":{"id":"ih-yakit-3","kind":"poi","name":"Costantin","theme":"yakit","lab":1},"geometry":{"type":"Point","coordinates":[11.84747,45.42628]}},{"type":"Feature","properties":{"id":"ih-yakit-4","kind":"poi","name":"Costantin","theme":"yakit","lab":1},"geometry":{"type":"Point","coordinates":[11.97801,45.48861]}},{"type":"Feature","properties":{"id":"ih-yakit-5","kind":"poi","name":"Eni","theme":"yakit","lab":1},"geometry":{"type":"Point","coordinates":[11.8632,45.43211]}},{"type":"Feature","properties":{"id":"ih-yakit-6","kind":"poi","name":"eni","theme":"yakit","lab":1},"geometry":{"type":"Point","coordinates":[11.94165,45.42355]}},{"type":"Feature","properties":{"id":"ih-yakit-7","kind":"poi","name":"Eni","theme":"yakit","lab":1},"geometry":{"type":"Point","coordinates":[11.85861,45.402]}},{"type":"Feature","properties":{"id":"ih-yakit-8","kind":"poi","name":"Enilive","theme":"yakit","lab":1},"geometry":{"type":"Point","coordinates":[11.89944,45.36989]}},{"type":"Feature","properties":{"id":"ih-yakit-9","kind":"poi","name":"Enilive","theme":"yakit","lab":1},"geometry":{"type":"Point","coordinates":[11.91317,45.37796]}},{"type":"Feature","properties":{"id":"ih-yakit-10","kind":"poi","name":"Enilive","theme":"yakit","lab":1},"geometry":{"type":"Point","coordinates":[11.84855,45.40504]}},{"type":"Feature","properties":{"id":"ih-yakit-11","kind":"poi","name":"Enilive","theme":"yakit","lab":1},"geometry":{"type":"Point","coordinates":[11.84204,45.41173]}},{"type":"Feature","properties":{"id":"ih-yakit-12","kind":"poi","name":"Enilive","theme":"yakit","lab":1},"geometry":{"type":"Point","coordinates":[11.88856,45.40075]}},{"type":"Feature","properties":{"id":"ih-yakit-13","kind":"poi","name":"Esso","theme":"yakit","lab":1},"geometry":{"type":"Point","coordinates":[11.87847,45.42406]}},{"type":"Feature","properties":{"id":"ih-yakit-14","kind":"poi","name":"Esso","theme":"yakit","lab":1},"geometry":{"type":"Point","coordinates":[11.87102,45.38997]}},{"type":"Feature","properties":{"id":"ih-yakit-15","kind":"poi","name":"Esso","theme":"yakit","lab":1},"geometry":{"type":"Point","coordinates":[11.8983,45.433]}},{"type":"Feature","properties":{"id":"ih-yakit-16","kind":"poi","name":"Esso","theme":"yakit","lab":1},"geometry":{"type":"Point","coordinates":[11.87059,45.36282]}},{"type":"Feature","properties":{"id":"ih-yakit-17","kind":"poi","name":"Esso Express","theme":"yakit","lab":1},"geometry":{"type":"Point","coordinates":[11.9072,45.41029]}},{"type":"Feature","properties":{"id":"ih-yakit-18","kind":"poi","name":"IP","theme":"yakit","lab":1},"geometry":{"type":"Point","coordinates":[11.89933,45.39715]}},{"type":"Feature","properties":{"id":"ih-yakit-19","kind":"poi","name":"IP","theme":"yakit","lab":1},"geometry":{"type":"Point","coordinates":[11.8657,45.39417]}},{"type":"Feature","properties":{"id":"ih-yakit-20","kind":"poi","name":"IP","theme":"yakit","lab":1},"geometry":{"type":"Point","coordinates":[11.89864,45.43188]}},{"type":"Feature","properties":{"id":"ih-yakit-21","kind":"poi","name":"Oil Italia","theme":"yakit","lab":1},"geometry":{"type":"Point","coordinates":[11.89707,45.38635]}},{"type":"Feature","properties":{"id":"ih-yakit-22","kind":"poi","name":"Q8","theme":"yakit","lab":1},"geometry":{"type":"Point","coordinates":[11.84512,45.44929]}},{"type":"Feature","properties":{"id":"ih-yakit-23","kind":"poi","name":"Q8","theme":"yakit","lab":1},"geometry":{"type":"Point","coordinates":[11.89856,45.42006]}},{"type":"Feature","properties":{"id":"ih-yakit-24","kind":"poi","name":"Q8 Easy Stanga","theme":"yakit","lab":1},"geometry":{"type":"Point","coordinates":[11.90306,45.40881]}},{"type":"Feature","properties":{"id":"ih-yakit-25","kind":"poi","name":"Repsol","theme":"yakit","lab":1},"geometry":{"type":"Point","coordinates":[11.9378,45.44035]}},{"type":"Feature","properties":{"id":"ih-yakit-26","kind":"poi","name":"Tamoil","theme":"yakit","lab":1},"geometry":{"type":"Point","coordinates":[11.87262,45.41922]}},{"type":"Feature","properties":{"id":"ih-yakit-27","kind":"poi","name":"Tap","theme":"yakit","lab":1},"geometry":{"type":"Point","coordinates":[11.92162,45.41109]}},{"type":"Feature","properties":{"id":"ih-yakit-28","kind":"poi","name":"Vega","theme":"yakit","lab":1},"geometry":{"type":"Point","coordinates":[11.82694,45.36697]}},{"type":"Feature","properties":{"id":"ih-yakit-29","kind":"poi","name":"Vega","theme":"yakit","lab":1},"geometry":{"type":"Point","coordinates":[11.76267,45.39743]}}]}