{"type":"FeatureCollection","features":[{"type":"Feature","properties":{"id":"turistik-0","kind":"district","btype":"turistik","name":"Tverskoy","lab":1},"geometry":{"type":"Polygon","coordinates":[[[37.5878,55.79264],[37.5993,55.79248],[37.60172,55.78517],[37.60453,55.78533],[37.61423,55.78196],[37.61533,55.78225],[37.61493,55.78159],[37.61725,55.77993],[37.61853,55.77641],[37.61894,55.77364],[37.62069,55.77368],[37.62102,55.77332],[37.6214,55.7669],[37.6199,55.76526],[37.62015,55.76172],[37.62144,55.75924],[37.62091,55.75899],[37.62595,55.75976],[37.62669,55.76045],[37.62883,55.75983],[37.62787,55.75952],[37.63409,55.75508],[37.63491,55.75399],[37.63351,55.75342],[37.63207,55.74888],[37.62831,55.74922],[37.62136,55.74882],[37.61698,55.74818],[37.6122,55.74677],[37.61061,55.74864],[37.6088,55.74919],[37.61224,55.75456],[37.607,55.75622],[37.60976,55.75833],[37.60757,55.76009],[37.60567,55.76087],[37.60622,55.76125],[37.60369,55.76265],[37.60422,55.76318],[37.60062,55.76487],[37.59891,55.76428],[37.59589,55.76634],[37.59498,55.76644],[37.59474,55.76667],[37.59674,55.76766],[37.59539,55.76797],[37.58332,55.77526],[37.57711,55.77316],[37.57622,55.77375],[37.57523,55.77552],[37.5811,55.77743],[37.58499,55.78015],[37.58863,55.79206],[37.5878,55.79264]]]}},{"type":"Feature","properties":{"id":"turistik-lab-0","kind":"district-label","btype":"turistik","name":"Tverskoy"},"geometry":{"type":"Point","coordinates":[37.60614,55.77056]}},{"type":"Feature","properties":{"id":"turistik-1","kind":"district","btype":"turistik","name":"Arbat","lab":1},"geometry":{"type":"Polygon","coordinates":[[[37.57939,55.74583],[37.57413,55.74543],[37.57449,55.74886],[37.57402,55.75034],[37.57206,55.75202],[37.57454,55.75295],[37.57678,55.75522],[37.58383,55.75526],[37.58446,55.75811],[37.5892,55.75638],[37.58954,55.7567],[37.60227,55.7536],[37.60406,55.75418],[37.60601,55.754],[37.60736,55.7561],[37.61224,55.75456],[37.60888,55.74921],[37.60429,55.7504],[37.60294,55.7486],[37.59972,55.74889],[37.59934,55.74707],[37.59571,55.74765],[37.58581,55.7463],[37.58743,55.7441],[37.5838,55.74375],[37.58304,55.74549],[37.57939,55.74583]]]}},{"type":"Feature","properties":{"id":"turistik-lab-1","kind":"district-label","btype":"turistik","name":"Arbat"},"geometry":{"type":"Point","coordinates":[37.59157,55.75121]}},{"type":"Feature","properties":{"id":"turistik-2","kind":"district","btype":"turistik","name":"Khamovniki","lab":1},"geometry":{"type":"Polygon","coordinates":[[[37.58208,55.71674],[37.57493,55.71312],[37.5654,55.71076],[37.55923,55.71028],[37.5529,55.71097],[37.54852,55.71226],[37.54333,55.71562],[37.54189,55.71759],[37.54108,55.72013],[37.54118,55.72206],[37.54186,55.72404],[37.5449,55.72706],[37.55303,55.72995],[37.56575,55.7364],[37.56833,55.73855],[37.57413,55.74543],[37.57939,55.74583],[37.58304,55.74549],[37.58392,55.74376],[37.58743,55.7441],[37.58581,55.7463],[37.59571,55.74765],[37.59934,55.74707],[37.59972,55.74889],[37.60294,55.7486],[37.60429,55.7504],[37.61067,55.74859],[37.6122,55.74677],[37.61011,55.74526],[37.60832,55.74312],[37.60674,55.73809],[37.60003,55.73459],[37.5963,55.73104],[37.59318,55.72626],[37.5903,55.72356],[37.58208,55.71674]]]}},{"type":"Feature","properties":{"id":"turistik-lab-2","kind":"district-label","btype":"turistik","name":"Khamovniki"},"geometry":{"type":"Point","coordinates":[37.57502,55.7305]}},{"type":"Feature","properties":{"id":"turistik-3","kind":"district","btype":"turistik","name":"Presnensky","lab":1},"geometry":{"type":"Polygon","coordinates":[[[37.57711,55.77316],[37.58332,55.77526],[37.59539,55.76797],[37.59667,55.7677],[37.59474,55.76667],[37.59891,55.76428],[37.60062,55.76487],[37.60422,55.76318],[37.60369,55.76265],[37.60622,55.76125],[37.60567,55.76087],[37.60757,55.76009],[37.60976,55.75833],[37.607,55.75622],[37.60736,55.7561],[37.60601,55.754],[37.60406,55.75418],[37.60227,55.7536],[37.58954,55.7567],[37.5892,55.75638],[37.58446,55.75811],[37.58383,55.75526],[37.57678,55.75522],[37.57454,55.75295],[37.57206,55.75202],[37.56788,55.75336],[37.56402,55.7536],[37.56018,55.75308],[37.55454,55.75144],[37.54037,55.74546],[37.53649,55.74464],[37.5324,55.7444],[37.52797,55.74461],[37.52364,55.74633],[37.52205,55.74758],[37.52023,55.75002],[37.5163,55.75683],[37.51393,55.75842],[37.52256,55.76169],[37.52429,55.75985],[37.53182,55.76322],[37.53404,55.76501],[37.53476,55.76619],[37.53606,55.7661],[37.53713,55.76976],[37.54057,55.77195],[37.5434,55.77279],[37.57108,55.77543],[37.57523,55.77552],[37.57622,55.77375],[37.57711,55.77316]]]}},{"type":"Feature","properties":{"id":"turistik-lab-3","kind":"district-label","btype":"turistik","name":"Presnensky"},"geometry":{"type":"Point","coordinates":[37.56614,55.75997]}},{"type":"Feature","properties":{"id":"turistik-4","kind":"district","btype":"turistik","name":"Zamoskvorechye","lab":1},"geometry":{"type":"Polygon","coordinates":[[[37.62383,55.72958],[37.62503,55.7426],[37.62457,55.7455],[37.62638,55.74598],[37.62506,55.74908],[37.63119,55.74901],[37.63771,55.74737],[37.63927,55.74658],[37.64281,55.74348],[37.64487,55.74113],[37.64802,55.73496],[37.65049,55.73128],[37.65421,55.72882],[37.65229,55.72807],[37.64599,55.72946],[37.64491,55.72801],[37.64374,55.7224],[37.64169,55.72222],[37.63642,55.72354],[37.6358,55.72202],[37.63306,55.72256],[37.62789,55.72136],[37.61776,55.72029],[37.61508,55.72694],[37.61994,55.72731],[37.61961,55.72925],[37.62383,55.72958]]]}},{"type":"Feature","properties":{"id":"turistik-lab-4","kind":"district-label","btype":"turistik","name":"Zamoskvorechye"},"geometry":{"type":"Point","coordinates":[37.63671,55.73312]}},{"type":"Feature","properties":{"id":"turistik-5","kind":"district","btype":"turistik","name":"Yakimanka","lab":1},"geometry":{"type":"Polygon","coordinates":[[[37.62503,55.74239],[37.62383,55.72958],[37.61961,55.72925],[37.61994,55.72731],[37.61508,55.72694],[37.61776,55.72029],[37.61558,55.72008],[37.6143,55.72103],[37.6101,55.72143],[37.60935,55.71952],[37.60031,55.7213],[37.59813,55.71985],[37.59686,55.72013],[37.59408,55.71833],[37.59256,55.71915],[37.59271,55.71969],[37.5908,55.71787],[37.59267,55.71687],[37.58794,55.71395],[37.58845,55.71376],[37.58787,55.7133],[37.58834,55.7131],[37.58559,55.71109],[37.58214,55.71099],[37.57761,55.71421],[37.58208,55.71674],[37.5903,55.72356],[37.59318,55.72626],[37.5963,55.73104],[37.60003,55.73459],[37.60674,55.73809],[37.60851,55.74339],[37.61011,55.74526],[37.61331,55.74717],[37.61764,55.74831],[37.62506,55.74908],[37.62638,55.74598],[37.62457,55.7455],[37.62503,55.74239]]]}},{"type":"Feature","properties":{"id":"turistik-lab-5","kind":"district-label","btype":"turistik","name":"Yakimanka"},"geometry":{"type":"Point","coordinates":[37.60986,55.73031]}},{"type":"Feature","properties":{"id":"turistik-6","kind":"district","btype":"turistik","name":"Basmanny","lab":1},"geometry":{"type":"Polygon","coordinates":[[[37.6659,55.75305],[37.66423,55.75276],[37.6628,55.75414],[37.65762,55.75477],[37.65481,55.7545],[37.65005,55.75306],[37.64301,55.75266],[37.6393,55.75315],[37.63697,55.7542],[37.63507,55.75386],[37.63164,55.75705],[37.62787,55.75952],[37.63112,55.76021],[37.63472,55.76256],[37.63729,55.76513],[37.64469,55.76847],[37.64967,55.76873],[37.65456,55.76959],[37.663,55.76973],[37.66443,55.77331],[37.66799,55.77453],[37.67589,55.77839],[37.6801,55.77712],[37.68484,55.78081],[37.68472,55.7816],[37.69636,55.78205],[37.70318,55.78152],[37.70879,55.77962],[37.71353,55.77526],[37.70269,55.77012],[37.69722,55.76682],[37.6922,55.76949],[37.68904,55.76777],[37.68585,55.76398],[37.68584,55.76204],[37.68416,55.76027],[37.68259,55.75954],[37.68022,55.75907],[37.67302,55.75933],[37.67128,55.7588],[37.6704,55.7576],[37.67091,55.75743],[37.67306,55.75343],[37.67255,55.75239],[37.67053,55.75075],[37.6659,55.75305]]]}},{"type":"Feature","properties":{"id":"turistik-lab-6","kind":"district-label","btype":"turistik","name":"Basmanny"},"geometry":{"type":"Point","coordinates":[37.66335,55.76597]}},{"type":"Feature","properties":{"id":"turistik-7","kind":"district","btype":"turistik","name":"Meshchansky","lab":1},"geometry":{"type":"Polygon","coordinates":[[[37.62595,55.75976],[37.62091,55.75899],[37.62143,55.75928],[37.62012,55.76193],[37.6199,55.76526],[37.6214,55.7669],[37.621,55.7734],[37.61894,55.77364],[37.61853,55.77641],[37.61725,55.77993],[37.61493,55.78159],[37.61533,55.78225],[37.61434,55.78194],[37.61239,55.78256],[37.61305,55.7834],[37.61463,55.7835],[37.61548,55.78269],[37.61514,55.78354],[37.6168,55.78638],[37.61631,55.79312],[37.63464,55.79189],[37.63443,55.79446],[37.635,55.79717],[37.64296,55.79301],[37.64025,55.79245],[37.64208,55.79016],[37.64222,55.78843],[37.64166,55.78846],[37.64173,55.78813],[37.64484,55.77984],[37.64129,55.77971],[37.64001,55.77716],[37.63939,55.77713],[37.63727,55.77206],[37.63258,55.77265],[37.63148,55.76653],[37.62868,55.76311],[37.62991,55.76287],[37.63061,55.76341],[37.62952,55.76108],[37.6299,55.76069],[37.62835,55.75986],[37.62669,55.76045],[37.62595,55.75976]]]}},{"type":"Feature","properties":{"id":"turistik-lab-7","kind":"district-label","btype":"turistik","name":"Meshchansky"},"geometry":{"type":"Point","coordinates":[37.62922,55.77844]}},{"type":"Feature","properties":{"id":"turistik-8","kind":"district","btype":"turistik","name":"Tagansky","lab":1},"geometry":{"type":"Polygon","coordinates":[[[37.63351,55.75342],[37.63697,55.7542],[37.6393,55.75315],[37.64301,55.75266],[37.65025,55.75309],[37.6564,55.75475],[37.6627,55.75417],[37.66423,55.75276],[37.66621,55.75315],[37.67105,55.75056],[37.68244,55.74827],[37.69234,55.74387],[37.69528,55.74232],[37.69708,55.74079],[37.69984,55.73632],[37.69886,55.73644],[37.6937,55.7293],[37.69216,55.72954],[37.68541,55.73304],[37.68584,55.73011],[37.68406,55.73003],[37.6841,55.72958],[37.68333,55.72915],[37.68144,55.72904],[37.68157,55.72847],[37.68041,55.72841],[37.68058,55.72768],[37.67892,55.72826],[37.67773,55.72736],[37.67058,55.72583],[37.66746,55.73086],[37.66581,55.73164],[37.66069,55.7307],[37.66313,55.72676],[37.65672,55.72637],[37.65577,55.72762],[37.65049,55.73128],[37.64802,55.73496],[37.64487,55.74113],[37.64131,55.74501],[37.63771,55.74737],[37.63207,55.74888],[37.63351,55.75342]]]}},{"type":"Feature","properties":{"id":"turistik-lab-8","kind":"district-label","btype":"turistik","name":"Tagansky"},"geometry":{"type":"Point","coordinates":[37.67229,55.73861]}},{"type":"Feature","properties":{"id":"turistik-9","kind":"district","btype":"turistik","name":"Krasnoselsky","lab":1},"geometry":{"type":"Polygon","coordinates":[[[37.68472,55.7816],[37.68484,55.78081],[37.6801,55.77712],[37.67589,55.77839],[37.66799,55.77453],[37.66443,55.77331],[37.663,55.76973],[37.65456,55.76959],[37.64967,55.76873],[37.64469,55.76847],[37.63729,55.76513],[37.63472,55.76256],[37.63112,55.76021],[37.62835,55.75986],[37.63005,55.76083],[37.62952,55.76108],[37.63061,55.76341],[37.62991,55.76287],[37.62868,55.76311],[37.63148,55.76653],[37.63258,55.77265],[37.63727,55.77206],[37.63939,55.77713],[37.64001,55.77716],[37.64129,55.77971],[37.64484,55.77984],[37.64173,55.78813],[37.64166,55.78846],[37.64222,55.78843],[37.64208,55.79016],[37.64025,55.79245],[37.64296,55.79301],[37.64606,55.79094],[37.65182,55.7891],[37.68827,55.7819],[37.68472,55.7816]]]}},{"type":"Feature","properties":{"id":"turistik-lab-9","kind":"district-label","btype":"turistik","name":"Krasnoselsky"},"geometry":{"type":"Point","coordinates":[37.65474,55.77582]}}]}