{"type":"FeatureCollection","features":[{"type":"Feature","properties":{"id":"gate-svo","kind":"gate","name":"Sheremetyevo (SVO)","gtype":"air","mode":"plane","lab":1,"subKey":"mo.svo.sub"},"geometry":{"type":"Point","coordinates":[37.4175,55.9641]}},{"type":"Feature","properties":{"id":"gate-dme","kind":"gate","name":"Domodedovo (DME)","gtype":"air","mode":"plane","lab":1,"subKey":"mo.dme.sub"},"geometry":{"type":"Point","coordinates":[37.9063,55.4088]}},{"type":"Feature","properties":{"id":"gate-vko","kind":"gate","name":"Vnukovo (VKO)","gtype":"air","mode":"plane","lab":1,"subKey":"mo.vko.sub"},"geometry":{"type":"Point","coordinates":[37.28728,55.60731]}},{"type":"Feature","properties":{"id":"gate-zia","kind":"gate","name":"Zhukovsky (ZIA)","gtype":"air","mode":"plane","lab":1,"subKey":"mo.zia.sub"},"geometry":{"type":"Point","coordinates":[38.15454,55.54979]}},{"type":"Feature","properties":{"id":"gate-leningradsky","kind":"gate","name":"Leningradsky","gtype":"rail","mode":"train","lab":1,"subKey":"mo.leningradsky.sub"},"geometry":{"type":"Point","coordinates":[37.65372,55.77883]}},{"type":"Feature","properties":{"id":"gate-yaroslavsky","kind":"gate","name":"Yaroslavsky","gtype":"rail","mode":"train","lab":1,"subKey":"mo.yaroslavsky.sub"},"geometry":{"type":"Point","coordinates":[37.65676,55.7784]}},{"type":"Feature","properties":{"id":"gate-kazansky","kind":"gate","name":"Kazansky","gtype":"rail","mode":"train","lab":1,"subKey":"mo.kazansky.sub"},"geometry":{"type":"Point","coordinates":[37.65992,55.77423]}},{"type":"Feature","properties":{"id":"gate-kursky","kind":"gate","name":"Kursky","gtype":"rail","mode":"train","lab":1,"subKey":"mo.kursky.sub"},"geometry":{"type":"Point","coordinates":[37.66279,55.75768]}},{"type":"Feature","properties":{"id":"gate-belorussky","kind":"gate","name":"Belorussky","gtype":"rail","mode":"train","lab":1,"subKey":"mo.belorussky.sub"},"geometry":{"type":"Point","coordinates":[37.58036,55.77631]}},{"type":"Feature","properties":{"id":"gate-kievsky","kind":"gate","name":"Kievsky","gtype":"rail","mode":"train","lab":1,"subKey":"mo.kievsky.sub"},"geometry":{"type":"Point","coordinates":[37.56284,55.742]}},{"type":"Feature","properties":{"id":"gate-paveletsky","kind":"gate","name":"Paveletsky","gtype":"rail","mode":"train","lab":1,"subKey":"mo.paveletsky.sub"},"geometry":{"type":"Point","coordinates":[37.64103,55.72909]}},{"type":"Feature","properties":{"id":"gate-rizhsky","kind":"gate","name":"Rizhsky","gtype":"rail","mode":"train","lab":1,"subKey":"mo.rizhsky.sub"},"geometry":{"type":"Point","coordinates":[37.63226,55.79507]}},{"type":"Feature","properties":{"id":"gate-savyolovsky","kind":"gate","name":"Savyolovsky","gtype":"rail","mode":"train","lab":1,"subKey":"mo.savyolovsky.sub"},"geometry":{"type":"Point","coordinates":[37.58874,55.79557]}},{"type":"Feature","properties":{"id":"gate-vostochny","kind":"gate","name":"Vostochny","gtype":"rail","mode":"train","lab":1,"subKey":"mo.vostochny.sub"},"geometry":{"type":"Point","coordinates":[37.74668,55.80302]}},{"type":"Feature","properties":{"id":"gate-shchyolkovsky","kind":"gate","name":"Shchyolkovsky","gtype":"bus","mode":"bus","lab":1,"subKey":"mo.shchyolkovsky.sub"},"geometry":{"type":"Point","coordinates":[37.8,55.8095]}},{"type":"Feature","properties":{"id":"gate-salaryevo","kind":"gate","name":"Salaryevo","gtype":"bus","mode":"bus","lab":1,"subKey":"mo.salaryevo.sub"},"geometry":{"type":"Point","coordinates":[37.42132,55.62093]}},{"type":"Feature","properties":{"id":"gate-rechnoy","kind":"gate","name":"Severnyy rechnoy vokzal","gtype":"port","mode":"ship","lab":1,"subKey":"mo.rechnoy.sub"},"geometry":{"type":"Point","coordinates":[37.46714,55.85112]}},{"type":"Feature","properties":{"id":"link-svo","kind":"link","subKey":"mo.svo.sub","real":true,"via":"Aeroexpress"},"geometry":{"type":"LineString","coordinates":[[37.4175,55.9641],[37.45441,55.98371],[37.45668,55.98389],[37.45825,55.98401],[37.45927,55.98414],[37.46027,55.98431],[37.46125,55.9845],[37.46214,55.98472],[37.4633,55.98506],[37.46435,55.98545],[37.46519,55.98579],[37.4662,55.98628],[37.46707,55.9868],[37.46817,55.98757],[37.47108,55.98978],[37.47232,55.99062],[37.47291,55.99106],[37.4774,55.99443],[37.4812,55.99731],[37.48161,55.99762],[37.48189,55.99781],[37.48205,55.9979],[37.48219,55.99799],[37.48229,55.99806],[37.48243,55.99813],[37.48265,55.99824],[37.48282,55.99832],[37.48295,55.99838],[37.48313,55.99845],[37.48329,55.99851],[37.48339,55.99855],[37.4836,55.99863],[37.48379,55.99869],[37.484,55.99875],[37.48422,55.99881],[37.48452,55.99888],[37.48473,55.99892],[37.4849,55.99896],[37.48502,55.99898],[37.48528,55.99902],[37.48542,55.99904],[37.48566,55.99908],[37.48585,55.9991],[37.48602,55.99911],[37.48624,55.99913],[37.48644,55.99914],[37.48678,55.99915],[37.48713,55.99915],[37.48746,55.99914],[37.48783,55.99912],[37.48822,55.99909],[37.48863,55.99904],[37.48897,55.99898],[37.48939,55.9989],[37.48974,55.99882],[37.49003,55.99874],[37.49032,55.99865],[37.49058,55.99855],[37.49076,55.99849],[37.491,55.99839],[37.49127,55.99828],[37.49151,55.99815],[37.49173,55.99804],[37.49198,55.99789],[37.4922,55.99774],[37.49243,55.99756],[37.49259,55.99742],[37.49274,55.99729],[37.4929,55.99714],[37.49302,55.99701],[37.49313,55.99687],[37.4932,55.99677],[37.49328,55.99666],[37.49335,55.99652],[37.49347,55.99629],[37.49382,55.99551],[37.49403,55.99503],[37.49737,55.98749],[37.49762,55.98681],[37.49776,55.98643],[37.49817,55.98531],[37.49835,55.98495],[37.4986,55.98439],[37.4989,55.98374],[37.49942,55.98266],[37.49948,55.98253],[37.50005,55.9813],[37.50023,55.98092],[37.50076,55.97976],[37.50103,55.97918],[37.50184,55.97744],[37.50251,55.97598],[37.50264,55.9757],[37.50336,55.97412],[37.50342,55.97396],[37.50406,55.9722],[37.50407,55.97218],[37.50454,55.97096],[37.50474,55.97045],[37.50491,55.96999],[37.50527,55.96906],[37.50541,55.96869],[37.50592,55.96738],[37.50608,55.96694],[37.50655,55.9657],[37.50675,55.96518],[37.50688,55.96486],[37.50745,55.96367],[37.50755,55.96345],[37.50799,55.96254],[37.50838,55.96171],[37.50845,55.96156],[37.50874,55.96088],[37.50899,55.95996],[37.50899,55.95995],[37.50929,55.95816],[37.50943,55.95732],[37.50956,55.95659],[37.5096,55.95638],[37.50968,55.95601],[37.50976,55.95567],[37.50988,55.95533],[37.51019,55.95474],[37.51027,55.95463],[37.5105,55.95431],[37.5108,55.95397],[37.51111,55.95368],[37.51172,55.95319],[37.51186,55.95308],[37.51241,55.95266],[37.51251,55.95258],[37.51318,55.95202],[37.51364,55.95161],[37.51365,55.95159],[37.51433,55.95091],[37.51481,55.95023],[37.51499,55.94996],[37.51522,55.94961],[37.5153,55.94947],[37.51592,55.94825],[37.51679,55.94652],[37.51767,55.94479],[37.51854,55.94307],[37.51941,55.94134],[37.51994,55.9403],[37.52001,55.94017],[37.52002,55.94013],[37.52014,55.9399],[37.52028,55.93961],[37.52051,55.93916],[37.52115,55.93788],[37.5212,55.93778],[37.52203,55.93616],[37.52291,55.93443],[37.52378,55.9327],[37.52434,55.9316],[37.52466,55.93098],[37.52552,55.92929],[37.52554,55.92925],[37.52641,55.92752],[37.52728,55.9258],[37.52796,55.92444],[37.52803,55.92431],[37.52815,55.92407],[37.52902,55.92234],[37.52988,55.92061],[37.53075,55.91888],[37.53146,55.91746],[37.53162,55.91716],[37.5325,55.91543],[37.53337,55.9137],[37.53425,55.91198],[37.53427,55.91193],[37.53516,55.91025],[37.53575,55.90914],[37.53607,55.90853],[37.53663,55.90748],[37.53695,55.90685],[37.53696,55.90681],[37.537,55.90675],[37.53766,55.90548],[37.53789,55.90509],[37.5379,55.90507],[37.5381,55.90477],[37.53835,55.90444],[37.53872,55.90401],[37.53926,55.90351],[37.53929,55.90348],[37.53939,55.9034],[37.53998,55.9029],[37.5406,55.90245],[37.54119,55.90204],[37.5412,55.90204],[37.54169,55.90175],[37.54239,55.9014],[37.54259,55.90131],[37.54291,55.90116],[37.54361,55.90087],[37.54414,55.90067],[37.54426,55.90062],[37.54624,55.8999],[37.54628,55.89989],[37.54897,55.89891],[37.54912,55.89885],[37.55164,55.89793],[37.55432,55.89696],[37.55569,55.89646],[37.55701,55.89599],[37.55906,55.89526],[37.55971,55.89502],[37.56096,55.89456],[37.56139,55.89439],[37.5615,55.89435],[37.56224,55.89407],[37.56236,55.89402],[37.56273,55.89387],[37.5631,55.89372],[37.56408,55.8933],[37.56477,55.89287],[37.56478,55.89286],[37.56539,55.89241],[37.56592,55.89195],[37.56616,55.89169],[37.56639,55.89143],[37.56645,55.89134],[37.5668,55.89085],[37.5671,55.89017],[37.56719,55.8896],[37.56724,55.88928],[37.5673,55.88871],[37.56738,55.88781],[37.56747,55.88689],[37.56752,55.88604],[37.56752,55.88602],[37.56752,55.88525],[37.56753,55.88485],[37.56754,55.88454],[37.56757,55.88422],[37.56769,55.88278],[37.56773,55.88243],[37.56791,55.88064],[37.56791,55.88059],[37.56814,55.87953],[37.56821,55.87885],[37.56825,55.87849],[37.56831,55.87788],[37.56833,55.87766],[37.56841,55.87735],[37.56849,55.87706],[37.56851,55.877],[37.56863,55.8765],[37.56867,55.87634],[37.56893,55.87575],[37.56912,55.87531],[37.56925,55.875],[37.56985,55.87356],[37.56996,55.87331],[37.57044,55.87218],[37.5706,55.87181],[37.57124,55.87028],[37.57134,55.87007],[37.57153,55.86964],[37.57158,55.86949],[37.57209,55.86832],[37.5726,55.86716],[37.57285,55.86658],[37.57312,55.86592],[37.5736,55.86483],[37.57372,55.86454],[37.57403,55.86384],[37.57419,55.86343],[37.57431,55.86308],[37.57437,55.86292],[37.57456,55.86213],[37.57465,55.86162],[37.57466,55.8613],[37.57467,55.86114],[37.57463,55.86046],[37.57454,55.85989],[37.57445,55.85921],[37.57427,55.85848],[37.57369,55.85695],[37.5734,55.85619],[37.57324,55.85568],[37.57317,55.85536],[37.57305,55.85486],[37.57286,55.8542],[37.57279,55.85397],[37.57273,55.85374],[37.57269,55.85338],[37.57268,55.85295],[37.57272,55.85253],[37.57274,55.85241],[37.57278,55.8521],[37.57282,55.85184],[37.57285,55.85167],[37.57291,55.85141],[37.57302,55.85105],[37.5732,55.85062],[37.57351,55.84995],[37.57376,55.8493],[37.5739,55.84889],[37.57435,55.84759],[37.57452,55.84713],[37.57481,55.84628],[37.57494,55.84579],[37.57503,55.84536],[37.5751,55.84503],[37.57525,55.84452],[37.57536,55.84424],[37.57553,55.84391],[37.5757,55.8436],[37.57609,55.84311],[37.57692,55.8423],[37.5772,55.84202],[37.57744,55.8418],[37.57802,55.84124],[37.57833,55.84088],[37.57846,55.84071],[37.57865,55.84043],[37.57883,55.84009],[37.57892,55.83988],[37.57903,55.8396],[37.57911,55.83924],[37.57917,55.83893],[37.57918,55.83871],[37.57918,55.83866],[37.57918,55.83843],[37.57914,55.83818],[37.57912,55.838],[37.57908,55.83783],[37.57897,55.83748],[37.57891,55.83733],[37.57878,55.83706],[37.57869,55.8369],[37.57857,55.83671],[37.5783,55.83635],[37.57819,55.83621],[37.57803,55.83604],[37.57764,55.83566],[37.57755,55.83558],[37.57722,55.83531],[37.57681,55.835],[37.57559,55.83408],[37.57532,55.83386],[37.57501,55.83361],[37.57471,55.83331],[37.57451,55.83308],[37.5743,55.83282],[37.57415,55.8326],[37.57402,55.83237],[37.57395,55.83225],[37.57387,55.83207],[37.57378,55.83183],[37.57368,55.83148],[37.57364,55.83127],[37.57361,55.83102],[37.57361,55.83087],[37.57363,55.83047],[37.57369,55.82915],[37.57371,55.82867],[37.57379,55.82688],[37.57387,55.82508],[37.57395,55.82329],[37.57398,55.8228],[37.57405,55.82239],[37.57417,55.82197],[37.57433,55.82155],[37.57436,55.82151],[37.57462,55.82112],[37.57519,55.82036],[37.57557,55.81985],[37.57604,55.81922],[37.57681,55.8182],[37.57697,55.81799],[37.57736,55.81748],[37.57761,55.81714],[37.5779,55.8166],[37.57793,55.81652],[37.5781,55.81606],[37.57839,55.81474],[37.57847,55.81436],[37.57873,55.81318],[37.57873,55.81315],[37.57879,55.81296],[37.5789,55.81263],[37.57911,55.81221],[37.57922,55.81204],[37.57939,55.81183],[37.57971,55.81151],[37.57996,55.81131],[37.5801,55.8112],[37.58053,55.81089],[37.58117,55.81056],[37.58223,55.81007],[37.58373,55.80937],[37.58453,55.80895],[37.58462,55.80888],[37.58494,55.80868],[37.58546,55.80822],[37.58576,55.8079],[37.58603,55.80756],[37.58618,55.80733],[37.58621,55.80728],[37.58628,55.80715],[37.58633,55.80703],[37.58639,55.80685],[37.58648,55.80662],[37.58655,55.80636],[37.58659,55.80622],[37.58664,55.80598],[37.58673,55.80569],[37.58689,55.80529],[37.58704,55.80495],[37.58723,55.80453],[37.58739,55.8041],[37.58755,55.80364],[37.58768,55.80321],[37.58777,55.80285],[37.58785,55.80255],[37.58816,55.8013],[37.58826,55.80068],[37.58832,55.80032],[37.58841,55.79973],[37.58849,55.7991],[37.5886,55.79876],[37.58869,55.79827],[37.58874,55.79799],[37.58875,55.79791],[37.58881,55.7977],[37.58887,55.79752],[37.58892,55.79739],[37.58897,55.7971],[37.58899,55.79695],[37.58915,55.79591],[37.58918,55.79559],[37.58926,55.79503],[37.5893,55.79474],[37.58933,55.79453],[37.58936,55.7944],[37.58938,55.79418],[37.58939,55.79402],[37.58939,55.79392],[37.58937,55.79376],[37.58934,55.79362],[37.58931,55.7935],[37.58927,55.79339],[37.58919,55.79324],[37.58897,55.79287],[37.58884,55.79263],[37.58878,55.79254],[37.58837,55.79174],[37.58831,55.79159],[37.58819,55.79118],[37.58805,55.79075],[37.58792,55.79024],[37.58781,55.7897],[37.58777,55.78945],[37.58772,55.78918],[37.58764,55.78872],[37.58755,55.78819],[37.5874,55.78758],[37.58725,55.78708],[37.58712,55.78659],[37.58701,55.78605],[37.5869,55.7856],[37.58673,55.78495],[37.58657,55.78444],[37.58628,55.7835],[37.58625,55.7834],[37.58622,55.78331],[37.58613,55.78298],[37.58585,55.78196],[37.58566,55.78147],[37.58543,55.78092],[37.58524,55.78054],[37.58509,55.7803],[37.58492,55.78006],[37.58468,55.7798],[37.5844,55.77952],[37.58401,55.7792],[37.58365,55.77894],[37.58328,55.77868],[37.58274,55.77833],[37.58231,55.77806],[37.58185,55.77777],[37.58157,55.77761],[37.58138,55.7775],[37.58132,55.77747],[37.5817,55.7767]]}},{"type":"Feature","properties":{"id":"link-dme","kind":"link","subKey":"mo.dme.sub","real":true,"via":"Aeroexpress"},"geometry":{"type":"LineString","coordinates":[[37.9063,55.4088],[37.89459,55.41794],[37.89392,55.41856],[37.89357,55.41895],[37.8935,55.41902],[37.89284,55.41968],[37.89267,55.41986],[37.89249,55.42005],[37.89224,55.42028],[37.8919,55.42057],[37.89127,55.42105],[37.89068,55.42153],[37.89037,55.4218],[37.88974,55.4223],[37.88933,55.4226],[37.88885,55.42295],[37.88712,55.42408],[37.88614,55.4248],[37.88278,55.42754],[37.88132,55.42875],[37.88006,55.42979],[37.87939,55.43032],[37.87928,55.43041],[37.87748,55.43183],[37.87661,55.43253],[37.87587,55.43311],[37.87552,55.43336],[37.87514,55.43362],[37.87488,55.43378],[37.87457,55.43397],[37.87433,55.4341],[37.87411,55.43422],[37.8739,55.43433],[37.87368,55.43444],[37.87345,55.43455],[37.87311,55.43471],[37.87291,55.4348],[37.87268,55.4349],[37.87244,55.435],[37.87223,55.43508],[37.87199,55.43518],[37.87174,55.43527],[37.87151,55.43535],[37.87126,55.43543],[37.87085,55.43556],[37.87035,55.43571],[37.86993,55.43582],[37.86956,55.43592],[37.86921,55.436],[37.86907,55.43603],[37.86887,55.43607],[37.86864,55.43613],[37.86844,55.43616],[37.86825,55.4362],[37.86802,55.43624],[37.86777,55.43629],[37.86713,55.43639],[37.86676,55.43644],[37.86639,55.43649],[37.86613,55.43652],[37.86596,55.43654],[37.86571,55.43656],[37.86544,55.43658],[37.86519,55.4366],[37.86494,55.43662],[37.86469,55.43662],[37.86412,55.43664],[37.86378,55.43663],[37.86339,55.43663],[37.86302,55.43663],[37.86249,55.43662],[37.86195,55.43659],[37.86148,55.43656],[37.86059,55.43649],[37.85958,55.43638],[37.85894,55.43626],[37.85864,55.4362],[37.85824,55.43613],[37.85786,55.43605],[37.85747,55.43597],[37.85703,55.43587],[37.8565,55.43572],[37.85613,55.43562],[37.85578,55.43551],[37.85538,55.43538],[37.85501,55.43526],[37.85464,55.43512],[37.85421,55.43495],[37.85383,55.43479],[37.85349,55.43466],[37.85264,55.43423],[37.85216,55.43395],[37.85177,55.43372],[37.85136,55.43345],[37.85101,55.43321],[37.85069,55.43299],[37.84816,55.43121],[37.84584,55.42959],[37.84546,55.42932],[37.84415,55.42838],[37.84299,55.42755],[37.84143,55.42644],[37.8366,55.42291],[37.83589,55.42239],[37.83571,55.42227],[37.83513,55.42186],[37.83367,55.42084],[37.83273,55.42023],[37.83246,55.42003],[37.83138,55.41927],[37.8309,55.41893],[37.8298,55.41816],[37.82957,55.41802],[37.82936,55.41789],[37.82922,55.41781],[37.82909,55.41773],[37.82898,55.41768],[37.8288,55.41759],[37.82862,55.4175],[37.82834,55.41737],[37.82813,55.41728],[37.82785,55.41717],[37.82755,55.41705],[37.82734,55.41698],[37.82718,55.41693],[37.82696,55.41686],[37.82672,55.41679],[37.82646,55.41672],[37.82623,55.41666],[37.82605,55.41662],[37.8259,55.41659],[37.82573,55.41655],[37.82555,55.41651],[37.82532,55.41647],[37.82503,55.41642],[37.82466,55.41637],[37.82434,55.41633],[37.82408,55.4163],[37.82376,55.41627],[37.82337,55.41625],[37.823,55.41624],[37.82269,55.41623],[37.82246,55.41623],[37.82225,55.41623],[37.82199,55.41624],[37.82178,55.41625],[37.82157,55.41626],[37.82133,55.41627],[37.82116,55.41628],[37.82096,55.4163],[37.82071,55.41632],[37.81956,55.41643],[37.81062,55.41726],[37.81039,55.41728],[37.81009,55.4173],[37.80965,55.41734],[37.80923,55.41736],[37.80893,55.41737],[37.80854,55.41738],[37.80815,55.41738],[37.80771,55.41738],[37.80727,55.41738],[37.80681,55.41736],[37.80649,55.41734],[37.80605,55.41732],[37.80562,55.41729],[37.8053,55.41726],[37.80497,55.41722],[37.80471,55.41719],[37.80441,55.41716],[37.804,55.4171],[37.80371,55.41706],[37.79863,55.41628],[37.7983,55.41623],[37.79796,55.41619],[37.79774,55.41616],[37.79752,55.41614],[37.79722,55.41611],[37.79693,55.41609],[37.79667,55.41608],[37.79643,55.41607],[37.79619,55.41607],[37.79598,55.41607],[37.79577,55.41607],[37.79551,55.41608],[37.79528,55.41609],[37.79494,55.41611],[37.79475,55.41612],[37.79453,55.41614],[37.79434,55.41616],[37.79409,55.41619],[37.79373,55.41623],[37.79355,55.41626],[37.79335,55.41629],[37.79309,55.41634],[37.79286,55.41638],[37.79259,55.41644],[37.79241,55.41648],[37.79221,55.41653],[37.79205,55.41657],[37.78979,55.41723],[37.78875,55.41754],[37.78838,55.41766],[37.78814,55.41774],[37.7879,55.41783],[37.78767,55.41793],[37.78747,55.41802],[37.78728,55.41811],[37.78712,55.41819],[37.787,55.41826],[37.7868,55.41838],[37.78649,55.4186],[37.78633,55.41873],[37.78618,55.41886],[37.78609,55.41894],[37.78596,55.41908],[37.78586,55.41918],[37.78578,55.41928],[37.78568,55.4194],[37.78561,55.4195],[37.78552,55.41964],[37.78545,55.41979],[37.78538,55.41993],[37.78534,55.42006],[37.7853,55.42019],[37.78525,55.4204],[37.78518,55.42081],[37.78515,55.42124],[37.78509,55.42173],[37.78497,55.42236],[37.78491,55.42269],[37.78484,55.42295],[37.78473,55.42322],[37.78464,55.42344],[37.78455,55.42363],[37.78445,55.42386],[37.78434,55.42403],[37.78421,55.42424],[37.78345,55.42526],[37.78022,55.42982],[37.77953,55.43079],[37.77849,55.43226],[37.77816,55.43273],[37.77785,55.43317],[37.77743,55.43374],[37.77722,55.43402],[37.77689,55.43448],[37.77661,55.43488],[37.77624,55.43525],[37.77618,55.43534],[37.7759,55.43575],[37.77564,55.43612],[37.77561,55.43617],[37.77507,55.43702],[37.77479,55.43745],[37.77451,55.43786],[37.77392,55.43869],[37.77357,55.43918],[37.77332,55.43952],[37.77295,55.44001],[37.77271,55.44035],[37.77212,55.44118],[37.77152,55.44202],[37.77093,55.44285],[37.77075,55.44311],[37.77033,55.44369],[37.7699,55.44429],[37.76974,55.44451],[37.76961,55.44469],[37.76935,55.44505],[37.76915,55.44534],[37.76855,55.44617],[37.76795,55.447],[37.76735,55.44783],[37.76676,55.44864],[37.76615,55.4495],[37.76556,55.45033],[37.7651,55.45096],[37.76495,55.45117],[37.76436,55.452],[37.76374,55.45287],[37.76313,55.45372],[37.76254,55.45455],[37.76194,55.45537],[37.76135,55.4562],[37.76076,55.45703],[37.76016,55.45786],[37.75957,55.45869],[37.75897,55.45953],[37.75837,55.46036],[37.75778,55.46119],[37.75719,55.46202],[37.75684,55.4625],[37.75659,55.46284],[37.75598,55.46368],[37.75537,55.46451],[37.75521,55.46473],[37.75477,55.46533],[37.75414,55.46616],[37.754,55.46635],[37.75345,55.46698],[37.75277,55.46777],[37.75195,55.46856],[37.75121,55.46928],[37.75043,55.47003],[37.74963,55.47081],[37.74882,55.47158],[37.7484,55.472],[37.7483,55.47209],[37.74802,55.47236],[37.74789,55.47248],[37.74778,55.47261],[37.74752,55.47287],[37.74725,55.47314],[37.74716,55.47322],[37.74645,55.47392],[37.74564,55.47469],[37.74483,55.47547],[37.74402,55.47624],[37.74322,55.47701],[37.74241,55.47778],[37.74217,55.47801],[37.7416,55.47856],[37.74081,55.47933],[37.74004,55.48007],[37.73934,55.48076],[37.73922,55.48087],[37.73843,55.48164],[37.73763,55.48242],[37.73682,55.4832],[37.73602,55.48398],[37.73519,55.48478],[37.73437,55.48558],[37.73412,55.48582],[37.7335,55.48636],[37.73276,55.48712],[37.73207,55.48784],[37.73198,55.48793],[37.73126,55.48862],[37.73118,55.4887],[37.73038,55.48947],[37.72957,55.49025],[37.72949,55.49032],[37.72918,55.49062],[37.72894,55.49088],[37.72884,55.49105],[37.72851,55.49162],[37.72841,55.49192],[37.72825,55.49243],[37.7282,55.49277],[37.72812,55.49343],[37.72811,55.49367],[37.72809,55.49456],[37.72808,55.49501],[37.72801,55.49604],[37.72799,55.49634],[37.72795,55.49688],[37.72783,55.49722],[37.72761,55.49786],[37.72746,55.49808],[37.72697,55.49876],[37.72685,55.49891],[37.72667,55.49915],[37.72608,55.4997],[37.7253,55.50049],[37.72456,55.50124],[37.7238,55.50201],[37.72303,55.5028],[37.72225,55.50358],[37.72147,55.50437],[37.7207,55.50516],[37.71992,55.50595],[37.71915,55.50673],[37.71838,55.50751],[37.7176,55.50831],[37.71711,55.50881],[37.71686,55.50904],[37.71606,55.50979],[37.71524,55.51055],[37.71441,55.51133],[37.71393,55.51177],[37.71354,55.51208],[37.71261,55.51281],[37.71234,55.51303],[37.71224,55.5131],[37.71169,55.51353],[37.71076,55.51425],[37.71068,55.51431],[37.71047,55.51448],[37.70985,55.51499],[37.70943,55.51534],[37.70922,55.51551],[37.70899,55.51568],[37.7087,55.51591],[37.70827,55.51628],[37.70813,55.51641],[37.70804,55.5165],[37.70764,55.51693],[37.7074,55.51719],[37.70702,55.51762],[37.70677,55.51791],[37.7067,55.518],[37.7061,55.51867],[37.70583,55.51897],[37.70539,55.51947],[37.7049,55.52003],[37.70469,55.52028],[37.70398,55.52109],[37.70365,55.52147],[37.70332,55.5219],[37.7032,55.52205],[37.7028,55.52261],[37.70272,55.52274],[37.70244,55.52319],[37.7022,55.52359],[37.70211,55.52373],[37.70181,55.52426],[37.70173,55.52444],[37.70157,55.52476],[37.7013,55.52531],[37.7011,55.52573],[37.70088,55.52618],[37.70064,55.5267],[37.70047,55.52705],[37.70006,55.52792],[37.69965,55.5288],[37.69957,55.52896],[37.69924,55.52966],[37.69883,55.53052],[37.69842,55.53139],[37.698,55.53226],[37.69758,55.53314],[37.69718,55.53398],[37.69704,55.53429],[37.69678,55.53483],[37.69636,55.5357],[37.69594,55.53657],[37.69552,55.53744],[37.69548,55.53752],[37.69509,55.53832],[37.69494,55.53864],[37.69465,55.53918],[37.6943,55.53973],[37.69411,55.54001],[37.69356,55.54087],[37.69295,55.54177],[37.69279,55.542],[37.69235,55.54264],[37.69199,55.54316],[37.69179,55.54347],[37.69122,55.54432],[37.69069,55.545],[37.69052,55.54517],[37.6903,55.54538],[37.68986,55.54575],[37.68963,55.5459],[37.6886,55.54659],[37.68783,55.5471],[37.68757,55.54727],[37.6865,55.54794],[37.68624,55.5481],[37.68544,55.5486],[37.68448,55.5492],[37.68428,55.54934],[37.68416,55.54942],[37.68361,55.54979],[37.68321,55.55003],[37.68219,55.55062],[37.68212,55.55067],[37.68111,55.55136],[37.68072,55.55163],[37.68022,55.55211],[37.67942,55.55287],[37.67861,55.55364],[37.6778,55.55442],[37.67682,55.55513],[37.67584,55.55584],[37.67542,55.55614],[37.6749,55.55656],[37.67473,55.5567],[37.67426,55.55722],[37.67417,55.55735],[37.67385,55.55781],[37.67364,55.5582],[37.67317,55.55906],[37.67272,55.55989],[37.6727,55.55992],[37.67221,55.56078],[37.67174,55.56163],[37.67129,55.56243],[37.67125,55.56249],[37.6707,55.56333],[37.67006,55.56417],[37.66966,55.56467],[37.66934,55.56501],[37.66913,55.56523],[37.66881,55.56552],[37.66854,55.56579],[37.66809,55.56621],[37.66771,55.56655],[37.66689,55.56729],[37.66687,55.56731],[37.66665,55.56751],[37.66636,55.5678],[37.66608,55.56809],[37.66602,55.56815],[37.66565,55.56853],[37.66539,55.56888],[37.66511,55.56924],[37.66488,55.56966],[37.66486,55.5697],[37.66468,55.57008],[37.66454,55.57057],[37.66429,55.57146],[37.66425,55.57159],[37.66401,55.5724],[37.66399,55.57245],[37.66387,55.57275],[37.66379,55.57293],[37.66366,55.57312],[37.66365,55.57317],[37.66345,55.57347],[37.6632,55.57382],[37.66304,55.57399],[37.66255,55.57454],[37.66232,55.57479],[37.66171,55.57546],[37.66164,55.57555],[37.66127,55.57598],[37.66099,55.57636],[37.66091,55.57647],[37.66077,55.57669],[37.66055,55.57723],[37.66039,55.57792],[37.66038,55.57815],[37.66035,55.5785],[37.66033,55.57882],[37.6603,55.57907],[37.66017,55.58],[37.66006,55.58055],[37.66003,55.58069],[37.65986,55.58134],[37.6598,55.58158],[37.65975,55.58176],[37.65953,55.58246],[37.65931,55.58316],[37.65923,55.58335],[37.65904,55.58377],[37.65881,55.58423],[37.65872,55.58441],[37.65862,55.58466],[37.65837,55.58509],[37.65815,55.58548],[37.65788,55.58594],[37.65738,55.5868],[37.657,55.58745],[37.6565,55.5883],[37.656,55.58915],[37.65579,55.58955],[37.65552,55.59],[37.65501,55.59086],[37.65461,55.59154],[37.65449,55.59175],[37.65399,55.59259],[37.65358,55.5933],[37.65349,55.59344],[37.65297,55.59426],[37.65248,55.5951],[37.65237,55.59528],[37.65207,55.59588],[37.65203,55.59595],[37.6518,55.59637],[37.65156,55.59681],[37.65144,55.59702],[37.65111,55.59766],[37.65094,55.59794],[37.65078,55.59821],[37.65059,55.59854],[37.65008,55.59939],[37.64997,55.59957],[37.64972,55.60001],[37.64958,55.60024],[37.64934,55.60063],[37.64905,55.6011],[37.64877,55.60147],[37.6484,55.60191],[37.64762,55.6027],[37.64683,55.60348],[37.64682,55.60349],[37.6463,55.604],[37.64603,55.60426],[37.64585,55.60444],[37.64554,55.60475],[37.64543,55.60487],[37.64526,55.60505],[37.64482,55.6055],[37.64459,55.60579],[37.64452,55.60588],[37.64438,55.60608],[37.6442,55.60633],[37.64406,55.60661],[37.64388,55.607],[37.64381,55.60714],[37.64357,55.60768],[37.64346,55.60787],[37.64316,55.60843],[37.64292,55.60871],[37.64271,55.60895],[37.6421,55.60948],[37.64204,55.60953],[37.64162,55.60984],[37.64111,55.61017],[37.64085,55.61034],[37.64041,55.61061],[37.64005,55.61084],[37.63904,55.61147],[37.63899,55.6115],[37.63829,55.61194],[37.63792,55.61217],[37.63767,55.61232],[37.63718,55.61263],[37.63689,55.61285],[37.63661,55.61305],[37.63656,55.61308],[37.63601,55.61358],[37.63596,55.61363],[37.63527,55.61428],[37.63518,55.61438],[37.63474,55.6149],[37.6345,55.61521],[37.63396,55.61606],[37.6335,55.61691],[37.63324,55.61739],[37.63302,55.61777],[37.63264,55.61843],[37.63253,55.61862],[37.63207,55.61943],[37.63204,55.61948],[37.63157,55.62034],[37.6311,55.62119],[37.63072,55.62187],[37.63062,55.62205],[37.63015,55.62291],[37.62968,55.62377],[37.62925,55.62455],[37.62921,55.62463],[37.62882,55.6254],[37.62879,55.62549],[37.62854,55.62624],[37.6285,55.62638],[37.62831,55.62711],[37.62827,55.62727],[37.62805,55.62812],[37.62783,55.62901],[37.62767,55.62966],[37.62761,55.62991],[37.62739,55.63079],[37.62733,55.63103],[37.62717,55.63168],[37.62707,55.63208],[37.62693,55.63241],[37.62683,55.63287],[37.62667,55.63345],[37.62644,55.63435],[37.6262,55.63524],[37.62597,55.63613],[37.62572,55.63706],[37.62552,55.63786],[37.6255,55.63796],[37.62544,55.63828],[37.62539,55.63871],[37.62538,55.63885],[37.62536,55.63915],[37.62527,55.63975],[37.62512,55.64042],[37.62506,55.64063],[37.625,55.64092],[37.62482,55.64152],[37.62474,55.64175],[37.62449,55.6424],[37.62435,55.6427],[37.62428,55.64287],[37.62418,55.64316],[37.62415,55.64328],[37.62396,55.64416],[37.62372,55.64505],[37.62349,55.64595],[37.62336,55.64642],[37.62325,55.64684],[37.62317,55.64716],[37.62303,55.64774],[37.62289,55.64833],[37.62281,55.64863],[37.6228,55.64871],[37.62262,55.64945],[37.62258,55.6496],[37.62242,55.65023],[37.62222,55.65103],[37.6222,55.65112],[37.62209,55.65183],[37.6221,55.65202],[37.62216,55.65291],[37.62221,55.65381],[37.62226,55.65472],[37.62228,55.65496],[37.62232,55.65562],[37.62237,55.65653],[37.62242,55.65743],[37.62246,55.65831],[37.62251,55.65919],[37.62256,55.66005],[37.62256,55.66008],[37.62257,55.66027],[37.62262,55.66093],[37.62264,55.66119],[37.62266,55.66136],[37.62269,55.66183],[37.62276,55.66273],[37.62279,55.66306],[37.62279,55.66363],[37.6228,55.66453],[37.62281,55.66544],[37.62281,55.66636],[37.62282,55.66728],[37.62282,55.66819],[37.62283,55.66909],[37.62283,55.66998],[37.62283,55.67015],[37.62274,55.67088],[37.62266,55.67154],[37.62262,55.67178],[37.62247,55.67267],[37.62233,55.67357],[37.62218,55.67447],[37.6221,55.67497],[37.62203,55.67537],[37.62192,55.67613],[37.62179,55.67693],[37.62165,55.67783],[37.62151,55.67874],[37.62137,55.67964],[37.62136,55.67973],[37.62127,55.68044],[37.62126,55.68055],[37.62124,55.68072],[37.62111,55.68145],[37.62097,55.68226],[37.62096,55.68235],[37.62082,55.68314],[37.62079,55.68325],[37.62062,55.68373],[37.6206,55.68378],[37.62059,55.68381],[37.62047,55.68413],[37.62042,55.68426],[37.6201,55.68478],[37.61995,55.68501],[37.61955,55.68563],[37.61939,55.68588],[37.61882,55.68672],[37.61824,55.68759],[37.61798,55.68797],[37.61774,55.68832],[37.61762,55.68853],[37.61714,55.68939],[37.61709,55.68948],[37.6169,55.68992],[37.61686,55.69005],[37.6168,55.69027],[37.61674,55.69044],[37.61663,55.69087],[37.61658,55.69115],[37.61642,55.69203],[37.6164,55.69214],[37.61638,55.69228],[37.61632,55.69293],[37.61623,55.69383],[37.6161,55.69473],[37.616,55.69563],[37.61591,55.69653],[37.61589,55.69693],[37.61591,55.69741],[37.61599,55.69774],[37.61618,55.69826],[37.61636,55.69863],[37.61666,55.69908],[37.61694,55.69944],[37.61738,55.69989],[37.61794,55.70036],[37.6183,55.70064],[37.61926,55.70138],[37.62022,55.70209],[37.62086,55.70254],[37.62121,55.70278],[37.62223,55.70347],[37.62245,55.70363],[37.62327,55.70421],[37.62377,55.70456],[37.62428,55.7049],[37.62529,55.70559],[37.62562,55.70581],[37.62611,55.70611],[37.62633,55.70625],[37.62657,55.70641],[37.627,55.70673],[37.6273,55.70696],[37.62747,55.7071],[37.62794,55.70747],[37.62822,55.7077],[37.62831,55.70777],[37.62856,55.70798],[37.62883,55.70819],[37.62903,55.70834],[37.62916,55.70843],[37.62938,55.70858],[37.62984,55.70882],[37.63028,55.70903],[37.63042,55.70909],[37.63051,55.70913],[37.63066,55.70918],[37.63082,55.70925],[37.63106,55.70933],[37.63153,55.70947],[37.63182,55.70954],[37.63186,55.70955],[37.63228,55.70967],[37.63308,55.70988],[37.63327,55.70993],[37.63355,55.71001],[37.63392,55.7101],[37.6343,55.71021],[37.63467,55.71034],[37.63474,55.71036],[37.63516,55.71049],[37.63555,55.71062],[37.63587,55.71074],[37.63602,55.7108],[37.63618,55.71087],[37.63648,55.711],[37.6368,55.71114],[37.63715,55.7113],[37.63727,55.71135],[37.63747,55.71145],[37.63779,55.71161],[37.63813,55.71179],[37.63843,55.71196],[37.63869,55.7121],[37.63899,55.71228],[37.6393,55.71247],[37.63955,55.71261],[37.63988,55.71281],[37.64017,55.71301],[37.64044,55.7132],[37.64056,55.7133],[37.64066,55.71338],[37.64097,55.71362],[37.64117,55.71379],[37.64144,55.71405],[37.64161,55.71422],[37.64181,55.71446],[37.64205,55.71477],[37.64221,55.71502],[37.64233,55.71523],[37.64246,55.71547],[37.64261,55.71579],[37.64265,55.7159],[37.64278,55.71622],[37.64292,55.71656],[37.64298,55.71678],[37.64318,55.71749],[37.64323,55.71767],[37.64326,55.71778],[37.64336,55.71857],[37.64337,55.71866],[37.64337,55.71942],[37.64337,55.71947],[37.64335,55.71967],[37.64333,55.71995],[37.6433,55.72016],[37.64325,55.72036],[37.64318,55.72067],[37.64307,55.72104],[37.64301,55.72125],[37.643,55.7213],[37.64271,55.72203],[37.64267,55.72212],[37.64254,55.72241],[37.6389,55.73]]}},{"type":"Feature","properties":{"id":"link-vko","kind":"link","subKey":"mo.vko.sub","real":true,"via":"M8A"},"geometry":{"type":"LineString","coordinates":[[37.28728,55.60731],[37.28731,55.60737],[37.28546,55.60845],[37.28514,55.60866],[37.28486,55.60889],[37.28461,55.60914],[37.28442,55.6094],[37.28426,55.60966],[37.28416,55.60994],[37.2841,55.61022],[37.28409,55.6105],[37.28474,55.61635],[37.28476,55.61667],[37.28475,55.617],[37.2847,55.61757],[37.28473,55.61789],[37.2848,55.61853],[37.28486,55.6188],[37.28495,55.61907],[37.28508,55.61934],[37.28525,55.6196],[37.28544,55.61984],[37.28566,55.62007],[37.28595,55.62032],[37.28612,55.62044],[37.28629,55.62057],[37.28866,55.6221],[37.28931,55.62247],[37.29001,55.6228],[37.29075,55.62309],[37.29155,55.62334],[37.29372,55.62392],[37.29571,55.62445],[37.29778,55.625],[37.29836,55.62518],[37.29891,55.62537],[37.30042,55.62595],[37.30095,55.62613],[37.30152,55.62628],[37.30211,55.62639],[37.30271,55.62647],[37.30638,55.62682],[37.30686,55.62688],[37.30733,55.62696],[37.3078,55.62707],[37.30825,55.62719],[37.30867,55.62733],[37.30907,55.62749],[37.30945,55.62767],[37.3098,55.62786],[37.31229,55.6294],[37.31283,55.6297],[37.31342,55.62998],[37.31404,55.63023],[37.31469,55.63045],[37.31951,55.63187],[37.32028,55.63206],[37.32107,55.63222],[37.32187,55.63233],[37.32269,55.63241],[37.32587,55.6326],[37.32648,55.63265],[37.3271,55.63273],[37.32808,55.63288],[37.33325,55.63368],[37.33512,55.63396],[37.33617,55.63412],[37.33634,55.63415],[37.33729,55.6343],[37.33784,55.63436],[37.33838,55.6344],[37.33902,55.63441],[37.33953,55.63438],[37.34001,55.63434],[37.34202,55.63409],[37.34279,55.63403],[37.34352,55.63403],[37.34416,55.63406],[37.34504,55.63417],[37.34579,55.63433],[37.3466,55.63457],[37.34724,55.63483],[37.3478,55.63512],[37.35518,55.63958],[37.36594,55.64607],[37.36645,55.64635],[37.36705,55.64662],[37.36772,55.64688],[37.36837,55.6471],[37.37048,55.64769],[37.37155,55.64799],[37.3729,55.64837],[37.37344,55.64849],[37.3743,55.64866],[37.37512,55.64875],[37.376,55.64879],[37.37663,55.64878],[37.37728,55.64874],[37.37783,55.64867],[37.37838,55.64858],[37.37893,55.64845],[37.37938,55.64833],[37.37995,55.64814],[37.382,55.64736],[37.38291,55.64701],[37.38362,55.6468],[37.3845,55.64664],[37.38538,55.64658],[37.38617,55.6466],[37.38702,55.64671],[37.38784,55.64691],[37.3885,55.64715],[37.38907,55.64745],[37.38946,55.64772],[37.38973,55.64795],[37.39133,55.64967],[37.39691,55.65566],[37.39727,55.65597],[37.39782,55.65635],[37.39845,55.65668],[37.39907,55.65692],[37.39979,55.65714],[37.40027,55.65724],[37.41035,55.65917],[37.41108,55.65928],[37.41185,55.65937],[37.41249,55.65943],[37.41327,55.65947],[37.41405,55.65949],[37.41509,55.65949],[37.41724,55.65948],[37.42797,55.65947],[37.42903,55.65951],[37.43015,55.65963],[37.43126,55.65982],[37.43238,55.6601],[37.43334,55.66043],[37.43414,55.66077],[37.43462,55.66102],[37.43508,55.66129],[37.43549,55.66157],[37.43588,55.66188],[37.43858,55.66424],[37.43924,55.66474],[37.44036,55.66553],[37.44096,55.66597],[37.44409,55.66862],[37.44443,55.66887],[37.44485,55.66912],[37.44534,55.66935],[37.44583,55.66953],[37.4488,55.67045],[37.4547,55.67226],[37.4561,55.67276],[37.45744,55.67334],[37.45867,55.67398],[37.4598,55.67468],[37.4693,55.68128],[37.47225,55.68333],[37.47303,55.68382],[37.48019,55.68786],[37.48292,55.68927],[37.48443,55.69006],[37.48475,55.6902],[37.48509,55.69034],[37.48655,55.69086],[37.48701,55.69105],[37.48753,55.6913],[37.48801,55.6916],[37.48998,55.69304],[37.49047,55.69335],[37.49104,55.69364],[37.49302,55.69447],[37.49359,55.69474],[37.49415,55.69501],[37.49668,55.69643],[37.49706,55.69665],[37.49864,55.69753],[37.49954,55.69803],[37.50048,55.69856],[37.50063,55.69864],[37.50064,55.69865],[37.50073,55.6987],[37.50074,55.6987],[37.50076,55.69872],[37.50077,55.69872],[37.50115,55.69893],[37.51317,55.70566],[37.51361,55.70589],[37.51409,55.70612],[37.51527,55.70664],[37.51631,55.7071],[37.51733,55.70755],[37.52038,55.70889],[37.52044,55.70892],[37.5212,55.70925],[37.52169,55.7095],[37.5219,55.70961],[37.52242,55.70996],[37.52285,55.71033],[37.52319,55.71071],[37.52344,55.71111],[37.52362,55.71152],[37.5237,55.71193],[37.52371,55.71234],[37.52364,55.71273],[37.52349,55.71312],[37.5233,55.71346],[37.52304,55.7138],[37.52271,55.71413],[37.52234,55.71443],[37.52193,55.7147],[37.52158,55.7149],[37.5185,55.71635],[37.518,55.71658],[37.51211,55.71907],[37.51125,55.71948],[37.50988,55.72019],[37.50949,55.72038],[37.50902,55.72057],[37.50851,55.72073],[37.50798,55.72086],[37.50738,55.72096],[37.50675,55.72103],[37.50623,55.72105],[37.50367,55.72105],[37.50313,55.72106],[37.50251,55.72112],[37.50186,55.72123],[37.50132,55.72136],[37.50094,55.72147],[37.50048,55.72164],[37.50009,55.72182],[37.49973,55.72201],[37.49941,55.72222],[37.49938,55.72224],[37.49918,55.72239],[37.49899,55.72256],[37.49693,55.72481],[37.49548,55.7264],[37.49523,55.72669],[37.49501,55.72699],[37.49479,55.72733],[37.49459,55.72769],[37.49443,55.72808],[37.49429,55.7285],[37.49419,55.72897],[37.49416,55.7295],[37.49421,55.73014],[37.49432,55.73066],[37.49456,55.73125],[37.49491,55.73189],[37.49683,55.73473],[37.49724,55.73523],[37.49778,55.73574],[37.4983,55.73612],[37.49896,55.73653],[37.49974,55.73692],[37.5006,55.73726],[37.50133,55.7375],[37.50217,55.73771],[37.50318,55.7379],[37.50421,55.73803],[37.50522,55.73809],[37.50604,55.7381],[37.50691,55.73806],[37.50768,55.73799],[37.50842,55.73789],[37.51031,55.73753],[37.51138,55.73732],[37.51663,55.73632],[37.51792,55.73607],[37.52128,55.73543],[37.52167,55.73537],[37.52225,55.7353],[37.52294,55.73526],[37.52368,55.73527],[37.52433,55.73531],[37.52497,55.7354],[37.52559,55.73552],[37.52627,55.7357],[37.52679,55.73588],[37.52728,55.73609],[37.52768,55.7363],[37.52797,55.73647],[37.52831,55.73671],[37.52862,55.73697],[37.52893,55.7373],[37.52918,55.73765],[37.5294,55.73809],[37.52951,55.73856],[37.5295,55.73906],[37.52939,55.73951],[37.52885,55.74086],[37.52841,55.74196],[37.52815,55.74261],[37.52805,55.74303],[37.52805,55.74344],[37.52812,55.74382],[37.52827,55.74422],[37.52852,55.74463],[37.52886,55.74502],[37.52925,55.74537],[37.52976,55.74571],[37.53042,55.74606],[37.53111,55.74633],[37.53926,55.74904],[37.5665,55.7434]]}}]}