{"type":"FeatureCollection","features":[{"type":"Feature","properties":{"id":"turistik-0","kind":"district","btype":"turistik","name":"Downtown · Financial District","lab":1},"geometry":{"type":"MultiPolygon","coordinates":[[[[-79.38343,43.64511],[-79.38678,43.6508],[-79.37926,43.65242],[-79.38311,43.66134],[-79.38168,43.66139],[-79.36798,43.66429],[-79.36446,43.65562],[-79.35426,43.65788],[-79.35182,43.65555],[-79.35239,43.65545],[-79.35348,43.65635],[-79.35482,43.65557],[-79.35451,43.65527],[-79.35465,43.65491],[-79.35698,43.6544],[-79.35751,43.65448],[-79.36037,43.65283],[-79.36127,43.65191],[-79.37041,43.64979],[-79.37384,43.64857],[-79.37807,43.64629],[-79.38343,43.64511]]],[[[-79.39067,43.66026],[-79.39205,43.66112],[-79.39311,43.66277],[-79.3939,43.66499],[-79.39376,43.66546],[-79.39321,43.66601],[-79.39315,43.66637],[-79.39414,43.66872],[-79.38679,43.67023],[-79.38311,43.66134],[-79.39049,43.65986],[-79.39067,43.66026]]]]}},{"type":"Feature","properties":{"id":"turistik-lab-0","kind":"district-label","btype":"turistik","name":"Downtown · Financial District"},"geometry":{"type":"Point","coordinates":[-79.37605,43.65698]}},{"type":"Feature","properties":{"id":"turistik-1","kind":"district","btype":"turistik","name":"Kensington · Chinatown","lab":1},"geometry":{"type":"MultiPolygon","coordinates":[[[[-79.39049,43.65986],[-79.38662,43.65084],[-79.40401,43.64719],[-79.4077,43.65647],[-79.39049,43.65986]]]]}},{"type":"Feature","properties":{"id":"turistik-lab-1","kind":"district-label","btype":"turistik","name":"Kensington · Chinatown"},"geometry":{"type":"Point","coordinates":[-79.39723,43.65357]}},{"type":"Feature","properties":{"id":"turistik-2","kind":"district","btype":"turistik","name":"Distillery District","lab":1},"geometry":{"type":"MultiPolygon","coordinates":[[[[-79.36204,43.65017],[-79.35742,43.65125],[-79.3569,43.65005],[-79.35919,43.64943],[-79.36172,43.64948],[-79.36204,43.65017]]]]}},{"type":"Feature","properties":{"id":"turistik-lab-2","kind":"district-label","btype":"turistik","name":"Distillery District"},"geometry":{"type":"Point","coordinates":[-79.3593,43.65018]}},{"type":"Feature","properties":{"id":"turistik-3","kind":"district","btype":"turistik","name":"Harbourfront · CityPlace","lab":1},"geometry":{"type":"MultiPolygon","coordinates":[[[[-79.39213,43.64322],[-79.38247,43.64529],[-79.37955,43.63804],[-79.38367,43.63766],[-79.38422,43.63899],[-79.38492,43.63883],[-79.38439,43.63758],[-79.38545,43.63748],[-79.38506,43.63763],[-79.38525,43.63817],[-79.38576,43.63807],[-79.38556,43.63747],[-79.3866,43.63738],[-79.38704,43.6385],[-79.38754,43.63839],[-79.38712,43.63732],[-79.38884,43.63717],[-79.3892,43.63809],[-79.38962,43.63803],[-79.38988,43.63793],[-79.38956,43.63712],[-79.39105,43.63699],[-79.39129,43.63753],[-79.39194,43.63739],[-79.39159,43.63636],[-79.39184,43.63693],[-79.39514,43.63662],[-79.39525,43.63644],[-79.39449,43.63554],[-79.39293,43.63631],[-79.39185,43.63634],[-79.39287,43.63621],[-79.39499,43.63533],[-79.39597,43.63653],[-79.39682,43.63646],[-79.39694,43.63642],[-79.39542,43.63472],[-79.39687,43.63396],[-79.39841,43.63572],[-79.39965,43.63648],[-79.40142,43.64075],[-79.39213,43.64322]]]]}},{"type":"Feature","properties":{"id":"turistik-lab-3","kind":"district-label","btype":"turistik","name":"Harbourfront · CityPlace"},"geometry":{"type":"Point","coordinates":[-79.39038,43.64011]}},{"type":"Feature","properties":{"id":"turistik-4","kind":"district","btype":"turistik","name":"Liberty Village · Fort York","lab":1},"geometry":{"type":"MultiPolygon","coordinates":[[[[-79.42894,43.63344],[-79.41953,43.63583],[-79.41969,43.63607],[-79.42561,43.63439],[-79.42862,43.64223],[-79.4282,43.64231],[-79.42557,43.64126],[-79.42241,43.64066],[-79.40702,43.64007],[-79.40127,43.64037],[-79.39965,43.63648],[-79.39841,43.63572],[-79.39687,43.63396],[-79.40232,43.63101],[-79.40303,43.63128],[-79.40294,43.63147],[-79.40506,43.63312],[-79.40665,43.63285],[-79.40862,43.63307],[-79.40879,43.6317],[-79.40999,43.63115],[-79.40998,43.63095],[-79.40946,43.63104],[-79.40907,43.6298],[-79.40915,43.62955],[-79.41023,43.6292],[-79.41005,43.62826],[-79.41018,43.62795],[-79.41118,43.62736],[-79.41264,43.62737],[-79.4135,43.62703],[-79.41469,43.62718],[-79.41563,43.62691],[-79.41565,43.62767],[-79.41625,43.62814],[-79.41735,43.62795],[-79.41786,43.62737],[-79.41777,43.62692],[-79.4184,43.62704],[-79.41863,43.62678],[-79.41654,43.62642],[-79.41485,43.62653],[-79.41661,43.6263],[-79.41946,43.62689],[-79.42001,43.62677],[-79.42074,43.62736],[-79.4225,43.62756],[-79.42256,43.62774],[-79.42212,43.62834],[-79.42248,43.62912],[-79.41974,43.62936],[-79.41936,43.62902],[-79.41976,43.62878],[-79.4198,43.62841],[-79.41936,43.62869],[-79.41917,43.62849],[-79.41936,43.62815],[-79.41927,43.62798],[-79.4189,43.62791],[-79.41861,43.62825],[-79.4181,43.62827],[-79.41845,43.62949],[-79.42014,43.6301],[-79.42701,43.6297],[-79.42774,43.63092],[-79.42888,43.63138],[-79.42949,43.63197],[-79.42936,43.63243],[-79.42857,43.63276],[-79.42894,43.63344]]]]}},{"type":"Feature","properties":{"id":"turistik-lab-4","kind":"district-label","btype":"turistik","name":"Liberty Village · Fort York"},"geometry":{"type":"Point","coordinates":[-79.41451,43.63481]}},{"type":"Feature","properties":{"id":"turistik-5","kind":"district","btype":"turistik","name":"The Annex · Casa Loma","lab":1},"geometry":{"type":"MultiPolygon","coordinates":[[[[-79.41842,43.66358],[-79.4219,43.67253],[-79.41471,43.67397],[-79.4183,43.6835],[-79.41341,43.68448],[-79.41347,43.68463],[-79.4119,43.68495],[-79.41282,43.68723],[-79.41227,43.68734],[-79.41267,43.68867],[-79.40302,43.69078],[-79.39796,43.67807],[-79.39121,43.68112],[-79.38679,43.67023],[-79.41842,43.66358]]]]}},{"type":"Feature","properties":{"id":"turistik-lab-5","kind":"district-label","btype":"turistik","name":"The Annex · Casa Loma"},"geometry":{"type":"Point","coordinates":[-79.40561,43.67577]}}]}