{"type":"FeatureCollection","features":[{"type":"Feature","properties":{"id":"ticari-0","kind":"district","btype":"ticari","name":"Square One Shopping Centre","lab":1},"geometry":{"type":"MultiPolygon","coordinates":[[[[-79.6457,43.59542],[-79.64398,43.59463],[-79.64221,43.59603],[-79.63923,43.5942],[-79.63887,43.59261],[-79.64288,43.5892],[-79.64856,43.59267],[-79.64725,43.59393],[-79.64606,43.59322],[-79.64566,43.5935],[-79.6465,43.59423],[-79.6457,43.59542]]]]}},{"type":"Feature","properties":{"id":"ticari-lab-0","kind":"district-label","btype":"ticari","name":"Square One Shopping Centre"},"geometry":{"type":"Point","coordinates":[-79.64326,43.59276]}},{"type":"Feature","properties":{"id":"ticari-1","kind":"district","btype":"ticari","name":"Trinity Common Mall","lab":1},"geometry":{"type":"MultiPolygon","coordinates":[[[[-79.76684,43.73435],[-79.77019,43.73247],[-79.76553,43.72771],[-79.76391,43.72719],[-79.76017,43.73027],[-79.76684,43.73435]]]]}},{"type":"Feature","properties":{"id":"ticari-lab-1","kind":"district-label","btype":"ticari","name":"Trinity Common Mall"},"geometry":{"type":"Point","coordinates":[-79.76525,43.7308]}},{"type":"Feature","properties":{"id":"ticari-2","kind":"district","btype":"ticari","name":"RioCan Colossus Centre","lab":1},"geometry":{"type":"MultiPolygon","coordinates":[[[[-79.54155,43.78723],[-79.54096,43.78816],[-79.54203,43.78937],[-79.54315,43.78977],[-79.5464,43.78936],[-79.54609,43.78861],[-79.54701,43.78842],[-79.54565,43.78253],[-79.54298,43.78325],[-79.54106,43.78435],[-79.54027,43.78552],[-79.54026,43.78617],[-79.5413,43.78642],[-79.54155,43.78723]]]]}},{"type":"Feature","properties":{"id":"ticari-lab-2","kind":"district-label","btype":"ticari","name":"RioCan Colossus Centre"},"geometry":{"type":"Point","coordinates":[-79.54382,43.78637]}},{"type":"Feature","properties":{"id":"ticari-3","kind":"district","btype":"ticari","name":"CF Sherway Gardens","lab":1},"geometry":{"type":"MultiPolygon","coordinates":[[[[-79.55899,43.60995],[-79.5594,43.60923],[-79.56046,43.60973],[-79.56113,43.61036],[-79.56223,43.61243],[-79.55938,43.61384],[-79.55585,43.61414],[-79.55241,43.61484],[-79.55222,43.61404],[-79.55276,43.61234],[-79.55388,43.61119],[-79.55517,43.61063],[-79.55899,43.60995]]]]}},{"type":"Feature","properties":{"id":"ticari-lab-3","kind":"district-label","btype":"ticari","name":"CF Sherway Gardens"},"geometry":{"type":"Point","coordinates":[-79.55718,43.61222]}},{"type":"Feature","properties":{"id":"ticari-4","kind":"district","btype":"ticari","name":"Toronto Congress Centre","lab":1},"geometry":{"type":"MultiPolygon","coordinates":[[[[-79.57941,43.69038],[-79.57684,43.69101],[-79.57746,43.69246],[-79.57616,43.69276],[-79.57684,43.69418],[-79.57272,43.69515],[-79.5729,43.6954],[-79.57526,43.69484],[-79.57618,43.697],[-79.58179,43.69567],[-79.57941,43.69038]]]]}},{"type":"Feature","properties":{"id":"ticari-lab-4","kind":"district-label","btype":"ticari","name":"Toronto Congress Centre"},"geometry":{"type":"Point","coordinates":[-79.57833,43.69403]}},{"type":"Feature","properties":{"id":"ticari-5","kind":"district","btype":"ticari","name":"Smart!Centres","lab":1},"geometry":{"type":"MultiPolygon","coordinates":[[[[-79.78836,43.59855],[-79.78971,43.59947],[-79.79135,43.59946],[-79.79041,43.59441],[-79.78906,43.59323],[-79.7874,43.59434],[-79.78513,43.5967],[-79.7858,43.59716],[-79.78509,43.5978],[-79.78652,43.59886],[-79.78715,43.59844],[-79.78836,43.59855]]]]}},{"type":"Feature","properties":{"id":"ticari-lab-5","kind":"district-label","btype":"ticari","name":"Smart!Centres"},"geometry":{"type":"Point","coordinates":[-79.78851,43.59665]}},{"type":"Feature","properties":{"id":"ticari-6","kind":"district","btype":"ticari","name":"Dixie Outlet Mall","lab":1},"geometry":{"type":"MultiPolygon","coordinates":[[[[-79.56931,43.59492],[-79.56676,43.5951],[-79.56423,43.59359],[-79.5672,43.59083],[-79.56931,43.59251],[-79.57093,43.59102],[-79.57289,43.59238],[-79.57065,43.5945],[-79.56931,43.59492]]]]}},{"type":"Feature","properties":{"id":"ticari-lab-6","kind":"district-label","btype":"ticari","name":"Dixie Outlet Mall"},"geometry":{"type":"Point","coordinates":[-79.56849,43.59314]}},{"type":"Feature","properties":{"id":"ticari-7","kind":"district","btype":"ticari","name":"Woodhill Centre","lab":1},"geometry":{"type":"MultiPolygon","coordinates":[[[[-79.70068,43.74752],[-79.698,43.74976],[-79.69315,43.74617],[-79.69599,43.74399],[-79.70068,43.74752]]]]}},{"type":"Feature","properties":{"id":"ticari-lab-7","kind":"district-label","btype":"ticari","name":"Woodhill Centre"},"geometry":{"type":"Point","coordinates":[-79.69694,43.74686]}},{"type":"Feature","properties":{"id":"ticari-8","kind":"district","btype":"ticari","name":"Council Ring Place","lab":1},"geometry":{"type":"MultiPolygon","coordinates":[[[[-79.6714,43.53385],[-79.67045,43.53319],[-79.67581,43.52841],[-79.67863,43.52888],[-79.67924,43.52844],[-79.68002,43.52891],[-79.67612,43.53243],[-79.67517,43.53188],[-79.67351,43.53321],[-79.67301,43.53295],[-79.67258,43.53331],[-79.67226,43.5331],[-79.6714,43.53385]]]]}},{"type":"Feature","properties":{"id":"ticari-lab-8","kind":"district-label","btype":"ticari","name":"Council Ring Place"},"geometry":{"type":"Point","coordinates":[-79.67529,43.53084]}},{"type":"Feature","properties":{"id":"ticari-9","kind":"district","btype":"ticari","name":"William F. White Studios Backlot","lab":1},"geometry":{"type":"MultiPolygon","coordinates":[[[[-79.18201,43.91027],[-79.18405,43.90993],[-79.18478,43.91143],[-79.18584,43.91117],[-79.18603,43.91075],[-79.18718,43.91014],[-79.18734,43.9097],[-79.18705,43.90876],[-79.18592,43.90625],[-79.18335,43.90678],[-79.18315,43.90757],[-79.18135,43.90793],[-79.18111,43.90841],[-79.18201,43.91027]]]]}},{"type":"Feature","properties":{"id":"ticari-lab-9","kind":"district-label","btype":"ticari","name":"William F. White Studios Backlot"},"geometry":{"type":"Point","coordinates":[-79.18451,43.90877]}},{"type":"Feature","properties":{"id":"ticari-10","kind":"district","btype":"ticari","name":"RioCan Elgin Mills Crossing","lab":1},"geometry":{"type":"MultiPolygon","coordinates":[[[[-79.39439,43.9028],[-79.39653,43.90236],[-79.39571,43.89902],[-79.38974,43.90023],[-79.38972,43.90133],[-79.39122,43.90282],[-79.39347,43.90236],[-79.39439,43.9028]]]]}},{"type":"Feature","properties":{"id":"ticari-lab-10","kind":"district-label","btype":"ticari","name":"RioCan Elgin Mills Crossing"},"geometry":{"type":"Point","coordinates":[-79.39328,43.90107]}},{"type":"Feature","properties":{"id":"ticari-11","kind":"district","btype":"ticari","name":"Piazza Del Sole","lab":1},"geometry":{"type":"MultiPolygon","coordinates":[[[[-79.55172,43.78886],[-79.55391,43.78832],[-79.55462,43.79009],[-79.55644,43.78969],[-79.55541,43.79114],[-79.5556,43.79168],[-79.54855,43.7928],[-79.54801,43.79067],[-79.54991,43.79025],[-79.55076,43.79082],[-79.55228,43.79034],[-79.55172,43.78886]]]]}},{"type":"Feature","properties":{"id":"ticari-lab-11","kind":"district-label","btype":"ticari","name":"Piazza Del Sole"},"geometry":{"type":"Point","coordinates":[-79.55214,43.79087]}},{"type":"Feature","properties":{"id":"ticari-12","kind":"district","btype":"ticari","name":"Bramrose Square","lab":1},"geometry":{"type":"MultiPolygon","coordinates":[[[[-79.73916,43.69961],[-79.73557,43.70209],[-79.73545,43.70248],[-79.73788,43.70436],[-79.73948,43.70411],[-79.74222,43.70184],[-79.73916,43.69961]]]]}},{"type":"Feature","properties":{"id":"ticari-lab-12","kind":"district-label","btype":"ticari","name":"Bramrose Square"},"geometry":{"type":"Point","coordinates":[-79.73878,43.70213]}},{"type":"Feature","properties":{"id":"ticari-13","kind":"district","btype":"ticari","name":"Steeles Technology Campus (SteelesTech)","lab":1},"geometry":{"type":"MultiPolygon","coordinates":[[[[-79.34022,43.81252],[-79.34153,43.8153],[-79.3478,43.81392],[-79.34709,43.8118],[-79.34495,43.81235],[-79.3446,43.8115],[-79.34022,43.81252]]]]}},{"type":"Feature","properties":{"id":"ticari-lab-13","kind":"district-label","btype":"ticari","name":"Steeles Technology Campus (SteelesTech)"},"geometry":{"type":"Point","coordinates":[-79.34391,43.81333]}},{"type":"Feature","properties":{"id":"ticari-14","kind":"district","btype":"ticari","name":"Liberty Centre","lab":1},"geometry":{"type":"MultiPolygon","coordinates":[[[[-79.34268,43.81888],[-79.34123,43.81591],[-79.33682,43.81701],[-79.33702,43.81808],[-79.33566,43.81974],[-79.33568,43.82053],[-79.34268,43.81888]]]]}},{"type":"Feature","properties":{"id":"ticari-lab-14","kind":"district-label","btype":"ticari","name":"Liberty Centre"},"geometry":{"type":"Point","coordinates":[-79.33916,43.81822]}},{"type":"Feature","properties":{"id":"ticari-15","kind":"district","btype":"ticari","name":"Creekside Crossing","lab":1},"geometry":{"type":"MultiPolygon","coordinates":[[[[-79.5794,43.61304],[-79.58168,43.61098],[-79.57745,43.608],[-79.57455,43.61001],[-79.57665,43.61157],[-79.57702,43.61151],[-79.5794,43.61304]]]]}},{"type":"Feature","properties":{"id":"ticari-lab-15","kind":"district-label","btype":"ticari","name":"Creekside Crossing"},"geometry":{"type":"Point","coordinates":[-79.57818,43.6105]}},{"type":"Feature","properties":{"id":"ticari-16","kind":"district","btype":"ticari","name":"Meadowvale Town Centre","lab":1},"geometry":{"type":"MultiPolygon","coordinates":[[[[-79.76328,43.58284],[-79.76045,43.58497],[-79.75847,43.58369],[-79.75826,43.58325],[-79.75874,43.58301],[-79.75737,43.58197],[-79.75744,43.58084],[-79.75709,43.58054],[-79.75869,43.57946],[-79.76328,43.58284]]]]}},{"type":"Feature","properties":{"id":"ticari-lab-16","kind":"district-label","btype":"ticari","name":"Meadowvale Town Centre"},"geometry":{"type":"Point","coordinates":[-79.7599,43.58226]}},{"type":"Feature","properties":{"id":"ticari-17","kind":"district","btype":"ticari","name":"Heartland Town Centre","lab":1},"geometry":{"type":"MultiPolygon","coordinates":[[[[-79.69854,43.61389],[-79.69607,43.61196],[-79.70122,43.60757],[-79.70273,43.60867],[-79.7008,43.61005],[-79.70038,43.61068],[-79.70101,43.61281],[-79.69854,43.61389]]]]}},{"type":"Feature","properties":{"id":"ticari-lab-17","kind":"district-label","btype":"ticari","name":"Heartland Town Centre"},"geometry":{"type":"Point","coordinates":[-79.69938,43.611]}},{"type":"Feature","properties":{"id":"ticari-18","kind":"district","btype":"ticari","name":"Interchange Hwy 400 & 7","lab":1},"geometry":{"type":"MultiPolygon","coordinates":[[[[-79.52987,43.7886],[-79.536,43.78748],[-79.53625,43.78831],[-79.5357,43.79039],[-79.53068,43.79141],[-79.52987,43.7886]]]]}},{"type":"Feature","properties":{"id":"ticari-lab-18","kind":"district-label","btype":"ticari","name":"Interchange Hwy 400 & 7"},"geometry":{"type":"Point","coordinates":[-79.53313,43.78941]}},{"type":"Feature","properties":{"id":"ticari-19","kind":"district","btype":"ticari","name":"IBM Canada","lab":1},"geometry":{"type":"MultiPolygon","coordinates":[[[[-79.33686,43.85063],[-79.33718,43.85105],[-79.33507,43.85176],[-79.33494,43.85092],[-79.33645,43.85025],[-79.33589,43.84886],[-79.3393,43.84796],[-79.33942,43.84658],[-79.34156,43.84641],[-79.34252,43.84723],[-79.34364,43.84752],[-79.34322,43.84818],[-79.34229,43.84819],[-79.34159,43.84759],[-79.34071,43.84916],[-79.34095,43.84967],[-79.33686,43.85063]]]]}},{"type":"Feature","properties":{"id":"ticari-lab-19","kind":"district-label","btype":"ticari","name":"IBM Canada"},"geometry":{"type":"Point","coordinates":[-79.3391,43.84881]}},{"type":"Feature","properties":{"id":"ticari-20","kind":"district","btype":"ticari","name":"York Major Village","lab":1},"geometry":{"type":"MultiPolygon","coordinates":[[[[-79.50387,43.86027],[-79.50257,43.8578],[-79.50108,43.85818],[-79.50151,43.85916],[-79.49955,43.85974],[-79.50082,43.86243],[-79.5021,43.86312],[-79.50467,43.86286],[-79.50363,43.86032],[-79.50387,43.86027]]]]}},{"type":"Feature","properties":{"id":"ticari-lab-20","kind":"district-label","btype":"ticari","name":"York Major Village"},"geometry":{"type":"Point","coordinates":[-79.50217,43.86077]}},{"type":"Feature","properties":{"id":"ticari-21","kind":"district","btype":"ticari","name":"SmartCentres Brampton East","lab":1},"geometry":{"type":"MultiPolygon","coordinates":[[[[-79.69989,43.73977],[-79.69923,43.73922],[-79.69857,43.73981],[-79.69761,43.73908],[-79.69661,43.73943],[-79.69552,43.73868],[-79.69272,43.74094],[-79.69587,43.74311],[-79.69989,43.73977]]]]}},{"type":"Feature","properties":{"id":"ticari-lab-21","kind":"district-label","btype":"ticari","name":"SmartCentres Brampton East"},"geometry":{"type":"Point","coordinates":[-79.69611,43.74072]}},{"type":"Feature","properties":{"id":"ticari-22","kind":"district","btype":"ticari","name":"RioCan Eglinton Town Centre","lab":1},"geometry":{"type":"MultiPolygon","coordinates":[[[[-79.29165,43.72678],[-79.29431,43.7262],[-79.29323,43.72362],[-79.29433,43.72338],[-79.29362,43.72148],[-79.28959,43.72233],[-79.29165,43.72678]]]]}},{"type":"Feature","properties":{"id":"ticari-lab-22","kind":"district-label","btype":"ticari","name":"RioCan Eglinton Town Centre"},"geometry":{"type":"Point","coordinates":[-79.2922,43.72399]}},{"type":"Feature","properties":{"id":"ticari-23","kind":"district","btype":"ticari","name":"SmartCentres","lab":1},"geometry":{"type":"MultiPolygon","coordinates":[[[[-79.5566,43.61865],[-79.55363,43.6194],[-79.55281,43.61521],[-79.55606,43.61451],[-79.55745,43.6177],[-79.5566,43.61865]]]]}},{"type":"Feature","properties":{"id":"ticari-lab-23","kind":"district-label","btype":"ticari","name":"SmartCentres"},"geometry":{"type":"Point","coordinates":[-79.55501,43.61692]}},{"type":"Feature","properties":{"id":"ticari-24","kind":"district","btype":"ticari","name":"Tuscany Place at Vaughan Mills","lab":1},"geometry":{"type":"MultiPolygon","coordinates":[[[[-79.54251,43.82841],[-79.54226,43.82765],[-79.54277,43.82737],[-79.54254,43.82716],[-79.54081,43.82724],[-79.53419,43.82818],[-79.53433,43.82864],[-79.53254,43.82896],[-79.53308,43.83052],[-79.53793,43.82935],[-79.53772,43.82872],[-79.53872,43.82855],[-79.53894,43.82913],[-79.54251,43.82841]]]]}},{"type":"Feature","properties":{"id":"ticari-lab-24","kind":"district-label","btype":"ticari","name":"Tuscany Place at Vaughan Mills"},"geometry":{"type":"Point","coordinates":[-79.53737,43.82864]}},{"type":"Feature","properties":{"id":"ticari-25","kind":"district","btype":"ticari","name":"Oakwood Business Park","lab":1},"geometry":{"type":"MultiPolygon","coordinates":[[[[-79.67827,43.48947],[-79.68185,43.49205],[-79.68142,43.49248],[-79.68177,43.49271],[-79.67988,43.49462],[-79.67694,43.49315],[-79.67687,43.49238],[-79.67753,43.49235],[-79.67741,43.49125],[-79.67778,43.49107],[-79.67783,43.49066],[-79.67727,43.49026],[-79.67827,43.48947]]]]}},{"type":"Feature","properties":{"id":"ticari-lab-25","kind":"district-label","btype":"ticari","name":"Oakwood Business Park"},"geometry":{"type":"Point","coordinates":[-79.67922,43.49219]}},{"type":"Feature","properties":{"id":"ticari-26","kind":"district","btype":"ticari","name":"Woodside SmartCentre","lab":1},"geometry":{"type":"MultiPolygon","coordinates":[[[[-79.35213,43.85093],[-79.35692,43.84985],[-79.35591,43.84929],[-79.3555,43.84831],[-79.35276,43.84706],[-79.35068,43.84752],[-79.35109,43.84931],[-79.35213,43.85093]]]]}},{"type":"Feature","properties":{"id":"ticari-lab-26","kind":"district-label","btype":"ticari","name":"Woodside SmartCentre"},"geometry":{"type":"Point","coordinates":[-79.3533,43.849]}},{"type":"Feature","properties":{"id":"ticari-27","kind":"district","btype":"ticari","name":"Pinewood Studios Toronto","lab":1},"geometry":{"type":"MultiPolygon","coordinates":[[[[-79.34,43.65051],[-79.34475,43.64845],[-79.34261,43.64591],[-79.33883,43.648],[-79.3399,43.64931],[-79.33925,43.64956],[-79.34,43.65051]]]]}},{"type":"Feature","properties":{"id":"ticari-lab-27","kind":"district-label","btype":"ticari","name":"Pinewood Studios Toronto"},"geometry":{"type":"Point","coordinates":[-79.34165,43.64823]}},{"type":"Feature","properties":{"id":"ticari-28","kind":"district","btype":"ticari","name":"SmartCentres Markham Boxgrove","lab":1},"geometry":{"type":"MultiPolygon","coordinates":[[[[-79.2171,43.87219],[-79.21258,43.8726],[-79.21188,43.86934],[-79.21414,43.86892],[-79.21498,43.86907],[-79.21653,43.87078],[-79.2171,43.87219]]]]}},{"type":"Feature","properties":{"id":"ticari-lab-28","kind":"district-label","btype":"ticari","name":"SmartCentres Markham Boxgrove"},"geometry":{"type":"Point","coordinates":[-79.21425,43.87085]}},{"type":"Feature","properties":{"id":"ticari-29","kind":"district","btype":"ticari","name":"RioCan Marketplace","lab":1},"geometry":{"type":"MultiPolygon","coordinates":[[[[-79.4713,43.78681],[-79.47821,43.78523],[-79.47777,43.78419],[-79.47605,43.78423],[-79.47587,43.78455],[-79.47408,43.78502],[-79.47166,43.78385],[-79.47032,43.78376],[-79.47032,43.78643],[-79.47115,43.78626],[-79.4713,43.78681]]]]}},{"type":"Feature","properties":{"id":"ticari-lab-29","kind":"district-label","btype":"ticari","name":"RioCan Marketplace"},"geometry":{"type":"Point","coordinates":[-79.47347,43.78523]}},{"type":"Feature","properties":{"id":"ticari-30","kind":"district","btype":"ticari","name":"Orion Gate West","lab":1},"geometry":{"type":"MultiPolygon","coordinates":[[[[-79.72234,43.67558],[-79.71718,43.68027],[-79.71564,43.67919],[-79.72071,43.6746],[-79.72234,43.67558]]]]}},{"type":"Feature","properties":{"id":"ticari-lab-30","kind":"district-label","btype":"ticari","name":"Orion Gate West"},"geometry":{"type":"Point","coordinates":[-79.71897,43.67741]}},{"type":"Feature","properties":{"id":"ticari-31","kind":"district","btype":"ticari","name":"Brampton Corners","lab":1},"geometry":{"type":"MultiPolygon","coordinates":[[[[-79.78119,43.70758],[-79.78353,43.70851],[-79.78639,43.7058],[-79.78362,43.70361],[-79.78285,43.7042],[-79.78201,43.70661],[-79.78119,43.70758]]]]}},{"type":"Feature","properties":{"id":"ticari-lab-31","kind":"district-label","btype":"ticari","name":"Brampton Corners"},"geometry":{"type":"Point","coordinates":[-79.78373,43.70618]}},{"type":"Feature","properties":{"id":"ticari-32","kind":"district","btype":"ticari","name":"Cloverdale Mall","lab":1},"geometry":{"type":"MultiPolygon","coordinates":[[[[-79.55666,43.63404],[-79.55755,43.63349],[-79.55734,43.63217],[-79.55678,43.63084],[-79.55578,43.6299],[-79.55451,43.6298],[-79.55232,43.63023],[-79.55282,43.63167],[-79.55594,43.63327],[-79.55666,43.63404]]]]}},{"type":"Feature","properties":{"id":"ticari-lab-32","kind":"district-label","btype":"ticari","name":"Cloverdale Mall"},"geometry":{"type":"Point","coordinates":[-79.55518,43.63156]}},{"type":"Feature","properties":{"id":"ticari-33","kind":"district","btype":"ticari","name":"Bell Creekbank","lab":1},"geometry":{"type":"MultiPolygon","coordinates":[[[[-79.61567,43.64408],[-79.61315,43.64619],[-79.61122,43.64672],[-79.60971,43.64621],[-79.61474,43.64183],[-79.61521,43.64245],[-79.61567,43.64408]]]]}},{"type":"Feature","properties":{"id":"ticari-lab-33","kind":"district-label","btype":"ticari","name":"Bell Creekbank"},"geometry":{"type":"Point","coordinates":[-79.61311,43.6446]}},{"type":"Feature","properties":{"id":"ticari-34","kind":"district","btype":"ticari","name":"RioCan Centre","lab":1},"geometry":{"type":"MultiPolygon","coordinates":[[[[-79.62465,43.78441],[-79.62685,43.78382],[-79.63097,43.78644],[-79.62632,43.78753],[-79.6259,43.7859],[-79.62505,43.78606],[-79.62465,43.78441]]]]}},{"type":"Feature","properties":{"id":"ticari-lab-34","kind":"district-label","btype":"ticari","name":"RioCan Centre"},"geometry":{"type":"Point","coordinates":[-79.62734,43.78568]}},{"type":"Feature","properties":{"id":"ticari-35","kind":"district","btype":"ticari","name":"401 Dixie Auto Mall","lab":1},"geometry":{"type":"MultiPolygon","coordinates":[[[[-79.63877,43.64479],[-79.63723,43.64609],[-79.63611,43.64648],[-79.6331,43.64434],[-79.63451,43.64286],[-79.63519,43.64339],[-79.63646,43.64276],[-79.63877,43.64479]]]]}},{"type":"Feature","properties":{"id":"ticari-lab-35","kind":"district-label","btype":"ticari","name":"401 Dixie Auto Mall"},"geometry":{"type":"Point","coordinates":[-79.63597,43.64456]}},{"type":"Feature","properties":{"id":"ticari-36","kind":"district","btype":"ticari","name":"SmartCentres Downsview","lab":1},"geometry":{"type":"MultiPolygon","coordinates":[[[[-79.45692,43.73231],[-79.4563,43.73023],[-79.45488,43.72977],[-79.45275,43.73051],[-79.45163,43.73172],[-79.45301,43.73318],[-79.45692,43.73231]]]]}},{"type":"Feature","properties":{"id":"ticari-lab-36","kind":"district-label","btype":"ticari","name":"SmartCentres Downsview"},"geometry":{"type":"Point","coordinates":[-79.45437,43.7315]}},{"type":"Feature","properties":{"id":"ticari-37","kind":"district","btype":"ticari","name":"First Markham Place 萬錦廣場","lab":1},"geometry":{"type":"MultiPolygon","coordinates":[[[[-79.35029,43.8477],[-79.34757,43.84834],[-79.34685,43.84938],[-79.34702,43.85012],[-79.34863,43.85068],[-79.34952,43.85149],[-79.35182,43.851],[-79.35029,43.8477]]]]}},{"type":"Feature","properties":{"id":"ticari-lab-37","kind":"district-label","btype":"ticari","name":"First Markham Place 萬錦廣場"},"geometry":{"type":"Point","coordinates":[-79.34935,43.84962]}},{"type":"Feature","properties":{"id":"ticari-38","kind":"district","btype":"ticari","name":"CF Shops at Don Mills","lab":1},"geometry":{"type":"MultiPolygon","coordinates":[[[[-79.34559,43.73309],[-79.34263,43.73361],[-79.34361,43.73693],[-79.34637,43.73639],[-79.34628,43.73592],[-79.34725,43.73524],[-79.3465,43.73462],[-79.34703,43.73436],[-79.34559,43.73309]]]]}},{"type":"Feature","properties":{"id":"ticari-lab-38","kind":"district-label","btype":"ticari","name":"CF Shops at Don Mills"},"geometry":{"type":"Point","coordinates":[-79.34483,43.73493]}},{"type":"Feature","properties":{"id":"ticari-39","kind":"district","btype":"ticari","name":"Downsview Complex (Government of Ontario)","lab":1},"geometry":{"type":"MultiPolygon","coordinates":[[[[-79.4879,43.72299],[-79.48732,43.72183],[-79.48225,43.72313],[-79.48181,43.72375],[-79.48215,43.72557],[-79.48354,43.72527],[-79.48392,43.72617],[-79.48525,43.72582],[-79.48438,43.72384],[-79.4879,43.72299]]]]}},{"type":"Feature","properties":{"id":"ticari-lab-39","kind":"district-label","btype":"ticari","name":"Downsview Complex (Government of Ontario)"},"geometry":{"type":"Point","coordinates":[-79.48436,43.72382]}},{"type":"Feature","properties":{"id":"ticari-40","kind":"district","btype":"ticari","name":"Sandalwood Plaza","lab":1},"geometry":{"type":"MultiPolygon","coordinates":[[[[-79.79642,43.72582],[-79.7985,43.72644],[-79.79872,43.72717],[-79.79625,43.73009],[-79.79362,43.72815],[-79.79578,43.72663],[-79.79642,43.72582]]]]}},{"type":"Feature","properties":{"id":"ticari-lab-40","kind":"district-label","btype":"ticari","name":"Sandalwood Plaza"},"geometry":{"type":"Point","coordinates":[-79.79636,43.72782]}},{"type":"Feature","properties":{"id":"ticari-41","kind":"district","btype":"ticari","name":"Rockwood Mall","lab":1},"geometry":{"type":"MultiPolygon","coordinates":[[[[-79.60251,43.62285],[-79.60103,43.62417],[-79.60281,43.62543],[-79.60267,43.62577],[-79.60561,43.62735],[-79.60698,43.62623],[-79.60251,43.62285]]]]}},{"type":"Feature","properties":{"id":"ticari-lab-41","kind":"district-label","btype":"ticari","name":"Rockwood Mall"},"geometry":{"type":"Point","coordinates":[-79.60397,43.62518]}},{"type":"Feature","properties":{"id":"ticari-42","kind":"district","btype":"ticari","name":"Crossroads Plaza","lab":1},"geometry":{"type":"MultiPolygon","coordinates":[[[[-79.53005,43.71403],[-79.53499,43.71271],[-79.53518,43.71231],[-79.53483,43.71132],[-79.5334,43.71153],[-79.53258,43.71032],[-79.53097,43.71062],[-79.53005,43.71403]]]]}},{"type":"Feature","properties":{"id":"ticari-lab-42","kind":"district-label","btype":"ticari","name":"Crossroads Plaza"},"geometry":{"type":"Point","coordinates":[-79.53238,43.71217]}},{"type":"Feature","properties":{"id":"ticari-43","kind":"district","btype":"ticari","name":"SmartCentres Scarborough (E)","lab":1},"geometry":{"type":"MultiPolygon","coordinates":[[[[-79.20064,43.79979],[-79.19962,43.79719],[-79.20018,43.79684],[-79.20507,43.79591],[-79.20513,43.79709],[-79.20064,43.79979]]]]}},{"type":"Feature","properties":{"id":"ticari-lab-43","kind":"district-label","btype":"ticari","name":"SmartCentres Scarborough (E)"},"geometry":{"type":"Point","coordinates":[-79.20222,43.79757]}},{"type":"Feature","properties":{"id":"ticari-44","kind":"district","btype":"ticari","name":"SmartCentres Richmond Hill","lab":1},"geometry":{"type":"MultiPolygon","coordinates":[[[[-79.41536,43.87694],[-79.41511,43.8763],[-79.41122,43.87632],[-79.40678,43.87716],[-79.40693,43.87774],[-79.40842,43.87835],[-79.41536,43.87694]]]]}},{"type":"Feature","properties":{"id":"ticari-lab-44","kind":"district-label","btype":"ticari","name":"SmartCentres Richmond Hill"},"geometry":{"type":"Point","coordinates":[-79.41083,43.87716]}},{"type":"Feature","properties":{"id":"ticari-45","kind":"district","btype":"ticari","name":"McLaughlin Corners East","lab":1},"geometry":{"type":"MultiPolygon","coordinates":[[[[-79.80119,43.69892],[-79.79976,43.69996],[-79.79911,43.69951],[-79.79808,43.70003],[-79.79556,43.69804],[-79.79764,43.69636],[-79.80119,43.69892]]]]}},{"type":"Feature","properties":{"id":"ticari-lab-45","kind":"district-label","btype":"ticari","name":"McLaughlin Corners East"},"geometry":{"type":"Point","coordinates":[-79.79828,43.69836]}},{"type":"Feature","properties":{"id":"ticari-46","kind":"district","btype":"ticari","name":"King City ONroute","lab":1},"geometry":{"type":"MultiPolygon","coordinates":[[[[-79.55729,43.8977],[-79.5603,43.89714],[-79.55912,43.8952],[-79.55882,43.89375],[-79.55756,43.89307],[-79.55631,43.89322],[-79.55729,43.8977]]]]}},{"type":"Feature","properties":{"id":"ticari-lab-46","kind":"district-label","btype":"ticari","name":"King City ONroute"},"geometry":{"type":"Point","coordinates":[-79.55805,43.89546]}},{"type":"Feature","properties":{"id":"ticari-47","kind":"district","btype":"ticari","name":"Kingspoint Plaza","lab":1},"geometry":{"type":"MultiPolygon","coordinates":[[[[-79.77355,43.69616],[-79.77192,43.69711],[-79.76752,43.69486],[-79.76953,43.69315],[-79.77355,43.69616]]]]}},{"type":"Feature","properties":{"id":"ticari-lab-47","kind":"district-label","btype":"ticari","name":"Kingspoint Plaza"},"geometry":{"type":"Point","coordinates":[-79.7705,43.69522]}},{"type":"Feature","properties":{"id":"ticari-48","kind":"district","btype":"ticari","name":"Armadale Square","lab":1},"geometry":{"type":"MultiPolygon","coordinates":[[[[-79.25659,43.85556],[-79.25566,43.85522],[-79.25478,43.8513],[-79.25732,43.85043],[-79.25745,43.85067],[-79.25712,43.85077],[-79.258,43.85455],[-79.25659,43.85556]]]]}},{"type":"Feature","properties":{"id":"ticari-lab-48","kind":"district-label","btype":"ticari","name":"Armadale Square"},"geometry":{"type":"Point","coordinates":[-79.25641,43.85303]}},{"type":"Feature","properties":{"id":"ticari-49","kind":"district","btype":"ticari","name":"South Hill Shopping Centre","lab":1},"geometry":{"type":"MultiPolygon","coordinates":[[[[-79.43285,43.85327],[-79.43352,43.85615],[-79.43094,43.85665],[-79.42883,43.85524],[-79.42893,43.85415],[-79.43285,43.85327]]]]}},{"type":"Feature","properties":{"id":"ticari-lab-49","kind":"district-label","btype":"ticari","name":"South Hill Shopping Centre"},"geometry":{"type":"Point","coordinates":[-79.43131,43.855]}},{"type":"Feature","properties":{"id":"ticari-50","kind":"district","btype":"ticari","name":"Bayview Village","lab":1},"geometry":{"type":"MultiPolygon","coordinates":[[[[-79.388,43.76942],[-79.38752,43.76753],[-79.38717,43.76734],[-79.38335,43.768],[-79.38376,43.77043],[-79.388,43.76942]]]]}},{"type":"Feature","properties":{"id":"ticari-lab-50","kind":"district-label","btype":"ticari","name":"Bayview Village"},"geometry":{"type":"Point","coordinates":[-79.3856,43.76881]}},{"type":"Feature","properties":{"id":"ticari-51","kind":"district","btype":"ticari","name":"SmartCentres Thornhill","lab":1},"geometry":{"type":"MultiPolygon","coordinates":[[[[-79.45069,43.81287],[-79.45146,43.8127],[-79.45618,43.81163],[-79.45547,43.81],[-79.45043,43.81095],[-79.45023,43.81118],[-79.45069,43.81287]]]]}},{"type":"Feature","properties":{"id":"ticari-lab-51","kind":"district-label","btype":"ticari","name":"SmartCentres Thornhill"},"geometry":{"type":"Point","coordinates":[-79.45309,43.81139]}},{"type":"Feature","properties":{"id":"ticari-52","kind":"district","btype":"ticari","name":"Fima Retail Centre","lab":1},"geometry":{"type":"MultiPolygon","coordinates":[[[[-79.55709,43.616],[-79.55656,43.6144],[-79.55866,43.61432],[-79.56111,43.61349],[-79.56238,43.61416],[-79.56007,43.61682],[-79.55813,43.61594],[-79.55837,43.61553],[-79.55814,43.61511],[-79.55772,43.61578],[-79.55709,43.616]]]]}},{"type":"Feature","properties":{"id":"ticari-lab-52","kind":"district-label","btype":"ticari","name":"Fima Retail Centre"},"geometry":{"type":"Point","coordinates":[-79.55956,43.61503]}}]}