{"type":"FeatureCollection","features":[{"type":"Feature","properties":{"id":"egitim-0","kind":"district","btype":"egitim","name":"York University, Keele Campus","lab":1},"geometry":{"type":"MultiPolygon","coordinates":[[[[-79.49465,43.78127],[-79.51681,43.77624],[-79.51641,43.77511],[-79.5152,43.77388],[-79.51594,43.77346],[-79.51506,43.7712],[-79.51396,43.77188],[-79.51107,43.76982],[-79.50943,43.76765],[-79.50769,43.76718],[-79.49298,43.77021],[-79.49483,43.77762],[-79.49448,43.78038],[-79.49465,43.78127]]]]}},{"type":"Feature","properties":{"id":"egitim-lab-0","kind":"district-label","btype":"egitim","name":"York University, Keele Campus"},"geometry":{"type":"Point","coordinates":[-79.50382,43.77392]}},{"type":"Feature","properties":{"id":"egitim-1","kind":"district","btype":"egitim","name":"University of Toronto Scarborough","lab":1},"geometry":{"type":"MultiPolygon","coordinates":[[[[-79.18691,43.78585],[-79.18352,43.78423],[-79.18264,43.78208],[-79.17969,43.78192],[-79.17816,43.77879],[-79.17772,43.77846],[-79.17915,43.77731],[-79.18071,43.7766],[-79.18125,43.77715],[-79.185,43.7763],[-79.18671,43.77757],[-79.18959,43.77743],[-79.19,43.77773],[-79.19331,43.78557],[-79.19361,43.78779],[-79.19535,43.79219],[-79.19391,43.79223],[-79.19209,43.79104],[-79.19053,43.79171],[-79.19011,43.79283],[-79.18598,43.79406],[-79.18581,43.79368],[-79.1865,43.7934],[-79.18636,43.79301],[-79.18553,43.79305],[-79.18965,43.7921],[-79.19015,43.79165],[-79.18974,43.7911],[-79.18683,43.79181],[-79.1856,43.78893],[-79.18504,43.78905],[-79.18444,43.78768],[-79.18684,43.78704],[-79.18638,43.786],[-79.18691,43.78585]]]]}},{"type":"Feature","properties":{"id":"egitim-lab-1","kind":"district-label","btype":"egitim","name":"University of Toronto Scarborough"},"geometry":{"type":"Point","coordinates":[-79.18734,43.78395]}},{"type":"Feature","properties":{"id":"egitim-2","kind":"district","btype":"egitim","name":"University of Toronto Mississauga","lab":1},"geometry":{"type":"MultiPolygon","coordinates":[[[[-79.66044,43.54408],[-79.65921,43.54484],[-79.65989,43.5454],[-79.65857,43.54587],[-79.65829,43.54726],[-79.65705,43.54905],[-79.65763,43.5508],[-79.66305,43.55363],[-79.66282,43.55381],[-79.66443,43.55485],[-79.66678,43.55556],[-79.66783,43.55636],[-79.66868,43.55602],[-79.66978,43.55633],[-79.67194,43.5559],[-79.67341,43.55478],[-79.6714,43.55347],[-79.67276,43.55235],[-79.67233,43.55206],[-79.67127,43.5525],[-79.67066,43.55248],[-79.67059,43.55224],[-79.6699,43.55239],[-79.66745,43.55063],[-79.66913,43.54917],[-79.66443,43.54584],[-79.66044,43.54408]]]]}},{"type":"Feature","properties":{"id":"egitim-lab-2","kind":"district-label","btype":"egitim","name":"University of Toronto Mississauga"},"geometry":{"type":"Point","coordinates":[-79.66445,43.55061]}},{"type":"Feature","properties":{"id":"egitim-3","kind":"district","btype":"egitim","name":"University of Toronto St. George","lab":1},"geometry":{"type":"MultiPolygon","coordinates":[[[[-79.39986,43.65991],[-79.40093,43.66055],[-79.40299,43.6657],[-79.40372,43.66664],[-79.39562,43.6683],[-79.39512,43.6669],[-79.39371,43.66718],[-79.3936,43.66692],[-79.39322,43.66699],[-79.39392,43.66863],[-79.39342,43.66872],[-79.39327,43.66833],[-79.39186,43.66862],[-79.39141,43.66759],[-79.39067,43.66774],[-79.39056,43.66744],[-79.38989,43.66759],[-79.39,43.66789],[-79.38974,43.66794],[-79.38938,43.6666],[-79.38834,43.66684],[-79.3878,43.66556],[-79.38918,43.66525],[-79.38905,43.66402],[-79.39329,43.66314],[-79.39223,43.66125],[-79.39103,43.66048],[-79.39078,43.65988],[-79.39808,43.65832],[-79.39885,43.66007],[-79.39986,43.65991]]]]}},{"type":"Feature","properties":{"id":"egitim-lab-3","kind":"district-label","btype":"egitim","name":"University of Toronto St. George"},"geometry":{"type":"Point","coordinates":[-79.39605,43.66389]}},{"type":"Feature","properties":{"id":"egitim-4","kind":"district","btype":"egitim","name":"York University Glendon Campus","lab":1},"geometry":{"type":"MultiPolygon","coordinates":[[[[-79.38,43.72559],[-79.37376,43.72685],[-79.37452,43.7278],[-79.37415,43.72872],[-79.37564,43.7302],[-79.37607,43.73111],[-79.38124,43.73002],[-79.38147,43.72887],[-79.38063,43.72879],[-79.38072,43.72809],[-79.38038,43.728],[-79.38047,43.7273],[-79.38154,43.72751],[-79.38,43.72559]]]]}},{"type":"Feature","properties":{"id":"egitim-lab-4","kind":"district-label","btype":"egitim","name":"York University Glendon Campus"},"geometry":{"type":"Point","coordinates":[-79.3778,43.72831]}},{"type":"Feature","properties":{"id":"egitim-5","kind":"district","btype":"egitim","name":"Tyndale University","lab":1},"geometry":{"type":"MultiPolygon","coordinates":[[[[-79.39407,43.79551],[-79.39486,43.79873],[-79.3937,43.79944],[-79.39381,43.79967],[-79.39078,43.80037],[-79.38985,43.79957],[-79.38825,43.80011],[-79.38745,43.79968],[-79.3867,43.79766],[-79.38803,43.79738],[-79.38812,43.79774],[-79.38947,43.7978],[-79.38923,43.7964],[-79.39407,43.79551]]]]}},{"type":"Feature","properties":{"id":"egitim-lab-5","kind":"district-label","btype":"egitim","name":"Tyndale University"},"geometry":{"type":"Point","coordinates":[-79.3912,43.79808]}},{"type":"Feature","properties":{"id":"egitim-6","kind":"district","btype":"egitim","name":"Toronto Metropolitan University","lab":1},"geometry":{"type":"MultiPolygon","coordinates":[[[[-79.38063,43.65753],[-79.38126,43.65748],[-79.38146,43.65791],[-79.38092,43.65805],[-79.38139,43.65917],[-79.37977,43.65952],[-79.38018,43.66033],[-79.37983,43.66041],[-79.37935,43.65961],[-79.37641,43.66024],[-79.37625,43.65986],[-79.3769,43.65973],[-79.37646,43.65866],[-79.37545,43.65898],[-79.37532,43.65865],[-79.37726,43.6582],[-79.37678,43.65704],[-79.3778,43.65669],[-79.3798,43.65665],[-79.38063,43.65753]]]]}},{"type":"Feature","properties":{"id":"egitim-lab-6","kind":"district-label","btype":"egitim","name":"Toronto Metropolitan University"},"geometry":{"type":"Point","coordinates":[-79.37872,43.65839]}},{"type":"Feature","properties":{"id":"egitim-7","kind":"district","btype":"egitim","name":"University of St. Michael's College","lab":1},"geometry":{"type":"MultiPolygon","coordinates":[[[[-79.39138,43.6657],[-79.39104,43.66496],[-79.39052,43.66508],[-79.3903,43.66451],[-79.38796,43.66487],[-79.38821,43.66548],[-79.3878,43.66556],[-79.38834,43.66684],[-79.38955,43.66669],[-79.38962,43.66765],[-79.39056,43.66744],[-79.39043,43.6671],[-79.39087,43.66701],[-79.39043,43.66592],[-79.39138,43.6657]]]]}},{"type":"Feature","properties":{"id":"egitim-lab-7","kind":"district-label","btype":"egitim","name":"University of St. Michael's College"},"geometry":{"type":"Point","coordinates":[-79.38955,43.66588]}},{"type":"Feature","properties":{"id":"egitim-8","kind":"district","btype":"egitim","name":"Victoria University","lab":1},"geometry":{"type":"MultiPolygon","coordinates":[[[[-79.39392,43.66863],[-79.39342,43.66872],[-79.39327,43.66833],[-79.39186,43.66862],[-79.39141,43.66759],[-79.39067,43.66774],[-79.39043,43.6671],[-79.39087,43.66701],[-79.39043,43.66592],[-79.39138,43.6657],[-79.39287,43.66622],[-79.39392,43.66863]]]]}},{"type":"Feature","properties":{"id":"egitim-lab-8","kind":"district-label","btype":"egitim","name":"Victoria University"},"geometry":{"type":"Point","coordinates":[-79.39207,43.66718]}},{"type":"Feature","properties":{"id":"egitim-9","kind":"district","btype":"egitim","name":"Trinity College","lab":1},"geometry":{"type":"MultiPolygon","coordinates":[[[[-79.39838,43.66617],[-79.39779,43.66638],[-79.39766,43.66606],[-79.39552,43.66649],[-79.39487,43.66497],[-79.39617,43.66469],[-79.39651,43.66547],[-79.39799,43.66516],[-79.39838,43.66617]]]]}},{"type":"Feature","properties":{"id":"egitim-lab-9","kind":"district-label","btype":"egitim","name":"Trinity College"},"geometry":{"type":"Point","coordinates":[-79.39649,43.66566]}}]}