{"type":"FeatureCollection","features":[{"type":"Feature","properties":{"id":"ke-tarihi-0","kind":"poi","name":"Trinity-St. Paul's United Church","theme":"tarihi","lab":1},"geometry":{"type":"Point","coordinates":[-79.4057,43.66602]}},{"type":"Feature","properties":{"id":"ke-tarihi-1","kind":"poi","name":"Victoria Hospital for Sick Children","theme":"tarihi","lab":1},"geometry":{"type":"Point","coordinates":[-79.38724,43.66045]}},{"type":"Feature","properties":{"id":"ke-tarihi-2","kind":"poi","name":"Toronto Ontario Temple","theme":"tarihi","lab":1},"geometry":{"type":"Point","coordinates":[-79.74575,43.74437]}},{"type":"Feature","properties":{"id":"ke-tarihi-3","kind":"poi","name":"Paramount Fine Foods Centre","theme":"tarihi","lab":1},"geometry":{"type":"Point","coordinates":[-79.65373,43.63145]}},{"type":"Feature","properties":{"id":"ke-tarihi-4","kind":"poi","name":"McLaughlin Car Showroom","theme":"tarihi","lab":1},"geometry":{"type":"Point","coordinates":[-79.38629,43.66162]}},{"type":"Feature","properties":{"id":"ke-tarihi-5","kind":"poi","name":"Mackenzie House","theme":"tarihi","lab":1},"geometry":{"type":"Point","coordinates":[-79.37826,43.65571]}},{"type":"Feature","properties":{"id":"ke-tarihi-6","kind":"poi","name":"Holy Family Catholic Church","theme":"tarihi","lab":1},"geometry":{"type":"Point","coordinates":[-79.43452,43.63773]}},{"type":"Feature","properties":{"id":"ke-tarihi-7","kind":"poi","name":"Harbourfront Centre","theme":"tarihi","lab":1},"geometry":{"type":"Point","coordinates":[-79.38332,43.63859]}},{"type":"Feature","properties":{"id":"ke-tarihi-8","kind":"poi","name":"First Toronto Post Office","theme":"tarihi","lab":1},"geometry":{"type":"Point","coordinates":[-79.37041,43.65198]}},{"type":"Feature","properties":{"id":"ke-tarihi-9","kind":"poi","name":"Église du Sacré-Cœur","theme":"tarihi","lab":1},"geometry":{"type":"Point","coordinates":[-79.37285,43.66359]}},{"type":"Feature","properties":{"id":"ke-tarihi-10","kind":"poi","name":"Yorkminster Park Baptist Church","theme":"tarihi","lab":1},"geometry":{"type":"Point","coordinates":[-79.39431,43.69065]}},{"type":"Feature","properties":{"id":"ke-tarihi-11","kind":"poi","name":"Wonder Mountain's Guardians","theme":"tarihi","lab":1},"geometry":{"type":"Point","coordinates":[-79.54245,43.84206]}},{"type":"Feature","properties":{"id":"ke-tarihi-12","kind":"poi","name":"Wesley Mimico United Church","theme":"tarihi","lab":1},"geometry":{"type":"Point","coordinates":[-79.49374,43.61324]}},{"type":"Feature","properties":{"id":"ke-tarihi-13","kind":"poi","name":"Toronto and Region Islamic Congregation","theme":"tarihi","lab":1},"geometry":{"type":"Point","coordinates":[-79.51598,43.71797]}},{"type":"Feature","properties":{"id":"ke-tarihi-14","kind":"poi","name":"Todmorden Mills","theme":"tarihi","lab":1},"geometry":{"type":"Point","coordinates":[-79.35979,43.68577]}},{"type":"Feature","properties":{"id":"ke-tarihi-15","kind":"poi","name":"Timothy Eaton Memorial Church","theme":"tarihi","lab":1},"geometry":{"type":"Point","coordinates":[-79.40561,43.68634]}},{"type":"Feature","properties":{"id":"ke-tarihi-16","kind":"poi","name":"Tiferet Israel Congregation","theme":"tarihi","lab":1},"geometry":{"type":"Point","coordinates":[-79.44714,43.754]}},{"type":"Feature","properties":{"id":"ke-tarihi-17","kind":"poi","name":"The Meeting House","theme":"tarihi","lab":1},"geometry":{"type":"Point","coordinates":[-79.6852,43.51136]}},{"type":"Feature","properties":{"id":"ke-tarihi-18","kind":"poi","name":"The Church of St. Aidan","theme":"tarihi","lab":1},"geometry":{"type":"Point","coordinates":[-79.28546,43.67268]}},{"type":"Feature","properties":{"id":"ke-tarihi-19","kind":"poi","name":"The Chinese Martyrs Catholic Church","theme":"tarihi","lab":1},"geometry":{"type":"Point","coordinates":[-79.26895,43.84134]}},{"type":"Feature","properties":{"id":"ke-tarihi-20","kind":"poi","name":"Tabor Hill Monument","theme":"tarihi","lab":1},"geometry":{"type":"Point","coordinates":[-79.23445,43.75983]}},{"type":"Feature","properties":{"id":"ke-tarihi-21","kind":"poi","name":"Stashover-Slipia Congregation","theme":"tarihi","lab":1},"geometry":{"type":"Point","coordinates":[-79.43261,43.72835]}},{"type":"Feature","properties":{"id":"ke-tarihi-22","kind":"poi","name":"St. Peter's Roman Catholic Church","theme":"tarihi","lab":1},"geometry":{"type":"Point","coordinates":[-79.41234,43.66596]}},{"type":"Feature","properties":{"id":"ke-tarihi-23","kind":"poi","name":"St. Paul's Basilica","theme":"tarihi","lab":1},"geometry":{"type":"Point","coordinates":[-79.36271,43.65562]}},{"type":"Feature","properties":{"id":"ke-tarihi-24","kind":"poi","name":"St. Paul the Apostle Church","theme":"tarihi","lab":1},"geometry":{"type":"Point","coordinates":[-79.47785,43.66582]}},{"type":"Feature","properties":{"id":"ke-tarihi-25","kind":"poi","name":"St. Michael's Catholic Church","theme":"tarihi","lab":1},"geometry":{"type":"Point","coordinates":[-79.69476,43.46332]}},{"type":"Feature","properties":{"id":"ke-tarihi-26","kind":"poi","name":"St. Mathias Anglican Church","theme":"tarihi","lab":1},"geometry":{"type":"Point","coordinates":[-79.41116,43.64782]}},{"type":"Feature","properties":{"id":"ke-tarihi-27","kind":"poi","name":"St. Mary Immaculate Catholic Church","theme":"tarihi","lab":1},"geometry":{"type":"Point","coordinates":[-79.4383,43.87846]}},{"type":"Feature","properties":{"id":"ke-tarihi-28","kind":"poi","name":"St. Leo's Roman Catholic Church","theme":"tarihi","lab":1},"geometry":{"type":"Point","coordinates":[-79.49707,43.61432]}},{"type":"Feature","properties":{"id":"ke-tarihi-29","kind":"poi","name":"St. Ilija Macedonian Orthodox Church","theme":"tarihi","lab":1},"geometry":{"type":"Point","coordinates":[-79.70685,43.5831]}},{"type":"Feature","properties":{"id":"ke-tarihi-30","kind":"poi","name":"St. Helen's Roman Catholic Church","theme":"tarihi","lab":1},"geometry":{"type":"Point","coordinates":[-79.43812,43.65043]}},{"type":"Feature","properties":{"id":"ke-tarihi-31","kind":"poi","name":"St. Francis of Assisi Church","theme":"tarihi","lab":1},"geometry":{"type":"Point","coordinates":[-79.41454,43.6535]}},{"type":"Feature","properties":{"id":"ke-tarihi-32","kind":"poi","name":"St. Clement of Ohrid Macedonian Orthodox Cathedral","theme":"tarihi","lab":1},"geometry":{"type":"Point","coordinates":[-79.34115,43.70864]}},{"type":"Feature","properties":{"id":"ke-tarihi-33","kind":"poi","name":"St. Barthomew","theme":"tarihi","lab":1},"geometry":{"type":"Point","coordinates":[-79.36391,43.65971]}},{"type":"Feature","properties":{"id":"ke-tarihi-34","kind":"poi","name":"St. Andrew-By-The-Lake Church","theme":"tarihi","lab":1},"geometry":{"type":"Point","coordinates":[-79.36999,43.62033]}},{"type":"Feature","properties":{"id":"ke-tarihi-35","kind":"poi","name":"St. Andrew's Presbyterian Church","theme":"tarihi","lab":1},"geometry":{"type":"Point","coordinates":[-79.51201,43.85075]}},{"type":"Feature","properties":{"id":"ke-tarihi-36","kind":"poi","name":"St. Alphonsa Syro-Malabar Catholic Cathedral","theme":"tarihi","lab":1},"geometry":{"type":"Point","coordinates":[-79.7423,43.59732]}},{"type":"Feature","properties":{"id":"ke-tarihi-37","kind":"poi","name":"St. Agnes Kouying Tsao Catholic Church","theme":"tarihi","lab":1},"geometry":{"type":"Point","coordinates":[-79.35337,43.87036]}},{"type":"Feature","properties":{"id":"ke-tarihi-38","kind":"poi","name":"St Teresa's Church","theme":"tarihi","lab":1},"geometry":{"type":"Point","coordinates":[-79.5087,43.59885]}},{"type":"Feature","properties":{"id":"ke-tarihi-39","kind":"poi","name":"St Peter's Estonian Lutheran Church","theme":"tarihi","lab":1},"geometry":{"type":"Point","coordinates":[-79.39019,43.7094]}},{"type":"Feature","properties":{"id":"ke-tarihi-40","kind":"poi","name":"St Mary Armenian Apostolic Church","theme":"tarihi","lab":1},"geometry":{"type":"Point","coordinates":[-79.32151,43.77028]}},{"type":"Feature","properties":{"id":"ke-tarihi-41","kind":"poi","name":"St Davids Roman Catholic Church","theme":"tarihi","lab":1},"geometry":{"type":"Point","coordinates":[-79.52349,43.85208]}},{"type":"Feature","properties":{"id":"ke-tarihi-42","kind":"poi","name":"St Cecilias Catholic Church","theme":"tarihi","lab":1},"geometry":{"type":"Point","coordinates":[-79.46721,43.66299]}},{"type":"Feature","properties":{"id":"ke-tarihi-43","kind":"poi","name":"St Anne's Anglican Church","theme":"tarihi","lab":1},"geometry":{"type":"Point","coordinates":[-79.43066,43.6506]}},{"type":"Feature","properties":{"id":"ke-tarihi-44","kind":"poi","name":"Sri Guru Singh Sabha Canada","theme":"tarihi","lab":1},"geometry":{"type":"Point","coordinates":[-79.65118,43.70858]}},{"type":"Feature","properties":{"id":"ke-tarihi-45","kind":"poi","name":"Sons of England War Memorial","theme":"tarihi","lab":1},"geometry":{"type":"Point","coordinates":[-79.38888,43.65615]}},{"type":"Feature","properties":{"id":"ke-tarihi-46","kind":"poi","name":"Sikh Spiritual Centre","theme":"tarihi","lab":1},"geometry":{"type":"Point","coordinates":[-79.6034,43.73821]}},{"type":"Feature","properties":{"id":"ke-tarihi-47","kind":"poi","name":"Shaarei Shomayim Congregation","theme":"tarihi","lab":1},"geometry":{"type":"Point","coordinates":[-79.42705,43.71311]}},{"type":"Feature","properties":{"id":"ke-tarihi-48","kind":"poi","name":"Salaheddin Islamic Centre","theme":"tarihi","lab":1},"geometry":{"type":"Point","coordinates":[-79.266,43.73087]}},{"type":"Feature","properties":{"id":"ke-tarihi-49","kind":"poi","name":"Saint Mark's Catholic Church","theme":"tarihi","lab":1},"geometry":{"type":"Point","coordinates":[-79.49183,43.63402]}},{"type":"Feature","properties":{"id":"ke-tarihi-50","kind":"poi","name":"Saint Joseph Roman Catholic Church","theme":"tarihi","lab":1},"geometry":{"type":"Point","coordinates":[-79.70269,43.58083]}},{"type":"Feature","properties":{"id":"ke-tarihi-51","kind":"poi","name":"SS William E. Corey","theme":"tarihi","lab":1},"geometry":{"type":"Point","coordinates":[-79.5756,43.548]}},{"type":"Feature","properties":{"id":"ke-tarihi-52","kind":"poi","name":"Rosedale United Church","theme":"tarihi","lab":1},"geometry":{"type":"Point","coordinates":[-79.37227,43.68413]}},{"type":"Feature","properties":{"id":"ke-tarihi-53","kind":"poi","name":"Rosedale Presbyterian Church","theme":"tarihi","lab":1},"geometry":{"type":"Point","coordinates":[-79.38017,43.67595]}},{"type":"Feature","properties":{"id":"ke-tarihi-54","kind":"poi","name":"Riverdale Heritage Conservation District","theme":"tarihi","lab":1},"geometry":{"type":"Point","coordinates":[-79.34491,43.66612]}},{"type":"Feature","properties":{"id":"ke-tarihi-55","kind":"poi","name":"Richmond Hill Christian Community Church","theme":"tarihi","lab":1},"geometry":{"type":"Point","coordinates":[-79.41435,43.86788]}},{"type":"Feature","properties":{"id":"ke-tarihi-56","kind":"poi","name":"Queen's Wharf Lighthouse","theme":"tarihi","lab":1},"geometry":{"type":"Point","coordinates":[-79.4049,43.63587]}},{"type":"Feature","properties":{"id":"ke-tarihi-57","kind":"poi","name":"Queen Street East Presbyterian Church","theme":"tarihi","lab":1},"geometry":{"type":"Point","coordinates":[-79.33958,43.66084]}},{"type":"Feature","properties":{"id":"ke-tarihi-58","kind":"poi","name":"QEW Monument","theme":"tarihi","lab":1},"geometry":{"type":"Point","coordinates":[-79.47038,43.63317]}},{"type":"Feature","properties":{"id":"ke-tarihi-59","kind":"poi","name":"Our Lady of Sorrows Roman Catholic Church","theme":"tarihi","lab":1},"geometry":{"type":"Point","coordinates":[-79.51262,43.6467]}},{"type":"Feature","properties":{"id":"ke-tarihi-60","kind":"poi","name":"No. 8 Hose Station","theme":"tarihi","lab":1},"geometry":{"type":"Point","coordinates":[-79.40472,43.6569]}},{"type":"Feature","properties":{"id":"ke-tarihi-61","kind":"poi","name":"Mary Mother of God","theme":"tarihi","lab":1},"geometry":{"type":"Point","coordinates":[-79.71296,43.4889]}},{"type":"Feature","properties":{"id":"ke-tarihi-62","kind":"poi","name":"Lesya Ukrainka","theme":"tarihi","lab":1},"geometry":{"type":"Point","coordinates":[-79.46423,43.64673]}},{"type":"Feature","properties":{"id":"ke-tarihi-63","kind":"poi","name":"Legoland Discovery Centre","theme":"tarihi","lab":1},"geometry":{"type":"Point","coordinates":[-79.53543,43.82517]}},{"type":"Feature","properties":{"id":"ke-tarihi-64","kind":"poi","name":"Korean War Memorial Wall (Canada)","theme":"tarihi","lab":1},"geometry":{"type":"Point","coordinates":[-79.74918,43.64182]}},{"type":"Feature","properties":{"id":"ke-tarihi-65","kind":"poi","name":"Knox United Church","theme":"tarihi","lab":1},"geometry":{"type":"Point","coordinates":[-79.27829,43.7861]}},{"type":"Feature","properties":{"id":"ke-tarihi-66","kind":"poi","name":"Katyn Memorial","theme":"tarihi","lab":1},"geometry":{"type":"Point","coordinates":[-79.44578,43.63819]}},{"type":"Feature","properties":{"id":"ke-tarihi-67","kind":"poi","name":"Jose Rizal (1861-1896)","theme":"tarihi","lab":1},"geometry":{"type":"Point","coordinates":[-79.43422,43.75281]}},{"type":"Feature","properties":{"id":"ke-tarihi-68","kind":"poi","name":"John Mckenzie House","theme":"tarihi","lab":1},"geometry":{"type":"Point","coordinates":[-79.41144,43.77166]}},{"type":"Feature","properties":{"id":"ke-tarihi-69","kind":"poi","name":"Jami Mosque","theme":"tarihi","lab":1},"geometry":{"type":"Point","coordinates":[-79.45448,43.65332]}},{"type":"Feature","properties":{"id":"ke-tarihi-70","kind":"poi","name":"Ismaili Centre Toronto","theme":"tarihi","lab":1},"geometry":{"type":"Point","coordinates":[-79.33344,43.72386]}},{"type":"Feature","properties":{"id":"ke-tarihi-71","kind":"poi","name":"Islamic Institute of Toronto","theme":"tarihi","lab":1},"geometry":{"type":"Point","coordinates":[-79.22984,43.81876]}},{"type":"Feature","properties":{"id":"ke-tarihi-72","kind":"poi","name":"Ireland Park","theme":"tarihi","lab":1},"geometry":{"type":"Point","coordinates":[-79.39583,43.6347]}},{"type":"Feature","properties":{"id":"ke-tarihi-73","kind":"poi","name":"Holy Trinity Macedono-Bulgarian Eastern Orthodox Church","theme":"tarihi","lab":1},"geometry":{"type":"Point","coordinates":[-79.32795,43.68544]}},{"type":"Feature","properties":{"id":"ke-tarihi-74","kind":"poi","name":"Holy Trinity Croatian Church","theme":"tarihi","lab":1},"geometry":{"type":"Point","coordinates":[-79.70609,43.47704]}},{"type":"Feature","properties":{"id":"ke-tarihi-75","kind":"poi","name":"Holy Trinity Church","theme":"tarihi","lab":1},"geometry":{"type":"Point","coordinates":[-79.42755,43.81418]}},{"type":"Feature","properties":{"id":"ke-tarihi-76","kind":"poi","name":"Holy Rosary Church","theme":"tarihi","lab":1},"geometry":{"type":"Point","coordinates":[-79.41389,43.68454]}},{"type":"Feature","properties":{"id":"ke-tarihi-77","kind":"poi","name":"Holy Blossom Temple","theme":"tarihi","lab":1},"geometry":{"type":"Point","coordinates":[-79.42527,43.69829]}},{"type":"Feature","properties":{"id":"ke-tarihi-78","kind":"poi","name":"Holodomor Memorial","theme":"tarihi","lab":1},"geometry":{"type":"Point","coordinates":[-79.40991,43.63581]}},{"type":"Feature","properties":{"id":"ke-tarihi-79","kind":"poi","name":"Hindu Heritage Centre","theme":"tarihi","lab":1},"geometry":{"type":"Point","coordinates":[-79.73068,43.59365]}},{"type":"Feature","properties":{"id":"ke-tarihi-80","kind":"poi","name":"Heintzman House","theme":"tarihi","lab":1},"geometry":{"type":"Point","coordinates":[-79.41631,43.82383]}},{"type":"Feature","properties":{"id":"ke-tarihi-81","kind":"poi","name":"Headford United Church","theme":"tarihi","lab":1},"geometry":{"type":"Point","coordinates":[-79.38894,43.86953]}},{"type":"Feature","properties":{"id":"ke-tarihi-82","kind":"poi","name":"Gurdwara Dasmesh Darbar Sikh Temple","theme":"tarihi","lab":1},"geometry":{"type":"Point","coordinates":[-79.6607,43.77387]}},{"type":"Feature","properties":{"id":"ke-tarihi-83","kind":"poi","name":"Guildwood Community Presbyterian Church","theme":"tarihi","lab":1},"geometry":{"type":"Point","coordinates":[-79.19886,43.74796]}},{"type":"Feature","properties":{"id":"ke-tarihi-84","kind":"poi","name":"Fort York","theme":"tarihi","lab":1},"geometry":{"type":"Point","coordinates":[-79.40329,43.63903]}},{"type":"Feature","properties":{"id":"ke-tarihi-85","kind":"poi","name":"Fort Rouillé Monument","theme":"tarihi","lab":1},"geometry":{"type":"Point","coordinates":[-79.42352,43.63066]}},{"type":"Feature","properties":{"id":"ke-tarihi-86","kind":"poi","name":"First Church of Christ, Scientist","theme":"tarihi","lab":1},"geometry":{"type":"Point","coordinates":[-79.40141,43.67004]}},{"type":"Feature","properties":{"id":"ke-tarihi-87","kind":"poi","name":"English Wheat Barn","theme":"tarihi","lab":1},"geometry":{"type":"Point","coordinates":[-79.69722,43.9163]}},{"type":"Feature","properties":{"id":"ke-tarihi-88","kind":"poi","name":"Ebenezer United Church","theme":"tarihi","lab":1},"geometry":{"type":"Point","coordinates":[-79.28778,43.8286]}},{"type":"Feature","properties":{"id":"ke-tarihi-89","kind":"poi","name":"Covenant Baptist Church","theme":"tarihi","lab":1},"geometry":{"type":"Point","coordinates":[-79.40296,43.71535]}},{"type":"Feature","properties":{"id":"ke-tarihi-90","kind":"poi","name":"Corpus Christi Roman Catholic Church","theme":"tarihi","lab":1},"geometry":{"type":"Point","coordinates":[-79.30972,43.66828]}},{"type":"Feature","properties":{"id":"ke-tarihi-91","kind":"poi","name":"Colborne Lodge","theme":"tarihi","lab":1},"geometry":{"type":"Point","coordinates":[-79.46,43.64036]}},{"type":"Feature","properties":{"id":"ke-tarihi-92","kind":"poi","name":"Church of the Messiah","theme":"tarihi","lab":1},"geometry":{"type":"Point","coordinates":[-79.3979,43.67691]}},{"type":"Feature","properties":{"id":"ke-tarihi-93","kind":"poi","name":"Church of the Holy Name","theme":"tarihi","lab":1},"geometry":{"type":"Point","coordinates":[-79.34596,43.67911]}},{"type":"Feature","properties":{"id":"ke-tarihi-94","kind":"poi","name":"Church of St. Jude","theme":"tarihi","lab":1},"geometry":{"type":"Point","coordinates":[-79.306,43.73869]}},{"type":"Feature","properties":{"id":"ke-modern-0","kind":"poi","name":"The Theatre Centre","theme":"modern","lab":1},"geometry":{"type":"Point","coordinates":[-79.42325,43.64302]}},{"type":"Feature","properties":{"id":"ke-modern-1","kind":"poi","name":"The Citadel Ross Centre for Dance","theme":"modern","lab":1},"geometry":{"type":"Point","coordinates":[-79.36609,43.65904]}},{"type":"Feature","properties":{"id":"ke-modern-2","kind":"poi","name":"Princess of Wales Theatre","theme":"modern","lab":1},"geometry":{"type":"Point","coordinates":[-79.38925,43.64706]}},{"type":"Feature","properties":{"id":"ke-modern-3","kind":"poi","name":"Mississauga Celebration Square Amphitheatre","theme":"modern","lab":1},"geometry":{"type":"Point","coordinates":[-79.64363,43.58902]}},{"type":"Feature","properties":{"id":"ke-modern-4","kind":"poi","name":"Justina M. Barnicke Gallery","theme":"modern","lab":1},"geometry":{"type":"Point","coordinates":[-79.39499,43.66365]}},{"type":"Feature","properties":{"id":"ke-modern-5","kind":"poi","name":"Erindale Studio Theatre","theme":"modern","lab":1},"geometry":{"type":"Point","coordinates":[-79.66632,43.54994]}},{"type":"Feature","properties":{"id":"ke-modern-6","kind":"poi","name":"Doris McCarthy Art Gallery","theme":"modern","lab":1},"geometry":{"type":"Point","coordinates":[-79.18691,43.78396]}},{"type":"Feature","properties":{"id":"ke-modern-7","kind":"poi","name":"CAA Theatre","theme":"modern","lab":1},"geometry":{"type":"Point","coordinates":[-79.38546,43.66809]}},{"type":"Feature","properties":{"id":"ke-modern-8","kind":"poi","name":"Theatre Passe Muraille","theme":"modern","lab":1},"geometry":{"type":"Point","coordinates":[-79.40262,43.64859]}},{"type":"Feature","properties":{"id":"ke-modern-9","kind":"poi","name":"The Rose Theatre Brampton","theme":"modern","lab":1},"geometry":{"type":"Point","coordinates":[-79.76014,43.68714]}},{"type":"Feature","properties":{"id":"ke-modern-10","kind":"poi","name":"The Power Plant Contemporary Art Gallery","theme":"modern","lab":1},"geometry":{"type":"Point","coordinates":[-79.38197,43.63816]}},{"type":"Feature","properties":{"id":"ke-modern-11","kind":"poi","name":"The Danforth Music Hall","theme":"modern","lab":1},"geometry":{"type":"Point","coordinates":[-79.35703,43.67625]}},{"type":"Feature","properties":{"id":"ke-modern-12","kind":"poi","name":"Tarragon Theatre","theme":"modern","lab":1},"geometry":{"type":"Point","coordinates":[-79.41301,43.67499]}},{"type":"Feature","properties":{"id":"ke-modern-13","kind":"poi","name":"St. Lawrence Centre for the Arts","theme":"modern","lab":1},"geometry":{"type":"Point","coordinates":[-79.37517,43.64738]}},{"type":"Feature","properties":{"id":"ke-modern-14","kind":"poi","name":"RBC Amphitheatre","theme":"modern","lab":1},"geometry":{"type":"Point","coordinates":[-79.4151,43.62933]}},{"type":"Feature","properties":{"id":"ke-modern-15","kind":"poi","name":"Paradise Cinema","theme":"modern","lab":1},"geometry":{"type":"Point","coordinates":[-79.43071,43.66114]}},{"type":"Feature","properties":{"id":"ke-modern-16","kind":"poi","name":"Meridian Arts Centre","theme":"modern","lab":1},"geometry":{"type":"Point","coordinates":[-79.41442,43.76605]}},{"type":"Feature","properties":{"id":"ke-modern-17","kind":"poi","name":"Medieval Times Dinner & Tournament","theme":"modern","lab":1},"geometry":{"type":"Point","coordinates":[-79.42556,43.63265]}},{"type":"Feature","properties":{"id":"ke-modern-18","kind":"poi","name":"Landmark Cinemas","theme":"modern","lab":1},"geometry":{"type":"Point","coordinates":[-79.70787,43.86366]}},{"type":"Feature","properties":{"id":"ke-modern-19","kind":"poi","name":"Koffler Gallery","theme":"modern","lab":1},"geometry":{"type":"Point","coordinates":[-79.41747,43.64689]}},{"type":"Feature","properties":{"id":"ke-modern-20","kind":"poi","name":"Kingswood Music Theatre","theme":"modern","lab":1},"geometry":{"type":"Point","coordinates":[-79.53922,43.8394]}},{"type":"Feature","properties":{"id":"ke-modern-21","kind":"poi","name":"Four Seasons Centre for the Performing Arts","theme":"modern","lab":1},"geometry":{"type":"Point","coordinates":[-79.38551,43.65066]}},{"type":"Feature","properties":{"id":"ke-modern-22","kind":"poi","name":"Flato Markham Theatre","theme":"modern","lab":1},"geometry":{"type":"Point","coordinates":[-79.33633,43.8576]}},{"type":"Feature","properties":{"id":"ke-modern-23","kind":"poi","name":"Art Gallery of Ontario","theme":"modern","lab":1},"geometry":{"type":"Point","coordinates":[-79.39252,43.65355]}},{"type":"Feature","properties":{"id":"ke-modern-24","kind":"poi","name":"The Joan and Martin Goldfarb Gallery of York University","theme":"modern","lab":1},"geometry":{"type":"Point","coordinates":[-79.50059,43.77293]}},{"type":"Feature","properties":{"id":"ke-modern-25","kind":"poi","name":"Robert Mede Gallery","theme":"modern","lab":1},"geometry":{"type":"Point","coordinates":[-79.3141,43.67288]}},{"type":"Feature","properties":{"id":"ke-modern-26","kind":"poi","name":"P. C. Ho Theatre","theme":"modern","lab":1},"geometry":{"type":"Point","coordinates":[-79.23362,43.79459]}},{"type":"Feature","properties":{"id":"ke-modern-27","kind":"poi","name":"L Space Gallery","theme":"modern","lab":1},"geometry":{"type":"Point","coordinates":[-79.51514,43.59572]}},{"type":"Feature","properties":{"id":"ke-modern-28","kind":"poi","name":"Kumf Gallery","theme":"modern","lab":1},"geometry":{"type":"Point","coordinates":[-79.50962,43.61859]}},{"type":"Feature","properties":{"id":"ke-modern-29","kind":"poi","name":"Blackwood Gallery","theme":"modern","lab":1},"geometry":{"type":"Point","coordinates":[-79.66315,43.54853]}},{"type":"Feature","properties":{"id":"ke-modern-30","kind":"poi","name":"XPACE Cultural Centre","theme":"modern","lab":1},"geometry":{"type":"Point","coordinates":[-79.43965,43.6506]}},{"type":"Feature","properties":{"id":"ke-modern-31","kind":"poi","name":"Worth Gallery","theme":"modern","lab":1},"geometry":{"type":"Point","coordinates":[-79.40949,43.65171]}},{"type":"Feature","properties":{"id":"ke-modern-32","kind":"poi","name":"Urban Arts","theme":"modern","lab":1},"geometry":{"type":"Point","coordinates":[-79.49489,43.6894]}},{"type":"Feature","properties":{"id":"ke-modern-33","kind":"poi","name":"The Ground Floor: Jumblies Theatre","theme":"modern","lab":1},"geometry":{"type":"Point","coordinates":[-79.39875,43.63942]}},{"type":"Feature","properties":{"id":"ke-modern-34","kind":"poi","name":"The Al Green Gallery / Green Family Companies","theme":"modern","lab":1},"geometry":{"type":"Point","coordinates":[-79.39421,43.6967]}},{"type":"Feature","properties":{"id":"ke-modern-35","kind":"poi","name":"TPW Art Gallery","theme":"modern","lab":1},"geometry":{"type":"Point","coordinates":[-79.44254,43.65396]}},{"type":"Feature","properties":{"id":"ke-modern-36","kind":"poi","name":"Sun City Gallery","theme":"modern","lab":1},"geometry":{"type":"Point","coordinates":[-79.43873,43.87877]}},{"type":"Feature","properties":{"id":"ke-modern-37","kind":"poi","name":"Su K","theme":"modern","lab":1},"geometry":{"type":"Point","coordinates":[-79.31564,43.69268]}},{"type":"Feature","properties":{"id":"ke-modern-38","kind":"poi","name":"Studio 888","theme":"modern","lab":1},"geometry":{"type":"Point","coordinates":[-79.28885,43.67227]}},{"type":"Feature","properties":{"id":"ke-modern-39","kind":"poi","name":"St. Germain Gallery","theme":"modern","lab":1},"geometry":{"type":"Point","coordinates":[-79.40425,43.73205]}},{"type":"Feature","properties":{"id":"ke-modern-40","kind":"poi","name":"Queen Gallery","theme":"modern","lab":1},"geometry":{"type":"Point","coordinates":[-79.36341,43.65595]}},{"type":"Feature","properties":{"id":"ke-modern-41","kind":"poi","name":"Picture Perfect Gallery","theme":"modern","lab":1},"geometry":{"type":"Point","coordinates":[-79.39985,43.71489]}},{"type":"Feature","properties":{"id":"ke-modern-42","kind":"poi","name":"Pazan Gallery & Frame","theme":"modern","lab":1},"geometry":{"type":"Point","coordinates":[-79.57745,43.56016]}},{"type":"Feature","properties":{"id":"ke-modern-43","kind":"poi","name":"Oakville Galleries in Gairloch Gardens","theme":"modern","lab":1},"geometry":{"type":"Point","coordinates":[-79.64681,43.46077]}},{"type":"Feature","properties":{"id":"ke-modern-44","kind":"poi","name":"Modern Bright Open Art studio","theme":"modern","lab":1},"geometry":{"type":"Point","coordinates":[-79.40027,43.81981]}},{"type":"Feature","properties":{"id":"ke-doga-0","kind":"poi","name":"Westlake Park","theme":"doga","lab":1},"geometry":{"type":"Point","coordinates":[-79.48704,43.68161]}},{"type":"Feature","properties":{"id":"ke-doga-1","kind":"poi","name":"Toronto Music Garden","theme":"doga","lab":1},"geometry":{"type":"Point","coordinates":[-79.39436,43.63697]}},{"type":"Feature","properties":{"id":"ke-doga-2","kind":"poi","name":"Tony Rinomato Park","theme":"doga","lab":1},"geometry":{"type":"Point","coordinates":[-79.67687,43.78932]}},{"type":"Feature","properties":{"id":"ke-doga-3","kind":"poi","name":"Sir Winston Churchill Park","theme":"doga","lab":1},"geometry":{"type":"Point","coordinates":[-79.40868,43.68273]}},{"type":"Feature","properties":{"id":"ke-doga-4","kind":"poi","name":"Shallmar Parkette","theme":"doga","lab":1},"geometry":{"type":"Point","coordinates":[-79.4238,43.70387]}},{"type":"Feature","properties":{"id":"ke-doga-5","kind":"poi","name":"Runnymede Park","theme":"doga","lab":1},"geometry":{"type":"Point","coordinates":[-79.47877,43.66832]}},{"type":"Feature","properties":{"id":"ke-doga-6","kind":"poi","name":"Ramsden Park","theme":"doga","lab":1},"geometry":{"type":"Point","coordinates":[-79.3932,43.67639]}},{"type":"Feature","properties":{"id":"ke-doga-7","kind":"poi","name":"Milne Dam Conservation Park","theme":"doga","lab":1},"geometry":{"type":"Point","coordinates":[-79.27085,43.86543]}},{"type":"Feature","properties":{"id":"ke-doga-8","kind":"poi","name":"Milliken Park","theme":"doga","lab":1},"geometry":{"type":"Point","coordinates":[-79.27057,43.82959]}},{"type":"Feature","properties":{"id":"ke-doga-9","kind":"poi","name":"McCormick Park","theme":"doga","lab":1},"geometry":{"type":"Point","coordinates":[-79.43353,43.64706]}},{"type":"Feature","properties":{"id":"ke-doga-10","kind":"poi","name":"Marie Curtis Park","theme":"doga","lab":1},"geometry":{"type":"Point","coordinates":[-79.54404,43.58508]}},{"type":"Feature","properties":{"id":"ke-doga-11","kind":"poi","name":"Love Park","theme":"doga","lab":1},"geometry":{"type":"Point","coordinates":[-79.37983,43.64073]}},{"type":"Feature","properties":{"id":"ke-doga-12","kind":"poi","name":"Huron Street Playground","theme":"doga","lab":1},"geometry":{"type":"Point","coordinates":[-79.40187,43.66935]}},{"type":"Feature","properties":{"id":"ke-doga-13","kind":"poi","name":"Herbert H. Carnegie Centennial Centre","theme":"doga","lab":1},"geometry":{"type":"Point","coordinates":[-79.45013,43.77358]}},{"type":"Feature","properties":{"id":"ke-doga-14","kind":"poi","name":"Glasgow Street Parkette","theme":"doga","lab":1},"geometry":{"type":"Point","coordinates":[-79.39839,43.65676]}},{"type":"Feature","properties":{"id":"ke-doga-15","kind":"poi","name":"Eglinton Park","theme":"doga","lab":1},"geometry":{"type":"Point","coordinates":[-79.40532,43.70748]}},{"type":"Feature","properties":{"id":"ke-doga-16","kind":"poi","name":"Earl Bales Park","theme":"doga","lab":1},"geometry":{"type":"Point","coordinates":[-79.42379,43.75125]}},{"type":"Feature","properties":{"id":"ke-doga-17","kind":"poi","name":"Duncan Foster Valley South","theme":"doga","lab":1},"geometry":{"type":"Point","coordinates":[-79.67207,43.78792]}},{"type":"Feature","properties":{"id":"ke-doga-18","kind":"poi","name":"Downsview Park","theme":"doga","lab":1},"geometry":{"type":"Point","coordinates":[-79.48075,43.74154]}},{"type":"Feature","properties":{"id":"ke-doga-19","kind":"poi","name":"Christie Pits Park","theme":"doga","lab":1},"geometry":{"type":"Point","coordinates":[-79.42099,43.66471]}},{"type":"Feature","properties":{"id":"ke-doga-20","kind":"poi","name":"Centennial Park","theme":"doga","lab":1},"geometry":{"type":"Point","coordinates":[-79.58995,43.6534]}},{"type":"Feature","properties":{"id":"ke-doga-21","kind":"poi","name":"Butterfly Heights Park","theme":"doga","lab":1},"geometry":{"type":"Point","coordinates":[-79.61996,43.86508]}},{"type":"Feature","properties":{"id":"ke-doga-22","kind":"poi","name":"Biidaasige Park","theme":"doga","lab":1},"geometry":{"type":"Point","coordinates":[-79.35034,43.64603]}},{"type":"Feature","properties":{"id":"ke-doga-23","kind":"poi","name":"Batsman Park","theme":"doga","lab":1},"geometry":{"type":"Point","coordinates":[-79.76865,43.7565]}},{"type":"Feature","properties":{"id":"ke-doga-24","kind":"poi","name":"Bartlett Parkette","theme":"doga","lab":1},"geometry":{"type":"Point","coordinates":[-79.4363,43.67032]}},{"type":"Feature","properties":{"id":"ke-doga-25","kind":"poi","name":"Baird Park","theme":"doga","lab":1},"geometry":{"type":"Point","coordinates":[-79.46257,43.66235]}},{"type":"Feature","properties":{"id":"ke-doga-26","kind":"poi","name":"Étienne Brûlé Park","theme":"doga","lab":1},"geometry":{"type":"Point","coordinates":[-79.49757,43.65731]}},{"type":"Feature","properties":{"id":"ke-doga-27","kind":"poi","name":"Wychwood Barns Park","theme":"doga","lab":1},"geometry":{"type":"Point","coordinates":[-79.42371,43.6798]}},{"type":"Feature","properties":{"id":"ke-doga-28","kind":"poi","name":"Woodland Chase Park","theme":"doga","lab":1},"geometry":{"type":"Point","coordinates":[-79.69916,43.56218]}},{"type":"Feature","properties":{"id":"ke-doga-29","kind":"poi","name":"Woodbine Park","theme":"doga","lab":1},"geometry":{"type":"Point","coordinates":[-79.31285,43.6649]}},{"type":"Feature","properties":{"id":"ke-doga-30","kind":"poi","name":"Withrow Park","theme":"doga","lab":1},"geometry":{"type":"Point","coordinates":[-79.34694,43.6743]}},{"type":"Feature","properties":{"id":"ke-doga-31","kind":"poi","name":"William Porter Park","theme":"doga","lab":1},"geometry":{"type":"Point","coordinates":[-79.71773,43.77732]}},{"type":"Feature","properties":{"id":"ke-doga-32","kind":"poi","name":"Wet 'n' Wild Toronto","theme":"doga","lab":1},"geometry":{"type":"Point","coordinates":[-79.64104,43.74241]}},{"type":"Feature","properties":{"id":"ke-doga-33","kind":"poi","name":"Trinity Square","theme":"doga","lab":1},"geometry":{"type":"Point","coordinates":[-79.38209,43.6544]}},{"type":"Feature","properties":{"id":"ke-doga-34","kind":"poi","name":"Toogood Park","theme":"doga","lab":1},"geometry":{"type":"Point","coordinates":[-79.31798,43.87668]}},{"type":"Feature","properties":{"id":"ke-doga-35","kind":"poi","name":"Thomson Memorial Park","theme":"doga","lab":1},"geometry":{"type":"Point","coordinates":[-79.25284,43.75842]}},{"type":"Feature","properties":{"id":"ke-doga-36","kind":"poi","name":"Sunnybrook Park","theme":"doga","lab":1},"geometry":{"type":"Point","coordinates":[-79.36508,43.72594]}},{"type":"Feature","properties":{"id":"ke-doga-37","kind":"poi","name":"Sugar Beach","theme":"doga","lab":1},"geometry":{"type":"Point","coordinates":[-79.36656,43.64329]}},{"type":"Feature","properties":{"id":"ke-doga-38","kind":"poi","name":"St. James Park","theme":"doga","lab":1},"geometry":{"type":"Point","coordinates":[-79.3734,43.65077]}},{"type":"Feature","properties":{"id":"ke-doga-39","kind":"poi","name":"St. Andrew's Playground","theme":"doga","lab":1},"geometry":{"type":"Point","coordinates":[-79.399,43.64641]}},{"type":"Feature","properties":{"id":"ke-doga-40","kind":"poi","name":"St. Alban's Square","theme":"doga","lab":1},"geometry":{"type":"Point","coordinates":[-79.41053,43.6686]}},{"type":"Feature","properties":{"id":"ke-doga-41","kind":"poi","name":"Sorauren Avenue Park","theme":"doga","lab":1},"geometry":{"type":"Point","coordinates":[-79.44337,43.64866]}},{"type":"Feature","properties":{"id":"ke-doga-42","kind":"poi","name":"Sherwood Park","theme":"doga","lab":1},"geometry":{"type":"Point","coordinates":[-79.38582,43.71681]}},{"type":"Feature","properties":{"id":"ke-doga-43","kind":"poi","name":"Seven Oaks Park","theme":"doga","lab":1},"geometry":{"type":"Point","coordinates":[-79.21086,43.78829]}},{"type":"Feature","properties":{"id":"ke-doga-44","kind":"poi","name":"Scarborough Bluffs","theme":"doga","lab":1},"geometry":{"type":"Point","coordinates":[-79.22471,43.71831]}},{"type":"Feature","properties":{"id":"ke-doga-45","kind":"poi","name":"Samuelson Park","theme":"doga","lab":1},"geometry":{"type":"Point","coordinates":[-79.74811,43.62435]}},{"type":"Feature","properties":{"id":"ke-doga-46","kind":"poi","name":"Roxton Road Parkette","theme":"doga","lab":1},"geometry":{"type":"Point","coordinates":[-79.41961,43.6507]}},{"type":"Feature","properties":{"id":"ke-doga-47","kind":"poi","name":"Rosedale Park","theme":"doga","lab":1},"geometry":{"type":"Point","coordinates":[-79.37892,43.68279]}},{"type":"Feature","properties":{"id":"ke-doga-48","kind":"poi","name":"Riverdale Park East","theme":"doga","lab":1},"geometry":{"type":"Point","coordinates":[-79.35612,43.66998]}},{"type":"Feature","properties":{"id":"ke-doga-49","kind":"poi","name":"Richmond Green","theme":"doga","lab":1},"geometry":{"type":"Point","coordinates":[-79.40254,43.90003]}},{"type":"Feature","properties":{"id":"ke-doga-50","kind":"poi","name":"R.M. Wells Park","theme":"doga","lab":1},"geometry":{"type":"Point","coordinates":[-79.74919,43.77917]}},{"type":"Feature","properties":{"id":"ke-doga-51","kind":"poi","name":"Pine Point Park","theme":"doga","lab":1},"geometry":{"type":"Point","coordinates":[-79.54438,43.71596]}},{"type":"Feature","properties":{"id":"ke-doga-52","kind":"poi","name":"North Thornhill District Park","theme":"doga","lab":1},"geometry":{"type":"Point","coordinates":[-79.47968,43.8353]}},{"type":"Feature","properties":{"id":"ke-doga-53","kind":"poi","name":"North Bendale Park","theme":"doga","lab":1},"geometry":{"type":"Point","coordinates":[-79.24563,43.76981]}},{"type":"Feature","properties":{"id":"ke-doga-54","kind":"poi","name":"Muirlands Park","theme":"doga","lab":1},"geometry":{"type":"Point","coordinates":[-79.26846,43.82264]}},{"type":"Feature","properties":{"id":"ke-doga-55","kind":"poi","name":"McCowan District Park","theme":"doga","lab":1},"geometry":{"type":"Point","coordinates":[-79.23837,43.73356]}},{"type":"Feature","properties":{"id":"ke-doga-56","kind":"poi","name":"Maple Leaf Forever Park","theme":"doga","lab":1},"geometry":{"type":"Point","coordinates":[-79.32782,43.66304]}},{"type":"Feature","properties":{"id":"ke-doga-57","kind":"poi","name":"Little Norway Park","theme":"doga","lab":1},"geometry":{"type":"Point","coordinates":[-79.39851,43.63445]}},{"type":"Feature","properties":{"id":"ke-doga-58","kind":"poi","name":"Lake Wabukayne Park","theme":"doga","lab":1},"geometry":{"type":"Point","coordinates":[-79.74218,43.58018]}},{"type":"Feature","properties":{"id":"ke-doga-59","kind":"poi","name":"L'Amoreaux Park","theme":"doga","lab":1},"geometry":{"type":"Point","coordinates":[-79.30782,43.81247]}},{"type":"Feature","properties":{"id":"ke-doga-60","kind":"poi","name":"Kortright Centre for Conservation","theme":"doga","lab":1},"geometry":{"type":"Point","coordinates":[-79.59753,43.82854]}},{"type":"Feature","properties":{"id":"ke-doga-61","kind":"poi","name":"Kew Gardens","theme":"doga","lab":1},"geometry":{"type":"Point","coordinates":[-79.29826,43.66816]}},{"type":"Feature","properties":{"id":"ke-doga-62","kind":"poi","name":"Kennedy-Margdon Parkette","theme":"doga","lab":1},"geometry":{"type":"Point","coordinates":[-79.47333,43.65236]}},{"type":"Feature","properties":{"id":"ke-doga-63","kind":"poi","name":"Kempton Howard Park","theme":"doga","lab":1},"geometry":{"type":"Point","coordinates":[-79.34032,43.67584]}},{"type":"Feature","properties":{"id":"ke-doga-64","kind":"poi","name":"Kariya Park","theme":"doga","lab":1},"geometry":{"type":"Point","coordinates":[-79.63626,43.58964]}},{"type":"Feature","properties":{"id":"ke-doga-65","kind":"poi","name":"June Rowlands Park","theme":"doga","lab":1},"geometry":{"type":"Point","coordinates":[-79.38854,43.70071]}},{"type":"Feature","properties":{"id":"ke-doga-66","kind":"poi","name":"Jean Sibelius Square","theme":"doga","lab":1},"geometry":{"type":"Point","coordinates":[-79.40881,43.67145]}},{"type":"Feature","properties":{"id":"ke-doga-67","kind":"poi","name":"Jacksonville Park","theme":"doga","lab":1},"geometry":{"type":"Point","coordinates":[-79.73467,43.78589]}},{"type":"Feature","properties":{"id":"ke-doga-68","kind":"poi","name":"Iroquois Park","theme":"doga","lab":1},"geometry":{"type":"Point","coordinates":[-79.26645,43.80242]}},{"type":"Feature","properties":{"id":"ke-doga-69","kind":"poi","name":"Inukshuk Park","theme":"doga","lab":1},"geometry":{"type":"Point","coordinates":[-79.40962,43.63283]}},{"type":"Feature","properties":{"id":"ke-doga-70","kind":"poi","name":"Hindhead Park","theme":"doga","lab":1},"geometry":{"type":"Point","coordinates":[-79.63258,43.51719]}},{"type":"Feature","properties":{"id":"ke-doga-71","kind":"poi","name":"High Park","theme":"doga","lab":1},"geometry":{"type":"Point","coordinates":[-79.46273,43.64625]}},{"type":"Feature","properties":{"id":"ke-doga-72","kind":"poi","name":"Harding Park","theme":"doga","lab":1},"geometry":{"type":"Point","coordinates":[-79.49704,43.69914]}},{"type":"Feature","properties":{"id":"ke-doga-73","kind":"poi","name":"Guild Park and Gardens","theme":"doga","lab":1},"geometry":{"type":"Point","coordinates":[-79.18967,43.74549]}},{"type":"Feature","properties":{"id":"ke-doga-74","kind":"poi","name":"Grange Park","theme":"doga","lab":1},"geometry":{"type":"Point","coordinates":[-79.39224,43.65222]}},{"type":"Feature","properties":{"id":"ke-doga-75","kind":"poi","name":"Gibson Park","theme":"doga","lab":1},"geometry":{"type":"Point","coordinates":[-79.41578,43.76896]}},{"type":"Feature","properties":{"id":"ke-doga-76","kind":"poi","name":"Gage Park","theme":"doga","lab":1},"geometry":{"type":"Point","coordinates":[-79.75815,43.68365]}},{"type":"Feature","properties":{"id":"ke-doga-77","kind":"poi","name":"Fairbank Memorial Park","theme":"doga","lab":1},"geometry":{"type":"Point","coordinates":[-79.44763,43.69167]}},{"type":"Feature","properties":{"id":"ke-doga-78","kind":"poi","name":"F.B. McFarren Memorial Park","theme":"doga","lab":1},"geometry":{"type":"Point","coordinates":[-79.71703,43.56809]}},{"type":"Feature","properties":{"id":"ke-doga-79","kind":"poi","name":"Edwards Gardens","theme":"doga","lab":1},"geometry":{"type":"Point","coordinates":[-79.35877,43.73143]}},{"type":"Feature","properties":{"id":"ke-doga-80","kind":"poi","name":"Dufferin Grove Park","theme":"doga","lab":1},"geometry":{"type":"Point","coordinates":[-79.43248,43.65621]}},{"type":"Feature","properties":{"id":"ke-doga-81","kind":"poi","name":"Donald M. Gordon Chinguacousy Park","theme":"doga","lab":1},"geometry":{"type":"Point","coordinates":[-79.72283,43.72515]}},{"type":"Feature","properties":{"id":"ke-doga-82","kind":"poi","name":"Dentonia Park","theme":"doga","lab":1},"geometry":{"type":"Point","coordinates":[-79.29327,43.69363]}},{"type":"Feature","properties":{"id":"ke-doga-83","kind":"poi","name":"Dallington Park","theme":"doga","lab":1},"geometry":{"type":"Point","coordinates":[-79.35503,43.77623]}},{"type":"Feature","properties":{"id":"ke-doga-84","kind":"poi","name":"Corktown Common","theme":"doga","lab":1},"geometry":{"type":"Point","coordinates":[-79.35245,43.65404]}},{"type":"Feature","properties":{"id":"ke-gastronomi-0","kind":"poi","name":"The Lunch Lady of Saigon","theme":"gastronomi","lab":1},"geometry":{"type":"Point","coordinates":[-79.41944,43.6463]}},{"type":"Feature","properties":{"id":"ke-gastronomi-1","kind":"poi","name":"Hinoya Curry","theme":"gastronomi","lab":1},"geometry":{"type":"Point","coordinates":[-79.38172,43.66153]}},{"type":"Feature","properties":{"id":"ke-gastronomi-2","kind":"poi","name":"Yukashi","theme":"gastronomi","lab":1},"geometry":{"type":"Point","coordinates":[-79.38857,43.70492]}},{"type":"Feature","properties":{"id":"ke-gastronomi-3","kind":"poi","name":"True Love Cafe","theme":"gastronomi","lab":1},"geometry":{"type":"Point","coordinates":[-79.37133,43.65843]}},{"type":"Feature","properties":{"id":"ke-gastronomi-4","kind":"poi","name":"Tiflisi","theme":"gastronomi","lab":1},"geometry":{"type":"Point","coordinates":[-79.30159,43.66981]}},{"type":"Feature","properties":{"id":"ke-gastronomi-5","kind":"poi","name":"The Blind Duck","theme":"gastronomi","lab":1},"geometry":{"type":"Point","coordinates":[-79.66388,43.54882]}},{"type":"Feature","properties":{"id":"ke-gastronomi-6","kind":"poi","name":"Skyline Restaurant","theme":"gastronomi","lab":1},"geometry":{"type":"Point","coordinates":[-79.43515,43.64101]}},{"type":"Feature","properties":{"id":"ke-gastronomi-7","kind":"poi","name":"Shoushin","theme":"gastronomi","lab":1},"geometry":{"type":"Point","coordinates":[-79.4041,43.73145]}},{"type":"Feature","properties":{"id":"ke-gastronomi-8","kind":"poi","name":"Osteria Giulia","theme":"gastronomi","lab":1},"geometry":{"type":"Point","coordinates":[-79.39666,43.67436]}},{"type":"Feature","properties":{"id":"ke-gastronomi-9","kind":"poi","name":"Milestones","theme":"gastronomi","lab":1},"geometry":{"type":"Point","coordinates":[-79.38054,43.65658]}},{"type":"Feature","properties":{"id":"ke-gastronomi-10","kind":"poi","name":"Japas Oyster Bar","theme":"gastronomi","lab":1},"geometry":{"type":"Point","coordinates":[-79.41738,43.66391]}},{"type":"Feature","properties":{"id":"ke-gastronomi-11","kind":"poi","name":"Horseshoe Tavern","theme":"gastronomi","lab":1},"geometry":{"type":"Point","coordinates":[-79.3959,43.64905]}},{"type":"Feature","properties":{"id":"ke-gastronomi-12","kind":"poi","name":"Garden Gate","theme":"gastronomi","lab":1},"geometry":{"type":"Point","coordinates":[-79.28736,43.67257]}},{"type":"Feature","properties":{"id":"ke-gastronomi-13","kind":"poi","name":"Free Times Cafe","theme":"gastronomi","lab":1},"geometry":{"type":"Point","coordinates":[-79.40247,43.65766]}},{"type":"Feature","properties":{"id":"ke-gastronomi-14","kind":"poi","name":"Edulis","theme":"gastronomi","lab":1},"geometry":{"type":"Point","coordinates":[-79.40655,43.64197]}},{"type":"Feature","properties":{"id":"ke-gastronomi-15","kind":"poi","name":"Eataly Toronto","theme":"gastronomi","lab":1},"geometry":{"type":"Point","coordinates":[-79.38875,43.66967]}},{"type":"Feature","properties":{"id":"ke-gastronomi-16","kind":"poi","name":"EAT BKK","theme":"gastronomi","lab":1},"geometry":{"type":"Point","coordinates":[-79.40882,43.66551]}},{"type":"Feature","properties":{"id":"ke-gastronomi-17","kind":"poi","name":"Dai Lo","theme":"gastronomi","lab":1},"geometry":{"type":"Point","coordinates":[-79.40982,43.65586]}},{"type":"Feature","properties":{"id":"ke-gastronomi-18","kind":"poi","name":"Café Polonez","theme":"gastronomi","lab":1},"geometry":{"type":"Point","coordinates":[-79.44841,43.64512]}},{"type":"Feature","properties":{"id":"ke-gastronomi-19","kind":"poi","name":"bb.q Chicken","theme":"gastronomi","lab":1},"geometry":{"type":"Point","coordinates":[-79.39084,43.84349]}},{"type":"Feature","properties":{"id":"ke-gastronomi-20","kind":"poi","name":"Yunshang Rice Noodle","theme":"gastronomi","lab":1},"geometry":{"type":"Point","coordinates":[-79.28811,43.80359]}},{"type":"Feature","properties":{"id":"ke-gastronomi-21","kind":"poi","name":"Wimpy's Diner","theme":"gastronomi","lab":1},"geometry":{"type":"Point","coordinates":[-79.14974,43.79723]}},{"type":"Feature","properties":{"id":"ke-gastronomi-22","kind":"poi","name":"Wild Wing","theme":"gastronomi","lab":1},"geometry":{"type":"Point","coordinates":[-79.22926,43.86628]}},{"type":"Feature","properties":{"id":"ke-alisveris-0","kind":"poi","name":"Yorkdale Shopping Centre","theme":"alisveris","lab":1},"geometry":{"type":"Point","coordinates":[-79.45216,43.72561]}},{"type":"Feature","properties":{"id":"ke-alisveris-1","kind":"poi","name":"Yonge-Eglinton Centre","theme":"alisveris","lab":1},"geometry":{"type":"Point","coordinates":[-79.39942,43.70735]}},{"type":"Feature","properties":{"id":"ke-alisveris-2","kind":"poi","name":"Square One Shopping Centre","theme":"alisveris","lab":1},"geometry":{"type":"Point","coordinates":[-79.6437,43.59262]}},{"type":"Feature","properties":{"id":"ke-alisveris-3","kind":"poi","name":"Splendid China Mall","theme":"alisveris","lab":1},"geometry":{"type":"Point","coordinates":[-79.30247,43.82394]}},{"type":"Feature","properties":{"id":"ke-alisveris-4","kind":"poi","name":"Scarborough Town Centre","theme":"alisveris","lab":1},"geometry":{"type":"Point","coordinates":[-79.25765,43.77614]}},{"type":"Feature","properties":{"id":"ke-alisveris-5","kind":"poi","name":"Promenade Mall","theme":"alisveris","lab":1},"geometry":{"type":"Point","coordinates":[-79.45243,43.80693]}},{"type":"Feature","properties":{"id":"ke-alisveris-6","kind":"poi","name":"Oakville Place","theme":"alisveris","lab":1},"geometry":{"type":"Point","coordinates":[-79.687,43.46153]}},{"type":"Feature","properties":{"id":"ke-alisveris-7","kind":"poi","name":"Muji","theme":"alisveris","lab":1},"geometry":{"type":"Point","coordinates":[-79.38157,43.65632]}},{"type":"Feature","properties":{"id":"ke-alisveris-8","kind":"poi","name":"Lawrence Allen Centre","theme":"alisveris","lab":1},"geometry":{"type":"Point","coordinates":[-79.44719,43.71677]}},{"type":"Feature","properties":{"id":"ke-alisveris-9","kind":"poi","name":"Hillcrest Mall","theme":"alisveris","lab":1},"geometry":{"type":"Point","coordinates":[-79.43654,43.85476]}},{"type":"Feature","properties":{"id":"ke-alisveris-10","kind":"poi","name":"Empress Walk","theme":"alisveris","lab":1},"geometry":{"type":"Point","coordinates":[-79.41213,43.76868]}},{"type":"Feature","properties":{"id":"ke-alisveris-11","kind":"poi","name":"East York Town Centre","theme":"alisveris","lab":1},"geometry":{"type":"Point","coordinates":[-79.34601,43.70559]}},{"type":"Feature","properties":{"id":"ke-alisveris-12","kind":"poi","name":"Dufferin Mall","theme":"alisveris","lab":1},"geometry":{"type":"Point","coordinates":[-79.43524,43.65601]}},{"type":"Feature","properties":{"id":"ke-alisveris-13","kind":"poi","name":"Cumberland Terrace","theme":"alisveris","lab":1},"geometry":{"type":"Point","coordinates":[-79.38838,43.67068]}},{"type":"Feature","properties":{"id":"ke-alisveris-14","kind":"poi","name":"CF Markville","theme":"alisveris","lab":1},"geometry":{"type":"Point","coordinates":[-79.28886,43.86897]}},{"type":"Feature","properties":{"id":"ke-alisveris-15","kind":"poi","name":"Bramalea City Centre","theme":"alisveris","lab":1},"geometry":{"type":"Point","coordinates":[-79.72258,43.71562]}},{"type":"Feature","properties":{"id":"ke-alisveris-16","kind":"poi","name":"Bayview Village","theme":"alisveris","lab":1},"geometry":{"type":"Point","coordinates":[-79.38567,43.76889]}},{"type":"Feature","properties":{"id":"ke-alisveris-17","kind":"poi","name":"Woodside Square","theme":"alisveris","lab":1},"geometry":{"type":"Point","coordinates":[-79.26946,43.80941]}},{"type":"Feature","properties":{"id":"ke-alisveris-18","kind":"poi","name":"Woodbine Mall","theme":"alisveris","lab":1},"geometry":{"type":"Point","coordinates":[-79.60008,43.72048]}},{"type":"Feature","properties":{"id":"ke-alisveris-19","kind":"poi","name":"Westwood Square","theme":"alisveris","lab":1},"geometry":{"type":"Point","coordinates":[-79.63704,43.71952]}},{"type":"Feature","properties":{"id":"ke-alisveris-20","kind":"poi","name":"Westdale Mall","theme":"alisveris","lab":1},"geometry":{"type":"Point","coordinates":[-79.64581,43.55755]}},{"type":"Feature","properties":{"id":"ke-alisveris-21","kind":"poi","name":"Vaughan Mills","theme":"alisveris","lab":1},"geometry":{"type":"Point","coordinates":[-79.53836,43.82549]}},{"type":"Feature","properties":{"id":"ke-alisveris-22","kind":"poi","name":"The Albion Centre","theme":"alisveris","lab":1},"geometry":{"type":"Point","coordinates":[-79.58455,43.74168]}},{"type":"Feature","properties":{"id":"ke-alisveris-23","kind":"poi","name":"Shoppers World Brampton","theme":"alisveris","lab":1},"geometry":{"type":"Point","coordinates":[-79.73758,43.66618]}},{"type":"Feature","properties":{"id":"ke-alisveris-24","kind":"poi","name":"Sheridan Centre","theme":"alisveris","lab":1},"geometry":{"type":"Point","coordinates":[-79.65347,43.53041]}},{"type":"Feature","properties":{"id":"ke-alisveris-25","kind":"poi","name":"Parkway Mall","theme":"alisveris","lab":1},"geometry":{"type":"Point","coordinates":[-79.3125,43.75707]}},{"type":"Feature","properties":{"id":"ke-alisveris-26","kind":"poi","name":"Pacific Mall","theme":"alisveris","lab":1},"geometry":{"type":"Point","coordinates":[-79.30628,43.82619]}},{"type":"Feature","properties":{"id":"ke-alisveris-27","kind":"poi","name":"Manulife Centre","theme":"alisveris","lab":1},"geometry":{"type":"Point","coordinates":[-79.38841,43.66917]}},{"type":"Feature","properties":{"id":"ke-alisveris-28","kind":"poi","name":"Malvern Town Centre","theme":"alisveris","lab":1},"geometry":{"type":"Point","coordinates":[-79.22207,43.80677]}},{"type":"Feature","properties":{"id":"ke-alisveris-29","kind":"poi","name":"Jane-Finch Mall","theme":"alisveris","lab":1},"geometry":{"type":"Point","coordinates":[-79.51538,43.75626]}},{"type":"Feature","properties":{"id":"ke-alisveris-30","kind":"poi","name":"Galleria Shopping Centre","theme":"alisveris","lab":1},"geometry":{"type":"Point","coordinates":[-79.44129,43.66771]}},{"type":"Feature","properties":{"id":"ke-alisveris-31","kind":"poi","name":"Erin Mills Town Centre","theme":"alisveris","lab":1},"geometry":{"type":"Point","coordinates":[-79.71156,43.55824]}},{"type":"Feature","properties":{"id":"ke-alisveris-32","kind":"poi","name":"Eglinton Square","theme":"alisveris","lab":1},"geometry":{"type":"Point","coordinates":[-79.29953,43.72349]}},{"type":"Feature","properties":{"id":"ke-alisveris-33","kind":"poi","name":"Dixie Outlet Mall","theme":"alisveris","lab":1},"geometry":{"type":"Point","coordinates":[-79.56891,43.59321]}},{"type":"Feature","properties":{"id":"ke-alisveris-34","kind":"poi","name":"Crossways Mall","theme":"alisveris","lab":1},"geometry":{"type":"Point","coordinates":[-79.45138,43.65701]}},{"type":"Feature","properties":{"id":"ke-otel-0","kind":"poi","name":"Westin Harbour Castle","theme":"otel","lab":1},"geometry":{"type":"Point","coordinates":[-79.37561,43.64094]}},{"type":"Feature","properties":{"id":"ke-otel-1","kind":"poi","name":"The Yorkville Royal Sonesta Hotel Toronto","theme":"otel","lab":1},"geometry":{"type":"Point","coordinates":[-79.39628,43.66863]}},{"type":"Feature","properties":{"id":"ke-otel-2","kind":"poi","name":"The Westin Toronto Airport","theme":"otel","lab":1},"geometry":{"type":"Point","coordinates":[-79.59876,43.6873]}},{"type":"Feature","properties":{"id":"ke-otel-3","kind":"poi","name":"The St. Regis","theme":"otel","lab":1},"geometry":{"type":"Point","coordinates":[-79.38032,43.64977]}},{"type":"Feature","properties":{"id":"ke-otel-4","kind":"poi","name":"Hotel Riu Plaza Toronto","theme":"otel","lab":1},"geometry":{"type":"Point","coordinates":[-79.39164,43.64736]}},{"type":"Feature","properties":{"id":"ke-otel-5","kind":"poi","name":"The Hazelton Hotel","theme":"otel","lab":1},"geometry":{"type":"Point","coordinates":[-79.39366,43.6709]}},{"type":"Feature","properties":{"id":"ke-otel-6","kind":"poi","name":"The Broadview Hotel","theme":"otel","lab":1},"geometry":{"type":"Point","coordinates":[-79.35014,43.65908]}},{"type":"Feature","properties":{"id":"ke-otel-7","kind":"poi","name":"Toronto Airport Marriott","theme":"otel","lab":1},"geometry":{"type":"Point","coordinates":[-79.59381,43.68593]}},{"type":"Feature","properties":{"id":"ke-otel-8","kind":"poi","name":"Sheraton Gateway Hotel in Toronto International Airport","theme":"otel","lab":1},"geometry":{"type":"Point","coordinates":[-79.61973,43.68645]}},{"type":"Feature","properties":{"id":"ke-otel-9","kind":"poi","name":"Radisson Hotel Toronto East","theme":"otel","lab":1},"geometry":{"type":"Point","coordinates":[-79.32219,43.76927]}},{"type":"Feature","properties":{"id":"ke-otel-10","kind":"poi","name":"Quality Inn Airport West","theme":"otel","lab":1},"geometry":{"type":"Point","coordinates":[-79.67772,43.62684]}},{"type":"Feature","properties":{"id":"ke-otel-11","kind":"poi","name":"Novotel","theme":"otel","lab":1},"geometry":{"type":"Point","coordinates":[-79.41424,43.76861]}},{"type":"Feature","properties":{"id":"ke-otel-12","kind":"poi","name":"Kimpton Saint George Hotel","theme":"otel","lab":1},"geometry":{"type":"Point","coordinates":[-79.40095,43.66766]}},{"type":"Feature","properties":{"id":"ke-otel-13","kind":"poi","name":"Homewood Suites Toronto Airport Corporate Centre","theme":"otel","lab":1},"geometry":{"type":"Point","coordinates":[-79.60118,43.65238]}},{"type":"Feature","properties":{"id":"ke-otel-14","kind":"poi","name":"Holiday Inn Express Toronto Downtown","theme":"otel","lab":1},"geometry":{"type":"Point","coordinates":[-79.37287,43.652]}},{"type":"Feature","properties":{"id":"ke-otel-15","kind":"poi","name":"Four Points by Sheraton Toronto Mississauga","theme":"otel","lab":1},"geometry":{"type":"Point","coordinates":[-79.65088,43.6572]}},{"type":"Feature","properties":{"id":"ke-otel-16","kind":"poi","name":"Fairmont Royal York Hotel","theme":"otel","lab":1},"geometry":{"type":"Point","coordinates":[-79.38151,43.64591]}},{"type":"Feature","properties":{"id":"ke-otel-17","kind":"poi","name":"Fairfield Inn & Suites by Marriott Toronto Airport","theme":"otel","lab":1},"geometry":{"type":"Point","coordinates":[-79.6072,43.68953]}},{"type":"Feature","properties":{"id":"ke-otel-18","kind":"poi","name":"Delta Hotels by Marriott Toronto Mississauga","theme":"otel","lab":1},"geometry":{"type":"Point","coordinates":[-79.63508,43.59235]}},{"type":"Feature","properties":{"id":"ke-otel-19","kind":"poi","name":"Comfort Inn Airport West","theme":"otel","lab":1},"geometry":{"type":"Point","coordinates":[-79.62889,43.64267]}},{"type":"Feature","properties":{"id":"ke-otel-20","kind":"poi","name":"Best Western Plus Toronto North York Hotel & Suites","theme":"otel","lab":1},"geometry":{"type":"Point","coordinates":[-79.52889,43.75691]}},{"type":"Feature","properties":{"id":"ke-otel-21","kind":"poi","name":"Best Western Plus Executive Inn","theme":"otel","lab":1},"geometry":{"type":"Point","coordinates":[-79.23748,43.78357]}},{"type":"Feature","properties":{"id":"ke-otel-22","kind":"poi","name":"Woodbine Hotel & Banquet Hall","theme":"otel","lab":1},"geometry":{"type":"Point","coordinates":[-79.59264,43.7127]}},{"type":"Feature","properties":{"id":"ke-otel-23","kind":"poi","name":"Toronto Don Valley Hotel & Suites","theme":"otel","lab":1},"geometry":{"type":"Point","coordinates":[-79.32775,43.72501]}},{"type":"Feature","properties":{"id":"ke-otel-24","kind":"poi","name":"The Waterside Inn","theme":"otel","lab":1},"geometry":{"type":"Point","coordinates":[-79.58419,43.55166]}},{"type":"Feature","properties":{"id":"ke-otel-25","kind":"poi","name":"The Rex","theme":"otel","lab":1},"geometry":{"type":"Point","coordinates":[-79.38847,43.65057]}},{"type":"Feature","properties":{"id":"ke-otel-26","kind":"poi","name":"The Old Mill","theme":"otel","lab":1},"geometry":{"type":"Point","coordinates":[-79.49343,43.65095]}},{"type":"Feature","properties":{"id":"ke-otel-27","kind":"poi","name":"The Anndore House, part of JDV by Hyatt","theme":"otel","lab":1},"geometry":{"type":"Point","coordinates":[-79.38534,43.66853]}},{"type":"Feature","properties":{"id":"ke-otel-28","kind":"poi","name":"Sandman Signature","theme":"otel","lab":1},"geometry":{"type":"Point","coordinates":[-79.63169,43.6425]}},{"type":"Feature","properties":{"id":"ke-otel-29","kind":"poi","name":"Royal Oak Inn","theme":"otel","lab":1},"geometry":{"type":"Point","coordinates":[-79.36843,43.65905]}},{"type":"Feature","properties":{"id":"ke-yurt-0","kind":"poi","name":"Oscar Peterson Hall","theme":"yurt","lab":1},"geometry":{"type":"Point","coordinates":[-79.66579,43.54863]}},{"type":"Feature","properties":{"id":"ke-yurt-1","kind":"poi","name":"Erindale Hall","theme":"yurt","lab":1},"geometry":{"type":"Point","coordinates":[-79.66552,43.54958]}},{"type":"Feature","properties":{"id":"ke-yurt-2","kind":"poi","name":"Chestnut Residence","theme":"yurt","lab":1},"geometry":{"type":"Point","coordinates":[-79.38518,43.6543]}},{"type":"Feature","properties":{"id":"ke-yurt-3","kind":"poi","name":"Pitman Hall","theme":"yurt","lab":1},"geometry":{"type":"Point","coordinates":[-79.37715,43.65923]}},{"type":"Feature","properties":{"id":"ke-yurt-4","kind":"poi","name":"Oak House","theme":"yurt","lab":1},"geometry":{"type":"Point","coordinates":[-79.40326,43.66479]}},{"type":"Feature","properties":{"id":"ke-yurt-5","kind":"poi","name":"Norman Bethune Residence","theme":"yurt","lab":1},"geometry":{"type":"Point","coordinates":[-79.5085,43.77315]}},{"type":"Feature","properties":{"id":"ke-yurt-6","kind":"poi","name":"Jamia Ahmadiyya Dormitory","theme":"yurt","lab":1},"geometry":{"type":"Point","coordinates":[-79.54147,43.86499]}},{"type":"Feature","properties":{"id":"ke-yurt-7","kind":"poi","name":"International Living/Learing Centre","theme":"yurt","lab":1},"geometry":{"type":"Point","coordinates":[-79.37578,43.65873]}},{"type":"Feature","properties":{"id":"ke-yurt-8","kind":"poi","name":"Vanier Residence","theme":"yurt","lab":1},"geometry":{"type":"Point","coordinates":[-79.50271,43.77541]}},{"type":"Feature","properties":{"id":"ke-yurt-9","kind":"poi","name":"Student Housing Services","theme":"yurt","lab":1},"geometry":{"type":"Point","coordinates":[-79.37872,43.72603]}},{"type":"Feature","properties":{"id":"ke-yurt-10","kind":"poi","name":"George Brown College Student Residence","theme":"yurt","lab":1},"geometry":{"type":"Point","coordinates":[-79.3576,43.65337]}},{"type":"Feature","properties":{"id":"ke-yurt-11","kind":"poi","name":"CampusOne","theme":"yurt","lab":1},"geometry":{"type":"Point","coordinates":[-79.39891,43.65767]}},{"type":"Feature","properties":{"id":"ke-yurt-12","kind":"poi","name":"Building S","theme":"yurt","lab":1},"geometry":{"type":"Point","coordinates":[-79.60535,43.72669]}},{"type":"Feature","properties":{"id":"ke-yurt-13","kind":"poi","name":"Block Y","theme":"yurt","lab":1},"geometry":{"type":"Point","coordinates":[-79.66178,43.54621]}},{"type":"Feature","properties":{"id":"ke-kamu-0","kind":"poi","name":"Consulate General of the United Arab Emirates","theme":"kamu","lab":1},"geometry":{"type":"Point","coordinates":[-79.38304,43.67184]}},{"type":"Feature","properties":{"id":"ke-kamu-1","kind":"poi","name":"Passport Canada","theme":"kamu","lab":1},"geometry":{"type":"Point","coordinates":[-79.37778,43.65129]}},{"type":"Feature","properties":{"id":"ke-kamu-2","kind":"poi","name":"North York Civic Centre","theme":"kamu","lab":1},"geometry":{"type":"Point","coordinates":[-79.41459,43.76726]}},{"type":"Feature","properties":{"id":"ke-kamu-3","kind":"poi","name":"Markham Civic Centre","theme":"kamu","lab":1},"geometry":{"type":"Point","coordinates":[-79.33696,43.85633]}},{"type":"Feature","properties":{"id":"ke-kamu-4","kind":"poi","name":"Legislative Assembly of Ontario","theme":"kamu","lab":1},"geometry":{"type":"Point","coordinates":[-79.39189,43.66307]}},{"type":"Feature","properties":{"id":"ke-kamu-5","kind":"poi","name":"Government of Ontario","theme":"kamu","lab":1},"geometry":{"type":"Point","coordinates":[-79.37558,43.65811]}},{"type":"Feature","properties":{"id":"ke-kamu-6","kind":"poi","name":"Etobicoke Civic Centre","theme":"kamu","lab":1},"geometry":{"type":"Point","coordinates":[-79.56529,43.64361]}},{"type":"Feature","properties":{"id":"ke-kamu-7","kind":"poi","name":"Canada Centre","theme":"kamu","lab":1},"geometry":{"type":"Point","coordinates":[-79.25656,43.77435]}},{"type":"Feature","properties":{"id":"ke-kamu-8","kind":"poi","name":"British Consulate","theme":"kamu","lab":1},"geometry":{"type":"Point","coordinates":[-79.38482,43.66072]}},{"type":"Feature","properties":{"id":"ke-kamu-9","kind":"poi","name":"Brampton City Hall","theme":"kamu","lab":1},"geometry":{"type":"Point","coordinates":[-79.75962,43.68497]}},{"type":"Feature","properties":{"id":"ke-kamu-10","kind":"poi","name":"Archives of Ontario","theme":"kamu","lab":1},"geometry":{"type":"Point","coordinates":[-79.50038,43.77506]}},{"type":"Feature","properties":{"id":"ke-kamu-11","kind":"poi","name":"A. Grenville and William Davis Courthouse","theme":"kamu","lab":1},"geometry":{"type":"Point","coordinates":[-79.72577,43.66139]}},{"type":"Feature","properties":{"id":"ke-kamu-12","kind":"poi","name":"Youth Justice Services","theme":"kamu","lab":1},"geometry":{"type":"Point","coordinates":[-79.57121,43.71882]}},{"type":"Feature","properties":{"id":"ke-kamu-13","kind":"poi","name":"Yorkgate Employment & Social Services","theme":"kamu","lab":1},"geometry":{"type":"Point","coordinates":[-79.51977,43.75788]}},{"type":"Feature","properties":{"id":"ke-kamu-14","kind":"poi","name":"Vaughan City Hall","theme":"kamu","lab":1},"geometry":{"type":"Point","coordinates":[-79.50759,43.85558]}},{"type":"Feature","properties":{"id":"ke-kamu-15","kind":"poi","name":"Vaughan - Joint Operations Centre","theme":"kamu","lab":1},"geometry":{"type":"Point","coordinates":[-79.52479,43.83351]}},{"type":"Feature","properties":{"id":"ke-kamu-16","kind":"poi","name":"Toronto Public Health Parkdale","theme":"kamu","lab":1},"geometry":{"type":"Point","coordinates":[-79.42302,43.64233]}},{"type":"Feature","properties":{"id":"ke-kamu-17","kind":"poi","name":"ServiceOntario","theme":"kamu","lab":1},"geometry":{"type":"Point","coordinates":[-79.23046,43.72583]}},{"type":"Feature","properties":{"id":"ke-kamu-18","kind":"poi","name":"Service Ontario","theme":"kamu","lab":1},"geometry":{"type":"Point","coordinates":[-79.22784,43.75779]}},{"type":"Feature","properties":{"id":"ke-kamu-19","kind":"poi","name":"Service Canada","theme":"kamu","lab":1},"geometry":{"type":"Point","coordinates":[-79.22139,43.80704]}},{"type":"Feature","properties":{"id":"ke-ikonik-0","kind":"poi","name":"CN Tower","theme":"modern","lab":1},"geometry":{"type":"Point","coordinates":[-79.38712,43.64257]}},{"type":"Feature","properties":{"id":"ke-ikonik-1","kind":"poi","name":"Rogers Centre","theme":"modern","lab":1},"geometry":{"type":"Point","coordinates":[-79.38923,43.64165]}},{"type":"Feature","properties":{"id":"ke-ikonik-2","kind":"poi","name":"Royal Ontario Museum","theme":"modern","lab":1},"geometry":{"type":"Point","coordinates":[-79.39469,43.66771]}},{"type":"Feature","properties":{"id":"ke-ikonik-3","kind":"poi","name":"Ontario Science Centre","theme":"modern","lab":1},"geometry":{"type":"Point","coordinates":[-79.34013,43.71483]}},{"type":"Feature","properties":{"id":"ke-ikonik-4","kind":"poi","name":"Hockey Hall of Fame","theme":"modern","lab":1},"geometry":{"type":"Point","coordinates":[-79.3773,43.64697]}},{"type":"Feature","properties":{"id":"ke-ikonik-5","kind":"poi","name":"Nathan Phillips Square","theme":"modern","lab":1},"geometry":{"type":"Point","coordinates":[-79.38385,43.65264]}},{"type":"Feature","properties":{"id":"ke-ikonik-6","kind":"poi","name":"Scotiabank Arena","theme":"modern","lab":1},"geometry":{"type":"Point","coordinates":[-79.3791,43.64343]}},{"type":"Feature","properties":{"id":"ke-ikonik-7","kind":"poi","name":"BMO Field","theme":"modern","lab":1},"geometry":{"type":"Point","coordinates":[-79.41853,43.6332]}},{"type":"Feature","properties":{"id":"ke-ikonik-8","kind":"poi","name":"Aga Khan Museum","theme":"modern","lab":1},"geometry":{"type":"Point","coordinates":[-79.332,43.72529]}},{"type":"Feature","properties":{"id":"ke-ikonik-9","kind":"poi","name":"Roy Thomson Hall","theme":"modern","lab":1},"geometry":{"type":"Point","coordinates":[-79.38637,43.64663]}},{"type":"Feature","properties":{"id":"ke-ikonik-10","kind":"poi","name":"Ontario Place","theme":"modern","lab":1},"geometry":{"type":"Point","coordinates":[-79.41566,43.62804]}},{"type":"Feature","properties":{"id":"ke-ikonik-11","kind":"poi","name":"Casa Loma","theme":"tarihi","lab":1},"geometry":{"type":"Point","coordinates":[-79.40938,43.6781]}},{"type":"Feature","properties":{"id":"ke-ikonik-12","kind":"poi","name":"Old City Hall","theme":"tarihi","lab":1},"geometry":{"type":"Point","coordinates":[-79.38177,43.65265]}},{"type":"Feature","properties":{"id":"ke-ikonik-13","kind":"poi","name":"St. Lawrence Market","theme":"gastronomi","lab":1},"geometry":{"type":"Point","coordinates":[-79.37156,43.64869]}},{"type":"Feature","properties":{"id":"ke-ikonik-14","kind":"poi","name":"Osgoode Hall","theme":"tarihi","lab":1},"geometry":{"type":"Point","coordinates":[-79.38554,43.6521]}},{"type":"Feature","properties":{"id":"ke-ikonik-15","kind":"poi","name":"Gooderham Building","theme":"tarihi","lab":1},"geometry":{"type":"Point","coordinates":[-79.37431,43.64837]}},{"type":"Feature","properties":{"id":"ke-ikonik-16","kind":"poi","name":"Spadina Museum","theme":"tarihi","lab":1},"geometry":{"type":"Point","coordinates":[-79.40811,43.67893]}},{"type":"Feature","properties":{"id":"ke-ikonik-17","kind":"poi","name":"Evergreen Brick Works","theme":"doga","lab":1},"geometry":{"type":"Point","coordinates":[-79.36675,43.68496]}},{"type":"Feature","properties":{"id":"ke-ikonik-18","kind":"poi","name":"Trinity Bellwoods Park","theme":"doga","lab":1},"geometry":{"type":"Point","coordinates":[-79.41482,43.64772]}},{"type":"Feature","properties":{"id":"ke-ikonik-19","kind":"poi","name":"Allan Gardens","theme":"doga","lab":1},"geometry":{"type":"Point","coordinates":[-79.3744,43.66193]}},{"type":"Feature","properties":{"id":"ke-ikonik-20","kind":"poi","name":"Toronto Islands","theme":"doga","lab":1},"geometry":{"type":"Point","coordinates":[-79.37718,43.62288]}},{"type":"Feature","properties":{"id":"ke-ikonik-21","kind":"poi","name":"Tommy Thompson Park","theme":"doga","lab":1},"geometry":{"type":"Point","coordinates":[-79.33255,43.63251]}},{"type":"Feature","properties":{"id":"ke-ikonik-22","kind":"poi","name":"Woodbine Beach","theme":"doga","lab":1},"geometry":{"type":"Point","coordinates":[-79.30683,43.66173]}},{"type":"Feature","properties":{"id":"ke-ikonik-23","kind":"poi","name":"Chinatown (Spadina)","theme":"gastronomi","lab":1},"geometry":{"type":"Point","coordinates":[-79.39803,43.65292]}}]}