{"type":"FeatureCollection","features":[{"type":"Feature","properties":{"id":"turistik-0","kind":"district","btype":"turistik","name":"Sol","lab":1},"geometry":{"type":"Polygon","coordinates":[[[-3.70344,40.41413],[-3.70824,40.41372],[-3.70803,40.41453],[-3.70882,40.41584],[-3.70815,40.42024],[-3.69968,40.41975],[-3.6993,40.418],[-3.70344,40.41413]]]}},{"type":"Feature","properties":{"id":"turistik-lab-0","kind":"district-label","btype":"turistik","name":"Sol"},"geometry":{"type":"Point","coordinates":[-3.70456,40.41692]}},{"type":"Feature","properties":{"id":"turistik-1","kind":"district","btype":"turistik","name":"Palacio","lab":1},"geometry":{"type":"Polygon","coordinates":[[[-3.72291,40.41403],[-3.72205,40.41846],[-3.72019,40.42025],[-3.71553,40.42039],[-3.71081,40.42339],[-3.7061,40.42032],[-3.70815,40.42024],[-3.70882,40.41584],[-3.70803,40.41453],[-3.70824,40.41372],[-3.70744,40.41361],[-3.70755,40.41271],[-3.71166,40.40669],[-3.71675,40.40879],[-3.71821,40.41104],[-3.71688,40.41391],[-3.72291,40.41403]]]}},{"type":"Feature","properties":{"id":"turistik-lab-1","kind":"district-label","btype":"turistik","name":"Palacio"},"geometry":{"type":"Point","coordinates":[-3.71556,40.41519]}},{"type":"Feature","properties":{"id":"turistik-2","kind":"district","btype":"turistik","name":"Cortes","lab":1},"geometry":{"type":"Polygon","coordinates":[[[-3.70344,40.41413],[-3.6993,40.418],[-3.69968,40.41975],[-3.6965,40.41891],[-3.69328,40.41951],[-3.69413,40.41568],[-3.69215,40.40906],[-3.70344,40.41413]]]}},{"type":"Feature","properties":{"id":"turistik-lab-2","kind":"district-label","btype":"turistik","name":"Cortes"},"geometry":{"type":"Point","coordinates":[-3.69825,40.41491]}},{"type":"Feature","properties":{"id":"turistik-3","kind":"district","btype":"turistik","name":"Universidad","lab":1},"geometry":{"type":"Polygon","coordinates":[[[-3.7161,40.43054],[-3.70234,40.42896],[-3.70069,40.42422],[-3.70168,40.42002],[-3.7061,40.42032],[-3.71097,40.4235],[-3.7161,40.43054]]]}},{"type":"Feature","properties":{"id":"turistik-lab-3","kind":"district-label","btype":"turistik","name":"Universidad"},"geometry":{"type":"Point","coordinates":[-3.70737,40.42659]}},{"type":"Feature","properties":{"id":"turistik-4","kind":"district","btype":"turistik","name":"Justicia","lab":1},"geometry":{"type":"Polygon","coordinates":[[[-3.70234,40.42896],[-3.69571,40.42759],[-3.69046,40.42477],[-3.69303,40.41928],[-3.6965,40.41891],[-3.70168,40.42002],[-3.70069,40.42422],[-3.70234,40.42896]]]}},{"type":"Feature","properties":{"id":"turistik-lab-4","kind":"district-label","btype":"turistik","name":"Justicia"},"geometry":{"type":"Point","coordinates":[-3.69644,40.42212]}},{"type":"Feature","properties":{"id":"turistik-5","kind":"district","btype":"turistik","name":"Embajadores","lab":1},"geometry":{"type":"Polygon","coordinates":[[[-3.71166,40.40669],[-3.70819,40.4115],[-3.70744,40.41361],[-3.70396,40.41429],[-3.69215,40.40906],[-3.69404,40.40738],[-3.70266,40.405],[-3.71166,40.40669]]]}},{"type":"Feature","properties":{"id":"turistik-lab-5","kind":"district-label","btype":"turistik","name":"Embajadores"},"geometry":{"type":"Point","coordinates":[-3.70199,40.41028]}},{"type":"Feature","properties":{"id":"turistik-6","kind":"district","btype":"turistik","name":"Recoletos","lab":1},"geometry":{"type":"Polygon","coordinates":[[[-3.69303,40.41928],[-3.69046,40.42477],[-3.68936,40.42938],[-3.67984,40.42892],[-3.68034,40.42292],[-3.67999,40.42166],[-3.69303,40.41928]]]}},{"type":"Feature","properties":{"id":"turistik-lab-6","kind":"district-label","btype":"turistik","name":"Recoletos"},"geometry":{"type":"Point","coordinates":[-3.68558,40.42385]}},{"type":"Feature","properties":{"id":"turistik-7","kind":"district","btype":"turistik","name":"Goya","lab":1},"geometry":{"type":"Polygon","coordinates":[[[-3.67999,40.42166],[-3.68034,40.42292],[-3.67984,40.42892],[-3.6687,40.42813],[-3.66898,40.42117],[-3.67999,40.42166]]]}},{"type":"Feature","properties":{"id":"turistik-lab-7","kind":"district-label","btype":"turistik","name":"Goya"},"geometry":{"type":"Point","coordinates":[-3.67446,40.42553]}},{"type":"Feature","properties":{"id":"turistik-8","kind":"district","btype":"turistik","name":"Almagro","lab":1},"geometry":{"type":"Polygon","coordinates":[[[-3.70024,40.43847],[-3.69068,40.43798],[-3.68873,40.43523],[-3.68844,40.43291],[-3.69066,40.42489],[-3.69587,40.42763],[-3.70024,40.43847]]]}},{"type":"Feature","properties":{"id":"turistik-lab-8","kind":"district-label","btype":"turistik","name":"Almagro"},"geometry":{"type":"Point","coordinates":[-3.69305,40.43027]}},{"type":"Feature","properties":{"id":"turistik-9","kind":"district","btype":"turistik","name":"Trafalgar","lab":1},"geometry":{"type":"Polygon","coordinates":[[[-3.70581,40.42954],[-3.70439,40.43377],[-3.70421,40.43867],[-3.70024,40.43847],[-3.69587,40.42763],[-3.70581,40.42954]]]}},{"type":"Feature","properties":{"id":"turistik-lab-9","kind":"district-label","btype":"turistik","name":"Trafalgar"},"geometry":{"type":"Point","coordinates":[-3.7013,40.43166]}}]}