{"type":"FeatureCollection","features":[{"type":"Feature","properties":{"id":"egitim-0-0","kind":"district","btype":"egitim","name":"Ege Ü.","lab":1},"geometry":{"type":"Polygon","coordinates":[[[27.10695,38.47297],[27.10622,38.47342],[27.10662,38.47408],[27.10743,38.47352],[27.10695,38.47297]]]}},{"type":"Feature","properties":{"id":"egitim-0-1","kind":"district","btype":"egitim","name":"Ege Ü.","lab":0},"geometry":{"type":"Polygon","coordinates":[[[27.1063,38.47432],[27.10648,38.47425],[27.1062,38.4738],[27.1063,38.47432]]]}},{"type":"Feature","properties":{"id":"egitim-0-2","kind":"district","btype":"egitim","name":"Ege Ü.","lab":0},"geometry":{"type":"Polygon","coordinates":[[[27.16724,38.30193],[27.16735,38.30138],[27.16568,38.30122],[27.16532,38.30156],[27.16724,38.30193]]]}},{"type":"Feature","properties":{"id":"egitim-0-3","kind":"district","btype":"egitim","name":"Ege Ü.","lab":0},"geometry":{"type":"Polygon","coordinates":[[[27.21027,38.45214],[27.21034,38.45124],[27.20758,38.45091],[27.20647,38.45392],[27.20655,38.45601],[27.2108,38.45798],[27.21611,38.4583],[27.21551,38.45625],[27.21659,38.45561],[27.21698,38.45455],[27.21666,38.45386],[27.21728,38.45356],[27.21799,38.45079],[27.21727,38.44999],[27.21508,38.44945],[27.21423,38.453],[27.21027,38.45214]]]}},{"type":"Feature","properties":{"id":"egitim-0-4","kind":"district","btype":"egitim","name":"Ege Ü.","lab":0},"geometry":{"type":"Polygon","coordinates":[[[27.22309,38.45962],[27.22678,38.46134],[27.2273,38.46084],[27.22746,38.45919],[27.22771,38.45997],[27.2285,38.45994],[27.22802,38.45945],[27.22881,38.45953],[27.22837,38.45898],[27.22895,38.45906],[27.22942,38.46007],[27.22771,38.46004],[27.22762,38.46072],[27.22843,38.46082],[27.2284,38.46147],[27.22954,38.46128],[27.22931,38.46018],[27.23006,38.46018],[27.23024,38.46116],[27.24117,38.4592],[27.2396,38.45639],[27.23945,38.45226],[27.23625,38.45204],[27.23628,38.45114],[27.23115,38.45134],[27.22784,38.45001],[27.22241,38.4505],[27.21833,38.45029],[27.2169,38.45557],[27.21583,38.45652],[27.21693,38.45884],[27.22309,38.45962]]]}},{"type":"Feature","properties":{"id":"egitim-0-5","kind":"district","btype":"egitim","name":"Ege Ü.","lab":0},"geometry":{"type":"Polygon","coordinates":[[[27.21957,38.46255],[27.22208,38.4628],[27.2237,38.46256],[27.22362,38.46211],[27.22299,38.46211],[27.22316,38.46106],[27.22398,38.46103],[27.22197,38.45986],[27.21759,38.45938],[27.21721,38.46116],[27.21957,38.46255]]]}},{"type":"Feature","properties":{"id":"egitim-0-lbl","kind":"district-label","btype":"egitim","name":"Ege Ü."},"geometry":{"type":"Point","coordinates":[27.22801,38.45598]}},{"type":"Feature","properties":{"id":"egitim-1-0","kind":"district","btype":"egitim","name":"Dokuz Eylül Ü. Tınaztepe","lab":1},"geometry":{"type":"Polygon","coordinates":[[[27.21203,38.37319],[27.21312,38.37274],[27.21657,38.37237],[27.21838,38.37135],[27.21805,38.36893],[27.21926,38.36871],[27.21847,38.36829],[27.21863,38.36718],[27.20878,38.36495],[27.20031,38.36549],[27.19784,38.36753],[27.19903,38.36847],[27.198,38.36954],[27.1987,38.37015],[27.19598,38.37167],[27.19572,38.37227],[27.19487,38.37213],[27.19691,38.37297],[27.19573,38.37473],[27.19537,38.37518],[27.1931,38.37443],[27.19243,38.37541],[27.19359,38.37572],[27.19311,38.37638],[27.19455,38.37618],[27.19487,38.37677],[27.19905,38.37537],[27.20103,38.37411],[27.20712,38.37409],[27.2086,38.37463],[27.21172,38.37407],[27.21203,38.37319]]]}},{"type":"Feature","properties":{"id":"egitim-1-lbl","kind":"district-label","btype":"egitim","name":"Dokuz Eylül Ü. Tınaztepe"},"geometry":{"type":"Point","coordinates":[27.20796,38.37075]}},{"type":"Feature","properties":{"id":"egitim-2-0","kind":"district","btype":"egitim","name":"Dokuz Eylül Ü. İktisadi ve İdari Bilimler","lab":1},"geometry":{"type":"Polygon","coordinates":[[[27.18184,38.38336],[27.1795,38.38543],[27.18059,38.38673],[27.18369,38.38539],[27.18184,38.38336]]]}},{"type":"Feature","properties":{"id":"egitim-2-lbl","kind":"district-label","btype":"egitim","name":"Dokuz Eylül Ü. İktisadi ve İdari Bilimler"},"geometry":{"type":"Point","coordinates":[27.18173,38.38438]}},{"type":"Feature","properties":{"id":"egitim-3-0","kind":"district","btype":"egitim","name":"Dokuz Eylül Ü. Turizm ve Uygulamalı Bilimler","lab":1},"geometry":{"type":"Polygon","coordinates":[[[27.22466,38.38243],[27.22385,38.38061],[27.22417,38.37954],[27.22378,38.37948],[27.22228,38.38147],[27.22156,38.38179],[27.22099,38.38145],[27.2205,38.38242],[27.22255,38.38303],[27.22466,38.38243]]]}},{"type":"Feature","properties":{"id":"egitim-3-lbl","kind":"district-label","btype":"egitim","name":"Dokuz Eylül Ü. Turizm ve Uygulamalı Bilimler"},"geometry":{"type":"Point","coordinates":[27.22332,38.38103]}},{"type":"Feature","properties":{"id":"egitim-4-0","kind":"district","btype":"egitim","name":"İzmir Ekonomi Ü.","lab":1},"geometry":{"type":"Polygon","coordinates":[[[27.04482,38.38965],[27.04564,38.38936],[27.0457,38.38767],[27.04353,38.38772],[27.04334,38.38928],[27.04482,38.38965]]]}},{"type":"Feature","properties":{"id":"egitim-4-lbl","kind":"district-label","btype":"egitim","name":"İzmir Ekonomi Ü."},"geometry":{"type":"Point","coordinates":[27.04455,38.3885]}},{"type":"Feature","properties":{"id":"egitim-5-0","kind":"district","btype":"egitim","name":"Dokuz Eylül Ü. İlahiyat","lab":1},"geometry":{"type":"Polygon","coordinates":[[[27.09871,38.39439],[27.0973,38.39401],[27.09568,38.3955],[27.09687,38.39609],[27.09753,38.3959],[27.09779,38.39503],[27.09865,38.39502],[27.09871,38.39439]]]}},{"type":"Feature","properties":{"id":"egitim-5-lbl","kind":"district-label","btype":"egitim","name":"Dokuz Eylül Ü. İlahiyat"},"geometry":{"type":"Point","coordinates":[27.09683,38.39527]}},{"type":"Feature","properties":{"id":"egitim-6-0","kind":"district","btype":"egitim","name":"Yaşar Ü.","lab":1},"geometry":{"type":"Polygon","coordinates":[[[27.20243,38.45339],[27.20141,38.45471],[27.20263,38.45546],[27.2037,38.45391],[27.20243,38.45339]]]}},{"type":"Feature","properties":{"id":"egitim-6-lbl","kind":"district-label","btype":"egitim","name":"Yaşar Ü."},"geometry":{"type":"Point","coordinates":[27.20257,38.45431]}}]}