{"type":"FeatureCollection","features":[{"type":"Feature","properties":{"id":"link-adb","kind":"link","subKey":"arr.adb.sub","real":true},"geometry":{"type":"LineString","coordinates":[[27.14787,38.2913],[27.14762,38.29157],[27.14735,38.29301],[27.14649,38.29609],[27.14639,38.29659],[27.14627,38.29783],[27.14632,38.29857],[27.14701,38.30274],[27.14704,38.30347],[27.14699,38.30414],[27.14682,38.30498],[27.14478,38.31155],[27.14218,38.31941],[27.13958,38.32726],[27.13511,38.341],[27.13472,38.34255],[27.13432,38.34526],[27.13423,38.3467],[27.13426,38.348],[27.13435,38.34915],[27.13481,38.35192],[27.13534,38.35384],[27.13569,38.35481],[27.13661,38.35701],[27.13725,38.35862],[27.14051,38.3665],[27.14378,38.37439],[27.14704,38.38227],[27.1475,38.38364],[27.14765,38.38435],[27.14781,38.38536],[27.14787,38.38622],[27.14782,38.3877],[27.14738,38.39071],[27.14714,38.39194],[27.14516,38.40419],[27.14515,38.40496],[27.14519,38.40527],[27.14534,38.40578],[27.1458,38.40651],[27.14623,38.40693],[27.1471,38.40745],[27.14759,38.40764],[27.14822,38.40781],[27.14856,38.40786],[27.14931,38.40788],[27.15133,38.40759],[27.15233,38.40755],[27.15318,38.40761],[27.15405,38.40773],[27.15465,38.40793],[27.15553,38.40845],[27.15679,38.40939],[27.15736,38.40992],[27.15817,38.4109],[27.15842,38.41134],[27.15884,38.41266],[27.15896,38.41336],[27.15901,38.41408],[27.15897,38.41472],[27.15875,38.41591],[27.15854,38.41645],[27.1557,38.42286],[27.15521,38.42388],[27.15504,38.42412],[27.15124,38.43247],[27.1502,38.43458],[27.14978,38.43576],[27.15199,38.43102],[27.15306,38.42867],[27.15343,38.42809],[27.15378,38.42778],[27.15433,38.42753],[27.15485,38.42741],[27.15537,38.42738],[27.15596,38.42747],[27.15653,38.42768],[27.15718,38.42801],[27.16392,38.43209],[27.16546,38.43312],[27.16726,38.43422],[27.16939,38.43537],[27.17037,38.43598],[27.17192,38.43414]]}},{"type":"Feature","properties":{"id":"link-basmane","kind":"link","subKey":"arr.basmane.sub","real":true},"geometry":{"type":"LineString","coordinates":[[27.1439,38.42245],[27.14386,38.42272],[27.14267,38.42259],[27.13355,38.4225],[27.13234,38.42235],[27.13135,38.42204],[27.13099,38.42186],[27.13051,38.42144],[27.13016,38.42094],[27.12866,38.4184],[27.1281,38.4173],[27.12513,38.41878]]}},{"type":"Feature","properties":{"id":"link-alsancakgar","kind":"link","subKey":"arr.alsancakgar.sub","real":true},"geometry":{"type":"LineString","coordinates":[[27.14812,38.43863],[27.14876,38.4386],[27.14944,38.43716],[27.14973,38.4359],[27.15012,38.43476],[27.15124,38.43247],[27.15316,38.42823],[27.16885,38.43522]]}},{"type":"Feature","properties":{"id":"gate-adb","kind":"gate","name":"Adnan Menderes Havalimanı","mode":"plane","subKey":"arr.adb.sub","lab":1,"gtype":"air"},"geometry":{"type":"Point","coordinates":[27.14787,38.2913]}},{"type":"Feature","properties":{"id":"gate-basmane","kind":"gate","name":"Basmane Garı","mode":"train","subKey":"arr.basmane.sub","lab":1,"gtype":"rail"},"geometry":{"type":"Point","coordinates":[27.1439,38.42245]}},{"type":"Feature","properties":{"id":"gate-alsancakgar","kind":"gate","name":"Alsancak Garı","mode":"train","subKey":"arr.alsancakgar.sub","lab":1,"gtype":"rail"},"geometry":{"type":"Point","coordinates":[27.14812,38.43863]}},{"type":"Feature","properties":{"id":"gate-otogar","kind":"gate","name":"İzmir Otogarı","mode":"bus","subKey":"arr.otogar.sub","lab":1},"geometry":{"type":"Point","coordinates":[27.21411,38.43078]}}]}