{"type":"FeatureCollection","features":[{"type":"Feature","properties":{"id":"turistik-0","kind":"district","btype":"turistik","name":"Centro Histórico","lab":1},"geometry":{"type":"MultiPolygon","coordinates":[[[[-99.12237,19.44221],[-99.12123,19.441],[-99.12116,19.43244],[-99.11893,19.4322],[-99.12044,19.42223],[-99.13273,19.42375],[-99.13337,19.42372],[-99.13359,19.42224],[-99.13571,19.42256],[-99.14314,19.4222],[-99.14208,19.42659],[-99.14254,19.42679],[-99.14829,19.4273],[-99.15373,19.42584],[-99.15146,19.43097],[-99.14985,19.43519],[-99.15033,19.43513],[-99.15431,19.43331],[-99.15463,19.43292],[-99.15523,19.43288],[-99.15966,19.43093],[-99.15567,19.4398],[-99.1533,19.43882],[-99.14917,19.43789],[-99.14577,19.45245],[-99.14064,19.45095],[-99.13475,19.44821],[-99.13935,19.44401],[-99.13079,19.44322],[-99.13088,19.44231],[-99.12316,19.44155],[-99.12313,19.44265],[-99.12237,19.44221]]]]}},{"type":"Feature","properties":{"id":"turistik-lab-0","kind":"district-label","btype":"turistik","name":"Centro Histórico"},"geometry":{"type":"Point","coordinates":[-99.13705,19.43474]}},{"type":"Feature","properties":{"id":"turistik-1","kind":"district","btype":"turistik","name":"Roma · Condesa","lab":1},"geometry":{"type":"MultiPolygon","coordinates":[[[[-99.15373,19.42584],[-99.1554,19.40406],[-99.15669,19.40402],[-99.15803,19.40369],[-99.16329,19.40207],[-99.16754,19.40048],[-99.17044,19.39979],[-99.17037,19.40023],[-99.17119,19.40349],[-99.18437,19.40778],[-99.17681,19.42062],[-99.16357,19.42353],[-99.16334,19.4232],[-99.16283,19.4231],[-99.1624,19.42344],[-99.1624,19.4239],[-99.15373,19.42584]]]]}},{"type":"Feature","properties":{"id":"turistik-lab-1","kind":"district-label","btype":"turistik","name":"Roma · Condesa"},"geometry":{"type":"Point","coordinates":[-99.16681,19.41285]}},{"type":"Feature","properties":{"id":"turistik-2","kind":"district","btype":"turistik","name":"Polanco","lab":1},"geometry":{"type":"MultiPolygon","coordinates":[[[[-99.21411,19.43885],[-99.18485,19.43765],[-99.18352,19.43741],[-99.17997,19.42843],[-99.18051,19.42807],[-99.18107,19.42807],[-99.18188,19.4291],[-99.18264,19.42971],[-99.19178,19.42572],[-99.20047,19.42704],[-99.20031,19.42743],[-99.20098,19.42836],[-99.20281,19.42872],[-99.20314,19.42793],[-99.20739,19.43113],[-99.20816,19.43142],[-99.20884,19.43142],[-99.2099,19.43337],[-99.21254,19.43578],[-99.21411,19.43885]]]]}},{"type":"Feature","properties":{"id":"turistik-lab-2","kind":"district-label","btype":"turistik","name":"Polanco"},"geometry":{"type":"Point","coordinates":[-99.19617,19.43301]}},{"type":"Feature","properties":{"id":"turistik-3","kind":"district","btype":"turistik","name":"San Ángel","lab":1},"geometry":{"type":"MultiPolygon","coordinates":[[[[-99.18647,19.35033],[-99.18925,19.34264],[-99.19075,19.34227],[-99.19179,19.34239],[-99.19189,19.3417],[-99.19388,19.34152],[-99.19485,19.34201],[-99.1978,19.34168],[-99.19801,19.34299],[-99.19843,19.34302],[-99.19924,19.34246],[-99.19934,19.34401],[-99.20067,19.34428],[-99.20138,19.34513],[-99.20237,19.34517],[-99.20198,19.34706],[-99.20009,19.34647],[-99.19531,19.34568],[-99.1937,19.35149],[-99.19044,19.3512],[-99.19049,19.35069],[-99.18647,19.35033]]]]}},{"type":"Feature","properties":{"id":"turistik-lab-3","kind":"district-label","btype":"turistik","name":"San Ángel"},"geometry":{"type":"Point","coordinates":[-99.19321,19.34608]}}]}