{"type":"FeatureCollection","features":[{"type":"Feature","properties":{"id":"dogal-0","kind":"district","btype":"dogal","name":"Área de Protección de Recursos Naturales Lago de Texcoco","lab":1},"geometry":{"type":"MultiPolygon","coordinates":[[[[-98.97503,19.58434],[-98.9711,19.58395],[-98.97118,19.58335],[-98.96746,19.58294],[-98.96777,19.58048],[-98.94812,19.57923],[-98.94894,19.57668],[-98.94725,19.57659],[-98.9475,19.57586],[-98.94433,19.57486],[-98.94255,19.57478],[-98.94124,19.57518],[-98.94137,19.57424],[-98.94234,19.57314],[-98.94267,19.572],[-98.93728,19.57069],[-98.93601,19.56996],[-98.93532,19.57143],[-98.93286,19.57015],[-98.93236,19.573],[-98.92881,19.57066],[-98.92815,19.57147],[-98.92632,19.5701],[-98.93364,19.55844],[-98.93381,19.55727],[-98.9296,19.5573],[-98.92948,19.55862],[-98.92654,19.55865],[-98.92714,19.55203],[-98.92991,19.55215],[-98.93023,19.54857],[-98.93077,19.54861],[-98.93101,19.54676],[-98.93426,19.54068],[-98.9348,19.53253],[-98.93647,19.53269],[-98.93684,19.5302],[-98.93849,19.5306],[-98.94096,19.52638],[-98.93512,19.52489],[-98.92941,19.52453],[-98.93142,19.51793],[-98.93014,19.51823],[-98.93024,19.51402],[-98.93084,19.51386],[-98.9305,19.51224],[-98.92424,19.51448],[-98.92393,19.50573],[-98.92507,19.50507],[-98.9252,19.50454],[-98.9242,19.50432],[-98.92524,19.50026],[-98.93016,19.49862],[-98.92972,19.49734],[-98.93315,19.49616],[-98.93272,19.49474],[-98.93145,19.49517],[-98.93192,19.49353],[-98.92936,19.49453],[-98.92917,19.4958],[-98.92594,19.49705],[-98.9288,19.48231],[-98.91608,19.48103],[-98.91606,19.47992],[-98.91483,19.47984],[-98.91477,19.47729],[-98.91664,19.47746],[-98.91663,19.47814],[-98.91961,19.47828],[-98.91962,19.47771],[-98.92234,19.47795],[-98.92241,19.47289],[-98.92016,19.4709],[-98.91807,19.47095],[-98.91817,19.46913],[-98.91653,19.46913],[-98.91646,19.46717],[-98.92694,19.46557],[-98.92324,19.4645],[-98.92398,19.46155],[-98.92192,19.46098],[-98.92254,19.45798],[-98.92474,19.45848],[-98.92542,19.45399],[-98.93919,19.46209],[-98.93207,19.45193],[-98.95214,19.45079],[-98.96316,19.452],[-98.96516,19.45177],[-98.97474,19.44828],[-98.97601,19.44744],[-98.97842,19.4441],[-98.97954,19.43856],[-98.98104,19.43602],[-98.9933,19.42882],[-98.99801,19.43995],[-98.99929,19.43611],[-98.99915,19.43053],[-99.00077,19.42874],[-99.00406,19.42167],[-99.02726,19.43378],[-99.04292,19.43829],[-99.04438,19.43937],[-99.04587,19.44126],[-99.04395,19.44344],[-99.02983,19.45398],[-99.02129,19.44027],[-99.00297,19.45074],[-99.0141,19.4787],[-99.02056,19.47818],[-99.01619,19.46681],[-99.02608,19.46341],[-99.03164,19.47641],[-99.02235,19.47956],[-99.01456,19.48038],[-99.01402,19.49797],[-99.01323,19.55825],[-99.01348,19.55857],[-99.01323,19.56432],[-99.01091,19.5656],[-99.01195,19.56787],[-99.01237,19.57005],[-99.01165,19.57423],[-99.01422,19.57749],[-99.01501,19.57767],[-99.01233,19.58078],[-99.00895,19.58304],[-99.00449,19.58442],[-99.00032,19.58458],[-98.99525,19.58319],[-98.99254,19.5817],[-98.98879,19.57795],[-98.98707,19.57475],[-98.98281,19.57495],[-98.98105,19.57833],[-98.97964,19.57825],[-98.97895,19.58369],[-98.97514,19.58352],[-98.97503,19.58434]]]]}},{"type":"Feature","properties":{"id":"dogal-lab-0","kind":"district-label","btype":"dogal","name":"Área de Protección de Recursos Naturales Lago de Texcoco"},"geometry":{"type":"Point","coordinates":[-98.97508,19.50725]}},{"type":"Feature","properties":{"id":"dogal-1","kind":"district","btype":"dogal","name":"Ejidos de Xochimilco y San Gregorio Atlapulco","lab":1},"geometry":{"type":"MultiPolygon","coordinates":[[[[-99.06415,19.28165],[-99.05706,19.27927],[-99.05417,19.27895],[-99.04796,19.27566],[-99.04148,19.27362],[-99.03868,19.27205],[-99.03681,19.27154],[-99.03367,19.26756],[-99.03072,19.26459],[-99.0303,19.26295],[-99.02952,19.26245],[-99.03039,19.25983],[-99.0307,19.25977],[-99.03042,19.26057],[-99.03078,19.26073],[-99.03273,19.25999],[-99.03233,19.26034],[-99.0319,19.26371],[-99.03248,19.26381],[-99.03259,19.26332],[-99.03301,19.26337],[-99.03265,19.26519],[-99.0339,19.26548],[-99.03484,19.26529],[-99.0366,19.26377],[-99.0367,19.26164],[-99.03694,19.26119],[-99.03775,19.26115],[-99.03875,19.25947],[-99.03947,19.25958],[-99.0397,19.25917],[-99.03941,19.26072],[-99.03971,19.26076],[-99.03992,19.2593],[-99.04142,19.25957],[-99.0419,19.25848],[-99.04253,19.25857],[-99.0425,19.25887],[-99.04306,19.25838],[-99.04465,19.25886],[-99.045,19.25625],[-99.04732,19.25612],[-99.04736,19.25707],[-99.04753,19.25607],[-99.04811,19.25553],[-99.05098,19.25624],[-99.0518,19.25577],[-99.05344,19.25641],[-99.05466,19.25615],[-99.05588,19.25657],[-99.05702,19.2562],[-99.0596,19.25674],[-99.05956,19.25827],[-99.06049,19.25876],[-99.06073,19.25811],[-99.06078,19.25884],[-99.06084,19.25855],[-99.06221,19.25886],[-99.06249,19.25795],[-99.06443,19.25836],[-99.06454,19.25806],[-99.0678,19.25967],[-99.07152,19.25951],[-99.07453,19.26051],[-99.07572,19.25702],[-99.07929,19.25776],[-99.07813,19.26108],[-99.09314,19.26492],[-99.09205,19.26894],[-99.0932,19.26952],[-99.09494,19.26913],[-99.09625,19.26639],[-99.09836,19.26698],[-99.09801,19.26894],[-99.09922,19.26916],[-99.09893,19.26997],[-99.09917,19.27024],[-99.10026,19.27029],[-99.10039,19.27219],[-99.10255,19.2726],[-99.10258,19.27413],[-99.10374,19.27298],[-99.10678,19.26814],[-99.10785,19.26848],[-99.10812,19.2678],[-99.1091,19.26938],[-99.10903,19.27131],[-99.11167,19.2724],[-99.11097,19.27419],[-99.11383,19.27547],[-99.1147,19.27324],[-99.11935,19.27473],[-99.10559,19.28241],[-99.10557,19.28175],[-99.10501,19.28119],[-99.10584,19.27186],[-99.10485,19.27187],[-99.10256,19.2749],[-99.1029,19.2791],[-99.10235,19.28519],[-99.10279,19.2849],[-99.10205,19.28632],[-99.10185,19.29405],[-99.10115,19.29432],[-99.10034,19.30136],[-99.09903,19.31953],[-99.0946,19.31324],[-99.07508,19.28962],[-99.06809,19.28402],[-99.06415,19.28165]]]]}},{"type":"Feature","properties":{"id":"dogal-lab-1","kind":"district-label","btype":"dogal","name":"Ejidos de Xochimilco y San Gregorio Atlapulco"},"geometry":{"type":"Point","coordinates":[-99.07669,19.27779]}},{"type":"Feature","properties":{"id":"dogal-2","kind":"district","btype":"dogal","name":"Reserva Ecológica Comunitaria San Nicolás Totolapan","lab":1},"geometry":{"type":"MultiPolygon","coordinates":[[[[-99.27592,19.25912],[-99.27426,19.26646],[-99.26138,19.28418],[-99.26179,19.28724],[-99.25944,19.28827],[-99.25546,19.28666],[-99.25196,19.28926],[-99.25017,19.28915],[-99.24931,19.28986],[-99.24827,19.28923],[-99.24816,19.2901],[-99.24776,19.29001],[-99.24729,19.2905],[-99.24719,19.28938],[-99.24619,19.28779],[-99.24594,19.28804],[-99.24388,19.28726],[-99.24419,19.28647],[-99.24256,19.28594],[-99.24324,19.28542],[-99.24416,19.28523],[-99.24438,19.28552],[-99.24483,19.28451],[-99.24432,19.28399],[-99.2455,19.28393],[-99.24605,19.28319],[-99.24621,19.28351],[-99.24726,19.28314],[-99.24801,19.28357],[-99.2469,19.28287],[-99.24699,19.28215],[-99.24568,19.28252],[-99.24561,19.28186],[-99.24551,19.28257],[-99.24482,19.28272],[-99.24372,19.28134],[-99.24559,19.27937],[-99.24525,19.27839],[-99.24601,19.27762],[-99.2457,19.27638],[-99.24646,19.27566],[-99.2464,19.27467],[-99.24771,19.27359],[-99.24848,19.27349],[-99.24781,19.2733],[-99.24843,19.27207],[-99.24863,19.27274],[-99.24862,19.27231],[-99.24956,19.27164],[-99.24929,19.27116],[-99.25044,19.27142],[-99.25164,19.27095],[-99.252,19.27039],[-99.25158,19.27014],[-99.25113,19.2705],[-99.25172,19.26998],[-99.25103,19.27003],[-99.25119,19.26967],[-99.2502,19.27055],[-99.25052,19.27022],[-99.25006,19.26997],[-99.25029,19.26942],[-99.24872,19.26975],[-99.24697,19.26944],[-99.24731,19.26844],[-99.24644,19.26817],[-99.24604,19.26668],[-99.24506,19.26704],[-99.2436,19.26692],[-99.24188,19.26578],[-99.24168,19.265],[-99.2411,19.26519],[-99.24039,19.26445],[-99.24035,19.26366],[-99.23941,19.26273],[-99.24004,19.26066],[-99.24315,19.25759],[-99.24239,19.25701],[-99.24288,19.25661],[-99.24061,19.25347],[-99.23845,19.25125],[-99.23671,19.24774],[-99.23787,19.24734],[-99.23801,19.24783],[-99.23911,19.2475],[-99.23894,19.24709],[-99.24161,19.2462],[-99.24135,19.24552],[-99.24386,19.24468],[-99.24885,19.2412],[-99.25285,19.24054],[-99.25382,19.24004],[-99.25477,19.24078],[-99.25578,19.24078],[-99.2641,19.23398],[-99.26707,19.2334],[-99.26851,19.23214],[-99.26922,19.23043],[-99.26632,19.22754],[-99.27376,19.22321],[-99.29368,19.23163],[-99.29307,19.23348],[-99.28669,19.23984],[-99.28481,19.24008],[-99.27845,19.23766],[-99.27729,19.238],[-99.27547,19.23989],[-99.27488,19.24233],[-99.27587,19.24289],[-99.27695,19.24449],[-99.27672,19.24647],[-99.27817,19.24768],[-99.27867,19.25186],[-99.27592,19.25912]]]]}},{"type":"Feature","properties":{"id":"dogal-lab-2","kind":"district-label","btype":"dogal","name":"Reserva Ecológica Comunitaria San Nicolás Totolapan"},"geometry":{"type":"Point","coordinates":[-99.26195,19.25539]}},{"type":"Feature","properties":{"id":"dogal-3","kind":"district","btype":"dogal","name":"Parque Nacional Desierto de los Leones","lab":1},"geometry":{"type":"MultiPolygon","coordinates":[[[[-99.29834,19.31168],[-99.29821,19.3099],[-99.2974,19.30899],[-99.29811,19.30459],[-99.2977,19.30327],[-99.29823,19.30153],[-99.29887,19.30151],[-99.3011,19.29731],[-99.30232,19.29582],[-99.30281,19.29402],[-99.30358,19.29315],[-99.3056,19.29259],[-99.30635,19.29124],[-99.30645,19.2887],[-99.30149,19.286],[-99.30097,19.28438],[-99.30393,19.27226],[-99.30375,19.26922],[-99.30635,19.26694],[-99.31478,19.26397],[-99.32225,19.2676],[-99.32358,19.27428],[-99.32373,19.27728],[-99.32528,19.28131],[-99.32599,19.28186],[-99.32745,19.28485],[-99.32921,19.2868],[-99.32967,19.29115],[-99.327,19.29617],[-99.32488,19.30525],[-99.32419,19.30625],[-99.32418,19.30782],[-99.32145,19.31134],[-99.31973,19.3122],[-99.31893,19.31469],[-99.31685,19.31768],[-99.31546,19.32133],[-99.30132,19.32805],[-99.29955,19.31884],[-99.3002,19.3172],[-99.29961,19.31661],[-99.2996,19.31499],[-99.29834,19.31168]]]]}},{"type":"Feature","properties":{"id":"dogal-lab-3","kind":"district-label","btype":"dogal","name":"Parque Nacional Desierto de los Leones"},"geometry":{"type":"Point","coordinates":[-99.31265,19.29495]}},{"type":"Feature","properties":{"id":"dogal-4","kind":"district","btype":"dogal","name":"Centro Histórico Perímetro B","lab":1},"geometry":{"type":"MultiPolygon","coordinates":[[[[-99.14866,19.44637],[-99.13825,19.44453],[-99.1307,19.44397],[-99.13047,19.4462],[-99.12658,19.44585],[-99.12664,19.44517],[-99.12443,19.44493],[-99.12369,19.44363],[-99.12125,19.44344],[-99.12123,19.441],[-99.12043,19.44012],[-99.11024,19.43916],[-99.11107,19.43408],[-99.11032,19.43358],[-99.11333,19.4322],[-99.11517,19.43195],[-99.11701,19.41882],[-99.12092,19.41883],[-99.12072,19.42025],[-99.12151,19.41993],[-99.12404,19.4203],[-99.12388,19.42132],[-99.12737,19.42189],[-99.12753,19.42129],[-99.12802,19.42121],[-99.1314,19.4213],[-99.13153,19.42033],[-99.13241,19.42045],[-99.13251,19.41919],[-99.13403,19.41937],[-99.13384,19.42059],[-99.15393,19.42256],[-99.15562,19.42222],[-99.15644,19.42523],[-99.15546,19.42545],[-99.15205,19.43355],[-99.1534,19.43373],[-99.15117,19.43475],[-99.14866,19.44637]]]]}},{"type":"Feature","properties":{"id":"dogal-lab-4","kind":"district-label","btype":"dogal","name":"Centro Histórico Perímetro B"},"geometry":{"type":"Point","coordinates":[-99.13358,19.43242]}},{"type":"Feature","properties":{"id":"dogal-5","kind":"district","btype":"dogal","name":"Parque Ecológico de la Ciudad de México","lab":1},"geometry":{"type":"MultiPolygon","coordinates":[[[[-99.19517,19.25072],[-99.19523,19.24974],[-99.19699,19.24845],[-99.19606,19.24791],[-99.19567,19.24499],[-99.19699,19.24507],[-99.19875,19.24617],[-99.19964,19.24596],[-99.20158,19.24692],[-99.20268,19.24654],[-99.20407,19.24749],[-99.20813,19.24885],[-99.20856,19.25023],[-99.21019,19.25089],[-99.21135,19.25201],[-99.21368,19.25225],[-99.21684,19.25361],[-99.21535,19.25565],[-99.2151,19.25654],[-99.21603,19.25511],[-99.22272,19.25354],[-99.22298,19.25212],[-99.22389,19.25205],[-99.22381,19.25388],[-99.22138,19.26528],[-99.22054,19.26509],[-99.21435,19.26588],[-99.21262,19.26436],[-99.21207,19.26264],[-99.21073,19.26112],[-99.21147,19.26054],[-99.20981,19.26146],[-99.20937,19.2611],[-99.2044,19.2637],[-99.2022,19.26519],[-99.20101,19.26655],[-99.19983,19.26669],[-99.20348,19.26733],[-99.20367,19.2669],[-99.20468,19.2673],[-99.20544,19.26916],[-99.20458,19.26965],[-99.20107,19.26891],[-99.19861,19.2672],[-99.19883,19.26691],[-99.19669,19.26601],[-99.19215,19.26982],[-99.18987,19.27027],[-99.18764,19.27026],[-99.1876,19.26936],[-99.17706,19.26826],[-99.17716,19.26745],[-99.17815,19.26602],[-99.17618,19.26554],[-99.1769,19.26425],[-99.18439,19.26498],[-99.18443,19.26441],[-99.18115,19.26298],[-99.18129,19.26256],[-99.1796,19.26184],[-99.18014,19.26119],[-99.17877,19.26061],[-99.17982,19.2581],[-99.17958,19.25783],[-99.18091,19.25809],[-99.18126,19.25737],[-99.18208,19.25813],[-99.18282,19.25795],[-99.18391,19.25874],[-99.1849,19.2552],[-99.18404,19.25513],[-99.18397,19.2536],[-99.18644,19.25189],[-99.18946,19.25184],[-99.19154,19.25277],[-99.19242,19.25226],[-99.19328,19.25252],[-99.19419,19.25031],[-99.19517,19.25072]]]]}},{"type":"Feature","properties":{"id":"dogal-lab-5","kind":"district-label","btype":"dogal","name":"Parque Ecológico de la Ciudad de México"},"geometry":{"type":"Point","coordinates":[-99.19991,19.25886]}},{"type":"Feature","properties":{"id":"dogal-6","kind":"district","btype":"dogal","name":"Parque Nacional La Marquesa","lab":1},"geometry":{"type":"MultiPolygon","coordinates":[[[[-99.35088,19.29698],[-99.34706,19.29039],[-99.32705,19.25588],[-99.33904,19.26126],[-99.33763,19.26404],[-99.33916,19.2677],[-99.34094,19.2678],[-99.34469,19.26948],[-99.34585,19.27081],[-99.3463,19.27202],[-99.34821,19.27396],[-99.36192,19.27574],[-99.36492,19.27777],[-99.35358,19.29193],[-99.35454,19.29329],[-99.35149,19.29415],[-99.35125,19.29497],[-99.35292,19.29605],[-99.3535,19.2974],[-99.35088,19.29698]]]]}},{"type":"Feature","properties":{"id":"dogal-lab-6","kind":"district-label","btype":"dogal","name":"Parque Nacional La Marquesa"},"geometry":{"type":"Point","coordinates":[-99.34722,19.27772]}},{"type":"Feature","properties":{"id":"dogal-7","kind":"district","btype":"dogal","name":"Zona de Conservación Ecológica Sierra de Santa Catarina","lab":1},"geometry":{"type":"MultiPolygon","coordinates":[[[[-99.02251,19.30261],[-99.02366,19.30337],[-99.02392,19.30614],[-99.02359,19.30572],[-99.02294,19.30558],[-99.02284,19.30587],[-99.02088,19.30525],[-99.02068,19.30585],[-99.0195,19.30576],[-99.01932,19.30807],[-99.01778,19.30707],[-99.01805,19.3063],[-99.01542,19.30578],[-99.01516,19.30523],[-99.01229,19.30432],[-99.01135,19.30553],[-99.00999,19.30492],[-99.00811,19.30479],[-99.00837,19.30449],[-99.00759,19.30454],[-99.00777,19.30377],[-99.00637,19.30348],[-99.00504,19.30444],[-99.00499,19.30311],[-99.00401,19.30314],[-99.00326,19.30209],[-99.00232,19.30211],[-99.00177,19.30078],[-99.00029,19.30088],[-98.99979,19.3021],[-98.99917,19.30222],[-98.9984,19.30141],[-98.99299,19.29972],[-98.99225,19.30273],[-98.99112,19.30306],[-98.98849,19.30235],[-98.98814,19.30322],[-98.98676,19.30304],[-98.98666,19.30333],[-98.98502,19.30281],[-98.98366,19.30548],[-98.98287,19.30515],[-98.98252,19.30558],[-98.98256,19.30733],[-98.9822,19.30795],[-98.98109,19.30829],[-98.98148,19.30956],[-98.97978,19.30922],[-98.97955,19.30974],[-98.98124,19.31212],[-98.98116,19.31407],[-98.98213,19.31511],[-98.98039,19.31647],[-98.98048,19.31693],[-98.97973,19.31727],[-98.98008,19.31826],[-98.97824,19.3176],[-98.97736,19.31817],[-98.97561,19.31752],[-98.97447,19.31795],[-98.97332,19.31763],[-98.97198,19.32054],[-98.97205,19.3217],[-98.97107,19.32208],[-98.9712,19.31964],[-98.97016,19.31902],[-98.97105,19.31886],[-98.9713,19.31834],[-98.97018,19.31752],[-98.9694,19.31779],[-98.96997,19.31632],[-98.96897,19.31623],[-98.96966,19.31547],[-98.96913,19.31521],[-98.96968,19.31487],[-98.96913,19.3135],[-98.96932,19.3123],[-98.97041,19.31237],[-98.97096,19.31282],[-98.97075,19.31346],[-98.97146,19.31355],[-98.97078,19.3114],[-98.97191,19.3127],[-98.97369,19.31016],[-98.97646,19.30991],[-98.97753,19.30794],[-98.97773,19.30663],[-98.97531,19.30526],[-98.98072,19.30135],[-98.98263,19.30246],[-98.98434,19.30066],[-98.98501,19.299],[-98.98813,19.29673],[-98.98985,19.29753],[-98.99374,19.29532],[-98.99597,19.29562],[-98.99589,19.29646],[-98.99497,19.29655],[-98.9949,19.29793],[-98.99798,19.29774],[-98.9974,19.29745],[-98.99757,19.29635],[-98.99893,19.29656],[-98.99884,19.29717],[-98.99977,19.29727],[-98.99985,19.29679],[-99.00085,19.29709],[-99.00482,19.29643],[-99.0067,19.29679],[-99.00621,19.29823],[-99.01275,19.29922],[-99.01289,19.30026],[-99.01349,19.3009],[-99.01466,19.30102],[-99.0172,19.30041],[-99.01692,19.30316],[-99.01742,19.3045],[-99.01858,19.30507],[-99.01955,19.30512],[-99.01909,19.30398],[-99.02091,19.30448],[-99.02116,19.30391],[-99.02199,19.30418],[-99.02183,19.3035],[-99.02251,19.30261]]]]}},{"type":"Feature","properties":{"id":"dogal-lab-7","kind":"district-label","btype":"dogal","name":"Zona de Conservación Ecológica Sierra de Santa Catarina"},"geometry":{"type":"Point","coordinates":[-98.99184,19.30525]}},{"type":"Feature","properties":{"id":"dogal-8","kind":"district","btype":"dogal","name":"Sierra de Guadalupe","lab":1},"geometry":{"type":"MultiPolygon","coordinates":[[[[-99.11562,19.55404],[-99.11848,19.55219],[-99.12125,19.54892],[-99.12183,19.54918],[-99.12168,19.55017],[-99.12321,19.5489],[-99.12303,19.55045],[-99.12347,19.55102],[-99.12303,19.55195],[-99.12435,19.55223],[-99.12293,19.55386],[-99.12321,19.5551],[-99.12284,19.5575],[-99.1224,19.55807],[-99.12291,19.55862],[-99.12322,19.55824],[-99.12396,19.55846],[-99.12209,19.56071],[-99.12256,19.56119],[-99.12224,19.56179],[-99.12133,19.5615],[-99.12109,19.56204],[-99.12176,19.5623],[-99.12118,19.5631],[-99.12256,19.56396],[-99.1239,19.56353],[-99.1259,19.56401],[-99.12558,19.5646],[-99.12431,19.56465],[-99.12511,19.56756],[-99.12542,19.56767],[-99.12496,19.56951],[-99.1254,19.57052],[-99.12625,19.57098],[-99.12752,19.5697],[-99.12833,19.57007],[-99.12804,19.57168],[-99.12848,19.57181],[-99.12835,19.57277],[-99.12712,19.5738],[-99.12707,19.57458],[-99.12588,19.57452],[-99.12568,19.57507],[-99.12655,19.5752],[-99.12701,19.57615],[-99.128,19.576],[-99.1293,19.57443],[-99.12994,19.57507],[-99.12999,19.57601],[-99.12961,19.57632],[-99.12777,19.57628],[-99.1274,19.57721],[-99.12772,19.578],[-99.12949,19.57814],[-99.12967,19.57945],[-99.12531,19.58004],[-99.12283,19.57848],[-99.11222,19.57047],[-99.11182,19.56873],[-99.1081,19.56489],[-99.11572,19.55666],[-99.11562,19.55404]]]]}},{"type":"Feature","properties":{"id":"dogal-lab-8","kind":"district-label","btype":"dogal","name":"Sierra de Guadalupe"},"geometry":{"type":"Point","coordinates":[-99.11941,19.56579]}},{"type":"Feature","properties":{"id":"dogal-9","kind":"district","btype":"dogal","name":"Centro Histórico Perímetro A","lab":1},"geometry":{"type":"MultiPolygon","coordinates":[[[[-99.13287,19.44244],[-99.12881,19.44213],[-99.12895,19.44021],[-99.12731,19.44022],[-99.12747,19.43896],[-99.12629,19.43888],[-99.12684,19.43421],[-99.12433,19.43392],[-99.1256,19.42557],[-99.13009,19.42628],[-99.13129,19.42577],[-99.14208,19.42659],[-99.14087,19.4342],[-99.14625,19.43509],[-99.14587,19.4372],[-99.14917,19.43789],[-99.14875,19.43995],[-99.1402,19.43864],[-99.14004,19.43967],[-99.13532,19.43963],[-99.13531,19.44191],[-99.13298,19.44163],[-99.13287,19.44244]]]]}},{"type":"Feature","properties":{"id":"dogal-lab-9","kind":"district-label","btype":"dogal","name":"Centro Histórico Perímetro A"},"geometry":{"type":"Point","coordinates":[-99.1345,19.43366]}},{"type":"Feature","properties":{"id":"dogal-10","kind":"district","btype":"dogal","name":"Barranca Tarango","lab":1},"geometry":{"type":"MultiPolygon","coordinates":[[[[-99.21103,19.36454],[-99.20653,19.36441],[-99.20652,19.36379],[-99.20961,19.36316],[-99.20968,19.36167],[-99.20721,19.36164],[-99.20693,19.36151],[-99.20716,19.36089],[-99.20943,19.36097],[-99.20941,19.36035],[-99.21212,19.35903],[-99.21249,19.3599],[-99.21298,19.35929],[-99.21389,19.35924],[-99.21671,19.35654],[-99.21783,19.35438],[-99.21926,19.35336],[-99.22044,19.35335],[-99.22578,19.35095],[-99.22647,19.35086],[-99.22695,19.35131],[-99.22887,19.35059],[-99.23065,19.3506],[-99.2309,19.35001],[-99.23278,19.34978],[-99.23618,19.34843],[-99.23942,19.34641],[-99.23914,19.34541],[-99.24238,19.34366],[-99.24547,19.34251],[-99.24803,19.34325],[-99.24696,19.34208],[-99.24801,19.34097],[-99.24788,19.34167],[-99.24722,19.3421],[-99.24841,19.34329],[-99.24792,19.34384],[-99.24692,19.34383],[-99.24716,19.34451],[-99.24802,19.34404],[-99.24917,19.3454],[-99.25262,19.34486],[-99.25188,19.34348],[-99.2503,19.34173],[-99.24854,19.34058],[-99.24877,19.34041],[-99.2503,19.34149],[-99.2518,19.34065],[-99.25223,19.34123],[-99.25186,19.34137],[-99.25164,19.34181],[-99.25099,19.34197],[-99.25191,19.34261],[-99.25213,19.34232],[-99.25167,19.342],[-99.25225,19.3413],[-99.25384,19.34215],[-99.25265,19.34313],[-99.25469,19.34455],[-99.25438,19.34559],[-99.25348,19.34536],[-99.2521,19.34644],[-99.25398,19.34644],[-99.25362,19.34739],[-99.24935,19.34905],[-99.24638,19.34943],[-99.24551,19.34914],[-99.24608,19.3499],[-99.24631,19.35137],[-99.24561,19.35053],[-99.24563,19.34979],[-99.24482,19.34926],[-99.241,19.35051],[-99.2414,19.35087],[-99.24159,19.35229],[-99.24117,19.35221],[-99.2409,19.35103],[-99.24069,19.35229],[-99.24035,19.3509],[-99.2395,19.35088],[-99.24053,19.35352],[-99.23936,19.35218],[-99.23913,19.35239],[-99.23946,19.35127],[-99.2391,19.35077],[-99.23829,19.35066],[-99.23888,19.35153],[-99.2382,19.351],[-99.23671,19.35086],[-99.23643,19.3512],[-99.23795,19.35208],[-99.23869,19.35321],[-99.23963,19.35358],[-99.23982,19.35456],[-99.23817,19.35378],[-99.23657,19.35144],[-99.23533,19.35196],[-99.23462,19.35183],[-99.23206,19.35416],[-99.2335,19.35612],[-99.23312,19.35629],[-99.23236,19.35546],[-99.23197,19.35423],[-99.2306,19.35529],[-99.23129,19.35582],[-99.23096,19.35607],[-99.23054,19.35565],[-99.23191,19.35732],[-99.23182,19.3578],[-99.23091,19.35727],[-99.23064,19.35624],[-99.22972,19.3552],[-99.22907,19.3556],[-99.22974,19.35669],[-99.22946,19.35697],[-99.22894,19.356],[-99.22867,19.35608],[-99.22712,19.35673],[-99.22699,19.35755],[-99.2267,19.35724],[-99.22601,19.35774],[-99.22547,19.35752],[-99.22394,19.358],[-99.22384,19.35897],[-99.22081,19.35855],[-99.21791,19.3591],[-99.21658,19.36011],[-99.21645,19.35965],[-99.21587,19.35956],[-99.2159,19.36073],[-99.21296,19.36201],[-99.21182,19.36301],[-99.21103,19.36454]]]]}},{"type":"Feature","properties":{"id":"dogal-lab-10","kind":"district-label","btype":"dogal","name":"Barranca Tarango"},"geometry":{"type":"Point","coordinates":[-99.23234,19.352]}},{"type":"Feature","properties":{"id":"dogal-11","kind":"district","btype":"dogal","name":"Parque Nacional Bosque Pedregal","lab":1},"geometry":{"type":"MultiPolygon","coordinates":[[[[-99.21197,19.29304],[-99.20532,19.29287],[-99.20529,19.29766],[-99.19537,19.29688],[-99.19375,19.29583],[-99.19216,19.29661],[-99.19108,19.29658],[-99.19149,19.29284],[-99.19427,19.28915],[-99.19256,19.28875],[-99.18594,19.29523],[-99.18656,19.29607],[-99.18426,19.29469],[-99.1855,19.29311],[-99.18593,19.2905],[-99.18716,19.28764],[-99.18772,19.28721],[-99.19337,19.28634],[-99.19364,19.28716],[-99.19492,19.28713],[-99.19481,19.28632],[-99.19533,19.28627],[-99.20416,19.28677],[-99.20578,19.28617],[-99.20934,19.28618],[-99.21095,19.2869],[-99.21219,19.28807],[-99.2106,19.29234],[-99.21512,19.29417],[-99.21387,19.29405],[-99.21197,19.29304]]]]}},{"type":"Feature","properties":{"id":"dogal-lab-11","kind":"district-label","btype":"dogal","name":"Parque Nacional Bosque Pedregal"},"geometry":{"type":"Point","coordinates":[-99.19907,19.29124]}},{"type":"Feature","properties":{"id":"dogal-12","kind":"district","btype":"dogal","name":"Reserva Ecológica Comunitaria San Bernabé Ocotepec","lab":1},"geometry":{"type":"MultiPolygon","coordinates":[[[[-99.27784,19.28826],[-99.27956,19.28878],[-99.28227,19.29046],[-99.28527,19.2914],[-99.28546,19.29178],[-99.28331,19.29404],[-99.28125,19.30106],[-99.27858,19.30561],[-99.27853,19.30907],[-99.27741,19.31037],[-99.27569,19.31357],[-99.27424,19.31354],[-99.27445,19.31278],[-99.27312,19.31087],[-99.27183,19.31003],[-99.27335,19.30785],[-99.27366,19.30505],[-99.27419,19.30388],[-99.27483,19.30274],[-99.27531,19.30284],[-99.27636,19.30178],[-99.27623,19.30138],[-99.27573,19.30144],[-99.27606,19.30095],[-99.2766,19.30098],[-99.27692,19.30051],[-99.27579,19.30026],[-99.27529,19.30105],[-99.27459,19.3013],[-99.27265,19.30115],[-99.27328,19.29875],[-99.27178,19.29819],[-99.27061,19.29841],[-99.26937,19.29974],[-99.26797,19.30002],[-99.26705,19.29937],[-99.26796,19.29774],[-99.26724,19.29715],[-99.27208,19.2912],[-99.27556,19.28876],[-99.27657,19.28883],[-99.27784,19.28826]]]]}},{"type":"Feature","properties":{"id":"dogal-lab-12","kind":"district-label","btype":"dogal","name":"Reserva Ecológica Comunitaria San Bernabé Ocotepec"},"geometry":{"type":"Point","coordinates":[-99.27642,19.29837]}},{"type":"Feature","properties":{"id":"dogal-13","kind":"district","btype":"dogal","name":"Barranca Dolores","lab":1},"geometry":{"type":"MultiPolygon","coordinates":[[[[-99.20556,19.41845],[-99.20517,19.41669],[-99.20595,19.41654],[-99.20746,19.41489],[-99.2094,19.41525],[-99.20966,19.41497],[-99.21003,19.41335],[-99.20934,19.41209],[-99.21031,19.40959],[-99.20993,19.40905],[-99.21079,19.40812],[-99.21154,19.40584],[-99.21437,19.40356],[-99.21469,19.40192],[-99.21394,19.40147],[-99.21287,19.39985],[-99.21521,19.39869],[-99.2226,19.3965],[-99.22354,19.39679],[-99.22362,19.3991],[-99.22467,19.39669],[-99.22606,19.39705],[-99.22654,19.39768],[-99.22587,19.3984],[-99.2263,19.39903],[-99.2258,19.39958],[-99.22657,19.39988],[-99.22684,19.39919],[-99.22781,19.3985],[-99.22759,19.39785],[-99.22798,19.39789],[-99.22782,19.39724],[-99.22819,19.39685],[-99.2285,19.39746],[-99.22901,19.39702],[-99.22921,19.3976],[-99.22935,19.39692],[-99.23197,19.39592],[-99.2273,19.40008],[-99.22579,19.40068],[-99.22479,19.40057],[-99.22396,19.40176],[-99.22322,19.40176],[-99.22222,19.40356],[-99.22324,19.40372],[-99.22654,19.40234],[-99.22702,19.40134],[-99.22928,19.39982],[-99.22918,19.39946],[-99.23008,19.39996],[-99.23149,19.39933],[-99.23144,19.39873],[-99.23172,19.39899],[-99.23312,19.39788],[-99.23327,19.39732],[-99.23369,19.39744],[-99.23394,19.39505],[-99.23443,19.39514],[-99.23438,19.39598],[-99.2349,19.39507],[-99.23548,19.39531],[-99.23556,19.39592],[-99.23615,19.39558],[-99.23602,19.39615],[-99.23816,19.39465],[-99.23853,19.39492],[-99.23599,19.39652],[-99.2342,19.39685],[-99.23395,19.39784],[-99.23246,19.39923],[-99.22985,19.40051],[-99.23015,19.40119],[-99.22962,19.40065],[-99.22748,19.4023],[-99.22515,19.40318],[-99.22643,19.40337],[-99.22736,19.40416],[-99.22817,19.4038],[-99.22853,19.40401],[-99.22767,19.40507],[-99.22715,19.40478],[-99.2273,19.40447],[-99.22669,19.40435],[-99.22632,19.40441],[-99.22629,19.40491],[-99.22274,19.4058],[-99.22228,19.40622],[-99.22178,19.40596],[-99.22099,19.4067],[-99.2213,19.4069],[-99.22112,19.40732],[-99.21913,19.40962],[-99.21954,19.41],[-99.21921,19.41031],[-99.21794,19.40991],[-99.21406,19.4107],[-99.21404,19.41261],[-99.21299,19.41379],[-99.21355,19.41429],[-99.21314,19.4147],[-99.21417,19.41465],[-99.21408,19.415],[-99.21293,19.4149],[-99.20979,19.41625],[-99.20826,19.41756],[-99.20716,19.41932],[-99.20556,19.41845]]]]}},{"type":"Feature","properties":{"id":"dogal-lab-13","kind":"district-label","btype":"dogal","name":"Barranca Dolores"},"geometry":{"type":"Point","coordinates":[-99.21819,19.405]}},{"type":"Feature","properties":{"id":"dogal-14","kind":"district","btype":"dogal","name":"Proyecto Ecológico Lago de Texcoco (PELT)","lab":1},"geometry":{"type":"MultiPolygon","coordinates":[[[[-98.99432,19.48598],[-98.99465,19.47397],[-98.97288,19.48188],[-98.97474,19.48565],[-98.99432,19.48598]]]]}},{"type":"Feature","properties":{"id":"dogal-lab-14","kind":"district-label","btype":"dogal","name":"Proyecto Ecológico Lago de Texcoco (PELT)"},"geometry":{"type":"Point","coordinates":[-98.98582,19.48147]}},{"type":"Feature","properties":{"id":"dogal-15","kind":"district","btype":"dogal","name":"Bosque de San Juan de Aragón","lab":1},"geometry":{"type":"MultiPolygon","coordinates":[[[[-99.06827,19.45906],[-99.07822,19.45202],[-99.07894,19.45295],[-99.07844,19.45526],[-99.08022,19.45765],[-99.08051,19.46327],[-99.07738,19.46411],[-99.07286,19.46615],[-99.06397,19.46412],[-99.06256,19.46283],[-99.06262,19.46254],[-99.06341,19.46275],[-99.06444,19.462],[-99.06418,19.46107],[-99.06619,19.46052],[-99.06842,19.45927],[-99.06827,19.45906]]]]}},{"type":"Feature","properties":{"id":"dogal-lab-15","kind":"district-label","btype":"dogal","name":"Bosque de San Juan de Aragón"},"geometry":{"type":"Point","coordinates":[-99.07334,19.46045]}},{"type":"Feature","properties":{"id":"dogal-16","kind":"district","btype":"dogal","name":"Zona de Conservación Ecológica La Armella","lab":1},"geometry":{"type":"MultiPolygon","coordinates":[[[[-99.12446,19.58006],[-99.1337,19.58442],[-99.1337,19.58619],[-99.12699,19.58851],[-99.12371,19.59276],[-99.11946,19.59199],[-99.11789,19.59059],[-99.1186,19.58446],[-99.11691,19.58144],[-99.11504,19.58007],[-99.12446,19.58006]]]]}},{"type":"Feature","properties":{"id":"dogal-lab-16","kind":"district-label","btype":"dogal","name":"Zona de Conservación Ecológica La Armella"},"geometry":{"type":"Point","coordinates":[-99.12388,19.58561]}},{"type":"Feature","properties":{"id":"dogal-17","kind":"district","btype":"dogal","name":"Barranca Tacubaya","lab":1},"geometry":{"type":"MultiPolygon","coordinates":[[[[-99.22746,19.38604],[-99.22766,19.38661],[-99.22862,19.38593],[-99.23058,19.38574],[-99.2306,19.38544],[-99.23151,19.38566],[-99.23217,19.38524],[-99.23173,19.38387],[-99.23198,19.38384],[-99.23462,19.38454],[-99.23574,19.38551],[-99.22993,19.38659],[-99.22971,19.38768],[-99.22814,19.38783],[-99.22797,19.38839],[-99.22714,19.38879],[-99.22753,19.38935],[-99.23141,19.38911],[-99.22765,19.39121],[-99.22492,19.39093],[-99.22489,19.39124],[-99.22949,19.39217],[-99.23061,19.39186],[-99.23481,19.38916],[-99.23609,19.38751],[-99.23696,19.38754],[-99.24066,19.38512],[-99.23856,19.38512],[-99.23833,19.38468],[-99.23681,19.38516],[-99.23674,19.38481],[-99.23836,19.38428],[-99.23828,19.38393],[-99.24024,19.38386],[-99.24036,19.38414],[-99.23966,19.38428],[-99.23974,19.38466],[-99.24068,19.38455],[-99.241,19.38502],[-99.24138,19.38484],[-99.24079,19.38405],[-99.24178,19.38445],[-99.24314,19.38307],[-99.24528,19.38261],[-99.24725,19.38058],[-99.24841,19.3805],[-99.24899,19.38116],[-99.24845,19.38218],[-99.2445,19.3845],[-99.24327,19.38606],[-99.24275,19.38557],[-99.24169,19.38543],[-99.24158,19.38505],[-99.23984,19.38641],[-99.23925,19.38725],[-99.23983,19.38877],[-99.23918,19.38839],[-99.23757,19.39023],[-99.23766,19.39078],[-99.23888,19.39183],[-99.23847,19.39286],[-99.23532,19.39254],[-99.23306,19.39366],[-99.23268,19.39472],[-99.23043,19.39491],[-99.22819,19.39445],[-99.22752,19.39525],[-99.22702,19.39519],[-99.22694,19.39438],[-99.22574,19.39386],[-99.22569,19.39337],[-99.22331,19.39279],[-99.21967,19.39291],[-99.21996,19.39204],[-99.22224,19.39137],[-99.21828,19.39148],[-99.21663,19.39206],[-99.21638,19.39266],[-99.2169,19.39302],[-99.21712,19.39274],[-99.21673,19.39326],[-99.21734,19.39366],[-99.21796,19.3934],[-99.21776,19.39444],[-99.2167,19.39387],[-99.21676,19.39434],[-99.21639,19.39448],[-99.21733,19.39501],[-99.21754,19.39562],[-99.21677,19.39498],[-99.21664,19.39578],[-99.21433,19.39507],[-99.21507,19.39547],[-99.21405,19.39546],[-99.21348,19.39597],[-99.21303,19.39502],[-99.21146,19.39563],[-99.21286,19.39462],[-99.21269,19.39434],[-99.21312,19.39392],[-99.21587,19.39203],[-99.21546,19.39039],[-99.21685,19.38802],[-99.21868,19.38676],[-99.21923,19.38685],[-99.21745,19.38821],[-99.21672,19.38993],[-99.22127,19.38929],[-99.22174,19.38882],[-99.22139,19.39045],[-99.22295,19.3902],[-99.22366,19.38952],[-99.22385,19.3898],[-99.22496,19.38891],[-99.22566,19.38883],[-99.22613,19.38786],[-99.22519,19.38718],[-99.22746,19.38604]]]]}},{"type":"Feature","properties":{"id":"dogal-lab-17","kind":"district-label","btype":"dogal","name":"Barranca Tacubaya"},"geometry":{"type":"Point","coordinates":[-99.22967,19.38981]}},{"type":"Feature","properties":{"id":"dogal-18","kind":"district","btype":"dogal","name":"Zona de Conservación Ecológica Ecoguardas","lab":1},"geometry":{"type":"MultiPolygon","coordinates":[[[[-99.19323,19.27335],[-99.19504,19.27075],[-99.1952,19.26866],[-99.19662,19.26772],[-99.19657,19.26674],[-99.19742,19.26651],[-99.20104,19.26892],[-99.20458,19.26965],[-99.20525,19.26926],[-99.20589,19.27428],[-99.20522,19.27446],[-99.20576,19.27619],[-99.19927,19.27736],[-99.19326,19.27933],[-99.19045,19.27454],[-99.19323,19.27335]]]]}},{"type":"Feature","properties":{"id":"dogal-lab-18","kind":"district-label","btype":"dogal","name":"Zona de Conservación Ecológica Ecoguardas"},"geometry":{"type":"Point","coordinates":[-99.19864,19.27334]}},{"type":"Feature","properties":{"id":"dogal-19","kind":"district","btype":"dogal","name":"Barranca Becerra Sección La Loma","lab":1},"geometry":{"type":"MultiPolygon","coordinates":[[[[-99.23345,19.37988],[-99.23251,19.37938],[-99.23296,19.37956],[-99.23362,19.37845],[-99.23336,19.3777],[-99.23393,19.37632],[-99.23371,19.37619],[-99.23531,19.37379],[-99.23674,19.37353],[-99.23601,19.37424],[-99.23569,19.37545],[-99.23645,19.37547],[-99.23647,19.37601],[-99.23744,19.37574],[-99.2381,19.37653],[-99.23848,19.3753],[-99.23963,19.37438],[-99.23919,19.37305],[-99.24048,19.37215],[-99.24083,19.3726],[-99.24165,19.37167],[-99.24131,19.37114],[-99.2418,19.37082],[-99.24144,19.37031],[-99.24239,19.36964],[-99.24263,19.36995],[-99.24367,19.369],[-99.24413,19.36951],[-99.24457,19.36931],[-99.24503,19.36864],[-99.24438,19.36876],[-99.24434,19.36865],[-99.24606,19.36812],[-99.24593,19.36752],[-99.24626,19.36741],[-99.24642,19.36811],[-99.24688,19.36794],[-99.24923,19.36506],[-99.2506,19.36445],[-99.25127,19.36339],[-99.25188,19.36328],[-99.25199,19.36085],[-99.25261,19.36004],[-99.25233,19.36066],[-99.25268,19.36061],[-99.25282,19.36271],[-99.25235,19.36312],[-99.25277,19.36369],[-99.25426,19.36316],[-99.25291,19.36296],[-99.25294,19.36278],[-99.25386,19.36275],[-99.25443,19.36179],[-99.25468,19.36033],[-99.25431,19.35955],[-99.25459,19.35944],[-99.2552,19.36034],[-99.25617,19.35844],[-99.25776,19.35852],[-99.25785,19.35889],[-99.25632,19.3599],[-99.25663,19.3602],[-99.25638,19.36082],[-99.25521,19.36192],[-99.2549,19.36281],[-99.25693,19.36089],[-99.25703,19.36018],[-99.25792,19.36019],[-99.25838,19.36065],[-99.26084,19.35944],[-99.25922,19.36065],[-99.25749,19.36105],[-99.25621,19.36286],[-99.25728,19.36322],[-99.2554,19.36346],[-99.25498,19.36391],[-99.25262,19.36455],[-99.25219,19.36534],[-99.25051,19.36631],[-99.25079,19.36678],[-99.25276,19.3666],[-99.25217,19.36718],[-99.25178,19.36685],[-99.24896,19.36931],[-99.24848,19.36904],[-99.24867,19.36998],[-99.24786,19.36968],[-99.24756,19.37014],[-99.24557,19.37078],[-99.24444,19.37221],[-99.24647,19.37106],[-99.24656,19.3716],[-99.24567,19.37229],[-99.24611,19.37263],[-99.246,19.37278],[-99.24472,19.37285],[-99.24429,19.3735],[-99.24366,19.37359],[-99.24365,19.37395],[-99.24064,19.37593],[-99.24024,19.37661],[-99.2408,19.37743],[-99.24162,19.3776],[-99.24205,19.37659],[-99.24267,19.37694],[-99.24418,19.37576],[-99.24607,19.37499],[-99.24698,19.37361],[-99.2469,19.37315],[-99.24837,19.37288],[-99.24936,19.3718],[-99.25025,19.37184],[-99.25073,19.37239],[-99.25063,19.3731],[-99.24964,19.37497],[-99.24768,19.37685],[-99.24694,19.37688],[-99.24755,19.37646],[-99.24719,19.37552],[-99.24547,19.37656],[-99.24442,19.37667],[-99.24229,19.3777],[-99.2411,19.37881],[-99.24072,19.37821],[-99.23904,19.37852],[-99.2371,19.3778],[-99.23685,19.37901],[-99.23595,19.37942],[-99.23621,19.37969],[-99.23512,19.37927],[-99.23498,19.37968],[-99.2346,19.37949],[-99.23446,19.38029],[-99.23441,19.37962],[-99.23394,19.37947],[-99.23397,19.3798],[-99.23345,19.37988]]]]}},{"type":"Feature","properties":{"id":"dogal-lab-19","kind":"district-label","btype":"dogal","name":"Barranca Becerra Sección La Loma"},"geometry":{"type":"Point","coordinates":[-99.24511,19.37128]}},{"type":"Feature","properties":{"id":"dogal-20","kind":"district","btype":"dogal","name":"Zona Ecológica y Cultural Cerro de la Estrella","lab":1},"geometry":{"type":"MultiPolygon","coordinates":[[[[-99.08366,19.34497],[-99.08526,19.34343],[-99.08677,19.3426],[-99.0867,19.34211],[-99.08799,19.34001],[-99.08871,19.33989],[-99.0898,19.34042],[-99.08983,19.33867],[-99.09146,19.3388],[-99.09268,19.33316],[-99.09594,19.33374],[-99.09594,19.33435],[-99.0968,19.33451],[-99.09628,19.33659],[-99.09576,19.33667],[-99.09484,19.34022],[-99.09097,19.33898],[-99.0911,19.34426],[-99.09794,19.34617],[-99.09733,19.3487],[-99.0963,19.34766],[-99.09593,19.34767],[-99.09496,19.34912],[-99.09365,19.34864],[-99.09342,19.34913],[-99.09375,19.3494],[-99.09271,19.35096],[-99.0912,19.35203],[-99.09112,19.35079],[-99.09028,19.35085],[-99.09023,19.3495],[-99.08867,19.34941],[-99.08685,19.35003],[-99.0868,19.34812],[-99.0866,19.34829],[-99.08566,19.34708],[-99.08531,19.346],[-99.0845,19.34626],[-99.08366,19.34497]]]]}},{"type":"Feature","properties":{"id":"dogal-lab-20","kind":"district-label","btype":"dogal","name":"Zona Ecológica y Cultural Cerro de la Estrella"},"geometry":{"type":"Point","coordinates":[-99.09113,19.34364]}},{"type":"Feature","properties":{"id":"dogal-21","kind":"district","btype":"dogal","name":"Parque Nacional El Tepeyac","lab":1},"geometry":{"type":"MultiPolygon","coordinates":[[[[-99.11441,19.51106],[-99.1131,19.51075],[-99.1122,19.51091],[-99.10751,19.50884],[-99.10907,19.50663],[-99.11713,19.50238],[-99.11955,19.50266],[-99.11929,19.50616],[-99.11538,19.50703],[-99.115,19.50812],[-99.1193,19.50686],[-99.12046,19.50862],[-99.12044,19.50929],[-99.12172,19.51015],[-99.12263,19.51139],[-99.12289,19.51376],[-99.12338,19.5138],[-99.12321,19.51423],[-99.12078,19.51611],[-99.11688,19.51324],[-99.11593,19.51305],[-99.11441,19.51106]]]]}},{"type":"Feature","properties":{"id":"dogal-lab-21","kind":"district-label","btype":"dogal","name":"Parque Nacional El Tepeyac"},"geometry":{"type":"Point","coordinates":[-99.11627,19.50894]}},{"type":"Feature","properties":{"id":"dogal-22","kind":"district","btype":"dogal","name":"Bosque de Tláhuac","lab":1},"geometry":{"type":"MultiPolygon","coordinates":[[[[-99.05045,19.28195],[-99.04907,19.28193],[-99.04883,19.27959],[-99.04792,19.279],[-99.04775,19.27617],[-99.04863,19.27671],[-99.04886,19.27636],[-99.0406,19.27333],[-99.03873,19.2739],[-99.03963,19.28161],[-99.04523,19.28299],[-99.04451,19.28601],[-99.05022,19.28726],[-99.05045,19.28195]]]]}},{"type":"Feature","properties":{"id":"dogal-lab-22","kind":"district-label","btype":"dogal","name":"Bosque de Tláhuac"},"geometry":{"type":"Point","coordinates":[-99.04465,19.27993]}},{"type":"Feature","properties":{"id":"dogal-23","kind":"district","btype":"dogal","name":"´Parque Eológico tarango","lab":1},"geometry":{"type":"MultiPolygon","coordinates":[[[[-99.22762,19.3562],[-99.2213,19.3584],[-99.21531,19.35889],[-99.21741,19.35575],[-99.21945,19.35375],[-99.22148,19.3535],[-99.22516,19.35206],[-99.22973,19.3516],[-99.23748,19.3484],[-99.23982,19.3465],[-99.24381,19.34706],[-99.24421,19.34793],[-99.24413,19.34903],[-99.2399,19.35055],[-99.23825,19.35026],[-99.2358,19.35091],[-99.23374,19.3519],[-99.23054,19.35467],[-99.22927,19.35496],[-99.22762,19.3562]]]]}},{"type":"Feature","properties":{"id":"dogal-lab-23","kind":"district-label","btype":"dogal","name":"´Parque Eológico tarango"},"geometry":{"type":"Point","coordinates":[-99.22865,19.35317]}},{"type":"Feature","properties":{"id":"dogal-24","kind":"district","btype":"dogal","name":"Parque Recreativo Santa Cruz Meyehualco","lab":1},"geometry":{"type":"MultiPolygon","coordinates":[[[[-99.04855,19.36203],[-99.04862,19.36004],[-99.04891,19.36004],[-99.04883,19.35318],[-99.04136,19.35174],[-99.04074,19.3531],[-99.04058,19.36076],[-99.04855,19.36203]]]]}},{"type":"Feature","properties":{"id":"dogal-lab-24","kind":"district-label","btype":"dogal","name":"Parque Recreativo Santa Cruz Meyehualco"},"geometry":{"type":"Point","coordinates":[-99.04474,19.35693]}},{"type":"Feature","properties":{"id":"dogal-25","kind":"district","btype":"dogal","name":"Barranca Jalalpa","lab":1},"geometry":{"type":"MultiPolygon","coordinates":[[[[-99.21103,19.38305],[-99.20888,19.38138],[-99.20914,19.381],[-99.20995,19.38105],[-99.21065,19.38201],[-99.21261,19.38312],[-99.21375,19.3829],[-99.21186,19.38166],[-99.21211,19.38097],[-99.2125,19.38083],[-99.21253,19.38166],[-99.21311,19.38217],[-99.21626,19.3813],[-99.21691,19.38067],[-99.21668,19.3787],[-99.2192,19.37869],[-99.21926,19.38046],[-99.22332,19.37977],[-99.22356,19.38017],[-99.22428,19.37996],[-99.22496,19.37939],[-99.22521,19.37832],[-99.22546,19.37914],[-99.22622,19.37754],[-99.2274,19.37721],[-99.22604,19.37468],[-99.22596,19.37323],[-99.22676,19.37328],[-99.22675,19.37396],[-99.22712,19.37409],[-99.22828,19.37277],[-99.22875,19.37293],[-99.22735,19.37477],[-99.22784,19.37614],[-99.22749,19.37643],[-99.22764,19.37692],[-99.22914,19.37575],[-99.22957,19.37353],[-99.23103,19.37263],[-99.23003,19.37406],[-99.22978,19.37544],[-99.22765,19.37748],[-99.22867,19.37738],[-99.23126,19.37549],[-99.23234,19.37543],[-99.2328,19.37481],[-99.23253,19.37379],[-99.233,19.374],[-99.23348,19.37349],[-99.23307,19.37284],[-99.23329,19.37252],[-99.23339,19.37284],[-99.23393,19.37272],[-99.2339,19.37236],[-99.23453,19.37202],[-99.2344,19.37167],[-99.23497,19.37215],[-99.23608,19.37171],[-99.23633,19.3714],[-99.23575,19.37065],[-99.23618,19.3703],[-99.2366,19.36814],[-99.23829,19.3674],[-99.23677,19.36924],[-99.23735,19.3696],[-99.2428,19.36649],[-99.24325,19.36582],[-99.24351,19.36617],[-99.24464,19.36526],[-99.24496,19.36581],[-99.24573,19.36501],[-99.24604,19.36537],[-99.24765,19.36441],[-99.2485,19.36459],[-99.24028,19.36948],[-99.23753,19.3705],[-99.23592,19.37205],[-99.23631,19.37214],[-99.23508,19.37248],[-99.23388,19.37343],[-99.2323,19.3762],[-99.2309,19.37639],[-99.22861,19.37768],[-99.22649,19.3779],[-99.22343,19.38212],[-99.22116,19.3834],[-99.22277,19.38312],[-99.22427,19.3823],[-99.22448,19.38254],[-99.22619,19.381],[-99.22698,19.38115],[-99.22811,19.3805],[-99.22873,19.38074],[-99.22907,19.3802],[-99.23023,19.38021],[-99.23145,19.37928],[-99.23301,19.37937],[-99.23095,19.37979],[-99.23032,19.38084],[-99.22586,19.38146],[-99.22498,19.38262],[-99.21966,19.38466],[-99.21909,19.38406],[-99.21758,19.38383],[-99.21671,19.38286],[-99.2144,19.38277],[-99.21368,19.38329],[-99.2124,19.3834],[-99.21103,19.38305]]]]}},{"type":"Feature","properties":{"id":"dogal-lab-25","kind":"district-label","btype":"dogal","name":"Barranca Jalalpa"},"geometry":{"type":"Point","coordinates":[-99.22646,19.37722]}},{"type":"Feature","properties":{"id":"dogal-26","kind":"district","btype":"dogal","name":"Barranca Mixcoac","lab":1},"geometry":{"type":"MultiPolygon","coordinates":[[[[-99.23977,19.36303],[-99.24022,19.36418],[-99.23958,19.36438],[-99.23934,19.36315],[-99.2376,19.36355],[-99.23788,19.36438],[-99.23728,19.36372],[-99.23587,19.36357],[-99.2346,19.36398],[-99.23521,19.36625],[-99.23693,19.36725],[-99.23493,19.36673],[-99.23487,19.36706],[-99.23446,19.36697],[-99.2339,19.36525],[-99.23346,19.36524],[-99.23376,19.36473],[-99.2318,19.36347],[-99.23181,19.36311],[-99.22908,19.36301],[-99.22903,19.36344],[-99.22703,19.36444],[-99.22419,19.36482],[-99.22338,19.36593],[-99.22279,19.36608],[-99.22214,19.36562],[-99.22221,19.36599],[-99.22056,19.36692],[-99.22008,19.36666],[-99.22017,19.36698],[-99.219,19.36727],[-99.21781,19.36681],[-99.21773,19.36755],[-99.21687,19.36713],[-99.21709,19.3679],[-99.21674,19.36803],[-99.21538,19.36747],[-99.21503,19.36829],[-99.21419,19.36831],[-99.21414,19.36893],[-99.21302,19.36871],[-99.21231,19.36955],[-99.21136,19.36893],[-99.21056,19.36926],[-99.20987,19.36902],[-99.20882,19.36999],[-99.20716,19.37018],[-99.20712,19.37048],[-99.20607,19.37031],[-99.20602,19.3707],[-99.20507,19.36946],[-99.20427,19.37003],[-99.20453,19.36866],[-99.20519,19.36839],[-99.20598,19.36867],[-99.20616,19.36918],[-99.20689,19.36875],[-99.20778,19.36934],[-99.21046,19.36757],[-99.21235,19.36741],[-99.21333,19.36678],[-99.21812,19.36534],[-99.21822,19.36602],[-99.21904,19.36599],[-99.21911,19.36521],[-99.22071,19.36508],[-99.22108,19.36453],[-99.22232,19.36457],[-99.22259,19.36549],[-99.22462,19.36432],[-99.22317,19.36408],[-99.22404,19.36363],[-99.2246,19.36405],[-99.22437,19.36297],[-99.22466,19.36365],[-99.22695,19.36337],[-99.22716,19.36407],[-99.2279,19.36382],[-99.22869,19.36331],[-99.22851,19.36146],[-99.22814,19.36143],[-99.2283,19.36081],[-99.22869,19.36044],[-99.22919,19.36071],[-99.2293,19.35998],[-99.22946,19.36184],[-99.22987,19.36206],[-99.2295,19.36293],[-99.23161,19.36288],[-99.23185,19.36165],[-99.23132,19.36127],[-99.23205,19.36085],[-99.23169,19.36039],[-99.23329,19.35954],[-99.23735,19.3561],[-99.23724,19.35683],[-99.23661,19.35739],[-99.23736,19.35793],[-99.23645,19.35795],[-99.23661,19.35832],[-99.23586,19.35834],[-99.2356,19.35911],[-99.23462,19.35955],[-99.23557,19.35978],[-99.23562,19.36003],[-99.23494,19.36033],[-99.2341,19.36011],[-99.23293,19.36069],[-99.2323,19.3614],[-99.23252,19.36187],[-99.23306,19.36228],[-99.23393,19.36176],[-99.23426,19.36251],[-99.23928,19.36226],[-99.23973,19.36201],[-99.23948,19.36077],[-99.24086,19.35946],[-99.24019,19.3604],[-99.24032,19.36088],[-99.23983,19.36122],[-99.23994,19.36203],[-99.24276,19.36168],[-99.24311,19.36092],[-99.24238,19.36047],[-99.24303,19.36015],[-99.24424,19.35801],[-99.24333,19.35997],[-99.24461,19.35829],[-99.24366,19.36053],[-99.24393,19.3607],[-99.24492,19.35856],[-99.24606,19.3579],[-99.24629,19.35813],[-99.24695,19.35699],[-99.2473,19.35707],[-99.24636,19.35829],[-99.24497,19.35902],[-99.24531,19.36008],[-99.24613,19.36034],[-99.24479,19.36166],[-99.2462,19.36292],[-99.24549,19.36371],[-99.24567,19.36418],[-99.24514,19.36317],[-99.24524,19.36254],[-99.24345,19.36094],[-99.24291,19.36184],[-99.23977,19.36303]]]]}},{"type":"Feature","properties":{"id":"dogal-lab-26","kind":"district-label","btype":"dogal","name":"Barranca Mixcoac"},"geometry":{"type":"Point","coordinates":[-99.22669,19.36434]}},{"type":"Feature","properties":{"id":"dogal-27","kind":"district","btype":"dogal","name":"Alameda Oriente","lab":1},"geometry":{"type":"MultiPolygon","coordinates":[[[[-99.05969,19.43568],[-99.04788,19.44233],[-99.04813,19.44173],[-99.04728,19.4414],[-99.04652,19.44277],[-99.04623,19.44213],[-99.04671,19.4416],[-99.0485,19.44001],[-99.04936,19.4405],[-99.04979,19.43974],[-99.0489,19.43926],[-99.0528,19.43068],[-99.0605,19.43264],[-99.06103,19.43331],[-99.05969,19.43568]]]]}},{"type":"Feature","properties":{"id":"dogal-lab-27","kind":"district-label","btype":"dogal","name":"Alameda Oriente"},"geometry":{"type":"Point","coordinates":[-99.05416,19.43571]}},{"type":"Feature","properties":{"id":"dogal-28","kind":"district","btype":"dogal","name":"Parque Bicentenario","lab":1},"geometry":{"type":"MultiPolygon","coordinates":[[[[-99.20656,19.47122],[-99.20704,19.46961],[-99.19226,19.46485],[-99.19142,19.46486],[-99.19083,19.46551],[-99.19058,19.47028],[-99.19085,19.47039],[-99.19279,19.4709],[-99.19347,19.46862],[-99.19478,19.46897],[-99.1949,19.46955],[-99.19752,19.47032],[-99.19769,19.4697],[-99.19839,19.46987],[-99.19826,19.47032],[-99.19877,19.47045],[-99.19857,19.47131],[-99.19956,19.47156],[-99.19925,19.4727],[-99.20088,19.47317],[-99.2049,19.47214],[-99.20656,19.47122]]]]}},{"type":"Feature","properties":{"id":"dogal-lab-28","kind":"district-label","btype":"dogal","name":"Parque Bicentenario"},"geometry":{"type":"Point","coordinates":[-99.19822,19.46905]}},{"type":"Feature","properties":{"id":"dogal-29","kind":"district","btype":"dogal","name":"Zona de Conservación Ecológica La Loma","lab":1},"geometry":{"type":"MultiPolygon","coordinates":[[[[-99.24245,19.32968],[-99.24121,19.33],[-99.24234,19.33054],[-99.24307,19.3314],[-99.24273,19.33153],[-99.24214,19.33081],[-99.24071,19.33037],[-99.23819,19.3309],[-99.23782,19.3314],[-99.23766,19.33055],[-99.237,19.33038],[-99.23634,19.33192],[-99.23296,19.33195],[-99.23308,19.33227],[-99.23409,19.33232],[-99.23552,19.33297],[-99.23551,19.33314],[-99.23406,19.33262],[-99.23281,19.33266],[-99.23277,19.33202],[-99.23221,19.33215],[-99.23095,19.33155],[-99.23159,19.33254],[-99.23147,19.33344],[-99.23243,19.3342],[-99.23203,19.3343],[-99.23126,19.3341],[-99.2314,19.33251],[-99.2308,19.33159],[-99.22812,19.33152],[-99.22644,19.33262],[-99.22839,19.33391],[-99.22843,19.3352],[-99.22789,19.33532],[-99.22781,19.33403],[-99.22728,19.33318],[-99.22617,19.33267],[-99.22495,19.33274],[-99.22586,19.33166],[-99.2283,19.33116],[-99.2312,19.32969],[-99.23324,19.32731],[-99.23559,19.32602],[-99.23753,19.32437],[-99.23908,19.32485],[-99.23881,19.3255],[-99.23935,19.32568],[-99.23959,19.32493],[-99.24115,19.3252],[-99.24312,19.32833],[-99.24258,19.32951],[-99.24201,19.3293],[-99.2419,19.32958],[-99.24245,19.32968]]]]}},{"type":"Feature","properties":{"id":"dogal-lab-29","kind":"district-label","btype":"dogal","name":"Zona de Conservación Ecológica La Loma"},"geometry":{"type":"Point","coordinates":[-99.23614,19.329]}},{"type":"Feature","properties":{"id":"dogal-30","kind":"district","btype":"dogal","name":"Parque Ecológico de Cuemanco","lab":1},"geometry":{"type":"MultiPolygon","coordinates":[[[[-99.10012,19.30322],[-99.10046,19.29994],[-99.09973,19.29987],[-99.09937,19.3004],[-99.09663,19.30017],[-99.09668,19.29967],[-99.09469,19.29951],[-99.09444,19.29839],[-99.09181,19.29994],[-99.08801,19.30464],[-99.09,19.3072],[-99.10012,19.30322]]]]}},{"type":"Feature","properties":{"id":"dogal-lab-30","kind":"district-label","btype":"dogal","name":"Parque Ecológico de Cuemanco"},"geometry":{"type":"Point","coordinates":[-99.0941,19.3028]}},{"type":"Feature","properties":{"id":"dogal-31","kind":"district","btype":"dogal","name":"Barranca Guadalupe","lab":1},"geometry":{"type":"MultiPolygon","coordinates":[[[[-99.23896,19.34493],[-99.2386,19.34412],[-99.23697,19.34362],[-99.23619,19.34232],[-99.23536,19.3429],[-99.23278,19.34294],[-99.23282,19.34352],[-99.23229,19.34347],[-99.23212,19.34394],[-99.23263,19.34373],[-99.2327,19.34427],[-99.23358,19.34497],[-99.23342,19.34591],[-99.2327,19.34545],[-99.23188,19.34588],[-99.23124,19.34471],[-99.22948,19.34516],[-99.22863,19.34458],[-99.22761,19.34477],[-99.22728,19.34538],[-99.22678,19.34497],[-99.22579,19.34628],[-99.22468,19.34633],[-99.22295,19.34554],[-99.2217,19.34696],[-99.2183,19.34739],[-99.21759,19.34779],[-99.21658,19.34733],[-99.21497,19.34753],[-99.2127,19.34718],[-99.2097,19.34609],[-99.20669,19.34752],[-99.20641,19.34803],[-99.20586,19.34816],[-99.20603,19.34856],[-99.20568,19.34893],[-99.20473,19.34935],[-99.20387,19.34937],[-99.20345,19.35001],[-99.20332,19.34992],[-99.20365,19.34925],[-99.20562,19.34883],[-99.20567,19.34806],[-99.20627,19.34794],[-99.20651,19.34729],[-99.20864,19.3464],[-99.20941,19.34538],[-99.20927,19.34598],[-99.21158,19.3465],[-99.21275,19.3471],[-99.21371,19.34697],[-99.2132,19.34647],[-99.21344,19.3462],[-99.21488,19.34604],[-99.21559,19.34623],[-99.21583,19.34717],[-99.21712,19.34723],[-99.21749,19.3457],[-99.21921,19.34575],[-99.21942,19.34532],[-99.22051,19.34583],[-99.22128,19.34568],[-99.22169,19.3452],[-99.22163,19.34419],[-99.22219,19.34461],[-99.22186,19.34377],[-99.22216,19.34375],[-99.22249,19.34492],[-99.22328,19.34455],[-99.22458,19.34479],[-99.22499,19.34527],[-99.22542,19.34495],[-99.22572,19.34521],[-99.22517,19.34562],[-99.22536,19.3459],[-99.22656,19.34482],[-99.2316,19.34398],[-99.23267,19.34271],[-99.23334,19.34266],[-99.23332,19.342],[-99.23357,19.34192],[-99.23349,19.34257],[-99.23398,19.3428],[-99.23626,19.3421],[-99.23718,19.34243],[-99.23732,19.34181],[-99.23802,19.34191],[-99.23842,19.3414],[-99.23934,19.34184],[-99.23981,19.34092],[-99.23923,19.33979],[-99.24021,19.33926],[-99.24036,19.33972],[-99.24101,19.33927],[-99.24168,19.33996],[-99.24567,19.33961],[-99.24638,19.3389],[-99.24976,19.33928],[-99.25039,19.33859],[-99.25281,19.33805],[-99.25278,19.33727],[-99.25241,19.33733],[-99.25344,19.33677],[-99.25365,19.3359],[-99.25246,19.33626],[-99.25032,19.33775],[-99.2528,19.33561],[-99.25365,19.33561],[-99.25339,19.33531],[-99.25395,19.33487],[-99.25398,19.33547],[-99.25553,19.33488],[-99.25429,19.33541],[-99.25381,19.33689],[-99.25301,19.33711],[-99.25297,19.33812],[-99.25212,19.33865],[-99.24767,19.34026],[-99.24588,19.33986],[-99.24592,19.34016],[-99.24486,19.34062],[-99.24382,19.34032],[-99.24337,19.34082],[-99.2419,19.34068],[-99.24171,19.34109],[-99.24019,19.34117],[-99.24159,19.34147],[-99.23995,19.34226],[-99.24094,19.3439],[-99.23896,19.34493]]]]}},{"type":"Feature","properties":{"id":"dogal-lab-31","kind":"district-label","btype":"dogal","name":"Barranca Guadalupe"},"geometry":{"type":"Point","coordinates":[-99.23209,19.34341]}},{"type":"Feature","properties":{"id":"dogal-32","kind":"district","btype":"dogal","name":"Parque Recreativo Cuitláhuac","lab":1},"geometry":{"type":"MultiPolygon","coordinates":[[[[-99.04041,19.36651],[-99.04699,19.36896],[-99.04747,19.36838],[-99.04762,19.36565],[-99.04874,19.3624],[-99.04274,19.36126],[-99.04057,19.3614],[-99.04041,19.36651]]]]}},{"type":"Feature","properties":{"id":"dogal-lab-32","kind":"district-label","btype":"dogal","name":"Parque Recreativo Cuitláhuac"},"geometry":{"type":"Point","coordinates":[-99.04434,19.36469]}},{"type":"Feature","properties":{"id":"dogal-33","kind":"district","btype":"dogal","name":"Deportivo Hermanos Galeana","lab":1},"geometry":{"type":"MultiPolygon","coordinates":[[[[-99.07833,19.47362],[-99.07883,19.47411],[-99.07882,19.47546],[-99.07779,19.47597],[-99.07788,19.47814],[-99.0766,19.48091],[-99.07034,19.47451],[-99.07097,19.47209],[-99.07719,19.47316],[-99.07735,19.47383],[-99.07833,19.47362]]]]}},{"type":"Feature","properties":{"id":"dogal-lab-33","kind":"district-label","btype":"dogal","name":"Deportivo Hermanos Galeana"},"geometry":{"type":"Point","coordinates":[-99.07485,19.47565]}},{"type":"Feature","properties":{"id":"dogal-34","kind":"district","btype":"dogal","name":"Barranca Echánove","lab":1},"geometry":{"type":"MultiPolygon","coordinates":[[[[-99.26239,19.37684],[-99.26161,19.37581],[-99.26422,19.37539],[-99.2642,19.37478],[-99.26664,19.37437],[-99.26761,19.37338],[-99.26874,19.37358],[-99.2699,19.37328],[-99.27023,19.37212],[-99.2708,19.37184],[-99.2703,19.37107],[-99.27116,19.37113],[-99.27198,19.37005],[-99.2716,19.36897],[-99.27232,19.36827],[-99.27324,19.36883],[-99.27362,19.36794],[-99.27402,19.36846],[-99.27469,19.36762],[-99.27498,19.36775],[-99.27393,19.36964],[-99.2744,19.37024],[-99.27492,19.3697],[-99.2753,19.37011],[-99.27585,19.36986],[-99.27618,19.36934],[-99.27582,19.36879],[-99.2763,19.36861],[-99.27684,19.3665],[-99.27753,19.36633],[-99.27702,19.36733],[-99.27767,19.36733],[-99.27718,19.36914],[-99.27895,19.36772],[-99.27921,19.36801],[-99.27866,19.36881],[-99.27601,19.37009],[-99.27483,19.37158],[-99.27337,19.37237],[-99.27349,19.37268],[-99.27321,19.37251],[-99.27172,19.37344],[-99.27179,19.37401],[-99.2731,19.37471],[-99.27295,19.3751],[-99.27069,19.3756],[-99.27084,19.37504],[-99.27047,19.3744],[-99.26981,19.37426],[-99.26627,19.37548],[-99.26715,19.37575],[-99.26844,19.37522],[-99.26878,19.37546],[-99.26938,19.37476],[-99.26884,19.37578],[-99.26851,19.37548],[-99.2662,19.37622],[-99.26488,19.3758],[-99.26453,19.37638],[-99.26377,19.37623],[-99.26239,19.37684]]]]}},{"type":"Feature","properties":{"id":"dogal-lab-34","kind":"district-label","btype":"dogal","name":"Barranca Echánove"},"geometry":{"type":"Point","coordinates":[-99.27122,19.37222]}},{"type":"Feature","properties":{"id":"dogal-35","kind":"district","btype":"dogal","name":"Barranca Río Becerra Tepecuache","lab":1},"geometry":{"type":"MultiPolygon","coordinates":[[[[-99.24984,19.37157],[-99.24929,19.37063],[-99.25064,19.36926],[-99.25104,19.3697],[-99.25188,19.36921],[-99.25176,19.36875],[-99.25297,19.36755],[-99.25265,19.36727],[-99.25417,19.3657],[-99.25551,19.36586],[-99.25655,19.36537],[-99.25744,19.3644],[-99.25814,19.36443],[-99.25886,19.36398],[-99.25883,19.36357],[-99.25963,19.36344],[-99.26152,19.3616],[-99.26167,19.362],[-99.26087,19.3634],[-99.25874,19.36618],[-99.25624,19.36762],[-99.2546,19.36932],[-99.25362,19.37069],[-99.2529,19.37285],[-99.25023,19.37445],[-99.25097,19.37251],[-99.25056,19.37184],[-99.24984,19.37157]]]]}},{"type":"Feature","properties":{"id":"dogal-lab-35","kind":"district-label","btype":"dogal","name":"Barranca Río Becerra Tepecuache"},"geometry":{"type":"Point","coordinates":[-99.25448,19.36828]}},{"type":"Feature","properties":{"id":"dogal-36","kind":"district","btype":"dogal","name":"Vivero Coyoacán","lab":1},"geometry":{"type":"MultiPolygon","coordinates":[[[[-99.17264,19.35709],[-99.1773,19.35194],[-99.17446,19.35127],[-99.16974,19.35122],[-99.16799,19.3552],[-99.16901,19.35634],[-99.17264,19.35709]]]]}},{"type":"Feature","properties":{"id":"dogal-lab-36","kind":"district-label","btype":"dogal","name":"Vivero Coyoacán"},"geometry":{"type":"Point","coordinates":[-99.17214,19.3538]}},{"type":"Feature","properties":{"id":"dogal-37","kind":"district","btype":"dogal","name":"Parque Nacional El Histórico de Coyoacán","lab":1},"geometry":{"type":"MultiPolygon","coordinates":[[[[-99.17422,19.35125],[-99.17726,19.35195],[-99.17278,19.35682],[-99.16908,19.35642],[-99.16795,19.35516],[-99.16969,19.35121],[-99.1735,19.35126],[-99.17416,19.35183],[-99.17422,19.35125]]]]}},{"type":"Feature","properties":{"id":"dogal-lab-37","kind":"district-label","btype":"dogal","name":"Parque Nacional El Histórico de Coyoacán"},"geometry":{"type":"Point","coordinates":[-99.17207,19.35377]}},{"type":"Feature","properties":{"id":"dogal-38","kind":"district","btype":"dogal","name":"Alameda Poniente","lab":1},"geometry":{"type":"MultiPolygon","coordinates":[[[[-99.25288,19.37519],[-99.25401,19.3762],[-99.25707,19.3746],[-99.26062,19.37102],[-99.25883,19.36898],[-99.25751,19.36935],[-99.25659,19.36791],[-99.25624,19.3679],[-99.25504,19.36917],[-99.25558,19.36991],[-99.25522,19.37004],[-99.25533,19.37043],[-99.2549,19.37052],[-99.25459,19.36965],[-99.25459,19.37188],[-99.25417,19.37188],[-99.25367,19.37105],[-99.25343,19.37234],[-99.25415,19.37403],[-99.25288,19.37519]]]]}},{"type":"Feature","properties":{"id":"dogal-lab-38","kind":"district-label","btype":"dogal","name":"Alameda Poniente"},"geometry":{"type":"Point","coordinates":[-99.25651,19.372]}},{"type":"Feature","properties":{"id":"dogal-39","kind":"district","btype":"dogal","name":"Lomas de Padierna","lab":1},"geometry":{"type":"MultiPolygon","coordinates":[[[[-99.25185,19.32071],[-99.25249,19.32006],[-99.25494,19.32028],[-99.25563,19.31953],[-99.25599,19.3199],[-99.25617,19.31927],[-99.25684,19.3203],[-99.25443,19.32391],[-99.25322,19.32361],[-99.25284,19.32409],[-99.25199,19.32397],[-99.25065,19.32467],[-99.24985,19.32361],[-99.25029,19.32239],[-99.25018,19.32083],[-99.2479,19.32029],[-99.2474,19.31934],[-99.24794,19.31848],[-99.24946,19.31806],[-99.25185,19.32071]]]]}},{"type":"Feature","properties":{"id":"dogal-lab-39","kind":"district-label","btype":"dogal","name":"Lomas de Padierna"},"geometry":{"type":"Point","coordinates":[-99.25213,19.32139]}},{"type":"Feature","properties":{"id":"dogal-40","kind":"district","btype":"dogal","name":"Parque La Mexicana","lab":1},"geometry":{"type":"MultiPolygon","coordinates":[[[[-99.27485,19.35581],[-99.26786,19.36058],[-99.26682,19.36083],[-99.26734,19.35789],[-99.27079,19.3562],[-99.27149,19.35449],[-99.27063,19.35341],[-99.27321,19.35275],[-99.27536,19.35328],[-99.27602,19.3541],[-99.27593,19.35527],[-99.27531,19.35509],[-99.27485,19.35581]]]]}},{"type":"Feature","properties":{"id":"dogal-lab-40","kind":"district-label","btype":"dogal","name":"Parque La Mexicana"},"geometry":{"type":"Point","coordinates":[-99.27154,19.35632]}},{"type":"Feature","properties":{"id":"dogal-41","kind":"district","btype":"dogal","name":"Parque Tezozómoc","lab":1},"geometry":{"type":"MultiPolygon","coordinates":[[[[-99.21222,19.50225],[-99.21333,19.49855],[-99.20673,19.4967],[-99.20635,19.50049],[-99.21222,19.50225]]]]}},{"type":"Feature","properties":{"id":"dogal-lab-41","kind":"district-label","btype":"dogal","name":"Parque Tezozómoc"},"geometry":{"type":"Point","coordinates":[-99.20968,19.49947]}},{"type":"Feature","properties":{"id":"dogal-42","kind":"district","btype":"dogal","name":"Barranca Barrilaco","lab":1},"geometry":{"type":"MultiPolygon","coordinates":[[[[-99.21186,19.42808],[-99.21413,19.427],[-99.21468,19.42715],[-99.21472,19.42762],[-99.21576,19.42782],[-99.21685,19.4273],[-99.21741,19.42504],[-99.21882,19.4233],[-99.21915,19.42223],[-99.21899,19.41947],[-99.22073,19.41734],[-99.22152,19.4174],[-99.22271,19.41284],[-99.22449,19.41029],[-99.22579,19.4096],[-99.22621,19.4088],[-99.22661,19.40913],[-99.22382,19.4126],[-99.22257,19.4158],[-99.22555,19.41424],[-99.22825,19.41404],[-99.22816,19.41455],[-99.22386,19.41535],[-99.22235,19.41628],[-99.22254,19.41699],[-99.22381,19.41643],[-99.22396,19.41668],[-99.22291,19.41719],[-99.22263,19.41808],[-99.22014,19.41895],[-99.21999,19.41974],[-99.22058,19.42034],[-99.22017,19.42088],[-99.2211,19.42141],[-99.22077,19.42225],[-99.22023,19.42213],[-99.22004,19.42307],[-99.21842,19.4256],[-99.21804,19.42539],[-99.21779,19.42577],[-99.21818,19.42621],[-99.21761,19.42671],[-99.21788,19.42733],[-99.21703,19.42742],[-99.21667,19.42816],[-99.21421,19.4277],[-99.21186,19.42808]]]]}},{"type":"Feature","properties":{"id":"dogal-lab-42","kind":"district-label","btype":"dogal","name":"Barranca Barrilaco"},"geometry":{"type":"Point","coordinates":[-99.22111,19.41884]}},{"type":"Feature","properties":{"id":"dogal-43","kind":"district","btype":"dogal","name":"Parque deportiva CET 1","lab":1},"geometry":{"type":"MultiPolygon","coordinates":[[[[-98.99639,19.28969],[-98.99565,19.29365],[-98.98965,19.29273],[-98.99015,19.2888],[-98.99639,19.28969]]]]}},{"type":"Feature","properties":{"id":"dogal-lab-43","kind":"district-label","btype":"dogal","name":"Parque deportiva CET 1"},"geometry":{"type":"Point","coordinates":[-98.99297,19.2912]}},{"type":"Feature","properties":{"id":"dogal-44","kind":"district","btype":"dogal","name":"Barranca la Diferencia","lab":1},"geometry":{"type":"MultiPolygon","coordinates":[[[[-99.25999,19.39774],[-99.25931,19.39734],[-99.25938,19.39676],[-99.26022,19.39588],[-99.2606,19.39623],[-99.2608,19.39595],[-99.26021,19.39538],[-99.26059,19.39378],[-99.26,19.39137],[-99.26024,19.39034],[-99.26078,19.38978],[-99.26128,19.39054],[-99.2614,19.38984],[-99.26306,19.3891],[-99.26281,19.38886],[-99.26399,19.38794],[-99.264,19.38663],[-99.26433,19.386],[-99.26421,19.3874],[-99.26516,19.38773],[-99.26461,19.3886],[-99.26488,19.38914],[-99.26422,19.38902],[-99.2643,19.38994],[-99.26343,19.38997],[-99.26363,19.39022],[-99.26321,19.39058],[-99.26384,19.3912],[-99.26178,19.39118],[-99.2614,19.39207],[-99.26152,19.39289],[-99.26213,19.39205],[-99.26484,19.39134],[-99.26451,19.39165],[-99.26471,19.39229],[-99.26408,19.39208],[-99.26287,19.3931],[-99.2626,19.39293],[-99.26253,19.39348],[-99.26206,19.39371],[-99.26273,19.39381],[-99.26319,19.39438],[-99.26422,19.39337],[-99.26445,19.39342],[-99.26442,19.39438],[-99.25999,19.39774]]]]}},{"type":"Feature","properties":{"id":"dogal-lab-44","kind":"district-label","btype":"dogal","name":"Barranca la Diferencia"},"geometry":{"type":"Point","coordinates":[-99.26211,19.39264]}},{"type":"Feature","properties":{"id":"dogal-45","kind":"district","btype":"dogal","name":"Deportivo Xochimilco","lab":1},"geometry":{"type":"MultiPolygon","coordinates":[[[[-99.11353,19.25524],[-99.11321,19.25433],[-99.10616,19.25213],[-99.10545,19.25536],[-99.11082,19.25718],[-99.11353,19.25524]]]]}},{"type":"Feature","properties":{"id":"dogal-lab-45","kind":"district-label","btype":"dogal","name":"Deportivo Xochimilco"},"geometry":{"type":"Point","coordinates":[-99.1092,19.25475]}},{"type":"Feature","properties":{"id":"dogal-46","kind":"district","btype":"dogal","name":"Parque Ecologico Ehécatl","lab":1},"geometry":{"type":"MultiPolygon","coordinates":[[[[-99.05225,19.59667],[-99.05462,19.59728],[-99.05513,19.59501],[-99.05838,19.59562],[-99.05886,19.5923],[-99.05653,19.59115],[-99.0571,19.59053],[-99.05678,19.59022],[-99.05394,19.59158],[-99.05392,19.59317],[-99.05225,19.59667]]]]}},{"type":"Feature","properties":{"id":"dogal-lab-46","kind":"district-label","btype":"dogal","name":"Parque Ecologico Ehécatl"},"geometry":{"type":"Point","coordinates":[-99.05572,19.59376]}},{"type":"Feature","properties":{"id":"dogal-47","kind":"district","btype":"dogal","name":"Barranca Santa Rita","lab":1},"geometry":{"type":"MultiPolygon","coordinates":[[[[-99.29206,19.37846],[-99.28939,19.38114],[-99.28751,19.38225],[-99.28692,19.38416],[-99.28721,19.38524],[-99.28823,19.38573],[-99.28781,19.38582],[-99.2878,19.38636],[-99.28705,19.38594],[-99.28654,19.38616],[-99.28581,19.38788],[-99.2861,19.3881],[-99.28486,19.38989],[-99.28527,19.38993],[-99.28473,19.39112],[-99.28487,19.39218],[-99.28434,19.39291],[-99.28468,19.39181],[-99.28427,19.39157],[-99.28468,19.39065],[-99.28434,19.39043],[-99.28431,19.38901],[-99.28499,19.38854],[-99.28506,19.38779],[-99.28568,19.38762],[-99.28606,19.38374],[-99.28676,19.38206],[-99.28612,19.38181],[-99.28694,19.38102],[-99.28695,19.38158],[-99.28735,19.38166],[-99.28847,19.38121],[-99.28891,19.37939],[-99.28808,19.37886],[-99.28972,19.37907],[-99.28994,19.37848],[-99.28968,19.37818],[-99.29,19.37766],[-99.28956,19.37697],[-99.28999,19.37552],[-99.28923,19.3751],[-99.28924,19.37391],[-99.28999,19.37099],[-99.29061,19.37061],[-99.29015,19.37313],[-99.2903,19.37451],[-99.29096,19.37521],[-99.29048,19.3757],[-99.29016,19.37822],[-99.29171,19.37747],[-99.2934,19.3779],[-99.29293,19.37855],[-99.29206,19.37846]]]]}},{"type":"Feature","properties":{"id":"dogal-lab-47","kind":"district-label","btype":"dogal","name":"Barranca Santa Rita"},"geometry":{"type":"Point","coordinates":[-99.2885,19.38092]}},{"type":"Feature","properties":{"id":"dogal-48","kind":"district","btype":"dogal","name":"El Nido de Quetzalcóatl","lab":1},"geometry":{"type":"MultiPolygon","coordinates":[[[[-99.27827,19.47943],[-99.27823,19.47983],[-99.27786,19.4798],[-99.27815,19.48046],[-99.27902,19.48002],[-99.27983,19.48005],[-99.27996,19.48051],[-99.28135,19.48],[-99.28072,19.48124],[-99.28129,19.48158],[-99.28151,19.48266],[-99.28279,19.48155],[-99.28213,19.48086],[-99.28347,19.47976],[-99.28396,19.48028],[-99.28495,19.4796],[-99.28701,19.47629],[-99.28642,19.47577],[-99.28115,19.47817],[-99.27944,19.47818],[-99.27942,19.47885],[-99.27827,19.47943]]]]}},{"type":"Feature","properties":{"id":"dogal-lab-48","kind":"district-label","btype":"dogal","name":"El Nido de Quetzalcóatl"},"geometry":{"type":"Point","coordinates":[-99.28272,19.47889]}},{"type":"Feature","properties":{"id":"dogal-49","kind":"district","btype":"dogal","name":"Parque Prados de la Montaña","lab":1},"geometry":{"type":"MultiPolygon","coordinates":[[[[-99.26597,19.36213],[-99.26521,19.36268],[-99.26316,19.36207],[-99.26144,19.36099],[-99.26046,19.35668],[-99.26291,19.35628],[-99.2639,19.35788],[-99.26491,19.35854],[-99.26597,19.36213]]]]}},{"type":"Feature","properties":{"id":"dogal-lab-49","kind":"district-label","btype":"dogal","name":"Parque Prados de la Montaña"},"geometry":{"type":"Point","coordinates":[-99.26314,19.35952]}},{"type":"Feature","properties":{"id":"dogal-50","kind":"district","btype":"dogal","name":"Barranca Milpa Vieja","lab":1},"geometry":{"type":"MultiPolygon","coordinates":[[[[-99.26604,19.39306],[-99.26521,19.39073],[-99.26601,19.38572],[-99.26648,19.38564],[-99.26697,19.3844],[-99.26689,19.38385],[-99.26656,19.38384],[-99.26719,19.38347],[-99.26748,19.38515],[-99.26891,19.38417],[-99.26869,19.38368],[-99.27,19.38079],[-99.27115,19.37933],[-99.27133,19.38004],[-99.27075,19.3804],[-99.2708,19.38229],[-99.27041,19.38284],[-99.27084,19.38368],[-99.26927,19.38394],[-99.26948,19.38478],[-99.26883,19.38461],[-99.26874,19.38528],[-99.26812,19.38527],[-99.26864,19.38618],[-99.26824,19.38626],[-99.26823,19.38673],[-99.26734,19.38682],[-99.2678,19.38738],[-99.26719,19.38822],[-99.26725,19.3892],[-99.26803,19.38911],[-99.2681,19.38954],[-99.26783,19.38948],[-99.26791,19.39004],[-99.26705,19.39042],[-99.26782,19.39159],[-99.26604,19.39306]]]]}},{"type":"Feature","properties":{"id":"dogal-lab-50","kind":"district-label","btype":"dogal","name":"Barranca Milpa Vieja"},"geometry":{"type":"Point","coordinates":[-99.26756,19.38697]}},{"type":"Feature","properties":{"id":"dogal-51","kind":"district","btype":"dogal","name":"Barranca San Borja","lab":1},"geometry":{"type":"MultiPolygon","coordinates":[[[[-99.20946,19.38],[-99.2118,19.37826],[-99.21364,19.37735],[-99.21463,19.37624],[-99.21681,19.37561],[-99.21669,19.37399],[-99.21713,19.37452],[-99.21708,19.37537],[-99.21827,19.37514],[-99.21775,19.37424],[-99.21789,19.37327],[-99.21823,19.37319],[-99.21866,19.37467],[-99.21978,19.37439],[-99.21935,19.37278],[-99.21968,19.3719],[-99.22007,19.37259],[-99.22004,19.37414],[-99.22071,19.37383],[-99.22093,19.37315],[-99.22208,19.37293],[-99.22419,19.37145],[-99.22511,19.37053],[-99.22465,19.36988],[-99.22678,19.36857],[-99.23131,19.36759],[-99.23255,19.36899],[-99.23233,19.3692],[-99.23196,19.36863],[-99.23117,19.36863],[-99.23002,19.36901],[-99.23003,19.36962],[-99.22892,19.36955],[-99.22891,19.37002],[-99.22842,19.37002],[-99.22839,19.3695],[-99.22701,19.36974],[-99.22387,19.3721],[-99.22378,19.37262],[-99.2227,19.37313],[-99.22273,19.37351],[-99.22168,19.37352],[-99.22254,19.37507],[-99.2211,19.37405],[-99.21975,19.37486],[-99.22028,19.37545],[-99.21861,19.37537],[-99.21898,19.37677],[-99.21836,19.37598],[-99.21834,19.37528],[-99.21731,19.3755],[-99.21556,19.37619],[-99.20946,19.38]]]]}},{"type":"Feature","properties":{"id":"dogal-lab-51","kind":"district-label","btype":"dogal","name":"Barranca San Borja"},"geometry":{"type":"Point","coordinates":[-99.22373,19.37177]}},{"type":"Feature","properties":{"id":"dogal-52","kind":"district","btype":"dogal","name":"Parque Nacional Fuentes Brotantes de Tlalpan","lab":1},"geometry":{"type":"MultiPolygon","coordinates":[[[[-99.17408,19.28978],[-99.17458,19.28856],[-99.17632,19.28788],[-99.17804,19.28561],[-99.17977,19.28523],[-99.18062,19.28409],[-99.18073,19.28308],[-99.18194,19.28223],[-99.18305,19.28262],[-99.18422,19.2813],[-99.1837,19.2838],[-99.18254,19.28388],[-99.1799,19.28683],[-99.17828,19.2874],[-99.17712,19.2893],[-99.17608,19.28931],[-99.17472,19.29004],[-99.17408,19.28978]]]]}},{"type":"Feature","properties":{"id":"dogal-lab-52","kind":"district-label","btype":"dogal","name":"Parque Nacional Fuentes Brotantes de Tlalpan"},"geometry":{"type":"Point","coordinates":[-99.17928,19.28595]}},{"type":"Feature","properties":{"id":"dogal-53","kind":"district","btype":"dogal","name":"Barranca Del Moral","lab":1},"geometry":{"type":"MultiPolygon","coordinates":[[[[-99.24233,19.33732],[-99.23778,19.33521],[-99.23751,19.33455],[-99.23663,19.3342],[-99.2374,19.33396],[-99.24062,19.33505],[-99.24062,19.33574],[-99.24132,19.33631],[-99.24206,19.33631],[-99.2422,19.33674],[-99.24859,19.3344],[-99.25017,19.33293],[-99.25077,19.33172],[-99.25268,19.33056],[-99.25401,19.33048],[-99.25123,19.33162],[-99.24973,19.33357],[-99.254,19.33165],[-99.25563,19.3295],[-99.25611,19.33003],[-99.25697,19.32949],[-99.25756,19.33027],[-99.25873,19.33073],[-99.25856,19.33125],[-99.25741,19.33111],[-99.25681,19.33159],[-99.25549,19.33085],[-99.25337,19.33285],[-99.25049,19.33442],[-99.25038,19.33419],[-99.24608,19.33565],[-99.24233,19.33732]]]]}},{"type":"Feature","properties":{"id":"dogal-lab-53","kind":"district-label","btype":"dogal","name":"Barranca Del Moral"},"geometry":{"type":"Point","coordinates":[-99.24858,19.33346]}},{"type":"Feature","properties":{"id":"dogal-54","kind":"district","btype":"dogal","name":"Zona de Protección Hidrológica y Ecológica Los Encinos","lab":1},"geometry":{"type":"MultiPolygon","coordinates":[[[[-99.21338,19.30269],[-99.2155,19.30292],[-99.21573,19.30225],[-99.21676,19.29876],[-99.21639,19.29865],[-99.21666,19.29718],[-99.21849,19.29738],[-99.2192,19.29536],[-99.2196,19.29566],[-99.21758,19.3034],[-99.21683,19.30317],[-99.21611,19.30465],[-99.21539,19.30442],[-99.21465,19.30499],[-99.21422,19.30485],[-99.21477,19.30385],[-99.21437,19.30372],[-99.21457,19.3031],[-99.21338,19.30269]]]]}},{"type":"Feature","properties":{"id":"dogal-lab-54","kind":"district-label","btype":"dogal","name":"Zona de Protección Hidrológica y Ecológica Los Encinos"},"geometry":{"type":"Point","coordinates":[-99.21704,19.30066]}},{"type":"Feature","properties":{"id":"dogal-55","kind":"district","btype":"dogal","name":"Barranca Pachuquilla","lab":1},"geometry":{"type":"MultiPolygon","coordinates":[[[[-99.28338,19.3482],[-99.28551,19.34795],[-99.28805,19.34612],[-99.2913,19.34484],[-99.29307,19.34479],[-99.2977,19.34353],[-99.29763,19.3439],[-99.29624,19.34449],[-99.2969,19.34617],[-99.29633,19.34636],[-99.29557,19.34529],[-99.29317,19.34581],[-99.2922,19.34558],[-99.28932,19.34682],[-99.2898,19.34735],[-99.28833,19.34789],[-99.28717,19.34886],[-99.28584,19.34855],[-99.28402,19.34899],[-99.28338,19.3482]]]]}},{"type":"Feature","properties":{"id":"dogal-lab-55","kind":"district-label","btype":"dogal","name":"Barranca Pachuquilla"},"geometry":{"type":"Point","coordinates":[-99.29049,19.34632]}},{"type":"Feature","properties":{"id":"dogal-56","kind":"district","btype":"dogal","name":"Bosque de Nativitas","lab":1},"geometry":{"type":"MultiPolygon","coordinates":[[[[-99.09933,19.25106],[-99.10311,19.24718],[-99.10232,19.24623],[-99.10138,19.24736],[-99.09875,19.24849],[-99.09508,19.2481],[-99.09472,19.24999],[-99.09933,19.25106]]]]}},{"type":"Feature","properties":{"id":"dogal-lab-56","kind":"district-label","btype":"dogal","name":"Bosque de Nativitas"},"geometry":{"type":"Point","coordinates":[-99.09871,19.24905]}},{"type":"Feature","properties":{"id":"dogal-57","kind":"district","btype":"dogal","name":"Parque de los Ciervos","lab":1},"geometry":{"type":"MultiPolygon","coordinates":[[[[-99.28959,19.57177],[-99.28694,19.57489],[-99.28618,19.57522],[-99.285,19.57445],[-99.28684,19.57035],[-99.28876,19.57071],[-99.29065,19.56992],[-99.29114,19.57099],[-99.28959,19.57177]]]]}},{"type":"Feature","properties":{"id":"dogal-lab-57","kind":"district-label","btype":"dogal","name":"Parque de los Ciervos"},"geometry":{"type":"Point","coordinates":[-99.28766,19.57237]}},{"type":"Feature","properties":{"id":"dogal-58","kind":"district","btype":"dogal","name":"Alameda Norte","lab":1},"geometry":{"type":"MultiPolygon","coordinates":[[[[-99.17921,19.5025],[-99.17602,19.50093],[-99.17654,19.5009],[-99.17784,19.49685],[-99.18087,19.49771],[-99.17921,19.5025]]]]}},{"type":"Feature","properties":{"id":"dogal-lab-58","kind":"district-label","btype":"dogal","name":"Alameda Norte"},"geometry":{"type":"Point","coordinates":[-99.17862,19.49955]}},{"type":"Feature","properties":{"id":"dogal-59","kind":"district","btype":"dogal","name":"Parque Ecológico Huayamilpas","lab":1},"geometry":{"type":"MultiPolygon","coordinates":[[[[-99.1493,19.32713],[-99.14827,19.32657],[-99.14787,19.32414],[-99.14942,19.32194],[-99.15275,19.32366],[-99.15094,19.32553],[-99.15142,19.32584],[-99.15095,19.32689],[-99.14979,19.32634],[-99.1493,19.32713]]]]}},{"type":"Feature","properties":{"id":"dogal-lab-59","kind":"district-label","btype":"dogal","name":"Parque Ecológico Huayamilpas"},"geometry":{"type":"Point","coordinates":[-99.14993,19.32454]}},{"type":"Feature","properties":{"id":"dogal-60","kind":"district","btype":"dogal","name":"Ecológico \"Japón\"","lab":1},"geometry":{"type":"MultiPolygon","coordinates":[[[[-99.20704,19.35443],[-99.2079,19.3541],[-99.20974,19.3544],[-99.21151,19.35418],[-99.21219,19.35449],[-99.21436,19.35705],[-99.21544,19.35533],[-99.21375,19.35462],[-99.21292,19.35349],[-99.20742,19.3519],[-99.20704,19.35443]]]]}},{"type":"Feature","properties":{"id":"dogal-lab-60","kind":"district-label","btype":"dogal","name":"Ecológico \"Japón\""},"geometry":{"type":"Point","coordinates":[-99.21097,19.35404]}},{"type":"Feature","properties":{"id":"dogal-61","kind":"district","btype":"dogal","name":"Xochimilco Ecological Park","lab":1},"geometry":{"type":"MultiPolygon","coordinates":[[[[-99.10184,19.28638],[-99.10137,19.29198],[-99.10169,19.29344],[-99.10119,19.29488],[-99.0947,19.29732],[-99.09448,19.29705],[-99.09128,19.29906],[-99.08836,19.30219],[-99.08684,19.30037],[-99.09251,19.29086],[-99.09026,19.28964],[-99.09025,19.28874],[-99.09227,19.28524],[-99.10184,19.28638]]]]}},{"type":"Feature","properties":{"id":"dogal-lab-61","kind":"district-label","btype":"dogal","name":"Xochimilco Ecological Park"},"geometry":{"type":"Point","coordinates":[-99.0951,19.29225]}}]}