{"type":"FeatureCollection","features":[{"type":"Feature","properties":{"id":"ticari-0","kind":"district","btype":"ticari","name":"Central de Abasto de la Ciudad de México","lab":1},"geometry":{"type":"MultiPolygon","coordinates":[[[[-99.09471,19.37918],[-99.08702,19.37903],[-99.08699,19.37826],[-99.08646,19.37824],[-99.08649,19.37913],[-99.08254,19.37888],[-99.08176,19.37791],[-99.08182,19.37459],[-99.08237,19.3746],[-99.08237,19.37427],[-99.08191,19.37405],[-99.08178,19.37204],[-99.08287,19.37141],[-99.0855,19.36819],[-99.0868,19.36706],[-99.09672,19.3674],[-99.09657,19.37178],[-99.0974,19.37209],[-99.09965,19.37214],[-99.09853,19.37419],[-99.09782,19.37449],[-99.09757,19.37542],[-99.09696,19.37511],[-99.09702,19.37619],[-99.09673,19.37618],[-99.09645,19.37505],[-99.09487,19.37493],[-99.09471,19.37918]]]]}},{"type":"Feature","properties":{"id":"ticari-lab-0","kind":"district-label","btype":"ticari","name":"Central de Abasto de la Ciudad de México"},"geometry":{"type":"Point","coordinates":[-99.08976,19.37326]}},{"type":"Feature","properties":{"id":"ticari-1","kind":"district","btype":"ticari","name":"Las Margaritas","lab":1},"geometry":{"type":"MultiPolygon","coordinates":[[[[-99.27461,19.54446],[-99.27542,19.54542],[-99.2768,19.54619],[-99.27885,19.54667],[-99.28108,19.54832],[-99.2749,19.55316],[-99.27369,19.5538],[-99.27084,19.55316],[-99.27018,19.55344],[-99.2692,19.55078],[-99.26987,19.54968],[-99.2703,19.54756],[-99.26952,19.54576],[-99.26942,19.54459],[-99.27211,19.54512],[-99.27261,19.54457],[-99.27461,19.54446]]]]}},{"type":"Feature","properties":{"id":"ticari-lab-1","kind":"district-label","btype":"ticari","name":"Las Margaritas"},"geometry":{"type":"Point","coordinates":[-99.27408,19.54898]}},{"type":"Feature","properties":{"id":"ticari-2","kind":"district","btype":"ticari","name":"Centro Comercial Perisur","lab":1},"geometry":{"type":"MultiPolygon","coordinates":[[[[-99.18643,19.30453],[-99.18807,19.30292],[-99.19204,19.30248],[-99.19286,19.30312],[-99.19325,19.30574],[-99.18646,19.30539],[-99.18643,19.30453]]]]}},{"type":"Feature","properties":{"id":"ticari-lab-2","kind":"district-label","btype":"ticari","name":"Centro Comercial Perisur"},"geometry":{"type":"Point","coordinates":[-99.19009,19.30423]}},{"type":"Feature","properties":{"id":"ticari-3","kind":"district","btype":"ticari","name":"Mundo E","lab":1},"geometry":{"type":"MultiPolygon","coordinates":[[[[-99.23112,19.52451],[-99.23044,19.5271],[-99.22998,19.52697],[-99.22939,19.52803],[-99.22713,19.52763],[-99.22616,19.52505],[-99.22775,19.52326],[-99.23112,19.52451]]]]}},{"type":"Feature","properties":{"id":"ticari-lab-3","kind":"district-label","btype":"ticari","name":"Mundo E"},"geometry":{"type":"Point","coordinates":[-99.22859,19.52566]}},{"type":"Feature","properties":{"id":"ticari-4","kind":"district","btype":"ticari","name":"Mercado La Nueva Viga","lab":1},"geometry":{"type":"MultiPolygon","coordinates":[[[[-99.09965,19.37214],[-99.10103,19.36913],[-99.10039,19.36855],[-99.09672,19.3674],[-99.09657,19.37178],[-99.0974,19.37209],[-99.09965,19.37214]]]]}},{"type":"Feature","properties":{"id":"ticari-lab-4","kind":"district-label","btype":"ticari","name":"Mercado La Nueva Viga"},"geometry":{"type":"Point","coordinates":[-99.09847,19.36994]}},{"type":"Feature","properties":{"id":"ticari-5","kind":"district","btype":"ticari","name":"Multiplaza Aragón","lab":1},"geometry":{"type":"MultiPolygon","coordinates":[[[[-99.02447,19.53197],[-99.02615,19.52814],[-99.02916,19.52945],[-99.02761,19.53306],[-99.02447,19.53197]]]]}},{"type":"Feature","properties":{"id":"ticari-lab-5","kind":"district-label","btype":"ticari","name":"Multiplaza Aragón"},"geometry":{"type":"Point","coordinates":[-99.02683,19.53065]}},{"type":"Feature","properties":{"id":"ticari-6","kind":"district","btype":"ticari","name":"Fashion Mall Las Américas","lab":1},"geometry":{"type":"MultiPolygon","coordinates":[[[[-99.02416,19.58106],[-99.02276,19.58136],[-99.02146,19.5836],[-99.02219,19.58536],[-99.02388,19.58651],[-99.02423,19.5864],[-99.02542,19.58416],[-99.02416,19.58106]]]]}},{"type":"Feature","properties":{"id":"ticari-lab-6","kind":"district-label","btype":"ticari","name":"Fashion Mall Las Américas"},"geometry":{"type":"Point","coordinates":[-99.02348,19.58376]}},{"type":"Feature","properties":{"id":"ticari-7","kind":"district","btype":"ticari","name":"Pabellón Río de los Remedios","lab":1},"geometry":{"type":"MultiPolygon","coordinates":[[[[-99.11434,19.52114],[-99.12063,19.51979],[-99.11935,19.5171],[-99.11459,19.51979],[-99.11434,19.52114]]]]}},{"type":"Feature","properties":{"id":"ticari-lab-7","kind":"district-label","btype":"ticari","name":"Pabellón Río de los Remedios"},"geometry":{"type":"Point","coordinates":[-99.11763,19.51934]}},{"type":"Feature","properties":{"id":"ticari-8","kind":"district","btype":"ticari","name":"Plaza Satelite","lab":1},"geometry":{"type":"MultiPolygon","coordinates":[[[[-99.23643,19.50831],[-99.23571,19.51097],[-99.2346,19.51283],[-99.23163,19.51178],[-99.2331,19.50979],[-99.23356,19.50795],[-99.23514,19.50849],[-99.23643,19.50831]]]]}},{"type":"Feature","properties":{"id":"ticari-lab-8","kind":"district-label","btype":"ticari","name":"Plaza Satelite"},"geometry":{"type":"Point","coordinates":[-99.23422,19.51041]}},{"type":"Feature","properties":{"id":"ticari-9","kind":"district","btype":"ticari","name":"Ártes Gráficas","lab":1},"geometry":{"type":"MultiPolygon","coordinates":[[[[-99.1245,19.4135],[-99.12432,19.40912],[-99.1267,19.40909],[-99.12774,19.41337],[-99.1245,19.4135]]]]}},{"type":"Feature","properties":{"id":"ticari-lab-9","kind":"district-label","btype":"ticari","name":"Ártes Gráficas"},"geometry":{"type":"Point","coordinates":[-99.12583,19.41138]}},{"type":"Feature","properties":{"id":"ticari-10","kind":"district","btype":"ticari","name":"TecnoParque","lab":1},"geometry":{"type":"MultiPolygon","coordinates":[[[[-99.1808,19.50326],[-99.17985,19.50626],[-99.17724,19.50549],[-99.17612,19.50259],[-99.17687,19.50188],[-99.1808,19.50326]]]]}},{"type":"Feature","properties":{"id":"ticari-lab-10","kind":"district-label","btype":"ticari","name":"TecnoParque"},"geometry":{"type":"Point","coordinates":[-99.17846,19.50401]}},{"type":"Feature","properties":{"id":"ticari-11","kind":"district","btype":"ticari","name":"Plaza San Jerónimo","lab":1},"geometry":{"type":"MultiPolygon","coordinates":[[[[-99.21244,19.32685],[-99.21247,19.32594],[-99.21204,19.32614],[-99.21121,19.32563],[-99.2087,19.32927],[-99.20755,19.33199],[-99.21011,19.33111],[-99.21244,19.32685]]]]}},{"type":"Feature","properties":{"id":"ticari-lab-11","kind":"district-label","btype":"ticari","name":"Plaza San Jerónimo"},"geometry":{"type":"Point","coordinates":[-99.21019,19.32884]}},{"type":"Feature","properties":{"id":"ticari-12","kind":"district","btype":"ticari","name":"La Cuspide Sky Mall","lab":1},"geometry":{"type":"MultiPolygon","coordinates":[[[[-99.26946,19.5163],[-99.2679,19.51678],[-99.26607,19.51588],[-99.26556,19.51465],[-99.26552,19.51315],[-99.26583,19.51254],[-99.26732,19.51206],[-99.26946,19.5163]]]]}},{"type":"Feature","properties":{"id":"ticari-lab-12","kind":"district-label","btype":"ticari","name":"La Cuspide Sky Mall"},"geometry":{"type":"Point","coordinates":[-99.26721,19.51457]}},{"type":"Feature","properties":{"id":"ticari-13","kind":"district","btype":"ticari","name":"Plaza Tepeyac","lab":1},"geometry":{"type":"MultiPolygon","coordinates":[[[[-99.12151,19.47311],[-99.12215,19.47148],[-99.12102,19.47106],[-99.11608,19.46935],[-99.11505,19.47081],[-99.12151,19.47311]]]]}},{"type":"Feature","properties":{"id":"ticari-lab-13","kind":"district-label","btype":"ticari","name":"Plaza Tepeyac"},"geometry":{"type":"Point","coordinates":[-99.11871,19.4712]}},{"type":"Feature","properties":{"id":"ticari-14","kind":"district","btype":"ticari","name":"Parque Las Antenas","lab":1},"geometry":{"type":"MultiPolygon","coordinates":[[[[-99.07823,19.31437],[-99.077,19.31576],[-99.07676,19.31558],[-99.07656,19.31629],[-99.07463,19.31526],[-99.07525,19.31449],[-99.07368,19.31335],[-99.07484,19.31192],[-99.07823,19.31437]]]]}},{"type":"Feature","properties":{"id":"ticari-lab-14","kind":"district-label","btype":"ticari","name":"Parque Las Antenas"},"geometry":{"type":"Point","coordinates":[-99.0759,19.31413]}},{"type":"Feature","properties":{"id":"ticari-15","kind":"district","btype":"ticari","name":"GNP Seguros","lab":1},"geometry":{"type":"MultiPolygon","coordinates":[[[[-99.12826,19.34619],[-99.13008,19.34634],[-99.12994,19.3515],[-99.12814,19.35059],[-99.12826,19.34619]]]]}},{"type":"Feature","properties":{"id":"ticari-lab-15","kind":"district-label","btype":"ticari","name":"GNP Seguros"},"geometry":{"type":"Point","coordinates":[-99.12913,19.34866]}},{"type":"Feature","properties":{"id":"ticari-16","kind":"district","btype":"ticari","name":"Pabellon Cuemanco","lab":1},"geometry":{"type":"MultiPolygon","coordinates":[[[[-99.10807,19.29585],[-99.10661,19.29558],[-99.10626,19.29361],[-99.11028,19.29436],[-99.10985,19.29698],[-99.10796,19.29662],[-99.10807,19.29585]]]]}},{"type":"Feature","properties":{"id":"ticari-lab-16","kind":"district-label","btype":"ticari","name":"Pabellon Cuemanco"},"geometry":{"type":"Point","coordinates":[-99.1084,19.29518]}},{"type":"Feature","properties":{"id":"ticari-17","kind":"district","btype":"ticari","name":"CORENA","lab":1},"geometry":{"type":"MultiPolygon","coordinates":[[[[-99.02839,19.26241],[-99.02684,19.26585],[-99.02503,19.26509],[-99.02572,19.26277],[-99.02545,19.26222],[-99.02672,19.26196],[-99.02739,19.25986],[-99.0269,19.2621],[-99.02839,19.26241]]]]}},{"type":"Feature","properties":{"id":"ticari-lab-17","kind":"district-label","btype":"ticari","name":"CORENA"},"geometry":{"type":"Point","coordinates":[-99.0266,19.26368]}},{"type":"Feature","properties":{"id":"ticari-18","kind":"district","btype":"ticari","name":"Power Center Las Américas","lab":1},"geometry":{"type":"MultiPolygon","coordinates":[[[[-99.02152,19.58323],[-99.02253,19.5814],[-99.0232,19.58093],[-99.024,19.58093],[-99.02365,19.58006],[-99.02247,19.57941],[-99.01979,19.58077],[-99.01982,19.58131],[-99.02152,19.58323]]]]}},{"type":"Feature","properties":{"id":"ticari-lab-18","kind":"district-label","btype":"ticari","name":"Power Center Las Américas"},"geometry":{"type":"Point","coordinates":[-99.02173,19.58104]}},{"type":"Feature","properties":{"id":"ticari-19","kind":"district","btype":"ticari","name":"Mega Comercial Mexicana San Mateo","lab":1},"geometry":{"type":"MultiPolygon","coordinates":[[[[-99.25045,19.4846],[-99.25096,19.48159],[-99.24916,19.4803],[-99.24773,19.48066],[-99.24992,19.48491],[-99.25045,19.4846]]]]}},{"type":"Feature","properties":{"id":"ticari-lab-19","kind":"district-label","btype":"ticari","name":"Mega Comercial Mexicana San Mateo"},"geometry":{"type":"Point","coordinates":[-99.24958,19.48226]}},{"type":"Feature","properties":{"id":"ticari-20","kind":"district","btype":"ticari","name":"Paseo Interlomas","lab":1},"geometry":{"type":"MultiPolygon","coordinates":[[[[-99.28423,19.39948],[-99.28317,19.39995],[-99.28165,19.39766],[-99.28075,19.39758],[-99.2812,19.39626],[-99.2821,19.39632],[-99.28524,19.39834],[-99.28423,19.39948]]]]}},{"type":"Feature","properties":{"id":"ticari-lab-20","kind":"district-label","btype":"ticari","name":"Paseo Interlomas"},"geometry":{"type":"Point","coordinates":[-99.28297,19.39801]}},{"type":"Feature","properties":{"id":"ticari-21","kind":"district","btype":"ticari","name":"Plaza Central","lab":1},"geometry":{"type":"MultiPolygon","coordinates":[[[[-99.09471,19.37918],[-99.09487,19.37493],[-99.09631,19.37498],[-99.09672,19.37575],[-99.0967,19.37701],[-99.09582,19.37875],[-99.09471,19.37918]]]]}},{"type":"Feature","properties":{"id":"ticari-lab-21","kind":"district-label","btype":"ticari","name":"Plaza Central"},"geometry":{"type":"Point","coordinates":[-99.09563,19.37684]}},{"type":"Feature","properties":{"id":"ticari-22","kind":"district","btype":"ticari","name":"Pabellón Ecatepec","lab":1},"geometry":{"type":"MultiPolygon","coordinates":[[[[-99.05453,19.55572],[-99.05112,19.55416],[-99.05185,19.55249],[-99.05531,19.55452],[-99.05453,19.55572]]]]}},{"type":"Feature","properties":{"id":"ticari-lab-22","kind":"district-label","btype":"ticari","name":"Pabellón Ecatepec"},"geometry":{"type":"Point","coordinates":[-99.05314,19.55418]}},{"type":"Feature","properties":{"id":"ticari-23","kind":"district","btype":"ticari","name":"GlaxoSmithKline","lab":1},"geometry":{"type":"MultiPolygon","coordinates":[[[[-99.14384,19.28645],[-99.14206,19.2881],[-99.14532,19.28952],[-99.14626,19.28849],[-99.14384,19.28645]]]]}},{"type":"Feature","properties":{"id":"ticari-lab-23","kind":"district-label","btype":"ticari","name":"GlaxoSmithKline"},"geometry":{"type":"Point","coordinates":[-99.14424,19.28807]}},{"type":"Feature","properties":{"id":"ticari-24","kind":"district","btype":"ticari","name":"Espacio Esmeralda","lab":1},"geometry":{"type":"MultiPolygon","coordinates":[[[[-99.29483,19.55465],[-99.29383,19.55472],[-99.28946,19.55361],[-99.28941,19.55285],[-99.28983,19.55284],[-99.28977,19.55174],[-99.29483,19.55465]]]]}},{"type":"Feature","properties":{"id":"ticari-lab-24","kind":"district-label","btype":"ticari","name":"Espacio Esmeralda"},"geometry":{"type":"Point","coordinates":[-99.29153,19.55347]}},{"type":"Feature","properties":{"id":"ticari-25","kind":"district","btype":"ticari","name":"Plaza Carso","lab":1},"geometry":{"type":"MultiPolygon","coordinates":[[[[-99.20497,19.44331],[-99.20286,19.44318],[-99.20297,19.44115],[-99.20451,19.44027],[-99.20509,19.44028],[-99.20497,19.44331]]]]}},{"type":"Feature","properties":{"id":"ticari-lab-25","kind":"district-label","btype":"ticari","name":"Plaza Carso"},"geometry":{"type":"Point","coordinates":[-99.20405,19.44191]}},{"type":"Feature","properties":{"id":"ticari-26","kind":"district","btype":"ticari","name":"Gran Terraza Coapa","lab":1},"geometry":{"type":"MultiPolygon","coordinates":[[[[-99.13133,19.29533],[-99.13022,19.29482],[-99.12624,19.29327],[-99.12602,19.29523],[-99.13133,19.29533]]]]}},{"type":"Feature","properties":{"id":"ticari-lab-26","kind":"district-label","btype":"ticari","name":"Gran Terraza Coapa"},"geometry":{"type":"Point","coordinates":[-99.1279,19.29461]}},{"type":"Feature","properties":{"id":"ticari-27","kind":"district","btype":"ticari","name":"Antigua Centro de Negocios y Entretenimiento","lab":1},"geometry":{"type":"MultiPolygon","coordinates":[[[[-99.30231,19.57361],[-99.30159,19.57298],[-99.30127,19.57333],[-99.30025,19.57286],[-99.3,19.5721],[-99.30032,19.57179],[-99.29949,19.57079],[-99.30305,19.57183],[-99.30231,19.57361]]]]}},{"type":"Feature","properties":{"id":"ticari-lab-27","kind":"district-label","btype":"ticari","name":"Antigua Centro de Negocios y Entretenimiento"},"geometry":{"type":"Point","coordinates":[-99.30137,19.57221]}},{"type":"Feature","properties":{"id":"ticari-28","kind":"district","btype":"ticari","name":"Town Center El Rosario","lab":1},"geometry":{"type":"MultiPolygon","coordinates":[[[[-99.20368,19.50454],[-99.20491,19.50269],[-99.20452,19.5022],[-99.20272,19.50165],[-99.20196,19.50401],[-99.20368,19.50454]]]]}},{"type":"Feature","properties":{"id":"ticari-lab-28","kind":"district-label","btype":"ticari","name":"Town Center El Rosario"},"geometry":{"type":"Point","coordinates":[-99.20337,19.5031]}},{"type":"Feature","properties":{"id":"ticari-29","kind":"district","btype":"ticari","name":"Paseo Acoxpa","lab":1},"geometry":{"type":"MultiPolygon","coordinates":[[[[-99.13589,19.30037],[-99.13766,19.30112],[-99.13825,19.29808],[-99.13698,19.2978],[-99.13589,19.30037]]]]}},{"type":"Feature","properties":{"id":"ticari-lab-29","kind":"district-label","btype":"ticari","name":"Paseo Acoxpa"},"geometry":{"type":"Point","coordinates":[-99.13718,19.29943]}},{"type":"Feature","properties":{"id":"ticari-30","kind":"district","btype":"ticari","name":"World Trade Center Mexico City","lab":1},"geometry":{"type":"MultiPolygon","coordinates":[[[[-99.17297,19.39284],[-99.17553,19.39339],[-99.17463,19.39514],[-99.17244,19.39466],[-99.17297,19.39284]]]]}},{"type":"Feature","properties":{"id":"ticari-lab-30","kind":"district-label","btype":"ticari","name":"World Trade Center Mexico City"},"geometry":{"type":"Point","coordinates":[-99.1739,19.39399]}},{"type":"Feature","properties":{"id":"ticari-31","kind":"district","btype":"ticari","name":"Plaza Ecatepec","lab":1},"geometry":{"type":"MultiPolygon","coordinates":[[[[-99.04195,19.57926],[-99.04078,19.57871],[-99.04033,19.58257],[-99.04149,19.58275],[-99.04195,19.57926]]]]}},{"type":"Feature","properties":{"id":"ticari-lab-31","kind":"district-label","btype":"ticari","name":"Plaza Ecatepec"},"geometry":{"type":"Point","coordinates":[-99.04113,19.5808]}},{"type":"Feature","properties":{"id":"ticari-32","kind":"district","btype":"ticari","name":"Galerías Coapa","lab":1},"geometry":{"type":"MultiPolygon","coordinates":[[[[-99.12144,19.30163],[-99.12198,19.30276],[-99.12437,19.30362],[-99.12463,19.30165],[-99.12144,19.30163]]]]}},{"type":"Feature","properties":{"id":"ticari-lab-32","kind":"district-label","btype":"ticari","name":"Galerías Coapa"},"geometry":{"type":"Point","coordinates":[-99.12325,19.3024]}}]}