{"type":"FeatureCollection","features":[{"type":"Feature","properties":{"id":"ih-eczane-0","kind":"poi","name":"farmatodo","theme":"eczane","lab":1},"geometry":{"type":"Point","coordinates":[-99.12197,19.36234]}},{"type":"Feature","properties":{"id":"ih-eczane-1","kind":"poi","name":"San Pablo Satélite","theme":"eczane","lab":1},"geometry":{"type":"Point","coordinates":[-99.23312,19.50808]}},{"type":"Feature","properties":{"id":"ih-eczane-2","kind":"poi","name":"Farmatodo","theme":"eczane","lab":1},"geometry":{"type":"Point","coordinates":[-99.10433,19.41768]}},{"type":"Feature","properties":{"id":"ih-eczane-3","kind":"poi","name":"Farmatodo","theme":"eczane","lab":1},"geometry":{"type":"Point","coordinates":[-99.12439,19.31179]}},{"type":"Feature","properties":{"id":"ih-eczane-4","kind":"poi","name":"Farmatodo","theme":"eczane","lab":1},"geometry":{"type":"Point","coordinates":[-99.15906,19.29277]}},{"type":"Feature","properties":{"id":"ih-eczane-5","kind":"poi","name":"Farmatodo","theme":"eczane","lab":1},"geometry":{"type":"Point","coordinates":[-99.16553,19.37107]}},{"type":"Feature","properties":{"id":"ih-eczane-6","kind":"poi","name":"Farmatodo","theme":"eczane","lab":1},"geometry":{"type":"Point","coordinates":[-99.18708,19.4815]}},{"type":"Feature","properties":{"id":"ih-eczane-7","kind":"poi","name":"Farmatodo","theme":"eczane","lab":1},"geometry":{"type":"Point","coordinates":[-99.20205,19.34836]}},{"type":"Feature","properties":{"id":"ih-eczane-8","kind":"poi","name":"Farmahorro","theme":"eczane","lab":1},"geometry":{"type":"Point","coordinates":[-99.12909,19.45589]}},{"type":"Feature","properties":{"id":"ih-eczane-9","kind":"poi","name":"Farmacity","theme":"eczane","lab":1},"geometry":{"type":"Point","coordinates":[-99.14106,19.3275]}},{"type":"Feature","properties":{"id":"ih-eczane-10","kind":"poi","name":"Farmacias similares","theme":"eczane","lab":1},"geometry":{"type":"Point","coordinates":[-99.24473,19.51611]}},{"type":"Feature","properties":{"id":"ih-eczane-11","kind":"poi","name":"Farmacias del Ahorro","theme":"eczane","lab":1},"geometry":{"type":"Point","coordinates":[-98.94874,19.36709]}},{"type":"Feature","properties":{"id":"ih-eczane-12","kind":"poi","name":"Farmacias del Ahorro","theme":"eczane","lab":1},"geometry":{"type":"Point","coordinates":[-99.01148,19.39161]}},{"type":"Feature","properties":{"id":"ih-eczane-13","kind":"poi","name":"Farmacias del Ahorro","theme":"eczane","lab":1},"geometry":{"type":"Point","coordinates":[-99.01733,19.35024]}},{"type":"Feature","properties":{"id":"ih-eczane-14","kind":"poi","name":"Farmacias del Ahorro","theme":"eczane","lab":1},"geometry":{"type":"Point","coordinates":[-99.05976,19.39833]}},{"type":"Feature","properties":{"id":"ih-eczane-15","kind":"poi","name":"Farmacias del Ahorro","theme":"eczane","lab":1},"geometry":{"type":"Point","coordinates":[-99.07239,19.39749]}},{"type":"Feature","properties":{"id":"ih-eczane-16","kind":"poi","name":"Farmacias del Ahorro","theme":"eczane","lab":1},"geometry":{"type":"Point","coordinates":[-99.07948,19.38179]}},{"type":"Feature","properties":{"id":"ih-eczane-17","kind":"poi","name":"Farmacias del Ahorro","theme":"eczane","lab":1},"geometry":{"type":"Point","coordinates":[-99.09896,19.39201]}},{"type":"Feature","properties":{"id":"ih-eczane-18","kind":"poi","name":"Farmacias del Ahorro","theme":"eczane","lab":1},"geometry":{"type":"Point","coordinates":[-99.09963,19.35533]}},{"type":"Feature","properties":{"id":"ih-eczane-19","kind":"poi","name":"Farmacias del Ahorro","theme":"eczane","lab":1},"geometry":{"type":"Point","coordinates":[-99.10634,19.25904]}},{"type":"Feature","properties":{"id":"ih-eczane-20","kind":"poi","name":"Farmacias del Ahorro","theme":"eczane","lab":1},"geometry":{"type":"Point","coordinates":[-99.10682,19.47871]}},{"type":"Feature","properties":{"id":"ih-eczane-21","kind":"poi","name":"Farmacias del Ahorro","theme":"eczane","lab":1},"geometry":{"type":"Point","coordinates":[-99.10746,19.51867]}},{"type":"Feature","properties":{"id":"ih-eczane-22","kind":"poi","name":"Farmacias del Ahorro","theme":"eczane","lab":1},"geometry":{"type":"Point","coordinates":[-99.10784,19.48664]}},{"type":"Feature","properties":{"id":"ih-eczane-23","kind":"poi","name":"Farmacias del Ahorro","theme":"eczane","lab":1},"geometry":{"type":"Point","coordinates":[-99.10987,19.37945]}},{"type":"Feature","properties":{"id":"ih-eczane-24","kind":"poi","name":"Farmacias del Ahorro","theme":"eczane","lab":1},"geometry":{"type":"Point","coordinates":[-99.11787,19.26427]}},{"type":"Feature","properties":{"id":"ih-eczane-25","kind":"poi","name":"Farmacias del Ahorro","theme":"eczane","lab":1},"geometry":{"type":"Point","coordinates":[-99.12024,19.47637]}},{"type":"Feature","properties":{"id":"ih-eczane-26","kind":"poi","name":"Farmacias del Ahorro","theme":"eczane","lab":1},"geometry":{"type":"Point","coordinates":[-99.12211,19.3575]}},{"type":"Feature","properties":{"id":"ih-eczane-27","kind":"poi","name":"Farmacias del Ahorro","theme":"eczane","lab":1},"geometry":{"type":"Point","coordinates":[-99.12924,19.42937]}},{"type":"Feature","properties":{"id":"ih-eczane-28","kind":"poi","name":"Farmacias del Ahorro","theme":"eczane","lab":1},"geometry":{"type":"Point","coordinates":[-99.13265,19.30707]}},{"type":"Feature","properties":{"id":"ih-eczane-29","kind":"poi","name":"Farmacias del Ahorro","theme":"eczane","lab":1},"geometry":{"type":"Point","coordinates":[-99.13339,19.48999]}},{"type":"Feature","properties":{"id":"ih-eczane-30","kind":"poi","name":"Farmacias del Ahorro","theme":"eczane","lab":1},"geometry":{"type":"Point","coordinates":[-99.13712,19.34035]}},{"type":"Feature","properties":{"id":"ih-eczane-31","kind":"poi","name":"Farmacias del Ahorro","theme":"eczane","lab":1},"geometry":{"type":"Point","coordinates":[-99.13844,19.28069]}},{"type":"Feature","properties":{"id":"ih-eczane-32","kind":"poi","name":"Farmacias del Ahorro","theme":"eczane","lab":1},"geometry":{"type":"Point","coordinates":[-99.1392,19.32161]}},{"type":"Feature","properties":{"id":"ih-eczane-33","kind":"poi","name":"Farmacias del Ahorro","theme":"eczane","lab":1},"geometry":{"type":"Point","coordinates":[-99.13923,19.29801]}},{"type":"Feature","properties":{"id":"ih-eczane-34","kind":"poi","name":"Farmacias del Ahorro","theme":"eczane","lab":1},"geometry":{"type":"Point","coordinates":[-99.13999,19.43847]}},{"type":"Feature","properties":{"id":"ih-eczane-35","kind":"poi","name":"Farmacias del Ahorro","theme":"eczane","lab":1},"geometry":{"type":"Point","coordinates":[-99.14583,19.33378]}},{"type":"Feature","properties":{"id":"ih-eczane-36","kind":"poi","name":"Farmacias del Ahorro","theme":"eczane","lab":1},"geometry":{"type":"Point","coordinates":[-99.15098,19.29803]}},{"type":"Feature","properties":{"id":"ih-eczane-37","kind":"poi","name":"Farmacias del Ahorro","theme":"eczane","lab":1},"geometry":{"type":"Point","coordinates":[-99.15163,19.39112]}},{"type":"Feature","properties":{"id":"ih-eczane-38","kind":"poi","name":"Farmacias del Ahorro","theme":"eczane","lab":1},"geometry":{"type":"Point","coordinates":[-99.15539,19.40606]}},{"type":"Feature","properties":{"id":"ih-eczane-39","kind":"poi","name":"Farmacias del Ahorro","theme":"eczane","lab":1},"geometry":{"type":"Point","coordinates":[-99.15556,19.4395]}},{"type":"Feature","properties":{"id":"ih-eczane-40","kind":"poi","name":"Farmacias del Ahorro","theme":"eczane","lab":1},"geometry":{"type":"Point","coordinates":[-99.15762,19.38545]}},{"type":"Feature","properties":{"id":"ih-eczane-41","kind":"poi","name":"Farmacias del Ahorro","theme":"eczane","lab":1},"geometry":{"type":"Point","coordinates":[-99.15808,19.37594]}},{"type":"Feature","properties":{"id":"ih-eczane-42","kind":"poi","name":"Farmacias del Ahorro","theme":"eczane","lab":1},"geometry":{"type":"Point","coordinates":[-99.16089,19.42784]}},{"type":"Feature","properties":{"id":"ih-eczane-43","kind":"poi","name":"Farmacias del Ahorro","theme":"eczane","lab":1},"geometry":{"type":"Point","coordinates":[-99.16347,19.33566]}},{"type":"Feature","properties":{"id":"ih-eczane-44","kind":"poi","name":"Farmacias del Ahorro","theme":"eczane","lab":1},"geometry":{"type":"Point","coordinates":[-99.16887,19.42588]}},{"type":"Feature","properties":{"id":"ih-eczane-45","kind":"poi","name":"Farmacias del Ahorro","theme":"eczane","lab":1},"geometry":{"type":"Point","coordinates":[-99.16914,19.35661]}},{"type":"Feature","properties":{"id":"ih-eczane-46","kind":"poi","name":"Farmacias del Ahorro","theme":"eczane","lab":1},"geometry":{"type":"Point","coordinates":[-99.16966,19.27993]}},{"type":"Feature","properties":{"id":"ih-eczane-47","kind":"poi","name":"Farmacias del Ahorro","theme":"eczane","lab":1},"geometry":{"type":"Point","coordinates":[-99.17096,19.34525]}},{"type":"Feature","properties":{"id":"ih-eczane-48","kind":"poi","name":"Farmacias del Ahorro","theme":"eczane","lab":1},"geometry":{"type":"Point","coordinates":[-99.17783,19.33598]}},{"type":"Feature","properties":{"id":"ih-eczane-49","kind":"poi","name":"Farmacias del Ahorro","theme":"eczane","lab":1},"geometry":{"type":"Point","coordinates":[-99.18257,19.36197]}},{"type":"Feature","properties":{"id":"ih-eczane-50","kind":"poi","name":"Farmacias del Ahorro","theme":"eczane","lab":1},"geometry":{"type":"Point","coordinates":[-99.18894,19.34437]}},{"type":"Feature","properties":{"id":"ih-eczane-51","kind":"poi","name":"Farmacias del Ahorro","theme":"eczane","lab":1},"geometry":{"type":"Point","coordinates":[-99.19571,19.36577]}},{"type":"Feature","properties":{"id":"ih-eczane-52","kind":"poi","name":"Farmacias del Ahorro","theme":"eczane","lab":1},"geometry":{"type":"Point","coordinates":[-99.20182,19.40174]}},{"type":"Feature","properties":{"id":"ih-eczane-53","kind":"poi","name":"Farmacias del Ahorro","theme":"eczane","lab":1},"geometry":{"type":"Point","coordinates":[-99.20442,19.55707]}},{"type":"Feature","properties":{"id":"ih-eczane-54","kind":"poi","name":"Farmacias del Ahorro","theme":"eczane","lab":1},"geometry":{"type":"Point","coordinates":[-99.21268,19.38856]}},{"type":"Feature","properties":{"id":"ih-market-0","kind":"poi","name":"Zorro Abarrotero Tlalpizáhuac","theme":"market","lab":1},"geometry":{"type":"Point","coordinates":[-98.95054,19.33222]}},{"type":"Feature","properties":{"id":"ih-market-1","kind":"poi","name":"Zorro Abarrotero","theme":"market","lab":1},"geometry":{"type":"Point","coordinates":[-99.10735,19.46811]}},{"type":"Feature","properties":{"id":"ih-market-2","kind":"poi","name":"Zorro","theme":"market","lab":1},"geometry":{"type":"Point","coordinates":[-99.17871,19.25673]}},{"type":"Feature","properties":{"id":"ih-market-3","kind":"poi","name":"Walmart Supercenter","theme":"market","lab":1},"geometry":{"type":"Point","coordinates":[-99.03055,19.5508]}},{"type":"Feature","properties":{"id":"ih-market-4","kind":"poi","name":"Walmart Supercenter","theme":"market","lab":1},"geometry":{"type":"Point","coordinates":[-99.05968,19.30805]}},{"type":"Feature","properties":{"id":"ih-market-5","kind":"poi","name":"Walmart Supercenter","theme":"market","lab":1},"geometry":{"type":"Point","coordinates":[-99.07451,19.3134]}},{"type":"Feature","properties":{"id":"ih-market-6","kind":"poi","name":"Walmart Supercenter","theme":"market","lab":1},"geometry":{"type":"Point","coordinates":[-99.09381,19.41956]}},{"type":"Feature","properties":{"id":"ih-market-7","kind":"poi","name":"Walmart Supercenter","theme":"market","lab":1},"geometry":{"type":"Point","coordinates":[-99.09563,19.47961]}},{"type":"Feature","properties":{"id":"ih-market-8","kind":"poi","name":"Walmart Supercenter","theme":"market","lab":1},"geometry":{"type":"Point","coordinates":[-99.10007,19.47681]}},{"type":"Feature","properties":{"id":"ih-market-9","kind":"poi","name":"Walmart Supercenter","theme":"market","lab":1},"geometry":{"type":"Point","coordinates":[-99.10575,19.41756]}},{"type":"Feature","properties":{"id":"ih-market-10","kind":"poi","name":"Walmart Supercenter","theme":"market","lab":1},"geometry":{"type":"Point","coordinates":[-99.10918,19.29484]}},{"type":"Feature","properties":{"id":"ih-market-11","kind":"poi","name":"Walmart Supercenter","theme":"market","lab":1},"geometry":{"type":"Point","coordinates":[-99.12078,19.47223]}},{"type":"Feature","properties":{"id":"ih-market-12","kind":"poi","name":"Walmart Supercenter","theme":"market","lab":1},"geometry":{"type":"Point","coordinates":[-99.12372,19.29306]}},{"type":"Feature","properties":{"id":"ih-market-13","kind":"poi","name":"Walmart Supercenter","theme":"market","lab":1},"geometry":{"type":"Point","coordinates":[-99.12553,19.31793]}},{"type":"Feature","properties":{"id":"ih-market-14","kind":"poi","name":"Walmart Supercenter","theme":"market","lab":1},"geometry":{"type":"Point","coordinates":[-99.13019,19.41955]}},{"type":"Feature","properties":{"id":"ih-market-15","kind":"poi","name":"Walmart Supercenter","theme":"market","lab":1},"geometry":{"type":"Point","coordinates":[-99.14119,19.38032]}},{"type":"Feature","properties":{"id":"ih-market-16","kind":"poi","name":"Walmart Supercenter","theme":"market","lab":1},"geometry":{"type":"Point","coordinates":[-99.14346,19.50634]}},{"type":"Feature","properties":{"id":"ih-market-17","kind":"poi","name":"Walmart Supercenter","theme":"market","lab":1},"geometry":{"type":"Point","coordinates":[-99.15312,19.4435]}},{"type":"Feature","properties":{"id":"ih-market-18","kind":"poi","name":"Walmart Supercenter","theme":"market","lab":1},"geometry":{"type":"Point","coordinates":[-99.15624,19.53098]}},{"type":"Feature","properties":{"id":"ih-market-19","kind":"poi","name":"Walmart Supercenter","theme":"market","lab":1},"geometry":{"type":"Point","coordinates":[-99.16419,19.36861]}},{"type":"Feature","properties":{"id":"ih-market-20","kind":"poi","name":"Walmart Supercenter","theme":"market","lab":1},"geometry":{"type":"Point","coordinates":[-99.1644,19.47117]}},{"type":"Feature","properties":{"id":"ih-market-21","kind":"poi","name":"Walmart Supercenter","theme":"market","lab":1},"geometry":{"type":"Point","coordinates":[-99.17627,19.37174]}},{"type":"Feature","properties":{"id":"ih-market-22","kind":"poi","name":"Walmart Supercenter","theme":"market","lab":1},"geometry":{"type":"Point","coordinates":[-99.17637,19.2847]}},{"type":"Feature","properties":{"id":"ih-market-23","kind":"poi","name":"Walmart Supercenter","theme":"market","lab":1},"geometry":{"type":"Point","coordinates":[-99.18276,19.34458]}},{"type":"Feature","properties":{"id":"ih-market-24","kind":"poi","name":"Walmart Supercenter","theme":"market","lab":1},"geometry":{"type":"Point","coordinates":[-99.18726,19.30647]}},{"type":"Feature","properties":{"id":"ih-market-25","kind":"poi","name":"Walmart Supercenter","theme":"market","lab":1},"geometry":{"type":"Point","coordinates":[-99.18749,19.53591]}},{"type":"Feature","properties":{"id":"ih-market-26","kind":"poi","name":"Walmart Supercenter","theme":"market","lab":1},"geometry":{"type":"Point","coordinates":[-99.19239,19.55475]}},{"type":"Feature","properties":{"id":"ih-market-27","kind":"poi","name":"Walmart Supercenter","theme":"market","lab":1},"geometry":{"type":"Point","coordinates":[-99.20282,19.50294]}},{"type":"Feature","properties":{"id":"ih-market-28","kind":"poi","name":"Walmart Supercenter","theme":"market","lab":1},"geometry":{"type":"Point","coordinates":[-99.21544,19.35284]}},{"type":"Feature","properties":{"id":"ih-market-29","kind":"poi","name":"Walmart Supercenter","theme":"market","lab":1},"geometry":{"type":"Point","coordinates":[-99.22197,19.36143]}},{"type":"Feature","properties":{"id":"ih-market-30","kind":"poi","name":"Walmart Supercenter","theme":"market","lab":1},"geometry":{"type":"Point","coordinates":[-99.23291,19.48479]}},{"type":"Feature","properties":{"id":"ih-market-31","kind":"poi","name":"Walmart Supercenter","theme":"market","lab":1},"geometry":{"type":"Point","coordinates":[-99.25447,19.37715]}},{"type":"Feature","properties":{"id":"ih-market-32","kind":"poi","name":"Walmart Supercenter","theme":"market","lab":1},"geometry":{"type":"Point","coordinates":[-99.26779,19.51602]}},{"type":"Feature","properties":{"id":"ih-market-33","kind":"poi","name":"Walmart Supercenter","theme":"market","lab":1},"geometry":{"type":"Point","coordinates":[-99.27373,19.4055]}},{"type":"Feature","properties":{"id":"ih-market-34","kind":"poi","name":"Walmart Supercenter","theme":"market","lab":1},"geometry":{"type":"Point","coordinates":[-99.28892,19.39876]}},{"type":"Feature","properties":{"id":"ih-market-35","kind":"poi","name":"Walmart Supercenter","theme":"market","lab":1},"geometry":{"type":"Point","coordinates":[-99.29051,19.55307]}},{"type":"Feature","properties":{"id":"ih-market-36","kind":"poi","name":"Walmart Express","theme":"market","lab":1},"geometry":{"type":"Point","coordinates":[-99.12102,19.36853]}},{"type":"Feature","properties":{"id":"ih-market-37","kind":"poi","name":"Walmart Express","theme":"market","lab":1},"geometry":{"type":"Point","coordinates":[-99.12478,19.31053]}},{"type":"Feature","properties":{"id":"ih-market-38","kind":"poi","name":"Walmart Express","theme":"market","lab":1},"geometry":{"type":"Point","coordinates":[-99.1266,19.33922]}},{"type":"Feature","properties":{"id":"ih-market-39","kind":"poi","name":"Walmart Express","theme":"market","lab":1},"geometry":{"type":"Point","coordinates":[-99.13519,19.34486]}},{"type":"Feature","properties":{"id":"ih-market-40","kind":"poi","name":"Walmart Express","theme":"market","lab":1},"geometry":{"type":"Point","coordinates":[-99.13603,19.29914]}},{"type":"Feature","properties":{"id":"ih-market-41","kind":"poi","name":"Walmart Express","theme":"market","lab":1},"geometry":{"type":"Point","coordinates":[-99.15196,19.35816]}},{"type":"Feature","properties":{"id":"ih-market-42","kind":"poi","name":"Walmart Express","theme":"market","lab":1},"geometry":{"type":"Point","coordinates":[-99.16681,19.3655]}},{"type":"Feature","properties":{"id":"ih-market-43","kind":"poi","name":"Walmart Express","theme":"market","lab":1},"geometry":{"type":"Point","coordinates":[-99.16806,19.4336]}},{"type":"Feature","properties":{"id":"ih-market-44","kind":"poi","name":"Walmart Express","theme":"market","lab":1},"geometry":{"type":"Point","coordinates":[-99.16809,19.35904]}},{"type":"Feature","properties":{"id":"ih-market-45","kind":"poi","name":"Walmart Express","theme":"market","lab":1},"geometry":{"type":"Point","coordinates":[-99.17115,19.41139]}},{"type":"Feature","properties":{"id":"ih-market-46","kind":"poi","name":"Walmart Express","theme":"market","lab":1},"geometry":{"type":"Point","coordinates":[-99.17248,19.30355]}},{"type":"Feature","properties":{"id":"ih-market-47","kind":"poi","name":"Walmart Express","theme":"market","lab":1},"geometry":{"type":"Point","coordinates":[-99.17314,19.37268]}},{"type":"Feature","properties":{"id":"ih-market-48","kind":"poi","name":"Walmart Express","theme":"market","lab":1},"geometry":{"type":"Point","coordinates":[-99.17325,19.28231]}},{"type":"Feature","properties":{"id":"ih-market-49","kind":"poi","name":"Walmart Express","theme":"market","lab":1},"geometry":{"type":"Point","coordinates":[-99.17539,19.39542]}},{"type":"Feature","properties":{"id":"ih-market-50","kind":"poi","name":"Walmart Express","theme":"market","lab":1},"geometry":{"type":"Point","coordinates":[-99.17568,19.38993]}},{"type":"Feature","properties":{"id":"ih-market-51","kind":"poi","name":"Walmart Express","theme":"market","lab":1},"geometry":{"type":"Point","coordinates":[-99.17718,19.3839]}},{"type":"Feature","properties":{"id":"ih-market-52","kind":"poi","name":"Walmart Express","theme":"market","lab":1},"geometry":{"type":"Point","coordinates":[-99.17807,19.41526]}},{"type":"Feature","properties":{"id":"ih-market-53","kind":"poi","name":"Walmart Express","theme":"market","lab":1},"geometry":{"type":"Point","coordinates":[-99.18587,19.43487]}},{"type":"Feature","properties":{"id":"ih-market-54","kind":"poi","name":"Walmart Express","theme":"market","lab":1},"geometry":{"type":"Point","coordinates":[-99.18938,19.36492]}},{"type":"Feature","properties":{"id":"ih-yakit-0","kind":"poi","name":"pemex","theme":"yakit","lab":1},"geometry":{"type":"Point","coordinates":[-99.20968,19.44128]}},{"type":"Feature","properties":{"id":"ih-yakit-1","kind":"poi","name":"Total","theme":"yakit","lab":1},"geometry":{"type":"Point","coordinates":[-99.12301,19.37328]}},{"type":"Feature","properties":{"id":"ih-yakit-2","kind":"poi","name":"Total","theme":"yakit","lab":1},"geometry":{"type":"Point","coordinates":[-99.15925,19.49598]}},{"type":"Feature","properties":{"id":"ih-yakit-3","kind":"poi","name":"Total","theme":"yakit","lab":1},"geometry":{"type":"Point","coordinates":[-99.16564,19.47133]}},{"type":"Feature","properties":{"id":"ih-yakit-4","kind":"poi","name":"Total","theme":"yakit","lab":1},"geometry":{"type":"Point","coordinates":[-99.18544,19.48924]}},{"type":"Feature","properties":{"id":"ih-yakit-5","kind":"poi","name":"Total","theme":"yakit","lab":1},"geometry":{"type":"Point","coordinates":[-99.2181,19.4207]}},{"type":"Feature","properties":{"id":"ih-yakit-6","kind":"poi","name":"Total","theme":"yakit","lab":1},"geometry":{"type":"Point","coordinates":[-99.24378,19.55736]}},{"type":"Feature","properties":{"id":"ih-yakit-7","kind":"poi","name":"Total","theme":"yakit","lab":1},"geometry":{"type":"Point","coordinates":[-99.27271,19.54503]}},{"type":"Feature","properties":{"id":"ih-yakit-8","kind":"poi","name":"Shell","theme":"yakit","lab":1},"geometry":{"type":"Point","coordinates":[-99.02721,19.58334]}},{"type":"Feature","properties":{"id":"ih-yakit-9","kind":"poi","name":"Shell","theme":"yakit","lab":1},"geometry":{"type":"Point","coordinates":[-99.05002,19.39256]}},{"type":"Feature","properties":{"id":"ih-yakit-10","kind":"poi","name":"Shell","theme":"yakit","lab":1},"geometry":{"type":"Point","coordinates":[-99.06495,19.40261]}},{"type":"Feature","properties":{"id":"ih-yakit-11","kind":"poi","name":"Shell","theme":"yakit","lab":1},"geometry":{"type":"Point","coordinates":[-99.09958,19.49113]}},{"type":"Feature","properties":{"id":"ih-yakit-12","kind":"poi","name":"Shell","theme":"yakit","lab":1},"geometry":{"type":"Point","coordinates":[-99.11805,19.45801]}},{"type":"Feature","properties":{"id":"ih-yakit-13","kind":"poi","name":"Shell","theme":"yakit","lab":1},"geometry":{"type":"Point","coordinates":[-99.15625,19.44204]}},{"type":"Feature","properties":{"id":"ih-yakit-14","kind":"poi","name":"Shell","theme":"yakit","lab":1},"geometry":{"type":"Point","coordinates":[-99.16154,19.36455]}},{"type":"Feature","properties":{"id":"ih-yakit-15","kind":"poi","name":"Shell","theme":"yakit","lab":1},"geometry":{"type":"Point","coordinates":[-99.16902,19.52307]}},{"type":"Feature","properties":{"id":"ih-yakit-16","kind":"poi","name":"Shell","theme":"yakit","lab":1},"geometry":{"type":"Point","coordinates":[-99.17619,19.43489]}},{"type":"Feature","properties":{"id":"ih-yakit-17","kind":"poi","name":"Shell","theme":"yakit","lab":1},"geometry":{"type":"Point","coordinates":[-99.18319,19.5445]}},{"type":"Feature","properties":{"id":"ih-yakit-18","kind":"poi","name":"Shell","theme":"yakit","lab":1},"geometry":{"type":"Point","coordinates":[-99.18761,19.45506]}},{"type":"Feature","properties":{"id":"ih-yakit-19","kind":"poi","name":"Shell","theme":"yakit","lab":1},"geometry":{"type":"Point","coordinates":[-99.18905,19.36095]}},{"type":"Feature","properties":{"id":"ih-yakit-20","kind":"poi","name":"Shell","theme":"yakit","lab":1},"geometry":{"type":"Point","coordinates":[-99.21722,19.28968]}},{"type":"Feature","properties":{"id":"ih-yakit-21","kind":"poi","name":"Shell","theme":"yakit","lab":1},"geometry":{"type":"Point","coordinates":[-99.22975,19.47622]}},{"type":"Feature","properties":{"id":"ih-yakit-22","kind":"poi","name":"Shell","theme":"yakit","lab":1},"geometry":{"type":"Point","coordinates":[-99.23019,19.52013]}},{"type":"Feature","properties":{"id":"ih-yakit-23","kind":"poi","name":"Shell","theme":"yakit","lab":1},"geometry":{"type":"Point","coordinates":[-99.24038,19.47091]}},{"type":"Feature","properties":{"id":"ih-yakit-24","kind":"poi","name":"Shell","theme":"yakit","lab":1},"geometry":{"type":"Point","coordinates":[-99.27047,19.55215]}},{"type":"Feature","properties":{"id":"ih-yakit-25","kind":"poi","name":"Servicio Boulevares","theme":"yakit","lab":1},"geometry":{"type":"Point","coordinates":[-99.24961,19.49666]}},{"type":"Feature","properties":{"id":"ih-yakit-26","kind":"poi","name":"Repsol Pantitlan","theme":"yakit","lab":1},"geometry":{"type":"Point","coordinates":[-99.00342,19.38758]}},{"type":"Feature","properties":{"id":"ih-yakit-27","kind":"poi","name":"Repsol","theme":"yakit","lab":1},"geometry":{"type":"Point","coordinates":[-98.99119,19.36712]}},{"type":"Feature","properties":{"id":"ih-yakit-28","kind":"poi","name":"Repsol","theme":"yakit","lab":1},"geometry":{"type":"Point","coordinates":[-99.02599,19.3992]}},{"type":"Feature","properties":{"id":"ih-yakit-29","kind":"poi","name":"Repsol","theme":"yakit","lab":1},"geometry":{"type":"Point","coordinates":[-99.03003,19.38824]}},{"type":"Feature","properties":{"id":"ih-kutuphane-0","kind":"poi","name":"Biblioteca Vasconcelos","theme":"kutuphane","lab":1},"geometry":{"type":"Point","coordinates":[-99.15096,19.44735]}},{"type":"Feature","properties":{"id":"ih-kutuphane-1","kind":"poi","name":"Biblioteca Benjamín Franklin","theme":"kutuphane","lab":1},"geometry":{"type":"Point","coordinates":[-99.15779,19.42763]}},{"type":"Feature","properties":{"id":"ih-kutuphane-2","kind":"poi","name":"Centro de Documentación Francisco Gamoneda","theme":"kutuphane","lab":1},"geometry":{"type":"Point","coordinates":[-99.13399,19.43153]}},{"type":"Feature","properties":{"id":"ih-kutuphane-3","kind":"poi","name":"Biblioteca Nacional de México","theme":"kutuphane","lab":1},"geometry":{"type":"Point","coordinates":[-99.1842,19.31644]}},{"type":"Feature","properties":{"id":"ih-kutuphane-4","kind":"poi","name":"Biblioteca Central UNAM","theme":"kutuphane","lab":1},"geometry":{"type":"Point","coordinates":[-99.18733,19.3334]}},{"type":"Feature","properties":{"id":"ih-kutuphane-5","kind":"poi","name":"Archivo General de la Nación","theme":"kutuphane","lab":1},"geometry":{"type":"Point","coordinates":[-99.11322,19.43633]}},{"type":"Feature","properties":{"id":"ih-kutuphane-6","kind":"poi","name":"Librería del CIDE","theme":"kutuphane","lab":1},"geometry":{"type":"Point","coordinates":[-99.26384,19.37433]}},{"type":"Feature","properties":{"id":"ih-kutuphane-7","kind":"poi","name":"Iztapan","theme":"kutuphane","lab":1},"geometry":{"type":"Point","coordinates":[-98.94614,19.58572]}},{"type":"Feature","properties":{"id":"ih-kutuphane-8","kind":"poi","name":"Bibloteca ENCB","theme":"kutuphane","lab":1},"geometry":{"type":"Point","coordinates":[-99.17092,19.4545]}},{"type":"Feature","properties":{"id":"ih-kutuphane-9","kind":"poi","name":"Biblioteca Raúl Baillères Jr","theme":"kutuphane","lab":1},"geometry":{"type":"Point","coordinates":[-99.19974,19.34438]}},{"type":"Feature","properties":{"id":"ih-kutuphane-10","kind":"poi","name":"Biblioteca Pública San Patricio","theme":"kutuphane","lab":1},"geometry":{"type":"Point","coordinates":[-99.20015,19.38958]}},{"type":"Feature","properties":{"id":"ih-kutuphane-11","kind":"poi","name":"Biblioteca Pública María Cárdenas de Malpica","theme":"kutuphane","lab":1},"geometry":{"type":"Point","coordinates":[-99.17598,19.54901]}},{"type":"Feature","properties":{"id":"ih-kutuphane-12","kind":"poi","name":"Biblioteca Pública Jesús H. Abitia","theme":"kutuphane","lab":1},"geometry":{"type":"Point","coordinates":[-99.13758,19.45678]}},{"type":"Feature","properties":{"id":"ih-kutuphane-13","kind":"poi","name":"Biblioteca Pública Delegacional 7977 \"Antonio Gómez Rodríguez\"","theme":"kutuphane","lab":1},"geometry":{"type":"Point","coordinates":[-99.06132,19.34872]}},{"type":"Feature","properties":{"id":"ih-kutuphane-14","kind":"poi","name":"Biblioteca Pública CDC Jalalpa (DIF-DF)","theme":"kutuphane","lab":1},"geometry":{"type":"Point","coordinates":[-99.24085,19.37204]}},{"type":"Feature","properties":{"id":"ih-kutuphane-15","kind":"poi","name":"Biblioteca Pública Balbuena","theme":"kutuphane","lab":1},"geometry":{"type":"Point","coordinates":[-99.10146,19.41121]}},{"type":"Feature","properties":{"id":"ih-kutuphane-16","kind":"poi","name":"Biblioteca Pública Adolfo López Mateos","theme":"kutuphane","lab":1},"geometry":{"type":"Point","coordinates":[-99.0664,19.25627]}},{"type":"Feature","properties":{"id":"ih-kutuphane-17","kind":"poi","name":"Biblioteca Manuel Sandoval Vallarta","theme":"kutuphane","lab":1},"geometry":{"type":"Point","coordinates":[-99.18132,19.31125]}},{"type":"Feature","properties":{"id":"ih-kutuphane-18","kind":"poi","name":"Biblioteca Jesús Reyes Heroles","theme":"kutuphane","lab":1},"geometry":{"type":"Point","coordinates":[-99.04534,19.47536]}},{"type":"Feature","properties":{"id":"ih-kutuphane-19","kind":"poi","name":"Biblioteca EGA","theme":"kutuphane","lab":1},"geometry":{"type":"Point","coordinates":[-99.18372,19.33494]}},{"type":"Feature","properties":{"id":"ih-kutuphane-20","kind":"poi","name":"Biblioteca Campus II","theme":"kutuphane","lab":1},"geometry":{"type":"Point","coordinates":[-99.03323,19.37352]}},{"type":"Feature","properties":{"id":"ih-kutuphane-21","kind":"poi","name":"Biblioteca \"Las Cuevitas\"","theme":"kutuphane","lab":1},"geometry":{"type":"Point","coordinates":[-99.24698,19.4554]}},{"type":"Feature","properties":{"id":"ih-kutuphane-22","kind":"poi","name":"Biblioteca \"Dr. Ramón Villareal Pérez\"","theme":"kutuphane","lab":1},"geometry":{"type":"Point","coordinates":[-99.10222,19.30559]}},{"type":"Feature","properties":{"id":"ih-kutuphane-23","kind":"poi","name":"Bibioteca Daniel Cosío Villegas","theme":"kutuphane","lab":1},"geometry":{"type":"Point","coordinates":[-99.20753,19.30403]}},{"type":"Feature","properties":{"id":"ih-kutuphane-24","kind":"poi","name":"faro del saber","theme":"kutuphane","lab":1},"geometry":{"type":"Point","coordinates":[-99.20501,19.44798]}},{"type":"Feature","properties":{"id":"ih-kutuphane-25","kind":"poi","name":"Sor Juana Inés de la Cruz","theme":"kutuphane","lab":1},"geometry":{"type":"Point","coordinates":[-99.15968,19.44194]}},{"type":"Feature","properties":{"id":"ih-kutuphane-26","kind":"poi","name":"Sor Juana Ines de la Cruz","theme":"kutuphane","lab":1},"geometry":{"type":"Point","coordinates":[-99.00483,19.38864]}},{"type":"Feature","properties":{"id":"ih-kutuphane-27","kind":"poi","name":"San Nicolás Tolentino","theme":"kutuphane","lab":1},"geometry":{"type":"Point","coordinates":[-99.1355,19.29166]}},{"type":"Feature","properties":{"id":"ih-kutuphane-28","kind":"poi","name":"Recepción Biblioteca","theme":"kutuphane","lab":1},"geometry":{"type":"Point","coordinates":[-99.15843,19.4682]}},{"type":"Feature","properties":{"id":"ih-kutuphane-29","kind":"poi","name":"Public Library","theme":"kutuphane","lab":1},"geometry":{"type":"Point","coordinates":[-99.06452,19.32872]}},{"type":"Feature","properties":{"id":"ih-kutuphane-30","kind":"poi","name":"Porrúa","theme":"kutuphane","lab":1},"geometry":{"type":"Point","coordinates":[-99.1522,19.4488]}},{"type":"Feature","properties":{"id":"ih-kutuphane-31","kind":"poi","name":"Mediateca","theme":"kutuphane","lab":1},"geometry":{"type":"Point","coordinates":[-99.13493,19.30623]}},{"type":"Feature","properties":{"id":"ih-kutuphane-32","kind":"poi","name":"Maragarita Maza de Juárez","theme":"kutuphane","lab":1},"geometry":{"type":"Point","coordinates":[-99.03895,19.53702]}},{"type":"Feature","properties":{"id":"ih-kutuphane-33","kind":"poi","name":"Liks","theme":"kutuphane","lab":1},"geometry":{"type":"Point","coordinates":[-99.30207,19.57286]}},{"type":"Feature","properties":{"id":"ih-kutuphane-34","kind":"poi","name":"Libreria de la Iglesia del Señor de la Cuevita","theme":"kutuphane","lab":1},"geometry":{"type":"Point","coordinates":[-99.09137,19.3571]}},{"type":"Feature","properties":{"id":"ih-muze-0","kind":"poi","name":"Universum Museo de la Ciencias","theme":"muze","lab":1},"geometry":{"type":"Point","coordinates":[-99.18066,19.31135]}},{"type":"Feature","properties":{"id":"ih-muze-1","kind":"poi","name":"Museo del Servicio de Transportes Eléctricos","theme":"muze","lab":1},"geometry":{"type":"Point","coordinates":[-99.13357,19.36692]}},{"type":"Feature","properties":{"id":"ih-muze-2","kind":"poi","name":"Museo del Palacio de Bellas Artes","theme":"muze","lab":1},"geometry":{"type":"Point","coordinates":[-99.14126,19.43547]}},{"type":"Feature","properties":{"id":"ih-muze-3","kind":"poi","name":"Museo del Cine","theme":"muze","lab":1},"geometry":{"type":"Point","coordinates":[-99.16508,19.36127]}},{"type":"Feature","properties":{"id":"ih-muze-4","kind":"poi","name":"Museo de los Ferrocarrileros","theme":"muze","lab":1},"geometry":{"type":"Point","coordinates":[-99.11704,19.48186]}},{"type":"Feature","properties":{"id":"ih-muze-5","kind":"poi","name":"Museo de la Secretaría de Hacienda y Crédito Público","theme":"muze","lab":1},"geometry":{"type":"Point","coordinates":[-99.13135,19.43367]}},{"type":"Feature","properties":{"id":"ih-muze-6","kind":"poi","name":"Museo de Sitio Cuicuilco","theme":"muze","lab":1},"geometry":{"type":"Point","coordinates":[-99.18176,19.30073]}},{"type":"Feature","properties":{"id":"ih-muze-7","kind":"poi","name":"Museo de Geología de la UNAM","theme":"muze","lab":1},"geometry":{"type":"Point","coordinates":[-99.15776,19.45026]}},{"type":"Feature","properties":{"id":"ih-muze-8","kind":"poi","name":"Museo Yancuic","theme":"muze","lab":1},"geometry":{"type":"Point","coordinates":[-99.06582,19.346]}},{"type":"Feature","properties":{"id":"ih-muze-9","kind":"poi","name":"Museo Vivo del Muralismo","theme":"muze","lab":1},"geometry":{"type":"Point","coordinates":[-99.13181,19.43735]}},{"type":"Feature","properties":{"id":"ih-muze-10","kind":"poi","name":"Museo Universitario del Chopo","theme":"muze","lab":1},"geometry":{"type":"Point","coordinates":[-99.15673,19.44195]}},{"type":"Feature","properties":{"id":"ih-muze-11","kind":"poi","name":"Fonoteca Nacional","theme":"muze","lab":1},"geometry":{"type":"Point","coordinates":[-99.17699,19.3498]}},{"type":"Feature","properties":{"id":"ih-muze-12","kind":"poi","name":"Complejo Cultural Los Pinos","theme":"muze","lab":1},"geometry":{"type":"Point","coordinates":[-99.19103,19.41509]}},{"type":"Feature","properties":{"id":"ih-muze-13","kind":"poi","name":"Centro Cultural Universitario Tlatelolco","theme":"muze","lab":1},"geometry":{"type":"Point","coordinates":[-99.13744,19.4501]}},{"type":"Feature","properties":{"id":"ih-muze-14","kind":"poi","name":"Casa del Lago UNAM","theme":"muze","lab":1},"geometry":{"type":"Point","coordinates":[-99.18583,19.42238]}},{"type":"Feature","properties":{"id":"ih-muze-15","kind":"poi","name":"Casa Presidencial Lázaro Cárdenas","theme":"muze","lab":1},"geometry":{"type":"Point","coordinates":[-99.19143,19.41383]}},{"type":"Feature","properties":{"id":"ih-muze-16","kind":"poi","name":"Museo de arte Carrillo Gil","theme":"muze","lab":1},"geometry":{"type":"Point","coordinates":[-99.19031,19.3493]}},{"type":"Feature","properties":{"id":"ih-muze-17","kind":"poi","name":"Museo Nacional de la Estampa","theme":"muze","lab":1},"geometry":{"type":"Point","coordinates":[-99.14271,19.43704]}},{"type":"Feature","properties":{"id":"ih-muze-18","kind":"poi","name":"Museo Nacional de la Acuarela Alfredo Guati Rojo","theme":"muze","lab":1},"geometry":{"type":"Point","coordinates":[-99.17707,19.34865]}},{"type":"Feature","properties":{"id":"ih-muze-19","kind":"poi","name":"Museo Nacional de San Carlos","theme":"muze","lab":1},"geometry":{"type":"Point","coordinates":[-99.15201,19.43813]}},{"type":"Feature","properties":{"id":"ih-muze-20","kind":"poi","name":"Museo Nacional de Antropología","theme":"muze","lab":1},"geometry":{"type":"Point","coordinates":[-99.18664,19.4261]}},{"type":"Feature","properties":{"id":"ih-muze-21","kind":"poi","name":"Museo Memoria y Tolerancia","theme":"muze","lab":1},"geometry":{"type":"Point","coordinates":[-99.14463,19.4342]}},{"type":"Feature","properties":{"id":"ih-muze-22","kind":"poi","name":"Museo Diego Rivera Anahuacalli","theme":"muze","lab":1},"geometry":{"type":"Point","coordinates":[-99.14408,19.32258]}},{"type":"Feature","properties":{"id":"ih-muze-23","kind":"poi","name":"Museo Arqueológico de Xochimilco","theme":"muze","lab":1},"geometry":{"type":"Point","coordinates":[-99.079,19.2466]}},{"type":"Feature","properties":{"id":"ih-muze-24","kind":"poi","name":"MODO - Museo del Objeto del Objeto","theme":"muze","lab":1},"geometry":{"type":"Point","coordinates":[-99.15907,19.42021]}},{"type":"Feature","properties":{"id":"ih-muze-25","kind":"poi","name":"Jumex Museum","theme":"muze","lab":1},"geometry":{"type":"Point","coordinates":[-99.20371,19.4405]}},{"type":"Feature","properties":{"id":"ih-muze-26","kind":"poi","name":"Frida Kahlo Museum","theme":"muze","lab":1},"geometry":{"type":"Point","coordinates":[-99.16236,19.35514]}},{"type":"Feature","properties":{"id":"ih-muze-27","kind":"poi","name":"Casa de Carranza","theme":"muze","lab":1},"geometry":{"type":"Point","coordinates":[-99.16346,19.43124]}},{"type":"Feature","properties":{"id":"ih-muze-28","kind":"poi","name":"Museo de Historia Natural y Cultura Ambiental","theme":"muze","lab":1},"geometry":{"type":"Point","coordinates":[-99.20143,19.41004]}},{"type":"Feature","properties":{"id":"ih-muze-29","kind":"poi","name":"Museo Indígena","theme":"muze","lab":1},"geometry":{"type":"Point","coordinates":[-99.13147,19.45164]}},{"type":"Feature","properties":{"id":"ih-muze-30","kind":"poi","name":"Historia del transporte","theme":"muze","lab":1},"geometry":{"type":"Point","coordinates":[-99.08273,19.41597]}},{"type":"Feature","properties":{"id":"ih-muze-31","kind":"poi","name":"Casa Comunitaria de San Pedro Cuajimalpa","theme":"muze","lab":1},"geometry":{"type":"Point","coordinates":[-99.2989,19.35673]}},{"type":"Feature","properties":{"id":"ih-muze-32","kind":"poi","name":"Observatorio Interactivo de Hundimiento y Fracturamiento","theme":"muze","lab":1},"geometry":{"type":"Point","coordinates":[-99.02044,19.36173]}},{"type":"Feature","properties":{"id":"ih-muze-33","kind":"poi","name":"Museo vieja estación de ferrocarril","theme":"muze","lab":1},"geometry":{"type":"Point","coordinates":[-99.2379,19.30472]}},{"type":"Feature","properties":{"id":"ih-muze-34","kind":"poi","name":"Museo del Juguete Antiguo México","theme":"muze","lab":1},"geometry":{"type":"Point","coordinates":[-99.1441,19.41537]}},{"type":"Feature","properties":{"id":"ih-hastane-0","kind":"poi","name":"Centro Médico Nacional 20 de Noviembre","theme":"hastane","lab":1},"geometry":{"type":"Point","coordinates":[-99.1711,19.37303]}},{"type":"Feature","properties":{"id":"ih-hastane-1","kind":"poi","name":"Instituto Nacional de Perinatología","theme":"hastane","lab":1},"geometry":{"type":"Point","coordinates":[-99.2057,19.42302]}},{"type":"Feature","properties":{"id":"ih-hastane-2","kind":"poi","name":"Instituto Nacional de Pediatria","theme":"hastane","lab":1},"geometry":{"type":"Point","coordinates":[-99.1852,19.30613]}},{"type":"Feature","properties":{"id":"ih-hastane-3","kind":"poi","name":"Instituto Nacional de Medicina Genómica","theme":"hastane","lab":1},"geometry":{"type":"Point","coordinates":[-99.15067,19.28609]}},{"type":"Feature","properties":{"id":"ih-hastane-4","kind":"poi","name":"Instituto Nacional de Ciencias Médicas y Nutrición Salvador Zubirán","theme":"hastane","lab":1},"geometry":{"type":"Point","coordinates":[-99.15642,19.28813]}},{"type":"Feature","properties":{"id":"ih-hastane-5","kind":"poi","name":"Hospital Nacional Homeopático","theme":"hastane","lab":1},"geometry":{"type":"Point","coordinates":[-99.13531,19.42202]}},{"type":"Feature","properties":{"id":"ih-hastane-6","kind":"poi","name":"Unidad de medicina física y rehabilitación norte","theme":"hastane","lab":1},"geometry":{"type":"Point","coordinates":[-99.13428,19.48353]}},{"type":"Feature","properties":{"id":"ih-hastane-7","kind":"poi","name":"Unidad de Medicina Familiar 120 Zaragoza","theme":"hastane","lab":1},"geometry":{"type":"Point","coordinates":[-99.04154,19.38733]}},{"type":"Feature","properties":{"id":"ih-hastane-8","kind":"poi","name":"UMF 64","theme":"hastane","lab":1},"geometry":{"type":"Point","coordinates":[-99.20122,19.55913]}},{"type":"Feature","properties":{"id":"ih-hastane-9","kind":"poi","name":"UMF 181","theme":"hastane","lab":1},"geometry":{"type":"Point","coordinates":[-98.94754,19.27867]}},{"type":"Feature","properties":{"id":"ih-hastane-10","kind":"poi","name":"Luna Amparo Ochoa","theme":"hastane","lab":1},"geometry":{"type":"Point","coordinates":[-99.30305,19.34836]}},{"type":"Feature","properties":{"id":"ih-hastane-11","kind":"poi","name":"Luna Amparo O Castorena","theme":"hastane","lab":1},"geometry":{"type":"Point","coordinates":[-99.29448,19.35692]}},{"type":"Feature","properties":{"id":"ih-hastane-12","kind":"poi","name":"Laboratorios Polanco","theme":"hastane","lab":1},"geometry":{"type":"Point","coordinates":[-99.24264,19.55453]}},{"type":"Feature","properties":{"id":"ih-hastane-13","kind":"poi","name":"Imss Villalonguin","theme":"hastane","lab":1},"geometry":{"type":"Point","coordinates":[-99.16554,19.43406]}},{"type":"Feature","properties":{"id":"ih-hastane-14","kind":"poi","name":"ISSSTE Zaragoza","theme":"hastane","lab":1},"geometry":{"type":"Point","coordinates":[-99.04498,19.38921]}},{"type":"Feature","properties":{"id":"ih-hastane-15","kind":"poi","name":"ISSSTE Unidad Especial Centro de Apoyo Diagnóstico \"San Rafael\"","theme":"hastane","lab":1},"geometry":{"type":"Point","coordinates":[-99.16342,19.43584]}},{"type":"Feature","properties":{"id":"ih-hastane-16","kind":"poi","name":"ISSSTE Hospital Gonzalo Castañeda (Abandonado)","theme":"hastane","lab":1},"geometry":{"type":"Point","coordinates":[-99.14003,19.45474]}},{"type":"Feature","properties":{"id":"ih-hastane-17","kind":"poi","name":"ISSSTE Hospital General José María Morelos y Pavón","theme":"hastane","lab":1},"geometry":{"type":"Point","coordinates":[-98.99529,19.36305]}},{"type":"Feature","properties":{"id":"ih-hastane-18","kind":"poi","name":"ISSSTE Clínica de Medicina Familitar Xalostoc","theme":"hastane","lab":1},"geometry":{"type":"Point","coordinates":[-99.05159,19.55062]}},{"type":"Feature","properties":{"id":"ih-hastane-19","kind":"poi","name":"ISSSTE Clínica Cuitlahuac","theme":"hastane","lab":1},"geometry":{"type":"Point","coordinates":[-99.16578,19.4718]}},{"type":"Feature","properties":{"id":"ih-hastane-20","kind":"poi","name":"ISSSTE Clinica de Medicina Familiar Naucalpan","theme":"hastane","lab":1},"geometry":{"type":"Point","coordinates":[-99.25098,19.49874]}},{"type":"Feature","properties":{"id":"ih-hastane-21","kind":"poi","name":"ISSSTE C.M.F. Perú","theme":"hastane","lab":1},"geometry":{"type":"Point","coordinates":[-99.13818,19.43953]}},{"type":"Feature","properties":{"id":"ih-hastane-22","kind":"poi","name":"ISSSTE C.M.F. Balbuena","theme":"hastane","lab":1},"geometry":{"type":"Point","coordinates":[-99.10569,19.41271]}},{"type":"Feature","properties":{"id":"ih-hastane-23","kind":"poi","name":"ISSSTE","theme":"hastane","lab":1},"geometry":{"type":"Point","coordinates":[-99.01389,19.42148]}},{"type":"Feature","properties":{"id":"ih-hastane-24","kind":"poi","name":"IMSS centro del adulto mayor","theme":"hastane","lab":1},"geometry":{"type":"Point","coordinates":[-99.09761,19.41976]}},{"type":"Feature","properties":{"id":"ih-kiralik-arac-0","kind":"poi","name":"Hertz","theme":"kiralik-arac","lab":1},"geometry":{"type":"Point","coordinates":[-99.07436,19.42184]}},{"type":"Feature","properties":{"id":"ih-kiralik-arac-1","kind":"poi","name":"Hertz","theme":"kiralik-arac","lab":1},"geometry":{"type":"Point","coordinates":[-99.08344,19.43531]}},{"type":"Feature","properties":{"id":"ih-kiralik-arac-2","kind":"poi","name":"Hertz","theme":"kiralik-arac","lab":1},"geometry":{"type":"Point","coordinates":[-99.13582,19.29905]}},{"type":"Feature","properties":{"id":"ih-kiralik-arac-3","kind":"poi","name":"Hertz","theme":"kiralik-arac","lab":1},"geometry":{"type":"Point","coordinates":[-99.17891,19.40215]}},{"type":"Feature","properties":{"id":"ih-kiralik-arac-4","kind":"poi","name":"Hertz","theme":"kiralik-arac","lab":1},"geometry":{"type":"Point","coordinates":[-99.18201,19.34543]}},{"type":"Feature","properties":{"id":"ih-kiralik-arac-5","kind":"poi","name":"Hertz","theme":"kiralik-arac","lab":1},"geometry":{"type":"Point","coordinates":[-99.19705,19.42711]}},{"type":"Feature","properties":{"id":"ih-kiralik-arac-6","kind":"poi","name":"Hertz","theme":"kiralik-arac","lab":1},"geometry":{"type":"Point","coordinates":[-99.20366,19.43877]}},{"type":"Feature","properties":{"id":"ih-kiralik-arac-7","kind":"poi","name":"Hertz","theme":"kiralik-arac","lab":1},"geometry":{"type":"Point","coordinates":[-99.2373,19.50047]}},{"type":"Feature","properties":{"id":"ih-kiralik-arac-8","kind":"poi","name":"Europcar","theme":"kiralik-arac","lab":1},"geometry":{"type":"Point","coordinates":[-99.07641,19.44117]}},{"type":"Feature","properties":{"id":"ih-kiralik-arac-9","kind":"poi","name":"Europcar","theme":"kiralik-arac","lab":1},"geometry":{"type":"Point","coordinates":[-99.1617,19.42924]}},{"type":"Feature","properties":{"id":"ih-kiralik-arac-10","kind":"poi","name":"City Car Rental","theme":"kiralik-arac","lab":1},"geometry":{"type":"Point","coordinates":[-99.07752,19.41816]}},{"type":"Feature","properties":{"id":"ih-kiralik-arac-11","kind":"poi","name":"Avis","theme":"kiralik-arac","lab":1},"geometry":{"type":"Point","coordinates":[-99.16522,19.42751]}},{"type":"Feature","properties":{"id":"ih-kiralik-arac-12","kind":"poi","name":"Alamo","theme":"kiralik-arac","lab":1},"geometry":{"type":"Point","coordinates":[-99.18086,19.43555]}},{"type":"Feature","properties":{"id":"ih-kiralik-arac-13","kind":"poi","name":"Alamo","theme":"kiralik-arac","lab":1},"geometry":{"type":"Point","coordinates":[-99.25982,19.36448]}},{"type":"Feature","properties":{"id":"ih-kiralik-arac-14","kind":"poi","name":"Turismos Garcias","theme":"kiralik-arac","lab":1},"geometry":{"type":"Point","coordinates":[-99.14074,19.52664]}},{"type":"Feature","properties":{"id":"ih-kiralik-arac-15","kind":"poi","name":"Panamericana de manejo","theme":"kiralik-arac","lab":1},"geometry":{"type":"Point","coordinates":[-99.15833,19.40637]}},{"type":"Feature","properties":{"id":"ih-kiralik-arac-16","kind":"poi","name":"Jolel Volkswagen","theme":"kiralik-arac","lab":1},"geometry":{"type":"Point","coordinates":[-99.20189,19.39609]}}]}