{"type":"FeatureCollection","features":[{"type":"Feature","properties":{"id":"ke-tarihi-0","kind":"poi","name":"Mexico City Mexico Temple","theme":"tarihi","lab":1},"geometry":{"type":"Point","coordinates":[-99.08682,19.46589]}},{"type":"Feature","properties":{"id":"ke-tarihi-1","kind":"poi","name":"Biblioteca Vasconcelos","theme":"tarihi","lab":1},"geometry":{"type":"Point","coordinates":[-99.15096,19.44735]}},{"type":"Feature","properties":{"id":"ke-tarihi-2","kind":"poi","name":"Zona arqueológica de Mixcoac","theme":"tarihi","lab":1},"geometry":{"type":"Point","coordinates":[-99.18985,19.38631]}},{"type":"Feature","properties":{"id":"ke-tarihi-3","kind":"poi","name":"Zona Arqueológica de Tlatelolco","theme":"tarihi","lab":1},"geometry":{"type":"Point","coordinates":[-99.13737,19.45133]}},{"type":"Feature","properties":{"id":"ke-tarihi-4","kind":"poi","name":"Zona Arqueológica Santa Cecilia Acatitlan","theme":"tarihi","lab":1},"geometry":{"type":"Point","coordinates":[-99.17345,19.55251]}},{"type":"Feature","properties":{"id":"ke-tarihi-5","kind":"poi","name":"Tren de Ingeniería","theme":"tarihi","lab":1},"geometry":{"type":"Point","coordinates":[-99.18429,19.33097]}},{"type":"Feature","properties":{"id":"ke-tarihi-6","kind":"poi","name":"Templo Expiatorio a Cristo Rey (Antigua Basilica)","theme":"tarihi","lab":1},"geometry":{"type":"Point","coordinates":[-99.11686,19.48522]}},{"type":"Feature","properties":{"id":"ke-tarihi-7","kind":"poi","name":"Polyforum Cultural Siqueiros","theme":"tarihi","lab":1},"geometry":{"type":"Point","coordinates":[-99.17344,19.39331]}},{"type":"Feature","properties":{"id":"ke-tarihi-8","kind":"poi","name":"Pirámide de Tenayuca","theme":"tarihi","lab":1},"geometry":{"type":"Point","coordinates":[-99.16854,19.5321]}},{"type":"Feature","properties":{"id":"ke-tarihi-9","kind":"poi","name":"Piedra del Sol","theme":"tarihi","lab":1},"geometry":{"type":"Point","coordinates":[-99.18739,19.42618]}},{"type":"Feature","properties":{"id":"ke-tarihi-10","kind":"poi","name":"Parroquia de San Luis Obispo de Tolosa Tlaxialtemalco","theme":"tarihi","lab":1},"geometry":{"type":"Point","coordinates":[-99.03636,19.25885]}},{"type":"Feature","properties":{"id":"ke-tarihi-11","kind":"poi","name":"Palacio Postal","theme":"tarihi","lab":1},"geometry":{"type":"Point","coordinates":[-99.1403,19.43562]}},{"type":"Feature","properties":{"id":"ke-tarihi-12","kind":"poi","name":"Monumento a la Revolución","theme":"tarihi","lab":1},"geometry":{"type":"Point","coordinates":[-99.15462,19.43617]}},{"type":"Feature","properties":{"id":"ke-tarihi-13","kind":"poi","name":"Monumento a la Raza","theme":"tarihi","lab":1},"geometry":{"type":"Point","coordinates":[-99.14249,19.46443]}},{"type":"Feature","properties":{"id":"ke-tarihi-14","kind":"poi","name":"Monumento Alvaro Obregón","theme":"tarihi","lab":1},"geometry":{"type":"Point","coordinates":[-99.18592,19.34718]}},{"type":"Feature","properties":{"id":"ke-tarihi-15","kind":"poi","name":"Monumental Flag","theme":"tarihi","lab":1},"geometry":{"type":"Point","coordinates":[-99.08753,19.41946]}},{"type":"Feature","properties":{"id":"ke-tarihi-16","kind":"poi","name":"Las Torres","theme":"tarihi","lab":1},"geometry":{"type":"Point","coordinates":[-99.04586,19.47518]}},{"type":"Feature","properties":{"id":"ke-tarihi-17","kind":"poi","name":"La Resurrección Tultenco","theme":"tarihi","lab":1},"geometry":{"type":"Point","coordinates":[-99.12643,19.41273]}},{"type":"Feature","properties":{"id":"ke-tarihi-18","kind":"poi","name":"La Concepción Ixnahualtongo","theme":"tarihi","lab":1},"geometry":{"type":"Point","coordinates":[-99.12541,19.42101]}},{"type":"Feature","properties":{"id":"ke-tarihi-19","kind":"poi","name":"Korean Friendship Pavilion","theme":"tarihi","lab":1},"geometry":{"type":"Point","coordinates":[-99.19167,19.4254]}},{"type":"Feature","properties":{"id":"ke-tarihi-20","kind":"poi","name":"Kiosco morisco","theme":"tarihi","lab":1},"geometry":{"type":"Point","coordinates":[-99.15686,19.44965]}},{"type":"Feature","properties":{"id":"ke-tarihi-21","kind":"poi","name":"Iglesia de Santa Ana","theme":"tarihi","lab":1},"geometry":{"type":"Point","coordinates":[-99.13276,19.44729]}},{"type":"Feature","properties":{"id":"ke-tarihi-22","kind":"poi","name":"Glorieta de los Insurgentes","theme":"tarihi","lab":1},"geometry":{"type":"Point","coordinates":[-99.16296,19.42366]}},{"type":"Feature","properties":{"id":"ke-tarihi-23","kind":"poi","name":"Edificio de Salubridad e Higiene","theme":"tarihi","lab":1},"geometry":{"type":"Point","coordinates":[-99.17545,19.42235]}},{"type":"Feature","properties":{"id":"ke-tarihi-24","kind":"poi","name":"Cárcamo de Dolores","theme":"tarihi","lab":1},"geometry":{"type":"Point","coordinates":[-99.19798,19.41284]}},{"type":"Feature","properties":{"id":"ke-tarihi-25","kind":"poi","name":"Chinatown","theme":"tarihi","lab":1},"geometry":{"type":"Point","coordinates":[-99.14305,19.43302]}},{"type":"Feature","properties":{"id":"ke-tarihi-26","kind":"poi","name":"Centenario del Genocidio Armenio","theme":"tarihi","lab":1},"geometry":{"type":"Point","coordinates":[-99.16949,19.41077]}},{"type":"Feature","properties":{"id":"ke-tarihi-27","kind":"poi","name":"Casa de las águilas","theme":"tarihi","lab":1},"geometry":{"type":"Point","coordinates":[-99.13162,19.43559]}},{"type":"Feature","properties":{"id":"ke-tarihi-28","kind":"poi","name":"Capilla de San Juan Bautista","theme":"tarihi","lab":1},"geometry":{"type":"Point","coordinates":[-99.10622,19.26574]}},{"type":"Feature","properties":{"id":"ke-tarihi-29","kind":"poi","name":"Banorte Stadium","theme":"tarihi","lab":1},"geometry":{"type":"Point","coordinates":[-99.15048,19.30294]}},{"type":"Feature","properties":{"id":"ke-tarihi-30","kind":"poi","name":"Arena México","theme":"tarihi","lab":1},"geometry":{"type":"Point","coordinates":[-99.152,19.42461]}},{"type":"Feature","properties":{"id":"ke-tarihi-31","kind":"poi","name":"Angel of Independence","theme":"tarihi","lab":1},"geometry":{"type":"Point","coordinates":[-99.16767,19.427]}},{"type":"Feature","properties":{"id":"ke-tarihi-32","kind":"poi","name":"Ahuehuete El Sargento","theme":"tarihi","lab":1},"geometry":{"type":"Point","coordinates":[-99.1808,19.41933]}},{"type":"Feature","properties":{"id":"ke-tarihi-33","kind":"poi","name":"Periquillo Hall","theme":"tarihi","lab":1},"geometry":{"type":"Point","coordinates":[-99.18397,19.37188]}},{"type":"Feature","properties":{"id":"ke-tarihi-34","kind":"poi","name":"Museo Indígena","theme":"tarihi","lab":1},"geometry":{"type":"Point","coordinates":[-99.13147,19.45164]}},{"type":"Feature","properties":{"id":"ke-tarihi-35","kind":"poi","name":"Bodega Nacional de Arte","theme":"tarihi","lab":1},"geometry":{"type":"Point","coordinates":[-99.23177,19.38737]}},{"type":"Feature","properties":{"id":"ke-tarihi-36","kind":"poi","name":"Ópticas Lux Torre Latino en el Centro Histórico","theme":"tarihi","lab":1},"geometry":{"type":"Point","coordinates":[-99.1452,19.49337]}},{"type":"Feature","properties":{"id":"ke-tarihi-37","kind":"poi","name":"Árbol de la Noche Victoriosa","theme":"tarihi","lab":1},"geometry":{"type":"Point","coordinates":[-99.17921,19.4555]}},{"type":"Feature","properties":{"id":"ke-tarihi-38","kind":"poi","name":"virgencita","theme":"tarihi","lab":1},"geometry":{"type":"Point","coordinates":[-99.00319,19.28924]}},{"type":"Feature","properties":{"id":"ke-tarihi-39","kind":"poi","name":"toro trigonometrico","theme":"tarihi","lab":1},"geometry":{"type":"Point","coordinates":[-99.22676,19.51136]}},{"type":"Feature","properties":{"id":"ke-tarihi-40","kind":"poi","name":"juan escutia","theme":"tarihi","lab":1},"geometry":{"type":"Point","coordinates":[-99.04497,19.40704]}},{"type":"Feature","properties":{"id":"ke-tarihi-41","kind":"poi","name":"arbol forestal II","theme":"tarihi","lab":1},"geometry":{"type":"Point","coordinates":[-99.12683,19.56615]}},{"type":"Feature","properties":{"id":"ke-tarihi-42","kind":"poi","name":"Zona Arqueológica Cuauhilama","theme":"tarihi","lab":1},"geometry":{"type":"Point","coordinates":[-99.07057,19.24205]}},{"type":"Feature","properties":{"id":"ke-tarihi-43","kind":"poi","name":"Zona Arqueológica \"El Conde\"","theme":"tarihi","lab":1},"geometry":{"type":"Point","coordinates":[-99.23085,19.47054]}},{"type":"Feature","properties":{"id":"ke-tarihi-44","kind":"poi","name":"Yauhtepec","theme":"tarihi","lab":1},"geometry":{"type":"Point","coordinates":[-99.17797,19.41131]}},{"type":"Feature","properties":{"id":"ke-tarihi-45","kind":"poi","name":"Virgen de Tepito","theme":"tarihi","lab":1},"geometry":{"type":"Point","coordinates":[-99.12288,19.44396]}},{"type":"Feature","properties":{"id":"ke-tarihi-46","kind":"poi","name":"Virgen de Juquila","theme":"tarihi","lab":1},"geometry":{"type":"Point","coordinates":[-98.96417,19.59382]}},{"type":"Feature","properties":{"id":"ke-tarihi-47","kind":"poi","name":"Virgen de Guadalupe","theme":"tarihi","lab":1},"geometry":{"type":"Point","coordinates":[-98.93641,19.57277]}},{"type":"Feature","properties":{"id":"ke-tarihi-48","kind":"poi","name":"Victoria Venustiano Carranza","theme":"tarihi","lab":1},"geometry":{"type":"Point","coordinates":[-99.11487,19.4204]}},{"type":"Feature","properties":{"id":"ke-tarihi-49","kind":"poi","name":"Vertice de triangulación 1933","theme":"tarihi","lab":1},"geometry":{"type":"Point","coordinates":[-99.1559,19.56021]}},{"type":"Feature","properties":{"id":"ke-tarihi-50","kind":"poi","name":"Venustiano Carranza","theme":"tarihi","lab":1},"geometry":{"type":"Point","coordinates":[-99.09355,19.41443]}},{"type":"Feature","properties":{"id":"ke-tarihi-51","kind":"poi","name":"Variante de la Llave de Kepler","theme":"tarihi","lab":1},"geometry":{"type":"Point","coordinates":[-99.18419,19.31552]}},{"type":"Feature","properties":{"id":"ke-tarihi-52","kind":"poi","name":"Tubo Exterior","theme":"tarihi","lab":1},"geometry":{"type":"Point","coordinates":[-99.21816,19.55569]}},{"type":"Feature","properties":{"id":"ke-tarihi-53","kind":"poi","name":"Torre XVI","theme":"tarihi","lab":1},"geometry":{"type":"Point","coordinates":[-99.06862,19.44854]}},{"type":"Feature","properties":{"id":"ke-tarihi-54","kind":"poi","name":"Torre VI","theme":"tarihi","lab":1},"geometry":{"type":"Point","coordinates":[-99.08808,19.46212]}},{"type":"Feature","properties":{"id":"ke-tarihi-55","kind":"poi","name":"Torre IV","theme":"tarihi","lab":1},"geometry":{"type":"Point","coordinates":[-99.09109,19.45419]}},{"type":"Feature","properties":{"id":"ke-tarihi-56","kind":"poi","name":"Tio Chevere","theme":"tarihi","lab":1},"geometry":{"type":"Point","coordinates":[-99.23128,19.53726]}},{"type":"Feature","properties":{"id":"ke-tarihi-57","kind":"poi","name":"Sor Juana Inés de la Cruz","theme":"tarihi","lab":1},"geometry":{"type":"Point","coordinates":[-99.20491,19.40682]}},{"type":"Feature","properties":{"id":"ke-tarihi-58","kind":"poi","name":"Sor Juana Ines de la Cruz","theme":"tarihi","lab":1},"geometry":{"type":"Point","coordinates":[-99.01471,19.40566]}},{"type":"Feature","properties":{"id":"ke-tarihi-59","kind":"poi","name":"Solidaridad","theme":"tarihi","lab":1},"geometry":{"type":"Point","coordinates":[-99.19843,19.59877]}},{"type":"Feature","properties":{"id":"ke-tarihi-60","kind":"poi","name":"Señor del parque.","theme":"tarihi","lab":1},"geometry":{"type":"Point","coordinates":[-99.12825,19.38132]}},{"type":"Feature","properties":{"id":"ke-tarihi-61","kind":"poi","name":"Serpiente","theme":"tarihi","lab":1},"geometry":{"type":"Point","coordinates":[-99.20408,19.33242]}},{"type":"Feature","properties":{"id":"ke-tarihi-62","kind":"poi","name":"Ricardo Flores Magón","theme":"tarihi","lab":1},"geometry":{"type":"Point","coordinates":[-99.1293,19.34009]}},{"type":"Feature","properties":{"id":"ke-tarihi-63","kind":"poi","name":"Reloj Otoño","theme":"tarihi","lab":1},"geometry":{"type":"Point","coordinates":[-99.14687,19.45989]}},{"type":"Feature","properties":{"id":"ke-tarihi-64","kind":"poi","name":"Raúl Anguiano","theme":"tarihi","lab":1},"geometry":{"type":"Point","coordinates":[-99.16889,19.34837]}},{"type":"Feature","properties":{"id":"ke-tarihi-65","kind":"poi","name":"Quiosco Casual","theme":"tarihi","lab":1},"geometry":{"type":"Point","coordinates":[-99.10553,19.32479]}},{"type":"Feature","properties":{"id":"ke-tarihi-66","kind":"poi","name":"Quauhtepetl","theme":"tarihi","lab":1},"geometry":{"type":"Point","coordinates":[-99.11787,19.59078]}},{"type":"Feature","properties":{"id":"ke-tarihi-67","kind":"poi","name":"Puente de piedra \"El Jorobado\"","theme":"tarihi","lab":1},"geometry":{"type":"Point","coordinates":[-99.23525,19.53119]}},{"type":"Feature","properties":{"id":"ke-tarihi-68","kind":"poi","name":"Puente \"Japones\" Masayoshi","theme":"tarihi","lab":1},"geometry":{"type":"Point","coordinates":[-99.14256,19.35234]}},{"type":"Feature","properties":{"id":"ke-tarihi-69","kind":"poi","name":"Pueblo La Venta","theme":"tarihi","lab":1},"geometry":{"type":"Point","coordinates":[-99.30599,19.3438]}},{"type":"Feature","properties":{"id":"ke-tarihi-70","kind":"poi","name":"Polvorín","theme":"tarihi","lab":1},"geometry":{"type":"Point","coordinates":[-99.23071,19.38991]}},{"type":"Feature","properties":{"id":"ke-tarihi-71","kind":"poi","name":"Plaza 11","theme":"tarihi","lab":1},"geometry":{"type":"Point","coordinates":[-99.08353,19.45218]}},{"type":"Feature","properties":{"id":"ke-tarihi-72","kind":"poi","name":"Plaza \"El Carrillón\"","theme":"tarihi","lab":1},"geometry":{"type":"Point","coordinates":[-99.13681,19.49969]}},{"type":"Feature","properties":{"id":"ke-tarihi-73","kind":"poi","name":"Placa Jardín de las campanas","theme":"tarihi","lab":1},"geometry":{"type":"Point","coordinates":[-99.07315,19.4642]}},{"type":"Feature","properties":{"id":"ke-tarihi-74","kind":"poi","name":"Placa Conmemorativa ITESM-ABC Edificio Amparo","theme":"tarihi","lab":1},"geometry":{"type":"Point","coordinates":[-99.28294,19.3551]}},{"type":"Feature","properties":{"id":"ke-tarihi-75","kind":"poi","name":"Pirámide San Carlos","theme":"tarihi","lab":1},"geometry":{"type":"Point","coordinates":[-99.04806,19.579]}},{"type":"Feature","properties":{"id":"ke-tarihi-76","kind":"poi","name":"Pirámide Mazatepetl","theme":"tarihi","lab":1},"geometry":{"type":"Point","coordinates":[-99.25403,19.32148]}},{"type":"Feature","properties":{"id":"ke-tarihi-77","kind":"poi","name":"Piedra del Fuego Nuevo","theme":"tarihi","lab":1},"geometry":{"type":"Point","coordinates":[-99.1616,19.54016]}},{"type":"Feature","properties":{"id":"ke-tarihi-78","kind":"poi","name":"Piedra de Molino","theme":"tarihi","lab":1},"geometry":{"type":"Point","coordinates":[-99.1776,19.28926]}},{"type":"Feature","properties":{"id":"ke-tarihi-79","kind":"poi","name":"Petrograbados","theme":"tarihi","lab":1},"geometry":{"type":"Point","coordinates":[-99.10849,19.49458]}},{"type":"Feature","properties":{"id":"ke-tarihi-80","kind":"poi","name":"Pensil Mexicano","theme":"tarihi","lab":1},"geometry":{"type":"Point","coordinates":[-99.19043,19.45004]}},{"type":"Feature","properties":{"id":"ke-tarihi-81","kind":"poi","name":"Parroquia de San Jacinto","theme":"tarihi","lab":1},"geometry":{"type":"Point","coordinates":[-99.19342,19.3447]}},{"type":"Feature","properties":{"id":"ke-tarihi-82","kind":"poi","name":"Parque Tezozómoc Azcapotzalco","theme":"tarihi","lab":1},"geometry":{"type":"Point","coordinates":[-99.20642,19.50042]}},{"type":"Feature","properties":{"id":"ke-tarihi-83","kind":"poi","name":"Paracaidista","theme":"tarihi","lab":1},"geometry":{"type":"Point","coordinates":[-99.02395,19.55867]}},{"type":"Feature","properties":{"id":"ke-tarihi-84","kind":"poi","name":"Pancho Villa","theme":"tarihi","lab":1},"geometry":{"type":"Point","coordinates":[-99.15663,19.37194]}},{"type":"Feature","properties":{"id":"ke-tarihi-85","kind":"poi","name":"Panal de San Javier - Lindero con Cartagena","theme":"tarihi","lab":1},"geometry":{"type":"Point","coordinates":[-99.14339,19.57249]}},{"type":"Feature","properties":{"id":"ke-tarihi-86","kind":"poi","name":"Palmitas","theme":"tarihi","lab":1},"geometry":{"type":"Point","coordinates":[-99.20483,19.43155]}},{"type":"Feature","properties":{"id":"ke-tarihi-87","kind":"poi","name":"Palacio de Tlalpitzac","theme":"tarihi","lab":1},"geometry":{"type":"Point","coordinates":[-99.20519,19.47491]}},{"type":"Feature","properties":{"id":"ke-tarihi-88","kind":"poi","name":"Olivier Seguin","theme":"tarihi","lab":1},"geometry":{"type":"Point","coordinates":[-99.13171,19.28348]}},{"type":"Feature","properties":{"id":"ke-modern-0","kind":"poi","name":"Teatro de la Ciudad Esperanza Iris","theme":"modern","lab":1},"geometry":{"type":"Point","coordinates":[-99.13723,19.43671]}},{"type":"Feature","properties":{"id":"ke-modern-1","kind":"poi","name":"Sala Silvestre Revueltas","theme":"modern","lab":1},"geometry":{"type":"Point","coordinates":[-99.17871,19.30276]}},{"type":"Feature","properties":{"id":"ke-modern-2","kind":"poi","name":"Centro Cultural Casa Talavera","theme":"modern","lab":1},"geometry":{"type":"Point","coordinates":[-99.12732,19.42819]}},{"type":"Feature","properties":{"id":"ke-modern-3","kind":"poi","name":"Teatro Metropólitan","theme":"modern","lab":1},"geometry":{"type":"Point","coordinates":[-99.14685,19.43343]}},{"type":"Feature","properties":{"id":"ke-modern-4","kind":"poi","name":"Salón de la Plástica Mexicana","theme":"modern","lab":1},"geometry":{"type":"Point","coordinates":[-99.16109,19.41958]}},{"type":"Feature","properties":{"id":"ke-modern-6","kind":"poi","name":"Multiforo Cultural Alicia","theme":"modern","lab":1},"geometry":{"type":"Point","coordinates":[-99.15771,19.45295]}},{"type":"Feature","properties":{"id":"ke-modern-7","kind":"poi","name":"Centro de Cultura Digital","theme":"modern","lab":1},"geometry":{"type":"Point","coordinates":[-99.17591,19.42306]}},{"type":"Feature","properties":{"id":"ke-modern-8","kind":"poi","name":"Auditorio Nacional","theme":"modern","lab":1},"geometry":{"type":"Point","coordinates":[-99.19484,19.4248]}},{"type":"Feature","properties":{"id":"ke-modern-9","kind":"poi","name":"Espacio CDMX","theme":"modern","lab":1},"geometry":{"type":"Point","coordinates":[-99.2028,19.41119]}},{"type":"Feature","properties":{"id":"ke-modern-10","kind":"poi","name":"El 77 Centro Cultural Autogestivo","theme":"modern","lab":1},"geometry":{"type":"Point","coordinates":[-99.15426,19.42888]}},{"type":"Feature","properties":{"id":"ke-modern-11","kind":"poi","name":"Centro Vlady","theme":"modern","lab":1},"geometry":{"type":"Point","coordinates":[-99.18486,19.3733]}},{"type":"Feature","properties":{"id":"ke-modern-12","kind":"poi","name":"Centro Cultural y Recreativo Niños Héroes","theme":"modern","lab":1},"geometry":{"type":"Point","coordinates":[-99.15949,19.36364]}},{"type":"Feature","properties":{"id":"ke-modern-13","kind":"poi","name":"Centro Cultural \"Casa de las Bombas\"","theme":"modern","lab":1},"geometry":{"type":"Point","coordinates":[-99.07349,19.35638]}},{"type":"Feature","properties":{"id":"ke-modern-14","kind":"poi","name":"Casa de las Humanidades","theme":"modern","lab":1},"geometry":{"type":"Point","coordinates":[-99.16544,19.34776]}},{"type":"Feature","properties":{"id":"ke-modern-15","kind":"poi","name":"datamap","theme":"modern","lab":1},"geometry":{"type":"Point","coordinates":[-99.06119,19.35505]}},{"type":"Feature","properties":{"id":"ke-modern-16","kind":"poi","name":"Zona Danza","theme":"modern","lab":1},"geometry":{"type":"Point","coordinates":[-99.29084,19.39135]}},{"type":"Feature","properties":{"id":"ke-modern-17","kind":"poi","name":"Zen Martial Arts","theme":"modern","lab":1},"geometry":{"type":"Point","coordinates":[-99.23145,19.34168]}},{"type":"Feature","properties":{"id":"ke-modern-18","kind":"poi","name":"Temporary Exhibition Hall","theme":"modern","lab":1},"geometry":{"type":"Point","coordinates":[-99.18558,19.4264]}},{"type":"Feature","properties":{"id":"ke-modern-19","kind":"poi","name":"Taller De Musica","theme":"modern","lab":1},"geometry":{"type":"Point","coordinates":[-99.25704,19.32853]}},{"type":"Feature","properties":{"id":"ke-modern-20","kind":"poi","name":"Stars Fushion Salon De Baile","theme":"modern","lab":1},"geometry":{"type":"Point","coordinates":[-99.25477,19.30437]}},{"type":"Feature","properties":{"id":"ke-modern-21","kind":"poi","name":"Sport Dance","theme":"modern","lab":1},"geometry":{"type":"Point","coordinates":[-99.2489,19.36221]}},{"type":"Feature","properties":{"id":"ke-modern-22","kind":"poi","name":"Sala De Artes \"Centenario de la Revolucion\"","theme":"modern","lab":1},"geometry":{"type":"Point","coordinates":[-99.05014,19.28639]}},{"type":"Feature","properties":{"id":"ke-modern-23","kind":"poi","name":"RodArte Gallery","theme":"modern","lab":1},"geometry":{"type":"Point","coordinates":[-99.16513,19.43696]}},{"type":"Feature","properties":{"id":"ke-modern-24","kind":"poi","name":"River Dance Estudio","theme":"modern","lab":1},"geometry":{"type":"Point","coordinates":[-99.26125,19.38908]}},{"type":"Feature","properties":{"id":"ke-modern-25","kind":"poi","name":"Reparacion De Niños Dios","theme":"modern","lab":1},"geometry":{"type":"Point","coordinates":[-99.28164,19.44666]}},{"type":"Feature","properties":{"id":"ke-modern-26","kind":"poi","name":"Poliforum Cultural Venustiano Carranza","theme":"modern","lab":1},"geometry":{"type":"Point","coordinates":[-99.08809,19.41988]}},{"type":"Feature","properties":{"id":"ke-modern-27","kind":"poi","name":"Payasos Elegance Swow","theme":"modern","lab":1},"geometry":{"type":"Point","coordinates":[-99.23014,19.27704]}},{"type":"Feature","properties":{"id":"ke-modern-28","kind":"poi","name":"Payasos Ejecutivos","theme":"modern","lab":1},"geometry":{"type":"Point","coordinates":[-99.28503,19.45464]}},{"type":"Feature","properties":{"id":"ke-modern-29","kind":"poi","name":"Omega Dance","theme":"modern","lab":1},"geometry":{"type":"Point","coordinates":[-99.267,19.44704]}},{"type":"Feature","properties":{"id":"ke-modern-30","kind":"poi","name":"Music Factory","theme":"modern","lab":1},"geometry":{"type":"Point","coordinates":[-99.2391,19.30449]}},{"type":"Feature","properties":{"id":"ke-modern-31","kind":"poi","name":"Mundo Callado Galería","theme":"modern","lab":1},"geometry":{"type":"Point","coordinates":[-99.16093,19.35524]}},{"type":"Feature","properties":{"id":"ke-modern-32","kind":"poi","name":"Mooni","theme":"modern","lab":1},"geometry":{"type":"Point","coordinates":[-99.17453,19.41298]}},{"type":"Feature","properties":{"id":"ke-modern-33","kind":"poi","name":"Md Studio","theme":"modern","lab":1},"geometry":{"type":"Point","coordinates":[-99.30139,19.57393]}},{"type":"Feature","properties":{"id":"ke-modern-34","kind":"poi","name":"Marbet","theme":"modern","lab":1},"geometry":{"type":"Point","coordinates":[-99.01666,19.41391]}},{"type":"Feature","properties":{"id":"ke-modern-35","kind":"poi","name":"Magic Fiesta","theme":"modern","lab":1},"geometry":{"type":"Point","coordinates":[-99.2437,19.31289]}},{"type":"Feature","properties":{"id":"ke-modern-36","kind":"poi","name":"La Nana","theme":"modern","lab":1},"geometry":{"type":"Point","coordinates":[-99.1429,19.43812]}},{"type":"Feature","properties":{"id":"ke-modern-37","kind":"poi","name":"La Casita","theme":"modern","lab":1},"geometry":{"type":"Point","coordinates":[-99.08325,19.41485]}},{"type":"Feature","properties":{"id":"ke-modern-38","kind":"poi","name":"König Galerie","theme":"modern","lab":1},"geometry":{"type":"Point","coordinates":[-99.17779,19.41192]}},{"type":"Feature","properties":{"id":"ke-modern-39","kind":"poi","name":"Jose Mataix","theme":"modern","lab":1},"geometry":{"type":"Point","coordinates":[-99.15318,19.39895]}},{"type":"Feature","properties":{"id":"ke-modern-40","kind":"poi","name":"Jazzercize Gimnasio","theme":"modern","lab":1},"geometry":{"type":"Point","coordinates":[-99.23156,19.3211]}},{"type":"Feature","properties":{"id":"ke-modern-41","kind":"poi","name":"Jardín de las Campanas","theme":"modern","lab":1},"geometry":{"type":"Point","coordinates":[-99.07356,19.46389]}},{"type":"Feature","properties":{"id":"ke-modern-42","kind":"poi","name":"Instituto Superior De Artes Estado De Mexico","theme":"modern","lab":1},"geometry":{"type":"Point","coordinates":[-99.3032,19.59718]}},{"type":"Feature","properties":{"id":"ke-modern-43","kind":"poi","name":"Instituto Anglo Español","theme":"modern","lab":1},"geometry":{"type":"Point","coordinates":[-99.15737,19.43953]}},{"type":"Feature","properties":{"id":"ke-modern-44","kind":"poi","name":"House of Gaga","theme":"modern","lab":1},"geometry":{"type":"Point","coordinates":[-99.16317,19.40474]}},{"type":"Feature","properties":{"id":"ke-doga-0","kind":"poi","name":"Plaza de la Solidaridad","theme":"doga","lab":1},"geometry":{"type":"Point","coordinates":[-99.14669,19.43557]}},{"type":"Feature","properties":{"id":"ke-doga-1","kind":"poi","name":"Parque La Mexicana","theme":"doga","lab":1},"geometry":{"type":"Point","coordinates":[-99.27141,19.35681]}},{"type":"Feature","properties":{"id":"ke-doga-2","kind":"poi","name":"Las Cuevitas","theme":"doga","lab":1},"geometry":{"type":"Point","coordinates":[-99.24747,19.45571]}},{"type":"Feature","properties":{"id":"ke-doga-4","kind":"poi","name":"Vivero Coyoacán","theme":"doga","lab":1},"geometry":{"type":"Point","coordinates":[-99.17265,19.35416]}},{"type":"Feature","properties":{"id":"ke-doga-5","kind":"poi","name":"Tenayuca II","theme":"doga","lab":1},"geometry":{"type":"Point","coordinates":[-99.16919,19.53496]}},{"type":"Feature","properties":{"id":"ke-doga-6","kind":"poi","name":"Proyecto Ecológico Lago de Texcoco (PELT)","theme":"doga","lab":1},"geometry":{"type":"Point","coordinates":[-98.98376,19.47998]}},{"type":"Feature","properties":{"id":"ke-doga-7","kind":"poi","name":"Plaza Río de Janeiro","theme":"doga","lab":1},"geometry":{"type":"Point","coordinates":[-99.16045,19.42113]}},{"type":"Feature","properties":{"id":"ke-doga-8","kind":"poi","name":"Peñón de los baños","theme":"doga","lab":1},"geometry":{"type":"Point","coordinates":[-99.08274,19.44105]}},{"type":"Feature","properties":{"id":"ke-doga-9","kind":"poi","name":"Parque de los Venados","theme":"doga","lab":1},"geometry":{"type":"Point","coordinates":[-99.15607,19.37202]}},{"type":"Feature","properties":{"id":"ke-doga-10","kind":"poi","name":"Parque de los Periodistas Ilustres","theme":"doga","lab":1},"geometry":{"type":"Point","coordinates":[-99.11876,19.42038]}},{"type":"Feature","properties":{"id":"ke-doga-11","kind":"poi","name":"Parque Tezozómoc","theme":"doga","lab":1},"geometry":{"type":"Point","coordinates":[-99.20978,19.49943]}},{"type":"Feature","properties":{"id":"ke-doga-12","kind":"poi","name":"Parque México","theme":"doga","lab":1},"geometry":{"type":"Point","coordinates":[-99.16939,19.41236]}},{"type":"Feature","properties":{"id":"ke-doga-13","kind":"poi","name":"Parque Lira","theme":"doga","lab":1},"geometry":{"type":"Point","coordinates":[-99.18999,19.4059]}},{"type":"Feature","properties":{"id":"ke-doga-14","kind":"poi","name":"Parque Lincoln","theme":"doga","lab":1},"geometry":{"type":"Point","coordinates":[-99.19703,19.42953]}},{"type":"Feature","properties":{"id":"ke-doga-15","kind":"poi","name":"Parque Hundido","theme":"doga","lab":1},"geometry":{"type":"Point","coordinates":[-99.17909,19.37831]}},{"type":"Feature","properties":{"id":"ke-doga-16","kind":"poi","name":"Parque Guadalupe Victoria","theme":"doga","lab":1},"geometry":{"type":"Point","coordinates":[-99.11973,19.4304]}},{"type":"Feature","properties":{"id":"ke-doga-17","kind":"poi","name":"Parque Enrique Ramírez y Ramírez","theme":"doga","lab":1},"geometry":{"type":"Point","coordinates":[-99.15016,19.36399]}},{"type":"Feature","properties":{"id":"ke-doga-18","kind":"poi","name":"Parque Bicentenario","theme":"doga","lab":1},"geometry":{"type":"Point","coordinates":[-99.19881,19.469]}},{"type":"Feature","properties":{"id":"ke-doga-19","kind":"poi","name":"Island of the Dolls","theme":"doga","lab":1},"geometry":{"type":"Point","coordinates":[-99.08878,19.27223]}},{"type":"Feature","properties":{"id":"ke-doga-20","kind":"poi","name":"Cerro de la Estrella","theme":"doga","lab":1},"geometry":{"type":"Point","coordinates":[-99.09046,19.34384]}},{"type":"Feature","properties":{"id":"ke-doga-21","kind":"poi","name":"Cerro Tepeyac","theme":"doga","lab":1},"geometry":{"type":"Point","coordinates":[-99.11571,19.48698]}},{"type":"Feature","properties":{"id":"ke-doga-22","kind":"poi","name":"Alameda del Sur","theme":"doga","lab":1},"geometry":{"type":"Point","coordinates":[-99.12236,19.30954]}},{"type":"Feature","properties":{"id":"ke-doga-23","kind":"poi","name":"Alameda Oriente","theme":"doga","lab":1},"geometry":{"type":"Point","coordinates":[-99.05363,19.43672]}},{"type":"Feature","properties":{"id":"ke-doga-24","kind":"poi","name":"area verde","theme":"doga","lab":1},"geometry":{"type":"Point","coordinates":[-99.30612,19.37818]}},{"type":"Feature","properties":{"id":"ke-doga-25","kind":"poi","name":"Parque de la Ciencia Tlalnepantla","theme":"doga","lab":1},"geometry":{"type":"Point","coordinates":[-99.11206,19.53094]}},{"type":"Feature","properties":{"id":"ke-doga-26","kind":"poi","name":"Parque canino","theme":"doga","lab":1},"geometry":{"type":"Point","coordinates":[-99.19006,19.51583]}},{"type":"Feature","properties":{"id":"ke-doga-27","kind":"poi","name":"Parque Zamzy","theme":"doga","lab":1},"geometry":{"type":"Point","coordinates":[-99.21371,19.44979]}},{"type":"Feature","properties":{"id":"ke-doga-28","kind":"poi","name":"Parque Teololco","theme":"doga","lab":1},"geometry":{"type":"Point","coordinates":[-99.20334,19.32542]}},{"type":"Feature","properties":{"id":"ke-doga-29","kind":"poi","name":"Parque Lago Alberto","theme":"doga","lab":1},"geometry":{"type":"Point","coordinates":[-99.18629,19.44164]}},{"type":"Feature","properties":{"id":"ke-doga-30","kind":"poi","name":"Parque Juan Cordero","theme":"doga","lab":1},"geometry":{"type":"Point","coordinates":[-99.22178,19.5105]}},{"type":"Feature","properties":{"id":"ke-doga-31","kind":"poi","name":"Parque Jalalpa 2000","theme":"doga","lab":1},"geometry":{"type":"Point","coordinates":[-99.24135,19.37205]}},{"type":"Feature","properties":{"id":"ke-doga-32","kind":"poi","name":"Parque Corpus Cristhi","theme":"doga","lab":1},"geometry":{"type":"Point","coordinates":[-99.1206,19.46748]}},{"type":"Feature","properties":{"id":"ke-doga-33","kind":"poi","name":"Jardin Cuajimalpa de Morelos","theme":"doga","lab":1},"geometry":{"type":"Point","coordinates":[-99.29891,19.35767]}},{"type":"Feature","properties":{"id":"ke-doga-34","kind":"poi","name":"Huerto Actipan","theme":"doga","lab":1},"geometry":{"type":"Point","coordinates":[-99.17963,19.36992]}},{"type":"Feature","properties":{"id":"ke-doga-35","kind":"poi","name":"FUNO Center","theme":"doga","lab":1},"geometry":{"type":"Point","coordinates":[-99.21056,19.58862]}},{"type":"Feature","properties":{"id":"ke-doga-36","kind":"poi","name":"Canchas","theme":"doga","lab":1},"geometry":{"type":"Point","coordinates":[-99.28866,19.32216]}},{"type":"Feature","properties":{"id":"ke-doga-37","kind":"poi","name":"Cancha de futbol A","theme":"doga","lab":1},"geometry":{"type":"Point","coordinates":[-99.30041,19.34126]}},{"type":"Feature","properties":{"id":"ke-doga-38","kind":"poi","name":"Cancha de Basketball, Parque Estado de México","theme":"doga","lab":1},"geometry":{"type":"Point","coordinates":[-99.0114,19.41966]}},{"type":"Feature","properties":{"id":"ke-doga-39","kind":"poi","name":"Camellón","theme":"doga","lab":1},"geometry":{"type":"Point","coordinates":[-99.1408,19.4035]}},{"type":"Feature","properties":{"id":"ke-doga-40","kind":"poi","name":"Azcapotzalco","theme":"doga","lab":1},"geometry":{"type":"Point","coordinates":[-99.16098,19.47882]}},{"type":"Feature","properties":{"id":"ke-doga-41","kind":"poi","name":"Astrum","theme":"doga","lab":1},"geometry":{"type":"Point","coordinates":[-99.08221,19.41411]}},{"type":"Feature","properties":{"id":"ke-doga-42","kind":"poi","name":"Áreas Verdes Lomas Estrella","theme":"doga","lab":1},"geometry":{"type":"Point","coordinates":[-99.09228,19.31495]}},{"type":"Feature","properties":{"id":"ke-doga-43","kind":"poi","name":"Áreas Verdes","theme":"doga","lab":1},"geometry":{"type":"Point","coordinates":[-98.97661,19.41766]}},{"type":"Feature","properties":{"id":"ke-doga-44","kind":"poi","name":"Área verde recreativa de Oriente 257","theme":"doga","lab":1},"geometry":{"type":"Point","coordinates":[-99.06224,19.397]}},{"type":"Feature","properties":{"id":"ke-doga-45","kind":"poi","name":"Área infantil","theme":"doga","lab":1},"geometry":{"type":"Point","coordinates":[-99.12739,19.49359]}},{"type":"Feature","properties":{"id":"ke-doga-46","kind":"poi","name":"Área común recreativa Sierra de pinos","theme":"doga","lab":1},"geometry":{"type":"Point","coordinates":[-98.97701,19.58934]}},{"type":"Feature","properties":{"id":"ke-doga-47","kind":"poi","name":"Área Verde ITESM","theme":"doga","lab":1},"geometry":{"type":"Point","coordinates":[-99.1417,19.28577]}},{"type":"Feature","properties":{"id":"ke-doga-48","kind":"poi","name":"´Parque Eológico tarango","theme":"doga","lab":1},"geometry":{"type":"Point","coordinates":[-99.22976,19.35269]}},{"type":"Feature","properties":{"id":"ke-doga-49","kind":"poi","name":"parque, Ahuehuetes 49, lomas de san mateo, 53200","theme":"doga","lab":1},"geometry":{"type":"Point","coordinates":[-99.2674,19.49408]}},{"type":"Feature","properties":{"id":"ke-doga-50","kind":"poi","name":"parque unidad imss","theme":"doga","lab":1},"geometry":{"type":"Point","coordinates":[-99.20198,19.5569]}},{"type":"Feature","properties":{"id":"ke-doga-51","kind":"poi","name":"parque san francisco","theme":"doga","lab":1},"geometry":{"type":"Point","coordinates":[-99.27597,19.37512]}},{"type":"Feature","properties":{"id":"ke-doga-52","kind":"poi","name":"parque kiosko cuautemoc","theme":"doga","lab":1},"geometry":{"type":"Point","coordinates":[-99.04365,19.40643]}},{"type":"Feature","properties":{"id":"ke-doga-53","kind":"poi","name":"parque juan escutia","theme":"doga","lab":1},"geometry":{"type":"Point","coordinates":[-99.04501,19.40704]}},{"type":"Feature","properties":{"id":"ke-doga-54","kind":"poi","name":"parque ecologico la barranca","theme":"doga","lab":1},"geometry":{"type":"Point","coordinates":[-99.26314,19.51636]}},{"type":"Feature","properties":{"id":"ke-doga-55","kind":"poi","name":"parque del valle de guadiana 2","theme":"doga","lab":1},"geometry":{"type":"Point","coordinates":[-99.03614,19.4993]}},{"type":"Feature","properties":{"id":"ke-doga-56","kind":"poi","name":"parque bosques de echegaray","theme":"doga","lab":1},"geometry":{"type":"Point","coordinates":[-99.22618,19.488]}},{"type":"Feature","properties":{"id":"ke-doga-57","kind":"poi","name":"mini parque Cananea","theme":"doga","lab":1},"geometry":{"type":"Point","coordinates":[-99.07144,19.29062]}},{"type":"Feature","properties":{"id":"ke-doga-58","kind":"poi","name":"jardin de los cachorros","theme":"doga","lab":1},"geometry":{"type":"Point","coordinates":[-98.94778,19.43924]}},{"type":"Feature","properties":{"id":"ke-doga-59","kind":"poi","name":"corredor del camellon","theme":"doga","lab":1},"geometry":{"type":"Point","coordinates":[-99.03795,19.42479]}},{"type":"Feature","properties":{"id":"ke-doga-60","kind":"poi","name":"circuito para bicicletas","theme":"doga","lab":1},"geometry":{"type":"Point","coordinates":[-99.02526,19.48971]}},{"type":"Feature","properties":{"id":"ke-doga-61","kind":"poi","name":"casa de cultura providencias","theme":"doga","lab":1},"geometry":{"type":"Point","coordinates":[-99.07259,19.48466]}},{"type":"Feature","properties":{"id":"ke-doga-62","kind":"poi","name":"camellon palacio","theme":"doga","lab":1},"geometry":{"type":"Point","coordinates":[-99.01889,19.40771]}},{"type":"Feature","properties":{"id":"ke-doga-63","kind":"poi","name":"camellon eje 6","theme":"doga","lab":1},"geometry":{"type":"Point","coordinates":[-99.01905,19.35458]}},{"type":"Feature","properties":{"id":"ke-doga-64","kind":"poi","name":"area recreativa artesanos","theme":"doga","lab":1},"geometry":{"type":"Point","coordinates":[-98.95141,19.43604]}},{"type":"Feature","properties":{"id":"ke-doga-65","kind":"poi","name":"aguirre","theme":"doga","lab":1},"geometry":{"type":"Point","coordinates":[-99.16572,19.44802]}},{"type":"Feature","properties":{"id":"ke-doga-66","kind":"poi","name":"Zona de juegos","theme":"doga","lab":1},"geometry":{"type":"Point","coordinates":[-99.23776,19.45491]}},{"type":"Feature","properties":{"id":"ke-doga-67","kind":"poi","name":"Zacatépetl","theme":"doga","lab":1},"geometry":{"type":"Point","coordinates":[-99.19687,19.30742]}},{"type":"Feature","properties":{"id":"ke-doga-68","kind":"poi","name":"Zacatonal","theme":"doga","lab":1},"geometry":{"type":"Point","coordinates":[-99.13362,19.58616]}},{"type":"Feature","properties":{"id":"ke-doga-69","kind":"poi","name":"Yohualtécatl","theme":"doga","lab":1},"geometry":{"type":"Point","coordinates":[-99.10563,19.49964]}},{"type":"Feature","properties":{"id":"ke-doga-70","kind":"poi","name":"Xotepingo","theme":"doga","lab":1},"geometry":{"type":"Point","coordinates":[-99.14279,19.33444]}},{"type":"Feature","properties":{"id":"ke-doga-71","kind":"poi","name":"Xochitepec","theme":"doga","lab":1},"geometry":{"type":"Point","coordinates":[-99.13863,19.25764]}},{"type":"Feature","properties":{"id":"ke-doga-72","kind":"poi","name":"Villa Quietud","theme":"doga","lab":1},"geometry":{"type":"Point","coordinates":[-99.10531,19.30285]}},{"type":"Feature","properties":{"id":"ke-doga-73","kind":"poi","name":"Vida Natural","theme":"doga","lab":1},"geometry":{"type":"Point","coordinates":[-99.08371,19.4151]}},{"type":"Feature","properties":{"id":"ke-doga-74","kind":"poi","name":"Vergel Coyoacan","theme":"doga","lab":1},"geometry":{"type":"Point","coordinates":[-99.13745,19.30291]}},{"type":"Feature","properties":{"id":"ke-doga-75","kind":"poi","name":"Utopía Tezontli","theme":"doga","lab":1},"geometry":{"type":"Point","coordinates":[-99.07304,19.30982]}},{"type":"Feature","properties":{"id":"ke-doga-76","kind":"poi","name":"Utopía Tecoloxtitlán","theme":"doga","lab":1},"geometry":{"type":"Point","coordinates":[-99.02068,19.36153]}},{"type":"Feature","properties":{"id":"ke-doga-77","kind":"poi","name":"Urbania","theme":"doga","lab":1},"geometry":{"type":"Point","coordinates":[-99.15721,19.46611]}},{"type":"Feature","properties":{"id":"ke-doga-78","kind":"poi","name":"Unidad Deportiva Valle de Ecatepec","theme":"doga","lab":1},"geometry":{"type":"Point","coordinates":[-99.02148,19.5689]}},{"type":"Feature","properties":{"id":"ke-doga-79","kind":"poi","name":"UTOPÍA Quetzalcoatl","theme":"doga","lab":1},"geometry":{"type":"Point","coordinates":[-99.04335,19.32693]}},{"type":"Feature","properties":{"id":"ke-doga-80","kind":"poi","name":"Torres de potrero","theme":"doga","lab":1},"geometry":{"type":"Point","coordinates":[-99.24664,19.33221]}},{"type":"Feature","properties":{"id":"ke-alisveris-0","kind":"poi","name":"Toreo Parque Central","theme":"alisveris","lab":1},"geometry":{"type":"Point","coordinates":[-99.21892,19.45416]}},{"type":"Feature","properties":{"id":"ke-alisveris-1","kind":"poi","name":"Perisur","theme":"alisveris","lab":1},"geometry":{"type":"Point","coordinates":[-99.19,19.30404]}},{"type":"Feature","properties":{"id":"ke-alisveris-2","kind":"poi","name":"Centro Santa Fe","theme":"alisveris","lab":1},"geometry":{"type":"Point","coordinates":[-99.27345,19.36131]}},{"type":"Feature","properties":{"id":"ke-alisveris-3","kind":"poi","name":"Walmart","theme":"alisveris","lab":1},"geometry":{"type":"Point","coordinates":[-98.95345,19.29943]}},{"type":"Feature","properties":{"id":"ke-alisveris-4","kind":"poi","name":"Walmart","theme":"alisveris","lab":1},"geometry":{"type":"Point","coordinates":[-99.01931,19.55805]}},{"type":"Feature","properties":{"id":"ke-alisveris-5","kind":"poi","name":"Walmart","theme":"alisveris","lab":1},"geometry":{"type":"Point","coordinates":[-99.07608,19.31426]}},{"type":"Feature","properties":{"id":"ke-alisveris-6","kind":"poi","name":"Walmart","theme":"alisveris","lab":1},"geometry":{"type":"Point","coordinates":[-99.17033,19.26561]}},{"type":"Feature","properties":{"id":"ke-alisveris-7","kind":"poi","name":"Walmart","theme":"alisveris","lab":1},"geometry":{"type":"Point","coordinates":[-99.18416,19.33822]}},{"type":"Feature","properties":{"id":"ke-alisveris-8","kind":"poi","name":"Walmart","theme":"alisveris","lab":1},"geometry":{"type":"Point","coordinates":[-99.21375,19.54294]}},{"type":"Feature","properties":{"id":"ke-alisveris-9","kind":"poi","name":"Walmart","theme":"alisveris","lab":1},"geometry":{"type":"Point","coordinates":[-99.25475,19.37733]}},{"type":"Feature","properties":{"id":"ke-alisveris-10","kind":"poi","name":"Sears Centro Histórico","theme":"alisveris","lab":1},"geometry":{"type":"Point","coordinates":[-99.14159,19.43418]}},{"type":"Feature","properties":{"id":"ke-alisveris-11","kind":"poi","name":"Sears","theme":"alisveris","lab":1},"geometry":{"type":"Point","coordinates":[-99.02354,19.58214]}},{"type":"Feature","properties":{"id":"ke-alisveris-12","kind":"poi","name":"Sears","theme":"alisveris","lab":1},"geometry":{"type":"Point","coordinates":[-99.08172,19.38484]}},{"type":"Feature","properties":{"id":"ke-alisveris-13","kind":"poi","name":"Sears","theme":"alisveris","lab":1},"geometry":{"type":"Point","coordinates":[-99.10009,19.4759]}},{"type":"Feature","properties":{"id":"ke-alisveris-14","kind":"poi","name":"Sears","theme":"alisveris","lab":1},"geometry":{"type":"Point","coordinates":[-99.13364,19.492]}},{"type":"Feature","properties":{"id":"ke-alisveris-15","kind":"poi","name":"Sears","theme":"alisveris","lab":1},"geometry":{"type":"Point","coordinates":[-99.15142,19.45147]}},{"type":"Feature","properties":{"id":"ke-alisveris-16","kind":"poi","name":"Sears","theme":"alisveris","lab":1},"geometry":{"type":"Point","coordinates":[-99.15251,19.48853]}},{"type":"Feature","properties":{"id":"ke-alisveris-17","kind":"poi","name":"Sears","theme":"alisveris","lab":1},"geometry":{"type":"Point","coordinates":[-99.16608,19.41264]}},{"type":"Feature","properties":{"id":"ke-alisveris-18","kind":"poi","name":"Sears","theme":"alisveris","lab":1},"geometry":{"type":"Point","coordinates":[-99.17306,19.3941]}},{"type":"Feature","properties":{"id":"ke-alisveris-19","kind":"poi","name":"Sears","theme":"alisveris","lab":1},"geometry":{"type":"Point","coordinates":[-99.1909,19.36106]}},{"type":"Feature","properties":{"id":"ke-alisveris-20","kind":"poi","name":"Sears","theme":"alisveris","lab":1},"geometry":{"type":"Point","coordinates":[-99.20729,19.43779]}},{"type":"Feature","properties":{"id":"ke-alisveris-21","kind":"poi","name":"Sears","theme":"alisveris","lab":1},"geometry":{"type":"Point","coordinates":[-99.27434,19.54769]}},{"type":"Feature","properties":{"id":"ke-alisveris-22","kind":"poi","name":"Sears","theme":"alisveris","lab":1},"geometry":{"type":"Point","coordinates":[-99.27599,19.36186]}},{"type":"Feature","properties":{"id":"ke-alisveris-23","kind":"poi","name":"Scorpion Centro Comercial","theme":"alisveris","lab":1},"geometry":{"type":"Point","coordinates":[-99.05874,19.40217]}},{"type":"Feature","properties":{"id":"ke-alisveris-24","kind":"poi","name":"Sanborns","theme":"alisveris","lab":1},"geometry":{"type":"Point","coordinates":[-98.98848,19.35712]}},{"type":"Feature","properties":{"id":"ke-alisveris-25","kind":"poi","name":"Sanborns","theme":"alisveris","lab":1},"geometry":{"type":"Point","coordinates":[-99.02688,19.53357]}},{"type":"Feature","properties":{"id":"ke-alisveris-26","kind":"poi","name":"Sanborns","theme":"alisveris","lab":1},"geometry":{"type":"Point","coordinates":[-99.0944,19.42418]}},{"type":"Feature","properties":{"id":"ke-alisveris-27","kind":"poi","name":"Sanborns","theme":"alisveris","lab":1},"geometry":{"type":"Point","coordinates":[-99.13107,19.45445]}},{"type":"Feature","properties":{"id":"ke-alisveris-28","kind":"poi","name":"Sanborns","theme":"alisveris","lab":1},"geometry":{"type":"Point","coordinates":[-99.13756,19.39196]}},{"type":"Feature","properties":{"id":"ke-alisveris-29","kind":"poi","name":"Sanborns","theme":"alisveris","lab":1},"geometry":{"type":"Point","coordinates":[-99.13967,19.35997]}},{"type":"Feature","properties":{"id":"ke-alisveris-30","kind":"poi","name":"Sanborns","theme":"alisveris","lab":1},"geometry":{"type":"Point","coordinates":[-99.14445,19.46831]}},{"type":"Feature","properties":{"id":"ke-alisveris-31","kind":"poi","name":"Sanborns","theme":"alisveris","lab":1},"geometry":{"type":"Point","coordinates":[-99.1447,19.43461]}},{"type":"Feature","properties":{"id":"ke-alisveris-32","kind":"poi","name":"Sanborns","theme":"alisveris","lab":1},"geometry":{"type":"Point","coordinates":[-99.14708,19.39552]}},{"type":"Feature","properties":{"id":"ke-alisveris-33","kind":"poi","name":"Sanborns","theme":"alisveris","lab":1},"geometry":{"type":"Point","coordinates":[-99.16121,19.42827]}},{"type":"Feature","properties":{"id":"ke-alisveris-34","kind":"poi","name":"Sanborns","theme":"alisveris","lab":1},"geometry":{"type":"Point","coordinates":[-99.1782,19.37467]}},{"type":"Feature","properties":{"id":"ke-otel-0","kind":"poi","name":"Krystal Satelite María Barbara","theme":"otel","lab":1},"geometry":{"type":"Point","coordinates":[-99.22862,19.5225]}},{"type":"Feature","properties":{"id":"ke-otel-1","kind":"poi","name":"Krystal Grand Suites Insurgentes","theme":"otel","lab":1},"geometry":{"type":"Point","coordinates":[-99.17226,19.39288]}},{"type":"Feature","properties":{"id":"ke-otel-2","kind":"poi","name":"Hotel B Urban Xaman","theme":"otel","lab":1},"geometry":{"type":"Point","coordinates":[-99.14843,19.4356]}},{"type":"Feature","properties":{"id":"ke-otel-3","kind":"poi","name":"Galería Plaza Reforma","theme":"otel","lab":1},"geometry":{"type":"Point","coordinates":[-99.1678,19.42504]}},{"type":"Feature","properties":{"id":"ke-otel-4","kind":"poi","name":"Sheraton María Isabel","theme":"otel","lab":1},"geometry":{"type":"Point","coordinates":[-99.16715,19.42821]}},{"type":"Feature","properties":{"id":"ke-otel-5","kind":"poi","name":"NH Mexico City Airport T2","theme":"otel","lab":1},"geometry":{"type":"Point","coordinates":[-99.07714,19.42189]}},{"type":"Feature","properties":{"id":"ke-otel-6","kind":"poi","name":"Krystal Urban Aeropuerto Ciudad de México","theme":"otel","lab":1},"geometry":{"type":"Point","coordinates":[-99.07554,19.38353]}},{"type":"Feature","properties":{"id":"ke-otel-7","kind":"poi","name":"Fiesta Americana","theme":"otel","lab":1},"geometry":{"type":"Point","coordinates":[-99.21904,19.45353]}},{"type":"Feature","properties":{"id":"ke-otel-8","kind":"poi","name":"Best Western Hotel Majestic","theme":"otel","lab":1},"geometry":{"type":"Point","coordinates":[-99.13437,19.43297]}},{"type":"Feature","properties":{"id":"ke-otel-9","kind":"poi","name":"Segovia Regency","theme":"otel","lab":1},"geometry":{"type":"Point","coordinates":[-99.1644,19.42301]}},{"type":"Feature","properties":{"id":"ke-otel-10","kind":"poi","name":"Hotel Plaza Madrid","theme":"otel","lab":1},"geometry":{"type":"Point","coordinates":[-99.15674,19.43373]}},{"type":"Feature","properties":{"id":"ke-otel-11","kind":"poi","name":"Hotel Finisterre","theme":"otel","lab":1},"geometry":{"type":"Point","coordinates":[-99.14471,19.34429]}},{"type":"Feature","properties":{"id":"ke-otel-12","kind":"poi","name":"Wyndham Garden","theme":"otel","lab":1},"geometry":{"type":"Point","coordinates":[-99.17755,19.42504]}},{"type":"Feature","properties":{"id":"ke-otel-13","kind":"poi","name":"Radisson Paraiso Hotel Mexico City","theme":"otel","lab":1},"geometry":{"type":"Point","coordinates":[-99.18956,19.30185]}},{"type":"Feature","properties":{"id":"ke-otel-14","kind":"poi","name":"Novotel","theme":"otel","lab":1},"geometry":{"type":"Point","coordinates":[-99.26009,19.36692]}},{"type":"Feature","properties":{"id":"ke-otel-15","kind":"poi","name":"Marriott Courtyard","theme":"otel","lab":1},"geometry":{"type":"Point","coordinates":[-99.08219,19.43688]}},{"type":"Feature","properties":{"id":"ke-otel-16","kind":"poi","name":"Hotel Hidalgo","theme":"otel","lab":1},"geometry":{"type":"Point","coordinates":[-99.14212,19.43751]}},{"type":"Feature","properties":{"id":"ke-otel-17","kind":"poi","name":"Hotel Courtyard by Marriott, Cd. de México Revolución","theme":"otel","lab":1},"geometry":{"type":"Point","coordinates":[-99.18563,19.39666]}},{"type":"Feature","properties":{"id":"ke-otel-18","kind":"poi","name":"Holiday Inn Express México Basílica","theme":"otel","lab":1},"geometry":{"type":"Point","coordinates":[-99.12913,19.45616]}},{"type":"Feature","properties":{"id":"ke-otel-19","kind":"poi","name":"Holiday Inn Express Mexico Aeropuerto","theme":"otel","lab":1},"geometry":{"type":"Point","coordinates":[-99.09881,19.40059]}},{"type":"Feature","properties":{"id":"ke-otel-20","kind":"poi","name":"Holiday Inn Express & Suites","theme":"otel","lab":1},"geometry":{"type":"Point","coordinates":[-99.11921,19.40609]}},{"type":"Feature","properties":{"id":"ke-otel-21","kind":"poi","name":"Holiday Inn Express","theme":"otel","lab":1},"geometry":{"type":"Point","coordinates":[-99.26513,19.36423]}},{"type":"Feature","properties":{"id":"ke-otel-22","kind":"poi","name":"Holiday Inn Coyoacán","theme":"otel","lab":1},"geometry":{"type":"Point","coordinates":[-99.14324,19.36327]}},{"type":"Feature","properties":{"id":"ke-otel-23","kind":"poi","name":"Holiday Inn Ciudad de México Trade Center","theme":"otel","lab":1},"geometry":{"type":"Point","coordinates":[-99.18662,19.38794]}},{"type":"Feature","properties":{"id":"ke-otel-24","kind":"poi","name":"Holiday Inn Buenavista","theme":"otel","lab":1},"geometry":{"type":"Point","coordinates":[-99.15551,19.44251]}},{"type":"Feature","properties":{"id":"ke-otel-25","kind":"poi","name":"Holiday Inn","theme":"otel","lab":1},"geometry":{"type":"Point","coordinates":[-99.1625,19.36797]}},{"type":"Feature","properties":{"id":"ke-otel-26","kind":"poi","name":"FlowSuites WTC","theme":"otel","lab":1},"geometry":{"type":"Point","coordinates":[-99.17583,19.39491]}},{"type":"Feature","properties":{"id":"ke-otel-27","kind":"poi","name":"FlowSuites Polanco","theme":"otel","lab":1},"geometry":{"type":"Point","coordinates":[-99.19295,19.42917]}},{"type":"Feature","properties":{"id":"ke-otel-28","kind":"poi","name":"FlowSuites Condesa","theme":"otel","lab":1},"geometry":{"type":"Point","coordinates":[-99.17232,19.41091]}},{"type":"Feature","properties":{"id":"ke-otel-29","kind":"poi","name":"Fiesta Inn Insurgentes Sur","theme":"otel","lab":1},"geometry":{"type":"Point","coordinates":[-99.18291,19.36451]}},{"type":"Feature","properties":{"id":"ke-yurt-0","kind":"poi","name":"Talentos","theme":"yurt","lab":1},"geometry":{"type":"Point","coordinates":[-99.0878,19.39816]}},{"type":"Feature","properties":{"id":"ke-yurt-1","kind":"poi","name":"Talentos","theme":"yurt","lab":1},"geometry":{"type":"Point","coordinates":[-99.08818,19.39801]}},{"type":"Feature","properties":{"id":"ke-yurt-2","kind":"poi","name":"Dormitorios","theme":"yurt","lab":1},"geometry":{"type":"Point","coordinates":[-99.21723,19.43384]}},{"type":"Feature","properties":{"id":"ke-kamu-0","kind":"poi","name":"Embassy of the United Arab Emirates","theme":"kamu","lab":1},"geometry":{"type":"Point","coordinates":[-99.20938,19.42509]}},{"type":"Feature","properties":{"id":"ke-kamu-1","kind":"poi","name":"Secretaría del Medio Ambiente de la Ciudad de México","theme":"kamu","lab":1},"geometry":{"type":"Point","coordinates":[-99.13307,19.43159]}},{"type":"Feature","properties":{"id":"ke-kamu-2","kind":"poi","name":"Secretaria de Hacienda","theme":"kamu","lab":1},"geometry":{"type":"Point","coordinates":[-99.21589,19.39732]}},{"type":"Feature","properties":{"id":"ke-kamu-3","kind":"poi","name":"Secretaria de Desarrollo Social","theme":"kamu","lab":1},"geometry":{"type":"Point","coordinates":[-99.1563,19.43178]}},{"type":"Feature","properties":{"id":"ke-kamu-4","kind":"poi","name":"Procuraduría Federal del Consumidor","theme":"kamu","lab":1},"geometry":{"type":"Point","coordinates":[-99.18045,19.41349]}},{"type":"Feature","properties":{"id":"ke-kamu-5","kind":"poi","name":"Mexican Space Agency","theme":"kamu","lab":1},"geometry":{"type":"Point","coordinates":[-99.18356,19.36118]}},{"type":"Feature","properties":{"id":"ke-kamu-6","kind":"poi","name":"Instituto Nacional Electoral","theme":"kamu","lab":1},"geometry":{"type":"Point","coordinates":[-99.15148,19.28804]}},{"type":"Feature","properties":{"id":"ke-kamu-7","kind":"poi","name":"Honorary Consulate of Latvia","theme":"kamu","lab":1},"geometry":{"type":"Point","coordinates":[-99.18395,19.34414]}},{"type":"Feature","properties":{"id":"ke-kamu-8","kind":"poi","name":"Embassy of the State of Palestine","theme":"kamu","lab":1},"geometry":{"type":"Point","coordinates":[-99.23937,19.3953]}},{"type":"Feature","properties":{"id":"ke-kamu-9","kind":"poi","name":"Embassy of Venezuela","theme":"kamu","lab":1},"geometry":{"type":"Point","coordinates":[-99.18654,19.43229]}},{"type":"Feature","properties":{"id":"ke-kamu-10","kind":"poi","name":"Embassy of Switzerland","theme":"kamu","lab":1},"geometry":{"type":"Point","coordinates":[-99.21143,19.43029]}},{"type":"Feature","properties":{"id":"ke-kamu-11","kind":"poi","name":"Embassy of Slovakia","theme":"kamu","lab":1},"geometry":{"type":"Point","coordinates":[-99.19699,19.42839]}},{"type":"Feature","properties":{"id":"ke-kamu-12","kind":"poi","name":"Embassy of Serbia","theme":"kamu","lab":1},"geometry":{"type":"Point","coordinates":[-99.21861,19.41036]}},{"type":"Feature","properties":{"id":"ke-kamu-13","kind":"poi","name":"Embassy of Portugal","theme":"kamu","lab":1},"geometry":{"type":"Point","coordinates":[-99.22349,19.41122]}},{"type":"Feature","properties":{"id":"ke-kamu-14","kind":"poi","name":"Embassy of New Zealand","theme":"kamu","lab":1},"geometry":{"type":"Point","coordinates":[-99.20967,19.43834]}},{"type":"Feature","properties":{"id":"ke-kamu-15","kind":"poi","name":"Embassy of Jordan","theme":"kamu","lab":1},"geometry":{"type":"Point","coordinates":[-99.22677,19.41709]}},{"type":"Feature","properties":{"id":"ke-kamu-16","kind":"poi","name":"Embassy of Honduras","theme":"kamu","lab":1},"geometry":{"type":"Point","coordinates":[-99.17368,19.40743]}},{"type":"Feature","properties":{"id":"ke-kamu-17","kind":"poi","name":"Embassy of Finland","theme":"kamu","lab":1},"geometry":{"type":"Point","coordinates":[-99.20369,19.42654]}},{"type":"Feature","properties":{"id":"ke-kamu-18","kind":"poi","name":"Embassy of Costa Rica","theme":"kamu","lab":1},"geometry":{"type":"Point","coordinates":[-99.16836,19.42964]}},{"type":"Feature","properties":{"id":"ke-kamu-19","kind":"poi","name":"Embassy of Belize","theme":"kamu","lab":1},"geometry":{"type":"Point","coordinates":[-99.20757,19.41937]}},{"type":"Feature","properties":{"id":"ke-kamu-20","kind":"poi","name":"Comisión Nacional para el Conocimiento y Uso de la Biodiversidad","theme":"kamu","lab":1},"geometry":{"type":"Point","coordinates":[-99.18637,19.30129]}},{"type":"Feature","properties":{"id":"ke-kamu-21","kind":"poi","name":"Ventanillas de Gestión Escolar","theme":"kamu","lab":1},"geometry":{"type":"Point","coordinates":[-99.14665,19.50547]}},{"type":"Feature","properties":{"id":"ke-kamu-22","kind":"poi","name":"Servicio de Administración Tributaria","theme":"kamu","lab":1},"geometry":{"type":"Point","coordinates":[-99.12655,19.2777]}},{"type":"Feature","properties":{"id":"ke-kamu-23","kind":"poi","name":"Servicio Meteorológico Nacional","theme":"kamu","lab":1},"geometry":{"type":"Point","coordinates":[-99.19649,19.40388]}},{"type":"Feature","properties":{"id":"ke-kamu-24","kind":"poi","name":"Secretaría de Finanzas","theme":"kamu","lab":1},"geometry":{"type":"Point","coordinates":[-99.13754,19.3456]}},{"type":"Feature","properties":{"id":"ke-kamu-25","kind":"poi","name":"Secretaría de Economía","theme":"kamu","lab":1},"geometry":{"type":"Point","coordinates":[-99.18548,19.35266]}},{"type":"Feature","properties":{"id":"ke-kamu-26","kind":"poi","name":"Secretariado Ejecutivo del Sistema Nacional de Seguridad Pública","theme":"kamu","lab":1},"geometry":{"type":"Point","coordinates":[-99.15543,19.3426]}},{"type":"Feature","properties":{"id":"ke-kamu-27","kind":"poi","name":"Palacio Municipal de Ecatepec de Morelos","theme":"kamu","lab":1},"geometry":{"type":"Point","coordinates":[-99.04921,19.59909]}},{"type":"Feature","properties":{"id":"ke-kamu-28","kind":"poi","name":"Módulos de Servicios Tributarios","theme":"kamu","lab":1},"geometry":{"type":"Point","coordinates":[-99.11163,19.40561]}},{"type":"Feature","properties":{"id":"ke-kamu-29","kind":"poi","name":"Módulo del INE","theme":"kamu","lab":1},"geometry":{"type":"Point","coordinates":[-99.09213,19.49332]}},{"type":"Feature","properties":{"id":"ke-kamu-30","kind":"poi","name":"Módulo de Atención INE","theme":"kamu","lab":1},"geometry":{"type":"Point","coordinates":[-98.97363,19.36608]}},{"type":"Feature","properties":{"id":"ke-kamu-31","kind":"poi","name":"Juzgados de Control, Juicio Oral y Ejecución de Sentencias","theme":"kamu","lab":1},"geometry":{"type":"Point","coordinates":[-99.19556,19.58595]}},{"type":"Feature","properties":{"id":"ke-kamu-32","kind":"poi","name":"Juzgado del Registro Civil 41","theme":"kamu","lab":1},"geometry":{"type":"Point","coordinates":[-99.18461,19.40132]}},{"type":"Feature","properties":{"id":"ke-kamu-33","kind":"poi","name":"Juzagado Civico TLH-01","theme":"kamu","lab":1},"geometry":{"type":"Point","coordinates":[-99.06417,19.28293]}},{"type":"Feature","properties":{"id":"ke-kamu-34","kind":"poi","name":"IMSS Subdelegación 2 Santa María la Ribera","theme":"kamu","lab":1},"geometry":{"type":"Point","coordinates":[-99.1636,19.45296]}},{"type":"Feature","properties":{"id":"ke-kamu-35","kind":"poi","name":"Fiscalía General de Justicia de la Ciudad de México","theme":"kamu","lab":1},"geometry":{"type":"Point","coordinates":[-99.14744,19.42455]}},{"type":"Feature","properties":{"id":"ke-kamu-36","kind":"poi","name":"Fiscalía General de Justicia Coordinación Territorial IZP-2","theme":"kamu","lab":1},"geometry":{"type":"Point","coordinates":[-99.10647,19.35634]}},{"type":"Feature","properties":{"id":"ke-kamu-37","kind":"poi","name":"Dirección de Participación Ciudadana","theme":"kamu","lab":1},"geometry":{"type":"Point","coordinates":[-99.15091,19.33406]}},{"type":"Feature","properties":{"id":"ke-kamu-38","kind":"poi","name":"Dirección General de Construcción y Operación Hidráulica","theme":"kamu","lab":1},"geometry":{"type":"Point","coordinates":[-99.0943,19.24736]}},{"type":"Feature","properties":{"id":"ke-kamu-39","kind":"poi","name":"Consejo de la Judicatura Federal","theme":"kamu","lab":1},"geometry":{"type":"Point","coordinates":[-99.19065,19.3403]}},{"type":"Feature","properties":{"id":"ke-kamu-40","kind":"poi","name":"Auditoría Superior de la Federación","theme":"kamu","lab":1},"geometry":{"type":"Point","coordinates":[-99.21129,19.29998]}},{"type":"Feature","properties":{"id":"ke-kamu-41","kind":"poi","name":"Área de Atención Ciudadana","theme":"kamu","lab":1},"geometry":{"type":"Point","coordinates":[-99.24166,19.30539]}},{"type":"Feature","properties":{"id":"ke-kamu-42","kind":"poi","name":"issfam","theme":"kamu","lab":1},"geometry":{"type":"Point","coordinates":[-99.2214,19.43579]}},{"type":"Feature","properties":{"id":"ke-kamu-43","kind":"poi","name":"centro de justicia Tlalnepantla","theme":"kamu","lab":1},"geometry":{"type":"Point","coordinates":[-99.21159,19.54048]}},{"type":"Feature","properties":{"id":"ke-kamu-44","kind":"poi","name":"Vigilancia","theme":"kamu","lab":1},"geometry":{"type":"Point","coordinates":[-99.07117,19.362]}},{"type":"Feature","properties":{"id":"ke-kamu-45","kind":"poi","name":"Verificentro Rodriguez Saro","theme":"kamu","lab":1},"geometry":{"type":"Point","coordinates":[-99.17365,19.36539]}},{"type":"Feature","properties":{"id":"ke-kamu-46","kind":"poi","name":"Verificentro","theme":"kamu","lab":1},"geometry":{"type":"Point","coordinates":[-99.12352,19.30393]}},{"type":"Feature","properties":{"id":"ke-kamu-47","kind":"poi","name":"VerefiCentro CO-46","theme":"kamu","lab":1},"geometry":{"type":"Point","coordinates":[-99.13747,19.32779]}},{"type":"Feature","properties":{"id":"ke-kamu-48","kind":"poi","name":"VALLE DE CHALCO CENTRO NARANJA DE ATENCIÓN PARA MUJERES, SUS HIJAS E HIJOS EN SITUACIÓN DE VIOLENCIA","theme":"kamu","lab":1},"geometry":{"type":"Point","coordinates":[-98.95264,19.30418]}},{"type":"Feature","properties":{"id":"ke-kamu-49","kind":"poi","name":"Unidad Relaciones Exteriores","theme":"kamu","lab":1},"geometry":{"type":"Point","coordinates":[-99.24295,19.48721]}},{"type":"Feature","properties":{"id":"ke-gastronomi-0","kind":"poi","name":"Xkina Reforma","theme":"gastronomi","lab":1},"geometry":{"type":"Point","coordinates":[-99.14766,19.43636]}},{"type":"Feature","properties":{"id":"ke-gastronomi-1","kind":"poi","name":"Sanborns","theme":"gastronomi","lab":1},"geometry":{"type":"Point","coordinates":[-99.12313,19.30286]}},{"type":"Feature","properties":{"id":"ke-gastronomi-2","kind":"poi","name":"Tianguis Cultural del Chopo","theme":"gastronomi","lab":1},"geometry":{"type":"Point","coordinates":[-99.14982,19.44868]}},{"type":"Feature","properties":{"id":"ke-gastronomi-3","kind":"poi","name":"Taqueri El Califa del León","theme":"gastronomi","lab":1},"geometry":{"type":"Point","coordinates":[-99.15913,19.44103]}},{"type":"Feature","properties":{"id":"ke-gastronomi-4","kind":"poi","name":"Sanborns Café","theme":"gastronomi","lab":1},"geometry":{"type":"Point","coordinates":[-99.16476,19.41825]}},{"type":"Feature","properties":{"id":"ke-gastronomi-5","kind":"poi","name":"Mercado de Sonora","theme":"gastronomi","lab":1},"geometry":{"type":"Point","coordinates":[-99.12469,19.42195]}},{"type":"Feature","properties":{"id":"ke-gastronomi-6","kind":"poi","name":"Mercado Roma","theme":"gastronomi","lab":1},"geometry":{"type":"Point","coordinates":[-99.16459,19.41412]}},{"type":"Feature","properties":{"id":"ke-gastronomi-7","kind":"poi","name":"Mercado La Merced","theme":"gastronomi","lab":1},"geometry":{"type":"Point","coordinates":[-99.12387,19.42629]}},{"type":"Feature","properties":{"id":"ke-gastronomi-8","kind":"poi","name":"Mercado Abelardo Rodríguez","theme":"gastronomi","lab":1},"geometry":{"type":"Point","coordinates":[-99.12775,19.43722]}},{"type":"Feature","properties":{"id":"ke-gastronomi-9","kind":"poi","name":"Cielito Querido Café","theme":"gastronomi","lab":1},"geometry":{"type":"Point","coordinates":[-99.18183,19.36397]}},{"type":"Feature","properties":{"id":"ke-gastronomi-10","kind":"poi","name":"Vips","theme":"gastronomi","lab":1},"geometry":{"type":"Point","coordinates":[-99.027,19.42438]}},{"type":"Feature","properties":{"id":"ke-gastronomi-11","kind":"poi","name":"Vips","theme":"gastronomi","lab":1},"geometry":{"type":"Point","coordinates":[-99.04857,19.55802]}},{"type":"Feature","properties":{"id":"ke-gastronomi-12","kind":"poi","name":"Vips","theme":"gastronomi","lab":1},"geometry":{"type":"Point","coordinates":[-99.10539,19.41792]}},{"type":"Feature","properties":{"id":"ke-gastronomi-13","kind":"poi","name":"Vips","theme":"gastronomi","lab":1},"geometry":{"type":"Point","coordinates":[-99.10939,19.29571]}},{"type":"Feature","properties":{"id":"ke-gastronomi-14","kind":"poi","name":"Vips","theme":"gastronomi","lab":1},"geometry":{"type":"Point","coordinates":[-99.11384,19.438]}},{"type":"Feature","properties":{"id":"ke-gastronomi-15","kind":"poi","name":"Vips","theme":"gastronomi","lab":1},"geometry":{"type":"Point","coordinates":[-99.12157,19.4721]}},{"type":"Feature","properties":{"id":"ke-gastronomi-16","kind":"poi","name":"Vips","theme":"gastronomi","lab":1},"geometry":{"type":"Point","coordinates":[-99.1221,19.36881]}},{"type":"Feature","properties":{"id":"ke-gastronomi-17","kind":"poi","name":"Vips","theme":"gastronomi","lab":1},"geometry":{"type":"Point","coordinates":[-99.12425,19.31085]}},{"type":"Feature","properties":{"id":"ke-gastronomi-18","kind":"poi","name":"Vips","theme":"gastronomi","lab":1},"geometry":{"type":"Point","coordinates":[-99.12448,19.4876]}},{"type":"Feature","properties":{"id":"ke-gastronomi-19","kind":"poi","name":"Vips","theme":"gastronomi","lab":1},"geometry":{"type":"Point","coordinates":[-99.12522,19.28206]}},{"type":"Feature","properties":{"id":"ke-gastronomi-20","kind":"poi","name":"Vips","theme":"gastronomi","lab":1},"geometry":{"type":"Point","coordinates":[-99.13371,19.40785]}},{"type":"Feature","properties":{"id":"ke-gastronomi-21","kind":"poi","name":"Vips","theme":"gastronomi","lab":1},"geometry":{"type":"Point","coordinates":[-99.13927,19.47854]}},{"type":"Feature","properties":{"id":"ke-gastronomi-22","kind":"poi","name":"Vips","theme":"gastronomi","lab":1},"geometry":{"type":"Point","coordinates":[-99.14609,19.5065]}},{"type":"Feature","properties":{"id":"ke-gastronomi-23","kind":"poi","name":"Vips","theme":"gastronomi","lab":1},"geometry":{"type":"Point","coordinates":[-99.15398,19.42437]}},{"type":"Feature","properties":{"id":"ke-gastronomi-24","kind":"poi","name":"Vips","theme":"gastronomi","lab":1},"geometry":{"type":"Point","coordinates":[-99.15418,19.29663]}},{"type":"Feature","properties":{"id":"ke-gastronomi-25","kind":"poi","name":"Vips","theme":"gastronomi","lab":1},"geometry":{"type":"Point","coordinates":[-99.16016,19.43295]}},{"type":"Feature","properties":{"id":"ke-gastronomi-26","kind":"poi","name":"Vips","theme":"gastronomi","lab":1},"geometry":{"type":"Point","coordinates":[-99.16307,19.51711]}},{"type":"Feature","properties":{"id":"ke-gastronomi-27","kind":"poi","name":"Vips","theme":"gastronomi","lab":1},"geometry":{"type":"Point","coordinates":[-99.1752,19.38435]}},{"type":"Feature","properties":{"id":"ke-gastronomi-28","kind":"poi","name":"Vips","theme":"gastronomi","lab":1},"geometry":{"type":"Point","coordinates":[-99.17682,19.46805]}},{"type":"Feature","properties":{"id":"ke-gastronomi-29","kind":"poi","name":"Vips","theme":"gastronomi","lab":1},"geometry":{"type":"Point","coordinates":[-99.17741,19.43934]}},{"type":"Feature","properties":{"id":"ke-gastronomi-30","kind":"poi","name":"Vips","theme":"gastronomi","lab":1},"geometry":{"type":"Point","coordinates":[-99.18646,19.35127]}},{"type":"Feature","properties":{"id":"ke-gastronomi-31","kind":"poi","name":"Vips","theme":"gastronomi","lab":1},"geometry":{"type":"Point","coordinates":[-99.19818,19.45333]}},{"type":"Feature","properties":{"id":"ke-gastronomi-32","kind":"poi","name":"Vips","theme":"gastronomi","lab":1},"geometry":{"type":"Point","coordinates":[-99.20761,19.53908]}},{"type":"Feature","properties":{"id":"ke-gastronomi-33","kind":"poi","name":"Vips","theme":"gastronomi","lab":1},"geometry":{"type":"Point","coordinates":[-99.2095,19.40025]}},{"type":"Feature","properties":{"id":"ke-gastronomi-34","kind":"poi","name":"Vips","theme":"gastronomi","lab":1},"geometry":{"type":"Point","coordinates":[-99.23606,19.50864]}},{"type":"Feature","properties":{"id":"ke-gastronomi-35","kind":"poi","name":"Vips","theme":"gastronomi","lab":1},"geometry":{"type":"Point","coordinates":[-99.26677,19.51598]}},{"type":"Feature","properties":{"id":"ke-gastronomi-36","kind":"poi","name":"Vapiano","theme":"gastronomi","lab":1},"geometry":{"type":"Point","coordinates":[-99.1359,19.44657]}},{"type":"Feature","properties":{"id":"ke-gastronomi-37","kind":"poi","name":"Vapiano","theme":"gastronomi","lab":1},"geometry":{"type":"Point","coordinates":[-99.20348,19.44119]}},{"type":"Feature","properties":{"id":"ke-gastronomi-38","kind":"poi","name":"Vapiano","theme":"gastronomi","lab":1},"geometry":{"type":"Point","coordinates":[-99.25981,19.36794]}},{"type":"Feature","properties":{"id":"ke-gastronomi-39","kind":"poi","name":"Tony Roma's","theme":"gastronomi","lab":1},"geometry":{"type":"Point","coordinates":[-99.1716,19.44185]}},{"type":"Feature","properties":{"id":"ke-ikonik-0","kind":"poi","name":"Catedral Metropolitana","theme":"tarihi","lab":1},"geometry":{"type":"Point","coordinates":[-99.13309,19.43439]}},{"type":"Feature","properties":{"id":"ke-ikonik-1","kind":"poi","name":"Palacio Nacional","theme":"tarihi","lab":1},"geometry":{"type":"Point","coordinates":[-99.13112,19.43255]}},{"type":"Feature","properties":{"id":"ke-ikonik-2","kind":"poi","name":"Castillo de Chapultepec","theme":"tarihi","lab":1},"geometry":{"type":"Point","coordinates":[-99.18082,19.42116]}},{"type":"Feature","properties":{"id":"ke-ikonik-3","kind":"poi","name":"Casa Azul (Museo Frida Kahlo)","theme":"tarihi","lab":1},"geometry":{"type":"Point","coordinates":[-99.16236,19.35514]}},{"type":"Feature","properties":{"id":"ke-ikonik-4","kind":"poi","name":"Xochimilco (embarcaderos)","theme":"tarihi","lab":1},"geometry":{"type":"Point","coordinates":[-99.09354,19.2521]}},{"type":"Feature","properties":{"id":"ke-ikonik-5","kind":"poi","name":"Ciudad Universitaria (UNAM)","theme":"tarihi","lab":1},"geometry":{"type":"Point","coordinates":[-99.18492,19.32155]}},{"type":"Feature","properties":{"id":"ke-ikonik-6","kind":"poi","name":"Coyoacán (Jardín Centenario)","theme":"tarihi","lab":1},"geometry":{"type":"Point","coordinates":[-99.16366,19.34929]}},{"type":"Feature","properties":{"id":"ke-ikonik-7","kind":"poi","name":"Plaza de San Jacinto (San Ángel)","theme":"tarihi","lab":1},"geometry":{"type":"Point","coordinates":[-99.19228,19.34448]}},{"type":"Feature","properties":{"id":"ke-ikonik-8","kind":"poi","name":"Museo Soumaya","theme":"modern","lab":1},"geometry":{"type":"Point","coordinates":[-99.20457,19.44078]}},{"type":"Feature","properties":{"id":"ke-ikonik-9","kind":"poi","name":"Papalote Museo del Niño","theme":"modern","lab":1},"geometry":{"type":"Point","coordinates":[-99.19477,19.41178]}},{"type":"Feature","properties":{"id":"ke-ikonik-10","kind":"poi","name":"Estadio Azteca","theme":"modern","lab":1},"geometry":{"type":"Point","coordinates":[-99.16003,19.30282]}},{"type":"Feature","properties":{"id":"ke-ikonik-11","kind":"poi","name":"Torre Reforma","theme":"modern","lab":1},"geometry":{"type":"Point","coordinates":[-99.17436,19.42482]}},{"type":"Feature","properties":{"id":"ke-ikonik-12","kind":"poi","name":"Parque España","theme":"doga","lab":1},"geometry":{"type":"Point","coordinates":[-99.17111,19.41497]}},{"type":"Feature","properties":{"id":"ke-ikonik-13","kind":"poi","name":"Viveros de Coyoacán","theme":"doga","lab":1},"geometry":{"type":"Point","coordinates":[-99.17511,19.35432]}},{"type":"Feature","properties":{"id":"ke-ikonik-14","kind":"poi","name":"Bosque de Tlalpan","theme":"doga","lab":1},"geometry":{"type":"Point","coordinates":[-99.20057,19.29188]}},{"type":"Feature","properties":{"id":"ke-ikonik-15","kind":"poi","name":"Desierto de los Leones","theme":"doga","lab":1},"geometry":{"type":"Point","coordinates":[-99.31353,19.29601]}},{"type":"Feature","properties":{"id":"ke-ikonik-16","kind":"poi","name":"Alameda Central","theme":"doga","lab":1},"geometry":{"type":"Point","coordinates":[-99.144,19.43575]}},{"type":"Feature","properties":{"id":"ke-ikonik-17","kind":"poi","name":"Mercado de La Merced","theme":"gastronomi","lab":1},"geometry":{"type":"Point","coordinates":[-99.12469,19.42543]}},{"type":"Feature","properties":{"id":"ke-ikonik-18","kind":"poi","name":"Mercado de San Juan","theme":"gastronomi","lab":1},"geometry":{"type":"Point","coordinates":[-99.14258,19.42745]}},{"type":"Feature","properties":{"id":"ke-ikonik-19","kind":"poi","name":"Mercado de Coyoacán","theme":"gastronomi","lab":1},"geometry":{"type":"Point","coordinates":[-99.1615,19.3528]}},{"type":"Feature","properties":{"id":"ke-ikonik-20","kind":"poi","name":"Mercado Medellín","theme":"gastronomi","lab":1},"geometry":{"type":"Point","coordinates":[-99.16329,19.41039]}},{"type":"Feature","properties":{"id":"ke-ikonik-21","kind":"poi","name":"Central de Abasto","theme":"gastronomi","lab":1},"geometry":{"type":"Point","coordinates":[-99.09069,19.37312]}},{"type":"Feature","properties":{"id":"ke-ikonik-22","kind":"poi","name":"Zona Rosa","theme":"alisveris","lab":1},"geometry":{"type":"Point","coordinates":[-99.16361,19.42696]}},{"type":"Feature","properties":{"id":"ke-ikonik-r0","kind":"poi","name":"Museo Tamayo","theme":"modern","lab":1},"geometry":{"type":"Point","coordinates":[-99.18169,19.42576]}}]}