{"type":"FeatureCollection","features":[{"type":"Feature","properties":{"id":"link-mex-t1","kind":"link","subKey":"mx.mex-t1.sub","real":true,"via":"Metrobús L4"},"geometry":{"type":"LineString","coordinates":[[-99.08826,19.43399],[-99.08809,19.43371],[-99.08903,19.43282],[-99.09181,19.42763],[-99.09312,19.42735],[-99.09433,19.42778],[-99.10782,19.43438],[-99.1085,19.43521],[-99.10881,19.43687],[-99.10924,19.4373],[-99.1142,19.43783],[-99.11465,19.43538],[-99.12734,19.43683],[-99.13994,19.43861],[-99.14038,19.43738],[-99.14056,19.43626],[-99.14404,19.43689],[-99.15323,19.4389],[-99.15248,19.44093],[-99.15212,19.44547],[-99.1522,19.44557],[-99.15201,19.44738]]}},{"type":"Feature","properties":{"id":"gate-mex-t1","kind":"gate","name":"AICM Terminal 1","gtype":"air","mode":"plane","subKey":"mx.mex-t1.sub","lab":1},"geometry":{"type":"Point","coordinates":[-99.08826,19.43399]}},{"type":"Feature","properties":{"id":"gate-mex-t2","kind":"gate","name":"AICM Terminal 2","gtype":"air","mode":"plane","subKey":"mx.mex-t2.sub","lab":1},"geometry":{"type":"Point","coordinates":[-99.0714,19.4275]}},{"type":"Feature","properties":{"id":"gate-buenavista","kind":"gate","name":"Buenavista","gtype":"rail","mode":"train","subKey":"mx.buenavista.sub","lab":1},"geometry":{"type":"Point","coordinates":[-99.15201,19.44738]}},{"type":"Feature","properties":{"id":"gate-norte","kind":"gate","name":"Terminal del Norte","gtype":"bus","mode":"bus","subKey":"mx.norte.sub","lab":1},"geometry":{"type":"Point","coordinates":[-99.14061,19.47894]}},{"type":"Feature","properties":{"id":"gate-tapo","kind":"gate","name":"TAPO (Oriente)","gtype":"bus","mode":"bus","subKey":"mx.tapo.sub","lab":1},"geometry":{"type":"Point","coordinates":[-99.1195,19.427]}},{"type":"Feature","properties":{"id":"gate-taxquena","kind":"gate","name":"Taxqueña (Sur)","gtype":"bus","mode":"bus","subKey":"mx.taxquena.sub","lab":1},"geometry":{"type":"Point","coordinates":[-99.14048,19.34367]}},{"type":"Feature","properties":{"id":"gate-observatorio","kind":"gate","name":"Observatorio (Poniente)","gtype":"bus","mode":"bus","subKey":"mx.observatorio.sub","lab":1},"geometry":{"type":"Point","coordinates":[-99.2004,19.39827]}}]}