{"type":"FeatureCollection","features":[{"type":"Feature","properties":{"id":"dogal-0","kind":"district","btype":"dogal","name":"Bois de Vincennes","lab":1},"geometry":{"type":"Polygon","coordinates":[[[2.44077,48.84592],[2.44655,48.84574],[2.44641,48.84493],[2.46117,48.84283],[2.46427,48.84165],[2.46537,48.84089],[2.46941,48.83692],[2.46966,48.8356],[2.46909,48.83424],[2.46864,48.83377],[2.46637,48.83256],[2.46534,48.83145],[2.46445,48.82873],[2.46434,48.82691],[2.46459,48.82615],[2.46278,48.82573],[2.4621,48.82208],[2.46091,48.82096],[2.46147,48.82062],[2.46246,48.82152],[2.46298,48.82234],[2.46368,48.82451],[2.46431,48.82524],[2.46585,48.82613],[2.46498,48.82392],[2.46278,48.82025],[2.46267,48.81924],[2.45817,48.81709],[2.45332,48.81729],[2.44964,48.81796],[2.44216,48.81798],[2.43975,48.81837],[2.43735,48.81822],[2.43747,48.8191],[2.43697,48.81936],[2.43516,48.81965],[2.43418,48.81928],[2.4343,48.82016],[2.43247,48.82142],[2.43289,48.82169],[2.43262,48.8219],[2.43219,48.82162],[2.43038,48.82288],[2.43069,48.82323],[2.42975,48.82357],[2.42596,48.82423],[2.42023,48.82412],[2.41671,48.82479],[2.41262,48.82482],[2.41052,48.82512],[2.40831,48.82609],[2.40427,48.8289],[2.40249,48.82965],[2.40103,48.82985],[2.39976,48.83067],[2.40258,48.83136],[2.40418,48.83243],[2.40451,48.8329],[2.40574,48.83327],[2.40833,48.83476],[2.41036,48.83399],[2.41459,48.83356],[2.41671,48.83385],[2.42221,48.83576],[2.42158,48.83688],[2.42081,48.83971],[2.41968,48.84133],[2.41948,48.84231],[2.42018,48.84357],[2.42173,48.84431],[2.42248,48.8439],[2.42379,48.84223],[2.42473,48.84176],[2.43364,48.84099],[2.43368,48.84119],[2.43719,48.84089],[2.43794,48.84457],[2.44051,48.84435],[2.44087,48.84521],[2.44069,48.84521],[2.44077,48.84592]]]}},{"type":"Feature","properties":{"id":"dogal-1","kind":"district","btype":"dogal","name":"Bois de Boulogne","lab":1},"geometry":{"type":"Polygon","coordinates":[[[2.25245,48.84809],[2.24915,48.84807],[2.24916,48.84849],[2.2416,48.84849],[2.23994,48.8499],[2.23931,48.8501],[2.22556,48.85314],[2.22521,48.85459],[2.22549,48.85624],[2.2283,48.86212],[2.22897,48.8642],[2.22964,48.86548],[2.2317,48.86789],[2.23317,48.86897],[2.23574,48.87027],[2.23928,48.87123],[2.24103,48.87195],[2.24361,48.87367],[2.24613,48.87618],[2.25501,48.87397],[2.2555,48.87416],[2.25538,48.87429],[2.2583,48.88004],[2.25895,48.88032],[2.27913,48.87768],[2.27866,48.87696],[2.27729,48.87648],[2.27727,48.87597],[2.27647,48.87566],[2.27358,48.87261],[2.27386,48.87207],[2.2737,48.87173],[2.27243,48.87133],[2.27078,48.86967],[2.27134,48.86935],[2.27333,48.8707],[2.27215,48.86967],[2.26718,48.86377],[2.2676,48.86328],[2.26753,48.863],[2.26627,48.86275],[2.2657,48.86116],[2.25806,48.84899],[2.2572,48.84845],[2.2572,48.84804],[2.25577,48.84811],[2.25426,48.84853],[2.25293,48.84945],[2.25278,48.85122],[2.2516,48.8513],[2.2513,48.84975],[2.25207,48.84961],[2.25287,48.84822],[2.25245,48.84809]]]}},{"type":"Feature","properties":{"id":"dogal-2","kind":"district","btype":"dogal","name":"Domaine national de Saint-Cloud","lab":1},"geometry":{"type":"Polygon","coordinates":[[[2.17062,48.8344],[2.18321,48.83596],[2.18498,48.83632],[2.18484,48.83661],[2.18511,48.83635],[2.18611,48.83656],[2.19591,48.83929],[2.20013,48.83716],[2.20159,48.83691],[2.20376,48.83703],[2.20597,48.83782],[2.2079,48.83945],[2.20901,48.84005],[2.21457,48.84021],[2.21452,48.8407],[2.21699,48.84079],[2.21895,48.84058],[2.21885,48.83961],[2.21801,48.83942],[2.21798,48.83919],[2.21892,48.83879],[2.21926,48.83912],[2.21918,48.83845],[2.22051,48.8383],[2.22107,48.84018],[2.22154,48.84012],[2.22129,48.83891],[2.22207,48.83539],[2.17062,48.8344]]]}},{"type":"Feature","properties":{"id":"dogal-3","kind":"district","btype":"dogal","name":"Parc départemental des Lilas","lab":1},"geometry":{"type":"Polygon","coordinates":[[[2.38357,48.77226],[2.38811,48.77322],[2.3886,48.77193],[2.39244,48.77232],[2.39218,48.77298],[2.39239,48.77303],[2.39207,48.77602],[2.39172,48.77607],[2.39212,48.77644],[2.39168,48.77856],[2.3898,48.7827],[2.38888,48.78238],[2.38852,48.78285],[2.38794,48.78285],[2.38733,48.78359],[2.38648,48.78412],[2.38632,48.78435],[2.38708,48.78467],[2.38543,48.78667],[2.38598,48.78688],[2.38553,48.78743],[2.38497,48.78711],[2.38518,48.78621],[2.3849,48.78542],[2.3854,48.78464],[2.38459,48.78438],[2.3849,48.78395],[2.3828,48.7833],[2.38439,48.78163],[2.3798,48.77878],[2.3817,48.77713],[2.38115,48.77678],[2.37933,48.77851],[2.3789,48.77829],[2.38075,48.77666],[2.38034,48.77645],[2.37852,48.77806],[2.37805,48.7778],[2.37931,48.77669],[2.37899,48.77653],[2.37955,48.77606],[2.38018,48.77639],[2.38051,48.77611],[2.38017,48.77594],[2.38041,48.77575],[2.3799,48.77548],[2.38142,48.7746],[2.3792,48.77307],[2.38088,48.77206],[2.38187,48.77177],[2.38357,48.77226]]]}},{"type":"Feature","properties":{"id":"dogal-4","kind":"district","btype":"dogal","name":"Île de Loisirs de Créteil","lab":1},"geometry":{"type":"Polygon","coordinates":[[[2.45783,48.77052],[2.45756,48.77021],[2.45604,48.77054],[2.4554,48.7703],[2.45478,48.77068],[2.45264,48.77114],[2.4524,48.77091],[2.45233,48.77112],[2.45145,48.77123],[2.4507,48.77076],[2.45069,48.77008],[2.45114,48.76979],[2.45257,48.7697],[2.45298,48.76826],[2.45374,48.76795],[2.45464,48.76827],[2.45356,48.76742],[2.45279,48.76775],[2.44855,48.77038],[2.44714,48.77227],[2.44608,48.77302],[2.44259,48.77793],[2.4441,48.77972],[2.44433,48.77964],[2.44545,48.78071],[2.44567,48.78056],[2.44477,48.77958],[2.4444,48.77947],[2.44497,48.77827],[2.44671,48.77778],[2.44795,48.77847],[2.44777,48.77942],[2.44746,48.77969],[2.44604,48.78001],[2.44531,48.7799],[2.44604,48.78064],[2.44688,48.78059],[2.44695,48.78024],[2.44788,48.78033],[2.44762,48.78119],[2.44588,48.78174],[2.44714,48.78331],[2.44819,48.78281],[2.45783,48.77052]]]}},{"type":"Feature","properties":{"id":"dogal-5","kind":"district","btype":"dogal","name":"Bois de Clamart","lab":1},"geometry":{"type":"Polygon","coordinates":[[[2.26249,48.79322],[2.26371,48.792],[2.26462,48.79257],[2.26503,48.79378],[2.2649,48.79618],[2.26377,48.7959],[2.26273,48.79593],[2.26233,48.79562],[2.2605,48.79583],[2.25784,48.79731],[2.25692,48.7972],[2.2567,48.79747],[2.25701,48.7978],[2.25927,48.79902],[2.25784,48.79981],[2.25683,48.80071],[2.25893,48.80198],[2.25756,48.80288],[2.25667,48.8023],[2.25631,48.80244],[2.25402,48.79949],[2.25292,48.7968],[2.25243,48.79447],[2.25259,48.79263],[2.25384,48.79349],[2.25271,48.79403],[2.25287,48.79428],[2.25409,48.79548],[2.25491,48.79575],[2.25928,48.79437],[2.25969,48.79345],[2.26086,48.79366],[2.26116,48.79333],[2.26185,48.79332],[2.26188,48.79361],[2.26238,48.7937],[2.26257,48.79359],[2.26196,48.7934],[2.26249,48.79322]]]}},{"type":"Feature","properties":{"id":"dogal-6","kind":"district","btype":"dogal","name":"Parc Floral de Paris","lab":1},"geometry":{"type":"Polygon","coordinates":[[[2.44818,48.83584],[2.4485,48.83695],[2.4494,48.83673],[2.45014,48.83685],[2.45067,48.83819],[2.44785,48.83952],[2.43916,48.84024],[2.4388,48.84007],[2.43907,48.83997],[2.43887,48.83947],[2.43817,48.83925],[2.44444,48.83452],[2.44572,48.83433],[2.44611,48.83581],[2.44818,48.83584]]]}},{"type":"Feature","properties":{"id":"dogal-7","kind":"district","btype":"dogal","name":"Parc Pierre-Lagravère","lab":1},"geometry":{"type":"Polygon","coordinates":[[[2.24175,48.93187],[2.24215,48.93201],[2.2438,48.93119],[2.23243,48.92549],[2.23186,48.92543],[2.232,48.92516],[2.22632,48.92216],[2.22297,48.91931],[2.22264,48.91925],[2.22137,48.92016],[2.23341,48.92795],[2.23875,48.93065],[2.24175,48.93187]]]}},{"type":"Feature","properties":{"id":"dogal-8","kind":"district","btype":"dogal","name":"Champ de Mars","lab":1},"geometry":{"type":"Polygon","coordinates":[[[2.30224,48.85246],[2.30208,48.85232],[2.30174,48.85254],[2.3013,48.85225],[2.29752,48.85465],[2.29609,48.85443],[2.29557,48.85479],[2.29582,48.85579],[2.29385,48.85705],[2.29339,48.85674],[2.29187,48.85771],[2.29528,48.86008],[2.29687,48.85902],[2.29637,48.85869],[2.29845,48.85737],[2.2998,48.85759],[2.30009,48.85741],[2.29982,48.8565],[2.30379,48.85394],[2.30333,48.85369],[2.30378,48.8534],[2.30224,48.85246]]]}},{"type":"Feature","properties":{"id":"dogal-9","kind":"district","btype":"dogal","name":"Cité Universitaire - Parc Est","lab":1},"geometry":{"type":"Polygon","coordinates":[[[2.33374,48.81984],[2.33308,48.81858],[2.33582,48.817],[2.33632,48.81693],[2.34307,48.81679],[2.34379,48.8173],[2.3443,48.81908],[2.33446,48.82107],[2.33374,48.81984]]]}},{"type":"Feature","properties":{"id":"dogal-10","kind":"district","btype":"dogal","name":"Parc des Buttes-Chaumont","lab":1},"geometry":{"type":"Polygon","coordinates":[[[2.38828,48.87968],[2.38924,48.87969],[2.38554,48.88292],[2.38376,48.8827],[2.38215,48.88218],[2.38052,48.88115],[2.37863,48.87894],[2.3784,48.87789],[2.37922,48.87676],[2.38107,48.87617],[2.38106,48.87776],[2.38156,48.87842],[2.38229,48.87888],[2.38461,48.87949],[2.38828,48.87968]]]}},{"type":"Feature","properties":{"id":"dogal-11","kind":"district","btype":"dogal","name":"Parc des Beaumonts","lab":1},"geometry":{"type":"Polygon","coordinates":[[[2.45371,48.85951],[2.45408,48.86045],[2.45398,48.86086],[2.4543,48.86098],[2.45403,48.86149],[2.45462,48.86117],[2.45515,48.86165],[2.45483,48.86192],[2.45535,48.8621],[2.45599,48.86125],[2.45539,48.85934],[2.45672,48.85907],[2.45682,48.85871],[2.4555,48.85846],[2.45556,48.85768],[2.45658,48.85726],[2.45671,48.85681],[2.45742,48.85681],[2.45754,48.85608],[2.4523,48.85496],[2.45132,48.85526],[2.45066,48.85505],[2.45053,48.85477],[2.44906,48.85582],[2.44923,48.85677],[2.45001,48.85674],[2.45026,48.8571],[2.44977,48.85787],[2.44905,48.85819],[2.44924,48.85844],[2.44956,48.85864],[2.45022,48.85834],[2.45173,48.85852],[2.45187,48.85874],[2.45113,48.85904],[2.4518,48.85901],[2.45245,48.85971],[2.45371,48.85951]]]}},{"type":"Feature","properties":{"id":"dogal-12","kind":"district","btype":"dogal","name":"Parc Henri Sellier","lab":1},"geometry":{"type":"Polygon","coordinates":[[[2.27289,48.78002],[2.27262,48.77985],[2.27189,48.78004],[2.27167,48.7793],[2.2714,48.7793],[2.27007,48.77812],[2.26943,48.77818],[2.26716,48.77739],[2.26655,48.77765],[2.26685,48.77758],[2.26743,48.77839],[2.2666,48.779],[2.26511,48.77798],[2.26512,48.77825],[2.2649,48.7783],[2.26478,48.77806],[2.26434,48.77816],[2.2657,48.77858],[2.26556,48.77873],[2.26582,48.77883],[2.26546,48.77921],[2.26511,48.77927],[2.26341,48.77858],[2.26192,48.77899],[2.26166,48.77942],[2.26311,48.78029],[2.26453,48.78229],[2.26683,48.78282],[2.2679,48.78269],[2.2677,48.78236],[2.26789,48.78091],[2.26948,48.7814],[2.26941,48.78092],[2.27013,48.78054],[2.27217,48.78114],[2.27244,48.78103],[2.2721,48.78077],[2.27319,48.78031],[2.27289,48.78002]]]}},{"type":"Feature","properties":{"id":"dogal-13","kind":"district","btype":"dogal","name":"Parc André Malraux","lab":1},"geometry":{"type":"Polygon","coordinates":[[[2.21506,48.89523],[2.2124,48.89368],[2.21288,48.89332],[2.21361,48.89408],[2.21444,48.89399],[2.21527,48.89297],[2.21397,48.89248],[2.21497,48.89187],[2.21575,48.89225],[2.21696,48.89123],[2.21738,48.89161],[2.21814,48.89155],[2.21892,48.89092],[2.22001,48.89107],[2.22026,48.89078],[2.22271,48.89061],[2.22273,48.89041],[2.22305,48.89059],[2.22458,48.89048],[2.22498,48.89012],[2.22505,48.89041],[2.22631,48.89061],[2.2265,48.89087],[2.22619,48.89096],[2.22595,48.8917],[2.22542,48.89225],[2.22383,48.89278],[2.22318,48.89208],[2.22259,48.89216],[2.22197,48.89272],[2.22188,48.89316],[2.21689,48.89467],[2.21665,48.8951],[2.2169,48.89518],[2.21658,48.89565],[2.2163,48.89559],[2.2167,48.8948],[2.21585,48.89476],[2.21506,48.89523]]]}},{"type":"Feature","properties":{"id":"dogal-14","kind":"district","btype":"dogal","name":"Parc de Bagatelle","lab":1},"geometry":{"type":"Polygon","coordinates":[[[2.25199,48.87289],[2.25256,48.87264],[2.2505,48.87047],[2.24481,48.86672],[2.24426,48.86639],[2.24224,48.86653],[2.24618,48.87061],[2.24883,48.87427],[2.25054,48.87354],[2.25059,48.87379],[2.25092,48.87379],[2.25256,48.87349],[2.25199,48.87289]]]}},{"type":"Feature","properties":{"id":"dogal-15","kind":"district","btype":"dogal","name":"Jardin des Plantes","lab":1},"geometry":{"type":"Polygon","coordinates":[[[2.36338,48.84507],[2.36386,48.84474],[2.36381,48.8442],[2.36428,48.84372],[2.36396,48.84328],[2.35644,48.84134],[2.35602,48.84137],[2.3551,48.84374],[2.36088,48.84675],[2.36338,48.84507]]]}},{"type":"Feature","properties":{"id":"dogal-16","kind":"district","btype":"dogal","name":"Jardin des Tuileries","lab":1},"geometry":{"type":"Polygon","coordinates":[[[2.33064,48.86222],[2.32993,48.86107],[2.3216,48.86392],[2.32332,48.86616],[2.32415,48.8662],[2.33177,48.86374],[2.33064,48.86222]]]}},{"type":"Feature","properties":{"id":"dogal-17","kind":"district","btype":"dogal","name":"Jardin du Luxembourg","lab":1},"geometry":{"type":"Polygon","coordinates":[[[2.33624,48.84819],[2.3366,48.84785],[2.33807,48.84785],[2.33829,48.84809],[2.33834,48.84907],[2.3385,48.84901],[2.34009,48.84742],[2.34023,48.84664],[2.33982,48.84588],[2.33879,48.84607],[2.33773,48.84534],[2.33764,48.84436],[2.33296,48.84447],[2.33248,48.84489],[2.33267,48.84831],[2.3329,48.84834],[2.33293,48.84868],[2.33492,48.84906],[2.3349,48.84866],[2.33576,48.84865],[2.33573,48.84891],[2.33624,48.84892],[2.33624,48.84819]]]}},{"type":"Feature","properties":{"id":"dogal-18","kind":"district","btype":"dogal","name":"Parc de la Villette","lab":1},"geometry":{"type":"Polygon","coordinates":[[[2.38449,48.89626],[2.38432,48.89594],[2.3864,48.89272],[2.38717,48.89252],[2.39353,48.8958],[2.39289,48.89651],[2.39194,48.89694],[2.38898,48.89733],[2.38449,48.89626]]]}},{"type":"Feature","properties":{"id":"dogal-19","kind":"district","btype":"dogal","name":"Base de loisirs de la Corniche des Forts","lab":1},"geometry":{"type":"Polygon","coordinates":[[[2.43208,48.89048],[2.43263,48.8911],[2.43613,48.88968],[2.43657,48.88863],[2.43619,48.88784],[2.43633,48.88757],[2.43506,48.88687],[2.43492,48.88638],[2.43447,48.88621],[2.43462,48.88598],[2.43408,48.88565],[2.43157,48.88639],[2.43032,48.88538],[2.42887,48.88587],[2.43208,48.89048]]]}},{"type":"Feature","properties":{"id":"dogal-20","kind":"district","btype":"dogal","name":"Parc de l'île Saint-Germain","lab":1},"geometry":{"type":"Polygon","coordinates":[[[2.25193,48.82294],[2.25101,48.82338],[2.25058,48.82458],[2.25276,48.8256],[2.25824,48.82963],[2.25944,48.83019],[2.25993,48.82997],[2.25964,48.8292],[2.25947,48.82745],[2.25902,48.82697],[2.25485,48.82417],[2.25193,48.82294]]]}},{"type":"Feature","properties":{"id":"dogal-21","kind":"district","btype":"dogal","name":"Coulée verte du sud parisien","lab":1},"geometry":{"type":"Polygon","coordinates":[[[2.27094,48.73435],[2.27084,48.73493],[2.27273,48.73771],[2.27247,48.73802],[2.2731,48.73838],[2.27407,48.73966],[2.27458,48.74042],[2.27446,48.7409],[2.27514,48.74132],[2.2772,48.74443],[2.27699,48.74462],[2.2775,48.74515],[2.2775,48.74567],[2.27711,48.74662],[2.27779,48.74651],[2.27816,48.74679],[2.27756,48.74763],[2.27837,48.74801],[2.27867,48.74879],[2.27968,48.74917],[2.2805,48.75003],[2.28131,48.75123],[2.28115,48.75142],[2.28186,48.75148],[2.28305,48.75427],[2.28329,48.75432],[2.28377,48.75597],[2.28466,48.75575],[2.28272,48.75187],[2.28299,48.75129],[2.28236,48.75128],[2.28319,48.75124],[2.28197,48.75081],[2.28195,48.75117],[2.28151,48.75113],[2.28156,48.75081],[2.27776,48.74479],[2.27845,48.7446],[2.27579,48.74014],[2.27402,48.7378],[2.27221,48.73477],[2.27167,48.73495],[2.27113,48.73414],[2.27094,48.73435]]]}},{"type":"Feature","properties":{"id":"dogal-22","kind":"district","btype":"dogal","name":"Parc Suzanne Lenglen","lab":1},"geometry":{"type":"Polygon","coordinates":[[[2.26923,48.83259],[2.26956,48.83233],[2.26743,48.83114],[2.26767,48.82803],[2.26784,48.82795],[2.27117,48.82801],[2.27047,48.82882],[2.27116,48.82929],[2.2723,48.82959],[2.27311,48.8291],[2.27427,48.82955],[2.27454,48.83017],[2.27391,48.83049],[2.2736,48.83041],[2.2736,48.83087],[2.27386,48.83112],[2.27331,48.83157],[2.27477,48.83229],[2.27563,48.83208],[2.27661,48.83306],[2.27363,48.8321],[2.27197,48.83231],[2.27107,48.83196],[2.26962,48.83279],[2.26923,48.83259]]]}},{"type":"Feature","properties":{"id":"dogal-23","kind":"district","btype":"dogal","name":"Parc départemental de la Bergère","lab":1},"geometry":{"type":"Polygon","coordinates":[[[2.46142,48.90363],[2.46088,48.90377],[2.46091,48.90395],[2.45996,48.90409],[2.4602,48.9051],[2.4543,48.90413],[2.45335,48.90377],[2.45316,48.90398],[2.44976,48.90349],[2.44947,48.90331],[2.44891,48.90189],[2.44732,48.90088],[2.46142,48.90363]]]}},{"type":"Feature","properties":{"id":"dogal-24","kind":"district","btype":"dogal","name":"Parc Départemental des Hautes Bruyères","lab":1},"geometry":{"type":"Polygon","coordinates":[[[2.34847,48.78884],[2.35118,48.79095],[2.35126,48.79112],[2.35079,48.79123],[2.35103,48.79164],[2.35349,48.79224],[2.35372,48.79309],[2.35099,48.79336],[2.35097,48.79298],[2.35057,48.79277],[2.35072,48.79259],[2.34951,48.79235],[2.34837,48.79175],[2.34824,48.79145],[2.34847,48.79121],[2.34774,48.79015],[2.34591,48.79017],[2.34482,48.7908],[2.34484,48.78978],[2.34553,48.78828],[2.34713,48.78582],[2.34812,48.78573],[2.34855,48.78677],[2.34788,48.78687],[2.34847,48.78884]]]}},{"type":"Feature","properties":{"id":"dogal-25","kind":"district","btype":"dogal","name":"Parc du Chemin de l'île","lab":1},"geometry":{"type":"Polygon","coordinates":[[[2.19989,48.90782],[2.19678,48.90641],[2.19436,48.90488],[2.19324,48.90454],[2.19787,48.90186],[2.19886,48.90264],[2.1988,48.9028],[2.1968,48.90398],[2.19771,48.90474],[2.20003,48.90355],[2.2002,48.90373],[2.19793,48.90523],[2.19955,48.90646],[2.20037,48.90615],[2.20115,48.90656],[2.2,48.90778],[2.20071,48.90806],[2.20099,48.90755],[2.20152,48.90798],[2.20179,48.90736],[2.20216,48.90712],[2.20403,48.90806],[2.20338,48.90861],[2.20357,48.90895],[2.20582,48.91001],[2.20555,48.91024],[2.19989,48.90782]]]}},{"type":"Feature","properties":{"id":"dogal-26","kind":"district","btype":"dogal","name":"Parc de Boulogne - Edmond de Rothschild","lab":1},"geometry":{"type":"Polygon","coordinates":[[[2.22743,48.84886],[2.22646,48.8521],[2.22648,48.85269],[2.23348,48.8512],[2.23277,48.84906],[2.2339,48.8489],[2.23377,48.8485],[2.22743,48.84886]]]}},{"type":"Feature","properties":{"id":"dogal-27","kind":"district","btype":"dogal","name":"Parc Montreau","lab":1},"geometry":{"type":"Polygon","coordinates":[[[2.47104,48.86759],[2.47072,48.86676],[2.47166,48.86655],[2.47146,48.86658],[2.47132,48.86619],[2.46981,48.86642],[2.46756,48.86388],[2.46822,48.86359],[2.46861,48.86394],[2.46923,48.864],[2.47261,48.86343],[2.47261,48.8645],[2.47303,48.86451],[2.4765,48.86401],[2.47693,48.86507],[2.47514,48.86538],[2.47402,48.86609],[2.47444,48.86702],[2.47417,48.86727],[2.47104,48.86759]]]}},{"type":"Feature","properties":{"id":"dogal-28","kind":"district","btype":"dogal","name":"Parc départemental Jean-Moulin - Les Guilands","lab":1},"geometry":{"type":"Polygon","coordinates":[[[2.42617,48.86304],[2.43107,48.86371],[2.43136,48.86163],[2.42989,48.86138],[2.43001,48.86066],[2.42935,48.86059],[2.42938,48.86036],[2.4281,48.86031],[2.42806,48.86006],[2.42725,48.86004],[2.42726,48.85979],[2.4244,48.85992],[2.42468,48.8603],[2.42404,48.86033],[2.42484,48.86091],[2.42532,48.86163],[2.42513,48.86201],[2.42439,48.86243],[2.42416,48.8634],[2.42576,48.8636],[2.42617,48.86304]]]}},{"type":"Feature","properties":{"id":"dogal-29","kind":"district","btype":"dogal","name":"Parc Montsouris","lab":1},"geometry":{"type":"Polygon","coordinates":[[[2.33872,48.82054],[2.33457,48.82142],[2.33612,48.82403],[2.33987,48.8244],[2.3415,48.82001],[2.33915,48.82041],[2.33919,48.82063],[2.33872,48.82054]]]}},{"type":"Feature","properties":{"id":"dogal-30","kind":"district","btype":"dogal","name":"Parc de Bercy","lab":1},"geometry":{"type":"Polygon","coordinates":[[[2.37812,48.83734],[2.37862,48.83746],[2.37849,48.83769],[2.37925,48.83769],[2.37983,48.83796],[2.37991,48.8385],[2.38025,48.83848],[2.38023,48.83827],[2.38126,48.83765],[2.38203,48.83783],[2.38262,48.83737],[2.38202,48.83703],[2.3821,48.83685],[2.38617,48.83359],[2.38444,48.83232],[2.38061,48.83537],[2.38036,48.83522],[2.37845,48.83674],[2.37869,48.83688],[2.37812,48.83734]]]}},{"type":"Feature","properties":{"id":"dogal-31","kind":"district","btype":"dogal","name":"Arboretum de Paris","lab":1},"geometry":{"type":"Polygon","coordinates":[[[2.45305,48.82121],[2.45441,48.81986],[2.45902,48.82021],[2.45996,48.82068],[2.45812,48.82324],[2.45759,48.82363],[2.45305,48.82121]]]}},{"type":"Feature","properties":{"id":"dogal-32","kind":"district","btype":"dogal","name":"Parc du Lycée Michelet","lab":1},"geometry":{"type":"Polygon","coordinates":[[[2.28463,48.82642],[2.28693,48.82287],[2.28519,48.82222],[2.28123,48.82545],[2.2822,48.82612],[2.28179,48.8265],[2.28286,48.827],[2.28482,48.82654],[2.28463,48.82642]]]}},{"type":"Feature","properties":{"id":"dogal-33","kind":"district","btype":"dogal","name":"Pelouse de Reuilly","lab":1},"geometry":{"type":"Polygon","coordinates":[[[2.40408,48.83184],[2.40551,48.8302],[2.40444,48.82968],[2.40468,48.82924],[2.40709,48.82891],[2.407,48.82855],[2.40771,48.82784],[2.40951,48.82737],[2.40957,48.828],[2.4092,48.82867],[2.40953,48.82871],[2.40944,48.82936],[2.40879,48.82962],[2.4087,48.83033],[2.40909,48.8305],[2.40872,48.83101],[2.40757,48.83081],[2.40465,48.83224],[2.40408,48.83184]]]}},{"type":"Feature","properties":{"id":"dogal-34","kind":"district","btype":"dogal","name":"Parc de la République","lab":1},"geometry":{"type":"Polygon","coordinates":[[[2.42887,48.88587],[2.42809,48.88617],[2.42756,48.88605],[2.42697,48.88682],[2.4267,48.88724],[2.42655,48.88933],[2.42353,48.88996],[2.4235,48.88794],[2.4219,48.88747],[2.42205,48.8873],[2.42002,48.88463],[2.4205,48.88568],[2.42059,48.88667],[2.42038,48.88678],[2.42887,48.88587]]]}},{"type":"Feature","properties":{"id":"dogal-35","kind":"district","btype":"dogal","name":"Jardin du Ranelagh","lab":1},"geometry":{"type":"Polygon","coordinates":[[[2.27223,48.85821],[2.27225,48.85843],[2.27135,48.85859],[2.27055,48.8593],[2.26994,48.85948],[2.26996,48.85997],[2.268,48.86182],[2.26767,48.86146],[2.26799,48.85974],[2.26737,48.85856],[2.26638,48.85716],[2.26502,48.85757],[2.26469,48.85703],[2.26604,48.8567],[2.27223,48.85821]]]}},{"type":"Feature","properties":{"id":"dogal-36","kind":"district","btype":"dogal","name":"Parc Clichy-Batignolles Martin Luther King","lab":1},"geometry":{"type":"Polygon","coordinates":[[[2.31212,48.89343],[2.31272,48.89282],[2.31324,48.89311],[2.31351,48.89296],[2.31298,48.89262],[2.31362,48.89221],[2.31427,48.89247],[2.31379,48.89215],[2.31549,48.89118],[2.3165,48.89182],[2.31669,48.89173],[2.31613,48.89097],[2.31696,48.89048],[2.31545,48.88886],[2.31464,48.88929],[2.3141,48.88998],[2.3138,48.88979],[2.31354,48.88994],[2.31384,48.89027],[2.31263,48.89096],[2.31213,48.89064],[2.31189,48.89079],[2.31219,48.89119],[2.31063,48.89151],[2.311,48.89189],[2.31033,48.89273],[2.31212,48.89343]]]}},{"type":"Feature","properties":{"id":"dogal-37","kind":"district","btype":"dogal","name":"Parc de l'Observatoire","lab":1},"geometry":{"type":"Polygon","coordinates":[[[2.23078,48.80826],[2.23058,48.80898],[2.23257,48.8094],[2.23333,48.8071],[2.23369,48.80658],[2.23418,48.80639],[2.23364,48.80498],[2.23411,48.8037],[2.23382,48.8035],[2.23361,48.80434],[2.23216,48.80423],[2.23124,48.80464],[2.23152,48.80528],[2.23206,48.80531],[2.23126,48.80567],[2.23138,48.80594],[2.23078,48.80826]]]}},{"type":"Feature","properties":{"id":"dogal-38","kind":"district","btype":"dogal","name":"Parc André Citroën","lab":1},"geometry":{"type":"Polygon","coordinates":[[[2.27164,48.84056],[2.27348,48.84083],[2.27496,48.84024],[2.27437,48.8396],[2.27533,48.83956],[2.27633,48.83913],[2.27687,48.83954],[2.2766,48.83969],[2.27703,48.83971],[2.27764,48.8404],[2.27737,48.84051],[2.27761,48.84079],[2.27692,48.84104],[2.27681,48.84165],[2.27492,48.8424],[2.27475,48.84335],[2.27436,48.84349],[2.27164,48.84056]]]}},{"type":"Feature","properties":{"id":"dogal-39","kind":"district","btype":"dogal","name":"Parc du Coteau de Bièvre","lab":1},"geometry":{"type":"Polygon","coordinates":[[[2.34134,48.8059],[2.34064,48.80521],[2.33984,48.80499],[2.34109,48.80399],[2.34164,48.80427],[2.34151,48.8057],[2.34326,48.80597],[2.34353,48.80655],[2.34436,48.8062],[2.34535,48.80733],[2.34536,48.80783],[2.34455,48.80846],[2.34421,48.80857],[2.34375,48.8083],[2.34348,48.80849],[2.3436,48.80868],[2.34258,48.80883],[2.3402,48.80626],[2.34116,48.80625],[2.34134,48.8059]]]}}]}