{"type":"FeatureCollection","features":[{"type":"Feature","properties":{"id":"ih-eczane-0","kind":"poi","name":"Pharmacie Brisebarre","theme":"eczane","lab":1},"geometry":{"type":"Point","coordinates":[2.30113,48.85976]}},{"type":"Feature","properties":{"id":"ih-eczane-1","kind":"poi","name":"Pharmacie Cotinat","theme":"eczane","lab":1},"geometry":{"type":"Point","coordinates":[2.30749,48.85781]}},{"type":"Feature","properties":{"id":"ih-eczane-2","kind":"poi","name":"Pharmacie de la Bourdonnais","theme":"eczane","lab":1},"geometry":{"type":"Point","coordinates":[2.30194,48.85628]}},{"type":"Feature","properties":{"id":"ih-eczane-3","kind":"poi","name":"CityPharma","theme":"eczane","lab":1},"geometry":{"type":"Point","coordinates":[2.33336,48.85274]}},{"type":"Feature","properties":{"id":"ih-eczane-4","kind":"poi","name":"Pharmacie Centrale Belleville","theme":"eczane","lab":1},"geometry":{"type":"Point","coordinates":[2.37694,48.87028]}},{"type":"Feature","properties":{"id":"ih-eczane-5","kind":"poi","name":"Phamarcie du 58","theme":"eczane","lab":1},"geometry":{"type":"Point","coordinates":[2.37367,48.86478]}},{"type":"Feature","properties":{"id":"ih-eczane-6","kind":"poi","name":"Pharmacie de la Nation","theme":"eczane","lab":1},"geometry":{"type":"Point","coordinates":[2.39744,48.84895]}},{"type":"Feature","properties":{"id":"ih-eczane-7","kind":"poi","name":"Pharmacie Verdun","theme":"eczane","lab":1},"geometry":{"type":"Point","coordinates":[2.26187,48.89951]}},{"type":"Feature","properties":{"id":"ih-eczane-8","kind":"poi","name":"Pharmacie de la Mairie","theme":"eczane","lab":1},"geometry":{"type":"Point","coordinates":[2.32133,48.88454]}},{"type":"Feature","properties":{"id":"ih-eczane-9","kind":"poi","name":"Pharmacie Raspail","theme":"eczane","lab":1},"geometry":{"type":"Point","coordinates":[2.33144,48.80211]}},{"type":"Feature","properties":{"id":"ih-eczane-10","kind":"poi","name":"Pharmacie du 130","theme":"eczane","lab":1},"geometry":{"type":"Point","coordinates":[2.26612,48.88334]}},{"type":"Feature","properties":{"id":"ih-eczane-11","kind":"poi","name":"Pharmacie Château-Villiers","theme":"eczane","lab":1},"geometry":{"type":"Point","coordinates":[2.27656,48.89406]}},{"type":"Feature","properties":{"id":"ih-eczane-12","kind":"poi","name":"Pharmacie de Bercy","theme":"eczane","lab":1},"geometry":{"type":"Point","coordinates":[2.37404,48.84109]}},{"type":"Feature","properties":{"id":"ih-eczane-13","kind":"poi","name":"Pharmacie du Dr Levy","theme":"eczane","lab":1},"geometry":{"type":"Point","coordinates":[2.30183,48.88138]}},{"type":"Feature","properties":{"id":"ih-eczane-14","kind":"poi","name":"Pharmacie Convention","theme":"eczane","lab":1},"geometry":{"type":"Point","coordinates":[2.30098,48.83578]}},{"type":"Feature","properties":{"id":"ih-eczane-15","kind":"poi","name":"Pharmacie Belda","theme":"eczane","lab":1},"geometry":{"type":"Point","coordinates":[2.36854,48.85692]}},{"type":"Feature","properties":{"id":"ih-eczane-16","kind":"poi","name":"Pharmacie des 3 Quartiers","theme":"eczane","lab":1},"geometry":{"type":"Point","coordinates":[2.32697,48.88488]}},{"type":"Feature","properties":{"id":"ih-eczane-17","kind":"poi","name":"Pharmacie du Triangle","theme":"eczane","lab":1},"geometry":{"type":"Point","coordinates":[2.30493,48.87504]}},{"type":"Feature","properties":{"id":"ih-eczane-18","kind":"poi","name":"Pharmacie du Soleil","theme":"eczane","lab":1},"geometry":{"type":"Point","coordinates":[2.25108,48.82899]}},{"type":"Feature","properties":{"id":"ih-eczane-19","kind":"poi","name":"Pharmacie Métro La Chapelle","theme":"eczane","lab":1},"geometry":{"type":"Point","coordinates":[2.36025,48.88358]}},{"type":"Feature","properties":{"id":"ih-eczane-20","kind":"poi","name":"Lafayette","theme":"eczane","lab":1},"geometry":{"type":"Point","coordinates":[2.28292,48.86552]}},{"type":"Feature","properties":{"id":"ih-eczane-21","kind":"poi","name":"Grande pharmacie centrale Pasteur","theme":"eczane","lab":1},"geometry":{"type":"Point","coordinates":[2.31438,48.84159]}},{"type":"Feature","properties":{"id":"ih-eczane-22","kind":"poi","name":"Pharmacie Pharmavance","theme":"eczane","lab":1},"geometry":{"type":"Point","coordinates":[2.34512,48.87823]}},{"type":"Feature","properties":{"id":"ih-eczane-23","kind":"poi","name":"Pharmacie Bailly","theme":"eczane","lab":1},"geometry":{"type":"Point","coordinates":[2.2698,48.85531]}},{"type":"Feature","properties":{"id":"ih-eczane-24","kind":"poi","name":"Pharmacie de l'Olivier","theme":"eczane","lab":1},"geometry":{"type":"Point","coordinates":[2.35251,48.84403]}},{"type":"Feature","properties":{"id":"ih-eczane-25","kind":"poi","name":"Pharmacie de la Croix Bleue","theme":"eczane","lab":1},"geometry":{"type":"Point","coordinates":[2.26527,48.84769]}},{"type":"Feature","properties":{"id":"ih-eczane-26","kind":"poi","name":"Pharmacie 164","theme":"eczane","lab":1},"geometry":{"type":"Point","coordinates":[2.37944,48.85662]}},{"type":"Feature","properties":{"id":"ih-eczane-27","kind":"poi","name":"Pharmacie Centrale","theme":"eczane","lab":1},"geometry":{"type":"Point","coordinates":[2.36852,48.82717]}},{"type":"Feature","properties":{"id":"ih-eczane-28","kind":"poi","name":"Grande Pharmacie du Commerce","theme":"eczane","lab":1},"geometry":{"type":"Point","coordinates":[2.29356,48.84417]}},{"type":"Feature","properties":{"id":"ih-eczane-29","kind":"poi","name":"Pharmacie Simar","theme":"eczane","lab":1},"geometry":{"type":"Point","coordinates":[2.35149,48.89134]}},{"type":"Feature","properties":{"id":"ih-eczane-30","kind":"poi","name":"Gondard Casabianca","theme":"eczane","lab":1},"geometry":{"type":"Point","coordinates":[2.34266,48.89265]}},{"type":"Feature","properties":{"id":"ih-eczane-31","kind":"poi","name":"Univers Pharmacie","theme":"eczane","lab":1},"geometry":{"type":"Point","coordinates":[2.34574,48.89566]}},{"type":"Feature","properties":{"id":"ih-eczane-32","kind":"poi","name":"Pharmacie Hauteville","theme":"eczane","lab":1},"geometry":{"type":"Point","coordinates":[2.35097,48.87511]}},{"type":"Feature","properties":{"id":"ih-eczane-33","kind":"poi","name":"Pharmacie de la Porte de Saint-Ouen","theme":"eczane","lab":1},"geometry":{"type":"Point","coordinates":[2.32833,48.89629]}},{"type":"Feature","properties":{"id":"ih-eczane-34","kind":"poi","name":"La Grande Pharmacie du XVème","theme":"eczane","lab":1},"geometry":{"type":"Point","coordinates":[2.28386,48.84446]}},{"type":"Feature","properties":{"id":"ih-eczane-35","kind":"poi","name":"Pharmacie du Parc de Bécon","theme":"eczane","lab":1},"geometry":{"type":"Point","coordinates":[2.26689,48.89919]}},{"type":"Feature","properties":{"id":"ih-eczane-36","kind":"poi","name":"Grande Pharmacie des 4 Chemins","theme":"eczane","lab":1},"geometry":{"type":"Point","coordinates":[2.39232,48.90356]}},{"type":"Feature","properties":{"id":"ih-eczane-37","kind":"poi","name":"Pharmacie Pajol","theme":"eczane","lab":1},"geometry":{"type":"Point","coordinates":[2.36292,48.88985]}},{"type":"Feature","properties":{"id":"ih-eczane-38","kind":"poi","name":"Pharmacie du Soleil","theme":"eczane","lab":1},"geometry":{"type":"Point","coordinates":[2.36438,48.80414]}},{"type":"Feature","properties":{"id":"ih-eczane-39","kind":"poi","name":"Pharmacie Principale","theme":"eczane","lab":1},"geometry":{"type":"Point","coordinates":[2.38754,48.87479]}},{"type":"Feature","properties":{"id":"ih-eczane-40","kind":"poi","name":"leadersanté","theme":"eczane","lab":1},"geometry":{"type":"Point","coordinates":[2.39865,48.88036]}},{"type":"Feature","properties":{"id":"ih-eczane-41","kind":"poi","name":"Pharmacie Fouché","theme":"eczane","lab":1},"geometry":{"type":"Point","coordinates":[2.39673,48.88385]}},{"type":"Feature","properties":{"id":"ih-eczane-42","kind":"poi","name":"Pharmacie Centrale","theme":"eczane","lab":1},"geometry":{"type":"Point","coordinates":[2.41544,48.82029]}},{"type":"Feature","properties":{"id":"ih-eczane-43","kind":"poi","name":"Pharmacie Sine Ndefeu","theme":"eczane","lab":1},"geometry":{"type":"Point","coordinates":[2.29562,48.81395]}},{"type":"Feature","properties":{"id":"ih-eczane-44","kind":"poi","name":"Pharmacie Odéon","theme":"eczane","lab":1},"geometry":{"type":"Point","coordinates":[2.33913,48.85208]}},{"type":"Feature","properties":{"id":"ih-eczane-45","kind":"poi","name":"Lafayette","theme":"eczane","lab":1},"geometry":{"type":"Point","coordinates":[2.3354,48.87376]}},{"type":"Feature","properties":{"id":"ih-eczane-46","kind":"poi","name":"Pharma Best","theme":"eczane","lab":1},"geometry":{"type":"Point","coordinates":[2.32114,48.84029]}},{"type":"Feature","properties":{"id":"ih-eczane-47","kind":"poi","name":"Pharmacie Saint Dominique","theme":"eczane","lab":1},"geometry":{"type":"Point","coordinates":[2.3065,48.85959]}},{"type":"Feature","properties":{"id":"ih-eczane-48","kind":"poi","name":"Pharmacie du Pont de Bercy","theme":"eczane","lab":1},"geometry":{"type":"Point","coordinates":[2.37324,48.83765]}},{"type":"Feature","properties":{"id":"ih-eczane-49","kind":"poi","name":"Pharmacie Doudeauville","theme":"eczane","lab":1},"geometry":{"type":"Point","coordinates":[2.35594,48.8886]}},{"type":"Feature","properties":{"id":"ih-eczane-50","kind":"poi","name":"Pharmacie Lafayette du Palais","theme":"eczane","lab":1},"geometry":{"type":"Point","coordinates":[2.30917,48.89681]}},{"type":"Feature","properties":{"id":"ih-eczane-51","kind":"poi","name":"Pharmacie Marceau","theme":"eczane","lab":1},"geometry":{"type":"Point","coordinates":[2.24321,48.90231]}},{"type":"Feature","properties":{"id":"ih-eczane-52","kind":"poi","name":"Grande Pharmacie des Batignolles","theme":"eczane","lab":1},"geometry":{"type":"Point","coordinates":[2.31463,48.88872]}},{"type":"Feature","properties":{"id":"ih-eczane-53","kind":"poi","name":"Pharmacie de la Rapée","theme":"eczane","lab":1},"geometry":{"type":"Point","coordinates":[2.36973,48.8468]}},{"type":"Feature","properties":{"id":"ih-eczane-54","kind":"poi","name":"Pharmacie Lecourbe Cambronne","theme":"eczane","lab":1},"geometry":{"type":"Point","coordinates":[2.30277,48.84277]}},{"type":"Feature","properties":{"id":"ih-eczane-55","kind":"poi","name":"Pharmacie de l'Assemblée","theme":"eczane","lab":1},"geometry":{"type":"Point","coordinates":[2.3183,48.85985]}},{"type":"Feature","properties":{"id":"ih-eczane-56","kind":"poi","name":"Pharmacie de Varenne","theme":"eczane","lab":1},"geometry":{"type":"Point","coordinates":[2.32402,48.85404]}},{"type":"Feature","properties":{"id":"ih-eczane-57","kind":"poi","name":"Pharmacie du Palais Royal","theme":"eczane","lab":1},"geometry":{"type":"Point","coordinates":[2.33959,48.86224]}},{"type":"Feature","properties":{"id":"ih-eczane-58","kind":"poi","name":"Pharmacie du Louvre","theme":"eczane","lab":1},"geometry":{"type":"Point","coordinates":[2.34166,48.86219]}},{"type":"Feature","properties":{"id":"ih-eczane-59","kind":"poi","name":"Pharmacie de la place de la République","theme":"eczane","lab":1},"geometry":{"type":"Point","coordinates":[2.3643,48.86645]}},{"type":"Feature","properties":{"id":"ih-eczane-60","kind":"poi","name":"Pharmacie de la Place Métivier","theme":"eczane","lab":1},"geometry":{"type":"Point","coordinates":[2.38823,48.86336]}},{"type":"Feature","properties":{"id":"ih-eczane-61","kind":"poi","name":"Pharmacie de l'Avenir","theme":"eczane","lab":1},"geometry":{"type":"Point","coordinates":[2.37344,48.8782]}},{"type":"Feature","properties":{"id":"ih-eczane-62","kind":"poi","name":"Pharmacie Amar","theme":"eczane","lab":1},"geometry":{"type":"Point","coordinates":[2.27263,48.82411]}},{"type":"Feature","properties":{"id":"ih-eczane-63","kind":"poi","name":"Pharmacie Charles Michels","theme":"eczane","lab":1},"geometry":{"type":"Point","coordinates":[2.28617,48.84685]}},{"type":"Feature","properties":{"id":"ih-eczane-64","kind":"poi","name":"Grande Pharmacie Hahnemann","theme":"eczane","lab":1},"geometry":{"type":"Point","coordinates":[2.29633,48.83706]}},{"type":"Feature","properties":{"id":"ih-eczane-65","kind":"poi","name":"Pharmacie Bichet","theme":"eczane","lab":1},"geometry":{"type":"Point","coordinates":[2.36188,48.83174]}},{"type":"Feature","properties":{"id":"ih-eczane-66","kind":"poi","name":"Pharmacie Saint Maur Saint-Louis","theme":"eczane","lab":1},"geometry":{"type":"Point","coordinates":[2.37203,48.8719]}},{"type":"Feature","properties":{"id":"ih-eczane-67","kind":"poi","name":"Pharmacie Edgar Quinet","theme":"eczane","lab":1},"geometry":{"type":"Point","coordinates":[2.3253,48.84124]}},{"type":"Feature","properties":{"id":"ih-eczane-68","kind":"poi","name":"Pharmacie 43","theme":"eczane","lab":1},"geometry":{"type":"Point","coordinates":[2.38548,48.86897]}},{"type":"Feature","properties":{"id":"ih-eczane-69","kind":"poi","name":"Pharmacie Maraîchers","theme":"eczane","lab":1},"geometry":{"type":"Point","coordinates":[2.40608,48.85338]}},{"type":"Feature","properties":{"id":"ih-market-0","kind":"poi","name":"Carrefour","theme":"market","lab":1},"geometry":{"type":"Point","coordinates":[2.25567,48.84584]}},{"type":"Feature","properties":{"id":"ih-market-1","kind":"poi","name":"Hypercacher","theme":"market","lab":1},"geometry":{"type":"Point","coordinates":[2.41547,48.84706]}},{"type":"Feature","properties":{"id":"ih-market-2","kind":"poi","name":"La Louve","theme":"market","lab":1},"geometry":{"type":"Point","coordinates":[2.35306,48.89444]}},{"type":"Feature","properties":{"id":"ih-market-3","kind":"poi","name":"Paris Store","theme":"market","lab":1},"geometry":{"type":"Point","coordinates":[2.36604,48.82341]}},{"type":"Feature","properties":{"id":"ih-market-4","kind":"poi","name":"Monoprix","theme":"market","lab":1},"geometry":{"type":"Point","coordinates":[2.27392,48.82424]}},{"type":"Feature","properties":{"id":"ih-market-5","kind":"poi","name":"Monoprix","theme":"market","lab":1},"geometry":{"type":"Point","coordinates":[2.30526,48.84358]}},{"type":"Feature","properties":{"id":"ih-market-6","kind":"poi","name":"G20","theme":"market","lab":1},"geometry":{"type":"Point","coordinates":[2.29068,48.83591]}},{"type":"Feature","properties":{"id":"ih-market-7","kind":"poi","name":"G20","theme":"market","lab":1},"geometry":{"type":"Point","coordinates":[2.25824,48.83796]}},{"type":"Feature","properties":{"id":"ih-market-8","kind":"poi","name":"G20","theme":"market","lab":1},"geometry":{"type":"Point","coordinates":[2.35513,48.86937]}},{"type":"Feature","properties":{"id":"ih-market-9","kind":"poi","name":"Auchan","theme":"market","lab":1},"geometry":{"type":"Point","coordinates":[2.25124,48.82077]}},{"type":"Feature","properties":{"id":"ih-market-10","kind":"poi","name":"G20","theme":"market","lab":1},"geometry":{"type":"Point","coordinates":[2.3012,48.85795]}},{"type":"Feature","properties":{"id":"ih-market-11","kind":"poi","name":"Monoprix","theme":"market","lab":1},"geometry":{"type":"Point","coordinates":[2.35194,48.8656]}},{"type":"Feature","properties":{"id":"ih-market-12","kind":"poi","name":"Intermarché Express","theme":"market","lab":1},"geometry":{"type":"Point","coordinates":[2.40299,48.85733]}},{"type":"Feature","properties":{"id":"ih-market-13","kind":"poi","name":"Auchan","theme":"market","lab":1},"geometry":{"type":"Point","coordinates":[2.41567,48.86535]}},{"type":"Feature","properties":{"id":"ih-market-14","kind":"poi","name":"Monoprix","theme":"market","lab":1},"geometry":{"type":"Point","coordinates":[2.31315,48.82211]}},{"type":"Feature","properties":{"id":"ih-market-15","kind":"poi","name":"Monoprix","theme":"market","lab":1},"geometry":{"type":"Point","coordinates":[2.29486,48.83668]}},{"type":"Feature","properties":{"id":"ih-market-16","kind":"poi","name":"Carrefour","theme":"market","lab":1},"geometry":{"type":"Point","coordinates":[2.3269,48.80474]}},{"type":"Feature","properties":{"id":"ih-market-17","kind":"poi","name":"Monoprix","theme":"market","lab":1},"geometry":{"type":"Point","coordinates":[2.32868,48.83033]}},{"type":"Feature","properties":{"id":"ih-market-18","kind":"poi","name":"Aldi","theme":"market","lab":1},"geometry":{"type":"Point","coordinates":[2.36097,48.83329]}},{"type":"Feature","properties":{"id":"ih-market-19","kind":"poi","name":"Monoprix","theme":"market","lab":1},"geometry":{"type":"Point","coordinates":[2.33253,48.85341]}},{"type":"Feature","properties":{"id":"ih-market-20","kind":"poi","name":"Lidl","theme":"market","lab":1},"geometry":{"type":"Point","coordinates":[2.3782,48.86405]}},{"type":"Feature","properties":{"id":"ih-market-21","kind":"poi","name":"Lidl","theme":"market","lab":1},"geometry":{"type":"Point","coordinates":[2.32217,48.84008]}},{"type":"Feature","properties":{"id":"ih-market-22","kind":"poi","name":"Auchan Supermarché","theme":"market","lab":1},"geometry":{"type":"Point","coordinates":[2.38055,48.85848]}},{"type":"Feature","properties":{"id":"ih-market-23","kind":"poi","name":"G20","theme":"market","lab":1},"geometry":{"type":"Point","coordinates":[2.40165,48.85155]}},{"type":"Feature","properties":{"id":"ih-market-24","kind":"poi","name":"Monoprix","theme":"market","lab":1},"geometry":{"type":"Point","coordinates":[2.32354,48.82911]}},{"type":"Feature","properties":{"id":"ih-market-25","kind":"poi","name":"Aldi","theme":"market","lab":1},"geometry":{"type":"Point","coordinates":[2.37478,48.86892]}},{"type":"Feature","properties":{"id":"ih-market-26","kind":"poi","name":"Bio C' Bon","theme":"market","lab":1},"geometry":{"type":"Point","coordinates":[2.36849,48.87644]}},{"type":"Feature","properties":{"id":"ih-market-27","kind":"poi","name":"G20","theme":"market","lab":1},"geometry":{"type":"Point","coordinates":[2.37091,48.87051]}},{"type":"Feature","properties":{"id":"ih-market-28","kind":"poi","name":"Monoprix","theme":"market","lab":1},"geometry":{"type":"Point","coordinates":[2.37604,48.8516]}},{"type":"Feature","properties":{"id":"ih-market-29","kind":"poi","name":"Monoprix","theme":"market","lab":1},"geometry":{"type":"Point","coordinates":[2.38338,48.88601]}},{"type":"Feature","properties":{"id":"ih-market-30","kind":"poi","name":"Monoprix","theme":"market","lab":1},"geometry":{"type":"Point","coordinates":[2.26832,48.90276]}},{"type":"Feature","properties":{"id":"ih-market-31","kind":"poi","name":"Naturalia","theme":"market","lab":1},"geometry":{"type":"Point","coordinates":[2.38499,48.81197]}},{"type":"Feature","properties":{"id":"ih-market-32","kind":"poi","name":"Naturalia","theme":"market","lab":1},"geometry":{"type":"Point","coordinates":[2.38971,48.87403]}},{"type":"Feature","properties":{"id":"ih-market-33","kind":"poi","name":"U Express","theme":"market","lab":1},"geometry":{"type":"Point","coordinates":[2.32165,48.81679]}},{"type":"Feature","properties":{"id":"ih-market-34","kind":"poi","name":"Auchan Supermarché","theme":"market","lab":1},"geometry":{"type":"Point","coordinates":[2.31456,48.81097]}},{"type":"Feature","properties":{"id":"ih-market-35","kind":"poi","name":"Intermarché","theme":"market","lab":1},"geometry":{"type":"Point","coordinates":[2.28154,48.83635]}},{"type":"Feature","properties":{"id":"ih-market-36","kind":"poi","name":"Monoprix","theme":"market","lab":1},"geometry":{"type":"Point","coordinates":[2.41378,48.82111]}},{"type":"Feature","properties":{"id":"ih-market-37","kind":"poi","name":"Monoprix","theme":"market","lab":1},"geometry":{"type":"Point","coordinates":[2.27753,48.82697]}},{"type":"Feature","properties":{"id":"ih-market-38","kind":"poi","name":"Monoprix","theme":"market","lab":1},"geometry":{"type":"Point","coordinates":[2.31586,48.88208]}},{"type":"Feature","properties":{"id":"ih-market-39","kind":"poi","name":"Auchan Supermarché","theme":"market","lab":1},"geometry":{"type":"Point","coordinates":[2.3944,48.84105]}},{"type":"Feature","properties":{"id":"ih-market-40","kind":"poi","name":"Monoprix","theme":"market","lab":1},"geometry":{"type":"Point","coordinates":[2.40144,48.83773]}},{"type":"Feature","properties":{"id":"ih-market-41","kind":"poi","name":"Monoprix","theme":"market","lab":1},"geometry":{"type":"Point","coordinates":[2.37767,48.82995]}},{"type":"Feature","properties":{"id":"ih-market-42","kind":"poi","name":"Auchan Supermarché","theme":"market","lab":1},"geometry":{"type":"Point","coordinates":[2.34678,48.82594]}},{"type":"Feature","properties":{"id":"ih-market-43","kind":"poi","name":"Monoprix","theme":"market","lab":1},"geometry":{"type":"Point","coordinates":[2.3441,48.82844]}},{"type":"Feature","properties":{"id":"ih-market-44","kind":"poi","name":"Auchan Supermarché","theme":"market","lab":1},"geometry":{"type":"Point","coordinates":[2.41978,48.81501]}},{"type":"Feature","properties":{"id":"ih-market-45","kind":"poi","name":"Auchan Supermarché","theme":"market","lab":1},"geometry":{"type":"Point","coordinates":[2.31537,48.83132]}},{"type":"Feature","properties":{"id":"ih-market-46","kind":"poi","name":"Naturalia","theme":"market","lab":1},"geometry":{"type":"Point","coordinates":[2.36892,48.8647]}},{"type":"Feature","properties":{"id":"ih-market-47","kind":"poi","name":"Monoprix","theme":"market","lab":1},"geometry":{"type":"Point","coordinates":[2.38988,48.83863]}},{"type":"Feature","properties":{"id":"ih-market-48","kind":"poi","name":"Monoprix","theme":"market","lab":1},"geometry":{"type":"Point","coordinates":[2.38822,48.84619]}},{"type":"Feature","properties":{"id":"ih-market-49","kind":"poi","name":"Monoprix","theme":"market","lab":1},"geometry":{"type":"Point","coordinates":[2.32855,48.87445]}},{"type":"Feature","properties":{"id":"ih-market-50","kind":"poi","name":"G20","theme":"market","lab":1},"geometry":{"type":"Point","coordinates":[2.31776,48.84712]}},{"type":"Feature","properties":{"id":"ih-market-51","kind":"poi","name":"G20","theme":"market","lab":1},"geometry":{"type":"Point","coordinates":[2.31959,48.88939]}},{"type":"Feature","properties":{"id":"ih-market-52","kind":"poi","name":"Super U","theme":"market","lab":1},"geometry":{"type":"Point","coordinates":[2.32206,48.88933]}},{"type":"Feature","properties":{"id":"ih-market-53","kind":"poi","name":"Monoprix","theme":"market","lab":1},"geometry":{"type":"Point","coordinates":[2.27132,48.8817]}},{"type":"Feature","properties":{"id":"ih-market-54","kind":"poi","name":"Auchan Supermarché","theme":"market","lab":1},"geometry":{"type":"Point","coordinates":[2.29785,48.80882]}},{"type":"Feature","properties":{"id":"ih-market-55","kind":"poi","name":"Monoprix","theme":"market","lab":1},"geometry":{"type":"Point","coordinates":[2.36465,48.83332]}},{"type":"Feature","properties":{"id":"ih-market-56","kind":"poi","name":"Intermarché","theme":"market","lab":1},"geometry":{"type":"Point","coordinates":[2.30333,48.82102]}},{"type":"Feature","properties":{"id":"ih-market-57","kind":"poi","name":"Biocoop Canal Bio","theme":"market","lab":1},"geometry":{"type":"Point","coordinates":[2.37556,48.88555]}},{"type":"Feature","properties":{"id":"ih-market-58","kind":"poi","name":"Lidl","theme":"market","lab":1},"geometry":{"type":"Point","coordinates":[2.33142,48.90389]}},{"type":"Feature","properties":{"id":"ih-market-59","kind":"poi","name":"Carrefour Market","theme":"market","lab":1},"geometry":{"type":"Point","coordinates":[2.33709,48.85348]}},{"type":"Feature","properties":{"id":"ih-market-60","kind":"poi","name":"Paris Store","theme":"market","lab":1},"geometry":{"type":"Point","coordinates":[2.37631,48.8723]}},{"type":"Feature","properties":{"id":"ih-market-61","kind":"poi","name":"Monoprix","theme":"market","lab":1},"geometry":{"type":"Point","coordinates":[2.40028,48.88495]}},{"type":"Feature","properties":{"id":"ih-market-62","kind":"poi","name":"My Auchan","theme":"market","lab":1},"geometry":{"type":"Point","coordinates":[2.33183,48.86631]}},{"type":"Feature","properties":{"id":"ih-market-63","kind":"poi","name":"Auchan Supermarché","theme":"market","lab":1},"geometry":{"type":"Point","coordinates":[2.38575,48.87833]}},{"type":"Feature","properties":{"id":"ih-market-64","kind":"poi","name":"Le Retour à la Terre Rive Gauche","theme":"market","lab":1},"geometry":{"type":"Point","coordinates":[2.34197,48.84675]}},{"type":"Feature","properties":{"id":"ih-market-65","kind":"poi","name":"Naturalia","theme":"market","lab":1},"geometry":{"type":"Point","coordinates":[2.38654,48.80901]}},{"type":"Feature","properties":{"id":"ih-market-66","kind":"poi","name":"Lidl","theme":"market","lab":1},"geometry":{"type":"Point","coordinates":[2.38489,48.86211]}},{"type":"Feature","properties":{"id":"ih-market-67","kind":"poi","name":"Hypercacher","theme":"market","lab":1},"geometry":{"type":"Point","coordinates":[2.37249,48.87993]}},{"type":"Feature","properties":{"id":"ih-market-68","kind":"poi","name":"Naturalia","theme":"market","lab":1},"geometry":{"type":"Point","coordinates":[2.40027,48.86218]}},{"type":"Feature","properties":{"id":"ih-market-69","kind":"poi","name":"Naturalia","theme":"market","lab":1},"geometry":{"type":"Point","coordinates":[2.33816,48.84294]}},{"type":"Feature","properties":{"id":"ih-muze-0","kind":"poi","name":"Musée Edith Piaf","theme":"muze","lab":1},"geometry":{"type":"Point","coordinates":[2.38174,48.86624]}},{"type":"Feature","properties":{"id":"ih-muze-1","kind":"poi","name":"Maison de Victor Hugo","theme":"muze","lab":1},"geometry":{"type":"Point","coordinates":[2.36614,48.8548]}},{"type":"Feature","properties":{"id":"ih-muze-2","kind":"poi","name":"Musée Carnavalet","theme":"muze","lab":1},"geometry":{"type":"Point","coordinates":[2.36271,48.85768]}},{"type":"Feature","properties":{"id":"ih-muze-3","kind":"poi","name":"Conciergerie","theme":"muze","lab":1},"geometry":{"type":"Point","coordinates":[2.34603,48.85595]}},{"type":"Feature","properties":{"id":"ih-muze-4","kind":"poi","name":"Maison de Balzac","theme":"muze","lab":1},"geometry":{"type":"Point","coordinates":[2.28088,48.85521]}},{"type":"Feature","properties":{"id":"ih-muze-5","kind":"poi","name":"Musée Bourdelle","theme":"muze","lab":1},"geometry":{"type":"Point","coordinates":[2.31845,48.84332]}},{"type":"Feature","properties":{"id":"ih-muze-6","kind":"poi","name":"Musée d'Art Moderne de Paris","theme":"muze","lab":1},"geometry":{"type":"Point","coordinates":[2.29779,48.86431]}},{"type":"Feature","properties":{"id":"ih-muze-7","kind":"poi","name":"Musée de la Contrefaçon","theme":"muze","lab":1},"geometry":{"type":"Point","coordinates":[2.27652,48.87032]}},{"type":"Feature","properties":{"id":"ih-muze-8","kind":"poi","name":"Collection des minéraux","theme":"muze","lab":1},"geometry":{"type":"Point","coordinates":[2.35484,48.84754]}},{"type":"Feature","properties":{"id":"ih-muze-9","kind":"poi","name":"Musée d'Histoire de la Médecine","theme":"muze","lab":1},"geometry":{"type":"Point","coordinates":[2.3409,48.85132]}},{"type":"Feature","properties":{"id":"ih-muze-10","kind":"poi","name":"Bourse de Commerce","theme":"muze","lab":1},"geometry":{"type":"Point","coordinates":[2.34282,48.86282]}},{"type":"Feature","properties":{"id":"ih-muze-11","kind":"poi","name":"Cité de l'Économie","theme":"muze","lab":1},"geometry":{"type":"Point","coordinates":[2.3107,48.88189]}},{"type":"Feature","properties":{"id":"ih-muze-12","kind":"poi","name":"Grand Palais immersif","theme":"muze","lab":1},"geometry":{"type":"Point","coordinates":[2.37044,48.85121]}},{"type":"Feature","properties":{"id":"ih-muze-13","kind":"poi","name":"Musée des égouts","theme":"muze","lab":1},"geometry":{"type":"Point","coordinates":[2.30258,48.86263]}},{"type":"Feature","properties":{"id":"ih-muze-14","kind":"poi","name":"Musée français de la radiologie et de l'imagerie médicale","theme":"muze","lab":1},"geometry":{"type":"Point","coordinates":[2.34813,48.8243]}},{"type":"Feature","properties":{"id":"ih-muze-15","kind":"poi","name":"Appartement-atelier de Le Corbusier","theme":"muze","lab":1},"geometry":{"type":"Point","coordinates":[2.25128,48.84339]}},{"type":"Feature","properties":{"id":"ih-muze-16","kind":"poi","name":"Galerie de Minéralogie et de Géologie","theme":"muze","lab":1},"geometry":{"type":"Point","coordinates":[2.35773,48.8418]}},{"type":"Feature","properties":{"id":"ih-muze-17","kind":"poi","name":"Galerie de Botanique","theme":"muze","lab":1},"geometry":{"type":"Point","coordinates":[2.36016,48.84244]}},{"type":"Feature","properties":{"id":"ih-muze-18","kind":"poi","name":"Musée d'Histoire Urbaine et Sociale","theme":"muze","lab":1},"geometry":{"type":"Point","coordinates":[2.22162,48.86815]}},{"type":"Feature","properties":{"id":"ih-muze-19","kind":"poi","name":"Pavillon de Vendôme","theme":"muze","lab":1},"geometry":{"type":"Point","coordinates":[2.30384,48.90479]}},{"type":"Feature","properties":{"id":"ih-muze-20","kind":"poi","name":"Musée de la Libération de Paris","theme":"muze","lab":1},"geometry":{"type":"Point","coordinates":[2.33171,48.83409]}},{"type":"Feature","properties":{"id":"ih-muze-21","kind":"poi","name":"Musée Roybet Fould","theme":"muze","lab":1},"geometry":{"type":"Point","coordinates":[2.27182,48.90043]}},{"type":"Feature","properties":{"id":"ih-muze-22","kind":"poi","name":"Musée de la Vie Romantique","theme":"muze","lab":1},"geometry":{"type":"Point","coordinates":[2.33352,48.88134]}},{"type":"Feature","properties":{"id":"ih-muze-23","kind":"poi","name":"Musée des Avelines","theme":"muze","lab":1},"geometry":{"type":"Point","coordinates":[2.20827,48.84343]}},{"type":"Feature","properties":{"id":"ih-muze-24","kind":"poi","name":"Musée de l'Armée","theme":"muze","lab":1},"geometry":{"type":"Point","coordinates":[2.31188,48.85704]}},{"type":"Feature","properties":{"id":"ih-muze-25","kind":"poi","name":"Musée de l'Assistance Publique Hôpitaux de Paris","theme":"muze","lab":1},"geometry":{"type":"Point","coordinates":[2.35244,48.80917]}},{"type":"Feature","properties":{"id":"ih-muze-26","kind":"poi","name":"Musée des Arts Décoratifs","theme":"muze","lab":1},"geometry":{"type":"Point","coordinates":[2.33295,48.86317]}},{"type":"Feature","properties":{"id":"ih-muze-27","kind":"poi","name":"Musée des Arts et Métiers","theme":"muze","lab":1},"geometry":{"type":"Point","coordinates":[2.35541,48.8661]}},{"type":"Feature","properties":{"id":"ih-muze-28","kind":"poi","name":"Musée national Gustave Moreau","theme":"muze","lab":1},"geometry":{"type":"Point","coordinates":[2.33455,48.8779]}},{"type":"Feature","properties":{"id":"ih-muze-29","kind":"poi","name":"Musée Grévin","theme":"muze","lab":1},"geometry":{"type":"Point","coordinates":[2.3421,48.87184]}},{"type":"Feature","properties":{"id":"ih-muze-30","kind":"poi","name":"Espace Dali","theme":"muze","lab":1},"geometry":{"type":"Point","coordinates":[2.3399,48.88648]}},{"type":"Feature","properties":{"id":"ih-muze-31","kind":"poi","name":"Cité des Sciences et de l'Industrie","theme":"muze","lab":1},"geometry":{"type":"Point","coordinates":[2.38798,48.89575]}},{"type":"Feature","properties":{"id":"ih-muze-32","kind":"poi","name":"Musée de la Carte à Jouer et Galerie d'Histoire de la Ville","theme":"muze","lab":1},"geometry":{"type":"Point","coordinates":[2.27345,48.82269]}},{"type":"Feature","properties":{"id":"ih-muze-33","kind":"poi","name":"Argonaute","theme":"muze","lab":1},"geometry":{"type":"Point","coordinates":[2.38956,48.89453]}},{"type":"Feature","properties":{"id":"ih-muze-34","kind":"poi","name":"Catacombes de Paris","theme":"muze","lab":1},"geometry":{"type":"Point","coordinates":[2.33229,48.83374]}},{"type":"Feature","properties":{"id":"ih-muze-35","kind":"poi","name":"Musée des Années 30","theme":"muze","lab":1},"geometry":{"type":"Point","coordinates":[2.23978,48.83626]}},{"type":"Feature","properties":{"id":"ih-muze-36","kind":"poi","name":"Musée du Service de Santé des Armées","theme":"muze","lab":1},"geometry":{"type":"Point","coordinates":[2.34143,48.84037]}},{"type":"Feature","properties":{"id":"ih-muze-37","kind":"poi","name":"Musée du chocolat","theme":"muze","lab":1},"geometry":{"type":"Point","coordinates":[2.3501,48.87058]}},{"type":"Feature","properties":{"id":"ih-muze-38","kind":"poi","name":"Cité de l'architecture et du patrimoine","theme":"muze","lab":1},"geometry":{"type":"Point","coordinates":[2.28898,48.86289]}},{"type":"Feature","properties":{"id":"ih-muze-39","kind":"poi","name":"Espace des Sciences Pierre-Gilles de Gennes","theme":"muze","lab":1},"geometry":{"type":"Point","coordinates":[2.34731,48.84116]}},{"type":"Feature","properties":{"id":"ih-muze-40","kind":"poi","name":"Fondation Le Corbusier","theme":"muze","lab":1},"geometry":{"type":"Point","coordinates":[2.26524,48.8519]}},{"type":"Feature","properties":{"id":"ih-muze-41","kind":"poi","name":"Pavillons de Bercy","theme":"muze","lab":1},"geometry":{"type":"Point","coordinates":[2.38934,48.83277]}},{"type":"Feature","properties":{"id":"ih-muze-42","kind":"poi","name":"Musée Clemenceau","theme":"muze","lab":1},"geometry":{"type":"Point","coordinates":[2.28514,48.85919]}},{"type":"Feature","properties":{"id":"ih-muze-43","kind":"poi","name":"Musée-Librairie du Compagnonnage","theme":"muze","lab":1},"geometry":{"type":"Point","coordinates":[2.33501,48.85223]}},{"type":"Feature","properties":{"id":"ih-muze-44","kind":"poi","name":"Musée Valentin Haüy","theme":"muze","lab":1},"geometry":{"type":"Point","coordinates":[2.31404,48.84767]}},{"type":"Feature","properties":{"id":"ih-muze-45","kind":"poi","name":"Musée Maillol","theme":"muze","lab":1},"geometry":{"type":"Point","coordinates":[2.3249,48.85477]}},{"type":"Feature","properties":{"id":"ih-muze-46","kind":"poi","name":"Musée de Minéralogie","theme":"muze","lab":1},"geometry":{"type":"Point","coordinates":[2.33946,48.84539]}},{"type":"Feature","properties":{"id":"ih-muze-47","kind":"poi","name":"Bibliothèque-Musée de l'Opéra","theme":"muze","lab":1},"geometry":{"type":"Point","coordinates":[2.33121,48.87188]}},{"type":"Feature","properties":{"id":"ih-muze-48","kind":"poi","name":"Musée de la Préfecture de police","theme":"muze","lab":1},"geometry":{"type":"Point","coordinates":[2.34835,48.84943]}},{"type":"Feature","properties":{"id":"ih-muze-49","kind":"poi","name":"Service historique de la Défense","theme":"muze","lab":1},"geometry":{"type":"Point","coordinates":[2.43475,48.84162]}},{"type":"Feature","properties":{"id":"ih-muze-50","kind":"poi","name":"Art Ludique - Le Musée","theme":"muze","lab":1},"geometry":{"type":"Point","coordinates":[2.37033,48.84052]}},{"type":"Feature","properties":{"id":"ih-muze-51","kind":"poi","name":"Musée Fragonard","theme":"muze","lab":1},"geometry":{"type":"Point","coordinates":[2.42337,48.81279]}},{"type":"Feature","properties":{"id":"ih-muze-52","kind":"poi","name":"Musée des Archives nationales","theme":"muze","lab":1},"geometry":{"type":"Point","coordinates":[2.35781,48.86045]}},{"type":"Feature","properties":{"id":"ih-muze-53","kind":"poi","name":"Musée National de l'Histoire de l'Immigration","theme":"muze","lab":1},"geometry":{"type":"Point","coordinates":[2.40936,48.83514]}},{"type":"Feature","properties":{"id":"ih-muze-54","kind":"poi","name":"Musée Rodin","theme":"muze","lab":1},"geometry":{"type":"Point","coordinates":[2.25178,48.8147]}},{"type":"Feature","properties":{"id":"ih-muze-55","kind":"poi","name":"Le Musée du Fumeur","theme":"muze","lab":1},"geometry":{"type":"Point","coordinates":[2.38222,48.85865]}},{"type":"Feature","properties":{"id":"ih-muze-56","kind":"poi","name":"Mundolingua","theme":"muze","lab":1},"geometry":{"type":"Point","coordinates":[2.33465,48.85019]}},{"type":"Feature","properties":{"id":"ih-muze-57","kind":"poi","name":"Atelier Brancusi","theme":"muze","lab":1},"geometry":{"type":"Point","coordinates":[2.35199,48.8614]}},{"type":"Feature","properties":{"id":"ih-muze-58","kind":"poi","name":"Mémorial de la Shoah","theme":"muze","lab":1},"geometry":{"type":"Point","coordinates":[2.35606,48.85489]}},{"type":"Feature","properties":{"id":"ih-muze-59","kind":"poi","name":"Maison Gainsbourg","theme":"muze","lab":1},"geometry":{"type":"Point","coordinates":[2.33114,48.85745]}},{"type":"Feature","properties":{"id":"ih-yakit-0","kind":"poi","name":"TotalEnergies","theme":"yakit","lab":1},"geometry":{"type":"Point","coordinates":[2.35728,48.91337]}},{"type":"Feature","properties":{"id":"ih-yakit-1","kind":"poi","name":"Station Auchan","theme":"yakit","lab":1},"geometry":{"type":"Point","coordinates":[2.21425,48.78253]}},{"type":"Feature","properties":{"id":"ih-yakit-2","kind":"poi","name":"Relais Saint-Cloud Dassault","theme":"yakit","lab":1},"geometry":{"type":"Point","coordinates":[2.22249,48.85498]}},{"type":"Feature","properties":{"id":"ih-yakit-3","kind":"poi","name":"Total","theme":"yakit","lab":1},"geometry":{"type":"Point","coordinates":[2.37625,48.80607]}},{"type":"Feature","properties":{"id":"ih-yakit-4","kind":"poi","name":"Total","theme":"yakit","lab":1},"geometry":{"type":"Point","coordinates":[2.24933,48.78479]}},{"type":"Feature","properties":{"id":"ih-yakit-5","kind":"poi","name":"Relais Total Du Pont Aval","theme":"yakit","lab":1},"geometry":{"type":"Point","coordinates":[2.26615,48.83468]}},{"type":"Feature","properties":{"id":"ih-yakit-6","kind":"poi","name":"Avia","theme":"yakit","lab":1},"geometry":{"type":"Point","coordinates":[2.40776,48.82566]}},{"type":"Feature","properties":{"id":"ih-yakit-7","kind":"poi","name":"SARL Jaby Avia","theme":"yakit","lab":1},"geometry":{"type":"Point","coordinates":[2.32616,48.81448]}},{"type":"Feature","properties":{"id":"ih-yakit-8","kind":"poi","name":"Relais des Chaufourniers","theme":"yakit","lab":1},"geometry":{"type":"Point","coordinates":[2.37074,48.88018]}},{"type":"Feature","properties":{"id":"ih-yakit-9","kind":"poi","name":"Total","theme":"yakit","lab":1},"geometry":{"type":"Point","coordinates":[2.31582,48.83158]}},{"type":"Feature","properties":{"id":"ih-yakit-10","kind":"poi","name":"Total","theme":"yakit","lab":1},"geometry":{"type":"Point","coordinates":[2.27037,48.88419]}},{"type":"Feature","properties":{"id":"ih-yakit-11","kind":"poi","name":"Esso","theme":"yakit","lab":1},"geometry":{"type":"Point","coordinates":[2.29254,48.8392]}},{"type":"Feature","properties":{"id":"ih-yakit-12","kind":"poi","name":"Total","theme":"yakit","lab":1},"geometry":{"type":"Point","coordinates":[2.31466,48.85933]}},{"type":"Feature","properties":{"id":"ih-yakit-13","kind":"poi","name":"BP","theme":"yakit","lab":1},"geometry":{"type":"Point","coordinates":[2.28283,48.86097]}},{"type":"Feature","properties":{"id":"ih-yakit-14","kind":"poi","name":"Esso","theme":"yakit","lab":1},"geometry":{"type":"Point","coordinates":[2.24754,48.88266]}},{"type":"Feature","properties":{"id":"ih-yakit-15","kind":"poi","name":"Esso","theme":"yakit","lab":1},"geometry":{"type":"Point","coordinates":[2.44832,48.86881]}},{"type":"Feature","properties":{"id":"ih-yakit-16","kind":"poi","name":"Total Access Pont de Clichy","theme":"yakit","lab":1},"geometry":{"type":"Point","coordinates":[2.30045,48.90682]}},{"type":"Feature","properties":{"id":"ih-yakit-17","kind":"poi","name":"Oil France","theme":"yakit","lab":1},"geometry":{"type":"Point","coordinates":[2.34137,48.8611]}},{"type":"Feature","properties":{"id":"ih-yakit-18","kind":"poi","name":"Shell","theme":"yakit","lab":1},"geometry":{"type":"Point","coordinates":[2.3032,48.84759]}},{"type":"Feature","properties":{"id":"ih-yakit-19","kind":"poi","name":"Avia","theme":"yakit","lab":1},"geometry":{"type":"Point","coordinates":[2.2801,48.84647]}},{"type":"Feature","properties":{"id":"ih-yakit-20","kind":"poi","name":"TotalEnergies","theme":"yakit","lab":1},"geometry":{"type":"Point","coordinates":[2.37345,48.90033]}},{"type":"Feature","properties":{"id":"ih-yakit-21","kind":"poi","name":"Total","theme":"yakit","lab":1},"geometry":{"type":"Point","coordinates":[2.4445,48.7801]}},{"type":"Feature","properties":{"id":"ih-yakit-22","kind":"poi","name":"TotalEnergies Access","theme":"yakit","lab":1},"geometry":{"type":"Point","coordinates":[2.36973,48.79239]}},{"type":"Feature","properties":{"id":"ih-yakit-23","kind":"poi","name":"Esso","theme":"yakit","lab":1},"geometry":{"type":"Point","coordinates":[2.33968,48.80112]}},{"type":"Feature","properties":{"id":"ih-yakit-24","kind":"poi","name":"Carrefour","theme":"yakit","lab":1},"geometry":{"type":"Point","coordinates":[2.4579,48.78202]}},{"type":"Feature","properties":{"id":"ih-yakit-25","kind":"poi","name":"Station Quai Joffre","theme":"yakit","lab":1},"geometry":{"type":"Point","coordinates":[2.27849,48.90162]}},{"type":"Feature","properties":{"id":"ih-yakit-26","kind":"poi","name":"Total Access","theme":"yakit","lab":1},"geometry":{"type":"Point","coordinates":[2.20622,48.88049]}},{"type":"Feature","properties":{"id":"ih-yakit-27","kind":"poi","name":"Esso","theme":"yakit","lab":1},"geometry":{"type":"Point","coordinates":[2.28031,48.88162]}},{"type":"Feature","properties":{"id":"ih-yakit-28","kind":"poi","name":"Total","theme":"yakit","lab":1},"geometry":{"type":"Point","coordinates":[2.40791,48.86368]}},{"type":"Feature","properties":{"id":"ih-yakit-29","kind":"poi","name":"Relais des Fontaines","theme":"yakit","lab":1},"geometry":{"type":"Point","coordinates":[2.43023,48.88446]}},{"type":"Feature","properties":{"id":"ih-yakit-30","kind":"poi","name":"BP","theme":"yakit","lab":1},"geometry":{"type":"Point","coordinates":[2.45957,48.88833]}},{"type":"Feature","properties":{"id":"ih-yakit-31","kind":"poi","name":"Total","theme":"yakit","lab":1},"geometry":{"type":"Point","coordinates":[2.29523,48.82292]}},{"type":"Feature","properties":{"id":"ih-yakit-32","kind":"poi","name":"BP","theme":"yakit","lab":1},"geometry":{"type":"Point","coordinates":[2.36456,48.83239]}},{"type":"Feature","properties":{"id":"ih-yakit-33","kind":"poi","name":"ESSO","theme":"yakit","lab":1},"geometry":{"type":"Point","coordinates":[2.29385,48.89913]}},{"type":"Feature","properties":{"id":"ih-yakit-34","kind":"poi","name":"TotalEnergies","theme":"yakit","lab":1},"geometry":{"type":"Point","coordinates":[2.3872,48.82637]}},{"type":"Feature","properties":{"id":"ih-yakit-35","kind":"poi","name":"BP","theme":"yakit","lab":1},"geometry":{"type":"Point","coordinates":[2.21996,48.88586]}},{"type":"Feature","properties":{"id":"ih-yakit-36","kind":"poi","name":"BP","theme":"yakit","lab":1},"geometry":{"type":"Point","coordinates":[2.22237,48.88217]}},{"type":"Feature","properties":{"id":"ih-yakit-37","kind":"poi","name":"TotalEnergies relais du Panorama","theme":"yakit","lab":1},"geometry":{"type":"Point","coordinates":[2.31669,48.78568]}},{"type":"Feature","properties":{"id":"ih-yakit-38","kind":"poi","name":"Shell","theme":"yakit","lab":1},"geometry":{"type":"Point","coordinates":[2.27223,48.86359]}},{"type":"Feature","properties":{"id":"ih-yakit-39","kind":"poi","name":"8 à Huit","theme":"yakit","lab":1},"geometry":{"type":"Point","coordinates":[2.31727,48.84084]}},{"type":"Feature","properties":{"id":"ih-yakit-40","kind":"poi","name":"Total Porte Saint-Cloud","theme":"yakit","lab":1},"geometry":{"type":"Point","coordinates":[2.25354,48.83875]}},{"type":"Feature","properties":{"id":"ih-yakit-41","kind":"poi","name":"Total","theme":"yakit","lab":1},"geometry":{"type":"Point","coordinates":[2.2311,48.83973]}},{"type":"Feature","properties":{"id":"ih-yakit-42","kind":"poi","name":"ESSO Express","theme":"yakit","lab":1},"geometry":{"type":"Point","coordinates":[2.27284,48.82811]}},{"type":"Feature","properties":{"id":"ih-yakit-43","kind":"poi","name":"Relais Total Porte D'Italie","theme":"yakit","lab":1},"geometry":{"type":"Point","coordinates":[2.36048,48.81684]}},{"type":"Feature","properties":{"id":"ih-yakit-44","kind":"poi","name":"Esso","theme":"yakit","lab":1},"geometry":{"type":"Point","coordinates":[2.46478,48.78994]}},{"type":"Feature","properties":{"id":"ih-hastane-0","kind":"poi","name":"Hôpital Corentin Celton","theme":"hastane","lab":1},"geometry":{"type":"Point","coordinates":[2.27863,48.8282]}},{"type":"Feature","properties":{"id":"ih-hastane-1","kind":"poi","name":"Hôpital Robert Debré","theme":"hastane","lab":1},"geometry":{"type":"Point","coordinates":[2.40294,48.87993]}},{"type":"Feature","properties":{"id":"ih-hastane-2","kind":"poi","name":"Hôpital Rothschild","theme":"hastane","lab":1},"geometry":{"type":"Point","coordinates":[2.39932,48.8434]}},{"type":"Feature","properties":{"id":"ih-hastane-3","kind":"poi","name":"Hôtel-Dieu","theme":"hastane","lab":1},"geometry":{"type":"Point","coordinates":[2.34885,48.85463]}},{"type":"Feature","properties":{"id":"ih-hastane-4","kind":"poi","name":"Hopital Beaujon","theme":"hastane","lab":1},"geometry":{"type":"Point","coordinates":[2.31032,48.90819]}},{"type":"Feature","properties":{"id":"ih-hastane-5","kind":"poi","name":"Hôpital Tenon","theme":"hastane","lab":1},"geometry":{"type":"Point","coordinates":[2.402,48.86636]}},{"type":"Feature","properties":{"id":"ih-hastane-6","kind":"poi","name":"GHU Paris Psychiatrie & neurosciences - site Sainte-Anne","theme":"hastane","lab":1},"geometry":{"type":"Point","coordinates":[2.33908,48.82848]}},{"type":"Feature","properties":{"id":"ih-hastane-7","kind":"poi","name":"Fondation ophtalmologique Adolphe de Rothschild","theme":"hastane","lab":1},"geometry":{"type":"Point","coordinates":[2.37763,48.87825]}},{"type":"Feature","properties":{"id":"ih-hastane-8","kind":"poi","name":"Hôpital Broca","theme":"hastane","lab":1},"geometry":{"type":"Point","coordinates":[2.34699,48.83434]}},{"type":"Feature","properties":{"id":"ih-hastane-9","kind":"poi","name":"Hôpital Cochin","theme":"hastane","lab":1},"geometry":{"type":"Point","coordinates":[2.33993,48.83702]}},{"type":"Feature","properties":{"id":"ih-hastane-10","kind":"poi","name":"Hôpital Saint-Joseph","theme":"hastane","lab":1},"geometry":{"type":"Point","coordinates":[2.31173,48.82942]}},{"type":"Feature","properties":{"id":"ih-hastane-11","kind":"poi","name":"Hôpital européen Georges-Pompidou","theme":"hastane","lab":1},"geometry":{"type":"Point","coordinates":[2.27399,48.83877]}},{"type":"Feature","properties":{"id":"ih-hastane-12","kind":"poi","name":"Hôpital Armand-Trousseau","theme":"hastane","lab":1},"geometry":{"type":"Point","coordinates":[2.40669,48.8419]}},{"type":"Feature","properties":{"id":"ih-hastane-13","kind":"poi","name":"Hôpital Lariboisière","theme":"hastane","lab":1},"geometry":{"type":"Point","coordinates":[2.35331,48.8829]}},{"type":"Feature","properties":{"id":"ih-hastane-14","kind":"poi","name":"Hôpital Vaugirard - Gabriel Pallez","theme":"hastane","lab":1},"geometry":{"type":"Point","coordinates":[2.29408,48.83444]}},{"type":"Feature","properties":{"id":"ih-hastane-15","kind":"poi","name":"Hôpital Saint-Louis","theme":"hastane","lab":1},"geometry":{"type":"Point","coordinates":[2.36762,48.87383]}},{"type":"Feature","properties":{"id":"ih-hastane-16","kind":"poi","name":"Hôpital Paul Brousse","theme":"hastane","lab":1},"geometry":{"type":"Point","coordinates":[2.36166,48.79695]}},{"type":"Feature","properties":{"id":"ih-hastane-17","kind":"poi","name":"Hôpital Bicêtre","theme":"hastane","lab":1},"geometry":{"type":"Point","coordinates":[2.35383,48.81026]}},{"type":"Feature","properties":{"id":"ih-hastane-18","kind":"poi","name":"Hôpital Albert Chenevier","theme":"hastane","lab":1},"geometry":{"type":"Point","coordinates":[2.45862,48.78862]}},{"type":"Feature","properties":{"id":"ih-hastane-19","kind":"poi","name":"Hôpital Avicenne","theme":"hastane","lab":1},"geometry":{"type":"Point","coordinates":[2.42379,48.91459]}},{"type":"Feature","properties":{"id":"ih-hastane-20","kind":"poi","name":"Hôpital Bichat-Claude Bernard","theme":"hastane","lab":1},"geometry":{"type":"Point","coordinates":[2.33176,48.89901]}},{"type":"Feature","properties":{"id":"ih-hastane-21","kind":"poi","name":"Hôpital Ambroise Paré","theme":"hastane","lab":1},"geometry":{"type":"Point","coordinates":[2.23547,48.8488]}},{"type":"Feature","properties":{"id":"ih-hastane-22","kind":"poi","name":"Hôpital Henri Dunant","theme":"hastane","lab":1},"geometry":{"type":"Point","coordinates":[2.25865,48.84021]}},{"type":"Feature","properties":{"id":"ih-hastane-23","kind":"poi","name":"Hôpital Sainte-Périne","theme":"hastane","lab":1},"geometry":{"type":"Point","coordinates":[2.26869,48.84536]}},{"type":"Feature","properties":{"id":"ih-hastane-24","kind":"poi","name":"Hôpital Croix Saint-Simon","theme":"hastane","lab":1},"geometry":{"type":"Point","coordinates":[2.40844,48.85392]}},{"type":"Feature","properties":{"id":"ih-hastane-25","kind":"poi","name":"Hôpital Necker Enfants Malades","theme":"hastane","lab":1},"geometry":{"type":"Point","coordinates":[2.31555,48.84522]}},{"type":"Feature","properties":{"id":"ih-hastane-26","kind":"poi","name":"Hôpital Saint-Antoine","theme":"hastane","lab":1},"geometry":{"type":"Point","coordinates":[2.38246,48.84853]}},{"type":"Feature","properties":{"id":"ih-hastane-27","kind":"poi","name":"Hôpital Antoine Béclère","theme":"hastane","lab":1},"geometry":{"type":"Point","coordinates":[2.25595,48.78845]}},{"type":"Feature","properties":{"id":"ih-hastane-28","kind":"poi","name":"Hôpital Pitié-Salpêtrière","theme":"hastane","lab":1},"geometry":{"type":"Point","coordinates":[2.36528,48.83753]}},{"type":"Feature","properties":{"id":"ih-hastane-29","kind":"poi","name":"Hôpital Henri Mondor","theme":"hastane","lab":1},"geometry":{"type":"Point","coordinates":[2.45299,48.79639]}},{"type":"Feature","properties":{"id":"ih-hastane-30","kind":"poi","name":"Hôpital Charles Foix","theme":"hastane","lab":1},"geometry":{"type":"Point","coordinates":[2.39539,48.80558]}},{"type":"Feature","properties":{"id":"ih-hastane-31","kind":"poi","name":"Institut Curie","theme":"hastane","lab":1},"geometry":{"type":"Point","coordinates":[2.34352,48.84264]}},{"type":"Feature","properties":{"id":"ih-hastane-32","kind":"poi","name":"Hôpital Marmottan","theme":"hastane","lab":1},"geometry":{"type":"Point","coordinates":[2.29127,48.87815]}},{"type":"Feature","properties":{"id":"ih-hastane-33","kind":"poi","name":"Centre hospitalier intercommunal André Grégoire","theme":"hastane","lab":1},"geometry":{"type":"Point","coordinates":[2.4532,48.87761]}},{"type":"Feature","properties":{"id":"ih-hastane-34","kind":"poi","name":"Hôpital d'Instruction des Armées Percy","theme":"hastane","lab":1},"geometry":{"type":"Point","coordinates":[2.25569,48.81428]}},{"type":"Feature","properties":{"id":"ih-hastane-35","kind":"poi","name":"Hôpital Foch","theme":"hastane","lab":1},"geometry":{"type":"Point","coordinates":[2.2224,48.87081]}},{"type":"Feature","properties":{"id":"ih-hastane-36","kind":"poi","name":"Centre hospitalier national d'Ophtalmologie des Quinze-Vingts","theme":"hastane","lab":1},"geometry":{"type":"Point","coordinates":[2.37196,48.85032]}},{"type":"Feature","properties":{"id":"ih-hastane-37","kind":"poi","name":"Hôpital Privé des Peupliers","theme":"hastane","lab":1},"geometry":{"type":"Point","coordinates":[2.35204,48.82337]}},{"type":"Feature","properties":{"id":"ih-hastane-38","kind":"poi","name":"Centre hospitalier intercommunal de Créteil","theme":"hastane","lab":1},"geometry":{"type":"Point","coordinates":[2.46575,48.79673]}},{"type":"Feature","properties":{"id":"ih-hastane-39","kind":"poi","name":"Centre Hospitalier Paul Guiraud","theme":"hastane","lab":1},"geometry":{"type":"Point","coordinates":[2.3577,48.79023]}},{"type":"Feature","properties":{"id":"ih-hastane-40","kind":"poi","name":"Hôpital d'Instruction des Armées Bégin","theme":"hastane","lab":1},"geometry":{"type":"Point","coordinates":[2.42652,48.84395]}},{"type":"Feature","properties":{"id":"ih-hastane-41","kind":"poi","name":"Hôpital Max Fourestier","theme":"hastane","lab":1},"geometry":{"type":"Point","coordinates":[2.22245,48.91395]}},{"type":"Feature","properties":{"id":"ih-hastane-42","kind":"poi","name":"Hôpital Tarnier","theme":"hastane","lab":1},"geometry":{"type":"Point","coordinates":[2.33582,48.84154]}},{"type":"Feature","properties":{"id":"ih-hastane-43","kind":"poi","name":"Hôpitaux Paris Est Val-de-Marne - Site Saint-Maurice","theme":"hastane","lab":1},"geometry":{"type":"Point","coordinates":[2.42869,48.82077]}},{"type":"Feature","properties":{"id":"ih-hastane-44","kind":"poi","name":"Institut hospitalier franco-britannique - Site Barbès","theme":"hastane","lab":1},"geometry":{"type":"Point","coordinates":[2.28067,48.89027]}},{"type":"Feature","properties":{"id":"ih-kutuphane-0","kind":"poi","name":"Médiathèque Edmond Rostand","theme":"kutuphane","lab":1},"geometry":{"type":"Point","coordinates":[2.30345,48.88834]}},{"type":"Feature","properties":{"id":"ih-kutuphane-1","kind":"poi","name":"Bibliothèque Vaugirard","theme":"kutuphane","lab":1},"geometry":{"type":"Point","coordinates":[2.29934,48.84173]}},{"type":"Feature","properties":{"id":"ih-kutuphane-2","kind":"poi","name":"Bibliothèque Buffon","theme":"kutuphane","lab":1},"geometry":{"type":"Point","coordinates":[2.36184,48.84247]}},{"type":"Feature","properties":{"id":"ih-kutuphane-3","kind":"poi","name":"Bibliothèque André Malraux","theme":"kutuphane","lab":1},"geometry":{"type":"Point","coordinates":[2.32752,48.848]}},{"type":"Feature","properties":{"id":"ih-kutuphane-4","kind":"poi","name":"Médiathèque de la Canopée la fontaine","theme":"kutuphane","lab":1},"geometry":{"type":"Point","coordinates":[2.34682,48.86245]}},{"type":"Feature","properties":{"id":"ih-kutuphane-5","kind":"poi","name":"Bibliothèque Musset","theme":"kutuphane","lab":1},"geometry":{"type":"Point","coordinates":[2.2632,48.84216]}},{"type":"Feature","properties":{"id":"ih-kutuphane-6","kind":"poi","name":"Médiathèque Jean-Pierre Melville","theme":"kutuphane","lab":1},"geometry":{"type":"Point","coordinates":[2.3663,48.82669]}},{"type":"Feature","properties":{"id":"ih-kutuphane-7","kind":"poi","name":"Médiathèque James Baldwin","theme":"kutuphane","lab":1},"geometry":{"type":"Point","coordinates":[2.39669,48.87661]}},{"type":"Feature","properties":{"id":"ih-kutuphane-8","kind":"poi","name":"Bibliothèque Václav Havel","theme":"kutuphane","lab":1},"geometry":{"type":"Point","coordinates":[2.36321,48.88896]}},{"type":"Feature","properties":{"id":"ih-kutuphane-9","kind":"poi","name":"Bibliothèque Andrée Chedid","theme":"kutuphane","lab":1},"geometry":{"type":"Point","coordinates":[2.28637,48.85006]}},{"type":"Feature","properties":{"id":"ih-kutuphane-10","kind":"poi","name":"Bibliothèque Sainte-Barbe - Université Sorbonne-Nouvelle","theme":"kutuphane","lab":1},"geometry":{"type":"Point","coordinates":[2.34634,48.84772]}},{"type":"Feature","properties":{"id":"ih-kutuphane-11","kind":"poi","name":"Bibliothèque Charlotte Delbo","theme":"kutuphane","lab":1},"geometry":{"type":"Point","coordinates":[2.34041,48.86652]}},{"type":"Feature","properties":{"id":"ih-kutuphane-12","kind":"poi","name":"Bibliothèque du Saulchoir","theme":"kutuphane","lab":1},"geometry":{"type":"Point","coordinates":[2.34528,48.83281]}},{"type":"Feature","properties":{"id":"ih-kutuphane-13","kind":"poi","name":"Bibliothèque centrale du Muséum","theme":"kutuphane","lab":1},"geometry":{"type":"Point","coordinates":[2.35589,48.84262]}},{"type":"Feature","properties":{"id":"ih-kutuphane-14","kind":"poi","name":"BIU Santé Médecine","theme":"kutuphane","lab":1},"geometry":{"type":"Point","coordinates":[2.34119,48.85163]}},{"type":"Feature","properties":{"id":"ih-kutuphane-15","kind":"poi","name":"Faculté de Pharmacie de Paris","theme":"kutuphane","lab":1},"geometry":{"type":"Point","coordinates":[2.33502,48.84315]}},{"type":"Feature","properties":{"id":"ih-kutuphane-16","kind":"poi","name":"Bibliothèque universitaire pluridisciplinaire de Sorbonne Nouvelle","theme":"kutuphane","lab":1},"geometry":{"type":"Point","coordinates":[2.3965,48.84512]}},{"type":"Feature","properties":{"id":"ih-kutuphane-17","kind":"poi","name":"La Petite Bibliothèque ronde","theme":"kutuphane","lab":1},"geometry":{"type":"Point","coordinates":[2.24716,48.7861]}},{"type":"Feature","properties":{"id":"ih-kutuphane-18","kind":"poi","name":"Bibliothèque Forney","theme":"kutuphane","lab":1},"geometry":{"type":"Point","coordinates":[2.35894,48.85337]}},{"type":"Feature","properties":{"id":"ih-kutuphane-19","kind":"poi","name":"Bibliothèque Marmottan","theme":"kutuphane","lab":1},"geometry":{"type":"Point","coordinates":[2.24643,48.84325]}},{"type":"Feature","properties":{"id":"ih-kutuphane-20","kind":"poi","name":"Bibliothèque historique de la Ville de Paris","theme":"kutuphane","lab":1},"geometry":{"type":"Point","coordinates":[2.36198,48.85687]}},{"type":"Feature","properties":{"id":"ih-kutuphane-21","kind":"poi","name":"Bibliothèque Heure Joyeuse","theme":"kutuphane","lab":1},"geometry":{"type":"Point","coordinates":[2.34496,48.85201]}},{"type":"Feature","properties":{"id":"ih-kutuphane-22","kind":"poi","name":"Médiathèque Le Trapèze","theme":"kutuphane","lab":1},"geometry":{"type":"Point","coordinates":[2.23708,48.82768]}},{"type":"Feature","properties":{"id":"ih-kutuphane-23","kind":"poi","name":"Bibliothèque universitaire des langues et civilisations","theme":"kutuphane","lab":1},"geometry":{"type":"Point","coordinates":[2.37563,48.82709]}},{"type":"Feature","properties":{"id":"ih-kutuphane-24","kind":"poi","name":"Bibliothèque de l'Hôtel de Ville","theme":"kutuphane","lab":1},"geometry":{"type":"Point","coordinates":[2.3532,48.85672]}},{"type":"Feature","properties":{"id":"ih-kutuphane-25","kind":"poi","name":"Médiathèque Germaine Tillion","theme":"kutuphane","lab":1},"geometry":{"type":"Point","coordinates":[2.28455,48.86192]}},{"type":"Feature","properties":{"id":"ih-kutuphane-26","kind":"poi","name":"Bibliothèque Medem","theme":"kutuphane","lab":1},"geometry":{"type":"Point","coordinates":[2.35896,48.87071]}},{"type":"Feature","properties":{"id":"ih-kutuphane-27","kind":"poi","name":"Bibliothèque Mazarine","theme":"kutuphane","lab":1},"geometry":{"type":"Point","coordinates":[2.33736,48.85727]}},{"type":"Feature","properties":{"id":"ih-kutuphane-28","kind":"poi","name":"La Contemporaine","theme":"kutuphane","lab":1},"geometry":{"type":"Point","coordinates":[2.21158,48.90184]}},{"type":"Feature","properties":{"id":"ih-kutuphane-29","kind":"poi","name":"Bibliothèque du protestantisme français","theme":"kutuphane","lab":1},"geometry":{"type":"Point","coordinates":[2.32964,48.85396]}},{"type":"Feature","properties":{"id":"ih-kutuphane-30","kind":"poi","name":"Bibliothèque nationale de France - François Mitterrand","theme":"kutuphane","lab":1},"geometry":{"type":"Point","coordinates":[2.37584,48.83364]}},{"type":"Feature","properties":{"id":"ih-kutuphane-31","kind":"poi","name":"Bibliothèque de l'Arsenal","theme":"kutuphane","lab":1},"geometry":{"type":"Point","coordinates":[2.36363,48.85023]}},{"type":"Feature","properties":{"id":"ih-kutuphane-32","kind":"poi","name":"Médiathèque Françoise-Sagan","theme":"kutuphane","lab":1},"geometry":{"type":"Point","coordinates":[2.35376,48.87563]}},{"type":"Feature","properties":{"id":"ih-kutuphane-33","kind":"poi","name":"Bibliothèque Charcot","theme":"kutuphane","lab":1},"geometry":{"type":"Point","coordinates":[2.27234,48.90067]}},{"type":"Feature","properties":{"id":"ih-kutuphane-34","kind":"poi","name":"Bibliothèque Municipale","theme":"kutuphane","lab":1},"geometry":{"type":"Point","coordinates":[2.25604,48.89885]}},{"type":"Feature","properties":{"id":"ih-kiralik-arac-0","kind":"poi","name":"Europcar","theme":"kiralik-arac","lab":1},"geometry":{"type":"Point","coordinates":[2.24104,48.89122]}},{"type":"Feature","properties":{"id":"ih-kiralik-arac-1","kind":"poi","name":"ADM rent","theme":"kiralik-arac","lab":1},"geometry":{"type":"Point","coordinates":[2.32045,48.83739]}},{"type":"Feature","properties":{"id":"ih-kiralik-arac-2","kind":"poi","name":"Rent-A-Car","theme":"kiralik-arac","lab":1},"geometry":{"type":"Point","coordinates":[2.33269,48.87838]}},{"type":"Feature","properties":{"id":"ih-kiralik-arac-3","kind":"poi","name":"Hertz","theme":"kiralik-arac","lab":1},"geometry":{"type":"Point","coordinates":[2.32193,48.84068]}},{"type":"Feature","properties":{"id":"ih-kiralik-arac-4","kind":"poi","name":"SIXT","theme":"kiralik-arac","lab":1},"geometry":{"type":"Point","coordinates":[2.25221,48.83614]}},{"type":"Feature","properties":{"id":"ih-kiralik-arac-5","kind":"poi","name":"ADA","theme":"kiralik-arac","lab":1},"geometry":{"type":"Point","coordinates":[2.24883,48.83508]}},{"type":"Feature","properties":{"id":"ih-kiralik-arac-6","kind":"poi","name":"Avis","theme":"kiralik-arac","lab":1},"geometry":{"type":"Point","coordinates":[2.2716,48.88088]}},{"type":"Feature","properties":{"id":"ih-kiralik-arac-7","kind":"poi","name":"SIXT","theme":"kiralik-arac","lab":1},"geometry":{"type":"Point","coordinates":[2.2782,48.8795]}},{"type":"Feature","properties":{"id":"ih-kiralik-arac-8","kind":"poi","name":"SIXT","theme":"kiralik-arac","lab":1},"geometry":{"type":"Point","coordinates":[2.30942,48.84843]}},{"type":"Feature","properties":{"id":"ih-kiralik-arac-9","kind":"poi","name":"Hertz","theme":"kiralik-arac","lab":1},"geometry":{"type":"Point","coordinates":[2.2885,48.87799]}},{"type":"Feature","properties":{"id":"ih-kiralik-arac-10","kind":"poi","name":"Avis","theme":"kiralik-arac","lab":1},"geometry":{"type":"Point","coordinates":[2.40529,48.82635]}},{"type":"Feature","properties":{"id":"ih-kiralik-arac-11","kind":"poi","name":"Ucar","theme":"kiralik-arac","lab":1},"geometry":{"type":"Point","coordinates":[2.29711,48.91093]}},{"type":"Feature","properties":{"id":"ih-kiralik-arac-12","kind":"poi","name":"Enterprise","theme":"kiralik-arac","lab":1},"geometry":{"type":"Point","coordinates":[2.3411,48.91816]}},{"type":"Feature","properties":{"id":"ih-kiralik-arac-13","kind":"poi","name":"SIXT","theme":"kiralik-arac","lab":1},"geometry":{"type":"Point","coordinates":[2.32262,48.82366]}},{"type":"Feature","properties":{"id":"ih-kiralik-arac-14","kind":"poi","name":"Hertz","theme":"kiralik-arac","lab":1},"geometry":{"type":"Point","coordinates":[2.35692,48.83082]}},{"type":"Feature","properties":{"id":"ih-kiralik-arac-15","kind":"poi","name":"Sixt","theme":"kiralik-arac","lab":1},"geometry":{"type":"Point","coordinates":[2.43693,48.84798]}},{"type":"Feature","properties":{"id":"ih-kiralik-arac-16","kind":"poi","name":"ADA","theme":"kiralik-arac","lab":1},"geometry":{"type":"Point","coordinates":[2.41846,48.89406]}},{"type":"Feature","properties":{"id":"ih-kiralik-arac-17","kind":"poi","name":"Hertz","theme":"kiralik-arac","lab":1},"geometry":{"type":"Point","coordinates":[2.32508,48.8166]}},{"type":"Feature","properties":{"id":"ih-kiralik-arac-18","kind":"poi","name":"Sixt","theme":"kiralik-arac","lab":1},"geometry":{"type":"Point","coordinates":[2.35892,48.87535]}},{"type":"Feature","properties":{"id":"ih-kiralik-arac-19","kind":"poi","name":"Europcar","theme":"kiralik-arac","lab":1},"geometry":{"type":"Point","coordinates":[2.29191,48.87389]}},{"type":"Feature","properties":{"id":"ih-kiralik-arac-20","kind":"poi","name":"Rent a Car","theme":"kiralik-arac","lab":1},"geometry":{"type":"Point","coordinates":[2.28758,48.88336]}},{"type":"Feature","properties":{"id":"ih-kiralik-arac-21","kind":"poi","name":"Rent A Car","theme":"kiralik-arac","lab":1},"geometry":{"type":"Point","coordinates":[2.37362,48.88385]}},{"type":"Feature","properties":{"id":"ih-kiralik-arac-22","kind":"poi","name":"Hertz","theme":"kiralik-arac","lab":1},"geometry":{"type":"Point","coordinates":[2.38957,48.8839]}},{"type":"Feature","properties":{"id":"ih-kiralik-arac-23","kind":"poi","name":"ADA","theme":"kiralik-arac","lab":1},"geometry":{"type":"Point","coordinates":[2.21219,48.86349]}},{"type":"Feature","properties":{"id":"ih-kiralik-arac-24","kind":"poi","name":"Globe Location Autos & Camions","theme":"kiralik-arac","lab":1},"geometry":{"type":"Point","coordinates":[2.308,48.87054]}},{"type":"Feature","properties":{"id":"ih-kiralik-arac-25","kind":"poi","name":"ADA","theme":"kiralik-arac","lab":1},"geometry":{"type":"Point","coordinates":[2.39672,48.90827]}},{"type":"Feature","properties":{"id":"ih-kiralik-arac-26","kind":"poi","name":"ADA","theme":"kiralik-arac","lab":1},"geometry":{"type":"Point","coordinates":[2.29967,48.84829]}},{"type":"Feature","properties":{"id":"ih-kiralik-arac-27","kind":"poi","name":"Budget","theme":"kiralik-arac","lab":1},"geometry":{"type":"Point","coordinates":[2.42998,48.85706]}},{"type":"Feature","properties":{"id":"ih-kiralik-arac-28","kind":"poi","name":"Enterprise","theme":"kiralik-arac","lab":1},"geometry":{"type":"Point","coordinates":[2.35489,48.88255]}}]}