{"type":"FeatureCollection","features":[{"type":"Feature","properties":{"id":"ticari-0","kind":"district","btype":"ticari","name":"Changi Business Park","lab":1},"geometry":{"type":"Polygon","coordinates":[[[103.9613859,1.3335394],[103.9660734,1.331854],[103.9710887,1.3395981],[103.9712046,1.3402769],[103.969617,1.3420318],[103.9680533,1.344611],[103.9675103,1.34399],[103.9680359,1.3434922],[103.9680611,1.341811],[103.9658552,1.3405787],[103.9613859,1.3335394]]]}},{"type":"Feature","properties":{"id":"ticari-lab-0","kind":"district-label","btype":"ticari","name":"Changi Business Park"},"geometry":{"type":"Point","coordinates":[103.96622,1.33657]}},{"type":"Feature","properties":{"id":"ticari-1","kind":"district","btype":"ticari","name":"Resorts World Sentosa","lab":1},"geometry":{"type":"MultiPolygon","coordinates":[[[[103.8229823,1.2584082],[103.8231655,1.2588902],[103.8235124,1.2588871],[103.8233216,1.2574768],[103.8236278,1.2562219],[103.8259144,1.253366],[103.8258608,1.2529504],[103.8247356,1.2518027],[103.8234964,1.2526112],[103.8218643,1.2528445],[103.8207042,1.2536597],[103.8187534,1.2552041],[103.8181642,1.2567636],[103.8229823,1.2584082]]],[[[103.8213678,1.2582986],[103.8218284,1.2581631],[103.8216023,1.2581913],[103.8213678,1.2582986]]],[[[103.8218479,1.2584739],[103.8229823,1.2584082],[103.8218284,1.2581631],[103.8218479,1.2584739]]],[[[103.8180515,1.2567743],[103.8169773,1.2568829],[103.8161603,1.2581366],[103.8145996,1.2589044],[103.8164032,1.2598371],[103.8182014,1.2599936],[103.8180515,1.2567743]]]]}},{"type":"Feature","properties":{"id":"ticari-lab-1","kind":"district-label","btype":"ticari","name":"Resorts World Sentosa"},"geometry":{"type":"Point","coordinates":[103.8213,1.25571]}},{"type":"Feature","properties":{"id":"ticari-2","kind":"district","btype":"ticari","name":"International Business Park","lab":1},"geometry":{"type":"Polygon","coordinates":[[[103.7468091,1.3314137],[103.7447011,1.3284774],[103.7457432,1.326885],[103.7461104,1.3239606],[103.7463591,1.3237534],[103.747869,1.3240612],[103.7510803,1.3228819],[103.7514824,1.3231582],[103.749851,1.3263975],[103.7496158,1.3288741],[103.7468091,1.3314137]]]}},{"type":"Feature","properties":{"id":"ticari-lab-2","kind":"district-label","btype":"ticari","name":"International Business Park"},"geometry":{"type":"Point","coordinates":[103.74748,1.32768]}},{"type":"Feature","properties":{"id":"ticari-3","kind":"district","btype":"ticari","name":"Singapore Expo","lab":1},"geometry":{"type":"Polygon","coordinates":[[[103.9576124,1.3346208],[103.9558224,1.3327394],[103.956156,1.3318284],[103.9592523,1.3309869],[103.9618428,1.3354782],[103.962941,1.3365297],[103.9646147,1.3393625],[103.964236,1.3396204],[103.9619139,1.3394601],[103.9603074,1.3365383],[103.9593492,1.336988],[103.9576124,1.3346208]]]}},{"type":"Feature","properties":{"id":"ticari-lab-3","kind":"district-label","btype":"ticari","name":"Singapore Expo"},"geometry":{"type":"Point","coordinates":[103.95976,1.33505]}},{"type":"Feature","properties":{"id":"ticari-4","kind":"district","btype":"ticari","name":"Little India","lab":1},"geometry":{"type":"Polygon","coordinates":[[[103.855438,1.3117761],[103.857772,1.3092864],[103.855678,1.3061417],[103.8561288,1.3071373],[103.8553598,1.3076514],[103.8556229,1.3080469],[103.8550714,1.308407],[103.8544632,1.3074818],[103.854839,1.3070478],[103.8542054,1.306113],[103.855197,1.3054383],[103.854091,1.3035169],[103.8517347,1.304678],[103.8495376,1.3063923],[103.8513878,1.3089933],[103.8529095,1.3080428],[103.855438,1.3117761]]]}},{"type":"Feature","properties":{"id":"ticari-lab-4","kind":"district-label","btype":"ticari","name":"Little India"},"geometry":{"type":"Point","coordinates":[103.85245,1.30757]}},{"type":"Feature","properties":{"id":"ticari-5","kind":"district","btype":"ticari","name":"Golden Shoe","lab":1},"geometry":{"type":"Polygon","coordinates":[[[103.8502884,1.2859178],[103.8514222,1.2856895],[103.8525167,1.2863444],[103.8532555,1.284712],[103.8526861,1.2831883],[103.84812,1.2759524],[103.8470098,1.2768786],[103.8472499,1.2779567],[103.8469011,1.2781786],[103.8469426,1.279147],[103.847176,1.2797681],[103.8476054,1.2795481],[103.8487257,1.2810597],[103.8496592,1.2828693],[103.8491752,1.2832965],[103.8496864,1.2838003],[103.8483593,1.2847802],[103.8488909,1.2858218],[103.8494717,1.2855021],[103.8502884,1.2859178]]]}},{"type":"Feature","properties":{"id":"ticari-lab-5","kind":"district-label","btype":"ticari","name":"Golden Shoe"},"geometry":{"type":"Point","coordinates":[103.85055,1.28196]}},{"type":"Feature","properties":{"id":"ticari-6","kind":"district","btype":"ticari","name":"Singapore Science Park I","lab":1},"geometry":{"type":"Polygon","coordinates":[[[103.7851482,1.2927886],[103.7836765,1.2915],[103.7852075,1.2899447],[103.7861014,1.2896731],[103.7868521,1.2885721],[103.7884818,1.2891004],[103.7890461,1.2886445],[103.7899701,1.2885989],[103.7900399,1.2876765],[103.7904569,1.2872742],[103.7919469,1.2881162],[103.792304,1.2889656],[103.7910104,1.2900582],[103.7869064,1.2927837],[103.7851482,1.2927886]]]}},{"type":"Feature","properties":{"id":"ticari-lab-6","kind":"district-label","btype":"ticari","name":"Singapore Science Park I"},"geometry":{"type":"Point","coordinates":[103.78811,1.29]}},{"type":"Feature","properties":{"id":"ticari-7","kind":"district","btype":"ticari","name":"Singapore Science Park II","lab":1},"geometry":{"type":"Polygon","coordinates":[[[103.7780521,1.288924],[103.7791638,1.2874257],[103.7805524,1.2879862],[103.7804901,1.288333],[103.7810524,1.2878481],[103.7809398,1.2867078],[103.7812045,1.2859536],[103.7818799,1.2860475],[103.7826028,1.2854156],[103.7830219,1.2857425],[103.7837222,1.2853884],[103.78472,1.2863216],[103.7848434,1.2866836],[103.7838784,1.2873606],[103.7838833,1.288432],[103.7828857,1.2892566],[103.7802682,1.2896417],[103.7793062,1.2908655],[103.7781972,1.2899593],[103.7780521,1.288924]]]}},{"type":"Feature","properties":{"id":"ticari-lab-7","kind":"district-label","btype":"ticari","name":"Singapore Science Park II"},"geometry":{"type":"Point","coordinates":[103.78229,1.28816]}},{"type":"Feature","properties":{"id":"ticari-8","kind":"district","btype":"ticari","name":"Keppel Distripark","lab":1},"geometry":{"type":"Polygon","coordinates":[[[103.8267867,1.2679546],[103.8315108,1.2722062],[103.8290498,1.274635],[103.8288352,1.2744205],[103.8290712,1.2730904],[103.8260193,1.2705672],[103.8262951,1.2683984],[103.8267867,1.2679546]]]}},{"type":"Feature","properties":{"id":"ticari-lab-8","kind":"district-label","btype":"ticari","name":"Keppel Distripark"},"geometry":{"type":"Point","coordinates":[103.82881,1.27139]}},{"type":"Feature","properties":{"id":"ticari-9","kind":"district","btype":"ticari","name":"Pasir Panjang Wholesale Centre","lab":1},"geometry":{"type":"Polygon","coordinates":[[[103.7744759,1.285665],[103.7763151,1.2878875],[103.7780859,1.2867663],[103.7795773,1.2849827],[103.7784624,1.2832924],[103.7744759,1.285665]]]}},{"type":"Feature","properties":{"id":"ticari-lab-9","kind":"district-label","btype":"ticari","name":"Pasir Panjang Wholesale Centre"},"geometry":{"type":"Point","coordinates":[103.77717,1.28532]}},{"type":"Feature","properties":{"id":"ticari-10","kind":"district","btype":"ticari","name":"Biopolis","lab":1},"geometry":{"type":"Polygon","coordinates":[[[103.7909599,1.3043091],[103.7911294,1.3028651],[103.7908322,1.3005078],[103.7918414,1.2998875],[103.7941969,1.3018803],[103.792252,1.304977],[103.7917997,1.3050313],[103.7909599,1.3043091]]]}},{"type":"Feature","properties":{"id":"ticari-lab-10","kind":"district-label","btype":"ticari","name":"Biopolis"},"geometry":{"type":"Point","coordinates":[103.79248,1.30237]}},{"type":"Feature","properties":{"id":"ticari-11","kind":"district","btype":"ticari","name":"Bedok Town Centre","lab":1},"geometry":{"type":"Polygon","coordinates":[[[103.9292811,1.3263913],[103.9299253,1.3256711],[103.9301882,1.3243294],[103.9326883,1.3244944],[103.9322809,1.3245539],[103.9320849,1.3252809],[103.9351914,1.3261982],[103.934919,1.3276643],[103.9329002,1.3276132],[103.9328838,1.3265645],[103.9313397,1.3262616],[103.9311493,1.3272236],[103.9292811,1.3263913]]]}},{"type":"Feature","properties":{"id":"ticari-lab-11","kind":"district-label","btype":"ticari","name":"Bedok Town Centre"},"geometry":{"type":"Point","coordinates":[103.93199,1.32593]}},{"type":"Feature","properties":{"id":"ticari-12","kind":"district","btype":"ticari","name":"Mediapolis","lab":1},"geometry":{"type":"Polygon","coordinates":[[[103.7920918,1.2964398],[103.7942745,1.2954984],[103.7946186,1.2951536],[103.7944021,1.2944073],[103.7957724,1.2933254],[103.7949306,1.2916303],[103.7920707,1.294181],[103.7918078,1.296291],[103.7920918,1.2964398]]]}},{"type":"Feature","properties":{"id":"ticari-lab-12","kind":"district-label","btype":"ticari","name":"Mediapolis"},"geometry":{"type":"Point","coordinates":[103.79389,1.29375]}},{"type":"Feature","properties":{"id":"ticari-13","kind":"district","btype":"ticari","name":"Ang Mo Kio Town Centre","lab":1},"geometry":{"type":"Polygon","coordinates":[[[103.8462684,1.3730455],[103.8479815,1.3730896],[103.8485484,1.3707695],[103.8478111,1.370443],[103.8479258,1.3694975],[103.8474597,1.3694399],[103.847508,1.3690435],[103.8467458,1.3691024],[103.8469616,1.3701833],[103.8463211,1.3701327],[103.8462464,1.3707314],[103.8456985,1.3706635],[103.8452789,1.3741259],[103.8460858,1.3742253],[103.8462684,1.3730455]]]}},{"type":"Feature","properties":{"id":"ticari-lab-13","kind":"district-label","btype":"ticari","name":"Ang Mo Kio Town Centre"},"geometry":{"type":"Point","coordinates":[103.84691,1.37191]}},{"type":"Feature","properties":{"id":"ticari-14","kind":"district","btype":"ticari","name":"Mapletree Business City","lab":1},"geometry":{"type":"Polygon","coordinates":[[[103.7984587,1.2773753],[103.7971035,1.274722],[103.7999868,1.2737137],[103.801277,1.2758536],[103.7984587,1.2773753]]]}},{"type":"Feature","properties":{"id":"ticari-lab-14","kind":"district-label","btype":"ticari","name":"Mapletree Business City"},"geometry":{"type":"Point","coordinates":[103.79916,1.27529]}},{"type":"Feature","properties":{"id":"ticari-15","kind":"district","btype":"ticari","name":"Downtown East","lab":1},"geometry":{"type":"Polygon","coordinates":[[[103.9559927,1.3756956],[103.9558647,1.3786135],[103.9553592,1.3786967],[103.9554279,1.3794205],[103.9549407,1.3794127],[103.9547844,1.3787485],[103.9539186,1.3787853],[103.9535377,1.3779219],[103.9532113,1.3752629],[103.9559927,1.3756956]]]}},{"type":"Feature","properties":{"id":"ticari-lab-15","kind":"district-label","btype":"ticari","name":"Downtown East"},"geometry":{"type":"Point","coordinates":[103.95467,1.37681]}},{"type":"Feature","properties":{"id":"ticari-16","kind":"district","btype":"ticari","name":"Toa Payoh Central","lab":1},"geometry":{"type":"Polygon","coordinates":[[[103.8470412,1.3339923],[103.8499838,1.3340675],[103.8511914,1.3343829],[103.8514797,1.3325257],[103.8511104,1.3325259],[103.8511075,1.3321568],[103.8515588,1.3320386],[103.8515451,1.3314161],[103.8496147,1.3312778],[103.8495849,1.3328223],[103.8477926,1.3328236],[103.8476509,1.3334113],[103.8468344,1.333155],[103.8470412,1.3339923]]]}},{"type":"Feature","properties":{"id":"ticari-lab-16","kind":"district-label","btype":"ticari","name":"Toa Payoh Central"},"geometry":{"type":"Point","coordinates":[103.84958,1.33299]}},{"type":"Feature","properties":{"id":"ticari-17","kind":"district","btype":"ticari","name":"Tampines Retail Park","lab":1},"geometry":{"type":"Polygon","coordinates":[[[103.9339614,1.3727433],[103.9345698,1.3742086],[103.9317768,1.3749209],[103.9312383,1.3738988],[103.9310129,1.3718852],[103.9325818,1.3712201],[103.9333072,1.3730247],[103.9339614,1.3727433]]]}},{"type":"Feature","properties":{"id":"ticari-lab-17","kind":"district-label","btype":"ticari","name":"Tampines Retail Park"},"geometry":{"type":"Point","coordinates":[103.93272,1.37346]}},{"type":"Feature","properties":{"id":"ticari-18","kind":"district","btype":"ticari","name":"The Oval @ Seletar Aerospace Park","lab":1},"geometry":{"type":"MultiPolygon","coordinates":[[[[103.8683021,1.4084454],[103.8686044,1.408493],[103.8687489,1.4078125],[103.8674661,1.4066942],[103.8672216,1.4069637],[103.8678165,1.4074635],[103.8683021,1.4084454]]],[[[103.8669626,1.4088715],[103.8674308,1.4085367],[103.8675158,1.4077542],[103.8667283,1.4082385],[103.8666618,1.4087138],[103.8669626,1.4088715]]],[[[103.8668212,1.410379],[103.8670558,1.4100476],[103.8656993,1.4080249],[103.8657138,1.407622],[103.8660667,1.4071422],[103.8650839,1.4077269],[103.8668212,1.410379]]],[[[103.8680963,1.4084288],[103.8677233,1.4075412],[103.8674247,1.4086759],[103.8669961,1.4089435],[103.8666079,1.4087646],[103.8667382,1.4080567],[103.8676635,1.4074857],[103.8670899,1.4070087],[103.8664206,1.4070985],[103.8657859,1.4076252],[103.8658001,1.4080368],[103.8670112,1.4096097],[103.8672063,1.4106399],[103.8684812,1.4098427],[103.8685643,1.4086464],[103.8680963,1.4084288]]]]}},{"type":"Feature","properties":{"id":"ticari-lab-18","kind":"district-label","btype":"ticari","name":"The Oval @ Seletar Aerospace Park"},"geometry":{"type":"Point","coordinates":[103.86784,1.40885]}},{"type":"Feature","properties":{"id":"ticari-19","kind":"district","btype":"ticari","name":"National Service Resort & Country Club","lab":1},"geometry":{"type":"Polygon","coordinates":[[[103.9716966,1.317183],[103.9735205,1.3184487],[103.9747653,1.319974],[103.9759587,1.3198818],[103.9761044,1.3171941],[103.9716966,1.317183]]]}},{"type":"Feature","properties":{"id":"ticari-lab-19","kind":"district-label","btype":"ticari","name":"National Service Resort & Country Club"},"geometry":{"type":"Point","coordinates":[103.97505,1.31917]}},{"type":"Feature","properties":{"id":"ticari-20","kind":"district","btype":"ticari","name":"Geylang East Central","lab":1},"geometry":{"type":"Polygon","coordinates":[[[103.8887867,1.3191875],[103.8856543,1.3185427],[103.885557,1.3202385],[103.8866125,1.3203044],[103.8865358,1.3219235],[103.8874493,1.3219675],[103.8875182,1.3205017],[103.8886606,1.3205623],[103.8887867,1.3191875]]]}},{"type":"Feature","properties":{"id":"ticari-lab-20","kind":"district-label","btype":"ticari","name":"Geylang East Central"},"geometry":{"type":"Point","coordinates":[103.88739,1.32027]}},{"type":"Feature","properties":{"id":"ticari-21","kind":"district","btype":"ticari","name":"Kovan City","lab":1},"geometry":{"type":"Polygon","coordinates":[[[103.8886014,1.35962],[103.8863137,1.3583685],[103.8859374,1.3588278],[103.8848331,1.357656],[103.8840857,1.3572986],[103.8832578,1.3579483],[103.8851182,1.3599533],[103.8857146,1.3594811],[103.8873982,1.3596494],[103.8877012,1.3597955],[103.8876138,1.3606957],[103.8881063,1.360749],[103.8886014,1.35962]]]}},{"type":"Feature","properties":{"id":"ticari-lab-21","kind":"district-label","btype":"ticari","name":"Kovan City"},"geometry":{"type":"Point","coordinates":[103.88606,1.35915]}},{"type":"Feature","properties":{"id":"ticari-22","kind":"district","btype":"ticari","name":"Tradehub 21","lab":1},"geometry":{"type":"Polygon","coordinates":[[[103.7509848,1.3291363],[103.7510071,1.3284014],[103.7515832,1.3280195],[103.7547631,1.3267816],[103.7550496,1.3277713],[103.7548712,1.3287724],[103.753509,1.328621],[103.7530978,1.3292869],[103.7509848,1.3291363]]]}},{"type":"Feature","properties":{"id":"ticari-lab-22","kind":"district-label","btype":"ticari","name":"Tradehub 21"},"geometry":{"type":"Point","coordinates":[103.75313,1.32821]}},{"type":"Feature","properties":{"id":"ticari-23","kind":"district","btype":"ticari","name":"Bukit Merah Central","lab":1},"geometry":{"type":"Polygon","coordinates":[[[103.8154504,1.2824154],[103.8172068,1.2813244],[103.8181313,1.2838238],[103.8154637,1.2845437],[103.8151181,1.2833074],[103.8156554,1.2829905],[103.8154504,1.2824154]]]}},{"type":"Feature","properties":{"id":"ticari-lab-23","kind":"district-label","btype":"ticari","name":"Bukit Merah Central"},"geometry":{"type":"Point","coordinates":[103.81663,1.2827]}},{"type":"Feature","properties":{"id":"ticari-24","kind":"district","btype":"ticari","name":"Dempsey Hill","lab":1},"geometry":{"type":"Polygon","coordinates":[[[103.8097528,1.3051868],[103.8088891,1.3038219],[103.809801,1.3027305],[103.8107425,1.3029799],[103.8104219,1.3038969],[103.810827,1.3044373],[103.8105923,1.3047578],[103.8109557,1.3051707],[103.8111904,1.3050125],[103.8111314,1.3054013],[103.8117644,1.3055783],[103.8120729,1.3052485],[103.8124296,1.3057606],[103.8120648,1.3062487],[103.811456,1.3062835],[103.8110134,1.3059215],[103.8097474,1.3062272],[103.8093343,1.3058036],[103.8097528,1.3051868]]]}},{"type":"Feature","properties":{"id":"ticari-lab-24","kind":"district-label","btype":"ticari","name":"Dempsey Hill"},"geometry":{"type":"Point","coordinates":[103.81004,1.3046]}},{"type":"Feature","properties":{"id":"ticari-25","kind":"district","btype":"ticari","name":"Marine Parade Promenade","lab":1},"geometry":{"type":"Polygon","coordinates":[[[103.9068102,1.303588],[103.9052617,1.3025428],[103.9065889,1.30071],[103.907872,1.3011189],[103.9075769,1.3015601],[103.9082636,1.30191],[103.9079393,1.302865],[103.9075159,1.3026002],[103.9068102,1.303588]]]}},{"type":"Feature","properties":{"id":"ticari-lab-25","kind":"district-label","btype":"ticari","name":"Marine Parade Promenade"},"geometry":{"type":"Point","coordinates":[103.90682,1.30223]}},{"type":"Feature","properties":{"id":"ticari-26","kind":"district","btype":"ticari","name":"Gillman Barracks","lab":1},"geometry":{"type":"MultiPolygon","coordinates":[[[[103.804448,1.2754877],[103.804765,1.2739076],[103.8039568,1.2738345],[103.8038836,1.274763],[103.804448,1.2754877]]],[[[103.8047133,1.2770553],[103.8049801,1.2768759],[103.804448,1.2754877],[103.8042474,1.2768164],[103.804491,1.2766504],[103.8047133,1.2770553]]],[[[103.8042468,1.2766892],[103.8040926,1.2755396],[103.8030268,1.2774091],[103.8035601,1.2769681],[103.8042468,1.2766892]]],[[[103.8034097,1.2778897],[103.8041904,1.2790236],[103.8047988,1.279107],[103.8045651,1.2798259],[103.8054103,1.27929],[103.805165,1.2789195],[103.8054183,1.2783957],[103.804969,1.2782053],[103.8042474,1.2768164],[103.8034097,1.2778897]]]]}},{"type":"Feature","properties":{"id":"ticari-lab-26","kind":"district-label","btype":"ticari","name":"Gillman Barracks"},"geometry":{"type":"Point","coordinates":[103.80444,1.2783]}},{"type":"Feature","properties":{"id":"ticari-27","kind":"district","btype":"ticari","name":"Sofitel Hotel Sentosa Singapore","lab":1},"geometry":{"type":"Polygon","coordinates":[[[103.826413,1.2458328],[103.8280231,1.2441271],[103.8284966,1.2444599],[103.8290478,1.2459864],[103.8278187,1.2472315],[103.8267081,1.2466353],[103.826937,1.2461973],[103.826413,1.2458328]]]}},{"type":"Feature","properties":{"id":"ticari-lab-27","kind":"district-label","btype":"ticari","name":"Sofitel Hotel Sentosa Singapore"},"geometry":{"type":"Point","coordinates":[103.8279,1.24515]}},{"type":"Feature","properties":{"id":"ticari-28","kind":"district","btype":"ticari","name":"Phoenix Park","lab":1},"geometry":{"type":"Polygon","coordinates":[[[103.814851,1.2991776],[103.8142664,1.2969301],[103.8165183,1.2969186],[103.8168091,1.298768],[103.814851,1.2991776]]]}},{"type":"Feature","properties":{"id":"ticari-lab-28","kind":"district-label","btype":"ticari","name":"Phoenix Park"},"geometry":{"type":"Point","coordinates":[103.81559,1.29785]}},{"type":"Feature","properties":{"id":"ticari-29","kind":"district","btype":"ticari","name":"Geneo","lab":1},"geometry":{"type":"Polygon","coordinates":[[[103.7853176,1.2929028],[103.7844726,1.2920263],[103.7857784,1.290894],[103.7864603,1.2908703],[103.7863072,1.2916143],[103.7870401,1.291613],[103.7874532,1.2910796],[103.7879225,1.2920023],[103.7882513,1.2919457],[103.7868966,1.2928057],[103.7853176,1.2929028]]]}},{"type":"Feature","properties":{"id":"ticari-lab-29","kind":"district-label","btype":"ticari","name":"Geneo"},"geometry":{"type":"Point","coordinates":[103.78628,1.29178]}},{"type":"Feature","properties":{"id":"ticari-30","kind":"district","btype":"ticari","name":"Mayflower","lab":1},"geometry":{"type":"Polygon","coordinates":[[[103.8407804,1.3750262],[103.8406672,1.3734477],[103.8405378,1.3737045],[103.8391673,1.3739643],[103.8380762,1.3732579],[103.8374891,1.3734894],[103.8378374,1.3744763],[103.8391874,1.375509],[103.8407804,1.3750262]]]}},{"type":"Feature","properties":{"id":"ticari-lab-30","kind":"district-label","btype":"ticari","name":"Mayflower"},"geometry":{"type":"Point","coordinates":[103.83923,1.37422]}},{"type":"Feature","properties":{"id":"ticari-31","kind":"district","btype":"ticari","name":"Bukit Batok Town Centre","lab":1},"geometry":{"type":"Polygon","coordinates":[[[103.7525791,1.3495301],[103.7514978,1.3482605],[103.7494534,1.3499549],[103.7503432,1.351163],[103.7525791,1.3495301]]]}},{"type":"Feature","properties":{"id":"ticari-lab-31","kind":"district-label","btype":"ticari","name":"Bukit Batok Town Centre"},"geometry":{"type":"Point","coordinates":[103.751,1.34974]}},{"type":"Feature","properties":{"id":"ticari-32","kind":"district","btype":"ticari","name":"Hougang Central","lab":1},"geometry":{"type":"Polygon","coordinates":[[[103.8928127,1.3715291],[103.8940487,1.3706316],[103.8945,1.369644],[103.8956017,1.3703553],[103.8942601,1.3719241],[103.8941463,1.3728711],[103.89292,1.3728913],[103.8928127,1.3715291]]]}},{"type":"Feature","properties":{"id":"ticari-lab-32","kind":"district-label","btype":"ticari","name":"Hougang Central"},"geometry":{"type":"Point","coordinates":[103.89421,1.37108]}},{"type":"Feature","properties":{"id":"ticari-33","kind":"district","btype":"ticari","name":"Civil Service Club @ Loyang (Former Aloha Loyang)","lab":1},"geometry":{"type":"Polygon","coordinates":[[[103.9602784,1.3806653],[103.9647364,1.3816486],[103.9654011,1.3813845],[103.960341,1.3796151],[103.9602784,1.3806653]]]}},{"type":"Feature","properties":{"id":"ticari-lab-33","kind":"district-label","btype":"ticari","name":"Civil Service Club @ Loyang (Former Aloha Loyang)"},"geometry":{"type":"Point","coordinates":[103.96108,1.38014]}},{"type":"Feature","properties":{"id":"ticari-34","kind":"district","btype":"ticari","name":"Tampines Round","lab":1},"geometry":{"type":"Polygon","coordinates":[[[103.9461828,1.3456802],[103.9457143,1.3452634],[103.9460037,1.3449355],[103.9452072,1.3442268],[103.9443317,1.3450194],[103.9435782,1.346503],[103.944437,1.347313],[103.9461828,1.3456802]]]}},{"type":"Feature","properties":{"id":"ticari-lab-34","kind":"district-label","btype":"ticari","name":"Tampines Round"},"geometry":{"type":"Point","coordinates":[103.94477,1.34609]}},{"type":"Feature","properties":{"id":"ticari-35","kind":"district","btype":"ticari","name":"Shop T West","lab":1},"geometry":{"type":"Polygon","coordinates":[[[103.9355265,1.3491416],[103.9353449,1.348699],[103.9360041,1.348424],[103.9355988,1.3484755],[103.9353221,1.3478033],[103.9321525,1.3493281],[103.9323253,1.3497835],[103.9329882,1.3495021],[103.9332371,1.3500881],[103.9355265,1.3491416]]]}},{"type":"Feature","properties":{"id":"ticari-lab-35","kind":"district-label","btype":"ticari","name":"Shop T West"},"geometry":{"type":"Point","coordinates":[103.93422,1.34892]}},{"type":"Feature","properties":{"id":"ticari-36","kind":"district","btype":"ticari","name":"Kaki Bukit Mall","lab":1},"geometry":{"type":"Polygon","coordinates":[[[103.9236971,1.3309167],[103.9261002,1.3312275],[103.9257621,1.3327288],[103.9235373,1.3324583],[103.9236971,1.3309167]]]}},{"type":"Feature","properties":{"id":"ticari-lab-36","kind":"district-label","btype":"ticari","name":"Kaki Bukit Mall"},"geometry":{"type":"Point","coordinates":[103.92478,1.33184]}},{"type":"Feature","properties":{"id":"ticari-37","kind":"district","btype":"ticari","name":"Clementi Town Centre","lab":1},"geometry":{"type":"Polygon","coordinates":[[[103.7651787,1.3146515],[103.7662085,1.3128103],[103.7651423,1.3116606],[103.7646528,1.3120387],[103.764897,1.3126196],[103.7644464,1.3128415],[103.7640683,1.3137275],[103.7635766,1.3136835],[103.7635755,1.3142653],[103.76447,1.314852],[103.7647409,1.3144149],[103.7651787,1.3146515]]]}},{"type":"Feature","properties":{"id":"ticari-lab-37","kind":"district-label","btype":"ticari","name":"Clementi Town Centre"},"geometry":{"type":"Point","coordinates":[103.76511,1.31326]}},{"type":"Feature","properties":{"id":"ticari-38","kind":"district","btype":"ticari","name":"Tampines Neighbourhood 4 Centre","lab":1},"geometry":{"type":"Polygon","coordinates":[[[103.954144,1.361776],[103.9536904,1.3613193],[103.9540728,1.3609345],[103.9537733,1.3596783],[103.9535119,1.359678],[103.9535119,1.3592038],[103.9527367,1.3592037],[103.9521782,1.3609349],[103.9525608,1.36132],[103.9521073,1.3617764],[103.9530043,1.3621587],[103.954144,1.361776]]]}},{"type":"Feature","properties":{"id":"ticari-lab-38","kind":"district-label","btype":"ticari","name":"Tampines Neighbourhood 4 Centre"},"geometry":{"type":"Point","coordinates":[103.95315,1.36031]}},{"type":"Feature","properties":{"id":"ticari-39","kind":"district","btype":"ticari","name":"Hougang Neighbourhood 1 Centre","lab":1},"geometry":{"type":"Polygon","coordinates":[[[103.8917917,1.3555157],[103.8905108,1.3523814],[103.8894308,1.3527794],[103.8901454,1.3555594],[103.8917917,1.3555157]]]}},{"type":"Feature","properties":{"id":"ticari-lab-39","kind":"district-label","btype":"ticari","name":"Hougang Neighbourhood 1 Centre"},"geometry":{"type":"Point","coordinates":[103.89051,1.35415]}}]}