{"type":"FeatureCollection","features":[{"type":"Feature","properties":{"id":"ke-tarihi-0","kind":"poi","name":"Dalhousie Obelisk","theme":"tarihi","lab":1},"geometry":{"type":"Point","coordinates":[103.85222,1.28745]}},{"type":"Feature","properties":{"id":"ke-tarihi-1","kind":"poi","name":"Sri Senpaga Vinayagar Temple","theme":"tarihi","lab":1},"geometry":{"type":"Point","coordinates":[103.90251,1.30552]}},{"type":"Feature","properties":{"id":"ke-tarihi-2","kind":"poi","name":"St George's Church","theme":"tarihi","lab":1},"geometry":{"type":"Point","coordinates":[103.81509,1.30478]}},{"type":"Feature","properties":{"id":"ke-tarihi-3","kind":"poi","name":"Dragon's Teeth Gate","theme":"tarihi","lab":1},"geometry":{"type":"Point","coordinates":[103.80535,1.26297]}},{"type":"Feature","properties":{"id":"ke-tarihi-4","kind":"poi","name":"Chinatown","theme":"tarihi","lab":1},"geometry":{"type":"Point","coordinates":[103.84369,1.27997]}},{"type":"Feature","properties":{"id":"ke-tarihi-5","kind":"poi","name":"megazip adventure park","theme":"tarihi","lab":1},"geometry":{"type":"Point","coordinates":[103.81431,1.25688]}},{"type":"Feature","properties":{"id":"ke-tarihi-6","kind":"poi","name":"Thekchen Choling","theme":"tarihi","lab":1},"geometry":{"type":"Point","coordinates":[103.86046,1.31202]}},{"type":"Feature","properties":{"id":"ke-tarihi-7","kind":"poi","name":"Memorial for the Victims of the Konfrantasi","theme":"tarihi","lab":1},"geometry":{"type":"Point","coordinates":[103.84727,1.29847]}},{"type":"Feature","properties":{"id":"ke-tarihi-8","kind":"poi","name":"Syonan Jinja","theme":"tarihi","lab":1},"geometry":{"type":"Point","coordinates":[103.81381,1.34826]}},{"type":"Feature","properties":{"id":"ke-tarihi-9","kind":"poi","name":"Sri Thendayuthapani Temple","theme":"tarihi","lab":1},"geometry":{"type":"Point","coordinates":[103.84368,1.29373]}},{"type":"Feature","properties":{"id":"ke-tarihi-10","kind":"poi","name":"Former Malay Film Productions","theme":"tarihi","lab":1},"geometry":{"type":"Point","coordinates":[103.8515,1.32645]}},{"type":"Feature","properties":{"id":"ke-tarihi-11","kind":"poi","name":"Balestier Art Deco shophouses","theme":"tarihi","lab":1},"geometry":{"type":"Point","coordinates":[103.85305,1.32162]}},{"type":"Feature","properties":{"id":"ke-tarihi-12","kind":"poi","name":"Istana Kampong Glam","theme":"tarihi","lab":1},"geometry":{"type":"Point","coordinates":[103.85995,1.30267]}},{"type":"Feature","properties":{"id":"ke-tarihi-13","kind":"poi","name":"Church of The Nativity of the Blessed Virgin Mary","theme":"tarihi","lab":1},"geometry":{"type":"Point","coordinates":[103.89847,1.37348]}},{"type":"Feature","properties":{"id":"ke-tarihi-14","kind":"poi","name":"Masjid En-Naeem","theme":"tarihi","lab":1},"geometry":{"type":"Point","coordinates":[103.89253,1.36098]}},{"type":"Feature","properties":{"id":"ke-tarihi-15","kind":"poi","name":"Masjid Al-Muttaqin","theme":"tarihi","lab":1},"geometry":{"type":"Point","coordinates":[103.84603,1.37046]}},{"type":"Feature","properties":{"id":"ke-tarihi-16","kind":"poi","name":"Henderson Waves Bridge","theme":"tarihi","lab":1},"geometry":{"type":"Point","coordinates":[103.81546,1.27625]}},{"type":"Feature","properties":{"id":"ke-tarihi-17","kind":"poi","name":"Istana","theme":"tarihi","lab":1},"geometry":{"type":"Point","coordinates":[103.84288,1.3071]}},{"type":"Feature","properties":{"id":"ke-tarihi-18","kind":"poi","name":"Foo Hai Ch'an Monastery","theme":"tarihi","lab":1},"geometry":{"type":"Point","coordinates":[103.88849,1.31804]}},{"type":"Feature","properties":{"id":"ke-tarihi-20","kind":"poi","name":"Masjid Alkaff Kampung Melayu","theme":"tarihi","lab":1},"geometry":{"type":"Point","coordinates":[103.91399,1.33668]}},{"type":"Feature","properties":{"id":"ke-tarihi-21","kind":"poi","name":"Fort Siloso","theme":"tarihi","lab":1},"geometry":{"type":"Point","coordinates":[103.80855,1.25875]}},{"type":"Feature","properties":{"id":"ke-tarihi-22","kind":"poi","name":"Kong Meng San Phor Kark See Monastery","theme":"tarihi","lab":1},"geometry":{"type":"Point","coordinates":[103.83627,1.36124]}},{"type":"Feature","properties":{"id":"ke-tarihi-23","kind":"poi","name":"Tan Si Chong Su","theme":"tarihi","lab":1},"geometry":{"type":"Point","coordinates":[103.84285,1.2893]}},{"type":"Feature","properties":{"id":"ke-tarihi-24","kind":"poi","name":"Sri Veeramakaliamman","theme":"tarihi","lab":1},"geometry":{"type":"Point","coordinates":[103.8524,1.30793]}},{"type":"Feature","properties":{"id":"ke-tarihi-25","kind":"poi","name":"Masjid Al Istiqamah","theme":"tarihi","lab":1},"geometry":{"type":"Point","coordinates":[103.87563,1.36922]}},{"type":"Feature","properties":{"id":"ke-tarihi-26","kind":"poi","name":"Masjid Darul Aman","theme":"tarihi","lab":1},"geometry":{"type":"Point","coordinates":[103.90465,1.31798]}},{"type":"Feature","properties":{"id":"ke-tarihi-27","kind":"poi","name":"Telok Ayer Chinese Methodist Church","theme":"tarihi","lab":1},"geometry":{"type":"Point","coordinates":[103.84701,1.27847]}},{"type":"Feature","properties":{"id":"ke-tarihi-28","kind":"poi","name":"Wat Anada Metyarama Thai Buddhist Temple","theme":"tarihi","lab":1},"geometry":{"type":"Point","coordinates":[103.82905,1.27834]}},{"type":"Feature","properties":{"id":"ke-tarihi-29","kind":"poi","name":"Masjid Mujahidin","theme":"tarihi","lab":1},"geometry":{"type":"Point","coordinates":[103.80096,1.29813]}},{"type":"Feature","properties":{"id":"ke-tarihi-30","kind":"poi","name":"Grace Assembly of God Singapore (Tanglin)","theme":"tarihi","lab":1},"geometry":{"type":"Point","coordinates":[103.81648,1.29442]}},{"type":"Feature","properties":{"id":"ke-tarihi-31","kind":"poi","name":"Our Lady of Perpetual Succour","theme":"tarihi","lab":1},"geometry":{"type":"Point","coordinates":[103.91867,1.32063]}},{"type":"Feature","properties":{"id":"ke-tarihi-32","kind":"poi","name":"Masjid Hang Jebat","theme":"tarihi","lab":1},"geometry":{"type":"Point","coordinates":[103.79863,1.28956]}},{"type":"Feature","properties":{"id":"ke-tarihi-33","kind":"poi","name":"Masjid An-Nahdhah","theme":"tarihi","lab":1},"geometry":{"type":"Point","coordinates":[103.85128,1.35354]}},{"type":"Feature","properties":{"id":"ke-tarihi-34","kind":"poi","name":"Church of St Alphonsus","theme":"tarihi","lab":1},"geometry":{"type":"Point","coordinates":[103.8427,1.32168]}},{"type":"Feature","properties":{"id":"ke-tarihi-35","kind":"poi","name":"Sri Sivadurga Temple","theme":"tarihi","lab":1},"geometry":{"type":"Point","coordinates":[103.86648,1.33179]}},{"type":"Feature","properties":{"id":"ke-tarihi-36","kind":"poi","name":"Masjid Tememggong Daeng Ibrahim","theme":"tarihi","lab":1},"geometry":{"type":"Point","coordinates":[103.82451,1.26663]}},{"type":"Feature","properties":{"id":"ke-tarihi-37","kind":"poi","name":"Bethany Independent Presbyterian Church","theme":"tarihi","lab":1},"geometry":{"type":"Point","coordinates":[103.88191,1.34423]}},{"type":"Feature","properties":{"id":"ke-tarihi-38","kind":"poi","name":"Church Of Saint Francis Xavier","theme":"tarihi","lab":1},"geometry":{"type":"Point","coordinates":[103.86353,1.35865]}},{"type":"Feature","properties":{"id":"ke-tarihi-39","kind":"poi","name":"Elim Church Assembly Of God","theme":"tarihi","lab":1},"geometry":{"type":"Point","coordinates":[103.86425,1.3239]}},{"type":"Feature","properties":{"id":"ke-tarihi-40","kind":"poi","name":"Masjid Sallim Mattar","theme":"tarihi","lab":1},"geometry":{"type":"Point","coordinates":[103.88123,1.32575]}},{"type":"Feature","properties":{"id":"ke-tarihi-41","kind":"poi","name":"Jacob Ballas Children's Garden","theme":"tarihi","lab":1},"geometry":{"type":"Point","coordinates":[103.81846,1.3215]}},{"type":"Feature","properties":{"id":"ke-tarihi-42","kind":"poi","name":"Masjid Abdul Aleem Siddique","theme":"tarihi","lab":1},"geometry":{"type":"Point","coordinates":[103.91274,1.31309]}},{"type":"Feature","properties":{"id":"ke-tarihi-43","kind":"poi","name":"Masjid Ahmad","theme":"tarihi","lab":1},"geometry":{"type":"Point","coordinates":[103.78722,1.28087]}},{"type":"Feature","properties":{"id":"ke-tarihi-44","kind":"poi","name":"Masjid Táhá","theme":"tarihi","lab":1},"geometry":{"type":"Point","coordinates":[103.89805,1.31364]}},{"type":"Feature","properties":{"id":"ke-tarihi-45","kind":"poi","name":"Helix Bridge","theme":"tarihi","lab":1},"geometry":{"type":"Point","coordinates":[103.86044,1.28748]}},{"type":"Feature","properties":{"id":"ke-tarihi-46","kind":"poi","name":"Carmichael Road Playground","theme":"tarihi","lab":1},"geometry":{"type":"Point","coordinates":[103.86301,1.34259]}},{"type":"Feature","properties":{"id":"ke-tarihi-47","kind":"poi","name":"Former Hock Eng Seng Cemetery","theme":"tarihi","lab":1},"geometry":{"type":"Point","coordinates":[103.79016,1.32397]}},{"type":"Feature","properties":{"id":"ke-tarihi-48","kind":"poi","name":"Former Fort Tanjong Katong","theme":"tarihi","lab":1},"geometry":{"type":"Point","coordinates":[103.88675,1.29676]}},{"type":"Feature","properties":{"id":"ke-tarihi-49","kind":"poi","name":"ming tombstone","theme":"tarihi","lab":1},"geometry":{"type":"Point","coordinates":[103.78116,1.36799]}},{"type":"Feature","properties":{"id":"ke-tarihi-50","kind":"poi","name":"Sir Arthur's Bridge Plaque","theme":"tarihi","lab":1},"geometry":{"type":"Point","coordinates":[103.8705,1.31005]}},{"type":"Feature","properties":{"id":"ke-tarihi-51","kind":"poi","name":"Ruins","theme":"tarihi","lab":1},"geometry":{"type":"Point","coordinates":[103.78004,1.37371]}},{"type":"Feature","properties":{"id":"ke-tarihi-52","kind":"poi","name":"Generator room","theme":"tarihi","lab":1},"geometry":{"type":"Point","coordinates":[103.8114,1.34917]}},{"type":"Feature","properties":{"id":"ke-tarihi-53","kind":"poi","name":"Time Capsule To be Opened Year 2040","theme":"tarihi","lab":1},"geometry":{"type":"Point","coordinates":[103.87233,1.30279]}},{"type":"Feature","properties":{"id":"ke-tarihi-54","kind":"poi","name":"Fort Serapong ruins","theme":"tarihi","lab":1},"geometry":{"type":"Point","coordinates":[103.8334,1.25009]}},{"type":"Feature","properties":{"id":"ke-tarihi-55","kind":"poi","name":"Shuang Long Shan cemetery","theme":"tarihi","lab":1},"geometry":{"type":"Point","coordinates":[103.79566,1.30616]}},{"type":"Feature","properties":{"id":"ke-tarihi-56","kind":"poi","name":"bomb shelter ruin","theme":"tarihi","lab":1},"geometry":{"type":"Point","coordinates":[103.80129,1.26698]}},{"type":"Feature","properties":{"id":"ke-tarihi-57","kind":"poi","name":"Sounds Of The Earth","theme":"tarihi","lab":1},"geometry":{"type":"Point","coordinates":[103.82796,1.33977]}},{"type":"Feature","properties":{"id":"ke-modern-0","kind":"poi","name":"National Design Centre","theme":"modern","lab":1},"geometry":{"type":"Point","coordinates":[103.85353,1.29878]}},{"type":"Feature","properties":{"id":"ke-modern-1","kind":"poi","name":"Utterly Art","theme":"modern","lab":1},"geometry":{"type":"Point","coordinates":[103.84465,1.28377]}},{"type":"Feature","properties":{"id":"ke-modern-2","kind":"poi","name":"Gallery 278","theme":"modern","lab":1},"geometry":{"type":"Point","coordinates":[103.84183,1.29493]}},{"type":"Feature","properties":{"id":"ke-modern-3","kind":"poi","name":"ShanghART Gallery","theme":"modern","lab":1},"geometry":{"type":"Point","coordinates":[103.80438,1.27831]}},{"type":"Feature","properties":{"id":"ke-modern-4","kind":"poi","name":"VOS @ Adelphi","theme":"modern","lab":1},"geometry":{"type":"Point","coordinates":[103.85145,1.29124]}},{"type":"Feature","properties":{"id":"ke-modern-5","kind":"poi","name":"Art Works Gallery","theme":"modern","lab":1},"geometry":{"type":"Point","coordinates":[103.79381,1.31117]}},{"type":"Feature","properties":{"id":"ke-modern-6","kind":"poi","name":"IMBA Theatre","theme":"modern","lab":1},"geometry":{"type":"Point","coordinates":[103.8619,1.28325]}},{"type":"Feature","properties":{"id":"ke-modern-7","kind":"poi","name":"Buddhist Art Centre","theme":"modern","lab":1},"geometry":{"type":"Point","coordinates":[103.87819,1.31255]}},{"type":"Feature","properties":{"id":"ke-modern-8","kind":"poi","name":"Juz Art Studio","theme":"modern","lab":1},"geometry":{"type":"Point","coordinates":[103.90382,1.30533]}},{"type":"Feature","properties":{"id":"ke-modern-9","kind":"poi","name":"Old Boys Gallery","theme":"modern","lab":1},"geometry":{"type":"Point","coordinates":[103.83582,1.2765]}},{"type":"Feature","properties":{"id":"ke-modern-10","kind":"poi","name":"Taylors Arts Studio","theme":"modern","lab":1},"geometry":{"type":"Point","coordinates":[103.83499,1.35231]}},{"type":"Feature","properties":{"id":"ke-modern-11","kind":"poi","name":"Paint Blush","theme":"modern","lab":1},"geometry":{"type":"Point","coordinates":[103.85341,1.30508]}},{"type":"Feature","properties":{"id":"ke-modern-12","kind":"poi","name":"Harmony in Diversity Gallery","theme":"modern","lab":1},"geometry":{"type":"Point","coordinates":[103.8466,1.27936]}},{"type":"Feature","properties":{"id":"ke-modern-13","kind":"poi","name":"CDL Green Gallery","theme":"modern","lab":1},"geometry":{"type":"Point","coordinates":[103.81774,1.30837]}},{"type":"Feature","properties":{"id":"ke-modern-14","kind":"poi","name":"The Martial Arts Centre","theme":"modern","lab":1},"geometry":{"type":"Point","coordinates":[103.86245,1.31024]}},{"type":"Feature","properties":{"id":"ke-modern-15","kind":"poi","name":"Aura Gallery","theme":"modern","lab":1},"geometry":{"type":"Point","coordinates":[103.90636,1.31761]}},{"type":"Feature","properties":{"id":"ke-modern-16","kind":"poi","name":"Kwok Gallery","theme":"modern","lab":1},"geometry":{"type":"Point","coordinates":[103.8302,1.30541]}},{"type":"Feature","properties":{"id":"ke-modern-17","kind":"poi","name":"Y2ARTS","theme":"modern","lab":1},"geometry":{"type":"Point","coordinates":[103.81942,1.28168]}},{"type":"Feature","properties":{"id":"ke-modern-18","kind":"poi","name":"Ellie Art Studio","theme":"modern","lab":1},"geometry":{"type":"Point","coordinates":[103.88802,1.33395]}},{"type":"Feature","properties":{"id":"ke-modern-19","kind":"poi","name":"Lamipak Gallery","theme":"modern","lab":1},"geometry":{"type":"Point","coordinates":[103.85207,1.3227]}},{"type":"Feature","properties":{"id":"ke-modern-20","kind":"poi","name":"55 Artspace","theme":"modern","lab":1},"geometry":{"type":"Point","coordinates":[103.87514,1.32748]}},{"type":"Feature","properties":{"id":"ke-modern-21","kind":"poi","name":"Art Social","theme":"modern","lab":1},"geometry":{"type":"Point","coordinates":[103.86462,1.30348]}},{"type":"Feature","properties":{"id":"ke-modern-22","kind":"poi","name":"White Space Art Asia","theme":"modern","lab":1},"geometry":{"type":"Point","coordinates":[103.83044,1.2823]}},{"type":"Feature","properties":{"id":"ke-doga-0","kind":"poi","name":"Dragon's Teeth Gate Viewpoint","theme":"doga","lab":1},"geometry":{"type":"Point","coordinates":[103.80737,1.26]}},{"type":"Feature","properties":{"id":"ke-doga-1","kind":"poi","name":"Fort Canning Park","theme":"doga","lab":1},"geometry":{"type":"Point","coordinates":[103.84671,1.29404]}},{"type":"Feature","properties":{"id":"ke-doga-2","kind":"poi","name":"Punggol Park","theme":"doga","lab":1},"geometry":{"type":"Point","coordinates":[103.89865,1.37695]}},{"type":"Feature","properties":{"id":"ke-doga-3","kind":"poi","name":"Ang Mo Kio Town Garden East","theme":"doga","lab":1},"geometry":{"type":"Point","coordinates":[103.85033,1.3711]}},{"type":"Feature","properties":{"id":"ke-doga-4","kind":"poi","name":"Bishan-Ang Mo Kio Park","theme":"doga","lab":1},"geometry":{"type":"Point","coordinates":[103.84731,1.36059]}},{"type":"Feature","properties":{"id":"ke-doga-5","kind":"poi","name":"Bishan-Ang Mo Kio Park","theme":"doga","lab":1},"geometry":{"type":"Point","coordinates":[103.83562,1.36523]}},{"type":"Feature","properties":{"id":"ke-doga-6","kind":"poi","name":"Ang Mo Kio Town Garden West","theme":"doga","lab":1},"geometry":{"type":"Point","coordinates":[103.84293,1.3745]}},{"type":"Feature","properties":{"id":"ke-doga-7","kind":"poi","name":"Pearl's Hill City Park","theme":"doga","lab":1},"geometry":{"type":"Point","coordinates":[103.83984,1.28471]}},{"type":"Feature","properties":{"id":"ke-doga-8","kind":"poi","name":"Siloso Beach","theme":"doga","lab":1},"geometry":{"type":"Point","coordinates":[103.813,1.2543]}},{"type":"Feature","properties":{"id":"ke-doga-9","kind":"poi","name":"Hong Lim Park","theme":"doga","lab":1},"geometry":{"type":"Point","coordinates":[103.84658,1.28631]}},{"type":"Feature","properties":{"id":"ke-doga-10","kind":"poi","name":"Istana Park","theme":"doga","lab":1},"geometry":{"type":"Point","coordinates":[103.84383,1.29926]}},{"type":"Feature","properties":{"id":"ke-doga-11","kind":"poi","name":"Singapore Botanic Gardens","theme":"doga","lab":1},"geometry":{"type":"Point","coordinates":[103.81606,1.31467]}},{"type":"Feature","properties":{"id":"ke-doga-12","kind":"poi","name":"HortPark","theme":"doga","lab":1},"geometry":{"type":"Point","coordinates":[103.79949,1.27905]}},{"type":"Feature","properties":{"id":"ke-doga-13","kind":"poi","name":"Kent Ridge Park","theme":"doga","lab":1},"geometry":{"type":"Point","coordinates":[103.79071,1.28344]}},{"type":"Feature","properties":{"id":"ke-doga-14","kind":"poi","name":"Haw Par Villa","theme":"doga","lab":1},"geometry":{"type":"Point","coordinates":[103.78247,1.28418]}},{"type":"Feature","properties":{"id":"ke-doga-15","kind":"poi","name":"Tanjong Pagar Park","theme":"doga","lab":1},"geometry":{"type":"Point","coordinates":[103.84584,1.27656]}},{"type":"Feature","properties":{"id":"ke-doga-16","kind":"poi","name":"Chinese Garden","theme":"doga","lab":1},"geometry":{"type":"Point","coordinates":[103.86355,1.2831]}},{"type":"Feature","properties":{"id":"ke-doga-17","kind":"poi","name":"Zhongshan Park","theme":"doga","lab":1},"geometry":{"type":"Point","coordinates":[103.847,1.32722]}},{"type":"Feature","properties":{"id":"ke-doga-18","kind":"poi","name":"Tiong Bahru Park","theme":"doga","lab":1},"geometry":{"type":"Point","coordinates":[103.82408,1.28767]}},{"type":"Feature","properties":{"id":"ke-doga-19","kind":"poi","name":"Mount Faber Park","theme":"doga","lab":1},"geometry":{"type":"Point","coordinates":[103.81904,1.27174]}},{"type":"Feature","properties":{"id":"ke-doga-20","kind":"poi","name":"Mount Emily Park","theme":"doga","lab":1},"geometry":{"type":"Point","coordinates":[103.84751,1.30462]}},{"type":"Feature","properties":{"id":"ke-doga-21","kind":"poi","name":"Upper Peirce Reservoir Park","theme":"doga","lab":1},"geometry":{"type":"Point","coordinates":[103.81199,1.37257]}},{"type":"Feature","properties":{"id":"ke-doga-22","kind":"poi","name":"Gardens by the Bay","theme":"doga","lab":1},"geometry":{"type":"Point","coordinates":[103.8649,1.28101]}},{"type":"Feature","properties":{"id":"ke-doga-23","kind":"poi","name":"Thomson Nature Park","theme":"doga","lab":1},"geometry":{"type":"Point","coordinates":[103.82242,1.38321]}},{"type":"Feature","properties":{"id":"ke-doga-24","kind":"poi","name":"Bukit Timah Nature Reserve","theme":"doga","lab":1},"geometry":{"type":"Point","coordinates":[103.77925,1.35427]}},{"type":"Feature","properties":{"id":"ke-doga-25","kind":"poi","name":"Rifle Range Nature Park","theme":"doga","lab":1},"geometry":{"type":"Point","coordinates":[103.78199,1.34639]}},{"type":"Feature","properties":{"id":"ke-doga-26","kind":"poi","name":"Windsor Nature Park","theme":"doga","lab":1},"geometry":{"type":"Point","coordinates":[103.82352,1.35682]}},{"type":"Feature","properties":{"id":"ke-doga-27","kind":"poi","name":"Telok Blangah Hill Park","theme":"doga","lab":1},"geometry":{"type":"Point","coordinates":[103.80952,1.27784]}},{"type":"Feature","properties":{"id":"ke-doga-28","kind":"poi","name":"East Coast Park","theme":"doga","lab":1},"geometry":{"type":"Point","coordinates":[103.92227,1.30473]}},{"type":"Feature","properties":{"id":"ke-doga-29","kind":"poi","name":"Telok Kurau Park","theme":"doga","lab":1},"geometry":{"type":"Point","coordinates":[103.91419,1.31566]}},{"type":"Feature","properties":{"id":"ke-doga-30","kind":"poi","name":"Novena Park","theme":"doga","lab":1},"geometry":{"type":"Point","coordinates":[103.84283,1.32236]}},{"type":"Feature","properties":{"id":"ke-doga-31","kind":"poi","name":"Meyer Road Playground","theme":"doga","lab":1},"geometry":{"type":"Point","coordinates":[103.89423,1.29855]}},{"type":"Feature","properties":{"id":"ke-doga-32","kind":"poi","name":"Whampoa Park","theme":"doga","lab":1},"geometry":{"type":"Point","coordinates":[103.85634,1.32547]}},{"type":"Feature","properties":{"id":"ke-doga-33","kind":"poi","name":"Hillock Park","theme":"doga","lab":1},"geometry":{"type":"Point","coordinates":[103.8731,1.342]}},{"type":"Feature","properties":{"id":"ke-doga-34","kind":"poi","name":"Kheam Hock Park","theme":"doga","lab":1},"geometry":{"type":"Point","coordinates":[103.81924,1.33043]}},{"type":"Feature","properties":{"id":"ke-doga-35","kind":"poi","name":"Hooper Road Playground","theme":"doga","lab":1},"geometry":{"type":"Point","coordinates":[103.84311,1.31226]}},{"type":"Feature","properties":{"id":"ke-doga-36","kind":"poi","name":"Malcolm Park","theme":"doga","lab":1},"geometry":{"type":"Point","coordinates":[103.82704,1.32255]}},{"type":"Feature","properties":{"id":"ke-doga-37","kind":"poi","name":"Hilltop park","theme":"doga","lab":1},"geometry":{"type":"Point","coordinates":[103.79389,1.30962]}},{"type":"Feature","properties":{"id":"ke-doga-38","kind":"poi","name":"Carpmael Park","theme":"doga","lab":1},"geometry":{"type":"Point","coordinates":[103.89895,1.3115]}},{"type":"Feature","properties":{"id":"ke-doga-39","kind":"poi","name":"Upper Serangoon Park","theme":"doga","lab":1},"geometry":{"type":"Point","coordinates":[103.8752,1.35164]}},{"type":"Feature","properties":{"id":"ke-doga-40","kind":"poi","name":"Dairy Farm Nature Park","theme":"doga","lab":1},"geometry":{"type":"Point","coordinates":[103.77419,1.35928]}},{"type":"Feature","properties":{"id":"ke-doga-41","kind":"poi","name":"Jelutong Tower","theme":"doga","lab":1},"geometry":{"type":"Point","coordinates":[103.80639,1.35136]}},{"type":"Feature","properties":{"id":"ke-doga-42","kind":"poi","name":"The Pinnacle@Duxton","theme":"doga","lab":1},"geometry":{"type":"Point","coordinates":[103.84132,1.27558]}},{"type":"Feature","properties":{"id":"ke-doga-43","kind":"poi","name":"Skyville@Dawson","theme":"doga","lab":1},"geometry":{"type":"Point","coordinates":[103.80999,1.29581]}},{"type":"Feature","properties":{"id":"ke-doga-44","kind":"poi","name":"HSBC TreeTop Walk","theme":"doga","lab":1},"geometry":{"type":"Point","coordinates":[103.8114,1.36105]}},{"type":"Feature","properties":{"id":"ke-doga-45","kind":"poi","name":"Interim Park at Lengkong Enam","theme":"doga","lab":1},"geometry":{"type":"Point","coordinates":[103.91473,1.32745]}},{"type":"Feature","properties":{"id":"ke-doga-46","kind":"poi","name":"Kallang park connector","theme":"doga","lab":1},"geometry":{"type":"Point","coordinates":[103.86717,1.32089]}},{"type":"Feature","properties":{"id":"ke-doga-47","kind":"poi","name":"Botanical Garden Gallop extension","theme":"doga","lab":1},"geometry":{"type":"Point","coordinates":[103.81228,1.31246]}},{"type":"Feature","properties":{"id":"ke-doga-48","kind":"poi","name":"Skyline View","theme":"doga","lab":1},"geometry":{"type":"Point","coordinates":[103.87093,1.28051]}},{"type":"Feature","properties":{"id":"ke-doga-49","kind":"poi","name":"East Coast Park (Zone C)","theme":"doga","lab":1},"geometry":{"type":"Point","coordinates":[103.91163,1.30051]}},{"type":"Feature","properties":{"id":"ke-doga-50","kind":"poi","name":"Katong Park","theme":"doga","lab":1},"geometry":{"type":"Point","coordinates":[103.88679,1.29697]}},{"type":"Feature","properties":{"id":"ke-doga-51","kind":"poi","name":"Carmichael Road Playground","theme":"doga","lab":1},"geometry":{"type":"Point","coordinates":[103.86308,1.34267]}},{"type":"Feature","properties":{"id":"ke-doga-52","kind":"poi","name":"Taman Permata Park","theme":"doga","lab":1},"geometry":{"type":"Point","coordinates":[103.83503,1.34997]}},{"type":"Feature","properties":{"id":"ke-doga-53","kind":"poi","name":"Bishan Active Park","theme":"doga","lab":1},"geometry":{"type":"Point","coordinates":[103.84709,1.35651]}},{"type":"Feature","properties":{"id":"ke-doga-54","kind":"poi","name":"Bougainvillea Park","theme":"doga","lab":1},"geometry":{"type":"Point","coordinates":[103.80774,1.3267]}},{"type":"Feature","properties":{"id":"ke-doga-55","kind":"poi","name":"Maplewood Park","theme":"doga","lab":1},"geometry":{"type":"Point","coordinates":[103.88514,1.35255]}},{"type":"Feature","properties":{"id":"ke-doga-56","kind":"poi","name":"Mei Hwan Crescent Playground","theme":"doga","lab":1},"geometry":{"type":"Point","coordinates":[103.86175,1.35276]}},{"type":"Feature","properties":{"id":"ke-doga-57","kind":"poi","name":"Stratton Walk Playground","theme":"doga","lab":1},"geometry":{"type":"Point","coordinates":[103.86692,1.37909]}},{"type":"Feature","properties":{"id":"ke-doga-58","kind":"poi","name":"Alexandra Canal Linear Park","theme":"doga","lab":1},"geometry":{"type":"Point","coordinates":[103.81665,1.29261]}},{"type":"Feature","properties":{"id":"ke-doga-59","kind":"poi","name":"Bukit Purmei Hillock Park","theme":"doga","lab":1},"geometry":{"type":"Point","coordinates":[103.82395,1.27365]}},{"type":"Feature","properties":{"id":"ke-doga-60","kind":"poi","name":"Alexandria Hill East Neighborhood Park","theme":"doga","lab":1},"geometry":{"type":"Point","coordinates":[103.80921,1.28721]}},{"type":"Feature","properties":{"id":"ke-doga-61","kind":"poi","name":"one-north Park","theme":"doga","lab":1},"geometry":{"type":"Point","coordinates":[103.79031,1.30341]}},{"type":"Feature","properties":{"id":"ke-doga-62","kind":"poi","name":"Bedok Reservoir Park","theme":"doga","lab":1},"geometry":{"type":"Point","coordinates":[103.92682,1.34308]}},{"type":"Feature","properties":{"id":"ke-doga-63","kind":"poi","name":"Bedok Town Park","theme":"doga","lab":1},"geometry":{"type":"Point","coordinates":[103.92598,1.33471]}},{"type":"Feature","properties":{"id":"ke-doga-64","kind":"poi","name":"Road Safety Community Park","theme":"doga","lab":1},"geometry":{"type":"Point","coordinates":[103.90283,1.29794]}},{"type":"Feature","properties":{"id":"ke-doga-65","kind":"poi","name":"East Coast Park (Zone D)","theme":"doga","lab":1},"geometry":{"type":"Point","coordinates":[103.92424,1.30465]}},{"type":"Feature","properties":{"id":"ke-doga-66","kind":"poi","name":"Hougang Avenue 5 Park","theme":"doga","lab":1},"geometry":{"type":"Point","coordinates":[103.89697,1.36779]}},{"type":"Feature","properties":{"id":"ke-doga-67","kind":"poi","name":"Henry Park","theme":"doga","lab":1},"geometry":{"type":"Point","coordinates":[103.78313,1.31626]}},{"type":"Feature","properties":{"id":"ke-doga-68","kind":"poi","name":"North Bridge Garden","theme":"doga","lab":1},"geometry":{"type":"Point","coordinates":[103.86219,1.30412]}},{"type":"Feature","properties":{"id":"ke-doga-69","kind":"poi","name":"Aljunied Park","theme":"doga","lab":1},"geometry":{"type":"Point","coordinates":[103.87996,1.32945]}},{"type":"Feature","properties":{"id":"ke-doga-70","kind":"poi","name":"Lorong 40 Geylang Playground","theme":"doga","lab":1},"geometry":{"type":"Point","coordinates":[103.88938,1.31368]}},{"type":"Feature","properties":{"id":"ke-doga-71","kind":"poi","name":"N4 Teck Ghee Park","theme":"doga","lab":1},"geometry":{"type":"Point","coordinates":[103.85944,1.36732]}},{"type":"Feature","properties":{"id":"ke-doga-72","kind":"poi","name":"Hwi Yoh Green","theme":"doga","lab":1},"geometry":{"type":"Point","coordinates":[103.87187,1.36773]}},{"type":"Feature","properties":{"id":"ke-doga-73","kind":"poi","name":"Richards Avenue Park","theme":"doga","lab":1},"geometry":{"type":"Point","coordinates":[103.88213,1.36094]}},{"type":"Feature","properties":{"id":"ke-doga-74","kind":"poi","name":"Tai Keng Gardens Playground","theme":"doga","lab":1},"geometry":{"type":"Point","coordinates":[103.885,1.34627]}},{"type":"Feature","properties":{"id":"ke-doga-75","kind":"poi","name":"Toa Payoh Lorong 7 Park","theme":"doga","lab":1},"geometry":{"type":"Point","coordinates":[103.85347,1.339]}},{"type":"Feature","properties":{"id":"ke-doga-76","kind":"poi","name":"Play@Heights Park","theme":"doga","lab":1},"geometry":{"type":"Point","coordinates":[103.8442,1.33454]}},{"type":"Feature","properties":{"id":"ke-doga-77","kind":"poi","name":"Oasis @ Mulberry Park","theme":"doga","lab":1},"geometry":{"type":"Point","coordinates":[103.87844,1.33284]}},{"type":"Feature","properties":{"id":"ke-doga-78","kind":"poi","name":"Kallang Riverside Park North","theme":"doga","lab":1},"geometry":{"type":"Point","coordinates":[103.86782,1.30769]}},{"type":"Feature","properties":{"id":"ke-doga-79","kind":"poi","name":"Luxus Hills Park","theme":"doga","lab":1},"geometry":{"type":"Point","coordinates":[103.87491,1.37947]}},{"type":"Feature","properties":{"id":"ke-doga-80","kind":"poi","name":"one-north Park Rochester East","theme":"doga","lab":1},"geometry":{"type":"Point","coordinates":[103.78905,1.30548]}},{"type":"Feature","properties":{"id":"ke-doga-81","kind":"poi","name":"Chestnut Nature Park","theme":"doga","lab":1},"geometry":{"type":"Point","coordinates":[103.77952,1.37737]}},{"type":"Feature","properties":{"id":"ke-doga-82","kind":"poi","name":"one-north Park Fusionopolis North","theme":"doga","lab":1},"geometry":{"type":"Point","coordinates":[103.79055,1.3009]}},{"type":"Feature","properties":{"id":"ke-doga-83","kind":"poi","name":"Coronation Park","theme":"doga","lab":1},"geometry":{"type":"Point","coordinates":[103.79639,1.32195]}},{"type":"Feature","properties":{"id":"ke-doga-84","kind":"poi","name":"Jambol Place Park","theme":"doga","lab":1},"geometry":{"type":"Point","coordinates":[103.79017,1.27906]}},{"type":"Feature","properties":{"id":"ke-doga-85","kind":"poi","name":"Thomson Walk Playground","theme":"doga","lab":1},"geometry":{"type":"Point","coordinates":[103.83249,1.37596]}},{"type":"Feature","properties":{"id":"ke-doga-86","kind":"poi","name":"Hougang Street 61 Neighbourhood Park","theme":"doga","lab":1},"geometry":{"type":"Point","coordinates":[103.88653,1.3756]}},{"type":"Feature","properties":{"id":"ke-doga-87","kind":"poi","name":"Lower Peirce Reservoir Park","theme":"doga","lab":1},"geometry":{"type":"Point","coordinates":[103.82644,1.36919]}},{"type":"Feature","properties":{"id":"ke-doga-88","kind":"poi","name":"Braddell Park","theme":"doga","lab":1},"geometry":{"type":"Point","coordinates":[103.8451,1.33936]}},{"type":"Feature","properties":{"id":"ke-doga-89","kind":"poi","name":"Jalan Daud Park","theme":"doga","lab":1},"geometry":{"type":"Point","coordinates":[103.90715,1.3259]}},{"type":"Feature","properties":{"id":"ke-gastronomi-0","kind":"poi","name":"Jumbo Seafood","theme":"gastronomi","lab":1},"geometry":{"type":"Point","coordinates":[103.84827,1.28926]}},{"type":"Feature","properties":{"id":"ke-gastronomi-1","kind":"poi","name":"Jumbo Seafood @ Dempsey","theme":"gastronomi","lab":1},"geometry":{"type":"Point","coordinates":[103.80998,1.3043]}},{"type":"Feature","properties":{"id":"ke-gastronomi-2","kind":"poi","name":"Rhubarb","theme":"gastronomi","lab":1},"geometry":{"type":"Point","coordinates":[103.84307,1.27937]}},{"type":"Feature","properties":{"id":"ke-gastronomi-3","kind":"poi","name":"Jumbo Seafood (Riverside Point)","theme":"gastronomi","lab":1},"geometry":{"type":"Point","coordinates":[103.84469,1.2889]}},{"type":"Feature","properties":{"id":"ke-gastronomi-4","kind":"poi","name":"Founder Bak Kut Teh","theme":"gastronomi","lab":1},"geometry":{"type":"Point","coordinates":[103.85109,1.32435]}},{"type":"Feature","properties":{"id":"ke-gastronomi-5","kind":"poi","name":"Tim Ho Wan","theme":"gastronomi","lab":1},"geometry":{"type":"Point","coordinates":[103.85356,1.29262]}},{"type":"Feature","properties":{"id":"ke-gastronomi-6","kind":"poi","name":"VeganBurg","theme":"gastronomi","lab":1},"geometry":{"type":"Point","coordinates":[103.90539,1.32098]}},{"type":"Feature","properties":{"id":"ke-gastronomi-7","kind":"poi","name":"il Cielo","theme":"gastronomi","lab":1},"geometry":{"type":"Point","coordinates":[103.82938,1.30589]}},{"type":"Feature","properties":{"id":"ke-gastronomi-8","kind":"poi","name":"Warong Nasi Pariaman","theme":"gastronomi","lab":1},"geometry":{"type":"Point","coordinates":[103.85916,1.30299]}},{"type":"Feature","properties":{"id":"ke-gastronomi-9","kind":"poi","name":"Starbucks","theme":"gastronomi","lab":1},"geometry":{"type":"Point","coordinates":[103.84426,1.31969]}},{"type":"Feature","properties":{"id":"ke-gastronomi-10","kind":"poi","name":"The Alkaff Mansion","theme":"gastronomi","lab":1},"geometry":{"type":"Point","coordinates":[103.81326,1.27888]}},{"type":"Feature","properties":{"id":"ke-gastronomi-11","kind":"poi","name":"Bismillah Biryani","theme":"gastronomi","lab":1},"geometry":{"type":"Point","coordinates":[103.85369,1.30505]}},{"type":"Feature","properties":{"id":"ke-gastronomi-12","kind":"poi","name":"Boon Tong Kee","theme":"gastronomi","lab":1},"geometry":{"type":"Point","coordinates":[103.84942,1.32552]}},{"type":"Feature","properties":{"id":"ke-gastronomi-13","kind":"poi","name":"Marine Parade Market","theme":"gastronomi","lab":1},"geometry":{"type":"Point","coordinates":[103.90634,1.30218]}},{"type":"Feature","properties":{"id":"ke-gastronomi-14","kind":"poi","name":"Serangoon Garden Market","theme":"gastronomi","lab":1},"geometry":{"type":"Point","coordinates":[103.86658,1.36319]}},{"type":"Feature","properties":{"id":"ke-gastronomi-15","kind":"poi","name":"Blk 117 Aljunied Ave 2 Market","theme":"gastronomi","lab":1},"geometry":{"type":"Point","coordinates":[103.88718,1.32065]}},{"type":"Feature","properties":{"id":"ke-gastronomi-16","kind":"poi","name":"Holland Village Market","theme":"gastronomi","lab":1},"geometry":{"type":"Point","coordinates":[103.79476,1.31102]}},{"type":"Feature","properties":{"id":"ke-gastronomi-17","kind":"poi","name":"Kebun Baru Market","theme":"gastronomi","lab":1},"geometry":{"type":"Point","coordinates":[103.83918,1.36684]}},{"type":"Feature","properties":{"id":"ke-gastronomi-18","kind":"poi","name":"Just Anthony Fine Chinese Antique Furniture","theme":"gastronomi","lab":1},"geometry":{"type":"Point","coordinates":[103.88,1.34903]}},{"type":"Feature","properties":{"id":"ke-gastronomi-19","kind":"poi","name":"Kim Keat Palm Market","theme":"gastronomi","lab":1},"geometry":{"type":"Point","coordinates":[103.85719,1.33522]}},{"type":"Feature","properties":{"id":"ke-gastronomi-20","kind":"poi","name":"Redhill Wet Market","theme":"gastronomi","lab":1},"geometry":{"type":"Point","coordinates":[103.81835,1.28782]}},{"type":"Feature","properties":{"id":"ke-gastronomi-21","kind":"poi","name":"Telok Blangah Market","theme":"gastronomi","lab":1},"geometry":{"type":"Point","coordinates":[103.80795,1.27389]}},{"type":"Feature","properties":{"id":"ke-gastronomi-22","kind":"poi","name":"Ghim Moh Road Market","theme":"gastronomi","lab":1},"geometry":{"type":"Point","coordinates":[103.78837,1.311]}},{"type":"Feature","properties":{"id":"ke-gastronomi-23","kind":"poi","name":"Haig Road Market","theme":"gastronomi","lab":1},"geometry":{"type":"Point","coordinates":[103.89558,1.31513]}},{"type":"Feature","properties":{"id":"ke-gastronomi-24","kind":"poi","name":"Pasar 630 Bedok Reservoir Road","theme":"gastronomi","lab":1},"geometry":{"type":"Point","coordinates":[103.91425,1.3328]}},{"type":"Feature","properties":{"id":"ke-gastronomi-25","kind":"poi","name":"Chong Boon Market","theme":"gastronomi","lab":1},"geometry":{"type":"Point","coordinates":[103.85637,1.36827]}},{"type":"Feature","properties":{"id":"ke-gastronomi-26","kind":"poi","name":"Lorong 4 Blk 93 Market and Hawker Centre","theme":"gastronomi","lab":1},"geometry":{"type":"Point","coordinates":[103.84956,1.33845]}},{"type":"Feature","properties":{"id":"ke-gastronomi-27","kind":"poi","name":"Ang Mo Kio Blk 724 Wet Market","theme":"gastronomi","lab":1},"geometry":{"type":"Point","coordinates":[103.84658,1.37239]}},{"type":"Feature","properties":{"id":"ke-gastronomi-28","kind":"poi","name":"Serangoon Central Village","theme":"gastronomi","lab":1},"geometry":{"type":"Point","coordinates":[103.87093,1.35317]}},{"type":"Feature","properties":{"id":"ke-gastronomi-29","kind":"poi","name":"Kallang Estate Fresh Market and Food Centre","theme":"gastronomi","lab":1},"geometry":{"type":"Point","coordinates":[103.88399,1.30737]}},{"type":"Feature","properties":{"id":"ke-gastronomi-30","kind":"poi","name":"Empress Market","theme":"gastronomi","lab":1},"geometry":{"type":"Point","coordinates":[103.80563,1.31625]}},{"type":"Feature","properties":{"id":"ke-gastronomi-31","kind":"poi","name":"Shunfu Mart","theme":"gastronomi","lab":1},"geometry":{"type":"Point","coordinates":[103.83694,1.35202]}},{"type":"Feature","properties":{"id":"ke-gastronomi-32","kind":"poi","name":"Tiong Bahru Market","theme":"gastronomi","lab":1},"geometry":{"type":"Point","coordinates":[103.83243,1.28479]}},{"type":"Feature","properties":{"id":"ke-alisveris-0","kind":"poi","name":"The Star Vista","theme":"alisveris","lab":1},"geometry":{"type":"Point","coordinates":[103.78838,1.308]}},{"type":"Feature","properties":{"id":"ke-alisveris-1","kind":"poi","name":"Takashimaya","theme":"alisveris","lab":1},"geometry":{"type":"Point","coordinates":[103.83532,1.30252]}},{"type":"Feature","properties":{"id":"ke-alisveris-2","kind":"poi","name":"Isetan","theme":"alisveris","lab":1},"geometry":{"type":"Point","coordinates":[103.83168,1.30559]}},{"type":"Feature","properties":{"id":"ke-alisveris-3","kind":"poi","name":"Yue Hwa","theme":"alisveris","lab":1},"geometry":{"type":"Point","coordinates":[103.8435,1.28493]}},{"type":"Feature","properties":{"id":"ke-alisveris-4","kind":"poi","name":"Mustafa Centre","theme":"alisveris","lab":1},"geometry":{"type":"Point","coordinates":[103.85532,1.31012]}},{"type":"Feature","properties":{"id":"ke-alisveris-5","kind":"poi","name":"Sim Lim Square","theme":"alisveris","lab":1},"geometry":{"type":"Point","coordinates":[103.85303,1.30303]}},{"type":"Feature","properties":{"id":"ke-alisveris-6","kind":"poi","name":"Hougang Mall","theme":"alisveris","lab":1},"geometry":{"type":"Point","coordinates":[103.89373,1.37244]}},{"type":"Feature","properties":{"id":"ke-alisveris-7","kind":"poi","name":"Heartland Mall","theme":"alisveris","lab":1},"geometry":{"type":"Point","coordinates":[103.8852,1.3595]}},{"type":"Feature","properties":{"id":"ke-alisveris-8","kind":"poi","name":"Queensway Shopping Centre","theme":"alisveris","lab":1},"geometry":{"type":"Point","coordinates":[103.80348,1.28755]}},{"type":"Feature","properties":{"id":"ke-alisveris-9","kind":"poi","name":"Parkway Parade","theme":"alisveris","lab":1},"geometry":{"type":"Point","coordinates":[103.90529,1.30138]}},{"type":"Feature","properties":{"id":"ke-alisveris-10","kind":"poi","name":"i12 Katong","theme":"alisveris","lab":1},"geometry":{"type":"Point","coordinates":[103.90504,1.30517]}},{"type":"Feature","properties":{"id":"ke-alisveris-11","kind":"poi","name":"OUE Downtown","theme":"alisveris","lab":1},"geometry":{"type":"Point","coordinates":[103.84867,1.2774]}},{"type":"Feature","properties":{"id":"ke-alisveris-12","kind":"poi","name":"City Square Mall","theme":"alisveris","lab":1},"geometry":{"type":"Point","coordinates":[103.85658,1.31139]}},{"type":"Feature","properties":{"id":"ke-alisveris-13","kind":"poi","name":"Thomson Plaza","theme":"alisveris","lab":1},"geometry":{"type":"Point","coordinates":[103.8308,1.3546]}},{"type":"Feature","properties":{"id":"ke-alisveris-14","kind":"poi","name":"Icon Village","theme":"alisveris","lab":1},"geometry":{"type":"Point","coordinates":[103.84454,1.27516]}},{"type":"Feature","properties":{"id":"ke-alisveris-15","kind":"poi","name":"Ang Mo Kio Hub","theme":"alisveris","lab":1},"geometry":{"type":"Point","coordinates":[103.84834,1.36944]}},{"type":"Feature","properties":{"id":"ke-alisveris-16","kind":"poi","name":"Leisure Park Kallang","theme":"alisveris","lab":1},"geometry":{"type":"Point","coordinates":[103.87655,1.30218]}},{"type":"Feature","properties":{"id":"ke-alisveris-17","kind":"poi","name":"Great World City","theme":"alisveris","lab":1},"geometry":{"type":"Point","coordinates":[103.83189,1.29361]}},{"type":"Feature","properties":{"id":"ke-alisveris-18","kind":"poi","name":"HDB Hub","theme":"alisveris","lab":1},"geometry":{"type":"Point","coordinates":[103.84848,1.33199]}},{"type":"Feature","properties":{"id":"ke-alisveris-19","kind":"poi","name":"Tiong Bahru Plaza","theme":"alisveris","lab":1},"geometry":{"type":"Point","coordinates":[103.82733,1.2864]}},{"type":"Feature","properties":{"id":"ke-alisveris-20","kind":"poi","name":"Paragon","theme":"alisveris","lab":1},"geometry":{"type":"Point","coordinates":[103.83564,1.30383]}},{"type":"Feature","properties":{"id":"ke-alisveris-21","kind":"poi","name":"nex","theme":"alisveris","lab":1},"geometry":{"type":"Point","coordinates":[103.87232,1.35045]}},{"type":"Feature","properties":{"id":"ke-alisveris-22","kind":"poi","name":"Shaw Plaza","theme":"alisveris","lab":1},"geometry":{"type":"Point","coordinates":[103.85126,1.32496]}},{"type":"Feature","properties":{"id":"ke-alisveris-23","kind":"poi","name":"Paya Lebar Square","theme":"alisveris","lab":1},"geometry":{"type":"Point","coordinates":[103.8926,1.31881]}},{"type":"Feature","properties":{"id":"ke-alisveris-24","kind":"poi","name":"CityLink Mall","theme":"alisveris","lab":1},"geometry":{"type":"Point","coordinates":[103.85454,1.2922]}},{"type":"Feature","properties":{"id":"ke-alisveris-25","kind":"poi","name":"Marina Square","theme":"alisveris","lab":1},"geometry":{"type":"Point","coordinates":[103.85753,1.29129]}},{"type":"Feature","properties":{"id":"ke-alisveris-26","kind":"poi","name":"Junction 8","theme":"alisveris","lab":1},"geometry":{"type":"Point","coordinates":[103.84866,1.35059]}},{"type":"Feature","properties":{"id":"ke-alisveris-27","kind":"poi","name":"Millenia Walk","theme":"alisveris","lab":1},"geometry":{"type":"Point","coordinates":[103.85932,1.29264]}},{"type":"Feature","properties":{"id":"ke-alisveris-28","kind":"poi","name":"VivoCity","theme":"alisveris","lab":1},"geometry":{"type":"Point","coordinates":[103.82209,1.26437]}},{"type":"Feature","properties":{"id":"ke-alisveris-29","kind":"poi","name":"The Poiz Centre","theme":"alisveris","lab":1},"geometry":{"type":"Point","coordinates":[103.86857,1.33144]}},{"type":"Feature","properties":{"id":"ke-alisveris-31","kind":"poi","name":"18 Tai Seng","theme":"alisveris","lab":1},"geometry":{"type":"Point","coordinates":[103.88883,1.3363]}},{"type":"Feature","properties":{"id":"ke-alisveris-37","kind":"poi","name":"Oxley bizhub 2","theme":"alisveris","lab":1},"geometry":{"type":"Point","coordinates":[103.89193,1.33199]}},{"type":"Feature","properties":{"id":"ke-alisveris-38","kind":"poi","name":"Bee Huat Department Store","theme":"alisveris","lab":1},"geometry":{"type":"Point","coordinates":[103.9145,1.33326]}},{"type":"Feature","properties":{"id":"ke-alisveris-41","kind":"poi","name":"myCK","theme":"alisveris","lab":1},"geometry":{"type":"Point","coordinates":[103.84675,1.37171]}},{"type":"Feature","properties":{"id":"ke-alisveris-43","kind":"poi","name":"Hougang Green Shopping Mall","theme":"alisveris","lab":1},"geometry":{"type":"Point","coordinates":[103.88793,1.37929]}},{"type":"Feature","properties":{"id":"ke-alisveris-44","kind":"poi","name":"Old Airport Road Food Centre & Shopping Mall","theme":"alisveris","lab":1},"geometry":{"type":"Point","coordinates":[103.88583,1.30826]}},{"type":"Feature","properties":{"id":"ke-alisveris-47","kind":"poi","name":"Velocity @ Novena Square","theme":"alisveris","lab":1},"geometry":{"type":"Point","coordinates":[103.84383,1.31979]}},{"type":"Feature","properties":{"id":"ke-alisveris-48","kind":"poi","name":"Fusionopolis 1","theme":"alisveris","lab":1},"geometry":{"type":"Point","coordinates":[103.78757,1.29924]}},{"type":"Feature","properties":{"id":"ke-alisveris-49","kind":"poi","name":"Grandlink Square","theme":"alisveris","lab":1},"geometry":{"type":"Point","coordinates":[103.89153,1.31429]}},{"type":"Feature","properties":{"id":"ke-alisveris-50","kind":"poi","name":"The Oasis","theme":"alisveris","lab":1},"geometry":{"type":"Point","coordinates":[103.79037,1.28768]}},{"type":"Feature","properties":{"id":"ke-alisveris-51","kind":"poi","name":"Alexandra Retail Centre","theme":"alisveris","lab":1},"geometry":{"type":"Point","coordinates":[103.80141,1.27386]}},{"type":"Feature","properties":{"id":"ke-alisveris-52","kind":"poi","name":"Eunos Crescent Market","theme":"alisveris","lab":1},"geometry":{"type":"Point","coordinates":[103.90449,1.32036]}},{"type":"Feature","properties":{"id":"ke-alisveris-53","kind":"poi","name":"The Woodleigh Mall","theme":"alisveris","lab":1},"geometry":{"type":"Point","coordinates":[103.87171,1.3387]}},{"type":"Feature","properties":{"id":"ke-alisveris-54","kind":"poi","name":"NTP+","theme":"alisveris","lab":1},"geometry":{"type":"Point","coordinates":[103.86171,1.35138]}},{"type":"Feature","properties":{"id":"ke-alisveris-55","kind":"poi","name":"Dawson Place","theme":"alisveris","lab":1},"geometry":{"type":"Point","coordinates":[103.8111,1.29267]}},{"type":"Feature","properties":{"id":"ke-alisveris-56","kind":"poi","name":"Cluny Court","theme":"alisveris","lab":1},"geometry":{"type":"Point","coordinates":[103.81427,1.32264]}},{"type":"Feature","properties":{"id":"ke-otel-0","kind":"poi","name":"Four Chain View Hotel","theme":"otel","lab":1},"geometry":{"type":"Point","coordinates":[103.89104,1.31497]}},{"type":"Feature","properties":{"id":"ke-otel-1","kind":"poi","name":"Hotel Clover (The Arts)","theme":"otel","lab":1},"geometry":{"type":"Point","coordinates":[103.84814,1.28754]}},{"type":"Feature","properties":{"id":"ke-otel-2","kind":"poi","name":"Harbour Ville Hotel Hamilton","theme":"otel","lab":1},"geometry":{"type":"Point","coordinates":[103.86152,1.31154]}},{"type":"Feature","properties":{"id":"ke-otel-3","kind":"poi","name":"Lloyd's Inn","theme":"otel","lab":1},"geometry":{"type":"Point","coordinates":[103.84037,1.29726]}},{"type":"Feature","properties":{"id":"ke-otel-4","kind":"poi","name":"New Majestic Hotel","theme":"otel","lab":1},"geometry":{"type":"Point","coordinates":[103.84036,1.27931]}},{"type":"Feature","properties":{"id":"ke-otel-5","kind":"poi","name":"K Hotel 12","theme":"otel","lab":1},"geometry":{"type":"Point","coordinates":[103.87755,1.31132]}},{"type":"Feature","properties":{"id":"ke-otel-6","kind":"poi","name":"Conrad Singapore Marina Bay","theme":"otel","lab":1},"geometry":{"type":"Point","coordinates":[103.85877,1.29353]}},{"type":"Feature","properties":{"id":"ke-otel-7","kind":"poi","name":"Hotel 81 (Dickson)","theme":"otel","lab":1},"geometry":{"type":"Point","coordinates":[103.85427,1.3049]}},{"type":"Feature","properties":{"id":"ke-otel-8","kind":"poi","name":"Hotel 81 (Gold)","theme":"otel","lab":1},"geometry":{"type":"Point","coordinates":[103.88112,1.31196]}},{"type":"Feature","properties":{"id":"ke-otel-9","kind":"poi","name":"Mandarin Oriental Singapore","theme":"otel","lab":1},"geometry":{"type":"Point","coordinates":[103.85832,1.29066]}},{"type":"Feature","properties":{"id":"ke-otel-10","kind":"poi","name":"Goodwood Park Hotel","theme":"otel","lab":1},"geometry":{"type":"Point","coordinates":[103.83411,1.30822]}},{"type":"Feature","properties":{"id":"ke-otel-11","kind":"poi","name":"Grand Park City Hall","theme":"otel","lab":1},"geometry":{"type":"Point","coordinates":[103.85012,1.29263]}},{"type":"Feature","properties":{"id":"ke-otel-12","kind":"poi","name":"Travelodge Harbourfront Singapore","theme":"otel","lab":1},"geometry":{"type":"Point","coordinates":[103.8238,1.26631]}},{"type":"Feature","properties":{"id":"ke-otel-13","kind":"poi","name":"Fragrance Hotel (Oasis)","theme":"otel","lab":1},"geometry":{"type":"Point","coordinates":[103.84869,1.32584]}},{"type":"Feature","properties":{"id":"ke-otel-14","kind":"poi","name":"Aqueen Hotel (Balestier)","theme":"otel","lab":1},"geometry":{"type":"Point","coordinates":[103.84991,1.32523]}},{"type":"Feature","properties":{"id":"ke-otel-15","kind":"poi","name":"The Warehouse","theme":"otel","lab":1},"geometry":{"type":"Point","coordinates":[103.83746,1.28921]}},{"type":"Feature","properties":{"id":"ke-otel-16","kind":"poi","name":"Shangri-La's Rasa Sentosa Resort & Spa","theme":"otel","lab":1},"geometry":{"type":"Point","coordinates":[103.80981,1.25737]}},{"type":"Feature","properties":{"id":"ke-yurt-0","kind":"poi","name":"G4 Station Backpackers Hostel","theme":"yurt","lab":1},"geometry":{"type":"Point","coordinates":[103.84991,1.30437]}},{"type":"Feature","properties":{"id":"ke-yurt-1","kind":"poi","name":"Lodge 41","theme":"yurt","lab":1},"geometry":{"type":"Point","coordinates":[103.88008,1.31151]}},{"type":"Feature","properties":{"id":"ke-yurt-2","kind":"poi","name":"Margaret Drive Dormitory","theme":"yurt","lab":1},"geometry":{"type":"Point","coordinates":[103.80478,1.29898]}},{"type":"Feature","properties":{"id":"ke-yurt-3","kind":"poi","name":"7 Wonders Hostel @ Boat Quay","theme":"yurt","lab":1},"geometry":{"type":"Point","coordinates":[103.84817,1.28698]}},{"type":"Feature","properties":{"id":"ke-yurt-4","kind":"poi","name":"Beat. Sports Hostel","theme":"yurt","lab":1},"geometry":{"type":"Point","coordinates":[103.8589,1.31065]}},{"type":"Feature","properties":{"id":"ke-yurt-5","kind":"poi","name":"Happy Snail Hostel","theme":"yurt","lab":1},"geometry":{"type":"Point","coordinates":[103.83107,1.2773]}},{"type":"Feature","properties":{"id":"ke-yurt-6","kind":"poi","name":"Tree in Lodge","theme":"yurt","lab":1},"geometry":{"type":"Point","coordinates":[103.85843,1.30271]}},{"type":"Feature","properties":{"id":"ke-yurt-7","kind":"poi","name":"yo:HA@Henderson","theme":"yurt","lab":1},"geometry":{"type":"Point","coordinates":[103.82044,1.28562]}},{"type":"Feature","properties":{"id":"ke-yurt-8","kind":"poi","name":"yo:HA Hostel @ Evans","theme":"yurt","lab":1},"geometry":{"type":"Point","coordinates":[103.8204,1.31867]}},{"type":"Feature","properties":{"id":"ke-yurt-9","kind":"poi","name":"Joyfor Singapore","theme":"yurt","lab":1},"geometry":{"type":"Point","coordinates":[103.87396,1.31118]}},{"type":"Feature","properties":{"id":"ke-yurt-10","kind":"poi","name":"Beary Best! Hostel","theme":"yurt","lab":1},"geometry":{"type":"Point","coordinates":[103.84538,1.28385]}},{"type":"Feature","properties":{"id":"ke-yurt-11","kind":"poi","name":"Betel Box Backpackers Hostel","theme":"yurt","lab":1},"geometry":{"type":"Point","coordinates":[103.90027,1.31227]}},{"type":"Feature","properties":{"id":"ke-yurt-12","kind":"poi","name":"Hawaii Hostel","theme":"yurt","lab":1},"geometry":{"type":"Point","coordinates":[103.85224,1.30157]}},{"type":"Feature","properties":{"id":"ke-yurt-13","kind":"poi","name":"Heritage Hostel","theme":"yurt","lab":1},"geometry":{"type":"Point","coordinates":[103.845,1.28137]}},{"type":"Feature","properties":{"id":"ke-yurt-14","kind":"poi","name":"Gap Year Hostel","theme":"yurt","lab":1},"geometry":{"type":"Point","coordinates":[103.85937,1.31559]}},{"type":"Feature","properties":{"id":"ke-yurt-15","kind":"poi","name":"Nano Hostel","theme":"yurt","lab":1},"geometry":{"type":"Point","coordinates":[103.88372,1.31613]}},{"type":"Feature","properties":{"id":"ke-yurt-16","kind":"poi","name":"Happy Hostel","theme":"yurt","lab":1},"geometry":{"type":"Point","coordinates":[103.88624,1.33877]}},{"type":"Feature","properties":{"id":"ke-yurt-17","kind":"poi","name":"Hmlet","theme":"yurt","lab":1},"geometry":{"type":"Point","coordinates":[103.903,1.30889]}},{"type":"Feature","properties":{"id":"ke-yurt-18","kind":"poi","name":"Balestier Students' Hostel","theme":"yurt","lab":1},"geometry":{"type":"Point","coordinates":[103.84952,1.32604]}},{"type":"Feature","properties":{"id":"ke-yurt-19","kind":"poi","name":"Bayley Block","theme":"yurt","lab":1},"geometry":{"type":"Point","coordinates":[103.84439,1.34679]}},{"type":"Feature","properties":{"id":"ke-yurt-20","kind":"poi","name":"Block 7","theme":"yurt","lab":1},"geometry":{"type":"Point","coordinates":[103.78121,1.29083]}},{"type":"Feature","properties":{"id":"ke-yurt-21","kind":"poi","name":"Matchbox @ 100 Ulu Pandan","theme":"yurt","lab":1},"geometry":{"type":"Point","coordinates":[103.77929,1.32183]}},{"type":"Feature","properties":{"id":"ke-yurt-22","kind":"poi","name":"ACS Oldham Hall","theme":"yurt","lab":1},"geometry":{"type":"Point","coordinates":[103.83489,1.31994]}},{"type":"Feature","properties":{"id":"ke-yurt-23","kind":"poi","name":"St Andrew’s Hall","theme":"yurt","lab":1},"geometry":{"type":"Point","coordinates":[103.86362,1.33415]}},{"type":"Feature","properties":{"id":"ke-kamu-0","kind":"poi","name":"SPRING Singapore","theme":"kamu","lab":1},"geometry":{"type":"Point","coordinates":[103.79009,1.29828]}},{"type":"Feature","properties":{"id":"ke-kamu-1","kind":"poi","name":"Ministry of Digital Development and Information","theme":"kamu","lab":1},"geometry":{"type":"Point","coordinates":[103.84828,1.29085]}},{"type":"Feature","properties":{"id":"ke-kamu-2","kind":"poi","name":"Ministry of Home Affairs","theme":"kamu","lab":1},"geometry":{"type":"Point","coordinates":[103.84495,1.32382]}},{"type":"Feature","properties":{"id":"ke-kamu-3","kind":"poi","name":"Ministry of Manpower","theme":"kamu","lab":1},"geometry":{"type":"Point","coordinates":[103.84423,1.28744]}},{"type":"Feature","properties":{"id":"ke-kamu-4","kind":"poi","name":"Majlis Ugama Islam Singapura","theme":"kamu","lab":1},"geometry":{"type":"Point","coordinates":[103.85237,1.34298]}},{"type":"Feature","properties":{"id":"ke-kamu-5","kind":"poi","name":"Tote Board","theme":"kamu","lab":1},"geometry":{"type":"Point","coordinates":[103.85125,1.30104]}},{"type":"Feature","properties":{"id":"ke-kamu-7","kind":"poi","name":"MAS Building","theme":"kamu","lab":1},"geometry":{"type":"Point","coordinates":[103.84664,1.27467]}},{"type":"Feature","properties":{"id":"ke-kamu-8","kind":"poi","name":"Land Transport Authority (Hampshire)","theme":"kamu","lab":1},"geometry":{"type":"Point","coordinates":[103.84889,1.30863]}},{"type":"Feature","properties":{"id":"ke-kamu-9","kind":"poi","name":"Ministry of Foreign Affairs, Singapore","theme":"kamu","lab":1},"geometry":{"type":"Point","coordinates":[103.81849,1.30431]}},{"type":"Feature","properties":{"id":"ke-kamu-10","kind":"poi","name":"NTU Centre for Contemporary Art Singapore","theme":"kamu","lab":1},"geometry":{"type":"Point","coordinates":[103.80406,1.27708]}},{"type":"Feature","properties":{"id":"ke-kamu-11","kind":"poi","name":"MOM Services Centre","theme":"kamu","lab":1},"geometry":{"type":"Point","coordinates":[103.86948,1.32687]}},{"type":"Feature","properties":{"id":"ke-kamu-12","kind":"poi","name":"Bukit Merah Branch Office","theme":"kamu","lab":1},"geometry":{"type":"Point","coordinates":[103.81762,1.28313]}},{"type":"Feature","properties":{"id":"ke-kamu-13","kind":"poi","name":"Maersk Line Ship Management","theme":"kamu","lab":1},"geometry":{"type":"Point","coordinates":[103.84138,1.27349]}},{"type":"Feature","properties":{"id":"ke-kamu-14","kind":"poi","name":"Potong Pasir Town Council","theme":"kamu","lab":1},"geometry":{"type":"Point","coordinates":[103.86569,1.33576]}},{"type":"Feature","properties":{"id":"ke-kamu-15","kind":"poi","name":"Tobacco Regulation Branch","theme":"kamu","lab":1},"geometry":{"type":"Point","coordinates":[103.79312,1.3017]}},{"type":"Feature","properties":{"id":"ke-kamu-16","kind":"poi","name":"People's Association","theme":"kamu","lab":1},"geometry":{"type":"Point","coordinates":[103.85915,1.30856]}},{"type":"Feature","properties":{"id":"ke-kamu-17","kind":"poi","name":"My Nice Home Gallery","theme":"kamu","lab":1},"geometry":{"type":"Point","coordinates":[103.84928,1.33204]}},{"type":"Feature","properties":{"id":"ke-kamu-18","kind":"poi","name":"Techplace 1","theme":"kamu","lab":1},"geometry":{"type":"Point","coordinates":[103.85674,1.35989]}},{"type":"Feature","properties":{"id":"ke-kamu-19","kind":"poi","name":"HDB Branch Office","theme":"kamu","lab":1},"geometry":{"type":"Point","coordinates":[103.87882,1.31678]}},{"type":"Feature","properties":{"id":"ke-kamu-20","kind":"poi","name":"Jalan Besar Town Council","theme":"kamu","lab":1},"geometry":{"type":"Point","coordinates":[103.8704,1.32178]}},{"type":"Feature","properties":{"id":"ke-kamu-21","kind":"poi","name":"Ang Mo Kio Town Council","theme":"kamu","lab":1},"geometry":{"type":"Point","coordinates":[103.88297,1.37438]}},{"type":"Feature","properties":{"id":"ke-kamu-22","kind":"poi","name":"Housing Development Board (Queenstown)","theme":"kamu","lab":1},"geometry":{"type":"Point","coordinates":[103.80478,1.29748]}},{"type":"Feature","properties":{"id":"ke-kamu-23","kind":"poi","name":"Maritime and Port Authority of Singapore","theme":"kamu","lab":1},"geometry":{"type":"Point","coordinates":[103.80131,1.27361]}},{"type":"Feature","properties":{"id":"ke-kamu-24","kind":"poi","name":"National Council of Social Service","theme":"kamu","lab":1},"geometry":{"type":"Point","coordinates":[103.78945,1.31205]}},{"type":"Feature","properties":{"id":"ke-kamu-25","kind":"poi","name":"Public Transport Council","theme":"kamu","lab":1},"geometry":{"type":"Point","coordinates":[103.83902,1.33311]}},{"type":"Feature","properties":{"id":"ke-kamu-26","kind":"poi","name":"National Arts Council","theme":"kamu","lab":1},"geometry":{"type":"Point","coordinates":[103.88482,1.30395]}},{"type":"Feature","properties":{"id":"ke-kamu-27","kind":"poi","name":"Sport Singapore","theme":"kamu","lab":1},"geometry":{"type":"Point","coordinates":[103.87519,1.30311]}},{"type":"Feature","properties":{"id":"ke-kamu-28","kind":"poi","name":"Singapore Nursing Board","theme":"kamu","lab":1},"geometry":{"type":"Point","coordinates":[103.83372,1.28008]}},{"type":"Feature","properties":{"id":"ke-kamu-29","kind":"poi","name":"Immigration & Checkpoints Authority","theme":"kamu","lab":1},"geometry":{"type":"Point","coordinates":[103.8605,1.26604]}},{"type":"Feature","properties":{"id":"ke-kamu-30","kind":"poi","name":"Immigration & Checkpoints Authority","theme":"kamu","lab":1},"geometry":{"type":"Point","coordinates":[103.86326,1.27077]}},{"type":"Feature","properties":{"id":"ke-kamu-31","kind":"poi","name":"Immigration & Checkpoints Authority","theme":"kamu","lab":1},"geometry":{"type":"Point","coordinates":[103.82023,1.26343]}},{"type":"Feature","properties":{"id":"ke-kamu-32","kind":"poi","name":"Immigration & Checkpoints Authority","theme":"kamu","lab":1},"geometry":{"type":"Point","coordinates":[103.82712,1.26624]}},{"type":"Feature","properties":{"id":"ke-kamu-33","kind":"poi","name":"HDB Bishan Branch Office","theme":"kamu","lab":1},"geometry":{"type":"Point","coordinates":[103.84988,1.34959]}},{"type":"Feature","properties":{"id":"ke-kamu-34","kind":"poi","name":"Ang Mo Kio Town Council","theme":"kamu","lab":1},"geometry":{"type":"Point","coordinates":[103.85484,1.37242]}},{"type":"Feature","properties":{"id":"ke-kamu-35","kind":"poi","name":"Ang Mo Kio Town Council (Avenue 1 Office)","theme":"kamu","lab":1},"geometry":{"type":"Point","coordinates":[103.84849,1.36465]}},{"type":"Feature","properties":{"id":"ke-kamu-36","kind":"poi","name":"South East CDC","theme":"kamu","lab":1},"geometry":{"type":"Point","coordinates":[103.89693,1.31652]}},{"type":"Feature","properties":{"id":"ke-kamu-37","kind":"poi","name":"Defence Technology Tower B","theme":"kamu","lab":1},"geometry":{"type":"Point","coordinates":[103.81411,1.28029]}},{"type":"Feature","properties":{"id":"ke-kamu-38","kind":"poi","name":"Ministry of Education Headquarters (Grange Road)","theme":"kamu","lab":1},"geometry":{"type":"Point","coordinates":[103.82879,1.2978]}},{"type":"Feature","properties":{"id":"ke-kamu-39","kind":"poi","name":"DSO National Laboratories","theme":"kamu","lab":1},"geometry":{"type":"Point","coordinates":[103.78712,1.28956]}},{"type":"Feature","properties":{"id":"ke-kamu-40","kind":"poi","name":"HDB Branch (Hougang)","theme":"kamu","lab":1},"geometry":{"type":"Point","coordinates":[103.8932,1.37221]}},{"type":"Feature","properties":{"id":"ke-kamu-41","kind":"poi","name":"Singapore Examinations and Assessment Board","theme":"kamu","lab":1},"geometry":{"type":"Point","coordinates":[103.8303,1.28797]}},{"type":"Feature","properties":{"id":"ke-kamu-42","kind":"poi","name":"National Parks Board Headquarters","theme":"kamu","lab":1},"geometry":{"type":"Point","coordinates":[103.81626,1.31578]}},{"type":"Feature","properties":{"id":"ke-ic-tarihi-0","kind":"poi","name":"Merlion Park","theme":"tarihi","lab":1},"geometry":{"type":"Point","coordinates":[103.81877,1.25412]}},{"type":"Feature","properties":{"id":"ke-ic-modern-0","kind":"poi","name":"Marina Bay Sands","theme":"modern","lab":1},"geometry":{"type":"Point","coordinates":[103.85747,1.28177]}},{"type":"Feature","properties":{"id":"ke-ic-modern-1","kind":"poi","name":"Gardens by the Bay","theme":"modern","lab":1},"geometry":{"type":"Point","coordinates":[103.86897,1.28013]}},{"type":"Feature","properties":{"id":"ke-ic-modern-2","kind":"poi","name":"ArtScience Museum","theme":"modern","lab":1},"geometry":{"type":"Point","coordinates":[103.85923,1.28614]}},{"type":"Feature","properties":{"id":"ke-ic-modern-3","kind":"poi","name":"Singapore Flyer","theme":"modern","lab":1},"geometry":{"type":"Point","coordinates":[103.86199,1.28936]}},{"type":"Feature","properties":{"id":"ke-ic-modern-4","kind":"poi","name":"Esplanade","theme":"modern","lab":1},"geometry":{"type":"Point","coordinates":[103.85551,1.29338]}},{"type":"Feature","properties":{"id":"ke-ic-tarihi-1","kind":"poi","name":"Raffles Hotel","theme":"tarihi","lab":1},"geometry":{"type":"Point","coordinates":[103.85536,1.29527]}},{"type":"Feature","properties":{"id":"ke-ic-tarihi-2","kind":"poi","name":"Masjid Sultan","theme":"tarihi","lab":1},"geometry":{"type":"Point","coordinates":[103.8597,1.30343]}},{"type":"Feature","properties":{"id":"ke-ic-tarihi-3","kind":"poi","name":"Sri Mariamman Temple","theme":"tarihi","lab":1},"geometry":{"type":"Point","coordinates":[103.84528,1.28212]}},{"type":"Feature","properties":{"id":"ke-ic-tarihi-4","kind":"poi","name":"Thian Hock Keng","theme":"tarihi","lab":1},"geometry":{"type":"Point","coordinates":[103.84745,1.28142]}},{"type":"Feature","properties":{"id":"ke-ic-tarihi-5","kind":"poi","name":"Buddha Tooth Relic Temple","theme":"tarihi","lab":1},"geometry":{"type":"Point","coordinates":[103.84423,1.2815]}},{"type":"Feature","properties":{"id":"ke-ic-tarihi-6","kind":"poi","name":"St Andrew's Cathedral","theme":"tarihi","lab":1},"geometry":{"type":"Point","coordinates":[103.8515,1.2917]}},{"type":"Feature","properties":{"id":"ke-ic-modern-5","kind":"poi","name":"National Gallery Singapore","theme":"modern","lab":1},"geometry":{"type":"Point","coordinates":[103.85196,1.29133]}},{"type":"Feature","properties":{"id":"ke-ic-doga-0","kind":"poi","name":"Fort Canning Park","theme":"doga","lab":1},"geometry":{"type":"Point","coordinates":[103.84461,1.29258]}},{"type":"Feature","properties":{"id":"ke-ic-tarihi-8","kind":"poi","name":"Little India","theme":"tarihi","lab":1},"geometry":{"type":"Point","coordinates":[103.84914,1.30596]}},{"type":"Feature","properties":{"id":"ke-ic-tarihi-9","kind":"poi","name":"Kampong Glam","theme":"tarihi","lab":1},"geometry":{"type":"Point","coordinates":[103.86342,1.30396]}},{"type":"Feature","properties":{"id":"ke-ic-gastronomi-0","kind":"poi","name":"Lau Pa Sat","theme":"gastronomi","lab":1},"geometry":{"type":"Point","coordinates":[103.85081,1.28041]}},{"type":"Feature","properties":{"id":"ke-ic-gastronomi-1","kind":"poi","name":"Clarke Quay","theme":"gastronomi","lab":1},"geometry":{"type":"Point","coordinates":[103.8467,1.28876]}},{"type":"Feature","properties":{"id":"ke-ic-modern-6","kind":"poi","name":"Jewel Changi Airport","theme":"modern","lab":1},"geometry":{"type":"Point","coordinates":[103.9895,1.3601]}},{"type":"Feature","properties":{"id":"ke-ic-doga-1","kind":"poi","name":"Singapore Botanic Gardens","theme":"doga","lab":1},"geometry":{"type":"Point","coordinates":[103.81514,1.32227]}},{"type":"Feature","properties":{"id":"ke-ic-doga-2","kind":"poi","name":"Sentosa","theme":"doga","lab":1},"geometry":{"type":"Point","coordinates":[103.81768,1.25559]}},{"type":"Feature","properties":{"id":"ke-ic-doga-3","kind":"poi","name":"Mount Faber","theme":"doga","lab":1},"geometry":{"type":"Point","coordinates":[103.82553,1.26802]}},{"type":"Feature","properties":{"id":"ke-ic-modern-7","kind":"poi","name":"National Stadium","theme":"modern","lab":1},"geometry":{"type":"Point","coordinates":[103.87341,1.30604]}},{"type":"Feature","properties":{"id":"ke-ic-alisveris-0","kind":"poi","name":"Orchard Road","theme":"alisveris","lab":1},"geometry":{"type":"Point","coordinates":[103.83668,1.30323]}},{"type":"Feature","properties":{"id":"ke-ic-doga-4","kind":"poi","name":"Singapore Zoo","theme":"doga","lab":1},"geometry":{"type":"Point","coordinates":[103.8142,1.39248]}}]}