{"type":"FeatureCollection","features":[{"type":"Feature","geometry":{"type":"Polygon","coordinates":[[[-123.1410273,49.3282649],[-123.1351613,49.3288175],[-123.1350276,49.3245071],[-123.1361253,49.3240735],[-123.1403178,49.3240803],[-123.1402774,49.3267646],[-123.1414369,49.3269746],[-123.1404875,49.3280228],[-123.1410273,49.3282649]]]},"properties":{"id":"ticari-0","kind":"district","btype":"ticari","name":"Park Royal Shopping Centre","lab":1}},{"type":"Feature","geometry":{"type":"Point","coordinates":[-123.13768,49.32564]},"properties":{"id":"ticari-lab-0","kind":"district-label","btype":"ticari","name":"Park Royal Shopping Centre"}},{"type":"Feature","geometry":{"type":"Polygon","coordinates":[[[-123.0030315,49.2697041],[-123.0002129,49.2696629],[-122.9977059,49.2679991],[-122.9977351,49.2665259],[-123.0029615,49.2665893],[-123.0030315,49.2697041]]]},"properties":{"id":"ticari-1","kind":"district","btype":"ticari","name":"The Amazing Brentwood Shopping Centre","lab":1}},{"type":"Feature","geometry":{"type":"Point","coordinates":[-123.00099,49.26883]},"properties":{"id":"ticari-lab-1","kind":"district-label","btype":"ticari","name":"The Amazing Brentwood Shopping Centre"}},{"type":"Feature","geometry":{"type":"Polygon","coordinates":[[[-123.1363566,49.2702049],[-123.1370653,49.2714773],[-123.1367032,49.2717326],[-123.136915,49.2728715],[-123.1353361,49.2731824],[-123.1340162,49.2722063],[-123.1344503,49.2715547],[-123.1322634,49.269827],[-123.131487,49.2702583],[-123.1306616,49.2692128],[-123.1317192,49.2691714],[-123.131991,49.2687195],[-123.1332238,49.2688958],[-123.1363566,49.2702049]]]},"properties":{"id":"ticari-2","kind":"district","btype":"ticari","name":"Granville Island","lab":1}},{"type":"Feature","geometry":{"type":"Point","coordinates":[-123.13515,49.27087]},"properties":{"id":"ticari-lab-2","kind":"district-label","btype":"ticari","name":"Granville Island"}},{"type":"Feature","geometry":{"type":"Polygon","coordinates":[[[-122.997873,49.2547461],[-122.9981009,49.2575188],[-122.9934575,49.2575918],[-122.993761,49.2572852],[-122.9936374,49.2547329],[-122.997873,49.2547461]]]},"properties":{"id":"ticari-3","kind":"district","btype":"ticari","name":"Canada Way Business Park","lab":1}},{"type":"Feature","geometry":{"type":"Point","coordinates":[-122.99584,49.25602]},"properties":{"id":"ticari-lab-3","kind":"district-label","btype":"ticari","name":"Canada Way Business Park"}},{"type":"Feature","geometry":{"type":"Polygon","coordinates":[[[-123.0949848,49.3153129],[-123.1015575,49.3153809],[-123.1015159,49.3172382],[-123.0948997,49.3171652],[-123.0949848,49.3153129]]]},"properties":{"id":"ticari-4","kind":"district","btype":"ticari","name":"North Shore Auto Mall","lab":1}},{"type":"Feature","geometry":{"type":"Point","coordinates":[-123.09824,49.31627]},"properties":{"id":"ticari-lab-4","kind":"district-label","btype":"ticari","name":"North Shore Auto Mall"}},{"type":"Feature","geometry":{"type":"MultiPolygon","coordinates":[[[[-122.9813178,49.1981978],[-122.9789244,49.199403],[-122.9763234,49.1977299],[-122.9813178,49.1981978]]],[[[-122.9794421,49.1997199],[-122.9812709,49.1987268],[-122.9839049,49.2008492],[-122.9817551,49.2016525],[-122.9794421,49.1997199]]]]},"properties":{"id":"ticari-5","kind":"district","btype":"ticari","name":"Market Crossing","lab":1}},{"type":"Feature","geometry":{"type":"Point","coordinates":[-122.98166,49.20028]},"properties":{"id":"ticari-lab-5","kind":"district-label","btype":"ticari","name":"Market Crossing"}},{"type":"Feature","geometry":{"type":"Polygon","coordinates":[[[-122.9144487,49.2504438],[-122.9144287,49.2497744],[-122.9184505,49.2477889],[-122.9240436,49.2482168],[-122.9167902,49.2501651],[-122.9144487,49.2504438]]]},"properties":{"id":"ticari-6","kind":"district","btype":"ticari","name":"Cariboo Business Park","lab":1}},{"type":"Feature","geometry":{"type":"Point","coordinates":[-122.91858,49.249]},"properties":{"id":"ticari-lab-6","kind":"district-label","btype":"ticari","name":"Cariboo Business Park"}},{"type":"Feature","geometry":{"type":"MultiPolygon","coordinates":[[[[-123.0074769,49.2472938],[-123.0075053,49.2469323],[-123.010598,49.2470755],[-123.0112751,49.2472948],[-123.011692,49.2480517],[-123.0109037,49.2492521],[-123.0104318,49.2492073],[-123.0092206,49.2487239],[-123.0074769,49.2472938]]],[[[-123.0079905,49.2493263],[-123.006191,49.2476361],[-123.0074543,49.247735],[-123.0089819,49.2486975],[-123.0079905,49.2493263]]]]},"properties":{"id":"ticari-7","kind":"district","btype":"ticari","name":"EA Vancouver","lab":1}},{"type":"Feature","geometry":{"type":"Point","coordinates":[-123.01014,49.24839]},"properties":{"id":"ticari-lab-7","kind":"district-label","btype":"ticari","name":"EA Vancouver"}},{"type":"Feature","geometry":{"type":"Polygon","coordinates":[[[-123.1456174,49.3257027],[-123.1450951,49.326524],[-123.1407079,49.3267431],[-123.1404441,49.3240954],[-123.1456174,49.3257027]]]},"properties":{"id":"ticari-8","kind":"district","btype":"ticari","name":"Park Royal The Village","lab":1}},{"type":"Feature","geometry":{"type":"Point","coordinates":[-123.14178,49.3249]},"properties":{"id":"ticari-lab-8","kind":"district-label","btype":"ticari","name":"Park Royal The Village"}},{"type":"Feature","geometry":{"type":"Polygon","coordinates":[[[-123.0403096,49.2617608],[-123.0403072,49.2597026],[-123.044042,49.2593188],[-123.0440587,49.2617861],[-123.0403096,49.2617608]]]},"properties":{"id":"ticari-9","kind":"district","btype":"ticari","name":"Broadway Tech Centre","lab":1}},{"type":"Feature","geometry":{"type":"Point","coordinates":[-123.04218,49.26073]},"properties":{"id":"ticari-lab-9","kind":"district-label","btype":"ticari","name":"Broadway Tech Centre"}},{"type":"Feature","geometry":{"type":"Polygon","coordinates":[[[-122.973594,49.1974901],[-122.9760582,49.1979515],[-122.9786335,49.1998184],[-122.9768406,49.2007157],[-122.9728831,49.1979397],[-122.973594,49.1974901]]]},"properties":{"id":"ticari-10","kind":"district","btype":"ticari","name":"Big Bend Crossing","lab":1}},{"type":"Feature","geometry":{"type":"Point","coordinates":[-122.97579,49.19888]},"properties":{"id":"ticari-lab-10","kind":"district-label","btype":"ticari","name":"Big Bend Crossing"}},{"type":"Feature","geometry":{"type":"MultiPolygon","coordinates":[[[[-123.203119,49.2636723],[-123.2031072,49.2633062],[-123.2060167,49.2633493],[-123.2059427,49.2637135],[-123.203119,49.2636723]]],[[[-123.2090436,49.2637542],[-123.2061985,49.2637141],[-123.2061639,49.2633435],[-123.2090718,49.2633946],[-123.2090436,49.2637542]]],[[[-123.2093445,49.2637675],[-123.2091941,49.2633964],[-123.212113,49.2634224],[-123.2120436,49.2638212],[-123.2093445,49.2637675]]],[[[-123.2031041,49.2639037],[-123.2059335,49.2638552],[-123.2059889,49.2642106],[-123.2030841,49.2641611],[-123.2031041,49.2639037]]],[[[-123.2090077,49.2638961],[-123.2089852,49.2642578],[-123.2061338,49.2642131],[-123.2061879,49.2638658],[-123.2090077,49.2638961]]],[[[-123.2091828,49.2639261],[-123.2120614,49.263947],[-123.2120701,49.2647296],[-123.2091364,49.2646887],[-123.2091828,49.2639261]]]]},"properties":{"id":"ticari-11","kind":"district","btype":"ticari","name":"Point Grey Village","lab":1}},{"type":"Feature","geometry":{"type":"Point","coordinates":[-123.21061,49.26432]},"properties":{"id":"ticari-lab-11","kind":"district-label","btype":"ticari","name":"Point Grey Village"}},{"type":"Feature","geometry":{"type":"Polygon","coordinates":[[[-123.0434945,49.3081431],[-123.0435432,49.3099035],[-123.0426713,49.3103993],[-123.0405426,49.3103818],[-123.0406448,49.307414],[-123.0434945,49.3081431]]]},"properties":{"id":"ticari-12","kind":"district","btype":"ticari","name":"Park and Tilford Shops & Garden","lab":1}},{"type":"Feature","geometry":{"type":"Point","coordinates":[-123.04205,49.30902]},"properties":{"id":"ticari-lab-12","kind":"district-label","btype":"ticari","name":"Park and Tilford Shops & Garden"}},{"type":"Feature","geometry":{"type":"Polygon","coordinates":[[[-123.0239958,49.2601626],[-123.0284311,49.2601879],[-123.0283621,49.2619444],[-123.0255297,49.2622025],[-123.0254593,49.2617168],[-123.0240832,49.2608519],[-123.0239958,49.2601626]]]},"properties":{"id":"ticari-13","kind":"district","btype":"ticari","name":"Vancouver Film Studios","lab":1}},{"type":"Feature","geometry":{"type":"Point","coordinates":[-123.02658,49.26128]},"properties":{"id":"ticari-lab-13","kind":"district-label","btype":"ticari","name":"Vancouver Film Studios"}},{"type":"Feature","geometry":{"type":"Polygon","coordinates":[[[-123.0232515,49.2635114],[-123.017834,49.2638274],[-123.0178728,49.2623901],[-123.0232944,49.2624696],[-123.0232515,49.2635114]]]},"properties":{"id":"ticari-14","kind":"district","btype":"ticari","name":"Bridge Studios","lab":1}},{"type":"Feature","geometry":{"type":"Point","coordinates":[-123.02056,49.26299]},"properties":{"id":"ticari-lab-14","kind":"district-label","btype":"ticari","name":"Bridge Studios"}},{"type":"Feature","geometry":{"type":"Polygon","coordinates":[[[-123.1019901,49.3392903],[-123.1017643,49.3386493],[-123.0991959,49.3365746],[-123.102212,49.3365715],[-123.1036089,49.337628],[-123.1031115,49.3385083],[-123.1040497,49.3392903],[-123.1019901,49.3392903]]]},"properties":{"id":"ticari-15","kind":"district","btype":"ticari","name":"Edgemont Village","lab":1}},{"type":"Feature","geometry":{"type":"Point","coordinates":[-123.1022,49.33807]},"properties":{"id":"ticari-lab-15","kind":"district-label","btype":"ticari","name":"Edgemont Village"}},{"type":"Feature","geometry":{"type":"Polygon","coordinates":[[[-123.0324545,49.2061206],[-123.032386,49.2068402],[-123.0274394,49.2062751],[-123.0286133,49.205778],[-123.0282912,49.2056203],[-123.02845,49.204959],[-123.0334892,49.2056214],[-123.033088,49.206169],[-123.032113,49.2059311],[-123.0324545,49.2061206]]]},"properties":{"id":"ticari-16","kind":"district","btype":"ticari","name":"River District Town Centre","lab":1}},{"type":"Feature","geometry":{"type":"Point","coordinates":[-123.03088,49.20585]},"properties":{"id":"ticari-lab-16","kind":"district-label","btype":"ticari","name":"River District Town Centre"}},{"type":"Feature","geometry":{"type":"Polygon","coordinates":[[[-123.0009857,49.2287526],[-123.0038105,49.2260971],[-123.0054755,49.2268434],[-123.004475,49.2278234],[-123.0038301,49.227582],[-123.0042706,49.2280441],[-123.0027682,49.2293236],[-123.0009857,49.2287526]]]},"properties":{"id":"ticari-17","kind":"district","btype":"ticari","name":"Station Square","lab":1}},{"type":"Feature","geometry":{"type":"Point","coordinates":[-123.00302,49.2277]},"properties":{"id":"ticari-lab-17","kind":"district-label","btype":"ticari","name":"Station Square"}},{"type":"Feature","geometry":{"type":"Polygon","coordinates":[[[-123.0194796,49.2016557],[-123.0227338,49.2025589],[-123.0232123,49.2040186],[-123.0197754,49.203309],[-123.0194679,49.2030719],[-123.0194796,49.2016557]]]},"properties":{"id":"ticari-18","kind":"district","btype":"ticari","name":"Marine Way Business Centre","lab":1}},{"type":"Feature","geometry":{"type":"Point","coordinates":[-123.02114,49.20282]},"properties":{"id":"ticari-lab-18","kind":"district-label","btype":"ticari","name":"Marine Way Business Centre"}},{"type":"Feature","geometry":{"type":"Polygon","coordinates":[[[-122.9129379,49.2750964],[-122.9099235,49.2750668],[-122.9103717,49.27397],[-122.9094004,49.2738116],[-122.911343,49.2731697],[-122.9135306,49.2735679],[-122.9129379,49.2750964]]]},"properties":{"id":"ticari-19","kind":"district","btype":"ticari","name":"Discovery Place","lab":1}},{"type":"Feature","geometry":{"type":"Point","coordinates":[-122.91165,49.27452]},"properties":{"id":"ticari-lab-19","kind":"district-label","btype":"ticari","name":"Discovery Place"}}]}