{"type":"FeatureCollection","features":[{"type":"Feature","geometry":{"type":"MultiPolygon","coordinates":[[[[-122.9205251,49.2003119],[-122.9109731,49.2056747],[-122.9127462,49.207095],[-122.9086965,49.2092851],[-122.9069249,49.2078593],[-122.8989304,49.2121432],[-122.8934114,49.2082002],[-122.89562,49.205958],[-122.899451,49.203199],[-122.9067212,49.1987668],[-122.9097153,49.2012584],[-122.9155322,49.1999991],[-122.9205251,49.2003119]]],[[[-122.9410461,49.20101],[-122.9439667,49.1993231],[-122.9520546,49.2058195],[-122.9379381,49.2134662],[-122.9305495,49.207645],[-122.9418128,49.2016286],[-122.9410461,49.20101]]],[[[-123.0970671,49.278528],[-123.0998114,49.2786081],[-123.1000356,49.2728348],[-123.102803,49.2730704],[-123.1033763,49.2740427],[-123.1034726,49.2755519],[-123.1084277,49.2758658],[-123.108938,49.2742089],[-123.1102306,49.2744608],[-123.1103459,49.2740897],[-123.1111492,49.2741274],[-123.114755,49.2726137],[-123.1188249,49.2732637],[-123.1197168,49.2726859],[-123.1197675,49.2716728],[-123.1202834,49.2710729],[-123.1224175,49.2710767],[-123.1235864,49.271868],[-123.1246645,49.2719416],[-123.1258654,49.2710257],[-123.125709,49.2706761],[-123.1271917,49.2706687],[-123.1292141,49.2718341],[-123.1300236,49.2714906],[-123.1308731,49.2723264],[-123.1306139,49.2724986],[-123.1327017,49.2732406],[-123.1328592,49.2740427],[-123.1346153,49.274465],[-123.1348101,49.2749202],[-123.1344089,49.2751816],[-123.1350571,49.2755938],[-123.1361203,49.275565],[-123.1360425,49.2762339],[-123.1366915,49.2773843],[-123.1375357,49.2777302],[-123.1377894,49.2774514],[-123.1384217,49.2778708],[-123.1383871,49.2787286],[-123.1394997,49.2788454],[-123.1394217,49.2796348],[-123.1402845,49.2797035],[-123.1403464,49.2808559],[-123.1408564,49.281156],[-123.1412161,49.2808211],[-123.142893,49.2835577],[-123.1441925,49.2843407],[-123.1438555,49.2845213],[-123.1433951,49.2883338],[-123.1463926,49.2899909],[-123.1418804,49.2930144],[-123.1381693,49.2936267],[-123.1356633,49.295242],[-123.1346007,49.2953173],[-123.1337534,49.2949195],[-123.1336976,49.2944361],[-123.1307387,49.2928784],[-123.1294531,49.2936047],[-123.1274347,49.2927897],[-123.1283652,49.2918972],[-123.1263692,49.2906748],[-123.1247644,49.2905905],[-123.1233326,49.2914613],[-123.1197347,49.2899351],[-123.1189391,49.2898696],[-123.1176561,49.2905253],[-123.1139705,49.2894209],[-123.114973,49.2884214],[-123.114322,49.2881029],[-123.110522,49.2894624],[-123.1067637,49.2898258],[-123.1127607,49.2875024],[-123.1112377,49.2868157],[-123.1103257,49.2870679],[-123.1104386,49.287379],[-123.1091755,49.2862312],[-123.1068452,49.2866564],[-123.1042086,49.2860471],[-123.1034639,49.2863708],[-123.103141,49.2855642],[-123.1026037,49.2853252],[-123.0997695,49.2855817],[-123.0994401,49.2870085],[-123.09969095605308,49.28133305914801],[-123.0974692,49.2812958],[-123.0970671,49.278528]]]]},"properties":{"id":"turistik-0","kind":"district","btype":"turistik","name":"Downtown","lab":1}},{"type":"Feature","geometry":{"type":"Point","coordinates":[-123.12093,49.28245]},"properties":{"id":"turistik-lab-0","kind":"district-label","btype":"turistik","name":"Downtown"}},{"type":"Feature","geometry":{"type":"Polygon","coordinates":[[[-123.1367652,49.2703874],[-123.137346,49.2716517],[-123.1369268,49.272875],[-123.1349921,49.2730752],[-123.1305565,49.2696091],[-123.130654,49.2684313],[-123.1339037,49.2689786],[-123.134121,49.2685227],[-123.1349481,49.2686133],[-123.1357508,49.2695332],[-123.1370741,49.2701964],[-123.1367652,49.2703874]]]},"properties":{"id":"turistik-1","kind":"district","btype":"turistik","name":"Granville Island","lab":1}},{"type":"Feature","geometry":{"type":"Point","coordinates":[-123.13471,49.27102]},"properties":{"id":"turistik-lab-1","kind":"district-label","btype":"turistik","name":"Granville Island"}},{"type":"Feature","geometry":{"type":"Polygon","coordinates":[[[-123.1459911,49.257167],[-123.1861408,49.2579469],[-123.1855637,49.273364],[-123.1793183,49.2721645],[-123.1717451,49.2716623],[-123.1671279,49.2726065],[-123.1643924,49.2739909],[-123.1632118,49.2741906],[-123.1605222,49.2743665],[-123.1593896,49.2737331],[-123.1556096,49.2735685],[-123.1520109,49.277638],[-123.1495796,49.2778023],[-123.1477737,49.2792063],[-123.1472981,49.2790949],[-123.147828,49.2789145],[-123.1477775,49.2784578],[-123.1466078,49.2779141],[-123.1457937,49.2779845],[-123.1453291,49.2786851],[-123.1446549,49.2788835],[-123.1422028,49.2783516],[-123.14036,49.2773181],[-123.1406496,49.2771159],[-123.1401361,49.2760977],[-123.1388273,49.2748724],[-123.144189,49.2731322],[-123.1453233,49.2722035],[-123.1459911,49.257167]]]},"properties":{"id":"turistik-2","kind":"district","btype":"turistik","name":"Kitsilano","lab":1}},{"type":"Feature","geometry":{"type":"Point","coordinates":[-123.16577,49.2648]},"properties":{"id":"turistik-lab-2","kind":"district-label","btype":"turistik","name":"Kitsilano"}}]}