{"type":"FeatureCollection","features":[{"type":"Feature","geometry":{"type":"Point","coordinates":[-123.2738,49.3737]},"properties":{"id":"ih-eczane-0","kind":"poi","name":"Bay Pharmacy","theme":"eczane","lab":1}},{"type":"Feature","geometry":{"type":"Point","coordinates":[-122.7547,49.2725]},"properties":{"id":"ih-eczane-1","kind":"poi","name":"Burke Mountain Pharmacy","theme":"eczane","lab":1}},{"type":"Feature","geometry":{"type":"Point","coordinates":[-122.9282,49.2192]},"properties":{"id":"ih-eczane-2","kind":"poi","name":"Burnaby Square Pharmacy","theme":"eczane","lab":1}},{"type":"Feature","geometry":{"type":"Point","coordinates":[-122.9984,49.2809]},"properties":{"id":"ih-eczane-3","kind":"poi","name":"Capitol Hill Pharmacy","theme":"eczane","lab":1}},{"type":"Feature","geometry":{"type":"Point","coordinates":[-123.0875,49.2809]},"properties":{"id":"ih-eczane-4","kind":"poi","name":"CareRx","theme":"eczane","lab":1}},{"type":"Feature","geometry":{"type":"Point","coordinates":[-123.0168,49.233]},"properties":{"id":"ih-eczane-5","kind":"poi","name":"Central Park Pharmacy","theme":"eczane","lab":1}},{"type":"Feature","geometry":{"type":"Point","coordinates":[-122.9169,49.2515]},"properties":{"id":"ih-eczane-6","kind":"poi","name":"Costco Pharmacy","theme":"eczane","lab":1}},{"type":"Feature","geometry":{"type":"Point","coordinates":[-123.0111,49.2643]},"properties":{"id":"ih-eczane-7","kind":"poi","name":"Dawson Pharmacy","theme":"eczane","lab":1}},{"type":"Feature","geometry":{"type":"Point","coordinates":[-122.8446,49.1269]},"properties":{"id":"ih-eczane-8","kind":"poi","name":"Dean Pharmacy","theme":"eczane","lab":1}},{"type":"Feature","geometry":{"type":"Point","coordinates":[-122.9514,49.3269]},"properties":{"id":"ih-eczane-9","kind":"poi","name":"Deep Cove Pharmacy","theme":"eczane","lab":1}},{"type":"Feature","geometry":{"type":"Point","coordinates":[-122.8329,49.1917]},"properties":{"id":"ih-eczane-10","kind":"poi","name":"East To West Holistic","theme":"eczane","lab":1}},{"type":"Feature","geometry":{"type":"Point","coordinates":[-122.9514,49.2187]},"properties":{"id":"ih-eczane-11","kind":"poi","name":"Edmonds Pharmacy","theme":"eczane","lab":1}},{"type":"Feature","geometry":{"type":"Point","coordinates":[-122.8909,49.1656]},"properties":{"id":"ih-eczane-12","kind":"poi","name":"Familycare Pharmacy","theme":"eczane","lab":1}},{"type":"Feature","geometry":{"type":"Point","coordinates":[-123.0904,49.2475]},"properties":{"id":"ih-eczane-13","kind":"poi","name":"Fraser PharmaChoice Pharmacy","theme":"eczane","lab":1}},{"type":"Feature","geometry":{"type":"Point","coordinates":[-123.0187,49.2499]},"properties":{"id":"ih-eczane-14","kind":"poi","name":"Guardian","theme":"eczane","lab":1}},{"type":"Feature","geometry":{"type":"Point","coordinates":[-123.1258,49.1551]},"properties":{"id":"ih-eczane-15","kind":"poi","name":"HealthCare Pharmacy","theme":"eczane","lab":1}},{"type":"Feature","geometry":{"type":"Point","coordinates":[-122.988,49.2218]},"properties":{"id":"ih-eczane-16","kind":"poi","name":"Imperial Remedy's Rx Pharmacy","theme":"eczane","lab":1}},{"type":"Feature","geometry":{"type":"Point","coordinates":[-122.999,49.2239]},"properties":{"id":"ih-eczane-17","kind":"poi","name":"Innwell Pharmacy","theme":"eczane","lab":1}},{"type":"Feature","geometry":{"type":"Point","coordinates":[-123.1867,49.2683]},"properties":{"id":"ih-eczane-18","kind":"poi","name":"Jericho Pharmacy & Health Food Store","theme":"eczane","lab":1}},{"type":"Feature","geometry":{"type":"Point","coordinates":[-123.1558,49.2357]},"properties":{"id":"ih-eczane-19","kind":"poi","name":"Kerrisdale Pharmacy","theme":"eczane","lab":1}},{"type":"Feature","geometry":{"type":"Point","coordinates":[-123.1114,49.2629]},"properties":{"id":"ih-eczane-20","kind":"poi","name":"Loblaw Pharmacy","theme":"eczane","lab":1}},{"type":"Feature","geometry":{"type":"Point","coordinates":[-123.1372,49.1707]},"properties":{"id":"ih-eczane-21","kind":"poi","name":"London Drugs","theme":"eczane","lab":1}},{"type":"Feature","geometry":{"type":"Point","coordinates":[-123.066,49.2236]},"properties":{"id":"ih-eczane-22","kind":"poi","name":"MJ's Natural Pharmacy","theme":"eczane","lab":1}},{"type":"Feature","geometry":{"type":"Point","coordinates":[-123.1021,49.2186]},"properties":{"id":"ih-eczane-23","kind":"poi","name":"Main Care Pharmacy","theme":"eczane","lab":1}},{"type":"Feature","geometry":{"type":"Point","coordinates":[-123.1015,49.2111]},"properties":{"id":"ih-eczane-24","kind":"poi","name":"Marks Marine Pharmacy","theme":"eczane","lab":1}},{"type":"Feature","geometry":{"type":"Point","coordinates":[-122.8107,49.2837]},"properties":{"id":"ih-eczane-25","kind":"poi","name":"Mary's Guardian Pharmacy","theme":"eczane","lab":1}},{"type":"Feature","geometry":{"type":"Point","coordinates":[-122.8888,49.1517]},"properties":{"id":"ih-eczane-26","kind":"poi","name":"Medisave Pharmacy","theme":"eczane","lab":1}},{"type":"Feature","geometry":{"type":"Point","coordinates":[-123.1014,49.2265]},"properties":{"id":"ih-eczane-27","kind":"poi","name":"Naz's Pharmacy","theme":"eczane","lab":1}},{"type":"Feature","geometry":{"type":"Point","coordinates":[-122.9105,49.2778]},"properties":{"id":"ih-eczane-28","kind":"poi","name":"Nesters Market","theme":"eczane","lab":1}},{"type":"Feature","geometry":{"type":"Point","coordinates":[-123.1195,49.3238]},"properties":{"id":"ih-eczane-29","kind":"poi","name":"North West Marine Pharmacy","theme":"eczane","lab":1}},{"type":"Feature","geometry":{"type":"Point","coordinates":[-123.0512,49.2389]},"properties":{"id":"ih-eczane-30","kind":"poi","name":"Pacific Care Pharmacy","theme":"eczane","lab":1}},{"type":"Feature","geometry":{"type":"Point","coordinates":[-122.9363,49.2119]},"properties":{"id":"ih-eczane-31","kind":"poi","name":"PharmaChoice","theme":"eczane","lab":1}},{"type":"Feature","geometry":{"type":"Point","coordinates":[-123.1815,49.1698]},"properties":{"id":"ih-eczane-32","kind":"poi","name":"Pharmachoice","theme":"eczane","lab":1}},{"type":"Feature","geometry":{"type":"Point","coordinates":[-122.7987,49.1272]},"properties":{"id":"ih-eczane-33","kind":"poi","name":"Pharmacy 24","theme":"eczane","lab":1}},{"type":"Feature","geometry":{"type":"Point","coordinates":[-122.9201,49.2112]},"properties":{"id":"ih-eczane-34","kind":"poi","name":"Pharmasave","theme":"eczane","lab":1}},{"type":"Feature","geometry":{"type":"Point","coordinates":[-123.1009,49.2794]},"properties":{"id":"ih-eczane-35","kind":"poi","name":"Pharmatrust Pharmacy","theme":"eczane","lab":1}},{"type":"Feature","geometry":{"type":"Point","coordinates":[-123.1826,49.2687]},"properties":{"id":"ih-eczane-36","kind":"poi","name":"Pure Integrative Pharmacy","theme":"eczane","lab":1}},{"type":"Feature","geometry":{"type":"Point","coordinates":[-123.2074,49.2637]},"properties":{"id":"ih-eczane-37","kind":"poi","name":"Pure Pharmacy","theme":"eczane","lab":1}},{"type":"Feature","geometry":{"type":"Point","coordinates":[-122.9484,49.1853]},"properties":{"id":"ih-eczane-38","kind":"poi","name":"Queensborough Community Pharmacy","theme":"eczane","lab":1}},{"type":"Feature","geometry":{"type":"Point","coordinates":[-123.1101,49.325]},"properties":{"id":"ih-eczane-39","kind":"poi","name":"Remedy'sRx","theme":"eczane","lab":1}},{"type":"Feature","geometry":{"type":"Point","coordinates":[-122.7798,49.1982]},"properties":{"id":"ih-eczane-40","kind":"poi","name":"Rexall","theme":"eczane","lab":1}},{"type":"Feature","geometry":{"type":"Point","coordinates":[-123.0687,49.2618]},"properties":{"id":"ih-eczane-41","kind":"poi","name":"Safeway","theme":"eczane","lab":1}},{"type":"Feature","geometry":{"type":"Point","coordinates":[-123.1852,49.1253]},"properties":{"id":"ih-eczane-42","kind":"poi","name":"Save-On-Foods Pharmacy","theme":"eczane","lab":1}},{"type":"Feature","geometry":{"type":"Point","coordinates":[-123.1568,49.1538]},"properties":{"id":"ih-eczane-43","kind":"poi","name":"Shoppers Drug Mart","theme":"eczane","lab":1}},{"type":"Feature","geometry":{"type":"Point","coordinates":[-123.1834,49.2346]},"properties":{"id":"ih-eczane-44","kind":"poi","name":"Southland Pharmacy","theme":"eczane","lab":1}},{"type":"Feature","geometry":{"type":"Point","coordinates":[-122.893,49.2287]},"properties":{"id":"ih-eczane-45","kind":"poi","name":"The Medicine Shoppe","theme":"eczane","lab":1}},{"type":"Feature","geometry":{"type":"Point","coordinates":[-123.1228,49.2739]},"properties":{"id":"ih-eczane-46","kind":"poi","name":"The Pharmacy Yaletown","theme":"eczane","lab":1}},{"type":"Feature","geometry":{"type":"Point","coordinates":[-122.7815,49.167]},"properties":{"id":"ih-eczane-47","kind":"poi","name":"The Village Pharmacy","theme":"eczane","lab":1}},{"type":"Feature","geometry":{"type":"Point","coordinates":[-123.2432,49.2665]},"properties":{"id":"ih-eczane-48","kind":"poi","name":"University Pharmacy","theme":"eczane","lab":1}},{"type":"Feature","geometry":{"type":"Point","coordinates":[-123.1206,49.1777]},"properties":{"id":"ih-eczane-49","kind":"poi","name":"Walmart Pharmacy","theme":"eczane","lab":1}},{"type":"Feature","geometry":{"type":"Point","coordinates":[-123.0321,49.2378]},"properties":{"id":"ih-eczane-50","kind":"poi","name":"Wellness Pharmacy","theme":"eczane","lab":1}},{"type":"Feature","geometry":{"type":"Point","coordinates":[-123.2036,49.2639]},"properties":{"id":"ih-eczane-51","kind":"poi","name":"West 10th Medical Pharmacy","theme":"eczane","lab":1}},{"type":"Feature","geometry":{"type":"Point","coordinates":[-122.9486,49.2026]},"properties":{"id":"ih-eczane-52","kind":"poi","name":"West End Pharmacy","theme":"eczane","lab":1}},{"type":"Feature","geometry":{"type":"Point","coordinates":[-122.7897,49.265]},"properties":{"id":"ih-eczane-53","kind":"poi","name":"Westwood Pharmacy","theme":"eczane","lab":1}},{"type":"Feature","geometry":{"type":"Point","coordinates":[-123.1158,49.2347]},"properties":{"id":"ih-eczane-54","kind":"poi","name":"yYoung Pharmacy","theme":"eczane","lab":1}},{"type":"Feature","geometry":{"type":"Point","coordinates":[-123.1292,49.1872]},"properties":{"id":"ih-market-0","kind":"poi","name":"2000 Supermarket","theme":"market","lab":1}},{"type":"Feature","geometry":{"type":"Point","coordinates":[-123.0352,49.2328]},"properties":{"id":"ih-market-1","kind":"poi","name":"88 Supermarket","theme":"market","lab":1}},{"type":"Feature","geometry":{"type":"Point","coordinates":[-122.9148,49.1691]},"properties":{"id":"ih-market-2","kind":"poi","name":"Annieville Market","theme":"market","lab":1}},{"type":"Feature","geometry":{"type":"Point","coordinates":[-122.8897,49.1504]},"properties":{"id":"ih-market-3","kind":"poi","name":"Big Bazaar","theme":"market","lab":1}},{"type":"Feature","geometry":{"type":"Point","coordinates":[-122.9892,49.2246]},"properties":{"id":"ih-market-4","kind":"poi","name":"Boemma Euro Foods & Deli","theme":"market","lab":1}},{"type":"Feature","geometry":{"type":"Point","coordinates":[-122.9503,49.1903]},"properties":{"id":"ih-market-5","kind":"poi","name":"Bulk Barn","theme":"market","lab":1}},{"type":"Feature","geometry":{"type":"Point","coordinates":[-122.978,49.2654]},"properties":{"id":"ih-market-6","kind":"poi","name":"Buy Low Foods","theme":"market","lab":1}},{"type":"Feature","geometry":{"type":"Point","coordinates":[-122.8105,49.1996]},"properties":{"id":"ih-market-7","kind":"poi","name":"Buy-Low Foods","theme":"market","lab":1}},{"type":"Feature","geometry":{"type":"Point","coordinates":[-123.1154,49.2543]},"properties":{"id":"ih-market-8","kind":"poi","name":"Choice's Market","theme":"market","lab":1}},{"type":"Feature","geometry":{"type":"Point","coordinates":[-123.1497,49.2193]},"properties":{"id":"ih-market-9","kind":"poi","name":"Choices Market","theme":"market","lab":1}},{"type":"Feature","geometry":{"type":"Point","coordinates":[-123.066,49.227]},"properties":{"id":"ih-market-10","kind":"poi","name":"Chong Lee Market","theme":"market","lab":1}},{"type":"Feature","geometry":{"type":"Point","coordinates":[-123.1752,49.2643]},"properties":{"id":"ih-market-11","kind":"poi","name":"City Avenue Market","theme":"market","lab":1}},{"type":"Feature","geometry":{"type":"Point","coordinates":[-123.0819,49.3123]},"properties":{"id":"ih-market-12","kind":"poi","name":"Fresh St. Market","theme":"market","lab":1}},{"type":"Feature","geometry":{"type":"Point","coordinates":[-122.8051,49.1057]},"properties":{"id":"ih-market-13","kind":"poi","name":"Fresh Street Market","theme":"market","lab":1}},{"type":"Feature","geometry":{"type":"Point","coordinates":[-123.1576,49.1549]},"properties":{"id":"ih-market-14","kind":"poi","name":"FreshCo","theme":"market","lab":1}},{"type":"Feature","geometry":{"type":"Point","coordinates":[-122.8397,49.1344]},"properties":{"id":"ih-market-15","kind":"poi","name":"Fruiticana","theme":"market","lab":1}},{"type":"Feature","geometry":{"type":"Point","coordinates":[-122.9082,49.2033]},"properties":{"id":"ih-market-16","kind":"poi","name":"Gastronomia Italia","theme":"market","lab":1}},{"type":"Feature","geometry":{"type":"Point","coordinates":[-122.9334,49.2098]},"properties":{"id":"ih-market-17","kind":"poi","name":"Gospa's Delightful Food","theme":"market","lab":1}},{"type":"Feature","geometry":{"type":"Point","coordinates":[-122.9501,49.2194]},"properties":{"id":"ih-market-18","kind":"poi","name":"Grand Food Mart","theme":"market","lab":1}},{"type":"Feature","geometry":{"type":"Point","coordinates":[-123.0491,49.2375]},"properties":{"id":"ih-market-19","kind":"poi","name":"Great Two Supermarket","theme":"market","lab":1}},{"type":"Feature","geometry":{"type":"Point","coordinates":[-123.2431,49.2666]},"properties":{"id":"ih-market-20","kind":"poi","name":"H Mart","theme":"market","lab":1}},{"type":"Feature","geometry":{"type":"Point","coordinates":[-122.7965,49.1918]},"properties":{"id":"ih-market-21","kind":"poi","name":"Hannam Supermarket","theme":"market","lab":1}},{"type":"Feature","geometry":{"type":"Point","coordinates":[-123.2557,49.264]},"properties":{"id":"ih-market-22","kind":"poi","name":"Harvest","theme":"market","lab":1}},{"type":"Feature","geometry":{"type":"Point","coordinates":[-123.1822,49.3351]},"properties":{"id":"ih-market-23","kind":"poi","name":"IGA","theme":"market","lab":1}},{"type":"Feature","geometry":{"type":"Point","coordinates":[-123.1863,49.2681]},"properties":{"id":"ih-market-24","kind":"poi","name":"Jason's No Frills","theme":"market","lab":1}},{"type":"Feature","geometry":{"type":"Point","coordinates":[-123.0324,49.2379]},"properties":{"id":"ih-market-25","kind":"poi","name":"Kay Market","theme":"market","lab":1}},{"type":"Feature","geometry":{"type":"Point","coordinates":[-123.0924,49.2627]},"properties":{"id":"ih-market-26","kind":"poi","name":"Kim's Mart","theme":"market","lab":1}},{"type":"Feature","geometry":{"type":"Point","coordinates":[-123.072,49.3261]},"properties":{"id":"ih-market-27","kind":"poi","name":"Kourosh Foods Market","theme":"market","lab":1}},{"type":"Feature","geometry":{"type":"Point","coordinates":[-123.1534,49.2577]},"properties":{"id":"ih-market-28","kind":"poi","name":"Loblaws","theme":"market","lab":1}},{"type":"Feature","geometry":{"type":"Point","coordinates":[-123.0719,49.3239]},"properties":{"id":"ih-market-29","kind":"poi","name":"Loblaws City Market","theme":"market","lab":1}},{"type":"Feature","geometry":{"type":"Point","coordinates":[-122.9139,49.2079]},"properties":{"id":"ih-market-30","kind":"poi","name":"Mahtot East Africa Market","theme":"market","lab":1}},{"type":"Feature","geometry":{"type":"Point","coordinates":[-123.1217,49.2786]},"properties":{"id":"ih-market-31","kind":"poi","name":"Nesters Market","theme":"market","lab":1}},{"type":"Feature","geometry":{"type":"Point","coordinates":[-122.9955,49.2807]},"properties":{"id":"ih-market-32","kind":"poi","name":"No Frills","theme":"market","lab":1}},{"type":"Feature","geometry":{"type":"Point","coordinates":[-123.0388,49.3359]},"properties":{"id":"ih-market-33","kind":"poi","name":"Nourish","theme":"market","lab":1}},{"type":"Feature","geometry":{"type":"Point","coordinates":[-123.1332,49.1715]},"properties":{"id":"ih-market-34","kind":"poi","name":"PriceSmart Foods","theme":"market","lab":1}},{"type":"Feature","geometry":{"type":"Point","coordinates":[-123.0927,49.1256]},"properties":{"id":"ih-market-35","kind":"poi","name":"Que Pasa Mexican Foods","theme":"market","lab":1}},{"type":"Feature","geometry":{"type":"Point","coordinates":[-123.0011,49.2274]},"properties":{"id":"ih-market-36","kind":"poi","name":"Real Canadian Superstore","theme":"market","lab":1}},{"type":"Feature","geometry":{"type":"Point","coordinates":[-122.9671,49.2794]},"properties":{"id":"ih-market-37","kind":"poi","name":"Safeway","theme":"market","lab":1}},{"type":"Feature","geometry":{"type":"Point","coordinates":[-122.8438,49.1853]},"properties":{"id":"ih-market-38","kind":"poi","name":"Sari-Sari Filipino Grocery","theme":"market","lab":1}},{"type":"Feature","geometry":{"type":"Point","coordinates":[-123.0777,49.2255]},"properties":{"id":"ih-market-39","kind":"poi","name":"Save and Stay Food Store","theme":"market","lab":1}},{"type":"Feature","geometry":{"type":"Point","coordinates":[-123.0424,49.3093]},"properties":{"id":"ih-market-40","kind":"poi","name":"Save-On-Foods","theme":"market","lab":1}},{"type":"Feature","geometry":{"type":"Point","coordinates":[-123.1854,49.2483]},"properties":{"id":"ih-market-41","kind":"poi","name":"Stong's Market","theme":"market","lab":1}},{"type":"Feature","geometry":{"type":"Point","coordinates":[-122.946,49.2699]},"properties":{"id":"ih-market-42","kind":"poi","name":"Sungiven Foods","theme":"market","lab":1}},{"type":"Feature","geometry":{"type":"Point","coordinates":[-123.1275,49.2575]},"properties":{"id":"ih-market-43","kind":"poi","name":"Sunshine Market","theme":"market","lab":1}},{"type":"Feature","geometry":{"type":"Point","coordinates":[-123.1144,49.1844]},"properties":{"id":"ih-market-44","kind":"poi","name":"Super G Market","theme":"market","lab":1}},{"type":"Feature","geometry":{"type":"Point","coordinates":[-122.853,49.1339]},"properties":{"id":"ih-market-45","kind":"poi","name":"The British Store","theme":"market","lab":1}},{"type":"Feature","geometry":{"type":"Point","coordinates":[-123.1663,49.2642]},"properties":{"id":"ih-market-46","kind":"poi","name":"The Source Bulk Foods","theme":"market","lab":1}},{"type":"Feature","geometry":{"type":"Point","coordinates":[-122.828,49.2797]},"properties":{"id":"ih-market-47","kind":"poi","name":"Thrifty Foods","theme":"market","lab":1}},{"type":"Feature","geometry":{"type":"Point","coordinates":[-123.1226,49.2892]},"properties":{"id":"ih-market-48","kind":"poi","name":"Urban Fare","theme":"market","lab":1}},{"type":"Feature","geometry":{"type":"Point","coordinates":[-123.0704,49.2698]},"properties":{"id":"ih-market-49","kind":"poi","name":"Vancouver Fresh Mart","theme":"market","lab":1}},{"type":"Feature","geometry":{"type":"Point","coordinates":[-123.1204,49.1781]},"properties":{"id":"ih-market-50","kind":"poi","name":"Walmart Supercentre","theme":"market","lab":1}},{"type":"Feature","geometry":{"type":"Point","coordinates":[-123.1153,49.264]},"properties":{"id":"ih-market-51","kind":"poi","name":"Whole Foods Market","theme":"market","lab":1}},{"type":"Feature","geometry":{"type":"Point","coordinates":[-122.9871,49.2251]},"properties":{"id":"ih-market-52","kind":"poi","name":"Wholesale Club","theme":"market","lab":1}},{"type":"Feature","geometry":{"type":"Point","coordinates":[-123.1339,49.2825]},"properties":{"id":"ih-market-53","kind":"poi","name":"Your Independent Grocer","theme":"market","lab":1}},{"type":"Feature","geometry":{"type":"Point","coordinates":[-122.8481,49.1855]},"properties":{"id":"ih-market-54","kind":"poi","name":"大統華 T&T Supermarket","theme":"market","lab":1}},{"type":"Feature","geometry":{"type":"Point","coordinates":[-123.0232,49.2676]},"properties":{"id":"ih-yakit-0","kind":"poi","name":"Burnaby Operations CNG Station","theme":"yakit","lab":1}},{"type":"Feature","geometry":{"type":"Point","coordinates":[-123.0136,49.1406]},"properties":{"id":"ih-yakit-1","kind":"poi","name":"Canco","theme":"yakit","lab":1}},{"type":"Feature","geometry":{"type":"Point","coordinates":[-122.9812,49.2496]},"properties":{"id":"ih-yakit-2","kind":"poi","name":"Centex","theme":"yakit","lab":1}},{"type":"Feature","geometry":{"type":"Point","coordinates":[-123.091,49.1923]},"properties":{"id":"ih-yakit-3","kind":"poi","name":"Chevron","theme":"yakit","lab":1}},{"type":"Feature","geometry":{"type":"Point","coordinates":[-122.9291,49.1806]},"properties":{"id":"ih-yakit-4","kind":"poi","name":"Chevron Commercial Cardlock","theme":"yakit","lab":1}},{"type":"Feature","geometry":{"type":"Point","coordinates":[-123.1368,49.1841]},"properties":{"id":"ih-yakit-5","kind":"poi","name":"Domo","theme":"yakit","lab":1}},{"type":"Feature","geometry":{"type":"Point","coordinates":[-122.9232,49.2112]},"properties":{"id":"ih-yakit-6","kind":"poi","name":"Esso","theme":"yakit","lab":1}},{"type":"Feature","geometry":{"type":"Point","coordinates":[-122.8265,49.278]},"properties":{"id":"ih-yakit-7","kind":"poi","name":"Esso Express","theme":"yakit","lab":1}},{"type":"Feature","geometry":{"type":"Point","coordinates":[-123.1381,49.2757]},"properties":{"id":"ih-yakit-8","kind":"poi","name":"False Creek Fuels","theme":"yakit","lab":1}},{"type":"Feature","geometry":{"type":"Point","coordinates":[-122.9497,49.1853]},"properties":{"id":"ih-yakit-9","kind":"poi","name":"Fas Gas","theme":"yakit","lab":1}},{"type":"Feature","geometry":{"type":"Point","coordinates":[-122.9555,49.17]},"properties":{"id":"ih-yakit-10","kind":"poi","name":"Flying J Travel Center","theme":"yakit","lab":1}},{"type":"Feature","geometry":{"type":"Point","coordinates":[-122.8568,49.1992]},"properties":{"id":"ih-yakit-11","kind":"poi","name":"Husky","theme":"yakit","lab":1}},{"type":"Feature","geometry":{"type":"Point","coordinates":[-122.7911,49.2733]},"properties":{"id":"ih-yakit-12","kind":"poi","name":"Mobil","theme":"yakit","lab":1}},{"type":"Feature","geometry":{"type":"Point","coordinates":[-122.7569,49.1913]},"properties":{"id":"ih-yakit-13","kind":"poi","name":"Otter Co-op","theme":"yakit","lab":1}},{"type":"Feature","geometry":{"type":"Point","coordinates":[-123.0043,49.2878]},"properties":{"id":"ih-yakit-14","kind":"poi","name":"Parkland Burnaby Refinery","theme":"yakit","lab":1}},{"type":"Feature","geometry":{"type":"Point","coordinates":[-122.9397,49.1488]},"properties":{"id":"ih-yakit-15","kind":"poi","name":"Petro Pass","theme":"yakit","lab":1}},{"type":"Feature","geometry":{"type":"Point","coordinates":[-123.057,49.2693]},"properties":{"id":"ih-yakit-16","kind":"poi","name":"Petro-Canada","theme":"yakit","lab":1}},{"type":"Feature","geometry":{"type":"Point","coordinates":[-122.9375,49.2553]},"properties":{"id":"ih-yakit-17","kind":"poi","name":"Propane Depot","theme":"yakit","lab":1}},{"type":"Feature","geometry":{"type":"Point","coordinates":[-123.1366,49.1982]},"properties":{"id":"ih-yakit-18","kind":"poi","name":"Richmond Marina Chevron","theme":"yakit","lab":1}},{"type":"Feature","geometry":{"type":"Point","coordinates":[-123.2737,49.3765]},"properties":{"id":"ih-yakit-19","kind":"poi","name":"Sewell's Marina Fuel","theme":"yakit","lab":1}},{"type":"Feature","geometry":{"type":"Point","coordinates":[-122.813,49.1984]},"properties":{"id":"ih-yakit-20","kind":"poi","name":"Shell","theme":"yakit","lab":1}},{"type":"Feature","geometry":{"type":"Point","coordinates":[-122.9828,49.2228]},"properties":{"id":"ih-yakit-21","kind":"poi","name":"Super Save Gas","theme":"yakit","lab":1}},{"type":"Feature","geometry":{"type":"Point","coordinates":[-123.244,49.2609]},"properties":{"id":"ih-yakit-22","kind":"poi","name":"UBC Hydrogen Station","theme":"yakit","lab":1}},{"type":"Feature","geometry":{"type":"Point","coordinates":[-123.1366,49.191]},"properties":{"id":"ih-yakit-23","kind":"poi","name":"Vancouver Marina","theme":"yakit","lab":1}},{"type":"Feature","geometry":{"type":"Point","coordinates":[-122.7682,49.1529]},"properties":{"id":"ih-yakit-24","kind":"poi","name":"West Coast Fuels","theme":"yakit","lab":1}},{"type":"Feature","geometry":{"type":"Point","coordinates":[-123.1348,49.1697]},"properties":{"id":"ih-kiralik-arac-0","kind":"poi","name":"A-Plus Rent-a-Car","theme":"kiralik-arac","lab":1}},{"type":"Feature","geometry":{"type":"Point","coordinates":[-123.0034,49.1457]},"properties":{"id":"ih-kiralik-arac-1","kind":"poi","name":"Ambassador RV","theme":"kiralik-arac","lab":1}},{"type":"Feature","geometry":{"type":"Point","coordinates":[-123.1213,49.2832]},"properties":{"id":"ih-kiralik-arac-2","kind":"poi","name":"Avis","theme":"kiralik-arac","lab":1}},{"type":"Feature","geometry":{"type":"Point","coordinates":[-123.1299,49.2915]},"properties":{"id":"ih-kiralik-arac-3","kind":"poi","name":"Bayshore Easy Drive Car Rental","theme":"kiralik-arac","lab":1}},{"type":"Feature","geometry":{"type":"Point","coordinates":[-123.0144,49.2602]},"properties":{"id":"ih-kiralik-arac-4","kind":"poi","name":"Budget","theme":"kiralik-arac","lab":1}},{"type":"Feature","geometry":{"type":"Point","coordinates":[-122.9693,49.1524]},"properties":{"id":"ih-kiralik-arac-5","kind":"poi","name":"CanaDream","theme":"kiralik-arac","lab":1}},{"type":"Feature","geometry":{"type":"Point","coordinates":[-123.0093,49.1411]},"properties":{"id":"ih-kiralik-arac-6","kind":"poi","name":"Cruise Canada","theme":"kiralik-arac","lab":1}},{"type":"Feature","geometry":{"type":"Point","coordinates":[-123.143,49.2705]},"properties":{"id":"ih-kiralik-arac-7","kind":"poi","name":"Enterprise","theme":"kiralik-arac","lab":1}},{"type":"Feature","geometry":{"type":"Point","coordinates":[-123.023,49.1298]},"properties":{"id":"ih-kiralik-arac-8","kind":"poi","name":"Escape Campervans","theme":"kiralik-arac","lab":1}},{"type":"Feature","geometry":{"type":"Point","coordinates":[-123.0795,49.2516]},"properties":{"id":"ih-kiralik-arac-9","kind":"poi","name":"Grow Car Rental","theme":"kiralik-arac","lab":1}},{"type":"Feature","geometry":{"type":"Point","coordinates":[-123.1271,49.2763]},"properties":{"id":"ih-kiralik-arac-10","kind":"poi","name":"Hertz","theme":"kiralik-arac","lab":1}},{"type":"Feature","geometry":{"type":"Point","coordinates":[-123.1193,49.3237]},"properties":{"id":"ih-kiralik-arac-11","kind":"poi","name":"Lo-Co$t Rent-A-Car","theme":"kiralik-arac","lab":1}},{"type":"Feature","geometry":{"type":"Point","coordinates":[-122.9718,49.2196]},"properties":{"id":"ih-kiralik-arac-12","kind":"poi","name":"Mr Rent A Car","theme":"kiralik-arac","lab":1}},{"type":"Feature","geometry":{"type":"Point","coordinates":[-123.1378,49.1854]},"properties":{"id":"ih-kiralik-arac-13","kind":"poi","name":"Mr Rent a car","theme":"kiralik-arac","lab":1}},{"type":"Feature","geometry":{"type":"Point","coordinates":[-123.1134,49.2878]},"properties":{"id":"ih-kiralik-arac-14","kind":"poi","name":"National","theme":"kiralik-arac","lab":1}},{"type":"Feature","geometry":{"type":"Point","coordinates":[-122.8461,49.1322]},"properties":{"id":"ih-kiralik-arac-15","kind":"poi","name":"Routes Car Rental","theme":"kiralik-arac","lab":1}},{"type":"Feature","geometry":{"type":"Point","coordinates":[-122.8234,49.2772]},"properties":{"id":"ih-kiralik-arac-16","kind":"poi","name":"U-Haul","theme":"kiralik-arac","lab":1}},{"type":"Feature","geometry":{"type":"Point","coordinates":[-122.85,49.2026]},"properties":{"id":"ih-kiralik-arac-17","kind":"poi","name":"U-Haul Self-Storage & Truck Rental","theme":"kiralik-arac","lab":1}},{"type":"Feature","geometry":{"type":"Point","coordinates":[-123.0007,49.2827]},"properties":{"id":"ih-kutuphane-0","kind":"poi","name":"BPL: McGill Library","theme":"kutuphane","lab":1}},{"type":"Feature","geometry":{"type":"Point","coordinates":[-122.8953,49.2509]},"properties":{"id":"ih-kutuphane-1","kind":"poi","name":"BPL: Temporary Cameron Branch","theme":"kutuphane","lab":1}},{"type":"Feature","geometry":{"type":"Point","coordinates":[-122.9523,49.2188]},"properties":{"id":"ih-kutuphane-2","kind":"poi","name":"BPL: Tommy Douglas Library","theme":"kutuphane","lab":1}},{"type":"Feature","geometry":{"type":"Point","coordinates":[-123.0922,49.2674]},"properties":{"id":"ih-kutuphane-3","kind":"poi","name":"Emily Carr University Library","theme":"kutuphane","lab":1}},{"type":"Feature","geometry":{"type":"Point","coordinates":[-122.7775,49.2606]},"properties":{"id":"ih-kutuphane-4","kind":"poi","name":"FVRL: Terry Fox Library","theme":"kutuphane","lab":1}},{"type":"Feature","geometry":{"type":"Point","coordinates":[-123.2527,49.2676]},"properties":{"id":"ih-kutuphane-5","kind":"poi","name":"Irving K. Barber Learning Centre","theme":"kutuphane","lab":1}},{"type":"Feature","geometry":{"type":"Point","coordinates":[-123.0386,49.3364]},"properties":{"id":"ih-kutuphane-6","kind":"poi","name":"NVDPL: Lynn Valley","theme":"kutuphane","lab":1}},{"type":"Feature","geometry":{"type":"Point","coordinates":[-122.9435,49.1861]},"properties":{"id":"ih-kutuphane-7","kind":"poi","name":"NWPL: Queensborough Library","theme":"kutuphane","lab":1}},{"type":"Feature","geometry":{"type":"Point","coordinates":[-122.8296,49.2825]},"properties":{"id":"ih-kutuphane-8","kind":"poi","name":"Port Moody Public Library","theme":"kutuphane","lab":1}},{"type":"Feature","geometry":{"type":"Point","coordinates":[-123.1413,49.1641]},"properties":{"id":"ih-kutuphane-9","kind":"poi","name":"RPL: Brighouse (Main) Branch","theme":"kutuphane","lab":1}},{"type":"Feature","geometry":{"type":"Point","coordinates":[-123.0946,49.1836]},"properties":{"id":"ih-kutuphane-10","kind":"poi","name":"RPL: Cambie Branch","theme":"kutuphane","lab":1}},{"type":"Feature","geometry":{"type":"Point","coordinates":[-123.0929,49.132]},"properties":{"id":"ih-kutuphane-11","kind":"poi","name":"RPL: Ironwood Branch","theme":"kutuphane","lab":1}},{"type":"Feature","geometry":{"type":"Point","coordinates":[-123.1778,49.1249]},"properties":{"id":"ih-kutuphane-12","kind":"poi","name":"RPL: Steveston Branch","theme":"kutuphane","lab":1}},{"type":"Feature","geometry":{"type":"Point","coordinates":[-122.8494,49.1907]},"properties":{"id":"ih-kutuphane-13","kind":"poi","name":"SL: City Centre Branch","theme":"kutuphane","lab":1}},{"type":"Feature","geometry":{"type":"Point","coordinates":[-122.7797,49.1552]},"properties":{"id":"ih-kutuphane-14","kind":"poi","name":"SL: Fleetwood Branch","theme":"kutuphane","lab":1}},{"type":"Feature","geometry":{"type":"Point","coordinates":[-122.8034,49.1935]},"properties":{"id":"ih-kutuphane-15","kind":"poi","name":"SL: Guildford Branch","theme":"kutuphane","lab":1}},{"type":"Feature","geometry":{"type":"Point","coordinates":[-122.8401,49.1304]},"properties":{"id":"ih-kutuphane-16","kind":"poi","name":"SL: Newton Branch","theme":"kutuphane","lab":1}},{"type":"Feature","geometry":{"type":"Point","coordinates":[-122.8851,49.1374]},"properties":{"id":"ih-kutuphane-17","kind":"poi","name":"SL: Strawberry Hill Barnch","theme":"kutuphane","lab":1}},{"type":"Feature","geometry":{"type":"Point","coordinates":[-123.1,49.2811]},"properties":{"id":"ih-kutuphane-18","kind":"poi","name":"VPL: Carnegie Branch","theme":"kutuphane","lab":1}},{"type":"Feature","geometry":{"type":"Point","coordinates":[-123.1154,49.2797]},"properties":{"id":"ih-kutuphane-19","kind":"poi","name":"VPL: Central Library","theme":"kutuphane","lab":1}},{"type":"Feature","geometry":{"type":"Point","coordinates":[-123.0396,49.219]},"properties":{"id":"ih-kutuphane-20","kind":"poi","name":"VPL: Champlain Heights Branch","theme":"kutuphane","lab":1}},{"type":"Feature","geometry":{"type":"Point","coordinates":[-123.1375,49.2628]},"properties":{"id":"ih-kutuphane-21","kind":"poi","name":"VPL: Firehall Branch","theme":"kutuphane","lab":1}},{"type":"Feature","geometry":{"type":"Point","coordinates":[-123.1687,49.2647]},"properties":{"id":"ih-kutuphane-22","kind":"poi","name":"VPL: Kitsilano Branch","theme":"kutuphane","lab":1}},{"type":"Feature","geometry":{"type":"Point","coordinates":[-123.1402,49.2103]},"properties":{"id":"ih-kutuphane-23","kind":"poi","name":"VPL: Marpole Branch","theme":"kutuphane","lab":1}},{"type":"Feature","geometry":{"type":"Point","coordinates":[-123.1003,49.2643]},"properties":{"id":"ih-kutuphane-24","kind":"poi","name":"VPL: Mount Pleasant Branch","theme":"kutuphane","lab":1}},{"type":"Feature","geometry":{"type":"Point","coordinates":[-123.0423,49.251]},"properties":{"id":"ih-kutuphane-25","kind":"poi","name":"VPL: Renfrew Branch","theme":"kutuphane","lab":1}},{"type":"Feature","geometry":{"type":"Point","coordinates":[-123.0904,49.2295]},"properties":{"id":"ih-kutuphane-26","kind":"poi","name":"VPL: South Hill Branch","theme":"kutuphane","lab":1}},{"type":"Feature","geometry":{"type":"Point","coordinates":[-123.1082,49.244]},"properties":{"id":"ih-kutuphane-27","kind":"poi","name":"VPL: Terry Salman Branch","theme":"kutuphane","lab":1}},{"type":"Feature","geometry":{"type":"Point","coordinates":[-123.0889,49.281]},"properties":{"id":"ih-kutuphane-28","kind":"poi","name":"VPL: nə́c̓aʔmat ct Strathcona Branch","theme":"kutuphane","lab":1}},{"type":"Feature","geometry":{"type":"Point","coordinates":[-123.2551,49.2666]},"properties":{"id":"ih-kutuphane-29","kind":"poi","name":"Walter C. Koerner Library","theme":"kutuphane","lab":1}},{"type":"Feature","geometry":{"type":"Point","coordinates":[-122.8926,49.2289]},"properties":{"id":"ih-muze-0","kind":"poi","name":"Archery Museum","theme":"muze","lab":1}},{"type":"Feature","geometry":{"type":"Point","coordinates":[-123.1124,49.2774]},"properties":{"id":"ih-muze-1","kind":"poi","name":"BC Sports Hall of Fame and Museum","theme":"muze","lab":1}},{"type":"Feature","geometry":{"type":"Point","coordinates":[-123.2509,49.2632]},"properties":{"id":"ih-muze-2","kind":"poi","name":"Beaty Biodiversity Museum","theme":"muze","lab":1}},{"type":"Feature","geometry":{"type":"Point","coordinates":[-123.1691,49.1208]},"properties":{"id":"ih-muze-3","kind":"poi","name":"Britannia Shipyards National Historic Site","theme":"muze","lab":1}},{"type":"Feature","geometry":{"type":"Point","coordinates":[-123.1425,49.2064]},"properties":{"id":"ih-muze-4","kind":"poi","name":"Colbourne House","theme":"muze","lab":1}},{"type":"Feature","geometry":{"type":"Point","coordinates":[-123.0247,49.2681]},"properties":{"id":"ih-muze-5","kind":"poi","name":"Deeley Motorcycle Exhibition","theme":"muze","lab":1}},{"type":"Feature","geometry":{"type":"Point","coordinates":[-123.1868,49.1247]},"properties":{"id":"ih-muze-6","kind":"poi","name":"Gulf of Georgia Cannery National Historic Site","theme":"muze","lab":1}},{"type":"Feature","geometry":{"type":"Point","coordinates":[-123.145,49.2764]},"properties":{"id":"ih-muze-7","kind":"poi","name":"H. R. MacMillan Space Centre","theme":"muze","lab":1}},{"type":"Feature","geometry":{"type":"Point","coordinates":[-123.186,49.2728]},"properties":{"id":"ih-muze-8","kind":"poi","name":"Hastings Mill Park Museum","theme":"muze","lab":1}},{"type":"Feature","geometry":{"type":"Point","coordinates":[-122.9063,49.2078]},"properties":{"id":"ih-muze-9","kind":"poi","name":"Irving House","theme":"muze","lab":1}},{"type":"Feature","geometry":{"type":"Point","coordinates":[-123.1176,49.2289]},"properties":{"id":"ih-muze-10","kind":"poi","name":"Jewish Museum and Archives of BC","theme":"muze","lab":1}},{"type":"Feature","geometry":{"type":"Point","coordinates":[-123.1511,49.1143]},"properties":{"id":"ih-muze-11","kind":"poi","name":"London Farm","theme":"muze","lab":1}},{"type":"Feature","geometry":{"type":"Point","coordinates":[-123.0203,49.3429]},"properties":{"id":"ih-muze-12","kind":"poi","name":"Lynn Canyon Ecology Centre","theme":"muze","lab":1}},{"type":"Feature","geometry":{"type":"Point","coordinates":[-122.8619,49.2386]},"properties":{"id":"ih-muze-13","kind":"poi","name":"Mackin Heritage House","theme":"muze","lab":1}},{"type":"Feature","geometry":{"type":"Point","coordinates":[-122.9135,49.2787]},"properties":{"id":"ih-muze-14","kind":"poi","name":"Marianne and Edward Gibson Art Museum","theme":"muze","lab":1}},{"type":"Feature","geometry":{"type":"Point","coordinates":[-123.0805,49.3113]},"properties":{"id":"ih-muze-15","kind":"poi","name":"Museum Of North Vancouver","theme":"muze","lab":1}},{"type":"Feature","geometry":{"type":"Point","coordinates":[-123.2594,49.2695]},"properties":{"id":"ih-muze-16","kind":"poi","name":"Museum of Anthropology","theme":"muze","lab":1}},{"type":"Feature","geometry":{"type":"Point","coordinates":[-122.9114,49.2016]},"properties":{"id":"ih-muze-17","kind":"poi","name":"New Westminster Museum","theme":"muze","lab":1}},{"type":"Feature","geometry":{"type":"Point","coordinates":[-122.9644,49.2176]},"properties":{"id":"ih-muze-18","kind":"poi","name":"Nikkei National Museum & Cultural Centre","theme":"muze","lab":1}},{"type":"Feature","geometry":{"type":"Point","coordinates":[-122.7799,49.2622]},"properties":{"id":"ih-muze-19","kind":"poi","name":"PoCo Heritage Museum and Archives","theme":"muze","lab":1}},{"type":"Feature","geometry":{"type":"Point","coordinates":[-122.8507,49.2792]},"properties":{"id":"ih-muze-20","kind":"poi","name":"Port Moody Station Museum;Port Moody Station","theme":"muze","lab":1}},{"type":"Feature","geometry":{"type":"Point","coordinates":[-123.1411,49.1643]},"properties":{"id":"ih-muze-21","kind":"poi","name":"Richmond Museum","theme":"muze","lab":1}},{"type":"Feature","geometry":{"type":"Point","coordinates":[-123.1513,49.1744]},"properties":{"id":"ih-muze-22","kind":"poi","name":"Richmond Olympic Experience","theme":"muze","lab":1}},{"type":"Feature","geometry":{"type":"Point","coordinates":[-123.1322,49.2869]},"properties":{"id":"ih-muze-23","kind":"poi","name":"Roedde House Museum","theme":"muze","lab":1}},{"type":"Feature","geometry":{"type":"Point","coordinates":[-122.8078,49.2482]},"properties":{"id":"ih-muze-24","kind":"poi","name":"S.P.A.R.C. Museum","theme":"muze","lab":1}},{"type":"Feature","geometry":{"type":"Point","coordinates":[-123.1037,49.2735]},"properties":{"id":"ih-muze-25","kind":"poi","name":"Science World","theme":"muze","lab":1}},{"type":"Feature","geometry":{"type":"Point","coordinates":[-123.183,49.1254]},"properties":{"id":"ih-muze-26","kind":"poi","name":"Steveston Museum","theme":"muze","lab":1}},{"type":"Feature","geometry":{"type":"Point","coordinates":[-123.1362,49.271]},"properties":{"id":"ih-muze-27","kind":"poi","name":"Ukama Gallery","theme":"muze","lab":1}},{"type":"Feature","geometry":{"type":"Point","coordinates":[-123.1476,49.2775]},"properties":{"id":"ih-muze-28","kind":"poi","name":"Vancouver Maritime Museum","theme":"muze","lab":1}},{"type":"Feature","geometry":{"type":"Point","coordinates":[-123.0982,49.2821]},"properties":{"id":"ih-muze-29","kind":"poi","name":"Vancouver Police Museum","theme":"muze","lab":1}},{"type":"Feature","geometry":{"type":"Point","coordinates":[-123.1236,49.2455]},"properties":{"id":"ih-hastane-0","kind":"poi","name":"British Columbia Children's Emergency","theme":"hastane","lab":1}},{"type":"Feature","geometry":{"type":"Point","coordinates":[-123.0155,49.2497]},"properties":{"id":"ih-hastane-1","kind":"poi","name":"Burnaby Hospital","theme":"hastane","lab":1}},{"type":"Feature","geometry":{"type":"Point","coordinates":[-123.1241,49.2442]},"properties":{"id":"ih-hastane-2","kind":"poi","name":"Children's & Women's Health Centre of British Columbia","theme":"hastane","lab":1}},{"type":"Feature","geometry":{"type":"Point","coordinates":[-122.8244,49.2852]},"properties":{"id":"ih-hastane-3","kind":"poi","name":"Eagle Ridge Hospital","theme":"hastane","lab":1}},{"type":"Feature","geometry":{"type":"Point","coordinates":[-122.8112,49.2284]},"properties":{"id":"ih-hastane-4","kind":"poi","name":"Forensic Psychiatric Hospital","theme":"hastane","lab":1}},{"type":"Feature","geometry":{"type":"Point","coordinates":[-123.0677,49.321]},"properties":{"id":"ih-hastane-5","kind":"poi","name":"Lions Gate Hospital","theme":"hastane","lab":1}},{"type":"Feature","geometry":{"type":"Point","coordinates":[-123.095,49.2583]},"properties":{"id":"ih-hastane-6","kind":"poi","name":"Mount Saint Joseph Hospital","theme":"hastane","lab":1}},{"type":"Feature","geometry":{"type":"Point","coordinates":[-122.7994,49.2586]},"properties":{"id":"ih-hastane-7","kind":"poi","name":"Redfish Healing Centre for Mental Health and Addiction","theme":"hastane","lab":1}},{"type":"Feature","geometry":{"type":"Point","coordinates":[-123.1463,49.1689]},"properties":{"id":"ih-hastane-8","kind":"poi","name":"Richmond Hospital","theme":"hastane","lab":1}},{"type":"Feature","geometry":{"type":"Point","coordinates":[-122.8907,49.2266]},"properties":{"id":"ih-hastane-9","kind":"poi","name":"Royal Columbian Hospital","theme":"hastane","lab":1}},{"type":"Feature","geometry":{"type":"Point","coordinates":[-123.1289,49.2806]},"properties":{"id":"ih-hastane-10","kind":"poi","name":"St. Paul's Hospital","theme":"hastane","lab":1}},{"type":"Feature","geometry":{"type":"Point","coordinates":[-122.8428,49.1763]},"properties":{"id":"ih-hastane-11","kind":"poi","name":"Surrey Memorial Hospital","theme":"hastane","lab":1}},{"type":"Feature","geometry":{"type":"Point","coordinates":[-123.2457,49.2642]},"properties":{"id":"ih-hastane-12","kind":"poi","name":"UBC Hospital","theme":"hastane","lab":1}},{"type":"Feature","geometry":{"type":"Point","coordinates":[-123.1221,49.2612]},"properties":{"id":"ih-hastane-13","kind":"poi","name":"Vancouver General Hospital","theme":"hastane","lab":1}}]}