{"type":"FeatureCollection","features":[{"type":"Feature","properties":{"id":"line-expo","kind":"line","lineRef":"metro","ref":"Expo","color":"#0060a9"},"geometry":{"type":"MultiLineString","coordinates":[[[-123.11171,49.28602],[-123.1159,49.28761],[-123.11816,49.28808],[-123.11924,49.28809],[-123.11982,49.28796],[-123.12038,49.2876],[-123.12062,49.28725],[-123.1207,49.2869],[-123.12061,49.28641],[-123.12036,49.28612],[-123.11116,49.28034],[-123.11012,49.27987],[-123.1077,49.27829],[-123.10662,49.27789],[-123.10413,49.27756],[-123.10321,49.27715],[-123.10286,49.27681],[-123.10268,49.27648],[-123.10223,49.27384],[-123.10208,49.27357],[-123.10182,49.2734],[-123.09898,49.27285],[-123.097,49.27228],[-123.08625,49.27045],[-123.08222,49.26957],[-123.08147,49.26929],[-123.08076,49.26886],[-123.0803,49.26842],[-123.07918,49.26703],[-123.07818,49.26636],[-123.0697,49.26354],[-123.06935,49.26322],[-123.06921,49.26284],[-123.06916,49.25657],[-123.06892,49.25559],[-123.0686,49.25503],[-123.06813,49.2545],[-123.0653,49.25234],[-123.06429,49.25178],[-123.0528,49.24704],[-123.0413,49.2423],[-123.02981,49.23756],[-123.02553,49.23549],[-123.02255,49.23413],[-123.02015,49.2332],[-123.01555,49.23111],[-123.01274,49.22975],[-123.0033,49.22549],[-123.00005,49.22387],[-122.99508,49.22163],[-122.99314,49.22106],[-122.979,49.21811],[-122.97726,49.21742],[-122.9733,49.21552],[-122.97253,49.2152],[-122.97147,49.21491],[-122.96953,49.21477],[-122.96287,49.21491],[-122.96216,49.21479],[-122.96137,49.21451],[-122.9605,49.2138],[-122.9567,49.2085],[-122.95659,49.20784],[-122.95677,49.20721],[-122.95878,49.20439],[-122.95888,49.20387],[-122.95885,49.203],[-122.95858,49.20212],[-122.9581,49.20147],[-122.95736,49.20081],[-122.95586,49.20004],[-122.95467,49.19969],[-122.9532,49.1995],[-122.95085,49.19962],[-122.94607,49.20078],[-122.94153,49.20139],[-122.93876,49.20248],[-122.9355,49.20353],[-122.93466,49.20373],[-122.93379,49.20381],[-122.92951,49.2034],[-122.92817,49.20317],[-122.92711,49.20269],[-122.92518,49.20128],[-122.92387,49.20086],[-122.92049,49.20029],[-122.91595,49.20004],[-122.91509,49.2002],[-122.91452,49.20041],[-122.90932,49.2032],[-122.90404,49.20579]],[[-122.90631,49.20476],[-122.90949,49.20316],[-122.91428,49.20057],[-122.91508,49.20024],[-122.91598,49.20008],[-122.92049,49.20032],[-122.92388,49.20089],[-122.92515,49.20132],[-122.9271,49.20274],[-122.92798,49.20314],[-122.92911,49.20339],[-122.93368,49.20386],[-122.93495,49.20372],[-122.9362,49.20335],[-122.93924,49.20235],[-122.94164,49.20139],[-122.94579,49.20087],[-122.95079,49.19966],[-122.95234,49.19952],[-122.95375,49.19958],[-122.95517,49.19985],[-122.95605,49.20015],[-122.95731,49.20083],[-122.95806,49.20148],[-122.95855,49.20225],[-122.95871,49.20316],[-122.95872,49.20401],[-122.9586,49.20447],[-122.95658,49.20729],[-122.95642,49.20782],[-122.95648,49.20839],[-122.9567,49.20881],[-122.96053,49.21392],[-122.96132,49.21454],[-122.96215,49.21484],[-122.96347,49.21498],[-122.96962,49.2148],[-122.97158,49.21497],[-122.97261,49.21527],[-122.97746,49.21754],[-122.97892,49.21811],[-122.99304,49.22107],[-122.99491,49.22161],[-122.99881,49.22334],[-123.00383,49.22585],[-123.01975,49.23307],[-123.02255,49.23417],[-123.03019,49.23779],[-123.03718,49.24059],[-123.05068,49.24619],[-123.06418,49.25179],[-123.06532,49.25242],[-123.06793,49.2544],[-123.06853,49.255],[-123.06888,49.2556],[-123.06911,49.25666],[-123.06905,49.26282],[-123.06921,49.26328],[-123.06962,49.26361],[-123.07823,49.26643],[-123.07916,49.26708],[-123.08068,49.26885],[-123.08135,49.26927],[-123.08215,49.26959],[-123.08612,49.27047],[-123.09698,49.27231],[-123.09902,49.27294],[-123.10177,49.27348],[-123.10205,49.27368],[-123.1022,49.27398],[-123.10263,49.2765],[-123.10289,49.27694],[-123.1032,49.2772],[-123.10412,49.2776],[-123.10638,49.27789],[-123.1075,49.27829],[-123.10987,49.27982],[-123.11134,49.28045],[-123.12036,49.28612],[-123.12059,49.2864],[-123.12069,49.2869],[-123.12061,49.28724],[-123.12037,49.28759],[-123.11982,49.28796],[-123.11924,49.28808],[-123.11816,49.28807],[-123.11585,49.28753],[-123.11151,49.28583]],[[-122.91816,49.25338],[-122.90998,49.25222],[-122.90354,49.25109],[-122.90143,49.25048],[-122.89941,49.24952],[-122.8977,49.24885],[-122.89333,49.24642],[-122.89305,49.24612],[-122.8929,49.24565],[-122.89279,49.24258],[-122.89255,49.24202],[-122.89218,49.24152],[-122.89159,49.24106],[-122.8846,49.23693],[-122.8838,49.23619],[-122.8833,49.23524],[-122.88249,49.23172],[-122.88251,49.2311],[-122.8827,49.23052],[-122.88343,49.22963],[-122.88961,49.22452],[-122.89116,49.22318],[-122.89163,49.22264],[-122.89206,49.22169],[-122.8927,49.219],[-122.89412,49.21446],[-122.89505,49.21285],[-122.89555,49.21239],[-122.89808,49.21056],[-122.89937,49.20948],[-122.90197,49.20683],[-122.90407,49.20582]],[[-122.90235,49.20652],[-122.90146,49.20719],[-122.89932,49.20944],[-122.89805,49.21052],[-122.89569,49.2122],[-122.89484,49.21308],[-122.89395,49.21477],[-122.89265,49.21898],[-122.89193,49.22194],[-122.89153,49.2227],[-122.89113,49.22314],[-122.88909,49.22488],[-122.8834,49.22959],[-122.88283,49.2302],[-122.88247,49.23095],[-122.88244,49.23173],[-122.88327,49.23535],[-122.88377,49.23624],[-122.88462,49.23701],[-122.89127,49.24092],[-122.89213,49.24153],[-122.89252,49.24207],[-122.89273,49.24258],[-122.89284,49.24565],[-122.89298,49.24612],[-122.89328,49.24645],[-122.89758,49.2489],[-122.89956,49.24963],[-122.90094,49.25033],[-122.90332,49.25109],[-122.90982,49.25225],[-122.91812,49.25346]],[[-122.90407,49.20582],[-122.90631,49.20476]],[[-122.90631,49.20476],[-122.90667,49.20461],[-122.90598,49.20492],[-122.90631,49.20476]],[[-122.90235,49.20652],[-122.90312,49.20628],[-122.90407,49.20582]],[[-122.90404,49.20579],[-122.90246,49.20646]],[[-122.90404,49.20579],[-122.90309,49.20626],[-122.90246,49.20646]],[[-122.90246,49.20646],[-122.90156,49.20655],[-122.9007,49.20645],[-122.88858,49.20356],[-122.88657,49.20331],[-122.88473,49.20326],[-122.88299,49.20337],[-122.87088,49.20479],[-122.86227,49.20691],[-122.86123,49.20708],[-122.85996,49.20712],[-122.85901,49.20701],[-122.85749,49.20656],[-122.85661,49.20613],[-122.85183,49.20297],[-122.85107,49.20226],[-122.85082,49.20186],[-122.85066,49.20095],[-122.85064,49.19467],[-122.8504,49.19419],[-122.85007,49.19381],[-122.84835,49.19226],[-122.84796,49.19156],[-122.84789,49.19099],[-122.84793,49.18872],[-122.84781,49.18832],[-122.84709,49.18707],[-122.84708,49.18452],[-122.84687,49.18388],[-122.84654,49.18356],[-122.84595,49.18326],[-122.84058,49.18116]],[[-122.84058,49.18121],[-122.84617,49.18341],[-122.84681,49.18389],[-122.84702,49.18453],[-122.847,49.18689],[-122.84714,49.18736],[-122.84773,49.18834],[-122.8478,49.18871],[-122.84779,49.19107],[-122.84795,49.19178],[-122.84863,49.19262],[-122.85016,49.19396],[-122.85045,49.19435],[-122.85059,49.1948],[-122.85055,49.20018],[-122.85061,49.20131],[-122.85081,49.20198],[-122.85123,49.20255],[-122.85195,49.20313],[-122.85591,49.20575],[-122.85729,49.20655],[-122.85836,49.20692],[-122.85919,49.20708],[-122.86104,49.20715],[-122.86296,49.20679],[-122.87053,49.20491],[-122.88262,49.20346],[-122.88473,49.20329],[-122.88656,49.20334],[-122.88857,49.20359],[-122.90067,49.20649],[-122.90156,49.20659],[-122.90235,49.20652]],[[-123.0692,49.26146],[-123.06919,49.2622],[-123.06908,49.26219],[-123.06909,49.26146],[-123.0692,49.26146]],[[-123.06905,49.26146],[-123.06904,49.2622],[-123.06891,49.2622],[-123.06893,49.26146],[-123.06905,49.26146]],[[-123.05614,49.24831],[-123.05539,49.24807],[-123.05611,49.24837],[-123.05614,49.24831]],[[-123.05598,49.24845],[-123.05533,49.24814],[-123.05607,49.24842],[-123.05598,49.24845]],[[-122.94824,49.20022],[-122.9493,49.19995],[-122.94923,49.1999],[-122.94824,49.20022]],[[-122.91316,49.20118],[-122.91228,49.20165],[-122.91309,49.20133],[-122.91316,49.20118]],[[-122.9131,49.20114],[-122.9122,49.20159],[-122.91303,49.20108],[-122.9131,49.20114]],[[-122.89759,49.2489],[-122.89766,49.24885],[-122.89637,49.24815],[-122.89631,49.24819],[-122.89759,49.2489]],[[-122.8441,49.18257],[-122.84508,49.18297],[-122.84471,49.1829],[-122.8441,49.18257]]]}},{"type":"Feature","properties":{"id":"badge-expo","kind":"badge","ref":"Expo","lineRef":"metro","color":"#0060a9"},"geometry":{"type":"Point","coordinates":[-123.01274,49.22975]}},{"type":"Feature","properties":{"id":"stn-metro-2","kind":"node","name":"Patterson","lineRef":"metro","lab":1,"color":"#0060a9"},"geometry":{"type":"Point","coordinates":[-123.01274,49.22975]}},{"type":"Feature","properties":{"id":"stn-metro-3","kind":"node","name":"Surrey Central","lineRef":"metro","lab":1,"color":"#0060a9"},"geometry":{"type":"Point","coordinates":[-122.84793,49.18952]}},{"type":"Feature","properties":{"id":"stn-metro-4","kind":"node","name":"Royal Oak","lineRef":"metro","lab":1,"color":"#0060a9"},"geometry":{"type":"Point","coordinates":[-122.98852,49.22005]}},{"type":"Feature","properties":{"id":"stn-metro-5","kind":"node","name":"Edmonds","lineRef":"metro","lab":1,"color":"#0060a9"},"geometry":{"type":"Point","coordinates":[-122.95931,49.21219]}},{"type":"Feature","properties":{"id":"stn-metro-6","kind":"node","name":"22nd Street","lineRef":"metro","lab":1,"color":"#0060a9"},"geometry":{"type":"Point","coordinates":[-122.94888,49.20008]}},{"type":"Feature","properties":{"id":"stn-metro-7","kind":"node","name":"Columbia","lineRef":"metro","lab":1,"color":"#0060a9"},"geometry":{"type":"Point","coordinates":[-122.90628,49.20473]}},{"type":"Feature","properties":{"id":"stn-metro-8","kind":"node","name":"Sapperton","lineRef":"metro","lab":1,"color":"#0060a9"},"geometry":{"type":"Point","coordinates":[-122.88961,49.22452]}},{"type":"Feature","properties":{"id":"stn-metro-9","kind":"node","name":"Braid","lineRef":"metro","lab":1,"color":"#0060a9"},"geometry":{"type":"Point","coordinates":[-122.88286,49.23333]}},{"type":"Feature","properties":{"id":"stn-metro-10","kind":"node","name":"Burrard","lineRef":"metro","lab":1,"color":"#0060a9"},"geometry":{"type":"Point","coordinates":[-123.11978,49.28576]}},{"type":"Feature","properties":{"id":"stn-metro-11","kind":"node","name":"Granville","lineRef":"metro","lab":1,"color":"#0060a9"},"geometry":{"type":"Point","coordinates":[-123.11604,49.28345]}},{"type":"Feature","properties":{"id":"stn-metro-12","kind":"node","name":"Nanaimo","lineRef":"metro","lab":1,"color":"#0060a9"},"geometry":{"type":"Point","coordinates":[-123.05593,49.24831]}},{"type":"Feature","properties":{"id":"stn-metro-13","kind":"node","name":"29th Avenue","lineRef":"metro","lab":1,"color":"#0060a9"},"geometry":{"type":"Point","coordinates":[-123.04587,49.24413]}},{"type":"Feature","properties":{"id":"stn-metro-14","kind":"node","name":"Stadium–Chinatown","lineRef":"metro","lab":1,"color":"#0060a9"},"geometry":{"type":"Point","coordinates":[-123.10935,49.27936]}},{"type":"Feature","properties":{"id":"stn-metro-15","kind":"node","name":"Scott Road","lineRef":"metro","lab":1,"color":"#0060a9"},"geometry":{"type":"Point","coordinates":[-122.87412,49.20439]}},{"type":"Feature","properties":{"id":"stn-metro-16","kind":"node","name":"Joyce–Collingwood","lineRef":"metro","lab":1,"color":"#0060a9"},"geometry":{"type":"Point","coordinates":[-123.03184,49.23837]}},{"type":"Feature","properties":{"id":"stn-metro-17","kind":"node","name":"Main Street–Science World","lineRef":"metro","lab":1,"color":"#0060a9"},"geometry":{"type":"Point","coordinates":[-123.10034,49.27309]}},{"type":"Feature","properties":{"id":"stn-metro-18","kind":"node","name":"Gateway","lineRef":"metro","lab":1,"color":"#0060a9"},"geometry":{"type":"Point","coordinates":[-122.85068,49.19891]}},{"type":"Feature","properties":{"id":"line-millennium","kind":"line","lineRef":"metro","ref":"Millennium","color":"#c9a227"},"geometry":{"type":"MultiLineString","coordinates":[[[-123.07899,49.26578],[-123.07691,49.26542],[-123.07236,49.26404],[-123.06981,49.26341],[-123.05698,49.25833],[-123.05533,49.25795],[-123.05349,49.25783],[-123.05205,49.25792],[-123.04395,49.2591],[-123.03488,49.26023],[-123.03081,49.26135],[-123.02826,49.26219],[-123.0271,49.2624],[-123.02461,49.26245],[-123.01707,49.26233],[-123.01639,49.26241],[-123.01577,49.26262],[-123.0153,49.26296],[-123.01464,49.26405],[-123.01429,49.26443],[-123.01173,49.26597],[-123.01057,49.26631],[-123.00647,49.2665],[-122.99787,49.26627],[-122.9959,49.266],[-122.99312,49.26517],[-122.9918,49.26493],[-122.98476,49.26487],[-122.98063,49.2646],[-122.97953,49.26443],[-122.97853,49.26415],[-122.96859,49.26056],[-122.96577,49.25939],[-122.95804,49.25857],[-122.95336,49.2584],[-122.9503,49.25757],[-122.94261,49.25506],[-122.9415,49.25483],[-122.93681,49.25441],[-122.9256,49.2543],[-122.91959,49.25359],[-122.90933,49.25211],[-122.90648,49.25155],[-122.90354,49.25109],[-122.90212,49.25072],[-122.90079,49.25023],[-122.89941,49.24952],[-122.89789,49.24895],[-122.89459,49.24728],[-122.89383,49.24718],[-122.89314,49.24741],[-122.89292,49.24763],[-122.89282,49.24793],[-122.89301,49.25803],[-122.89291,49.25859],[-122.89263,49.25909],[-122.89203,49.25967],[-122.88915,49.26192],[-122.88846,49.26307],[-122.88758,49.26387],[-122.88518,49.26574],[-122.88225,49.26773],[-122.87657,49.27212],[-122.87591,49.27284],[-122.87277,49.27718],[-122.87161,49.27822],[-122.87083,49.27872],[-122.87013,49.27901],[-122.86836,49.27933],[-122.86729,49.27931],[-122.86154,49.27867],[-122.85675,49.27787],[-122.85422,49.27786],[-122.8516,49.27797],[-122.83656,49.27784],[-122.83419,49.27762],[-122.83148,49.27768],[-122.82914,49.2774],[-122.82594,49.27682],[-122.80727,49.27647],[-122.80461,49.27608],[-122.80141,49.27504],[-122.80006,49.27465],[-122.79949,49.2746],[-122.79892,49.27474],[-122.79862,49.27497],[-122.79807,49.27572],[-122.79671,49.27714],[-122.79485,49.27943],[-122.79323,49.28124],[-122.79293,49.28191],[-122.79288,49.28339],[-122.79171,49.28531]],[[-122.79187,49.28535],[-122.79293,49.28341],[-122.79299,49.28192],[-122.79323,49.28135],[-122.79491,49.27946],[-122.79643,49.27754],[-122.79813,49.27574],[-122.79867,49.27499],[-122.79896,49.27478],[-122.7995,49.27464],[-122.80005,49.27469],[-122.80166,49.27516],[-122.80425,49.27606],[-122.80728,49.27651],[-122.82606,49.27688],[-122.82926,49.27745],[-122.83144,49.27771],[-122.83398,49.27765],[-122.83672,49.27789],[-122.85145,49.27808],[-122.85428,49.2779],[-122.85675,49.27792],[-122.862,49.27878],[-122.86738,49.27937],[-122.86836,49.27938],[-122.87015,49.27906],[-122.87087,49.27876],[-122.87166,49.27825],[-122.87282,49.27723],[-122.87602,49.27285],[-122.87665,49.27216],[-122.8823,49.26777],[-122.88524,49.26576],[-122.88763,49.2639],[-122.88837,49.26327],[-122.88922,49.26193],[-122.89208,49.2597],[-122.89274,49.25904],[-122.893,49.25852],[-122.89307,49.25803],[-122.89289,49.24795],[-122.89297,49.24766],[-122.89316,49.24746],[-122.89385,49.24721],[-122.89457,49.24731],[-122.89751,49.24891],[-122.8991,49.24944],[-122.90094,49.25033],[-122.90235,49.25083],[-122.90391,49.25121],[-122.90634,49.25157],[-122.90926,49.25216],[-122.91913,49.2536],[-122.92168,49.25383],[-122.9256,49.25434],[-122.93681,49.25445],[-122.94148,49.25488],[-122.94258,49.2551],[-122.95052,49.25768],[-122.95314,49.2584],[-122.95421,49.25852],[-122.95895,49.25868],[-122.96561,49.2594],[-122.97445,49.26279],[-122.97874,49.26431],[-122.9802,49.26461],[-122.98459,49.26491],[-122.99179,49.26496],[-122.99306,49.26519],[-122.99576,49.26601],[-122.99753,49.26629],[-123.00603,49.26654],[-123.01053,49.26636],[-123.0117,49.26604],[-123.01432,49.26447],[-123.0147,49.26408],[-123.01535,49.26298],[-123.01623,49.26249],[-123.0171,49.26237],[-123.02462,49.26249],[-123.02711,49.26244],[-123.02827,49.26224],[-123.03143,49.26121],[-123.03496,49.26027],[-123.04617,49.25885],[-123.05203,49.25797],[-123.05373,49.25787],[-123.05575,49.25807],[-123.0574,49.25851],[-123.06939,49.26336],[-123.07197,49.26397],[-123.0766,49.26538],[-123.07897,49.26582]],[[-123.03337,49.26052],[-123.03234,49.26085],[-123.03342,49.26058],[-123.03337,49.26052]],[[-123.03334,49.26075],[-123.03229,49.26098],[-123.0333,49.26069],[-123.03334,49.26075]],[[-122.89759,49.2489],[-122.89766,49.24885],[-122.89637,49.24815],[-122.89631,49.24819],[-122.89759,49.2489]],[[-122.79189,49.28528],[-122.79177,49.28525],[-122.79138,49.28594],[-122.7915,49.28597],[-122.79189,49.28528]]]}},{"type":"Feature","properties":{"id":"badge-millennium","kind":"badge","ref":"Millennium","lineRef":"metro","color":"#c9a227"},"geometry":{"type":"Point","coordinates":[-122.89941,49.24952]}},{"type":"Feature","properties":{"id":"stn-metro-21","kind":"node","name":"VCC–Clark","lineRef":"metro","lab":1,"color":"#c9a227"},"geometry":{"type":"Point","coordinates":[-123.07897,49.26582]}},{"type":"Feature","properties":{"id":"stn-metro-22","kind":"node","name":"Renfrew","lineRef":"metro","lab":1,"color":"#c9a227"},"geometry":{"type":"Point","coordinates":[-123.04556,49.25893]}},{"type":"Feature","properties":{"id":"stn-metro-23","kind":"node","name":"Lake City Way","lineRef":"metro","lab":1,"color":"#c9a227"},"geometry":{"type":"Point","coordinates":[-122.939,49.25464]}},{"type":"Feature","properties":{"id":"stn-metro-24","kind":"node","name":"Sperling–Burnaby Lake","lineRef":"metro","lab":1,"color":"#c9a227"},"geometry":{"type":"Point","coordinates":[-122.96395,49.25916]}},{"type":"Feature","properties":{"id":"stn-metro-25","kind":"node","name":"Holdom","lineRef":"metro","lab":1,"color":"#c9a227"},"geometry":{"type":"Point","coordinates":[-122.9821,49.26475]}},{"type":"Feature","properties":{"id":"stn-metro-26","kind":"node","name":"Rupert","lineRef":"metro","lab":1,"color":"#c9a227"},"geometry":{"type":"Point","coordinates":[-123.03288,49.26079]}},{"type":"Feature","properties":{"id":"stn-metro-27","kind":"node","name":"Lincoln","lineRef":"metro","lab":1,"color":"#c9a227"},"geometry":{"type":"Point","coordinates":[-122.79407,49.28038]}},{"type":"Feature","properties":{"id":"stn-metro-28","kind":"node","name":"Moody Centre","lineRef":"metro","lab":1,"color":"#c9a227"},"geometry":{"type":"Point","coordinates":[-122.84601,49.27801]}},{"type":"Feature","properties":{"id":"stn-metro-29","kind":"node","name":"Gilmore","lineRef":"metro","lab":1,"color":"#c9a227"},"geometry":{"type":"Point","coordinates":[-123.0135,49.26498]}},{"type":"Feature","properties":{"id":"stn-metro-30","kind":"node","name":"Burquitlam","lineRef":"metro","lab":1,"color":"#c9a227"},"geometry":{"type":"Point","coordinates":[-122.89013,49.26121]}},{"type":"Feature","properties":{"id":"stn-metro-31","kind":"node","name":"Inlet Centre","lineRef":"metro","lab":1,"color":"#c9a227"},"geometry":{"type":"Point","coordinates":[-122.82766,49.27716]}},{"type":"Feature","properties":{"id":"stn-metro-32","kind":"node","name":"Lafarge Lake–Douglas","lineRef":"metro","lab":1,"color":"#c9a227"},"geometry":{"type":"Point","coordinates":[-122.79187,49.28535]}},{"type":"Feature","properties":{"id":"stn-metro-33","kind":"node","name":"Brentwood Town Centre","lineRef":"metro","lab":1,"color":"#c9a227"},"geometry":{"type":"Point","coordinates":[-123.00167,49.26642]}},{"type":"Feature","properties":{"id":"line-canada","kind":"line","lineRef":"metro","ref":"Canada","color":"#009ac8"},"geometry":{"type":"MultiLineString","coordinates":[[[-123.17087,49.19355],[-123.17382,49.19368],[-123.1795,49.19432]],[[-123.17087,49.19355],[-123.16614,49.19306],[-123.15682,49.19298],[-123.15552,49.19307],[-123.15429,49.19331],[-123.15297,49.19377],[-123.14842,49.19626],[-123.14514,49.19683],[-123.1337,49.19553],[-123.13264,49.19528],[-123.13037,49.19438],[-123.12959,49.19428],[-123.12888,49.19432]],[[-123.12783,49.19481],[-123.12899,49.19444],[-123.13003,49.19441],[-123.13091,49.19461],[-123.1326,49.19532],[-123.13368,49.19558],[-123.14514,49.19687],[-123.14845,49.1963],[-123.15301,49.19381],[-123.15414,49.19339],[-123.15532,49.19315],[-123.16113,49.19305],[-123.16603,49.1931],[-123.17087,49.19355]],[[-123.13651,49.17262],[-123.13641,49.18222],[-123.13616,49.18471],[-123.13599,49.18502],[-123.13289,49.18817],[-123.13052,49.19043],[-123.13012,49.19122],[-123.13006,49.1928],[-123.12989,49.1934],[-123.12939,49.19397],[-123.1287,49.19436]],[[-123.12888,49.19432],[-123.12955,49.1939],[-123.13002,49.19325],[-123.13011,49.19281],[-123.13015,49.19134],[-123.1303,49.1909],[-123.13062,49.19039],[-123.13278,49.18837],[-123.13597,49.18513],[-123.13628,49.18455],[-123.1365,49.18183],[-123.13651,49.17262]],[[-123.13651,49.17262],[-123.13635,49.17083],[-123.13636,49.16752]],[[-123.1287,49.19436],[-123.12641,49.19532]],[[-123.1287,49.19436],[-123.12641,49.19532]],[[-123.11525,49.24854],[-123.11548,49.2451],[-123.11566,49.24476],[-123.11612,49.24432],[-123.11754,49.24349],[-123.118,49.24297],[-123.11821,49.24254],[-123.11836,49.24097],[-123.11817,49.24045],[-123.11613,49.23857],[-123.11591,49.2379],[-123.11617,49.23307],[-123.11635,49.22651],[-123.11666,49.22109],[-123.11703,49.20927],[-123.11738,49.20794],[-123.11759,49.20407],[-123.11799,49.20035],[-123.11816,49.19993],[-123.11845,49.19955],[-123.1205,49.19788],[-123.1238,49.19665],[-123.12783,49.19481]],[[-123.11525,49.24854],[-123.11531,49.24563],[-123.1154,49.2451],[-123.1156,49.24474],[-123.11605,49.2443],[-123.11747,49.24343],[-123.11788,49.24303],[-123.11813,49.24252],[-123.11827,49.24098],[-123.11807,49.24047],[-123.11605,49.2386],[-123.1159,49.23838],[-123.11581,49.23791],[-123.1161,49.23308],[-123.11646,49.22405],[-123.11682,49.21502],[-123.11682,49.21503],[-123.11697,49.20927],[-123.11733,49.20789],[-123.11751,49.20449],[-123.11789,49.2005],[-123.11807,49.19996],[-123.11834,49.19959],[-123.12033,49.19792],[-123.12108,49.19756],[-123.12368,49.19664],[-123.12641,49.19532]],[[-123.11498,49.26132],[-123.11537,49.25015],[-123.11533,49.24924]],[[-123.11498,49.26132],[-123.11534,49.25121],[-123.11533,49.24924]],[[-123.11289,49.28588],[-123.12375,49.27876],[-123.12447,49.27807],[-123.12474,49.27731],[-123.1246,49.27656],[-123.12408,49.27585],[-123.12052,49.27349],[-123.11994,49.27298],[-123.11937,49.27221],[-123.11771,49.26933],[-123.11562,49.26715],[-123.11503,49.26609],[-123.11475,49.26518],[-123.11474,49.26344],[-123.11498,49.26132]],[[-123.11302,49.28596],[-123.12383,49.27879],[-123.12451,49.27808],[-123.12478,49.27731],[-123.12465,49.27658],[-123.12413,49.27583],[-123.12054,49.27348],[-123.11996,49.27296],[-123.11939,49.27219],[-123.11775,49.26934],[-123.11616,49.26766],[-123.11574,49.26708],[-123.11501,49.26577],[-123.11481,49.26513],[-123.11477,49.26376],[-123.11498,49.26132]],[[-123.114,49.2853],[-123.1139,49.28524],[-123.11307,49.28578],[-123.11317,49.28584],[-123.114,49.2853]]]}},{"type":"Feature","properties":{"id":"badge-canada","kind":"badge","ref":"Canada","lineRef":"metro","color":"#009ac8"},"geometry":{"type":"Point","coordinates":[-123.11581,49.23791]}},{"type":"Feature","properties":{"id":"stn-metro-36","kind":"node","name":"Vancouver City Centre","lineRef":"metro","lab":1,"color":"#009ac8"},"geometry":{"type":"Point","coordinates":[-123.11888,49.28196]}},{"type":"Feature","properties":{"id":"stn-metro-37","kind":"node","name":"Olympic Village","lineRef":"metro","lab":1,"color":"#009ac8"},"geometry":{"type":"Point","coordinates":[-123.11535,49.26665]}},{"type":"Feature","properties":{"id":"stn-metro-38","kind":"node","name":"Langara-49th Avenue","lineRef":"metro","lab":1,"color":"#009ac8"},"geometry":{"type":"Point","coordinates":[-123.11632,49.22651]}},{"type":"Feature","properties":{"id":"stn-metro-39","kind":"node","name":"Marine Drive","lineRef":"metro","lab":1,"color":"#009ac8"},"geometry":{"type":"Point","coordinates":[-123.11695,49.20962]}},{"type":"Feature","properties":{"id":"stn-metro-40","kind":"node","name":"Templeton","lineRef":"metro","lab":1,"color":"#009ac8"},"geometry":{"type":"Point","coordinates":[-123.14642,49.1967]}},{"type":"Feature","properties":{"id":"stn-metro-41","kind":"node","name":"Aberdeen","lineRef":"metro","lab":1,"color":"#009ac8"},"geometry":{"type":"Point","coordinates":[-123.13636,49.18391]}},{"type":"Feature","properties":{"id":"stn-metro-42","kind":"node","name":"Lansdowne","lineRef":"metro","lab":1,"color":"#009ac8"},"geometry":{"type":"Point","coordinates":[-123.13652,49.17472]}},{"type":"Feature","properties":{"id":"stn-metro-43","kind":"node","name":"Yaletown-Roundhouse","lineRef":"metro","lab":1,"color":"#009ac8"},"geometry":{"type":"Point","coordinates":[-123.12209,49.27453]}},{"type":"Feature","properties":{"id":"stn-metro-44","kind":"node","name":"Oakridge-41st Avenue","lineRef":"metro","lab":1,"color":"#009ac8"},"geometry":{"type":"Point","coordinates":[-123.1161,49.23308]}},{"type":"Feature","properties":{"id":"stn-metro-45","kind":"node","name":"Sea Island Centre","lineRef":"metro","lab":1,"color":"#009ac8"},"geometry":{"type":"Point","coordinates":[-123.15796,49.19309]}},{"type":"Feature","properties":{"id":"stn-metro-46","kind":"node","name":"King Edward","lineRef":"metro","lab":1,"color":"#009ac8"},"geometry":{"type":"Point","coordinates":[-123.11533,49.2493]}},{"type":"Feature","properties":{"id":"stn-metro-47","kind":"node","name":"YVR–Airport","lineRef":"metro","lab":1,"color":"#009ac8"},"geometry":{"type":"Point","coordinates":[-123.17842,49.1942]}},{"type":"Feature","properties":{"id":"stn-metro-48","kind":"node","name":"Capstan","lineRef":"metro","lab":1,"color":"#009ac8"},"geometry":{"type":"Point","coordinates":[-123.13145,49.18953]}},{"type":"Feature","properties":{"id":"stn-metro-49","kind":"node","name":"Richmond–Brighouse","lineRef":"metro","lab":1,"color":"#009ac8"},"geometry":{"type":"Point","coordinates":[-123.13636,49.16813]}},{"type":"Feature","properties":{"id":"line-wce","kind":"line","lineRef":"train","ref":"WCE","color":"#77278b"},"geometry":{"type":"MultiLineString","coordinates":[[[-123.10701,49.28453],[-123.10928,49.28509],[-123.11241,49.28635]],[[-123.10701,49.28453],[-123.10882,49.28501],[-123.11232,49.28642]],[[-122.57924,49.20058],[-122.58094,49.20274],[-122.58193,49.20348],[-122.58267,49.20385],[-122.58741,49.20541],[-122.59931,49.21039],[-122.60118,49.21109],[-122.60441,49.21199],[-122.60938,49.21314],[-122.61055,49.21331],[-122.61373,49.21327],[-122.61959,49.21296],[-122.62454,49.21219],[-122.63074,49.21075],[-122.6379,49.2088],[-122.64697,49.20594],[-122.64902,49.2057],[-122.65032,49.20578],[-122.65146,49.20602],[-122.65277,49.20653],[-122.65375,49.20718],[-122.661,49.21395],[-122.66274,49.21498],[-122.6756,49.22044],[-122.68845,49.2259],[-122.70131,49.23136],[-122.71417,49.23682],[-122.72702,49.24228],[-122.73988,49.24774],[-122.74155,49.24826],[-122.74377,49.24842],[-122.7452,49.24877],[-122.75807,49.25423],[-122.77095,49.25968],[-122.77305,49.26062],[-122.77366,49.26113],[-122.77454,49.26216],[-122.77506,49.26254],[-122.77951,49.26454],[-122.79255,49.27006],[-122.802,49.27494],[-122.80353,49.27553],[-122.80519,49.27597],[-122.80693,49.27625],[-122.80864,49.27636],[-122.82677,49.27675],[-122.82864,49.27693],[-122.83487,49.27782],[-122.83654,49.27794],[-122.85103,49.27822],[-122.85438,49.278],[-122.85616,49.27798],[-122.85744,49.27807],[-122.85921,49.27838],[-122.8632,49.27948],[-122.86417,49.27993],[-122.86499,49.2805],[-122.8656,49.28118],[-122.866,49.28194],[-122.86614,49.28256],[-122.8662,49.28503],[-122.86629,49.28565],[-122.86707,49.28745],[-122.86758,49.28827],[-122.8683,49.28895],[-122.87041,49.29044],[-122.87265,49.29135],[-122.87407,49.29172],[-122.87555,49.29185],[-122.87823,49.29176],[-122.88296,49.2909],[-122.88478,49.29073],[-122.88729,49.29086],[-122.89069,49.2915],[-122.89196,49.29148],[-122.89276,49.2913],[-122.89448,49.2906],[-122.89596,49.2899],[-122.89711,49.28922],[-122.8986,49.28861],[-122.90041,49.28824],[-122.90329,49.28801],[-122.90517,49.28814],[-122.91265,49.28906],[-122.91402,49.28901],[-122.91799,49.28848],[-122.91963,49.28856],[-122.93125,49.29149],[-122.93256,49.29168],[-122.93316,49.29167],[-122.94666,49.29004],[-122.95143,49.28992],[-122.95256,49.28969],[-122.96074,49.28736],[-122.96177,49.28713],[-122.96276,49.28706],[-122.96547,49.28746],[-122.97346,49.28894],[-122.97442,49.28927],[-122.98121,49.29216],[-122.98391,49.29381],[-122.98535,49.29441],[-122.98647,49.29476],[-122.98801,49.2949],[-122.98894,49.29477],[-122.98995,49.29449],[-122.9956,49.29234],[-122.99981,49.29046],[-123.00153,49.2902],[-123.00425,49.29021],[-123.0055,49.29038],[-123.00649,49.29072],[-123.00941,49.29207],[-123.01112,49.29247],[-123.01844,49.29326],[-123.01939,49.29329],[-123.02368,49.29308],[-123.02523,49.29273],[-123.02652,49.29224],[-123.0305,49.28983],[-123.03166,49.28926],[-123.03344,49.28871],[-123.03536,49.28849],[-123.03746,49.28861],[-123.03925,49.28904],[-123.04064,49.28966],[-123.0429,49.29111],[-123.0443,49.29161],[-123.04828,49.29255],[-123.04919,49.29262],[-123.05014,49.29255],[-123.05575,49.29149],[-123.05701,49.29105],[-123.05907,49.2901],[-123.05962,49.28978],[-123.06024,49.2892],[-123.06252,49.28622],[-123.06323,49.28569],[-123.06399,49.28536],[-123.06527,49.28509],[-123.08212,49.28279],[-123.08441,49.28298],[-123.09256,49.28519],[-123.09401,49.28544],[-123.09561,49.28536],[-123.10148,49.28406],[-123.10239,49.28394],[-123.10385,49.28397],[-123.10701,49.28453]],[[-122.32226,49.13154],[-122.32632,49.1309],[-122.33669,49.13018],[-122.33752,49.13021],[-122.34094,49.1307],[-122.34359,49.13145],[-122.34556,49.13237],[-122.35029,49.13513],[-122.3603,49.13924],[-122.37032,49.14334],[-122.38033,49.14745],[-122.39102,49.15192],[-122.4017,49.15639],[-122.40269,49.15688],[-122.404,49.15775],[-122.41181,49.1647],[-122.4193,49.17031],[-122.4204,49.17093],[-122.42133,49.17129],[-122.42647,49.17277],[-122.42838,49.17298],[-122.43365,49.17301],[-122.44872,49.17399],[-122.46383,49.17404],[-122.46536,49.17396],[-122.48656,49.17154],[-122.49656,49.17085],[-122.49928,49.17079],[-122.50167,49.17114],[-122.50645,49.17228],[-122.50852,49.1726],[-122.52916,49.17362],[-122.53132,49.17406],[-122.54424,49.17738],[-122.54612,49.1779],[-122.55362,49.1804],[-122.55699,49.18166],[-122.56116,49.18357],[-122.56369,49.18497],[-122.56615,49.18651],[-122.57029,49.18961],[-122.57216,49.19131],[-122.57365,49.19313],[-122.57924,49.20058]],[[-122.32226,49.13154],[-122.32632,49.13094],[-122.33669,49.13023],[-122.34092,49.13074],[-122.34317,49.13135],[-122.34531,49.13231],[-122.34988,49.13497],[-122.35181,49.13584],[-122.36187,49.13996],[-122.37193,49.14407],[-122.38199,49.14819],[-122.40157,49.1564],[-122.40265,49.15694],[-122.40388,49.15773],[-122.41214,49.16507],[-122.41926,49.17035],[-122.42037,49.17097],[-122.42131,49.17133],[-122.42645,49.17283],[-122.42869,49.17306],[-122.43305,49.17302],[-122.44802,49.17404],[-122.46438,49.17408],[-122.48658,49.17157],[-122.49771,49.17082],[-122.49914,49.17083],[-122.5014,49.17114],[-122.5065,49.17234],[-122.50851,49.17264],[-122.52918,49.17366],[-122.53193,49.17426],[-122.54468,49.17753],[-122.55359,49.18044],[-122.55694,49.18169],[-122.55945,49.1828],[-122.56171,49.18392],[-122.56568,49.18627],[-122.56707,49.18722],[-122.57077,49.19008],[-122.57211,49.19133],[-122.57293,49.19227],[-122.57924,49.20058]],[[-122.30217,49.13368],[-122.30585,49.13382],[-122.30869,49.13368],[-122.32226,49.13154]],[[-123.11029,49.28558],[-123.11034,49.28553],[-123.11242,49.28638],[-123.11029,49.28558]],[[-122.84784,49.27815],[-122.8452,49.2781],[-122.8452,49.27802],[-122.84773,49.27806],[-122.84784,49.27815]],[[-122.77356,49.26097],[-122.77338,49.26081],[-122.77368,49.26103],[-122.77468,49.26219],[-122.77439,49.26197],[-122.77356,49.26097]],[[-122.68875,49.226],[-122.68797,49.22559],[-122.68659,49.22508],[-122.68875,49.226]]]}},{"type":"Feature","properties":{"id":"badge-wce","kind":"badge","ref":"WCE","lineRef":"train","color":"#77278b"},"geometry":{"type":"Point","coordinates":[-122.89596,49.2899]}},{"type":"Feature","properties":{"id":"stn-train-52","kind":"node","name":"Port Coquitlam","lineRef":"train","lab":1,"color":"#77278b"},"geometry":{"type":"Point","coordinates":[-122.77333,49.26081]}},{"type":"Feature","properties":{"id":"stn-train-53","kind":"node","name":"Mission City","lineRef":"train","lab":1,"color":"#77278b"},"geometry":{"type":"Point","coordinates":[-122.30217,49.13368]}},{"type":"Feature","properties":{"id":"stn-train-54","kind":"node","name":"Pitt Meadows","lineRef":"train","lab":1,"color":"#77278b"},"geometry":{"type":"Point","coordinates":[-122.68659,49.2251]}},{"type":"Feature","properties":{"id":"stn-train-55","kind":"node","name":"Maple Meadows","lineRef":"train","lab":1,"color":"#77278b"},"geometry":{"type":"Point","coordinates":[-122.66761,49.21706]}},{"type":"Feature","properties":{"id":"stn-train-56","kind":"node","name":"Port Haney","lineRef":"train","lab":1,"color":"#77278b"},"geometry":{"type":"Point","coordinates":[-122.60695,49.21258]}},{"type":"Feature","properties":{"id":"line-seabus","kind":"line","lineRef":"ferry","ref":"SeaBus"},"geometry":{"type":"LineString","coordinates":[[-123.10903,49.28702],[-123.10611,49.2881],[-123.10467,49.28874],[-123.10294,49.28966],[-123.10146,49.29062],[-123.09375,49.29649],[-123.09289,49.29731],[-123.09216,49.29817],[-123.08392,49.30954]]}},{"type":"Feature","properties":{"id":"badge-seabus","kind":"badge","ref":"SeaBus","lineRef":"ferry"},"geometry":{"type":"Point","coordinates":[-123.10146,49.29062]}},{"type":"Feature","properties":{"id":"line-bus-99","kind":"line","lineRef":"bus","ref":"99"},"geometry":{"type":"MultiLineString","coordinates":[[[-123.24755,49.2675],[-123.24858,49.26709],[-123.24839,49.267],[-123.24663,49.26762],[-123.24552,49.26629],[-123.24131,49.26691],[-123.23951,49.26686],[-123.23773,49.26654],[-123.2359,49.26579],[-123.23301,49.26401],[-123.2312,49.26355],[-123.21523,49.26391]],[[-123.21523,49.26391],[-123.2311,49.26368],[-123.23285,49.26412],[-123.23597,49.26601],[-123.23853,49.26686],[-123.24144,49.26705],[-123.24547,49.2664],[-123.2469,49.26808],[-123.24736,49.26894],[-123.24832,49.2686],[-123.24744,49.26754]],[[-123.14776,49.2637],[-123.16046,49.26392],[-123.17316,49.26415],[-123.18586,49.26437],[-123.1859,49.26349],[-123.20057,49.2637],[-123.21523,49.26391]],[[-123.14495,49.26371],[-123.14776,49.2637]],[[-123.14776,49.2637],[-123.14495,49.26371]],[[-123.14495,49.26371],[-123.14101,49.26364]],[[-123.13858,49.26357],[-123.14101,49.26364]],[[-123.14101,49.26364],[-123.13858,49.26357]],[[-123.13858,49.26357],[-123.1175,49.26326]],[[-123.11473,49.26403],[-123.11494,49.26408],[-123.11495,49.26327],[-123.1175,49.26326]],[[-123.1175,49.26326],[-123.1149,49.26322],[-123.11473,49.26403]],[[-123.11131,49.2639],[-123.11473,49.26403]],[[-123.11096,49.26349],[-123.11096,49.26315],[-123.09685,49.2628],[-123.09522,49.26253],[-123.09079,49.26249]],[[-123.08719,49.26247],[-123.09079,49.26249]],[[-123.09079,49.26249],[-123.08719,49.26247]],[[-123.08719,49.26247],[-123.07956,49.2624]],[[-123.07558,49.26237],[-123.07956,49.2624]],[[-123.07956,49.2624],[-123.07558,49.26237]],[[-123.07558,49.26237],[-123.06978,49.26233]],[[-123.06976,49.26353],[-123.06978,49.26233]],[[-123.06811,49.26237],[-123.06978,49.26233]]]}},{"type":"Feature","properties":{"id":"badge-bus-99","kind":"badge","ref":"99","lineRef":"bus"},"geometry":{"type":"Point","coordinates":[-123.23951,49.26686]}},{"type":"Feature","properties":{"id":"stn-bus-61","kind":"stop","name":"W 10th Ave & Sasamat St","lineRef":"bus","lab":1},"geometry":{"type":"Point","coordinates":[-123.20863,49.26377]}},{"type":"Feature","properties":{"id":"stn-bus-62","kind":"stop","name":"Alma St & W 10th Ave","lineRef":"bus","lab":1},"geometry":{"type":"Point","coordinates":[-123.18604,49.2637]}},{"type":"Feature","properties":{"id":"stn-bus-63","kind":"stop","name":"W Broadway & Alma St","lineRef":"bus","lab":1},"geometry":{"type":"Point","coordinates":[-123.18528,49.26428]}},{"type":"Feature","properties":{"id":"stn-bus-64","kind":"stop","name":"W Broadway & Macdonald St","lineRef":"bus","lab":1},"geometry":{"type":"Point","coordinates":[-123.16754,49.26417]}},{"type":"Feature","properties":{"id":"stn-bus-65","kind":"stop","name":"W Broadway & Arbutus St","lineRef":"bus","lab":1},"geometry":{"type":"Point","coordinates":[-123.1519,49.26369]}},{"type":"Feature","properties":{"id":"stn-bus-66","kind":"stop","name":"E Broadway & Clark Dr","lineRef":"bus","lab":1},"geometry":{"type":"Point","coordinates":[-123.07682,49.26225]}},{"type":"Feature","properties":{"id":"stn-bus-67","kind":"stop","name":"Commercial Dr & N Grandview Hwy","lineRef":"bus","lab":1},"geometry":{"type":"Point","coordinates":[-123.0696,49.26344]}},{"type":"Feature","properties":{"id":"stn-bus-68","kind":"stop","name":"University Blvd & Western Parkway","lineRef":"bus","lab":1},"geometry":{"type":"Point","coordinates":[-123.24485,49.26659]}},{"type":"Feature","properties":{"id":"stn-bus-69","kind":"stop","name":"University Blvd & Allison Rd","lineRef":"bus","lab":1},"geometry":{"type":"Point","coordinates":[-123.24184,49.26683]}},{"type":"Feature","properties":{"id":"stn-bus-70","kind":"stop","name":"W Broadway & Granville St","lineRef":"bus","lab":1},"geometry":{"type":"Point","coordinates":[-123.14004,49.26352]}},{"type":"Feature","properties":{"id":"stn-bus-71","kind":"stop","name":"W Broadway & Heather St","lineRef":"bus","lab":1},"geometry":{"type":"Point","coordinates":[-123.12023,49.26321]}},{"type":"Feature","properties":{"id":"stn-bus-72","kind":"stop","name":"W Broadway & Willow St","lineRef":"bus","lab":1},"geometry":{"type":"Point","coordinates":[-123.12232,49.26345]}},{"type":"Feature","properties":{"id":"stn-bus-73","kind":"stop","name":"E Broadway & Fraser St","lineRef":"bus","lab":1},"geometry":{"type":"Point","coordinates":[-123.0884,49.26236]}},{"type":"Feature","properties":{"id":"stn-bus-74","kind":"stop","name":"E Broadway & Kingsway","lineRef":"bus","lab":1},"geometry":{"type":"Point","coordinates":[-123.09974,49.26277]}},{"type":"Feature","properties":{"id":"stn-bus-75","kind":"stop","name":"E Broadway & Brunswick St","lineRef":"bus","lab":1},"geometry":{"type":"Point","coordinates":[-123.09776,49.26292]}},{"type":"Feature","properties":{"id":"stn-bus-76","kind":"stop","name":"W Broadway & Ash St","lineRef":"bus","lab":1},"geometry":{"type":"Point","coordinates":[-123.11674,49.26317]}},{"type":"Feature","properties":{"id":"stn-bus-77","kind":"stop","name":"W Broadway & Quebec St","lineRef":"bus","lab":1},"geometry":{"type":"Point","coordinates":[-123.10462,49.2631]}},{"type":"Feature","properties":{"id":"line-bus-r1","kind":"line","lineRef":"bus","ref":"R1"},"geometry":{"type":"MultiLineString","coordinates":[[[-122.84767,49.19104],[-122.84764,49.1916],[-122.83701,49.19152]],[[-122.83701,49.19152],[-122.84775,49.19168],[-122.84767,49.19104]],[[-122.84754,49.18785],[-122.84772,49.18785],[-122.84767,49.19104]],[[-122.84583,49.16873],[-122.84571,49.17575],[-122.84521,49.18313],[-122.84536,49.18348],[-122.84531,49.18786],[-122.84754,49.18785]],[[-122.84754,49.18785],[-122.84554,49.1878],[-122.84557,49.1829],[-122.84595,49.17349],[-122.84583,49.16873]],[[-122.84583,49.16873],[-122.84581,49.16443]],[[-122.84581,49.16443],[-122.84586,49.15717],[-122.84572,49.1511]],[[-122.84572,49.1511],[-122.84581,49.16443]],[[-122.84572,49.1509],[-122.8458,49.15004],[-122.84577,49.14177],[-122.84573,49.1335],[-122.84278,49.13352]],[[-122.84278,49.13352],[-122.84277,49.13362],[-122.8452,49.1336],[-122.84551,49.1339],[-122.84562,49.1424],[-122.84572,49.1509]],[[-122.84278,49.13352],[-122.84142,49.13353],[-122.84142,49.13328],[-122.84278,49.13324],[-122.84278,49.13352]],[[-122.8313,49.19149],[-122.83413,49.19148]],[[-122.82862,49.19149],[-122.8313,49.19149]],[[-122.8313,49.19149],[-122.82862,49.19149]],[[-122.81751,49.19151],[-122.82862,49.19149]],[[-122.81146,49.19149],[-122.81751,49.19151]],[[-122.81751,49.19151],[-122.81146,49.19149]],[[-122.80775,49.19148],[-122.81146,49.19149]],[[-122.80097,49.19318],[-122.80098,49.19154],[-122.80775,49.19148]],[[-122.80775,49.19148],[-122.80081,49.19143],[-122.80081,49.19318],[-122.80097,49.19318]],[[-122.80097,49.19318],[-122.80426,49.19318]],[[-122.80426,49.19318],[-122.80638,49.19305],[-122.8063,49.1938],[-122.80426,49.19389],[-122.80426,49.19318]]]}},{"type":"Feature","properties":{"id":"badge-bus-r1","kind":"badge","ref":"R1","lineRef":"bus"},"geometry":{"type":"Point","coordinates":[-122.84536,49.18348]}},{"type":"Feature","properties":{"id":"stn-bus-80","kind":"stop","name":"104 Ave & 140 St","lineRef":"bus","lab":1},"geometry":{"type":"Point","coordinates":[-122.83457,49.19158]}},{"type":"Feature","properties":{"id":"stn-bus-81","kind":"stop","name":"104 Ave & 148 St","lineRef":"bus","lab":1},"geometry":{"type":"Point","coordinates":[-122.81191,49.19141]}},{"type":"Feature","properties":{"id":"stn-bus-82","kind":"stop","name":"104 Ave & 144 St","lineRef":"bus","lab":1},"geometry":{"type":"Point","coordinates":[-122.82241,49.19142]}},{"type":"Feature","properties":{"id":"stn-bus-83","kind":"stop","name":"104 Ave & Whalley Blvd","lineRef":"bus","lab":1},"geometry":{"type":"Point","coordinates":[-122.84242,49.19167]}},{"type":"Feature","properties":{"id":"stn-bus-84","kind":"stop","name":"Guildford Exchange","lineRef":"bus","lab":1},"geometry":{"type":"Point","coordinates":[-122.80402,49.19162]}},{"type":"Feature","properties":{"id":"stn-bus-85","kind":"stop","name":"Newton Exchange","lineRef":"bus","lab":1},"geometry":{"type":"Point","coordinates":[-122.84236,49.13343]}},{"type":"Feature","properties":{"id":"stn-bus-86","kind":"stop","name":"King George Blvd & 96 Ave","lineRef":"bus","lab":1},"geometry":{"type":"Point","coordinates":[-122.84541,49.17762]}},{"type":"Feature","properties":{"id":"stn-bus-87","kind":"stop","name":"King George Blvd & 88 Ave","lineRef":"bus","lab":1},"geometry":{"type":"Point","coordinates":[-122.84601,49.16178]}},{"type":"Feature","properties":{"id":"stn-bus-88","kind":"stop","name":"King George Blvd & 76 Ave","lineRef":"bus","lab":1},"geometry":{"type":"Point","coordinates":[-122.84544,49.14147]}},{"type":"Feature","properties":{"id":"line-bus-r2","kind":"line","lineRef":"bus","ref":"R2"},"geometry":{"type":"MultiLineString","coordinates":[[[-123.12087,49.32396],[-123.12676,49.32565],[-123.12709,49.32598],[-123.12715,49.32674],[-123.12773,49.32703],[-123.12876,49.32701],[-123.12962,49.32646],[-123.13357,49.32724],[-123.13845,49.32707]],[[-123.13822,49.32694],[-123.13329,49.32709],[-123.12793,49.32582],[-123.12189,49.32402],[-123.12087,49.32396]],[[-123.12087,49.32396],[-123.11007,49.32388]],[[-123.10832,49.32388],[-123.11007,49.32388]],[[-123.11007,49.32388],[-123.10832,49.32388]],[[-123.1048,49.32385],[-123.10678,49.32387]],[[-123.10678,49.32387],[-123.1048,49.32385]],[[-123.10216,49.32379],[-123.1048,49.32385]],[[-123.09793,49.32235],[-123.10149,49.32367],[-123.10216,49.32379]],[[-123.10216,49.32379],[-123.09793,49.32235]],[[-123.09713,49.32205],[-123.09554,49.32148]],[[-123.09554,49.32148],[-123.09713,49.32205]],[[-123.09554,49.32148],[-123.09398,49.32093]],[[-123.09398,49.32093],[-123.09141,49.32001]],[[-123.09141,49.32001],[-123.09398,49.32093]],[[-123.09141,49.32001],[-123.0898,49.31904],[-123.08582,49.31726],[-123.08586,49.31384],[-123.08171,49.31202]],[[-123.0821,49.31119],[-123.08285,49.31044],[-123.08309,49.31048],[-123.08231,49.31129],[-123.0821,49.31119]],[[-123.07705,49.31345],[-123.07954,49.31108]],[[-123.07954,49.31108],[-123.07705,49.31345]],[[-123.04798,49.30841],[-123.06572,49.30856],[-123.07705,49.31345]],[[-123.04454,49.30826],[-123.04798,49.30841]],[[-123.04798,49.30841],[-123.04454,49.30826]],[[-123.03349,49.3056],[-123.03622,49.30636],[-123.03976,49.30701],[-123.04454,49.30826]],[[-123.02962,49.30552],[-123.02973,49.30555],[-123.03028,49.30482],[-123.03349,49.3056]],[[-123.03349,49.3056],[-123.03122,49.3049],[-123.03007,49.30481]],[[-123.02775,49.30489],[-123.03007,49.30481]],[[-123.02942,49.30548],[-123.0295,49.30505],[-123.02832,49.30506],[-123.02828,49.30532]],[[-123.02929,49.3058],[-123.02901,49.30618],[-123.02873,49.3062],[-123.02803,49.30544],[-123.02775,49.30489]],[[-123.00321,49.27638],[-123.00312,49.28102],[-123.01618,49.28108],[-123.02924,49.28113]],[[-123.02924,49.28113],[-123.03095,49.28119],[-123.03139,49.28147],[-123.03141,49.28576],[-123.03118,49.28647],[-123.0307,49.2871],[-123.0266,49.2906],[-123.02617,49.29135],[-123.02638,49.3028],[-123.02675,49.30385],[-123.02742,49.30489]],[[-123.02775,49.30489],[-123.02672,49.30352],[-123.02653,49.3028],[-123.02633,49.29137],[-123.02698,49.2905],[-123.03006,49.28823],[-123.0319,49.2866],[-123.03247,49.28578],[-123.03262,49.2851],[-123.03247,49.28428],[-123.03157,49.28238],[-123.03145,49.28113],[-123.02924,49.28113]],[[-123.02742,49.30489],[-123.02769,49.30577],[-123.02733,49.30619],[-123.0265,49.30634],[-123.02605,49.30622],[-123.0257,49.30592],[-123.02566,49.30546],[-123.02597,49.30516],[-123.02742,49.30489]],[[-123.00339,49.24214],[-123.00324,49.24283],[-123.00329,49.24631],[-123.00426,49.24831],[-123.00418,49.25525],[-123.00391,49.25979],[-123.00325,49.26147],[-123.00319,49.2624],[-123.00308,49.2697],[-123.00322,49.27084]],[[-123.00322,49.27084],[-123.00337,49.26168],[-123.00419,49.25968],[-123.00445,49.25353],[-123.00445,49.24825],[-123.00436,49.24786],[-123.0037,49.24702],[-123.00344,49.24631],[-123.00339,49.24214]],[[-123.00336,49.23283],[-123.00339,49.24214]],[[-123.00336,49.23283],[-123.00358,49.23149],[-123.00767,49.22764],[-123.0017,49.22498]],[[-123.00245,49.22544],[-123.00749,49.22764],[-123.00345,49.23145],[-123.0033,49.2319],[-123.00336,49.23283]],[[-123.00322,49.27084],[-123.0032,49.27467]],[[-123.00321,49.27638],[-123.0032,49.27467]],[[-123.0032,49.27467],[-123.00321,49.27638]]]}},{"type":"Feature","properties":{"id":"badge-bus-r2","kind":"badge","ref":"R2","lineRef":"bus"},"geometry":{"type":"Point","coordinates":[-123.0319,49.2866]}},{"type":"Feature","properties":{"id":"stn-bus-91","kind":"stop","name":"Willingdon Ave & Goard Way","lineRef":"bus","lab":1},"geometry":{"type":"Point","coordinates":[-123.00449,49.25203]}},{"type":"Feature","properties":{"id":"stn-bus-92","kind":"stop","name":"Willingdon Ave & Deer Lake Pkwy","lineRef":"bus","lab":1},"geometry":{"type":"Point","coordinates":[-123.00317,49.24331]}},{"type":"Feature","properties":{"id":"stn-bus-93","kind":"stop","name":"Kootenay Loop","lineRef":"bus","lab":1},"geometry":{"type":"Point","coordinates":[-123.02548,49.28121]}},{"type":"Feature","properties":{"id":"stn-bus-94","kind":"stop","name":"Park Royal","lineRef":"bus","lab":1},"geometry":{"type":"Point","coordinates":[-123.13851,49.32714]}},{"type":"Feature","properties":{"id":"stn-bus-95","kind":"stop","name":"Willingdon Ave & Kemp St","lineRef":"bus","lab":1},"geometry":{"type":"Point","coordinates":[-123.00574,49.22957]}},{"type":"Feature","properties":{"id":"stn-bus-96","kind":"stop","name":"Marine Dr & Bewicke Ave","lineRef":"bus","lab":1},"geometry":{"type":"Point","coordinates":[-123.0918,49.32004]}},{"type":"Feature","properties":{"id":"stn-bus-97","kind":"stop","name":"Marine Dr & Hamilton Ave","lineRef":"bus","lab":1},"geometry":{"type":"Point","coordinates":[-123.09914,49.32262]}},{"type":"Feature","properties":{"id":"stn-bus-98","kind":"stop","name":"Hastings St & Gilmore Ave","lineRef":"bus","lab":1},"geometry":{"type":"Point","coordinates":[-123.01362,49.28095]}},{"type":"Feature","properties":{"id":"stn-bus-99","kind":"stop","name":"Willingdon Ave & Kingsborough St","lineRef":"bus","lab":1},"geometry":{"type":"Point","coordinates":[-123.00592,49.229]}},{"type":"Feature","properties":{"id":"stn-bus-100","kind":"stop","name":"Lonsdale Ave & E 3rd St","lineRef":"bus","lab":1},"geometry":{"type":"Point","coordinates":[-123.07754,49.3132]}},{"type":"Feature","properties":{"id":"stn-bus-101","kind":"stop","name":"Hastings St & Willingdon Ave","lineRef":"bus","lab":1},"geometry":{"type":"Point","coordinates":[-123.00509,49.28092]}},{"type":"Feature","properties":{"id":"stn-bus-102","kind":"stop","name":"Marine Dr & Capilano Rd","lineRef":"bus","lab":1},"geometry":{"type":"Point","coordinates":[-123.12177,49.32392]}},{"type":"Feature","properties":{"id":"stn-bus-103","kind":"stop","name":"Cotton Rd & Brooksbank Ave","lineRef":"bus","lab":1},"geometry":{"type":"Point","coordinates":[-123.04108,49.30748]}},{"type":"Feature","properties":{"id":"stn-bus-104","kind":"stop","name":"E 3rd St & Ridgeway Ave","lineRef":"bus","lab":1},"geometry":{"type":"Point","coordinates":[-123.06222,49.30844]}},{"type":"Feature","properties":{"id":"stn-bus-105","kind":"stop","name":"E 3rd St & Lonsdale Ave","lineRef":"bus","lab":1},"geometry":{"type":"Point","coordinates":[-123.07658,49.31315]}},{"type":"Feature","properties":{"id":"stn-bus-106","kind":"stop","name":"Marine Dr & Pemberton Ave","lineRef":"bus","lab":1},"geometry":{"type":"Point","coordinates":[-123.10843,49.32398]}},{"type":"Feature","properties":{"id":"stn-bus-107","kind":"stop","name":"Phibbs Exchange","lineRef":"bus","lab":1},"geometry":{"type":"Point","coordinates":[-123.02963,49.30538]}},{"type":"Feature","properties":{"id":"stn-bus-108","kind":"stop","name":"Willingdon Ave & Moscrop St","lineRef":"bus","lab":1},"geometry":{"type":"Point","coordinates":[-123.00351,49.2441]}},{"type":"Feature","properties":{"id":"line-bus-r3","kind":"line","lineRef":"bus","ref":"R3"},"geometry":{"type":"MultiLineString","coordinates":[[[-122.65622,49.219],[-122.65967,49.21974],[-122.66304,49.22083],[-122.67679,49.22621],[-122.69055,49.23158],[-122.7043,49.23696],[-122.71806,49.24233],[-122.71807,49.24233],[-122.72339,49.2455],[-122.73067,49.24862],[-122.73716,49.25106],[-122.75657,49.25938],[-122.77015,49.26491],[-122.78218,49.27004],[-122.79422,49.27516],[-122.79747,49.27642],[-122.7987,49.27676],[-122.7994,49.27671]],[[-122.79892,49.27541],[-122.79957,49.27563],[-122.79944,49.27592],[-122.79973,49.27618],[-122.7994,49.27671]],[[-122.7994,49.27671],[-122.79746,49.27621],[-122.79371,49.27476],[-122.78178,49.26973],[-122.76986,49.26469],[-122.75793,49.25966],[-122.746,49.25462],[-122.73699,49.25089],[-122.73219,49.24905],[-122.72422,49.24569],[-122.71819,49.24217],[-122.7043,49.23676],[-122.6904,49.23135],[-122.67651,49.22593],[-122.66262,49.22052],[-122.65969,49.21965],[-122.65622,49.219]],[[-122.79892,49.27541],[-122.79847,49.27598],[-122.79814,49.27598],[-122.79895,49.27459],[-122.79919,49.27454],[-122.79932,49.27467],[-122.79892,49.27541]],[[-122.65053,49.21847],[-122.65622,49.219]],[[-122.64602,49.21808],[-122.65053,49.21847]],[[-122.65053,49.21847],[-122.64602,49.21808]],[[-122.63355,49.21719],[-122.63675,49.21729],[-122.64602,49.21808]],[[-122.62912,49.21709],[-122.63355,49.21719]],[[-122.63355,49.21719],[-122.62912,49.21709]],[[-122.6241,49.21705],[-122.62912,49.21709]],[[-122.62162,49.21703],[-122.6241,49.21705]],[[-122.6241,49.21705],[-122.62162,49.21703]],[[-122.60968,49.21693],[-122.62162,49.21703]],[[-122.60534,49.21687],[-122.60968,49.21693]],[[-122.60968,49.21693],[-122.60534,49.21687]],[[-122.5963,49.2193],[-122.59628,49.2171],[-122.60534,49.21687]],[[-122.59636,49.2194],[-122.59768,49.2194],[-122.59785,49.2196],[-122.5965,49.21957],[-122.59636,49.2194]]]}},{"type":"Feature","properties":{"id":"badge-bus-r3","kind":"badge","ref":"R3","lineRef":"bus"},"geometry":{"type":"Point","coordinates":[-122.73716,49.25106]}},{"type":"Feature","properties":{"id":"stn-bus-111","kind":"stop","name":"Lougheed Hwy & Ottawa St","lineRef":"bus","lab":1},"geometry":{"type":"Point","coordinates":[-122.74859,49.25607]}},{"type":"Feature","properties":{"id":"stn-bus-112","kind":"stop","name":"Haney Place","lineRef":"bus","lab":1},"geometry":{"type":"Point","coordinates":[-122.59753,49.21946]}},{"type":"Feature","properties":{"id":"stn-bus-113","kind":"stop","name":"Lougheed Hwy & Shaughnessy St","lineRef":"bus","lab":1},"geometry":{"type":"Point","coordinates":[-122.77534,49.26685]}},{"type":"Feature","properties":{"id":"stn-bus-114","kind":"stop","name":"Lougheed Hwy & Westwood St","lineRef":"bus","lab":1},"geometry":{"type":"Point","coordinates":[-122.79182,49.27422]}},{"type":"Feature","properties":{"id":"stn-bus-115","kind":"stop","name":"Lougheed Hwy & Harris Rd","lineRef":"bus","lab":1},"geometry":{"type":"Point","coordinates":[-122.68816,49.23038]}},{"type":"Feature","properties":{"id":"stn-bus-116","kind":"stop","name":"Lougheed Hwy & 203 St","lineRef":"bus","lab":1},"geometry":{"type":"Point","coordinates":[-122.65606,49.21886]}},{"type":"Feature","properties":{"id":"stn-bus-117","kind":"stop","name":"Lougheed Hwy & Laity St","lineRef":"bus","lab":1},"geometry":{"type":"Point","coordinates":[-122.63016,49.21701]}},{"type":"Feature","properties":{"id":"line-bus-r4","kind":"line","lineRef":"bus","ref":"R4"},"geometry":{"type":"MultiLineString","coordinates":[[[-123.24654,49.26765],[-123.24736,49.26894],[-123.24759,49.26889],[-123.24832,49.2686],[-123.24744,49.26754],[-123.24858,49.26709],[-123.24839,49.267],[-123.24663,49.26762]],[[-123.24663,49.26762],[-123.24229,49.26237],[-123.23663,49.25594],[-123.23695,49.25559],[-123.24049,49.25435],[-123.24124,49.25436],[-123.2422,49.25382],[-123.24613,49.25244],[-123.24663,49.25201],[-123.24655,49.25174],[-123.2387,49.24738],[-123.23511,49.24563],[-123.22957,49.24255],[-123.22572,49.24099],[-123.2216,49.23993],[-123.20977,49.23831],[-123.19665,49.23479],[-123.19598,49.23477]],[[-123.19598,49.23477],[-123.20946,49.23839],[-123.21251,49.23893],[-123.22131,49.24006],[-123.22573,49.24118],[-123.22984,49.24291],[-123.23489,49.24571],[-123.23789,49.24715],[-123.24507,49.25118],[-123.24587,49.25185],[-123.24582,49.2522],[-123.2455,49.25249],[-123.2416,49.25394],[-123.24094,49.254],[-123.23675,49.25554],[-123.2362,49.25557],[-123.23605,49.25576],[-123.23654,49.25606],[-123.24654,49.26765]],[[-123.19598,49.23477],[-123.18094,49.23475],[-123.16589,49.23473],[-123.14808,49.23448]],[[-123.14734,49.23446],[-123.1304,49.23404]],[[-123.1217,49.23374],[-123.1304,49.23404]],[[-123.1304,49.23404],[-123.1217,49.23374]],[[-123.11839,49.23363],[-123.1217,49.23374]],[[-123.11228,49.2334],[-123.11839,49.23363]],[[-123.11839,49.23363],[-123.11228,49.2334]],[[-123.11228,49.2334],[-123.1062,49.23319]],[[-123.09874,49.23303],[-123.10373,49.23313]],[[-123.10373,49.23313],[-123.09874,49.23303]],[[-123.09874,49.23303],[-123.09374,49.23295]],[[-123.08789,49.23286],[-123.09374,49.23295]],[[-123.09374,49.23295],[-123.08789,49.23286]],[[-123.08789,49.23286],[-123.07964,49.23275]],[[-123.0739,49.23269],[-123.07964,49.23275]],[[-123.07964,49.23275],[-123.0739,49.23269]],[[-123.0739,49.23269],[-123.06803,49.23262]],[[-123.06427,49.23291],[-123.06803,49.23262]],[[-123.06803,49.23262],[-123.06659,49.23257],[-123.06427,49.23291]],[[-123.06427,49.23291],[-123.04869,49.23279],[-123.04649,49.23296]],[[-123.04061,49.23296],[-123.04448,49.23299]],[[-123.04448,49.23299],[-123.04061,49.23296]],[[-123.03709,49.23325],[-123.03826,49.23298],[-123.04061,49.23296]],[[-123.03528,49.23478],[-123.03188,49.23825]],[[-123.03188,49.23825],[-123.03308,49.23879],[-123.03284,49.23891],[-123.03165,49.23848]]]}},{"type":"Feature","properties":{"id":"badge-bus-r4","kind":"badge","ref":"R4","lineRef":"bus"},"geometry":{"type":"Point","coordinates":[-123.24587,49.25185]}},{"type":"Feature","properties":{"id":"stn-bus-120","kind":"stop","name":"E 41st Ave & Knight St","lineRef":"bus","lab":1},"geometry":{"type":"Point","coordinates":[-123.07636,49.23259]}},{"type":"Feature","properties":{"id":"stn-bus-121","kind":"stop","name":"W 16th Ave & Wesbrook Mall","lineRef":"bus","lab":1},"geometry":{"type":"Point","coordinates":[-123.23767,49.25511]}},{"type":"Feature","properties":{"id":"stn-bus-122","kind":"stop","name":"E 41st Ave & Victoria Dr","lineRef":"bus","lab":1},"geometry":{"type":"Point","coordinates":[-123.06507,49.23271]}},{"type":"Feature","properties":{"id":"stn-bus-123","kind":"stop","name":"E 41st Ave & Clarendon St","lineRef":"bus","lab":1},"geometry":{"type":"Point","coordinates":[-123.05595,49.23291]}},{"type":"Feature","properties":{"id":"stn-bus-124","kind":"stop","name":"E 41st Ave & Rupert St","lineRef":"bus","lab":1},"geometry":{"type":"Point","coordinates":[-123.04262,49.23287]}},{"type":"Feature","properties":{"id":"stn-bus-125","kind":"stop","name":"W 41st Ave & Granville St","lineRef":"bus","lab":1},"geometry":{"type":"Point","coordinates":[-123.14057,49.23444]}},{"type":"Feature","properties":{"id":"stn-bus-126","kind":"stop","name":"Joyce","lineRef":"bus","lab":1},"geometry":{"type":"Point","coordinates":[-123.03105,49.23791]}},{"type":"Feature","properties":{"id":"stn-bus-127","kind":"stop","name":"Dunbar Loop","lineRef":"bus","lab":1},"geometry":{"type":"Point","coordinates":[-123.18597,49.23485]}},{"type":"Feature","properties":{"id":"stn-bus-128","kind":"stop","name":"E 41st Ave & Main St","lineRef":"bus","lab":1},"geometry":{"type":"Point","coordinates":[-123.10196,49.23322]}},{"type":"Feature","properties":{"id":"stn-bus-129","kind":"stop","name":"Joyce St & Kingsway","lineRef":"bus","lab":1},"geometry":{"type":"Point","coordinates":[-123.03636,49.23387]}},{"type":"Feature","properties":{"id":"stn-bus-130","kind":"stop","name":"E 41st Ave & Fraser St","lineRef":"bus","lab":1},"geometry":{"type":"Point","coordinates":[-123.09117,49.23303]}},{"type":"Feature","properties":{"id":"stn-bus-131","kind":"stop","name":"W 41st Ave & Oak St","lineRef":"bus","lab":1},"geometry":{"type":"Point","coordinates":[-123.12687,49.23381]}},{"type":"Feature","properties":{"id":"stn-bus-132","kind":"stop","name":"W 41st Ave & Carnarvon St","lineRef":"bus","lab":1},"geometry":{"type":"Point","coordinates":[-123.17349,49.23483]}},{"type":"Feature","properties":{"id":"stn-bus-133","kind":"stop","name":"W 41st Ave & E Blvd","lineRef":"bus","lab":1},"geometry":{"type":"Point","coordinates":[-123.15471,49.23467]}},{"type":"Feature","properties":{"id":"stn-bus-134","kind":"stop","name":"Oakridge-41st Ave Station at","lineRef":"bus","lab":1},"geometry":{"type":"Point","coordinates":[-123.11509,49.23338]}},{"type":"Feature","properties":{"id":"stn-bus-135","kind":"stop","name":"Westbrook Mall & Agronomy Rd","lineRef":"bus","lab":1},"geometry":{"type":"Point","coordinates":[-123.24231,49.26271]}},{"type":"Feature","properties":{"id":"stn-bus-136","kind":"stop","name":"Wesbrook Mall & Agronomy Rd","lineRef":"bus","lab":1},"geometry":{"type":"Point","coordinates":[-123.24349,49.26374]}},{"type":"Feature","properties":{"id":"stn-bus-137","kind":"stop","name":"Oakridge-41st Ave","lineRef":"bus","lab":1},"geometry":{"type":"Point","coordinates":[-123.11743,49.23372]}},{"type":"Feature","properties":{"id":"line-bus-r5","kind":"line","lineRef":"bus","ref":"R5"},"geometry":{"type":"MultiLineString","coordinates":[[[-123.11488,49.28595],[-123.11743,49.28426],[-123.11941,49.28556],[-123.11705,49.28712],[-123.1163,49.28687],[-123.11488,49.28595]],[[-123.11488,49.28595],[-123.10934,49.2824],[-123.10429,49.28147],[-123.08115,49.281],[-123.07997,49.28099],[-123.07884,49.28121]],[[-123.07411,49.28128],[-123.078,49.28139],[-123.07884,49.28121]],[[-123.07884,49.28121],[-123.07411,49.28128]],[[-123.07411,49.28128],[-123.07244,49.28126]],[[-123.06828,49.28121],[-123.07244,49.28126]],[[-123.07244,49.28126],[-123.06828,49.28121]],[[-123.06828,49.28121],[-123.05686,49.28119],[-123.04545,49.28116],[-123.03403,49.28114]],[[-123.02924,49.28113],[-123.03403,49.28114]],[[-123.03403,49.28114],[-123.02924,49.28113]],[[-123.02924,49.28113],[-123.0177,49.28108],[-123.00615,49.28104],[-122.99461,49.28099],[-122.99366,49.28085],[-122.99265,49.28038]],[[-122.99265,49.28038],[-122.99218,49.28012],[-122.99148,49.28003],[-122.98922,49.28035]],[[-122.98922,49.28035],[-122.9915,49.28017],[-122.99265,49.28038]],[[-122.98922,49.28035],[-122.97251,49.28034]],[[-122.96603,49.28036],[-122.97251,49.28034]],[[-122.97251,49.28034],[-122.96603,49.28036]],[[-122.96073,49.28018],[-122.96603,49.28036]],[[-122.93736,49.27447],[-122.94296,49.27581],[-122.95002,49.27998],[-122.95094,49.28034],[-122.95837,49.28042],[-122.9588,49.28062],[-122.96073,49.28018]],[[-122.96073,49.28018],[-122.95837,49.28033],[-122.95089,49.28024],[-122.94292,49.27569],[-122.93736,49.27447]],[[-122.92892,49.27375],[-122.93443,49.27392],[-122.93736,49.27447]],[[-122.93016,49.2759],[-122.93042,49.27667],[-122.92968,49.27717],[-122.92524,49.27694],[-122.92155,49.27764],[-122.9211,49.27782],[-122.92075,49.27821]],[[-122.92049,49.27889],[-122.9206,49.2794],[-122.92014,49.28013],[-122.9219,49.28041],[-122.92347,49.28093],[-122.92615,49.28135],[-122.92868,49.28105],[-122.93254,49.27972],[-122.93313,49.27938],[-122.93362,49.27871],[-122.93362,49.27809],[-122.93346,49.27774],[-122.93287,49.2772],[-122.93016,49.2759]],[[-122.93016,49.2759],[-122.92761,49.2746]],[[-122.92761,49.2746],[-122.92742,49.27421],[-122.9276,49.27394],[-122.92892,49.27375]],[[-122.92892,49.27375],[-122.92677,49.27345],[-122.92558,49.27362],[-122.92761,49.2746]],[[-122.91258,49.27885],[-122.91276,49.2784],[-122.90904,49.27778],[-122.90965,49.27602],[-122.90945,49.27554],[-122.91035,49.2754],[-122.91383,49.27548],[-122.91539,49.27637],[-122.91834,49.27693],[-122.92021,49.27758],[-122.92054,49.27771],[-122.92075,49.27821]],[[-122.92049,49.27889],[-122.92006,49.27931],[-122.91992,49.28009],[-122.9188,49.28011],[-122.91693,49.28074],[-122.91377,49.28085],[-122.91132,49.28059],[-122.91059,49.28024],[-122.91189,49.2794],[-122.91237,49.2789]]]}},{"type":"Feature","properties":{"id":"badge-bus-r5","kind":"badge","ref":"R5","lineRef":"bus"},"geometry":{"type":"Point","coordinates":[-122.93254,49.27972]}},{"type":"Feature","properties":{"id":"stn-bus-140","kind":"stop","name":"SFU Transportation Centre","lineRef":"bus","lab":1},"geometry":{"type":"Point","coordinates":[-122.92012,49.27994]}},{"type":"Feature","properties":{"id":"stn-bus-141","kind":"stop","name":"SFU Exchange","lineRef":"bus","lab":1},"geometry":{"type":"Point","coordinates":[-122.91279,49.27857]}},{"type":"Feature","properties":{"id":"stn-bus-142","kind":"stop","name":"Hastings St & Kensington Ave","lineRef":"bus","lab":1},"geometry":{"type":"Point","coordinates":[-122.96936,49.28023]}},{"type":"Feature","properties":{"id":"stn-bus-143","kind":"stop","name":"W Hastings St & Granville St","lineRef":"bus","lab":1},"geometry":{"type":"Point","coordinates":[-123.11362,49.28526]}},{"type":"Feature","properties":{"id":"stn-bus-144","kind":"stop","name":"E Hastings St & Main St","lineRef":"bus","lab":1},"geometry":{"type":"Point","coordinates":[-123.0983,49.2812]}},{"type":"Feature","properties":{"id":"stn-bus-145","kind":"stop","name":"E Hastings St & Renfrew St","lineRef":"bus","lab":1},"geometry":{"type":"Point","coordinates":[-123.04335,49.28101]}},{"type":"Feature","properties":{"id":"stn-bus-146","kind":"stop","name":"E Hastings St & Nanaimo St","lineRef":"bus","lab":1},"geometry":{"type":"Point","coordinates":[-123.05584,49.28104]}},{"type":"Feature","properties":{"id":"stn-bus-147","kind":"stop","name":"Hastings St & Holdom Ave","lineRef":"bus","lab":1},"geometry":{"type":"Point","coordinates":[-122.98143,49.28045]}},{"type":"Feature","properties":{"id":"stn-bus-148","kind":"stop","name":"E Hastings St & Commercial Dr","lineRef":"bus","lab":1},"geometry":{"type":"Point","coordinates":[-123.07104,49.28137]}},{"type":"Feature","properties":{"id":"stn-bus-149","kind":"stop","name":"W Hastings St & Cambie St","lineRef":"bus","lab":1},"geometry":{"type":"Point","coordinates":[-123.10926,49.28228]}},{"type":"Feature","properties":{"id":"stn-bus-150","kind":"stop","name":"W Hastings St & Abbott St","lineRef":"bus","lab":1},"geometry":{"type":"Point","coordinates":[-123.10686,49.28202]}},{"type":"Feature","properties":{"id":"stn-bus-151","kind":"stop","name":"Hastings St & Hythe Ave","lineRef":"bus","lab":1},"geometry":{"type":"Point","coordinates":[-122.98987,49.28016]}},{"type":"Feature","properties":{"id":"stn-bus-152","kind":"stop","name":"Hastings St & Duthie Ave","lineRef":"bus","lab":1},"geometry":{"type":"Point","coordinates":[-122.95398,49.28049]}},{"type":"Feature","properties":{"id":"stn-bus-153","kind":"stop","name":"E Hastings St & Lillooet St","lineRef":"bus","lab":1},"geometry":{"type":"Point","coordinates":[-123.03932,49.28124]}},{"type":"Feature","properties":{"id":"line-bus-r6","kind":"line","lineRef":"bus","ref":"R6"},"geometry":{"type":"MultiLineString","coordinates":[[[-122.89026,49.17133],[-122.89046,49.1569],[-122.89045,49.14665],[-122.89044,49.1364],[-122.89026,49.13404],[-122.87443,49.13387],[-122.85861,49.13369],[-122.84278,49.13352]],[[-122.84278,49.13352],[-122.84277,49.13362],[-122.84278,49.13362],[-122.85861,49.13379],[-122.87443,49.13397],[-122.89026,49.13414],[-122.89026,49.14344],[-122.89026,49.15273],[-122.89026,49.16203],[-122.89026,49.17133]],[[-122.89023,49.17211],[-122.89012,49.18329],[-122.89035,49.18386],[-122.89141,49.18509],[-122.89161,49.18561],[-122.89145,49.18618],[-122.89071,49.18699],[-122.89038,49.18763],[-122.89021,49.19132],[-122.8899,49.19234],[-122.88874,49.19381],[-122.88436,49.19739],[-122.88097,49.20057],[-122.87818,49.20287],[-122.87745,49.20329],[-122.87579,49.20371],[-122.87566,49.2039],[-122.87579,49.20443],[-122.87449,49.2046],[-122.87471,49.20524],[-122.87556,49.2053],[-122.87616,49.20487],[-122.87727,49.20465],[-122.87746,49.20446],[-122.8775,49.20383],[-122.87769,49.20352],[-122.88128,49.2005],[-122.88451,49.19747],[-122.88929,49.19352],[-122.89011,49.19234],[-122.89037,49.19133],[-122.89055,49.18764],[-122.89077,49.18718],[-122.89158,49.18628],[-122.89179,49.18569],[-122.89162,49.18512],[-122.89053,49.18381],[-122.8903,49.18319],[-122.89023,49.17211]],[[-122.84278,49.13352],[-122.84142,49.13353],[-122.84142,49.13328],[-122.84278,49.13324],[-122.84278,49.13352]]]}},{"type":"Feature","properties":{"id":"badge-bus-r6","kind":"badge","ref":"R6","lineRef":"bus"},"geometry":{"type":"Point","coordinates":[-122.87471,49.20524]}},{"type":"Feature","properties":{"id":"stn-bus-156","kind":"stop","name":"Scott Rd & 80 Ave","lineRef":"bus","lab":1},"geometry":{"type":"Point","coordinates":[-122.89053,49.14879]}},{"type":"Feature","properties":{"id":"stn-bus-157","kind":"stop","name":"Scott Rd & 84 Ave","lineRef":"bus","lab":1},"geometry":{"type":"Point","coordinates":[-122.89018,49.15624]}},{"type":"Feature","properties":{"id":"stn-bus-158","kind":"stop","name":"Scott Rd & 75A Ave","lineRef":"bus","lab":1},"geometry":{"type":"Point","coordinates":[-122.89054,49.13994]}},{"type":"Feature","properties":{"id":"stn-bus-159","kind":"stop","name":"Scott Rd & 72 Ave","lineRef":"bus","lab":1},"geometry":{"type":"Point","coordinates":[-122.89016,49.13586]}},{"type":"Feature","properties":{"id":"stn-bus-160","kind":"stop","name":"Scott Rd","lineRef":"bus","lab":1},"geometry":{"type":"Point","coordinates":[-122.87526,49.2044]}},{"type":"Feature","properties":{"id":"stn-bus-161","kind":"stop","name":"Scott Rd & 103A Ave","lineRef":"bus","lab":1},"geometry":{"type":"Point","coordinates":[-122.89009,49.19132]}},{"type":"Feature","properties":{"id":"stn-bus-162","kind":"stop","name":"72 Ave & 132 St","lineRef":"bus","lab":1},"geometry":{"type":"Point","coordinates":[-122.8562,49.13361]}},{"type":"Feature","properties":{"id":"stn-bus-163","kind":"stop","name":"72 Ave & 124 St","lineRef":"bus","lab":1},"geometry":{"type":"Point","coordinates":[-122.87868,49.13382]}},{"type":"Feature","properties":{"id":"stn-bus-164","kind":"stop","name":"72 Ave & 130 St","lineRef":"bus","lab":1},"geometry":{"type":"Point","coordinates":[-122.86287,49.13392]}},{"type":"Feature","properties":{"id":"stn-bus-165","kind":"stop","name":"Scott Rd & Nordel Way","lineRef":"bus","lab":1},"geometry":{"type":"Point","coordinates":[-122.89019,49.16245]}},{"type":"Feature","properties":{"id":"stn-bus-166","kind":"stop","name":"Scott Rd & 96 Ave","lineRef":"bus","lab":1},"geometry":{"type":"Point","coordinates":[-122.89034,49.17626]}},{"type":"Feature","properties":{"id":"stn-bus-167","kind":"stop","name":"Scott Rd & 92 Ave","lineRef":"bus","lab":1},"geometry":{"type":"Point","coordinates":[-122.89043,49.16973]}},{"type":"Feature","properties":{"id":"stn-bus-168","kind":"stop","name":"72 Ave & 128 St","lineRef":"bus","lab":1},"geometry":{"type":"Point","coordinates":[-122.87005,49.13378]}},{"type":"Feature","geometry":{"type":"Point","coordinates":[-122.91816,49.25338]},"properties":{"id":"hub-productionway","kind":"hub","name":"Production Way–University","subKey":"vc.hub.productionway","lab":1,"modes":["metro","bus"]}},{"type":"Feature","geometry":{"type":"Point","coordinates":[-122.89689,49.2484]},"properties":{"id":"hub-lougheed","kind":"hub","name":"Lougheed Town Centre","subKey":"vc.hub.lougheed","lab":1,"modes":["metro","bus"]}},{"type":"Feature","geometry":{"type":"Point","coordinates":[-122.84468,49.18274]},"properties":{"id":"hub-kinggeorge","kind":"hub","name":"King George","subKey":"vc.hub.kinggeorge","lab":1,"modes":["metro","bus"]}},{"type":"Feature","geometry":{"type":"Point","coordinates":[-122.91268,49.20139]},"properties":{"id":"hub-newwest","kind":"hub","name":"New Westminster","subKey":"vc.hub.newwest","lab":1,"modes":["metro","bus"]}},{"type":"Feature","geometry":{"type":"Point","coordinates":[-123.00391,49.22577]},"properties":{"id":"hub-metrotown","kind":"hub","name":"Metrotown","subKey":"vc.hub.metrotown","lab":1,"modes":["metro","bus"]}},{"type":"Feature","geometry":{"type":"Point","coordinates":[-123.11209,49.28607]},"properties":{"id":"hub-waterfront","kind":"hub","name":"Waterfront","subKey":"vc.hub.waterfront","lab":1,"modes":["metro","train","ferry","bus"]}},{"type":"Feature","geometry":{"type":"Point","coordinates":[-123.06922,49.26187]},"properties":{"id":"hub-commercial","kind":"hub","name":"Commercial–Broadway","subKey":"vc.hub.commercial","lab":1,"modes":["metro","bus"]}},{"type":"Feature","geometry":{"type":"Point","coordinates":[-122.80139,49.27508]},"properties":{"id":"hub-coquitlam","kind":"hub","name":"Coquitlam Central","subKey":"vc.hub.coquitlam","lab":1,"modes":["metro","train","bus"]}},{"type":"Feature","geometry":{"type":"Point","coordinates":[-123.11477,49.2629]},"properties":{"id":"hub-broadway","kind":"hub","name":"Broadway–City Hall","subKey":"vc.hub.broadway","lab":1,"modes":["metro","bus"]}},{"type":"Feature","geometry":{"type":"Point","coordinates":[-123.12606,49.19561]},"properties":{"id":"hub-bridgeport","kind":"hub","name":"Bridgeport","subKey":"vc.hub.bridgeport","lab":1,"modes":["metro","bus"]}},{"type":"Feature","geometry":{"type":"Point","coordinates":[-123.0824,49.3097]},"properties":{"id":"hub-lonsdale","kind":"hub","name":"Lonsdale Quay","subKey":"vc.hub.lonsdale","lab":1,"modes":["ferry","bus"]}},{"type":"Feature","geometry":{"type":"Point","coordinates":[-123.24683,49.26742]},"properties":{"id":"hub-ubc","kind":"hub","name":"UBC Exchange","subKey":"vc.hub.ubc","lab":1,"modes":["bus"]}}]}