{"type":"FeatureCollection","features":[{"type":"Feature","properties":{"id":"egitim-0","kind":"district","btype":"egitim","name":"Western Sydney University Hawkesbury Campus","lab":1},"geometry":{"type":"MultiPolygon","coordinates":[[[[150.77087,-33.63353],[150.73997,-33.62388],[150.74194,-33.61274],[150.74302,-33.61094],[150.75183,-33.60433],[150.75593,-33.60622],[150.75731,-33.60406],[150.77225,-33.62741],[150.77087,-33.63353]]]]}},{"type":"Feature","properties":{"id":"egitim-lab-0","kind":"district-label","btype":"egitim","name":"Western Sydney University Hawkesbury Campus"},"geometry":{"type":"Point","coordinates":[150.75561,-33.6192]}},{"type":"Feature","properties":{"id":"egitim-1","kind":"district","btype":"egitim","name":"Sydney University Camden Campus","lab":1},"geometry":{"type":"MultiPolygon","coordinates":[[[[150.65571,-34.0225],[150.6584,-34.02763],[150.65646,-34.03685],[150.64503,-34.03515],[150.64518,-34.03417],[150.64588,-34.03367],[150.64537,-34.03238],[150.64542,-34.03151],[150.64599,-34.03054],[150.64577,-34.02986],[150.64465,-34.02956],[150.64417,-34.02808],[150.64687,-34.02738],[150.64844,-34.02745],[150.64811,-34.02571],[150.64852,-34.02475],[150.64801,-34.0232],[150.64822,-34.02263],[150.64896,-34.02231],[150.64965,-34.02269],[150.65184,-34.02097],[150.65244,-34.02101],[150.65257,-34.02136],[150.65097,-34.02267],[150.65118,-34.02341],[150.65338,-34.02246],[150.65571,-34.0225]]]]}},{"type":"Feature","properties":{"id":"egitim-lab-1","kind":"district-label","btype":"egitim","name":"Sydney University Camden Campus"},"geometry":{"type":"Point","coordinates":[150.65189,-34.02966]}},{"type":"Feature","properties":{"id":"egitim-2","kind":"district","btype":"egitim","name":"Macquarie University","lab":1},"geometry":{"type":"MultiPolygon","coordinates":[[[[151.11282,-33.76748],[151.11485,-33.76896],[151.1183,-33.77326],[151.12037,-33.77484],[151.11367,-33.78121],[151.10563,-33.77566],[151.10558,-33.77497],[151.10527,-33.77476],[151.11282,-33.76748]]]]}},{"type":"Feature","properties":{"id":"egitim-lab-2","kind":"district-label","btype":"egitim","name":"Macquarie University"},"geometry":{"type":"Point","coordinates":[151.11282,-33.77452]}},{"type":"Feature","properties":{"id":"egitim-3","kind":"district","btype":"egitim","name":"Western Sydney University Campbelltown","lab":1},"geometry":{"type":"MultiPolygon","coordinates":[[[[150.78496,-34.06451],[150.79537,-34.06562],[150.79309,-34.06678],[150.7929,-34.06758],[150.79394,-34.06847],[150.79726,-34.06971],[150.80034,-34.06912],[150.79986,-34.07013],[150.79951,-34.0701],[150.80001,-34.07114],[150.79185,-34.07277],[150.78795,-34.07413],[150.78684,-34.07504],[150.78477,-34.07347],[150.78503,-34.07283],[150.78622,-34.07196],[150.78807,-34.07148],[150.78746,-34.0703],[150.78599,-34.07065],[150.78396,-34.07042],[150.78272,-34.07065],[150.78294,-34.06917],[150.78426,-34.06812],[150.78449,-34.06711],[150.78561,-34.06599],[150.78423,-34.06467],[150.78496,-34.06451]]]]}},{"type":"Feature","properties":{"id":"egitim-lab-3","kind":"district-label","btype":"egitim","name":"Western Sydney University Campbelltown"},"geometry":{"type":"Point","coordinates":[150.79019,-34.0694]}},{"type":"Feature","properties":{"id":"egitim-4","kind":"district","btype":"egitim","name":"Nirimba Education Precinct","lab":1},"geometry":{"type":"MultiPolygon","coordinates":[[[[150.87725,-33.72838],[150.8777,-33.72812],[150.87806,-33.72849],[150.87928,-33.72781],[150.87902,-33.72748],[150.8821,-33.72595],[150.88142,-33.72513],[150.88312,-33.72415],[150.88279,-33.72375],[150.88059,-33.72411],[150.87766,-33.72057],[150.86966,-33.71953],[150.86796,-33.72158],[150.86897,-33.72346],[150.86817,-33.72481],[150.87245,-33.72434],[150.87556,-33.7281],[150.87646,-33.72801],[150.87725,-33.72838]]]]}},{"type":"Feature","properties":{"id":"egitim-lab-4","kind":"district-label","btype":"egitim","name":"Nirimba Education Precinct"},"geometry":{"type":"Point","coordinates":[150.87513,-33.72365]}},{"type":"Feature","properties":{"id":"egitim-5","kind":"district","btype":"egitim","name":"The University of Sydney","lab":1},"geometry":{"type":"MultiPolygon","coordinates":[[[[151.19312,-33.88796],[151.19501,-33.88823],[151.19378,-33.89128],[151.19239,-33.89177],[151.19254,-33.89211],[151.18991,-33.89295],[151.18946,-33.89202],[151.19137,-33.89138],[151.19122,-33.89088],[151.18799,-33.89199],[151.18873,-33.89122],[151.18757,-33.8912],[151.18766,-33.89152],[151.18329,-33.89269],[151.18303,-33.892],[151.184,-33.89173],[151.18383,-33.89131],[151.18279,-33.89131],[151.18248,-33.89041],[151.18454,-33.88996],[151.1839,-33.88829],[151.18302,-33.88815],[151.18203,-33.88899],[151.18005,-33.88711],[151.18059,-33.88667],[151.18004,-33.88612],[151.18692,-33.88487],[151.19162,-33.88487],[151.19168,-33.88568],[151.19106,-33.88579],[151.19097,-33.88675],[151.19134,-33.88861],[151.19146,-33.88883],[151.19312,-33.88796]]]]}},{"type":"Feature","properties":{"id":"egitim-lab-5","kind":"district-label","btype":"egitim","name":"The University of Sydney"},"geometry":{"type":"Point","coordinates":[151.18762,-33.88858]}},{"type":"Feature","properties":{"id":"egitim-6","kind":"district","btype":"egitim","name":"Western Sydney University Werrington North","lab":1},"geometry":{"type":"MultiPolygon","coordinates":[[[[150.74975,-33.758],[150.74763,-33.76557],[150.73968,-33.7631],[150.7406,-33.75832],[150.73987,-33.75822],[150.74672,-33.75772],[150.74975,-33.758]]]]}},{"type":"Feature","properties":{"id":"egitim-lab-6","kind":"district-label","btype":"egitim","name":"Western Sydney University Werrington North"},"geometry":{"type":"Point","coordinates":[150.74476,-33.76113]}},{"type":"Feature","properties":{"id":"egitim-7","kind":"district","btype":"egitim","name":"Western Sydney University Kingswood","lab":1},"geometry":{"type":"MultiPolygon","coordinates":[[[[150.73287,-33.77257],[150.72741,-33.77184],[150.72747,-33.77153],[150.72585,-33.7706],[150.72565,-33.76972],[150.72668,-33.76793],[150.72738,-33.76446],[150.72714,-33.76444],[150.72722,-33.76404],[150.7307,-33.76471],[150.73436,-33.76499],[150.73287,-33.77257]]]]}},{"type":"Feature","properties":{"id":"egitim-lab-7","kind":"district-label","btype":"egitim","name":"Western Sydney University Kingswood"},"geometry":{"type":"Point","coordinates":[150.73012,-33.76834]}},{"type":"Feature","properties":{"id":"egitim-8","kind":"district","btype":"egitim","name":"WSU Werrington South","lab":1},"geometry":{"type":"MultiPolygon","coordinates":[[[[150.74424,-33.7718],[150.73724,-33.77086],[150.73755,-33.76895],[150.73966,-33.76929],[150.74076,-33.76373],[150.7459,-33.76537],[150.74424,-33.7718]]]]}},{"type":"Feature","properties":{"id":"egitim-lab-8","kind":"district-label","btype":"egitim","name":"WSU Werrington South"},"geometry":{"type":"Point","coordinates":[150.7421,-33.76816]}},{"type":"Feature","properties":{"id":"egitim-9","kind":"district","btype":"egitim","name":"University of New South Wales","lab":1},"geometry":{"type":"MultiPolygon","coordinates":[[[[151.23638,-33.91666],[151.23589,-33.91894],[151.23198,-33.91834],[151.23164,-33.92004],[151.22665,-33.91936],[151.22569,-33.91505],[151.23438,-33.91615],[151.23638,-33.91666]]]]}},{"type":"Feature","properties":{"id":"egitim-lab-9","kind":"district-label","btype":"egitim","name":"University of New South Wales"},"geometry":{"type":"Point","coordinates":[151.23054,-33.91747]}},{"type":"Feature","properties":{"id":"egitim-10","kind":"district","btype":"egitim","name":"Western Sydney University, Parramatta South Campus","lab":1},"geometry":{"type":"MultiPolygon","coordinates":[[[[151.02846,-33.81065],[151.02583,-33.81438],[151.02417,-33.81391],[151.02281,-33.81396],[151.02381,-33.80949],[151.02791,-33.80924],[151.0279,-33.81016],[151.02846,-33.81065]]]]}},{"type":"Feature","properties":{"id":"egitim-lab-10","kind":"district-label","btype":"egitim","name":"Western Sydney University, Parramatta South Campus"},"geometry":{"type":"Point","coordinates":[151.02547,-33.81161]}},{"type":"Feature","properties":{"id":"egitim-11","kind":"district","btype":"egitim","name":"Western Sydney University - Milperra (Bankstown)","lab":1},"geometry":{"type":"MultiPolygon","coordinates":[[[[150.99076,-33.93809],[150.99432,-33.93867],[150.99425,-33.94058],[150.99293,-33.94038],[150.99268,-33.94172],[150.99146,-33.94156],[150.99121,-33.94324],[150.98833,-33.94328],[150.98918,-33.93894],[150.99059,-33.93913],[150.99076,-33.93809]]]]}},{"type":"Feature","properties":{"id":"egitim-lab-11","kind":"district-label","btype":"egitim","name":"Western Sydney University - Milperra (Bankstown)"},"geometry":{"type":"Point","coordinates":[150.9911,-33.94058]}},{"type":"Feature","properties":{"id":"egitim-12","kind":"district","btype":"egitim","name":"University of Sydney - Cumberland Campus","lab":1},"geometry":{"type":"MultiPolygon","coordinates":[[[[151.04916,-33.88563],[151.048,-33.88587],[151.04815,-33.88337],[151.04695,-33.88241],[151.04843,-33.87812],[151.05156,-33.88426],[151.04916,-33.88563]]]]}},{"type":"Feature","properties":{"id":"egitim-lab-12","kind":"district-label","btype":"egitim","name":"University of Sydney - Cumberland Campus"},"geometry":{"type":"Point","coordinates":[151.04906,-33.88255]}},{"type":"Feature","properties":{"id":"egitim-13","kind":"district","btype":"egitim","name":"United Theological College","lab":1},"geometry":{"type":"MultiPolygon","coordinates":[[[[151.01464,-33.79289],[151.01427,-33.79129],[151.01627,-33.79061],[151.01741,-33.79087],[151.01733,-33.78994],[151.01819,-33.78966],[151.01858,-33.79139],[151.01761,-33.79171],[151.01748,-33.7922],[151.01464,-33.79289]]]]}},{"type":"Feature","properties":{"id":"egitim-lab-13","kind":"district-label","btype":"egitim","name":"United Theological College"},"geometry":{"type":"Point","coordinates":[151.01643,-33.79145]}},{"type":"Feature","properties":{"id":"egitim-14","kind":"district","btype":"egitim","name":"Western Sydney University, Parramatta North Campus","lab":1},"geometry":{"type":"MultiPolygon","coordinates":[[[[151.02297,-33.80617],[151.02303,-33.80588],[151.02394,-33.80603],[151.02386,-33.80663],[151.02337,-33.80656],[151.02324,-33.80729],[151.02378,-33.80737],[151.02342,-33.80898],[151.02108,-33.80878],[151.02102,-33.80829],[151.02225,-33.80606],[151.02297,-33.80617]]]]}},{"type":"Feature","properties":{"id":"egitim-lab-14","kind":"district-label","btype":"egitim","name":"Western Sydney University, Parramatta North Campus"},"geometry":{"type":"Point","coordinates":[151.02255,-33.80758]}},{"type":"Feature","properties":{"id":"egitim-15","kind":"district","btype":"egitim","name":"Australian Catholic University","lab":1},"geometry":{"type":"MultiPolygon","coordinates":[[[[151.07866,-33.87546],[151.07806,-33.87433],[151.07674,-33.87481],[151.07692,-33.87515],[151.07434,-33.87609],[151.07447,-33.87635],[151.0778,-33.87683],[151.07756,-33.87588],[151.07866,-33.87546]]]]}},{"type":"Feature","properties":{"id":"egitim-lab-15","kind":"district-label","btype":"egitim","name":"Australian Catholic University"},"geometry":{"type":"Point","coordinates":[151.07681,-33.87574]}},{"type":"Feature","properties":{"id":"egitim-16","kind":"district","btype":"egitim","name":"Sydney College of the Arts","lab":1},"geometry":{"type":"MultiPolygon","coordinates":[[[[151.16205,-33.86736],[151.16342,-33.86727],[151.16363,-33.86501],[151.16337,-33.86501],[151.16337,-33.86437],[151.16209,-33.86436],[151.16205,-33.86736]]]]}},{"type":"Feature","properties":{"id":"egitim-lab-16","kind":"district-label","btype":"egitim","name":"Sydney College of the Arts"},"geometry":{"type":"Point","coordinates":[151.16278,-33.86585]}},{"type":"Feature","properties":{"id":"egitim-17","kind":"district","btype":"egitim","name":"University of Technology Sydney","lab":1},"geometry":{"type":"MultiPolygon","coordinates":[[[[151.20201,-33.88389],[151.19873,-33.88416],[151.19838,-33.88349],[151.20114,-33.8824],[151.20201,-33.88389]]]]}},{"type":"Feature","properties":{"id":"egitim-lab-17","kind":"district-label","btype":"egitim","name":"University of Technology Sydney"},"geometry":{"type":"Point","coordinates":[151.20026,-33.88345]}},{"type":"Feature","properties":{"id":"egitim-18","kind":"district","btype":"egitim","name":"UNSW Cowan Field Station","lab":1},"geometry":{"type":"MultiPolygon","coordinates":[[[[151.15631,-33.58929],[151.15626,-33.59007],[151.1567,-33.59097],[151.15742,-33.59158],[151.15732,-33.59203],[151.15567,-33.59268],[151.15574,-33.59169],[151.15532,-33.5917],[151.15514,-33.59115],[151.15564,-33.59091],[151.15631,-33.58929]]]]}},{"type":"Feature","properties":{"id":"egitim-lab-18","kind":"district-label","btype":"egitim","name":"UNSW Cowan Field Station"},"geometry":{"type":"Point","coordinates":[151.15625,-33.5914]}}]}