{"type":"FeatureCollection","features":[{"type":"Feature","properties":{"id":"turistik-0","kind":"district","btype":"turistik","name":"CBD · The Rocks","lab":1},"geometry":{"type":"MultiPolygon","coordinates":[[[[151.22293,-33.86242],[151.21897,-33.86703],[151.2183,-33.86992],[151.21531,-33.87241],[151.21556,-33.87259],[151.21416,-33.87396],[151.21258,-33.87372],[151.21182,-33.87752],[151.20911,-33.87978],[151.20927,-33.87839],[151.20263,-33.87721],[151.20098,-33.87763],[151.19956,-33.87743],[151.197,-33.87307],[151.19783,-33.86873],[151.1992,-33.86847],[151.19945,-33.87221],[151.20032,-33.87341],[151.20155,-33.87316],[151.20238,-33.87046],[151.20119,-33.86987],[151.20151,-33.86907],[151.20115,-33.86583],[151.20319,-33.86522],[151.20264,-33.85816],[151.2018,-33.85801],[151.20158,-33.85669],[151.20269,-33.85628],[151.20351,-33.85659],[151.20313,-33.85527],[151.20355,-33.85515],[151.20419,-33.85663],[151.20494,-33.8566],[151.20416,-33.85476],[151.20452,-33.85464],[151.20544,-33.85643],[151.20591,-33.85601],[151.20517,-33.85427],[151.20559,-33.85414],[151.20634,-33.8558],[151.2068,-33.85545],[151.20622,-33.85386],[151.20663,-33.85374],[151.20735,-33.85533],[151.20804,-33.85355],[151.20983,-33.85428],[151.21061,-33.85544],[151.20918,-33.85609],[151.20964,-33.85697],[151.21057,-33.85687],[151.2097,-33.86102],[151.20989,-33.86067],[151.21032,-33.86108],[151.21039,-33.8607],[151.21133,-33.86117],[151.21143,-33.86049],[151.21155,-33.86119],[151.21252,-33.86101],[151.21278,-33.85909],[151.21384,-33.85812],[151.21462,-33.85617],[151.21595,-33.85658],[151.2156,-33.85825],[151.21718,-33.85993],[151.21696,-33.8622],[151.21793,-33.86321],[151.21975,-33.86293],[151.22164,-33.85932],[151.22266,-33.85915],[151.22293,-33.86242]]]]}},{"type":"Feature","properties":{"id":"turistik-lab-0","kind":"district-label","btype":"turistik","name":"CBD · The Rocks"},"geometry":{"type":"Point","coordinates":[151.20909,-33.86707]}},{"type":"Feature","properties":{"id":"turistik-1","kind":"district","btype":"turistik","name":"Pyrmont · Darling Harbour","lab":1},"geometry":{"type":"MultiPolygon","coordinates":[[[[151.2028,-33.88382],[151.19506,-33.88444],[151.19452,-33.87951],[151.19567,-33.87896],[151.19301,-33.87438],[151.19087,-33.87178],[151.18725,-33.86976],[151.18725,-33.86882],[151.1862,-33.86849],[151.18727,-33.86851],[151.18865,-33.86646],[151.19,-33.86543],[151.19085,-33.86565],[151.19184,-33.86522],[151.19085,-33.86387],[151.19411,-33.86238],[151.19342,-33.86392],[151.19361,-33.86439],[151.19521,-33.8625],[151.19612,-33.8626],[151.19415,-33.8652],[151.1947,-33.86531],[151.19665,-33.86345],[151.19752,-33.86389],[151.19605,-33.86764],[151.19694,-33.86845],[151.19752,-33.8669],[151.19701,-33.86677],[151.19759,-33.8667],[151.19785,-33.86531],[151.19897,-33.8656],[151.19789,-33.86814],[151.197,-33.87307],[151.20059,-33.87901],[151.2028,-33.88382]]]]}},{"type":"Feature","properties":{"id":"turistik-lab-1","kind":"district-label","btype":"turistik","name":"Pyrmont · Darling Harbour"},"geometry":{"type":"Point","coordinates":[151.19513,-33.87327]}},{"type":"Feature","properties":{"id":"turistik-2","kind":"district","btype":"turistik","name":"Bondi Beach","lab":1},"geometry":{"type":"MultiPolygon","coordinates":[[[[151.26601,-33.89825],[151.25897,-33.89709],[151.25975,-33.89335],[151.25806,-33.89311],[151.25875,-33.88982],[151.25923,-33.8899],[151.25924,-33.8894],[151.26039,-33.88844],[151.26437,-33.88794],[151.26787,-33.88507],[151.27598,-33.88549],[151.2759,-33.88596],[151.27731,-33.88616],[151.28297,-33.88981],[151.28118,-33.88976],[151.28238,-33.89051],[151.28187,-33.89133],[151.28009,-33.89105],[151.27818,-33.89145],[151.2755,-33.89279],[151.27599,-33.89336],[151.27539,-33.89287],[151.27494,-33.89323],[151.2744,-33.89413],[151.27503,-33.89565],[151.27474,-33.89658],[151.27585,-33.89792],[151.26595,-33.89614],[151.26564,-33.8977],[151.26611,-33.89778],[151.26601,-33.89825]]]]}},{"type":"Feature","properties":{"id":"turistik-lab-2","kind":"district-label","btype":"turistik","name":"Bondi Beach"},"geometry":{"type":"Point","coordinates":[151.26915,-33.8914]}},{"type":"Feature","properties":{"id":"turistik-3","kind":"district","btype":"turistik","name":"Manly","lab":1},"geometry":{"type":"MultiPolygon","coordinates":[[[[151.28899,-33.78709],[151.28797,-33.79365],[151.28866,-33.79681],[151.29046,-33.79922],[151.29201,-33.79897],[151.29346,-33.80049],[151.29691,-33.80049],[151.29724,-33.80013],[151.2963,-33.79904],[151.29795,-33.79879],[151.29971,-33.79995],[151.30109,-33.80195],[151.30205,-33.8025],[151.30236,-33.80455],[151.30291,-33.80567],[151.30345,-33.8055],[151.30359,-33.80642],[151.30472,-33.80704],[151.30699,-33.80686],[151.30761,-33.80756],[151.30614,-33.81187],[151.30409,-33.81199],[151.30335,-33.81281],[151.30369,-33.81588],[151.30286,-33.81727],[151.30167,-33.8179],[151.30109,-33.8188],[151.30107,-33.82032],[151.30193,-33.82128],[151.30202,-33.8226],[151.30108,-33.82375],[151.29874,-33.82361],[151.29113,-33.82041],[151.2908,-33.82074],[151.28726,-33.82067],[151.28549,-33.81877],[151.28557,-33.81682],[151.28389,-33.81592],[151.28351,-33.81507],[151.28466,-33.81565],[151.28664,-33.81536],[151.28699,-33.81249],[151.28956,-33.81209],[151.28989,-33.81143],[151.2895,-33.80975],[151.29107,-33.80875],[151.29107,-33.80802],[151.28937,-33.80797],[151.2872,-33.80938],[151.28673,-33.80888],[151.28734,-33.80695],[151.28585,-33.80645],[151.28381,-33.80888],[151.28259,-33.80925],[151.28251,-33.80802],[151.28336,-33.80717],[151.28293,-33.80618],[151.28323,-33.80534],[151.28479,-33.80333],[151.28635,-33.80246],[151.28599,-33.80093],[151.28371,-33.79989],[151.28381,-33.79944],[151.28168,-33.79883],[151.28033,-33.79999],[151.27846,-33.79949],[151.2772,-33.80014],[151.27758,-33.7976],[151.27825,-33.79738],[151.27833,-33.79644],[151.27902,-33.79629],[151.27917,-33.79548],[151.27982,-33.79557],[151.28031,-33.79226],[151.28114,-33.79235],[151.28116,-33.79158],[151.27816,-33.79145],[151.27805,-33.79079],[151.27741,-33.79061],[151.27629,-33.79116],[151.27689,-33.78832],[151.27459,-33.78762],[151.27494,-33.78592],[151.27598,-33.78603],[151.27651,-33.7847],[151.27736,-33.78449],[151.27795,-33.78343],[151.27946,-33.78283],[151.28,-33.7839],[151.28194,-33.78463],[151.28281,-33.78429],[151.28559,-33.78508],[151.28758,-33.78506],[151.28965,-33.7865],[151.28899,-33.78709]]]]}},{"type":"Feature","properties":{"id":"turistik-lab-3","kind":"district-label","btype":"turistik","name":"Manly"},"geometry":{"type":"Point","coordinates":[151.29131,-33.80489]}},{"type":"Feature","properties":{"id":"turistik-4","kind":"district","btype":"turistik","name":"Surry Hills · Darlinghurst","lab":1},"geometry":{"type":"MultiPolygon","coordinates":[[[[151.20831,-33.8836],[151.20911,-33.87978],[151.21124,-33.87822],[151.21213,-33.8769],[151.21258,-33.87372],[151.22952,-33.87679],[151.22781,-33.87905],[151.22479,-33.87904],[151.2214,-33.88137],[151.21915,-33.88168],[151.21685,-33.89211],[151.21176,-33.8914],[151.20779,-33.8899],[151.20186,-33.88906],[151.20685,-33.88608],[151.20831,-33.8836]]]]}},{"type":"Feature","properties":{"id":"turistik-lab-4","kind":"district-label","btype":"turistik","name":"Surry Hills · Darlinghurst"},"geometry":{"type":"Point","coordinates":[151.21507,-33.88257]}}]}