{"type":"FeatureCollection","features":[{"type":"Feature","properties":{"id":"ke-tarihi-0","kind":"poi","name":"Punchbowl Mosque","theme":"tarihi","lab":1},"geometry":{"type":"Point","coordinates":[151.0574,-33.92718]}},{"type":"Feature","properties":{"id":"ke-tarihi-1","kind":"poi","name":"Lakemba Mosque","theme":"tarihi","lab":1},"geometry":{"type":"Point","coordinates":[151.0741,-33.91247]}},{"type":"Feature","properties":{"id":"ke-tarihi-2","kind":"poi","name":"Hornby Lighthouse","theme":"tarihi","lab":1},"geometry":{"type":"Point","coordinates":[151.28101,-33.83356]}},{"type":"Feature","properties":{"id":"ke-tarihi-3","kind":"poi","name":"HMAS Vampire","theme":"tarihi","lab":1},"geometry":{"type":"Point","coordinates":[151.19982,-33.86918]}},{"type":"Feature","properties":{"id":"ke-tarihi-4","kind":"poi","name":"HMAS Onslow","theme":"tarihi","lab":1},"geometry":{"type":"Point","coordinates":[151.19964,-33.86898]}},{"type":"Feature","properties":{"id":"ke-tarihi-5","kind":"poi","name":"Elizabeth Bay House","theme":"tarihi","lab":1},"geometry":{"type":"Point","coordinates":[151.22644,-33.87011]}},{"type":"Feature","properties":{"id":"ke-tarihi-6","kind":"poi","name":"Australian Securities Exchange","theme":"tarihi","lab":1},"geometry":{"type":"Point","coordinates":[151.21016,-33.8679]}},{"type":"Feature","properties":{"id":"ke-tarihi-7","kind":"poi","name":"Yininmadyemi - Thou didst let fall","theme":"tarihi","lab":1},"geometry":{"type":"Point","coordinates":[151.21005,-33.87525]}},{"type":"Feature","properties":{"id":"ke-tarihi-8","kind":"poi","name":"Yasmar","theme":"tarihi","lab":1},"geometry":{"type":"Point","coordinates":[151.13409,-33.88054]}},{"type":"Feature","properties":{"id":"ke-tarihi-9","kind":"poi","name":"Yaralla Estate","theme":"tarihi","lab":1},"geometry":{"type":"Point","coordinates":[151.09724,-33.84145]}},{"type":"Feature","properties":{"id":"ke-tarihi-10","kind":"poi","name":"Willis Castle","theme":"tarihi","lab":1},"geometry":{"type":"Point","coordinates":[151.22353,-33.79129]}},{"type":"Feature","properties":{"id":"ke-tarihi-11","kind":"poi","name":"West Sydney Chinese Christian Church","theme":"tarihi","lab":1},"geometry":{"type":"Point","coordinates":[151.08668,-33.87666]}},{"type":"Feature","properties":{"id":"ke-tarihi-12","kind":"poi","name":"Wentworth Memorial Church","theme":"tarihi","lab":1},"geometry":{"type":"Point","coordinates":[151.2752,-33.85148]}},{"type":"Feature","properties":{"id":"ke-tarihi-13","kind":"poi","name":"Wedding Cake Rock","theme":"tarihi","lab":1},"geometry":{"type":"Point","coordinates":[151.15198,-34.10949]}},{"type":"Feature","properties":{"id":"ke-tarihi-14","kind":"poi","name":"University Hall","theme":"tarihi","lab":1},"geometry":{"type":"Point","coordinates":[151.19236,-33.88432]}},{"type":"Feature","properties":{"id":"ke-tarihi-15","kind":"poi","name":"Underground grain silos","theme":"tarihi","lab":1},"geometry":{"type":"Point","coordinates":[151.17302,-33.84779]}},{"type":"Feature","properties":{"id":"ke-tarihi-16","kind":"poi","name":"The Roxy Theatre","theme":"tarihi","lab":1},"geometry":{"type":"Point","coordinates":[151.00534,-33.81455]}},{"type":"Feature","properties":{"id":"ke-tarihi-17","kind":"poi","name":"The Central Synagogue","theme":"tarihi","lab":1},"geometry":{"type":"Point","coordinates":[151.25677,-33.89046]}},{"type":"Feature","properties":{"id":"ke-tarihi-18","kind":"poi","name":"Tempe House","theme":"tarihi","lab":1},"geometry":{"type":"Point","coordinates":[151.15515,-33.92965]}},{"type":"Feature","properties":{"id":"ke-tarihi-19","kind":"poi","name":"Tamarama Beach","theme":"tarihi","lab":1},"geometry":{"type":"Point","coordinates":[151.27048,-33.90057]}},{"type":"Feature","properties":{"id":"ke-tarihi-20","kind":"poi","name":"Sze Yup Temple","theme":"tarihi","lab":1},"geometry":{"type":"Point","coordinates":[151.18061,-33.87434]}},{"type":"Feature","properties":{"id":"ke-tarihi-21","kind":"poi","name":"Sydenham Drainage Pit","theme":"tarihi","lab":1},"geometry":{"type":"Point","coordinates":[151.1687,-33.91189]}},{"type":"Feature","properties":{"id":"ke-tarihi-22","kind":"poi","name":"Steel Point Battery","theme":"tarihi","lab":1},"geometry":{"type":"Point","coordinates":[151.26493,-33.85105]}},{"type":"Feature","properties":{"id":"ke-tarihi-23","kind":"poi","name":"St. Matthews Anglican Church","theme":"tarihi","lab":1},"geometry":{"type":"Point","coordinates":[150.81149,-33.60905]}},{"type":"Feature","properties":{"id":"ke-tarihi-24","kind":"poi","name":"St. Mark's Church","theme":"tarihi","lab":1},"geometry":{"type":"Point","coordinates":[151.23644,-33.87474]}},{"type":"Feature","properties":{"id":"ke-tarihi-25","kind":"poi","name":"St. John's Uniting Church","theme":"tarihi","lab":1},"geometry":{"type":"Point","coordinates":[151.11706,-33.71514]}},{"type":"Feature","properties":{"id":"ke-tarihi-26","kind":"poi","name":"St. Andrew's Anglican Church","theme":"tarihi","lab":1},"geometry":{"type":"Point","coordinates":[151.17953,-33.78529]}},{"type":"Feature","properties":{"id":"ke-tarihi-27","kind":"poi","name":"St Thomas' Anglican Church North Sydney","theme":"tarihi","lab":1},"geometry":{"type":"Point","coordinates":[151.20584,-33.83373]}},{"type":"Feature","properties":{"id":"ke-tarihi-28","kind":"poi","name":"St Philip's Anglican Church","theme":"tarihi","lab":1},"geometry":{"type":"Point","coordinates":[150.72043,-33.76324]}},{"type":"Feature","properties":{"id":"ke-tarihi-29","kind":"poi","name":"St Peters Anglican Church","theme":"tarihi","lab":1},"geometry":{"type":"Point","coordinates":[151.17693,-33.91368]}},{"type":"Feature","properties":{"id":"ke-tarihi-30","kind":"poi","name":"St Paul's Anglican Church","theme":"tarihi","lab":1},"geometry":{"type":"Point","coordinates":[151.1024,-33.88187]}},{"type":"Feature","properties":{"id":"ke-tarihi-31","kind":"poi","name":"St Patrick's Seminary","theme":"tarihi","lab":1},"geometry":{"type":"Point","coordinates":[151.29392,-33.80404]}},{"type":"Feature","properties":{"id":"ke-tarihi-32","kind":"poi","name":"St Maroun's Cathedral","theme":"tarihi","lab":1},"geometry":{"type":"Point","coordinates":[151.20714,-33.89251]}},{"type":"Feature","properties":{"id":"ke-tarihi-33","kind":"poi","name":"St John's Church","theme":"tarihi","lab":1},"geometry":{"type":"Point","coordinates":[150.69714,-34.05672]}},{"type":"Feature","properties":{"id":"ke-tarihi-34","kind":"poi","name":"St John's","theme":"tarihi","lab":1},"geometry":{"type":"Point","coordinates":[151.128,-33.88142]}},{"type":"Feature","properties":{"id":"ke-tarihi-35","kind":"poi","name":"Signal Hill Battery","theme":"tarihi","lab":1},"geometry":{"type":"Point","coordinates":[151.28717,-33.85006]}},{"type":"Feature","properties":{"id":"ke-tarihi-36","kind":"poi","name":"Shrine of Saint Anne Catholic Church","theme":"tarihi","lab":1},"geometry":{"type":"Point","coordinates":[151.27576,-33.88512]}},{"type":"Feature","properties":{"id":"ke-tarihi-37","kind":"poi","name":"S 4058","theme":"tarihi","lab":1},"geometry":{"type":"Point","coordinates":[151.15439,-33.8942]}},{"type":"Feature","properties":{"id":"ke-tarihi-38","kind":"poi","name":"Rotary Golden Anniversary Clock Tower","theme":"tarihi","lab":1},"geometry":{"type":"Point","coordinates":[150.92798,-33.92146]}},{"type":"Feature","properties":{"id":"ke-tarihi-39","kind":"poi","name":"Rose Seidler House","theme":"tarihi","lab":1},"geometry":{"type":"Point","coordinates":[151.14182,-33.70995]}},{"type":"Feature","properties":{"id":"ke-tarihi-40","kind":"poi","name":"Redleaf","theme":"tarihi","lab":1},"geometry":{"type":"Point","coordinates":[151.24764,-33.87261]}},{"type":"Feature","properties":{"id":"ke-tarihi-41","kind":"poi","name":"Pymble Reservoir NO1 Covered","theme":"tarihi","lab":1},"geometry":{"type":"Point","coordinates":[151.13902,-33.74133]}},{"type":"Feature","properties":{"id":"ke-tarihi-42","kind":"poi","name":"Purulia","theme":"tarihi","lab":1},"geometry":{"type":"Point","coordinates":[151.11782,-33.72793]}},{"type":"Feature","properties":{"id":"ke-tarihi-43","kind":"poi","name":"Prospect Reservoir Valve House","theme":"tarihi","lab":1},"geometry":{"type":"Point","coordinates":[150.9096,-33.82586]}},{"type":"Feature","properties":{"id":"ke-tarihi-44","kind":"poi","name":"Old Prospect Post Office","theme":"tarihi","lab":1},"geometry":{"type":"Point","coordinates":[150.9232,-33.80559]}},{"type":"Feature","properties":{"id":"ke-tarihi-45","kind":"poi","name":"Old Government House","theme":"tarihi","lab":1},"geometry":{"type":"Point","coordinates":[150.99737,-33.81213]}},{"type":"Feature","properties":{"id":"ke-tarihi-46","kind":"poi","name":"Newtown Baptist Church","theme":"tarihi","lab":1},"geometry":{"type":"Point","coordinates":[151.18063,-33.89506]}},{"type":"Feature","properties":{"id":"ke-tarihi-47","kind":"poi","name":"Mrs Macquarie's Chair","theme":"tarihi","lab":1},"geometry":{"type":"Point","coordinates":[151.22257,-33.85971]}},{"type":"Feature","properties":{"id":"ke-tarihi-48","kind":"poi","name":"Mowbray House","theme":"tarihi","lab":1},"geometry":{"type":"Point","coordinates":[151.18049,-33.80452]}},{"type":"Feature","properties":{"id":"ke-tarihi-49","kind":"poi","name":"Mitchells Pass","theme":"tarihi","lab":1},"geometry":{"type":"Point","coordinates":[150.63243,-33.75423]}},{"type":"Feature","properties":{"id":"ke-tarihi-50","kind":"poi","name":"Mary Immaculate Catholic Church","theme":"tarihi","lab":1},"geometry":{"type":"Point","coordinates":[151.25493,-33.90087]}},{"type":"Feature","properties":{"id":"ke-tarihi-51","kind":"poi","name":"Manly Beach","theme":"tarihi","lab":1},"geometry":{"type":"Point","coordinates":[151.28947,-33.79768]}},{"type":"Feature","properties":{"id":"ke-tarihi-52","kind":"poi","name":"Man O' War Steps","theme":"tarihi","lab":1},"geometry":{"type":"Point","coordinates":[151.21594,-33.8578]}},{"type":"Feature","properties":{"id":"ke-tarihi-53","kind":"poi","name":"Lapstone Zig Zag","theme":"tarihi","lab":1},"geometry":{"type":"Point","coordinates":[150.63915,-33.76214]}},{"type":"Feature","properties":{"id":"ke-tarihi-54","kind":"poi","name":"La Perouse Mission Church","theme":"tarihi","lab":1},"geometry":{"type":"Point","coordinates":[151.23351,-33.98346]}},{"type":"Feature","properties":{"id":"ke-tarihi-55","kind":"poi","name":"Korean War memorial","theme":"tarihi","lab":1},"geometry":{"type":"Point","coordinates":[151.21846,-33.88683]}},{"type":"Feature","properties":{"id":"ke-tarihi-56","kind":"poi","name":"Jose Rizal (1861–1896)","theme":"tarihi","lab":1},"geometry":{"type":"Point","coordinates":[150.79218,-34.10127]}},{"type":"Feature","properties":{"id":"ke-tarihi-57","kind":"poi","name":"Horizon Church","theme":"tarihi","lab":1},"geometry":{"type":"Point","coordinates":[151.06045,-34.03068]}},{"type":"Feature","properties":{"id":"ke-tarihi-58","kind":"poi","name":"Hillsong Church","theme":"tarihi","lab":1},"geometry":{"type":"Point","coordinates":[150.96098,-33.73447]}},{"type":"Feature","properties":{"id":"ke-tarihi-59","kind":"poi","name":"HMAS Karangi","theme":"tarihi","lab":1},"geometry":{"type":"Point","coordinates":[151.07823,-33.83505]}},{"type":"Feature","properties":{"id":"ke-tarihi-60","kind":"poi","name":"Graythwaite","theme":"tarihi","lab":1},"geometry":{"type":"Point","coordinates":[151.20348,-33.84008]}},{"type":"Feature","properties":{"id":"ke-tarihi-61","kind":"poi","name":"Glenbrook Native Plant Reserve","theme":"tarihi","lab":1},"geometry":{"type":"Point","coordinates":[150.62377,-33.7646]}},{"type":"Feature","properties":{"id":"ke-tarihi-62","kind":"poi","name":"Federation Pavilion","theme":"tarihi","lab":1},"geometry":{"type":"Point","coordinates":[151.11794,-33.84294]}},{"type":"Feature","properties":{"id":"ke-tarihi-63","kind":"poi","name":"Emanuel Synagogue","theme":"tarihi","lab":1},"geometry":{"type":"Point","coordinates":[151.24086,-33.88892]}},{"type":"Feature","properties":{"id":"ke-tarihi-64","kind":"poi","name":"Clyburn Station","theme":"tarihi","lab":1},"geometry":{"type":"Point","coordinates":[151.02414,-33.84106]}},{"type":"Feature","properties":{"id":"ke-tarihi-65","kind":"poi","name":"Christ Church St Laurence","theme":"tarihi","lab":1},"geometry":{"type":"Point","coordinates":[151.20489,-33.88204]}},{"type":"Feature","properties":{"id":"ke-tarihi-66","kind":"poi","name":"Christ Church Lavender Bay","theme":"tarihi","lab":1},"geometry":{"type":"Point","coordinates":[151.20751,-33.8426]}},{"type":"Feature","properties":{"id":"ke-tarihi-67","kind":"poi","name":"Cemetery Station No. 1","theme":"tarihi","lab":1},"geometry":{"type":"Point","coordinates":[151.05126,-33.86968]}},{"type":"Feature","properties":{"id":"ke-tarihi-68","kind":"poi","name":"Cecil Hills Farm","theme":"tarihi","lab":1},"geometry":{"type":"Point","coordinates":[150.85221,-33.88695]}},{"type":"Feature","properties":{"id":"ke-tarihi-69","kind":"poi","name":"Captain Cook Memorial Obelisk","theme":"tarihi","lab":1},"geometry":{"type":"Point","coordinates":[151.21757,-34.00465]}},{"type":"Feature","properties":{"id":"ke-tarihi-70","kind":"poi","name":"Cape Baily Lighthouse","theme":"tarihi","lab":1},"geometry":{"type":"Point","coordinates":[151.2222,-34.03514]}},{"type":"Feature","properties":{"id":"ke-tarihi-71","kind":"poi","name":"Brickpit Ring Walk","theme":"tarihi","lab":1},"geometry":{"type":"Point","coordinates":[151.07161,-33.84067]}},{"type":"Feature","properties":{"id":"ke-tarihi-72","kind":"poi","name":"Bondi Beach","theme":"tarihi","lab":1},"geometry":{"type":"Point","coordinates":[151.27808,-33.89237]}},{"type":"Feature","properties":{"id":"ke-tarihi-73","kind":"poi","name":"Biloela House","theme":"tarihi","lab":1},"geometry":{"type":"Point","coordinates":[151.1725,-33.84729]}},{"type":"Feature","properties":{"id":"ke-tarihi-74","kind":"poi","name":"Bass & Flinders Point","theme":"tarihi","lab":1},"geometry":{"type":"Point","coordinates":[151.15351,-34.0729]}},{"type":"Feature","properties":{"id":"ke-tarihi-75","kind":"poi","name":"Baitul Huda Mosque","theme":"tarihi","lab":1},"geometry":{"type":"Point","coordinates":[150.84273,-33.72576]}},{"type":"Feature","properties":{"id":"ke-tarihi-76","kind":"poi","name":"Baha'i Temple","theme":"tarihi","lab":1},"geometry":{"type":"Point","coordinates":[151.25872,-33.68544]}},{"type":"Feature","properties":{"id":"ke-tarihi-77","kind":"poi","name":"Anzac Bridge","theme":"tarihi","lab":1},"geometry":{"type":"Point","coordinates":[151.18564,-33.86921]}},{"type":"Feature","properties":{"id":"ke-tarihi-78","kind":"poi","name":"Amaroo Park","theme":"tarihi","lab":1},"geometry":{"type":"Point","coordinates":[150.93982,-33.65642]}},{"type":"Feature","properties":{"id":"ke-tarihi-79","kind":"poi","name":"All Souls Anglican Church","theme":"tarihi","lab":1},"geometry":{"type":"Point","coordinates":[151.15669,-33.88358]}},{"type":"Feature","properties":{"id":"ke-tarihi-80","kind":"poi","name":"Al Zahra Mosque","theme":"tarihi","lab":1},"geometry":{"type":"Point","coordinates":[151.14909,-33.93217]}},{"type":"Feature","properties":{"id":"ke-tarihi-81","kind":"poi","name":"Ahimsa","theme":"tarihi","lab":1},"geometry":{"type":"Point","coordinates":[151.08377,-33.75233]}},{"type":"Feature","properties":{"id":"ke-tarihi-82","kind":"poi","name":"1801 Fort","theme":"tarihi","lab":1},"geometry":{"type":"Point","coordinates":[151.26437,-33.82917]}},{"type":"Feature","properties":{"id":"ke-tarihi-83","kind":"poi","name":"Riverstone Police Station","theme":"tarihi","lab":1},"geometry":{"type":"Point","coordinates":[150.8404,-33.56594]}},{"type":"Feature","properties":{"id":"ke-tarihi-84","kind":"poi","name":"Gap Bluff Centre","theme":"tarihi","lab":1},"geometry":{"type":"Point","coordinates":[151.28376,-33.84225]}},{"type":"Feature","properties":{"id":"ke-tarihi-85","kind":"poi","name":"Eryldene Historic House & Garden","theme":"tarihi","lab":1},"geometry":{"type":"Point","coordinates":[151.15759,-33.75803]}},{"type":"Feature","properties":{"id":"ke-tarihi-86","kind":"poi","name":"Aboriginal rock carving","theme":"tarihi","lab":1},"geometry":{"type":"Point","coordinates":[151.19475,-33.84299]}},{"type":"Feature","properties":{"id":"ke-tarihi-87","kind":"poi","name":"former boatshed site","theme":"tarihi","lab":1},"geometry":{"type":"Point","coordinates":[151.16103,-33.64762]}},{"type":"Feature","properties":{"id":"ke-tarihi-88","kind":"poi","name":"cave house (abandoned)","theme":"tarihi","lab":1},"geometry":{"type":"Point","coordinates":[151.16307,-34.09724]}},{"type":"Feature","properties":{"id":"ke-tarihi-89","kind":"poi","name":"Zoe Jessica & Craig Wilson","theme":"tarihi","lab":1},"geometry":{"type":"Point","coordinates":[151.23988,-33.89778]}},{"type":"Feature","properties":{"id":"ke-tarihi-90","kind":"poi","name":"Yarra Bay Bicentennial Park","theme":"tarihi","lab":1},"geometry":{"type":"Point","coordinates":[151.22977,-33.97833]}},{"type":"Feature","properties":{"id":"ke-tarihi-91","kind":"poi","name":"Yarning Circle","theme":"tarihi","lab":1},"geometry":{"type":"Point","coordinates":[151.19824,-33.89277]}},{"type":"Feature","properties":{"id":"ke-tarihi-92","kind":"poi","name":"Wrecked vehicle","theme":"tarihi","lab":1},"geometry":{"type":"Point","coordinates":[151.04312,-33.57078]}},{"type":"Feature","properties":{"id":"ke-tarihi-93","kind":"poi","name":"World War 2 Memorial","theme":"tarihi","lab":1},"geometry":{"type":"Point","coordinates":[151.07016,-33.71836]}},{"type":"Feature","properties":{"id":"ke-tarihi-94","kind":"poi","name":"Woolstores Alexandria Monument","theme":"tarihi","lab":1},"geometry":{"type":"Point","coordinates":[151.19267,-33.91044]}},{"type":"Feature","properties":{"id":"ke-modern-0","kind":"poi","name":"The Enmore Theatre","theme":"modern","lab":1},"geometry":{"type":"Point","coordinates":[151.17426,-33.89901]}},{"type":"Feature","properties":{"id":"ke-modern-1","kind":"poi","name":"Stables Theatre","theme":"modern","lab":1},"geometry":{"type":"Point","coordinates":[151.22234,-33.87653]}},{"type":"Feature","properties":{"id":"ke-modern-2","kind":"poi","name":"Riverside Theatres","theme":"modern","lab":1},"geometry":{"type":"Point","coordinates":[151.00418,-33.81019]}},{"type":"Feature","properties":{"id":"ke-modern-3","kind":"poi","name":"Glen Street Theatre","theme":"modern","lab":1},"geometry":{"type":"Point","coordinates":[151.21024,-33.74021]}},{"type":"Feature","properties":{"id":"ke-modern-4","kind":"poi","name":"Capitol Theatre","theme":"modern","lab":1},"geometry":{"type":"Point","coordinates":[151.20634,-33.87963]}},{"type":"Feature","properties":{"id":"ke-modern-5","kind":"poi","name":"Brett Whiteley Studio","theme":"modern","lab":1},"geometry":{"type":"Point","coordinates":[151.21459,-33.88867]}},{"type":"Feature","properties":{"id":"ke-modern-6","kind":"poi","name":"Ben Buckler Ventilation Stack","theme":"modern","lab":1},"geometry":{"type":"Point","coordinates":[151.28515,-33.8859]}},{"type":"Feature","properties":{"id":"ke-modern-7","kind":"poi","name":"Artbank Sydney","theme":"modern","lab":1},"geometry":{"type":"Point","coordinates":[151.20839,-33.90008]}},{"type":"Feature","properties":{"id":"ke-modern-8","kind":"poi","name":"White Rabbit Gallery","theme":"modern","lab":1},"geometry":{"type":"Point","coordinates":[151.20026,-33.88654]}},{"type":"Feature","properties":{"id":"ke-modern-9","kind":"poi","name":"Seymour Centre","theme":"modern","lab":1},"geometry":{"type":"Point","coordinates":[151.19356,-33.88856]}},{"type":"Feature","properties":{"id":"ke-modern-10","kind":"poi","name":"S.H. Ervin Gallery","theme":"modern","lab":1},"geometry":{"type":"Point","coordinates":[151.20434,-33.86137]}},{"type":"Feature","properties":{"id":"ke-modern-11","kind":"poi","name":"Roslyn Packer Theatre","theme":"modern","lab":1},"geometry":{"type":"Point","coordinates":[151.20456,-33.85733]}},{"type":"Feature","properties":{"id":"ke-modern-12","kind":"poi","name":"Performing Arts Centre on the Concourse","theme":"modern","lab":1},"geometry":{"type":"Point","coordinates":[151.18339,-33.79567]}},{"type":"Feature","properties":{"id":"ke-modern-13","kind":"poi","name":"PACT Centre for Emerging Artists","theme":"modern","lab":1},"geometry":{"type":"Point","coordinates":[151.18732,-33.89904]}},{"type":"Feature","properties":{"id":"ke-modern-14","kind":"poi","name":"Museum of Contemporary Art","theme":"modern","lab":1},"geometry":{"type":"Point","coordinates":[151.20907,-33.85992]}},{"type":"Feature","properties":{"id":"ke-modern-15","kind":"poi","name":"Marian Street Theatre","theme":"modern","lab":1},"geometry":{"type":"Point","coordinates":[151.16142,-33.76689]}},{"type":"Feature","properties":{"id":"ke-modern-16","kind":"poi","name":"Manly Art Gallery & Museum","theme":"modern","lab":1},"geometry":{"type":"Point","coordinates":[151.2813,-33.79848]}},{"type":"Feature","properties":{"id":"ke-modern-17","kind":"poi","name":"Hordern Pavilion","theme":"modern","lab":1},"geometry":{"type":"Point","coordinates":[151.22424,-33.894]}},{"type":"Feature","properties":{"id":"ke-modern-18","kind":"poi","name":"Australia-China Institute for Arts and Culture","theme":"modern","lab":1},"geometry":{"type":"Point","coordinates":[151.02472,-33.81152]}},{"type":"Feature","properties":{"id":"ke-modern-19","kind":"poi","name":"Art Gallery of New South Wales","theme":"modern","lab":1},"geometry":{"type":"Point","coordinates":[151.21752,-33.86861]}},{"type":"Feature","properties":{"id":"ke-modern-20","kind":"poi","name":"UNSW Galleries","theme":"modern","lab":1},"geometry":{"type":"Point","coordinates":[151.22049,-33.88361]}},{"type":"Feature","properties":{"id":"ke-modern-21","kind":"poi","name":"Tramshed Arts & Community Centre","theme":"modern","lab":1},"geometry":{"type":"Point","coordinates":[151.29691,-33.71486]}},{"type":"Feature","properties":{"id":"ke-modern-22","kind":"poi","name":"Mosman Art Gallery & Community Centre","theme":"modern","lab":1},"geometry":{"type":"Point","coordinates":[151.24052,-33.8262]}},{"type":"Feature","properties":{"id":"ke-modern-23","kind":"poi","name":"Incinerator Art Space","theme":"modern","lab":1},"geometry":{"type":"Point","coordinates":[151.20181,-33.81145]}},{"type":"Feature","properties":{"id":"ke-modern-24","kind":"poi","name":"Chrissie Cotter Gallery","theme":"modern","lab":1},"geometry":{"type":"Point","coordinates":[151.17633,-33.88791]}},{"type":"Feature","properties":{"id":"ke-modern-25","kind":"poi","name":"Yana Art Studio & Gallery","theme":"modern","lab":1},"geometry":{"type":"Point","coordinates":[151.08224,-33.77413]}},{"type":"Feature","properties":{"id":"ke-modern-26","kind":"poi","name":"Woollahra Gallery at Redleaf","theme":"modern","lab":1},"geometry":{"type":"Point","coordinates":[151.24853,-33.87248]}},{"type":"Feature","properties":{"id":"ke-modern-27","kind":"poi","name":"Willoughby Arts Centre","theme":"modern","lab":1},"geometry":{"type":"Point","coordinates":[151.20131,-33.80056]}},{"type":"Feature","properties":{"id":"ke-modern-28","kind":"poi","name":"Waverley Woollahra Art School","theme":"modern","lab":1},"geometry":{"type":"Point","coordinates":[151.26024,-33.89307]}},{"type":"Feature","properties":{"id":"ke-modern-29","kind":"poi","name":"Wallarobba Arts and Cultural Centre","theme":"modern","lab":1},"geometry":{"type":"Point","coordinates":[151.10506,-33.70533]}},{"type":"Feature","properties":{"id":"ke-modern-30","kind":"poi","name":"VQ Art Studio","theme":"modern","lab":1},"geometry":{"type":"Point","coordinates":[151.08192,-33.79165]}},{"type":"Feature","properties":{"id":"ke-modern-31","kind":"poi","name":"St Marys Arts & Crafts Centre","theme":"modern","lab":1},"geometry":{"type":"Point","coordinates":[150.77381,-33.77048]}},{"type":"Feature","properties":{"id":"ke-modern-32","kind":"poi","name":"See Street Gallery","theme":"modern","lab":1},"geometry":{"type":"Point","coordinates":[151.09293,-33.81471]}},{"type":"Feature","properties":{"id":"ke-modern-33","kind":"poi","name":"Sally Dan Cuthbert Gallery","theme":"modern","lab":1},"geometry":{"type":"Point","coordinates":[151.22828,-33.87752]}},{"type":"Feature","properties":{"id":"ke-modern-34","kind":"poi","name":"Rosedale Street Gallery","theme":"modern","lab":1},"geometry":{"type":"Point","coordinates":[151.13749,-33.89656]}},{"type":"Feature","properties":{"id":"ke-modern-35","kind":"poi","name":"Redfern Art Gallery","theme":"modern","lab":1},"geometry":{"type":"Point","coordinates":[151.20532,-33.89284]}},{"type":"Feature","properties":{"id":"ke-modern-36","kind":"poi","name":"Prep Art Centre","theme":"modern","lab":1},"geometry":{"type":"Point","coordinates":[151.02041,-33.78775]}},{"type":"Feature","properties":{"id":"ke-modern-37","kind":"poi","name":"Pinot & Piccasso","theme":"modern","lab":1},"geometry":{"type":"Point","coordinates":[151.1417,-33.72778]}},{"type":"Feature","properties":{"id":"ke-modern-38","kind":"poi","name":"Penrith Regional Gallery & The Lewers Bequest","theme":"modern","lab":1},"geometry":{"type":"Point","coordinates":[150.66445,-33.75847]}},{"type":"Feature","properties":{"id":"ke-modern-39","kind":"poi","name":"Peacock Gallery and Arts Studio","theme":"modern","lab":1},"geometry":{"type":"Point","coordinates":[151.01721,-33.85982]}},{"type":"Feature","properties":{"id":"ke-modern-40","kind":"poi","name":"Patonga Bakehouse Gallery","theme":"modern","lab":1},"geometry":{"type":"Point","coordinates":[151.27275,-33.55045]}},{"type":"Feature","properties":{"id":"ke-modern-41","kind":"poi","name":"Northbridge School of Visual Arts","theme":"modern","lab":1},"geometry":{"type":"Point","coordinates":[151.21746,-33.81169]}},{"type":"Feature","properties":{"id":"ke-modern-42","kind":"poi","name":"Newsagency Gallery","theme":"modern","lab":1},"geometry":{"type":"Point","coordinates":[151.15746,-33.89597]}},{"type":"Feature","properties":{"id":"ke-modern-43","kind":"poi","name":"Little Star Studio","theme":"modern","lab":1},"geometry":{"type":"Point","coordinates":[151.12576,-33.88963]}},{"type":"Feature","properties":{"id":"ke-modern-44","kind":"poi","name":"Lavender Bay Gallery","theme":"modern","lab":1},"geometry":{"type":"Point","coordinates":[151.2084,-33.84218]}},{"type":"Feature","properties":{"id":"ke-doga-0","kind":"poi","name":"Waverley Park","theme":"doga","lab":1},"geometry":{"type":"Point","coordinates":[151.25775,-33.89502]}},{"type":"Feature","properties":{"id":"ke-doga-1","kind":"poi","name":"Thurina Park","theme":"doga","lab":1},"geometry":{"type":"Point","coordinates":[150.98789,-33.89055]}},{"type":"Feature","properties":{"id":"ke-doga-2","kind":"poi","name":"Tennyson Park","theme":"doga","lab":1},"geometry":{"type":"Point","coordinates":[151.15902,-33.81831]}},{"type":"Feature","properties":{"id":"ke-doga-3","kind":"poi","name":"Tania Park","theme":"doga","lab":1},"geometry":{"type":"Point","coordinates":[151.26569,-33.80926]}},{"type":"Feature","properties":{"id":"ke-doga-4","kind":"poi","name":"Sylvan Grove Native Garden","theme":"doga","lab":1},"geometry":{"type":"Point","coordinates":[151.00069,-33.97867]}},{"type":"Feature","properties":{"id":"ke-doga-5","kind":"poi","name":"Sydney Park","theme":"doga","lab":1},"geometry":{"type":"Point","coordinates":[151.18547,-33.91105]}},{"type":"Feature","properties":{"id":"ke-doga-6","kind":"poi","name":"Strickland House Estate","theme":"doga","lab":1},"geometry":{"type":"Point","coordinates":[151.26806,-33.85587]}},{"type":"Feature","properties":{"id":"ke-doga-7","kind":"poi","name":"St Thomas Rest Park","theme":"doga","lab":1},"geometry":{"type":"Point","coordinates":[151.20646,-33.82375]}},{"type":"Feature","properties":{"id":"ke-doga-8","kind":"poi","name":"St Leonards Park","theme":"doga","lab":1},"geometry":{"type":"Point","coordinates":[151.21062,-33.83127]}},{"type":"Feature","properties":{"id":"ke-doga-9","kind":"poi","name":"Rushcutters Bay Park","theme":"doga","lab":1},"geometry":{"type":"Point","coordinates":[151.23096,-33.87479]}},{"type":"Feature","properties":{"id":"ke-doga-10","kind":"poi","name":"Rosella Park","theme":"doga","lab":1},"geometry":{"type":"Point","coordinates":[151.00965,-33.82359]}},{"type":"Feature","properties":{"id":"ke-doga-11","kind":"poi","name":"Rawson Park","theme":"doga","lab":1},"geometry":{"type":"Point","coordinates":[151.24965,-33.83524]}},{"type":"Feature","properties":{"id":"ke-doga-12","kind":"poi","name":"Queens Park","theme":"doga","lab":1},"geometry":{"type":"Point","coordinates":[151.2487,-33.90157]}},{"type":"Feature","properties":{"id":"ke-doga-13","kind":"poi","name":"Paddington Reservoir Gardens","theme":"doga","lab":1},"geometry":{"type":"Point","coordinates":[151.22676,-33.88536]}},{"type":"Feature","properties":{"id":"ke-doga-14","kind":"poi","name":"Oxford Falls Peace Park","theme":"doga","lab":1},"geometry":{"type":"Point","coordinates":[151.24498,-33.73998]}},{"type":"Feature","properties":{"id":"ke-doga-15","kind":"poi","name":"Observatory Hill Park","theme":"doga","lab":1},"geometry":{"type":"Point","coordinates":[151.20496,-33.85972]}},{"type":"Feature","properties":{"id":"ke-doga-16","kind":"poi","name":"Naremburn Park","theme":"doga","lab":1},"geometry":{"type":"Point","coordinates":[151.19492,-33.81657]}},{"type":"Feature","properties":{"id":"ke-doga-17","kind":"poi","name":"Muston Park","theme":"doga","lab":1},"geometry":{"type":"Point","coordinates":[151.1948,-33.78874]}},{"type":"Feature","properties":{"id":"ke-doga-18","kind":"poi","name":"Mowbray Park","theme":"doga","lab":1},"geometry":{"type":"Point","coordinates":[151.15182,-33.80102]}},{"type":"Feature","properties":{"id":"ke-doga-19","kind":"poi","name":"Mount Annan Botanic Garden","theme":"doga","lab":1},"geometry":{"type":"Point","coordinates":[150.76867,-34.06928]}},{"type":"Feature","properties":{"id":"ke-doga-20","kind":"poi","name":"Monro Park","theme":"doga","lab":1},"geometry":{"type":"Point","coordinates":[151.15224,-34.05621]}},{"type":"Feature","properties":{"id":"ke-doga-21","kind":"poi","name":"McKell Park","theme":"doga","lab":1},"geometry":{"type":"Point","coordinates":[151.23988,-33.867]}},{"type":"Feature","properties":{"id":"ke-doga-22","kind":"poi","name":"Marcellin Park","theme":"doga","lab":1},"geometry":{"type":"Point","coordinates":[150.77255,-34.02938]}},{"type":"Feature","properties":{"id":"ke-doga-23","kind":"poi","name":"Macquarie Place Park","theme":"doga","lab":1},"geometry":{"type":"Point","coordinates":[151.21002,-33.86318]}},{"type":"Feature","properties":{"id":"ke-doga-24","kind":"poi","name":"Lyne Park","theme":"doga","lab":1},"geometry":{"type":"Point","coordinates":[151.26369,-33.87137]}},{"type":"Feature","properties":{"id":"ke-doga-25","kind":"poi","name":"Lowanna Park","theme":"doga","lab":1},"geometry":{"type":"Point","coordinates":[151.16798,-33.79719]}},{"type":"Feature","properties":{"id":"ke-doga-26","kind":"poi","name":"Lionel Watts Park","theme":"doga","lab":1},"geometry":{"type":"Point","coordinates":[151.21158,-33.74056]}},{"type":"Feature","properties":{"id":"ke-doga-27","kind":"poi","name":"Lilian Fraser Garden","theme":"doga","lab":1},"geometry":{"type":"Point","coordinates":[151.06439,-33.73469]}},{"type":"Feature","properties":{"id":"ke-doga-28","kind":"poi","name":"Lieutenant Cantello Reserve","theme":"doga","lab":1},"geometry":{"type":"Point","coordinates":[150.96984,-33.95064]}},{"type":"Feature","properties":{"id":"ke-doga-29","kind":"poi","name":"Lane Cove Bushland Park","theme":"doga","lab":1},"geometry":{"type":"Point","coordinates":[151.18009,-33.82244]}},{"type":"Feature","properties":{"id":"ke-doga-30","kind":"poi","name":"Lambeth Reserve","theme":"doga","lab":1},"geometry":{"type":"Point","coordinates":[150.9967,-33.97187]}},{"type":"Feature","properties":{"id":"ke-doga-31","kind":"poi","name":"King George Park","theme":"doga","lab":1},"geometry":{"type":"Point","coordinates":[151.16286,-33.86198]}},{"type":"Feature","properties":{"id":"ke-doga-32","kind":"poi","name":"Kenneth Slessor Park","theme":"doga","lab":1},"geometry":{"type":"Point","coordinates":[151.17766,-33.7974]}},{"type":"Feature","properties":{"id":"ke-doga-33","kind":"poi","name":"Kenley Park","theme":"doga","lab":1},"geometry":{"type":"Point","coordinates":[151.092,-33.72275]}},{"type":"Feature","properties":{"id":"ke-doga-34","kind":"poi","name":"Joseph Banks Native Plants Reserve","theme":"doga","lab":1},"geometry":{"type":"Point","coordinates":[151.08451,-34.02141]}},{"type":"Feature","properties":{"id":"ke-doga-35","kind":"poi","name":"Hunter Park","theme":"doga","lab":1},"geometry":{"type":"Point","coordinates":[151.2738,-33.89582]}},{"type":"Feature","properties":{"id":"ke-doga-36","kind":"poi","name":"Hitchcock Park","theme":"doga","lab":1},"geometry":{"type":"Point","coordinates":[151.33295,-33.62363]}},{"type":"Feature","properties":{"id":"ke-doga-37","kind":"poi","name":"Heffron Park","theme":"doga","lab":1},"geometry":{"type":"Point","coordinates":[151.23482,-33.95023]}},{"type":"Feature","properties":{"id":"ke-doga-38","kind":"poi","name":"Hassall Park","theme":"doga","lab":1},"geometry":{"type":"Point","coordinates":[151.17225,-33.71601]}},{"type":"Feature","properties":{"id":"ke-doga-39","kind":"poi","name":"Djanaba Park","theme":"doga","lab":1},"geometry":{"type":"Point","coordinates":[151.16174,-33.8058]}},{"type":"Feature","properties":{"id":"ke-doga-40","kind":"poi","name":"Deepwater Park","theme":"doga","lab":1},"geometry":{"type":"Point","coordinates":[150.97772,-33.9503]}},{"type":"Feature","properties":{"id":"ke-doga-41","kind":"poi","name":"Cox Park","theme":"doga","lab":1},"geometry":{"type":"Point","coordinates":[151.05079,-33.78498]}},{"type":"Feature","properties":{"id":"ke-doga-42","kind":"poi","name":"Centennial Park","theme":"doga","lab":1},"geometry":{"type":"Point","coordinates":[151.2341,-33.89796]}},{"type":"Feature","properties":{"id":"ke-doga-43","kind":"poi","name":"Burwood Park","theme":"doga","lab":1},"geometry":{"type":"Point","coordinates":[151.10289,-33.87307]}},{"type":"Feature","properties":{"id":"ke-doga-44","kind":"poi","name":"Bradshaw Park","theme":"doga","lab":1},"geometry":{"type":"Point","coordinates":[150.87896,-33.91572]}},{"type":"Feature","properties":{"id":"ke-doga-45","kind":"poi","name":"Belmore Park","theme":"doga","lab":1},"geometry":{"type":"Point","coordinates":[151.20741,-33.88129]}},{"type":"Feature","properties":{"id":"ke-doga-46","kind":"poi","name":"Bellevue Park","theme":"doga","lab":1},"geometry":{"type":"Point","coordinates":[151.26058,-33.88707]}},{"type":"Feature","properties":{"id":"ke-doga-47","kind":"poi","name":"Bedes Forest","theme":"doga","lab":1},"geometry":{"type":"Point","coordinates":[151.16891,-33.73147]}},{"type":"Feature","properties":{"id":"ke-doga-48","kind":"poi","name":"Artarmon Reserve","theme":"doga","lab":1},"geometry":{"type":"Point","coordinates":[151.19045,-33.81039]}},{"type":"Feature","properties":{"id":"ke-doga-49","kind":"poi","name":"Anderson Park","theme":"doga","lab":1},"geometry":{"type":"Point","coordinates":[151.21516,-33.83993]}},{"type":"Feature","properties":{"id":"ke-doga-50","kind":"poi","name":"Abbotsholme Glen","theme":"doga","lab":1},"geometry":{"type":"Point","coordinates":[151.16144,-33.76403]}},{"type":"Feature","properties":{"id":"ke-doga-51","kind":"poi","name":"Yurulbin Park","theme":"doga","lab":1},"geometry":{"type":"Point","coordinates":[151.18622,-33.84684]}},{"type":"Feature","properties":{"id":"ke-doga-53","kind":"poi","name":"Writtle Park","theme":"doga","lab":1},"geometry":{"type":"Point","coordinates":[151.23649,-33.91465]}},{"type":"Feature","properties":{"id":"ke-doga-54","kind":"poi","name":"Woodward Park","theme":"doga","lab":1},"geometry":{"type":"Point","coordinates":[150.91563,-33.92636]}},{"type":"Feature","properties":{"id":"ke-doga-55","kind":"poi","name":"Wilson Park","theme":"doga","lab":1},"geometry":{"type":"Point","coordinates":[151.05354,-33.82647]}},{"type":"Feature","properties":{"id":"ke-doga-56","kind":"poi","name":"Willmot Reserve","theme":"doga","lab":1},"geometry":{"type":"Point","coordinates":[150.79403,-33.72434]}},{"type":"Feature","properties":{"id":"ke-doga-57","kind":"poi","name":"William Lamb Park","theme":"doga","lab":1},"geometry":{"type":"Point","coordinates":[151.00888,-33.853]}},{"type":"Feature","properties":{"id":"ke-doga-58","kind":"poi","name":"Wiley Park","theme":"doga","lab":1},"geometry":{"type":"Point","coordinates":[151.0731,-33.92769]}},{"type":"Feature","properties":{"id":"ke-doga-59","kind":"poi","name":"Wilberforce Park","theme":"doga","lab":1},"geometry":{"type":"Point","coordinates":[150.84474,-33.55648]}},{"type":"Feature","properties":{"id":"ke-doga-60","kind":"poi","name":"Wetherill Park Reserve","theme":"doga","lab":1},"geometry":{"type":"Point","coordinates":[150.90833,-33.84862]}},{"type":"Feature","properties":{"id":"ke-doga-61","kind":"poi","name":"West Epping Park","theme":"doga","lab":1},"geometry":{"type":"Point","coordinates":[151.06797,-33.77067]}},{"type":"Feature","properties":{"id":"ke-doga-62","kind":"poi","name":"Waterworth Park","theme":"doga","lab":1},"geometry":{"type":"Point","coordinates":[151.15218,-33.92585]}},{"type":"Feature","properties":{"id":"ke-doga-63","kind":"poi","name":"Waratah Park","theme":"doga","lab":1},"geometry":{"type":"Point","coordinates":[151.05563,-34.0408]}},{"type":"Feature","properties":{"id":"ke-doga-64","kind":"poi","name":"Wainwright Park","theme":"doga","lab":1},"geometry":{"type":"Point","coordinates":[150.71924,-33.76132]}},{"type":"Feature","properties":{"id":"ke-doga-65","kind":"poi","name":"Wahroonga Park","theme":"doga","lab":1},"geometry":{"type":"Point","coordinates":[151.11738,-33.71657]}},{"type":"Feature","properties":{"id":"ke-doga-66","kind":"poi","name":"Victoria Park","theme":"doga","lab":1},"geometry":{"type":"Point","coordinates":[150.8482,-34.01824]}},{"type":"Feature","properties":{"id":"ke-doga-67","kind":"poi","name":"Vaucluse House","theme":"doga","lab":1},"geometry":{"type":"Point","coordinates":[151.27362,-33.85589]}},{"type":"Feature","properties":{"id":"ke-doga-68","kind":"poi","name":"Varna Park","theme":"doga","lab":1},"geometry":{"type":"Point","coordinates":[151.25639,-33.9068]}},{"type":"Feature","properties":{"id":"ke-doga-69","kind":"poi","name":"Van Diemen Park","theme":"doga","lab":1},"geometry":{"type":"Point","coordinates":[150.78679,-33.7222]}},{"type":"Feature","properties":{"id":"ke-doga-70","kind":"poi","name":"Urimbirra Park","theme":"doga","lab":1},"geometry":{"type":"Point","coordinates":[151.00603,-33.86089]}},{"type":"Feature","properties":{"id":"ke-doga-71","kind":"poi","name":"Ulolo Community Park","theme":"doga","lab":1},"geometry":{"type":"Point","coordinates":[151.09224,-33.66825]}},{"type":"Feature","properties":{"id":"ke-doga-72","kind":"poi","name":"Tuabilli Park","theme":"doga","lab":1},"geometry":{"type":"Point","coordinates":[150.89438,-33.77389]}},{"type":"Feature","properties":{"id":"ke-doga-73","kind":"poi","name":"Tredinnick Park","theme":"doga","lab":1},"geometry":{"type":"Point","coordinates":[150.74539,-34.0325]}},{"type":"Feature","properties":{"id":"ke-doga-74","kind":"poi","name":"Tonga Park","theme":"doga","lab":1},"geometry":{"type":"Point","coordinates":[150.94401,-33.78479]}},{"type":"Feature","properties":{"id":"ke-doga-75","kind":"poi","name":"Timbrell Park","theme":"doga","lab":1},"geometry":{"type":"Point","coordinates":[151.13713,-33.87076]}},{"type":"Feature","properties":{"id":"ke-doga-76","kind":"poi","name":"Thorpe Park","theme":"doga","lab":1},"geometry":{"type":"Point","coordinates":[151.09539,-33.95323]}},{"type":"Feature","properties":{"id":"ke-doga-77","kind":"poi","name":"Thornleigh Park","theme":"doga","lab":1},"geometry":{"type":"Point","coordinates":[151.08664,-33.73626]}},{"type":"Feature","properties":{"id":"ke-doga-78","kind":"poi","name":"Thorley Park","theme":"doga","lab":1},"geometry":{"type":"Point","coordinates":[150.93944,-33.85657]}},{"type":"Feature","properties":{"id":"ke-doga-79","kind":"poi","name":"The Gap","theme":"doga","lab":1},"geometry":{"type":"Point","coordinates":[151.28546,-33.84568]}},{"type":"Feature","properties":{"id":"ke-doga-80","kind":"poi","name":"Ted Little Park","theme":"doga","lab":1},"geometry":{"type":"Point","coordinates":[150.7974,-33.78164]}},{"type":"Feature","properties":{"id":"ke-doga-81","kind":"poi","name":"Taplin Park","theme":"doga","lab":1},"geometry":{"type":"Point","coordinates":[151.14859,-33.84996]}},{"type":"Feature","properties":{"id":"ke-doga-82","kind":"poi","name":"Tandarra Park","theme":"doga","lab":1},"geometry":{"type":"Point","coordinates":[150.8075,-33.72655]}},{"type":"Feature","properties":{"id":"ke-alisveris-0","kind":"poi","name":"Westpoint Shopping Centre","theme":"alisveris","lab":1},"geometry":{"type":"Point","coordinates":[150.90599,-33.77029]}},{"type":"Feature","properties":{"id":"ke-alisveris-1","kind":"poi","name":"Westfield Warringah Mall","theme":"alisveris","lab":1},"geometry":{"type":"Point","coordinates":[151.26621,-33.76768]}},{"type":"Feature","properties":{"id":"ke-alisveris-2","kind":"poi","name":"Westfield Sydney","theme":"alisveris","lab":1},"geometry":{"type":"Point","coordinates":[151.20893,-33.87011]}},{"type":"Feature","properties":{"id":"ke-alisveris-3","kind":"poi","name":"Westfield Penrith","theme":"alisveris","lab":1},"geometry":{"type":"Point","coordinates":[150.69288,-33.75101]}},{"type":"Feature","properties":{"id":"ke-alisveris-4","kind":"poi","name":"Westfield Parramatta","theme":"alisveris","lab":1},"geometry":{"type":"Point","coordinates":[151.00006,-33.81737]}},{"type":"Feature","properties":{"id":"ke-alisveris-5","kind":"poi","name":"Westfield Miranda","theme":"alisveris","lab":1},"geometry":{"type":"Point","coordinates":[151.10054,-34.03506]}},{"type":"Feature","properties":{"id":"ke-alisveris-6","kind":"poi","name":"Westfield Liverpool","theme":"alisveris","lab":1},"geometry":{"type":"Point","coordinates":[150.92383,-33.91895]}},{"type":"Feature","properties":{"id":"ke-alisveris-7","kind":"poi","name":"Westfield Hurstville","theme":"alisveris","lab":1},"geometry":{"type":"Point","coordinates":[151.10519,-33.96616]}},{"type":"Feature","properties":{"id":"ke-alisveris-8","kind":"poi","name":"Westfield Eastgardens","theme":"alisveris","lab":1},"geometry":{"type":"Point","coordinates":[151.22427,-33.94473]}},{"type":"Feature","properties":{"id":"ke-alisveris-9","kind":"poi","name":"Westfield Chatswood","theme":"alisveris","lab":1},"geometry":{"type":"Point","coordinates":[151.18365,-33.79704]}},{"type":"Feature","properties":{"id":"ke-alisveris-10","kind":"poi","name":"Westfield Burwood","theme":"alisveris","lab":1},"geometry":{"type":"Point","coordinates":[151.1059,-33.87462]}},{"type":"Feature","properties":{"id":"ke-alisveris-11","kind":"poi","name":"Westfield Bondi Junction","theme":"alisveris","lab":1},"geometry":{"type":"Point","coordinates":[151.2508,-33.89217]}},{"type":"Feature","properties":{"id":"ke-alisveris-12","kind":"poi","name":"Rouse Hill Town Centre","theme":"alisveris","lab":1},"geometry":{"type":"Point","coordinates":[150.92576,-33.69059]}},{"type":"Feature","properties":{"id":"ke-alisveris-13","kind":"poi","name":"Rhodes Waterside Shopping Centre","theme":"alisveris","lab":1},"geometry":{"type":"Point","coordinates":[151.0851,-33.83484]}},{"type":"Feature","properties":{"id":"ke-alisveris-14","kind":"poi","name":"Chatswood Chase Shopping Centre","theme":"alisveris","lab":1},"geometry":{"type":"Point","coordinates":[151.18598,-33.79408]}},{"type":"Feature","properties":{"id":"ke-alisveris-15","kind":"poi","name":"Castle Towers","theme":"alisveris","lab":1},"geometry":{"type":"Point","coordinates":[151.00572,-33.73059]}},{"type":"Feature","properties":{"id":"ke-alisveris-16","kind":"poi","name":"Warriewood Square","theme":"alisveris","lab":1},"geometry":{"type":"Point","coordinates":[151.29593,-33.69585]}},{"type":"Feature","properties":{"id":"ke-alisveris-17","kind":"poi","name":"St Ives Shopping Village","theme":"alisveris","lab":1},"geometry":{"type":"Point","coordinates":[151.15883,-33.72995]}},{"type":"Feature","properties":{"id":"ke-alisveris-18","kind":"poi","name":"Rockdale Plaza","theme":"alisveris","lab":1},"geometry":{"type":"Point","coordinates":[151.13976,-33.95812]}},{"type":"Feature","properties":{"id":"ke-alisveris-19","kind":"poi","name":"Paddy's Markets · Market City","theme":"alisveris","lab":1},"geometry":{"type":"Point","coordinates":[151.20343,-33.87985]}},{"type":"Feature","properties":{"id":"ke-alisveris-20","kind":"poi","name":"Manly Ferry Terminal","theme":"alisveris","lab":1},"geometry":{"type":"Point","coordinates":[151.2845,-33.8001]}},{"type":"Feature","properties":{"id":"ke-alisveris-21","kind":"poi","name":"Macquarie Centre","theme":"alisveris","lab":1},"geometry":{"type":"Point","coordinates":[151.12129,-33.77711]}},{"type":"Feature","properties":{"id":"ke-alisveris-22","kind":"poi","name":"Macarthur Square","theme":"alisveris","lab":1},"geometry":{"type":"Point","coordinates":[150.79768,-34.07521]}},{"type":"Feature","properties":{"id":"ke-alisveris-23","kind":"poi","name":"Lidcombe Shopping Centre","theme":"alisveris","lab":1},"geometry":{"type":"Point","coordinates":[151.04876,-33.84942]}},{"type":"Feature","properties":{"id":"ke-alisveris-24","kind":"poi","name":"Eastgate Bondi Junction","theme":"alisveris","lab":1},"geometry":{"type":"Point","coordinates":[151.24803,-33.89295]}},{"type":"Feature","properties":{"id":"ke-alisveris-25","kind":"poi","name":"Central Park Mall","theme":"alisveris","lab":1},"geometry":{"type":"Point","coordinates":[151.20074,-33.88461]}},{"type":"Feature","properties":{"id":"ke-alisveris-26","kind":"poi","name":"Carlingford Court","theme":"alisveris","lab":1},"geometry":{"type":"Point","coordinates":[151.0525,-33.77613]}},{"type":"Feature","properties":{"id":"ke-alisveris-27","kind":"poi","name":"Broadway Shopping Centre","theme":"alisveris","lab":1},"geometry":{"type":"Point","coordinates":[151.1939,-33.88308]}},{"type":"Feature","properties":{"id":"ke-alisveris-28","kind":"poi","name":"Birkenhead Point Outlet Centre","theme":"alisveris","lab":1},"geometry":{"type":"Point","coordinates":[151.16221,-33.85578]}},{"type":"Feature","properties":{"id":"ke-alisveris-29","kind":"poi","name":"Bankstown Central","theme":"alisveris","lab":1},"geometry":{"type":"Point","coordinates":[151.03854,-33.916]}},{"type":"Feature","properties":{"id":"ke-alisveris-30","kind":"poi","name":"The Village - Balgowlah Stockland","theme":"alisveris","lab":1},"geometry":{"type":"Point","coordinates":[151.26435,-33.79318]}},{"type":"Feature","properties":{"id":"ke-alisveris-31","kind":"poi","name":"Target","theme":"alisveris","lab":1},"geometry":{"type":"Point","coordinates":[151.1484,-33.88512]}},{"type":"Feature","properties":{"id":"ke-alisveris-32","kind":"poi","name":"Target","theme":"alisveris","lab":1},"geometry":{"type":"Point","coordinates":[151.06812,-33.93467]}},{"type":"Feature","properties":{"id":"ke-alisveris-33","kind":"poi","name":"Target","theme":"alisveris","lab":1},"geometry":{"type":"Point","coordinates":[150.89102,-33.98637]}},{"type":"Feature","properties":{"id":"ke-alisveris-34","kind":"poi","name":"Target","theme":"alisveris","lab":1},"geometry":{"type":"Point","coordinates":[150.81882,-33.76517]}},{"type":"Feature","properties":{"id":"ke-otel-0","kind":"poi","name":"West Hotel Sydney, Curio Collection by Hilton","theme":"otel","lab":1},"geometry":{"type":"Point","coordinates":[151.20321,-33.86755]}},{"type":"Feature","properties":{"id":"ke-otel-1","kind":"poi","name":"Hilton Sydney","theme":"otel","lab":1},"geometry":{"type":"Point","coordinates":[151.20761,-33.87182]}},{"type":"Feature","properties":{"id":"ke-otel-2","kind":"poi","name":"Harbour Rocks Hotel","theme":"otel","lab":1},"geometry":{"type":"Point","coordinates":[151.20815,-33.85965]}},{"type":"Feature","properties":{"id":"ke-otel-3","kind":"poi","name":"The Sebel","theme":"otel","lab":1},"geometry":{"type":"Point","coordinates":[151.28935,-33.79943]}},{"type":"Feature","properties":{"id":"ke-otel-4","kind":"poi","name":"The Marsden Hotel","theme":"otel","lab":1},"geometry":{"type":"Point","coordinates":[150.99991,-33.81957]}},{"type":"Feature","properties":{"id":"ke-otel-5","kind":"poi","name":"Rydges","theme":"otel","lab":1},"geometry":{"type":"Point","coordinates":[151.16563,-33.93434]}},{"type":"Feature","properties":{"id":"ke-otel-6","kind":"poi","name":"Meriton Serviced Apartments Church Street","theme":"otel","lab":1},"geometry":{"type":"Point","coordinates":[151.00513,-33.81169]}},{"type":"Feature","properties":{"id":"ke-otel-7","kind":"poi","name":"Hotel Pullman at Sydney Olympic Park","theme":"otel","lab":1},"geometry":{"type":"Point","coordinates":[151.06805,-33.84878]}},{"type":"Feature","properties":{"id":"ke-otel-8","kind":"poi","name":"Harbour View Hotel","theme":"otel","lab":1},"geometry":{"type":"Point","coordinates":[151.20736,-33.85674]}},{"type":"Feature","properties":{"id":"ke-otel-9","kind":"poi","name":"Four Points","theme":"otel","lab":1},"geometry":{"type":"Point","coordinates":[151.19925,-33.88463]}},{"type":"Feature","properties":{"id":"ke-otel-10","kind":"poi","name":"Glenferrie Lodge Sydney","theme":"otel","lab":1},"geometry":{"type":"Point","coordinates":[151.21824,-33.85014]}},{"type":"Feature","properties":{"id":"ke-otel-11","kind":"poi","name":"lyf Bondi Junction","theme":"otel","lab":1},"geometry":{"type":"Point","coordinates":[151.25142,-33.89317]}},{"type":"Feature","properties":{"id":"ke-otel-12","kind":"poi","name":"ibis budget Sydney East","theme":"otel","lab":1},"geometry":{"type":"Point","coordinates":[151.22005,-33.87515]}},{"type":"Feature","properties":{"id":"ke-otel-13","kind":"poi","name":"ibis Budget","theme":"otel","lab":1},"geometry":{"type":"Point","coordinates":[151.17786,-33.9146]}},{"type":"Feature","properties":{"id":"ke-otel-14","kind":"poi","name":"Veriu Camperdown","theme":"otel","lab":1},"geometry":{"type":"Point","coordinates":[151.18056,-33.88568]}},{"type":"Feature","properties":{"id":"ke-otel-15","kind":"poi","name":"The Sebel","theme":"otel","lab":1},"geometry":{"type":"Point","coordinates":[151.18238,-33.79743]}},{"type":"Feature","properties":{"id":"ke-otel-16","kind":"poi","name":"Rydges North Sydney","theme":"otel","lab":1},"geometry":{"type":"Point","coordinates":[151.20906,-33.83429]}},{"type":"Feature","properties":{"id":"ke-otel-17","kind":"poi","name":"Rydges Bankstown","theme":"otel","lab":1},"geometry":{"type":"Point","coordinates":[150.99862,-33.89998]}},{"type":"Feature","properties":{"id":"ke-otel-18","kind":"poi","name":"Ramada Hotel and Suites Sydney Cabramatta","theme":"otel","lab":1},"geometry":{"type":"Point","coordinates":[150.9561,-33.89459]}},{"type":"Feature","properties":{"id":"ke-otel-19","kind":"poi","name":"Quest","theme":"otel","lab":1},"geometry":{"type":"Point","coordinates":[151.18592,-33.79761]}},{"type":"Feature","properties":{"id":"ke-otel-20","kind":"poi","name":"Oaks Sydney North Ryde Suites","theme":"otel","lab":1},"geometry":{"type":"Point","coordinates":[151.14382,-33.79493]}},{"type":"Feature","properties":{"id":"ke-otel-21","kind":"poi","name":"Novotel Sydney Rooty Hill","theme":"otel","lab":1},"geometry":{"type":"Point","coordinates":[150.834,-33.7694]}},{"type":"Feature","properties":{"id":"ke-otel-22","kind":"poi","name":"Novotel Sydney Norwest","theme":"otel","lab":1},"geometry":{"type":"Point","coordinates":[150.9714,-33.73154]}},{"type":"Feature","properties":{"id":"ke-otel-23","kind":"poi","name":"Narrabeen Sands Hotel","theme":"otel","lab":1},"geometry":{"type":"Point","coordinates":[151.29826,-33.71841]}},{"type":"Feature","properties":{"id":"ke-otel-24","kind":"poi","name":"Meriton Suits North Sydney","theme":"otel","lab":1},"geometry":{"type":"Point","coordinates":[151.20961,-33.84048]}},{"type":"Feature","properties":{"id":"ke-otel-25","kind":"poi","name":"Meriton Suites Waterloo","theme":"otel","lab":1},"geometry":{"type":"Point","coordinates":[151.21505,-33.89814]}},{"type":"Feature","properties":{"id":"ke-otel-26","kind":"poi","name":"Mercure Sydney Parramatta","theme":"otel","lab":1},"geometry":{"type":"Point","coordinates":[151.0202,-33.81871]}},{"type":"Feature","properties":{"id":"ke-otel-27","kind":"poi","name":"Mercure Sydney Manly Warringah","theme":"otel","lab":1},"geometry":{"type":"Point","coordinates":[151.27669,-33.76031]}},{"type":"Feature","properties":{"id":"ke-otel-28","kind":"poi","name":"Mercure Sydney Macquarie","theme":"otel","lab":1},"geometry":{"type":"Point","coordinates":[151.11687,-33.7724]}},{"type":"Feature","properties":{"id":"ke-otel-29","kind":"poi","name":"Mercure Sydney Blacktown","theme":"otel","lab":1},"geometry":{"type":"Point","coordinates":[150.89649,-33.79358]}},{"type":"Feature","properties":{"id":"ke-yurt-0","kind":"poi","name":"Stucco Housing Co-operative","theme":"yurt","lab":1},"geometry":{"type":"Point","coordinates":[151.18707,-33.89501]}},{"type":"Feature","properties":{"id":"ke-yurt-1","kind":"poi","name":"Warrane College - M7","theme":"yurt","lab":1},"geometry":{"type":"Point","coordinates":[151.22681,-33.91905]}},{"type":"Feature","properties":{"id":"ke-yurt-2","kind":"poi","name":"Urbanest","theme":"yurt","lab":1},"geometry":{"type":"Point","coordinates":[151.1992,-33.88906]}},{"type":"Feature","properties":{"id":"ke-yurt-3","kind":"poi","name":"Student Residence - Building B","theme":"yurt","lab":1},"geometry":{"type":"Point","coordinates":[151.02133,-33.80848]}},{"type":"Feature","properties":{"id":"ke-yurt-4","kind":"poi","name":"Nurses Residence","theme":"yurt","lab":1},"geometry":{"type":"Point","coordinates":[151.09899,-33.73457]}},{"type":"Feature","properties":{"id":"ke-yurt-5","kind":"poi","name":"Dunmore Lang College - Old Wing","theme":"yurt","lab":1},"geometry":{"type":"Point","coordinates":[151.11606,-33.77817]}},{"type":"Feature","properties":{"id":"ke-yurt-6","kind":"poi","name":"Broughton Forrest Boarding House","theme":"yurt","lab":1},"geometry":{"type":"Point","coordinates":[151.0221,-33.7874]}},{"type":"Feature","properties":{"id":"ke-yurt-7","kind":"poi","name":"23B10","theme":"yurt","lab":1},"geometry":{"type":"Point","coordinates":[150.78433,-34.06963]}},{"type":"Feature","properties":{"id":"ke-kamu-0","kind":"poi","name":"Manly Town Hall","theme":"kamu","lab":1},"geometry":{"type":"Point","coordinates":[151.28501,-33.79827]}},{"type":"Feature","properties":{"id":"ke-kamu-1","kind":"poi","name":"Leichhardt Town Hall","theme":"kamu","lab":1},"geometry":{"type":"Point","coordinates":[151.15743,-33.88349]}},{"type":"Feature","properties":{"id":"ke-kamu-2","kind":"poi","name":"Centrelink","theme":"kamu","lab":1},"geometry":{"type":"Point","coordinates":[151.10334,-33.81427]}},{"type":"Feature","properties":{"id":"ke-kamu-3","kind":"poi","name":"Willoughby City Council","theme":"kamu","lab":1},"geometry":{"type":"Point","coordinates":[151.18219,-33.79758]}},{"type":"Feature","properties":{"id":"ke-kamu-4","kind":"poi","name":"Sydney Town Hall","theme":"kamu","lab":1},"geometry":{"type":"Point","coordinates":[151.20617,-33.8732]}},{"type":"Feature","properties":{"id":"ke-kamu-5","kind":"poi","name":"Redfern Town Hall","theme":"kamu","lab":1},"geometry":{"type":"Point","coordinates":[151.20423,-33.89226]}},{"type":"Feature","properties":{"id":"ke-kamu-6","kind":"poi","name":"Petersham Town Hall","theme":"kamu","lab":1},"geometry":{"type":"Point","coordinates":[151.1576,-33.89495]}},{"type":"Feature","properties":{"id":"ke-kamu-7","kind":"poi","name":"Parramatta Town Hall","theme":"kamu","lab":1},"geometry":{"type":"Point","coordinates":[151.00365,-33.81577]}},{"type":"Feature","properties":{"id":"ke-kamu-8","kind":"poi","name":"National Herbarium of NSW","theme":"kamu","lab":1},"geometry":{"type":"Point","coordinates":[150.76847,-34.06783]}},{"type":"Feature","properties":{"id":"ke-kamu-9","kind":"poi","name":"National Archives of Australia","theme":"kamu","lab":1},"geometry":{"type":"Point","coordinates":[150.99322,-33.87702]}},{"type":"Feature","properties":{"id":"ke-kamu-10","kind":"poi","name":"Hunters Hill Town Hall","theme":"kamu","lab":1},"geometry":{"type":"Point","coordinates":[151.15287,-33.83437]}},{"type":"Feature","properties":{"id":"ke-kamu-11","kind":"poi","name":"Darlinghurst Law Courts","theme":"kamu","lab":1},"geometry":{"type":"Point","coordinates":[151.21796,-33.88044]}},{"type":"Feature","properties":{"id":"ke-kamu-12","kind":"poi","name":"Consulate General of the Republic of Indonesia in Sydney","theme":"kamu","lab":1},"geometry":{"type":"Point","coordinates":[151.24459,-33.94207]}},{"type":"Feature","properties":{"id":"ke-kamu-13","kind":"poi","name":"British Consulate","theme":"kamu","lab":1},"geometry":{"type":"Point","coordinates":[151.20993,-33.86181]}},{"type":"Feature","properties":{"id":"ke-kamu-14","kind":"poi","name":"Australian Trade and Investment Commission","theme":"kamu","lab":1},"geometry":{"type":"Point","coordinates":[151.20207,-33.86501]}},{"type":"Feature","properties":{"id":"ke-kamu-15","kind":"poi","name":"Warringah Pittwater Headquarters RFB","theme":"kamu","lab":1},"geometry":{"type":"Point","coordinates":[151.22239,-33.69338]}},{"type":"Feature","properties":{"id":"ke-kamu-16","kind":"poi","name":"Train Planning Coordination Centre","theme":"kamu","lab":1},"geometry":{"type":"Point","coordinates":[151.20573,-33.8827]}},{"type":"Feature","properties":{"id":"ke-kamu-17","kind":"poi","name":"Sydney Airport Meterological Office","theme":"kamu","lab":1},"geometry":{"type":"Point","coordinates":[151.17272,-33.94637]}},{"type":"Feature","properties":{"id":"ke-kamu-18","kind":"poi","name":"Services Australia","theme":"kamu","lab":1},"geometry":{"type":"Point","coordinates":[151.26565,-33.76633]}},{"type":"Feature","properties":{"id":"ke-kamu-19","kind":"poi","name":"Service NSW","theme":"kamu","lab":1},"geometry":{"type":"Point","coordinates":[151.26066,-33.7646]}},{"type":"Feature","properties":{"id":"ke-kamu-20","kind":"poi","name":"Northern Beaches Fire Control Centre","theme":"kamu","lab":1},"geometry":{"type":"Point","coordinates":[151.22275,-33.69229]}},{"type":"Feature","properties":{"id":"ke-kamu-21","kind":"poi","name":"Northern Beaches Council Mona Vale","theme":"kamu","lab":1},"geometry":{"type":"Point","coordinates":[151.3044,-33.67637]}},{"type":"Feature","properties":{"id":"ke-kamu-22","kind":"poi","name":"Northern Beaches Council Dee Why","theme":"kamu","lab":1},"geometry":{"type":"Point","coordinates":[151.28703,-33.75132]}},{"type":"Feature","properties":{"id":"ke-kamu-23","kind":"poi","name":"NSW Rural Fire Service Headquarters","theme":"kamu","lab":1},"geometry":{"type":"Point","coordinates":[151.07455,-33.84461]}},{"type":"Feature","properties":{"id":"ke-kamu-24","kind":"poi","name":"NSW Fisheries Office","theme":"kamu","lab":1},"geometry":{"type":"Point","coordinates":[151.18908,-33.83727]}},{"type":"Feature","properties":{"id":"ke-kamu-25","kind":"poi","name":"Mosman Council","theme":"kamu","lab":1},"geometry":{"type":"Point","coordinates":[151.2414,-33.82512]}},{"type":"Feature","properties":{"id":"ke-kamu-26","kind":"poi","name":"Ministry of Health","theme":"kamu","lab":1},"geometry":{"type":"Point","coordinates":[151.19244,-33.82296]}},{"type":"Feature","properties":{"id":"ke-kamu-27","kind":"poi","name":"Marrickville Town Hall","theme":"kamu","lab":1},"geometry":{"type":"Point","coordinates":[151.15418,-33.90896]}},{"type":"Feature","properties":{"id":"ke-kamu-28","kind":"poi","name":"Macarthur Fire Control Centre","theme":"kamu","lab":1},"geometry":{"type":"Point","coordinates":[150.84698,-34.03962]}},{"type":"Feature","properties":{"id":"ke-kamu-29","kind":"poi","name":"Kings Cross Neighbourhood Service Centre","theme":"kamu","lab":1},"geometry":{"type":"Point","coordinates":[151.22351,-33.87402]}},{"type":"Feature","properties":{"id":"ke-kamu-30","kind":"poi","name":"Hawkesbury City Council","theme":"kamu","lab":1},"geometry":{"type":"Point","coordinates":[150.81493,-33.61151]}},{"type":"Feature","properties":{"id":"ke-kamu-31","kind":"poi","name":"Beverly Hills Motor Registry","theme":"kamu","lab":1},"geometry":{"type":"Point","coordinates":[151.0819,-33.95371]}},{"type":"Feature","properties":{"id":"ke-kamu-32","kind":"poi","name":"Beaumont Hills Community Centre","theme":"kamu","lab":1},"geometry":{"type":"Point","coordinates":[150.9439,-33.69813]}},{"type":"Feature","properties":{"id":"ke-gastronomi-0","kind":"poi","name":"The Newport","theme":"gastronomi","lab":1},"geometry":{"type":"Point","coordinates":[151.30908,-33.66023]}},{"type":"Feature","properties":{"id":"ke-gastronomi-1","kind":"poi","name":"The Hero of Waterloo Hotel","theme":"gastronomi","lab":1},"geometry":{"type":"Point","coordinates":[151.20589,-33.85769]}},{"type":"Feature","properties":{"id":"ke-gastronomi-2","kind":"poi","name":"The Henson","theme":"gastronomi","lab":1},"geometry":{"type":"Point","coordinates":[151.16133,-33.90512]}},{"type":"Feature","properties":{"id":"ke-gastronomi-3","kind":"poi","name":"The Exchange","theme":"gastronomi","lab":1},"geometry":{"type":"Point","coordinates":[151.1773,-33.85899]}},{"type":"Feature","properties":{"id":"ke-gastronomi-4","kind":"poi","name":"Royal Oak","theme":"gastronomi","lab":1},"geometry":{"type":"Point","coordinates":[151.18098,-33.85558]}},{"type":"Feature","properties":{"id":"ke-gastronomi-6","kind":"poi","name":"Metropolitan Hotel","theme":"gastronomi","lab":1},"geometry":{"type":"Point","coordinates":[151.20763,-33.86388]}},{"type":"Feature","properties":{"id":"ke-gastronomi-7","kind":"poi","name":"Imperial Hotel","theme":"gastronomi","lab":1},"geometry":{"type":"Point","coordinates":[150.84352,-33.77143]}},{"type":"Feature","properties":{"id":"ke-gastronomi-8","kind":"poi","name":"Glass Brasserie","theme":"gastronomi","lab":1},"geometry":{"type":"Point","coordinates":[151.20726,-33.87189]}},{"type":"Feature","properties":{"id":"ke-gastronomi-9","kind":"poi","name":"Elements Brasserie Haberfield","theme":"gastronomi","lab":1},"geometry":{"type":"Point","coordinates":[151.13601,-33.87667]}},{"type":"Feature","properties":{"id":"ke-gastronomi-10","kind":"poi","name":"Elements Brasserie Belmore","theme":"gastronomi","lab":1},"geometry":{"type":"Point","coordinates":[151.09117,-33.92388]}},{"type":"Feature","properties":{"id":"ke-gastronomi-11","kind":"poi","name":"Bristol Arms","theme":"gastronomi","lab":1},"geometry":{"type":"Point","coordinates":[151.20324,-33.86779]}},{"type":"Feature","properties":{"id":"ke-gastronomi-12","kind":"poi","name":"Bangor Tavern","theme":"gastronomi","lab":1},"geometry":{"type":"Point","coordinates":[151.02893,-34.01826]}},{"type":"Feature","properties":{"id":"ke-gastronomi-13","kind":"poi","name":"Wahlburgers","theme":"gastronomi","lab":1},"geometry":{"type":"Point","coordinates":[151.28813,-33.79754]}},{"type":"Feature","properties":{"id":"ke-gastronomi-14","kind":"poi","name":"The Beaches Farmers Market","theme":"gastronomi","lab":1},"geometry":{"type":"Point","coordinates":[151.30336,-33.69665]}},{"type":"Feature","properties":{"id":"ke-gastronomi-15","kind":"poi","name":"TGI Fridays","theme":"gastronomi","lab":1},"geometry":{"type":"Point","coordinates":[150.82088,-33.76586]}},{"type":"Feature","properties":{"id":"ke-gastronomi-16","kind":"poi","name":"Star Buffet Bankstown","theme":"gastronomi","lab":1},"geometry":{"type":"Point","coordinates":[151.03171,-33.9171]}},{"type":"Feature","properties":{"id":"ke-gastronomi-17","kind":"poi","name":"Saravanaa Bhavan","theme":"gastronomi","lab":1},"geometry":{"type":"Point","coordinates":[151.20789,-33.83506]}},{"type":"Feature","properties":{"id":"ke-gastronomi-18","kind":"poi","name":"Pizza Hut","theme":"gastronomi","lab":1},"geometry":{"type":"Point","coordinates":[151.30287,-33.73889]}},{"type":"Feature","properties":{"id":"ke-ikonik-0","kind":"poi","name":"Sydney Harbour Bridge","theme":"modern","lab":1},"geometry":{"type":"Point","coordinates":[151.20947,-33.85289]}},{"type":"Feature","properties":{"id":"ke-ikonik-1","kind":"poi","name":"Hyde Park Barracks","theme":"tarihi","lab":1},"geometry":{"type":"Point","coordinates":[151.2128,-33.8696]}},{"type":"Feature","properties":{"id":"ke-ikonik-2","kind":"poi","name":"Australian Museum","theme":"tarihi","lab":1},"geometry":{"type":"Point","coordinates":[151.21325,-33.87435]}},{"type":"Feature","properties":{"id":"ke-ikonik-3","kind":"poi","name":"St Mary's Cathedral","theme":"tarihi","lab":1},"geometry":{"type":"Point","coordinates":[151.21342,-33.87124]}},{"type":"Feature","properties":{"id":"ke-ikonik-4","kind":"poi","name":"Fort Denison","theme":"tarihi","lab":1},"geometry":{"type":"Point","coordinates":[151.22558,-33.85493]}},{"type":"Feature","properties":{"id":"ke-ikonik-5","kind":"poi","name":"Macquarie Lighthouse","theme":"tarihi","lab":1},"geometry":{"type":"Point","coordinates":[151.28519,-33.85394]}},{"type":"Feature","properties":{"id":"ke-ikonik-6","kind":"poi","name":"Luna Park Sydney","theme":"modern","lab":1},"geometry":{"type":"Point","coordinates":[151.21016,-33.8473]}},{"type":"Feature","properties":{"id":"ke-ikonik-7","kind":"poi","name":"Powerhouse Museum","theme":"modern","lab":1},"geometry":{"type":"Point","coordinates":[151.19956,-33.87835]}},{"type":"Feature","properties":{"id":"ke-ikonik-8","kind":"poi","name":"SEA LIFE Sydney Aquarium","theme":"modern","lab":1},"geometry":{"type":"Point","coordinates":[151.20208,-33.86961]}},{"type":"Feature","properties":{"id":"ke-ikonik-9","kind":"poi","name":"Barangaroo","theme":"modern","lab":1},"geometry":{"type":"Point","coordinates":[151.20254,-33.85968]}},{"type":"Feature","properties":{"id":"ke-ikonik-10","kind":"poi","name":"Darling Harbour","theme":"modern","lab":1},"geometry":{"type":"Point","coordinates":[151.19956,-33.86755]}},{"type":"Feature","properties":{"id":"ke-ikonik-11","kind":"poi","name":"Sydney Cricket Ground","theme":"modern","lab":1},"geometry":{"type":"Point","coordinates":[151.22477,-33.89143]}},{"type":"Feature","properties":{"id":"ke-ikonik-12","kind":"poi","name":"Accor Stadium","theme":"modern","lab":1},"geometry":{"type":"Point","coordinates":[151.06338,-33.84712]}},{"type":"Feature","properties":{"id":"ke-ikonik-13","kind":"poi","name":"Carriageworks","theme":"modern","lab":1},"geometry":{"type":"Point","coordinates":[151.1916,-33.89416]}},{"type":"Feature","properties":{"id":"ke-ikonik-14","kind":"poi","name":"Royal Botanic Garden","theme":"doga","lab":1},"geometry":{"type":"Point","coordinates":[151.21694,-33.86278]}},{"type":"Feature","properties":{"id":"ke-ikonik-15","kind":"poi","name":"The Domain","theme":"doga","lab":1},"geometry":{"type":"Point","coordinates":[151.21538,-33.86806]}},{"type":"Feature","properties":{"id":"ke-ikonik-16","kind":"poi","name":"Hyde Park","theme":"doga","lab":1},"geometry":{"type":"Point","coordinates":[151.21124,-33.87334]}},{"type":"Feature","properties":{"id":"ke-ikonik-17","kind":"poi","name":"Barangaroo Reserve","theme":"doga","lab":1},"geometry":{"type":"Point","coordinates":[151.20132,-33.85848]}},{"type":"Feature","properties":{"id":"ke-ikonik-18","kind":"poi","name":"Taronga Zoo","theme":"doga","lab":1},"geometry":{"type":"Point","coordinates":[151.2417,-33.84378]}},{"type":"Feature","properties":{"id":"ke-ikonik-19","kind":"poi","name":"Nielsen Park","theme":"doga","lab":1},"geometry":{"type":"Point","coordinates":[151.26718,-33.85138]}},{"type":"Feature","properties":{"id":"ke-ikonik-20","kind":"poi","name":"Bronte Beach","theme":"doga","lab":1},"geometry":{"type":"Point","coordinates":[151.26865,-33.90359]}},{"type":"Feature","properties":{"id":"ke-ikonik-21","kind":"poi","name":"Coogee Beach","theme":"doga","lab":1},"geometry":{"type":"Point","coordinates":[151.25856,-33.92083]}},{"type":"Feature","properties":{"id":"ke-ikonik-22","kind":"poi","name":"Shelly Beach","theme":"doga","lab":1},"geometry":{"type":"Point","coordinates":[151.29794,-33.80052]}},{"type":"Feature","properties":{"id":"ke-ikonik-23","kind":"poi","name":"Sydney Fish Market","theme":"gastronomi","lab":1},"geometry":{"type":"Point","coordinates":[151.19063,-33.87459]}},{"type":"Feature","properties":{"id":"ke-ikonik-24","kind":"poi","name":"The Grounds of Alexandria","theme":"gastronomi","lab":1},"geometry":{"type":"Point","coordinates":[151.19428,-33.91063]}},{"type":"Feature","properties":{"id":"ke-ikonik-25","kind":"poi","name":"Chinatown (Dixon St)","theme":"gastronomi","lab":1},"geometry":{"type":"Point","coordinates":[151.20556,-33.87861]}},{"type":"Feature","properties":{"id":"ke-ikonik-26","kind":"poi","name":"Paddington Markets","theme":"alisveris","lab":1},"geometry":{"type":"Point","coordinates":[151.22986,-33.88744]}},{"type":"Feature","properties":{"id":"ke-ikonik-r0","kind":"poi","name":"The Strand Arcade","theme":"alisveris","lab":1},"geometry":{"type":"Point","coordinates":[151.20763,-33.86942]}}]}