{"type":"FeatureCollection","features":[{"type":"Feature","properties":{"id":"bus-114-1","kind":"busline","ref":"114","dir":1},"geometry":{"type":"LineString","coordinates":[[27.2529,38.4725],[27.2531,38.4723],[27.2528,38.4727],[27.2541,38.4742],[27.2551,38.474],[27.2557,38.4735],[27.2556,38.473],[27.2524,38.4717],[27.2502,38.4715],[27.2501,38.4703],[27.2488,38.469],[27.2481,38.4671],[27.2459,38.4662],[27.2454,38.4663],[27.2454,38.4668],[27.2452,38.4671],[27.245,38.4671],[27.2429,38.4661],[27.2388,38.4657],[27.2365,38.4661],[27.2347,38.4669],[27.2337,38.4671],[27.2304,38.4652],[27.2293,38.466],[27.2287,38.4662],[27.2283,38.4662],[27.2282,38.4657]]}},{"type":"Feature","properties":{"id":"bus-114-2","kind":"busline","ref":"114","dir":2},"geometry":{"type":"LineString","coordinates":[[27.2282,38.4657],[27.2286,38.4655],[27.2288,38.4661],[27.2291,38.4661],[27.2304,38.4652],[27.234,38.4669],[27.2355,38.4663],[27.2378,38.4657],[27.2426,38.4659],[27.243,38.4656],[27.2437,38.4663],[27.245,38.4669],[27.2453,38.4668],[27.2454,38.4663],[27.2459,38.4662],[27.2481,38.4671],[27.2488,38.469],[27.2501,38.4703],[27.2502,38.4715],[27.252,38.4716],[27.2532,38.472],[27.2528,38.4727],[27.2541,38.4742],[27.2551,38.474],[27.2557,38.4735],[27.2556,38.473],[27.2548,38.4726],[27.2532,38.4721],[27.2529,38.4725]]}},{"type":"Feature","properties":{"id":"bus-114-s31502","kind":"busstop","ref":"114","name":"Evka 3","lines":["314"]},"geometry":{"type":"Point","coordinates":[27.2529,38.4725]}},{"type":"Feature","properties":{"id":"bus-114-s31500","kind":"busstop","ref":"114","name":"Sevgi","lines":["314"]},"geometry":{"type":"Point","coordinates":[27.2539,38.4739]}},{"type":"Feature","properties":{"id":"bus-114-s31498","kind":"busstop","ref":"114","name":"Umut","lines":["314"]},"geometry":{"type":"Point","coordinates":[27.2555,38.47366]}},{"type":"Feature","properties":{"id":"bus-114-s31495","kind":"busstop","ref":"114","name":"Birlik","lines":["314"]},"geometry":{"type":"Point","coordinates":[27.2549,38.4727]}},{"type":"Feature","properties":{"id":"bus-114-s31494","kind":"busstop","ref":"114","name":"Doruk","lines":["314"]},"geometry":{"type":"Point","coordinates":[27.2526,38.4718]}},{"type":"Feature","properties":{"id":"bus-114-s31492","kind":"busstop","ref":"114","name":"Yunus Emre Anadolu Lisesi","lines":["314"]},"geometry":{"type":"Point","coordinates":[27.2509,38.4716]}},{"type":"Feature","properties":{"id":"bus-114-s31490","kind":"busstop","ref":"114","name":"Kardelen","lines":["314"]},"geometry":{"type":"Point","coordinates":[27.2488,38.469]}},{"type":"Feature","properties":{"id":"bus-114-s31488","kind":"busstop","ref":"114","name":"Cem Bakioğlu Lisesi","lines":["314"]},"geometry":{"type":"Point","coordinates":[27.248,38.4673]}},{"type":"Feature","properties":{"id":"bus-114-s31478","kind":"busstop","ref":"114","name":"Evka-3 Parkı","lines":["314"]},"geometry":{"type":"Point","coordinates":[27.2443,38.4667]}},{"type":"Feature","properties":{"id":"bus-114-s31481","kind":"busstop","ref":"114","name":"Bornova Tenis Kulübü","lines":["67","111","317","966","988"]},"geometry":{"type":"Point","coordinates":[27.23996,38.4659]}},{"type":"Feature","properties":{"id":"bus-114-s31483","kind":"busstop","ref":"114","name":"Profesörler Sitesi","lines":["67","111","317","966","988"]},"geometry":{"type":"Point","coordinates":[27.2357,38.46639]}},{"type":"Feature","properties":{"id":"bus-114-s31778","kind":"busstop","ref":"114","name":"Evka 3 Aktarma Merkezi","lines":["949"]},"geometry":{"type":"Point","coordinates":[27.22813,38.46574]}},{"type":"Feature","properties":{"id":"bus-114-s31484","kind":"busstop","ref":"114","name":"Profesörler Sitesi","lines":["67","111","317","966","988"]},"geometry":{"type":"Point","coordinates":[27.23544,38.46631]}},{"type":"Feature","properties":{"id":"bus-114-s31482","kind":"busstop","ref":"114","name":"Bornova Tenis Kulübü","lines":["67","111","317","966","988"]},"geometry":{"type":"Point","coordinates":[27.2398,38.4657]}},{"type":"Feature","properties":{"id":"bus-114-s31479","kind":"busstop","ref":"114","name":"Evka-3 Parkı","lines":["314"]},"geometry":{"type":"Point","coordinates":[27.244,38.4664]}},{"type":"Feature","properties":{"id":"bus-114-s31487","kind":"busstop","ref":"114","name":"Cem Bakioğlu Lisesi","lines":["314"]},"geometry":{"type":"Point","coordinates":[27.2481,38.4672]}},{"type":"Feature","properties":{"id":"bus-114-s31489","kind":"busstop","ref":"114","name":"Kardelen","lines":["314"]},"geometry":{"type":"Point","coordinates":[27.2489,38.469]}},{"type":"Feature","properties":{"id":"bus-114-s31491","kind":"busstop","ref":"114","name":"Yunus Emre Anadolu Lisesi","lines":["314"]},"geometry":{"type":"Point","coordinates":[27.251,38.4715]}},{"type":"Feature","properties":{"id":"bus-114-s31493","kind":"busstop","ref":"114","name":"Doruk","lines":["314"]},"geometry":{"type":"Point","coordinates":[27.2528,38.4719]}}]}