{"type":"FeatureCollection","features":[{"type":"Feature","properties":{"id":"bus-119-1","kind":"busline","ref":"119","dir":1},"geometry":{"type":"LineString","coordinates":[[27.1864,38.4195],[27.1866,38.4194],[27.186,38.4196],[27.1861,38.4198],[27.1831,38.4205],[27.1812,38.4212],[27.1795,38.4213],[27.1793,38.4212],[27.1792,38.4207],[27.1787,38.4205],[27.1808,38.4192],[27.1819,38.4188],[27.1828,38.4187],[27.1837,38.418],[27.1886,38.417],[27.191,38.4149],[27.1911,38.4142],[27.1921,38.4139],[27.1938,38.4144],[27.1945,38.4144],[27.1948,38.4142],[27.1957,38.4154],[27.1975,38.4158],[27.198,38.4163],[27.1996,38.417],[27.2008,38.417],[27.2018,38.4167],[27.2027,38.4173],[27.2031,38.4186],[27.2048,38.4204],[27.2051,38.4211],[27.2051,38.4225],[27.2046,38.4252],[27.2046,38.4278],[27.2038,38.429],[27.2038,38.4293],[27.2034,38.4295],[27.2031,38.4303],[27.203,38.4345],[27.2024,38.4364],[27.2018,38.4393],[27.2015,38.4401],[27.2009,38.4407],[27.1994,38.443],[27.197,38.4422],[27.1939,38.4399],[27.1873,38.4394],[27.1849,38.4394],[27.1836,38.4397],[27.1804,38.4399],[27.1802,38.4423],[27.1805,38.4426],[27.1815,38.443],[27.1833,38.4428],[27.1836,38.4426],[27.1862,38.4449],[27.1873,38.4456],[27.1886,38.4442],[27.1925,38.4453],[27.1914,38.4477],[27.1914,38.448],[27.1925,38.4487],[27.1936,38.449],[27.1973,38.449],[27.1989,38.4493],[27.1999,38.4501],[27.2013,38.4521],[27.203,38.4535],[27.2043,38.4543],[27.2069,38.4565],[27.2089,38.4575],[27.2112,38.4582],[27.2146,38.4583],[27.2146,38.4588],[27.2142,38.4588]]}},{"type":"Feature","properties":{"id":"bus-119-2","kind":"busline","ref":"119","dir":2},"geometry":{"type":"LineString","coordinates":[[27.2142,38.4588],[27.2136,38.4587],[27.2136,38.4584],[27.2146,38.4585],[27.2146,38.459],[27.2115,38.4587],[27.2106,38.4588],[27.2102,38.4587],[27.2099,38.4581],[27.2096,38.4579],[27.2079,38.4571],[27.2057,38.4571],[27.2036,38.4562],[27.1826,38.4433],[27.182,38.4433],[27.1808,38.4427],[27.1805,38.4427],[27.1803,38.443],[27.1799,38.4429],[27.1798,38.4425],[27.18,38.4424],[27.1801,38.4419],[27.1801,38.4402],[27.1803,38.4398],[27.1805,38.4372],[27.1826,38.4371],[27.1847,38.4376],[27.1923,38.4376],[27.195,38.4387],[27.1956,38.4392],[27.1969,38.4397],[27.1987,38.4408],[27.2005,38.4414],[27.2015,38.4401],[27.2018,38.4393],[27.2024,38.4364],[27.203,38.4345],[27.2029,38.4314],[27.2032,38.4295],[27.2046,38.4278],[27.2046,38.4252],[27.2051,38.4225],[27.2051,38.4211],[27.2048,38.4204],[27.2042,38.4199],[27.2035,38.4203],[27.203,38.4202],[27.2032,38.419],[27.202,38.4181],[27.2009,38.4182],[27.2007,38.4184],[27.2008,38.417],[27.1996,38.417],[27.198,38.4163],[27.1975,38.4158],[27.1959,38.4155],[27.1948,38.4142],[27.1945,38.4144],[27.1938,38.4144],[27.1921,38.4139],[27.1911,38.4142],[27.191,38.4149],[27.1888,38.4169],[27.1872,38.4174],[27.1859,38.4175],[27.1837,38.418],[27.1828,38.4187],[27.1819,38.4188],[27.1802,38.4195],[27.179,38.4203],[27.179,38.4205],[27.1796,38.4211],[27.1808,38.4212],[27.1861,38.4197],[27.186,38.4196],[27.1866,38.4194],[27.1864,38.4195]]}},{"type":"Feature","properties":{"id":"bus-119-s30412","kind":"busstop","ref":"119","name":"MTK Çarşısı","lines":["53","57","154"]},"geometry":{"type":"Point","coordinates":[27.1864,38.4194]}},{"type":"Feature","properties":{"id":"bus-119-s32241","kind":"busstop","ref":"119","name":"Çınar","lines":[]},"geometry":{"type":"Point","coordinates":[27.1826,38.42072]}},{"type":"Feature","properties":{"id":"bus-119-s32217","kind":"busstop","ref":"119","name":"İzbeton Tesisleri","lines":[]},"geometry":{"type":"Point","coordinates":[27.18007,38.41918]}},{"type":"Feature","properties":{"id":"bus-119-s32218","kind":"busstop","ref":"119","name":"Çocuk Trafik Eğitim Parkı","lines":[]},"geometry":{"type":"Point","coordinates":[27.18317,38.41831]}},{"type":"Feature","properties":{"id":"bus-119-s32221","kind":"busstop","ref":"119","name":"Çocuk Trafik Eğitim Parkı 2","lines":[]},"geometry":{"type":"Point","coordinates":[27.18648,38.41739]}},{"type":"Feature","properties":{"id":"bus-119-s30421","kind":"busstop","ref":"119","name":"Çamkule","lines":["53","57","153"]},"geometry":{"type":"Point","coordinates":[27.1908,38.4149]}},{"type":"Feature","properties":{"id":"bus-119-s30423","kind":"busstop","ref":"119","name":"Zeytintepe","lines":["53","57","505"]},"geometry":{"type":"Point","coordinates":[27.19487,38.41414]}},{"type":"Feature","properties":{"id":"bus-119-s30425","kind":"busstop","ref":"119","name":"Merkez Cami","lines":["53","57","505"]},"geometry":{"type":"Point","coordinates":[27.19681,38.41568]}},{"type":"Feature","properties":{"id":"bus-119-s30427","kind":"busstop","ref":"119","name":"Çiçek","lines":["53","57","505"]},"geometry":{"type":"Point","coordinates":[27.1987,38.4165]}},{"type":"Feature","properties":{"id":"bus-119-s30475","kind":"busstop","ref":"119","name":"Merkez Mahallesi Muhtarlık","lines":["53","57","505"]},"geometry":{"type":"Point","coordinates":[27.2013,38.4167]}},{"type":"Feature","properties":{"id":"bus-119-s30472","kind":"busstop","ref":"119","name":"Altındağ","lines":["53","57","505"]},"geometry":{"type":"Point","coordinates":[27.2025,38.4171]}},{"type":"Feature","properties":{"id":"bus-119-s30474","kind":"busstop","ref":"119","name":"Tek Yön","lines":["53","57","505"]},"geometry":{"type":"Point","coordinates":[27.20419,38.41968]}},{"type":"Feature","properties":{"id":"bus-119-s30464","kind":"busstop","ref":"119","name":"Zafer Parkı","lines":["53","57","505"]},"geometry":{"type":"Point","coordinates":[27.2051,38.4216]}},{"type":"Feature","properties":{"id":"bus-119-s30462","kind":"busstop","ref":"119","name":"Yener Caddesi","lines":["53","57","505"]},"geometry":{"type":"Point","coordinates":[27.2049,38.4236]}},{"type":"Feature","properties":{"id":"bus-119-s30484","kind":"busstop","ref":"119","name":"Mescid-i Aksa Cami","lines":[]},"geometry":{"type":"Point","coordinates":[27.2047,38.4269]}},{"type":"Feature","properties":{"id":"bus-119-s30228","kind":"busstop","ref":"119","name":"Çimentaş Lisesi","lines":["54","55","59","555"]},"geometry":{"type":"Point","coordinates":[27.203,38.4317]}},{"type":"Feature","properties":{"id":"bus-119-s30226","kind":"busstop","ref":"119","name":"Birlik","lines":["54","55","59","555"]},"geometry":{"type":"Point","coordinates":[27.203,38.4332]}},{"type":"Feature","properties":{"id":"bus-119-s30224","kind":"busstop","ref":"119","name":"Sevgi","lines":["54","55","555"]},"geometry":{"type":"Point","coordinates":[27.2027,38.4357]}},{"type":"Feature","properties":{"id":"bus-119-s30222","kind":"busstop","ref":"119","name":"Yeşilova","lines":["54","55","555"]},"geometry":{"type":"Point","coordinates":[27.2019,38.4389]}},{"type":"Feature","properties":{"id":"bus-119-s30220","kind":"busstop","ref":"119","name":"Rafet Paşa","lines":["54","55","59","555"]},"geometry":{"type":"Point","coordinates":[27.2002,38.4419]}},{"type":"Feature","properties":{"id":"bus-119-s30212","kind":"busstop","ref":"119","name":"Sanayi Sitesi","lines":["54","55","555"]},"geometry":{"type":"Point","coordinates":[27.197,38.4422]}},{"type":"Feature","properties":{"id":"bus-119-s30210","kind":"busstop","ref":"119","name":"Birlik Cami","lines":["54","55","555"]},"geometry":{"type":"Point","coordinates":[27.195,38.4407]}},{"type":"Feature","properties":{"id":"bus-119-s30208","kind":"busstop","ref":"119","name":"Şehit Piyade Ferhat Altın","lines":["54","55","555"]},"geometry":{"type":"Point","coordinates":[27.1921,38.4397]}},{"type":"Feature","properties":{"id":"bus-119-s30206","kind":"busstop","ref":"119","name":"Yıldırım Beyazıt Cami","lines":["54","55","555"]},"geometry":{"type":"Point","coordinates":[27.1902,38.4397]}},{"type":"Feature","properties":{"id":"bus-119-s30214","kind":"busstop","ref":"119","name":"Yıldırım","lines":["54","55","555"]},"geometry":{"type":"Point","coordinates":[27.18827,38.43948]}},{"type":"Feature","properties":{"id":"bus-119-s30204","kind":"busstop","ref":"119","name":"Dispanser","lines":["54","55","555"]},"geometry":{"type":"Point","coordinates":[27.18653,38.43944]}},{"type":"Feature","properties":{"id":"bus-119-s30202","kind":"busstop","ref":"119","name":"Havuzlu Kahve","lines":["54","55","555"]},"geometry":{"type":"Point","coordinates":[27.18431,38.43955]}},{"type":"Feature","properties":{"id":"bus-119-s30200","kind":"busstop","ref":"119","name":"Mersinli Cami","lines":["54","55","555"]},"geometry":{"type":"Point","coordinates":[27.18141,38.43987]}},{"type":"Feature","properties":{"id":"bus-119-s30253","kind":"busstop","ref":"119","name":"İstasyon","lines":[]},"geometry":{"type":"Point","coordinates":[27.1809,38.4426]}},{"type":"Feature","properties":{"id":"bus-119-s30229","kind":"busstop","ref":"119","name":"Ağaçlıyol Benzinlik","lines":[]},"geometry":{"type":"Point","coordinates":[27.18429,38.44308]}},{"type":"Feature","properties":{"id":"bus-119-s32185","kind":"busstop","ref":"119","name":"Şehit Uzman Çavuş Ali Akdoğan","lines":[]},"geometry":{"type":"Point","coordinates":[27.18639,38.44498]}},{"type":"Feature","properties":{"id":"bus-119-s30231","kind":"busstop","ref":"119","name":"Tedaş","lines":[]},"geometry":{"type":"Point","coordinates":[27.1885,38.4442]}},{"type":"Feature","properties":{"id":"bus-119-s30233","kind":"busstop","ref":"119","name":"Tuz Fabrikası","lines":[]},"geometry":{"type":"Point","coordinates":[27.1922,38.446]}},{"type":"Feature","properties":{"id":"bus-119-s30235","kind":"busstop","ref":"119","name":"İkinci Sanayi","lines":[]},"geometry":{"type":"Point","coordinates":[27.19203,38.44834]}},{"type":"Feature","properties":{"id":"bus-119-s30237","kind":"busstop","ref":"119","name":"Karayolları","lines":[]},"geometry":{"type":"Point","coordinates":[27.1936,38.449]}},{"type":"Feature","properties":{"id":"bus-119-s30239","kind":"busstop","ref":"119","name":"Devlet Su İşleri","lines":[]},"geometry":{"type":"Point","coordinates":[27.1977,38.44907]}},{"type":"Feature","properties":{"id":"bus-119-s30241","kind":"busstop","ref":"119","name":"DYO Fabrikası","lines":[]},"geometry":{"type":"Point","coordinates":[27.19945,38.44967]}},{"type":"Feature","properties":{"id":"bus-119-s30243","kind":"busstop","ref":"119","name":"Sedir","lines":[]},"geometry":{"type":"Point","coordinates":[27.2013,38.4519]}},{"type":"Feature","properties":{"id":"bus-119-s30245","kind":"busstop","ref":"119","name":"Bölge Metro İstasyonu","lines":[]},"geometry":{"type":"Point","coordinates":[27.2041,38.4541]}},{"type":"Feature","properties":{"id":"bus-119-s30255","kind":"busstop","ref":"119","name":"Ege Üniversitesi Hastanesi","lines":["204","290","390","558","800"]},"geometry":{"type":"Point","coordinates":[27.2098,38.4577]}},{"type":"Feature","properties":{"id":"bus-119-s30008","kind":"busstop","ref":"119","name":"Bornova Metro","lines":["314"]},"geometry":{"type":"Point","coordinates":[27.21445,38.45868]}},{"type":"Feature","properties":{"id":"bus-119-s30272","kind":"busstop","ref":"119","name":"Ege Üniversitesi Hastanesi","lines":["204","390"]},"geometry":{"type":"Point","coordinates":[27.208,38.4572]}},{"type":"Feature","properties":{"id":"bus-119-s30270","kind":"busstop","ref":"119","name":"Bölge Metro İstasyonu","lines":[]},"geometry":{"type":"Point","coordinates":[27.2012,38.4547]}},{"type":"Feature","properties":{"id":"bus-119-s30268","kind":"busstop","ref":"119","name":"Sedir","lines":[]},"geometry":{"type":"Point","coordinates":[27.19977,38.45383]}},{"type":"Feature","properties":{"id":"bus-119-s30266","kind":"busstop","ref":"119","name":"Zeytincilik","lines":[]},"geometry":{"type":"Point","coordinates":[27.1972,38.4522]}},{"type":"Feature","properties":{"id":"bus-119-s30264","kind":"busstop","ref":"119","name":"Tarım İl Müdürlüğü","lines":[]},"geometry":{"type":"Point","coordinates":[27.1954,38.4512]}},{"type":"Feature","properties":{"id":"bus-119-s30262","kind":"busstop","ref":"119","name":"Karayolları","lines":[]},"geometry":{"type":"Point","coordinates":[27.1938,38.4502]}},{"type":"Feature","properties":{"id":"bus-119-s30260","kind":"busstop","ref":"119","name":"Sanayi Metro İstasyonu","lines":[]},"geometry":{"type":"Point","coordinates":[27.1901,38.4479]}},{"type":"Feature","properties":{"id":"bus-119-s30258","kind":"busstop","ref":"119","name":"Tedaş","lines":[]},"geometry":{"type":"Point","coordinates":[27.1883,38.4468]}},{"type":"Feature","properties":{"id":"bus-119-s30256","kind":"busstop","ref":"119","name":"Ağaçlıyol Üstgeçit","lines":[]},"geometry":{"type":"Point","coordinates":[27.1858,38.4453]}},{"type":"Feature","properties":{"id":"bus-119-s30254","kind":"busstop","ref":"119","name":"Ağaçlıyol Benzinlik","lines":[]},"geometry":{"type":"Point","coordinates":[27.1836,38.444]}},{"type":"Feature","properties":{"id":"bus-119-s30136","kind":"busstop","ref":"119","name":"Stadyum İstasyon","lines":["214","249","515","539","543","662","699","930"]},"geometry":{"type":"Point","coordinates":[27.18,38.4415]}},{"type":"Feature","properties":{"id":"bus-119-s30134","kind":"busstop","ref":"119","name":"Mersinli","lines":["54","55","214","249","515","539","543","555","662","699","930"]},"geometry":{"type":"Point","coordinates":[27.1804,38.438]}},{"type":"Feature","properties":{"id":"bus-119-s30179","kind":"busstop","ref":"119","name":"Burak Reis","lines":["54","555"]},"geometry":{"type":"Point","coordinates":[27.1835,38.4373]}},{"type":"Feature","properties":{"id":"bus-119-s30181","kind":"busstop","ref":"119","name":"Havuzlu Kahve","lines":["54","555"]},"geometry":{"type":"Point","coordinates":[27.1864,38.4375]}},{"type":"Feature","properties":{"id":"bus-119-s30183","kind":"busstop","ref":"119","name":"Sıdıka Rodop Lisesi","lines":["54","555"]},"geometry":{"type":"Point","coordinates":[27.1884,38.4374]}},{"type":"Feature","properties":{"id":"bus-119-s30185","kind":"busstop","ref":"119","name":"Pazar Yeri","lines":["54","555"]},"geometry":{"type":"Point","coordinates":[27.1913,38.4375]}},{"type":"Feature","properties":{"id":"bus-119-s30187","kind":"busstop","ref":"119","name":"Dispanser","lines":["54","555"]},"geometry":{"type":"Point","coordinates":[27.1943,38.4384]}},{"type":"Feature","properties":{"id":"bus-119-s30189","kind":"busstop","ref":"119","name":"PTT","lines":["54","555"]},"geometry":{"type":"Point","coordinates":[27.1961,38.4393]}},{"type":"Feature","properties":{"id":"bus-119-s30219","kind":"busstop","ref":"119","name":"Rafet Paşa","lines":["54","555"]},"geometry":{"type":"Point","coordinates":[27.19951,38.44105]}},{"type":"Feature","properties":{"id":"bus-119-s30221","kind":"busstop","ref":"119","name":"Yeşilova","lines":["54","555"]},"geometry":{"type":"Point","coordinates":[27.2018,38.439]}},{"type":"Feature","properties":{"id":"bus-119-s30223","kind":"busstop","ref":"119","name":"Sevgi","lines":["54","555"]},"geometry":{"type":"Point","coordinates":[27.2026,38.4358]}},{"type":"Feature","properties":{"id":"bus-119-s30225","kind":"busstop","ref":"119","name":"Birlik","lines":["54","59","555"]},"geometry":{"type":"Point","coordinates":[27.2028,38.4324]}},{"type":"Feature","properties":{"id":"bus-119-s30227","kind":"busstop","ref":"119","name":"Çimentaş Lisesi","lines":["54","59","555"]},"geometry":{"type":"Point","coordinates":[27.2031,38.43]}},{"type":"Feature","properties":{"id":"bus-119-s30483","kind":"busstop","ref":"119","name":"Mescid-i Aksa Cami","lines":[]},"geometry":{"type":"Point","coordinates":[27.2045,38.4271]}},{"type":"Feature","properties":{"id":"bus-119-s30461","kind":"busstop","ref":"119","name":"Yener Caddesi","lines":["53","57","505"]},"geometry":{"type":"Point","coordinates":[27.2049,38.4234]}},{"type":"Feature","properties":{"id":"bus-119-s30463","kind":"busstop","ref":"119","name":"Zafer Parkı","lines":["53","57","505"]},"geometry":{"type":"Point","coordinates":[27.205,38.4218]}},{"type":"Feature","properties":{"id":"bus-119-s30471","kind":"busstop","ref":"119","name":"Yener","lines":["53","57","505"]},"geometry":{"type":"Point","coordinates":[27.203,38.4202]}},{"type":"Feature","properties":{"id":"bus-119-s30473","kind":"busstop","ref":"119","name":"Kızılcık","lines":["53","57","505"]},"geometry":{"type":"Point","coordinates":[27.2012,38.4182]}},{"type":"Feature","properties":{"id":"bus-119-s30477","kind":"busstop","ref":"119","name":"Altındağ İlkokulu ","lines":["53","57","505"]},"geometry":{"type":"Point","coordinates":[27.20068,38.41719]}},{"type":"Feature","properties":{"id":"bus-119-s30428","kind":"busstop","ref":"119","name":"Çiçek","lines":["53","57","505"]},"geometry":{"type":"Point","coordinates":[27.1988,38.4166]}},{"type":"Feature","properties":{"id":"bus-119-s30426","kind":"busstop","ref":"119","name":"Merkez Cami","lines":["53","57","505"]},"geometry":{"type":"Point","coordinates":[27.197,38.4157]}},{"type":"Feature","properties":{"id":"bus-119-s30424","kind":"busstop","ref":"119","name":"Zeytintepe","lines":["53","57","505"]},"geometry":{"type":"Point","coordinates":[27.1946,38.4143]}},{"type":"Feature","properties":{"id":"bus-119-s30422","kind":"busstop","ref":"119","name":"Çamkule","lines":["53","57","153"]},"geometry":{"type":"Point","coordinates":[27.1909,38.4149]}},{"type":"Feature","properties":{"id":"bus-119-s32220","kind":"busstop","ref":"119","name":"Çocuk Trafik Eğitim Parkı 2","lines":[]},"geometry":{"type":"Point","coordinates":[27.18648,38.41751]}},{"type":"Feature","properties":{"id":"bus-119-s32219","kind":"busstop","ref":"119","name":"Çocuk Trafik Eğitim Parkı","lines":[]},"geometry":{"type":"Point","coordinates":[27.18318,38.41837]}},{"type":"Feature","properties":{"id":"bus-119-s32216","kind":"busstop","ref":"119","name":"İzbeton Tesisleri","lines":[]},"geometry":{"type":"Point","coordinates":[27.18057,38.4194]}},{"type":"Feature","properties":{"id":"bus-119-s32240","kind":"busstop","ref":"119","name":"Çınar","lines":[]},"geometry":{"type":"Point","coordinates":[27.1824,38.4206]}}]}