{"type":"FeatureCollection","features":[{"type":"Feature","properties":{"id":"bus-137-1","kind":"busline","ref":"137","dir":1},"geometry":{"type":"LineString","coordinates":[[27.1468,38.4972],[27.1442,38.4961],[27.1431,38.4955],[27.1426,38.495],[27.1423,38.4944],[27.1417,38.4909],[27.1409,38.4894],[27.1409,38.4886],[27.1407,38.4881],[27.1392,38.4857],[27.1385,38.4857],[27.138,38.4841],[27.1338,38.4815],[27.1333,38.481],[27.1318,38.4816],[27.1296,38.4792],[27.1285,38.4775],[27.1287,38.4761],[27.1285,38.4757],[27.1283,38.474],[27.1259,38.4742],[27.1234,38.4741],[27.1226,38.474],[27.1222,38.4734],[27.1217,38.4732],[27.1202,38.4736],[27.1194,38.4736],[27.1189,38.4714],[27.1182,38.4712],[27.1173,38.4704],[27.1165,38.4681],[27.116,38.4676],[27.114,38.4684],[27.1116,38.4699],[27.111,38.4703],[27.111,38.4708],[27.1115,38.471],[27.1118,38.4709],[27.112,38.4705],[27.1098,38.4678],[27.1085,38.4639],[27.1064,38.4546],[27.1056,38.4534],[27.1039,38.4515],[27.1053,38.4509],[27.1078,38.4503],[27.1115,38.4497],[27.1162,38.4522],[27.1175,38.4536],[27.1198,38.4553],[27.1205,38.4556],[27.1218,38.4558],[27.1215,38.4558]]}},{"type":"Feature","properties":{"id":"bus-137-2","kind":"busline","ref":"137","dir":2},"geometry":{"type":"LineString","coordinates":[[27.1215,38.4558],[27.1235,38.4558],[27.1235,38.456],[27.1209,38.4559],[27.1201,38.4556],[27.1176,38.4539],[27.1155,38.4519],[27.1116,38.4498],[27.1059,38.4508],[27.1043,38.4516],[27.1043,38.4518],[27.1063,38.4541],[27.1067,38.4552],[27.1086,38.4639],[27.1099,38.4677],[27.1105,38.4687],[27.114,38.4721],[27.1152,38.4743],[27.1194,38.4732],[27.1197,38.4736],[27.1222,38.4732],[27.1227,38.474],[27.1234,38.4741],[27.1259,38.4742],[27.1283,38.474],[27.1285,38.4757],[27.1291,38.4763],[27.1301,38.4779],[27.132,38.4799],[27.1328,38.4811],[27.1333,38.481],[27.1338,38.4815],[27.1359,38.4827],[27.137,38.4836],[27.1376,38.4838],[27.1382,38.4845],[27.1385,38.4857],[27.1392,38.4857],[27.1409,38.4886],[27.1409,38.4894],[27.1417,38.4909],[27.1423,38.4944],[27.1426,38.495],[27.1431,38.4955],[27.1442,38.4961],[27.1468,38.4972]]}},{"type":"Feature","properties":{"id":"bus-137-s22550","kind":"busstop","ref":"137","name":"Yamanlar Yeni Son Durak","lines":["78","537"]},"geometry":{"type":"Point","coordinates":[27.1468,38.4972]}},{"type":"Feature","properties":{"id":"bus-137-s22548","kind":"busstop","ref":"137","name":"Ahmet Taner Kışlalı","lines":["78","537"]},"geometry":{"type":"Point","coordinates":[27.14308,38.49557]}},{"type":"Feature","properties":{"id":"bus-137-s22546","kind":"busstop","ref":"137","name":"Anıt Park","lines":["78","537"]},"geometry":{"type":"Point","coordinates":[27.1419,38.4928]}},{"type":"Feature","properties":{"id":"bus-137-s22544","kind":"busstop","ref":"137","name":"Şehit Yüzbaşı Ali Rıza Sadak İlkokulu","lines":["78","537"]},"geometry":{"type":"Point","coordinates":[27.14071,38.48945]}},{"type":"Feature","properties":{"id":"bus-137-s22540","kind":"busstop","ref":"137","name":"Yamanlar Muradiye Cami","lines":["78","537"]},"geometry":{"type":"Point","coordinates":[27.13997,38.48733]}},{"type":"Feature","properties":{"id":"bus-137-s20554","kind":"busstop","ref":"137","name":"Tünel","lines":["78","537"]},"geometry":{"type":"Point","coordinates":[27.1378,38.484]}},{"type":"Feature","properties":{"id":"bus-137-s20552","kind":"busstop","ref":"137","name":"Nergis","lines":["78","537"]},"geometry":{"type":"Point","coordinates":[27.1355,38.4825]}},{"type":"Feature","properties":{"id":"bus-137-s20550","kind":"busstop","ref":"137","name":"Yamanlar Karakol","lines":["78","537"]},"geometry":{"type":"Point","coordinates":[27.1325,38.4814]}},{"type":"Feature","properties":{"id":"bus-137-s20548","kind":"busstop","ref":"137","name":"Yamanlar Semt Kütüphanesi","lines":["78","537"]},"geometry":{"type":"Point","coordinates":[27.1304,38.4802]}},{"type":"Feature","properties":{"id":"bus-137-s20546","kind":"busstop","ref":"137","name":"Yamanlar Çeşme","lines":["78","537"]},"geometry":{"type":"Point","coordinates":[27.1287,38.4779]}},{"type":"Feature","properties":{"id":"bus-137-s20544","kind":"busstop","ref":"137","name":"Yamanlar PTT","lines":["78","537"]},"geometry":{"type":"Point","coordinates":[27.1284,38.47508]}},{"type":"Feature","properties":{"id":"bus-137-s20496","kind":"busstop","ref":"137","name":"Kadızade Zühtü Işıl","lines":["78","135","577","742"]},"geometry":{"type":"Point","coordinates":[27.1274,38.474]}},{"type":"Feature","properties":{"id":"bus-137-s20494","kind":"busstop","ref":"137","name":"Dostluk","lines":["78","135","577","742"]},"geometry":{"type":"Point","coordinates":[27.12428,38.47415]}},{"type":"Feature","properties":{"id":"bus-137-s20492","kind":"busstop","ref":"137","name":"Soğukkuyu Atölye","lines":["78","135","577","742"]},"geometry":{"type":"Point","coordinates":[27.1214,38.4733]}},{"type":"Feature","properties":{"id":"bus-137-s20481","kind":"busstop","ref":"137","name":"Kuyumcu Abdullah Altınçubuk İlkokulu","lines":["77","78","135","197","577","742"]},"geometry":{"type":"Point","coordinates":[27.11902,38.47221]}},{"type":"Feature","properties":{"id":"bus-137-s20428","kind":"busstop","ref":"137","name":"Demirci","lines":["77","78","135","197","577","742"]},"geometry":{"type":"Point","coordinates":[27.11816,38.47121]}},{"type":"Feature","properties":{"id":"bus-137-s20426","kind":"busstop","ref":"137","name":"Soğukkuyu","lines":["77","78","135","197","577","742"]},"geometry":{"type":"Point","coordinates":[27.1167,38.469]}},{"type":"Feature","properties":{"id":"bus-137-s20214","kind":"busstop","ref":"137","name":"Zafer Takı","lines":["126","135","136","197","222","258","326","430","435","487","532","741","742","847","853","920"]},"geometry":{"type":"Point","coordinates":[27.1096,38.4671]}},{"type":"Feature","properties":{"id":"bus-137-s20212","kind":"busstop","ref":"137","name":"Çayırcı","lines":["126","135","136","197","222","258","326","430","435","487","532","741","742","847","853","920"]},"geometry":{"type":"Point","coordinates":[27.1088,38.4649]}},{"type":"Feature","properties":{"id":"bus-137-s20208","kind":"busstop","ref":"137","name":"Girne Bulvarı","lines":["126","135","136","197","222","258","326","361","430","435","487","532","741","742","847","853","920"]},"geometry":{"type":"Point","coordinates":[27.10778,38.46089]}},{"type":"Feature","properties":{"id":"bus-137-s20206","kind":"busstop","ref":"137","name":"Geçit 1","lines":["126","135","136","197","222","258","326","361","430","435","487","532","741","742","847","853","920"]},"geometry":{"type":"Point","coordinates":[27.10724,38.4585]}},{"type":"Feature","properties":{"id":"bus-137-s20204","kind":"busstop","ref":"137","name":"Geçit 2","lines":["126","135","136","197","222","258","326","361","430","435","487","532","741","742","847","853","920"]},"geometry":{"type":"Point","coordinates":[27.107,38.4574]}},{"type":"Feature","properties":{"id":"bus-137-s20202","kind":"busstop","ref":"137","name":"Metin Aşıkoğlu Ortaokulu","lines":["126","135","136","197","222","258","326","361","430","435","487","532","741","742","847","853","920"]},"geometry":{"type":"Point","coordinates":[27.10626,38.45443]}},{"type":"Feature","properties":{"id":"bus-137-s20200","kind":"busstop","ref":"137","name":"Şehit Diplomat Erdoğan Özen","lines":["126","135","136","197","222","258","326","361","430","435","487","532","741","742","847","853","920"]},"geometry":{"type":"Point","coordinates":[27.1047,38.4525]}},{"type":"Feature","properties":{"id":"bus-137-s20154","kind":"busstop","ref":"137","name":"Osman Bey Parkı","lines":["121","126","135","136","197","200","222","258","290","326","330","361","487","543","741","742","777","847","853","920"]},"geometry":{"type":"Point","coordinates":[27.1187,38.4545]}},{"type":"Feature","properties":{"id":"bus-137-s20001","kind":"busstop","ref":"137","name":"Karşıyaka İskele","lines":["135","742"]},"geometry":{"type":"Point","coordinates":[27.12155,38.45559]}},{"type":"Feature","properties":{"id":"bus-137-s20151","kind":"busstop","ref":"137","name":"Karşıyaka İskele","lines":["121","126","135","136","197","200","222","258","290","326","330","361","487","543","741","742","777","847","853","920"]},"geometry":{"type":"Point","coordinates":[27.1223,38.456]}},{"type":"Feature","properties":{"id":"bus-137-s20153","kind":"busstop","ref":"137","name":"Osman Bey Parkı","lines":["121","126","135","136","197","200","222","258","290","326","330","361","487","543","741","742","777","847","853","920"]},"geometry":{"type":"Point","coordinates":[27.1178,38.4541]}},{"type":"Feature","properties":{"id":"bus-137-s20155","kind":"busstop","ref":"137","name":"Tarık Dursun Kakınç","lines":["121","126","135","136","197","200","222","258","290","326","330","361","487","543","741","742","777","847","853","920"]},"geometry":{"type":"Point","coordinates":[27.1155,38.452]}},{"type":"Feature","properties":{"id":"bus-137-s20157","kind":"busstop","ref":"137","name":"Dokuz Eylül Dispanser","lines":["121","126","135","136","197","200","222","258","290","326","330","361","487","543","741","742","777","847","853","920"]},"geometry":{"type":"Point","coordinates":[27.1126,38.4504]}},{"type":"Feature","properties":{"id":"bus-137-s20159","kind":"busstop","ref":"137","name":"Karşıyaka Yelken Kulübü","lines":["121","126","135","136","197","200","222","258","290","326","330","361","487","543","741","742","777","847","853","920"]},"geometry":{"type":"Point","coordinates":[27.1085,38.4503]}},{"type":"Feature","properties":{"id":"bus-137-s20161","kind":"busstop","ref":"137","name":"Yunuslar","lines":["121","126","135","136","197","200","222","258","290","326","330","361","487","543","741","742","777","847","853","920"]},"geometry":{"type":"Point","coordinates":[27.106,38.4509]}},{"type":"Feature","properties":{"id":"bus-137-s20199","kind":"busstop","ref":"137","name":"Şehit Diplomat Erdoğan Özen","lines":["126","135","136","197","222","258","326","361","430","435","487","532","741","742","847","853","920"]},"geometry":{"type":"Point","coordinates":[27.10526,38.45267]}},{"type":"Feature","properties":{"id":"bus-137-s20201","kind":"busstop","ref":"137","name":"Metin Aşıkoğlu Ortaokulu","lines":["126","135","136","197","222","258","326","361","430","435","487","532","741","742","847","853","920"]},"geometry":{"type":"Point","coordinates":[27.10643,38.4544]}},{"type":"Feature","properties":{"id":"bus-137-s20203","kind":"busstop","ref":"137","name":"Geçit 2","lines":["126","135","136","197","222","258","326","361","430","435","487","532","741","742","847","853","920"]},"geometry":{"type":"Point","coordinates":[27.10738,38.45759]}},{"type":"Feature","properties":{"id":"bus-137-s20205","kind":"busstop","ref":"137","name":"Geçit 1","lines":["126","135","136","197","222","258","326","361","430","435","487","532","741","742","847","853","920"]},"geometry":{"type":"Point","coordinates":[27.1076,38.4589]}},{"type":"Feature","properties":{"id":"bus-137-s20207","kind":"busstop","ref":"137","name":"Girne Bulvarı","lines":["126","135","136","197","222","258","326","361","430","435","487","532","741","742","847","853","920"]},"geometry":{"type":"Point","coordinates":[27.1081,38.461]}},{"type":"Feature","properties":{"id":"bus-137-s20209","kind":"busstop","ref":"137","name":"Çayırcı","lines":["126","135","136","197","222","258","326","430","435","487","532","741","742","847","853","920"]},"geometry":{"type":"Point","coordinates":[27.109,38.4647]}},{"type":"Feature","properties":{"id":"bus-137-s20211","kind":"busstop","ref":"137","name":"Zafer Takı","lines":["126","135","136","197","222","258","326","430","435","487","532","741","742","847","853","920"]},"geometry":{"type":"Point","coordinates":[27.10977,38.46706]}},{"type":"Feature","properties":{"id":"bus-137-s20483","kind":"busstop","ref":"137","name":"Girne Konutları","lines":["77","78","135","147","148","197","240","258","426","430","434","435","532","535","537","577","741","742","847"]},"geometry":{"type":"Point","coordinates":[27.1151,38.4737]}},{"type":"Feature","properties":{"id":"bus-137-s22230","kind":"busstop","ref":"137","name":"Gazeteci Çetin Altan Anadolu Ticaret Lisesi","lines":["77","78","135","197","577","742"]},"geometry":{"type":"Point","coordinates":[27.1172,38.4737]}},{"type":"Feature","properties":{"id":"bus-137-s20493","kind":"busstop","ref":"137","name":"Soğukkuyu Atölye","lines":["78","135","577","742"]},"geometry":{"type":"Point","coordinates":[27.1214,38.4732]}},{"type":"Feature","properties":{"id":"bus-137-s20495","kind":"busstop","ref":"137","name":"Dostluk","lines":["78","135","577","742"]},"geometry":{"type":"Point","coordinates":[27.1244,38.4741]}},{"type":"Feature","properties":{"id":"bus-137-s20497","kind":"busstop","ref":"137","name":"Kadızade Zühtü Işıl","lines":["78","135","577","742"]},"geometry":{"type":"Point","coordinates":[27.1277,38.4739]}},{"type":"Feature","properties":{"id":"bus-137-s20543","kind":"busstop","ref":"137","name":"Yamanlar PTT","lines":["78","537"]},"geometry":{"type":"Point","coordinates":[27.12851,38.47494]}},{"type":"Feature","properties":{"id":"bus-137-s20545","kind":"busstop","ref":"137","name":"Yamanlar Çeşme","lines":["78","537"]},"geometry":{"type":"Point","coordinates":[27.12992,38.47768]}},{"type":"Feature","properties":{"id":"bus-137-s20547","kind":"busstop","ref":"137","name":"Cemal Gürsel İlköğretim Okulu","lines":["78","537"]},"geometry":{"type":"Point","coordinates":[27.13115,38.47888]}},{"type":"Feature","properties":{"id":"bus-137-s20549","kind":"busstop","ref":"137","name":"Yamanlar Karakol","lines":["78","537"]},"geometry":{"type":"Point","coordinates":[27.13275,38.48091]}},{"type":"Feature","properties":{"id":"bus-137-s20551","kind":"busstop","ref":"137","name":"Nergis","lines":["78","537"]},"geometry":{"type":"Point","coordinates":[27.1357,38.4826]}},{"type":"Feature","properties":{"id":"bus-137-s20553","kind":"busstop","ref":"137","name":"Tünel","lines":["78","537"]},"geometry":{"type":"Point","coordinates":[27.1378,38.4839]}},{"type":"Feature","properties":{"id":"bus-137-s22541","kind":"busstop","ref":"137","name":"Yamanlar Muradiye Cami","lines":["78","537"]},"geometry":{"type":"Point","coordinates":[27.1399,38.487]}},{"type":"Feature","properties":{"id":"bus-137-s22543","kind":"busstop","ref":"137","name":"Şehit Yüzbaşı Ali Rıza Sadak İlkokulu","lines":["78","537"]},"geometry":{"type":"Point","coordinates":[27.141,38.4894]}},{"type":"Feature","properties":{"id":"bus-137-s22545","kind":"busstop","ref":"137","name":"Anıt Park","lines":["78","537"]},"geometry":{"type":"Point","coordinates":[27.142,38.4928]}},{"type":"Feature","properties":{"id":"bus-137-s22547","kind":"busstop","ref":"137","name":"Ahmet Taner Kışlalı","lines":["78","537"]},"geometry":{"type":"Point","coordinates":[27.14408,38.49595]}}]}