{"type":"FeatureCollection","features":[{"type":"Feature","properties":{"id":"bus-140-1","kind":"busline","ref":"140","dir":1},"geometry":{"type":"LineString","coordinates":[[27.1053,38.4816],[27.1052,38.4815],[27.106,38.4829],[27.1061,38.4846],[27.1084,38.4845],[27.1117,38.4827],[27.1111,38.4819],[27.1103,38.4798],[27.1101,38.4772],[27.1095,38.4752],[27.1095,38.4743],[27.1101,38.4743],[27.1114,38.4739],[27.112,38.4753],[27.115,38.4744],[27.1144,38.473],[27.1134,38.4717],[27.1111,38.4695],[27.1106,38.4694],[27.1102,38.4697],[27.1103,38.4701],[27.111,38.4702],[27.1144,38.468],[27.1158,38.4675],[27.1181,38.4674],[27.1228,38.4685],[27.1254,38.4684],[27.1273,38.4677],[27.1294,38.4663],[27.1306,38.4658],[27.1332,38.4654],[27.1396,38.4649],[27.1415,38.4649],[27.1429,38.4652],[27.1528,38.4683],[27.1548,38.4686],[27.1568,38.4684],[27.1588,38.4675],[27.1587,38.4672],[27.1583,38.4672],[27.1564,38.4681],[27.1567,38.4683],[27.1572,38.4683],[27.1594,38.4678],[27.161,38.467],[27.1625,38.4658],[27.1645,38.4636],[27.1675,38.4587],[27.1705,38.4525],[27.1719,38.4505],[27.1724,38.4491],[27.1732,38.4444],[27.1724,38.4396],[27.1686,38.4376],[27.168,38.4365],[27.1677,38.4351],[27.1675,38.4349],[27.1668,38.435],[27.1666,38.4347],[27.1674,38.4347],[27.168,38.4352],[27.1681,38.4357],[27.168,38.4354]]}},{"type":"Feature","properties":{"id":"bus-140-2","kind":"busline","ref":"140","dir":2},"geometry":{"type":"LineString","coordinates":[[27.168,38.4354],[27.168,38.4352],[27.1681,38.4357],[27.1678,38.4357],[27.1678,38.4359],[27.1686,38.4376],[27.1724,38.4396],[27.1732,38.4443],[27.1724,38.4491],[27.1719,38.4505],[27.1705,38.4525],[27.1675,38.4587],[27.1645,38.4636],[27.1625,38.4658],[27.161,38.467],[27.1605,38.4672],[27.1601,38.467],[27.1588,38.4678],[27.1569,38.4685],[27.1544,38.4687],[27.1518,38.4682],[27.1426,38.4652],[27.1415,38.465],[27.139,38.465],[27.1318,38.4657],[27.1297,38.4664],[27.1273,38.4678],[27.1258,38.4684],[27.1246,38.4686],[27.1218,38.4685],[27.1181,38.4675],[27.116,38.4676],[27.114,38.4684],[27.1088,38.4717],[27.1094,38.4735],[27.1095,38.4752],[27.1101,38.4772],[27.1103,38.4798],[27.1111,38.4819],[27.1118,38.4828],[27.1081,38.4847],[27.1062,38.4847],[27.106,38.4829],[27.1052,38.4815],[27.1053,38.4816]]}},{"type":"Feature","properties":{"id":"bus-140-s20657","kind":"busstop","ref":"140","name":"Örnekköy","lines":["136","240"]},"geometry":{"type":"Point","coordinates":[27.1055,38.4815]}},{"type":"Feature","properties":{"id":"bus-140-s20666","kind":"busstop","ref":"140","name":"Çilek","lines":[]},"geometry":{"type":"Point","coordinates":[27.10747,38.48447]}},{"type":"Feature","properties":{"id":"bus-140-s20664","kind":"busstop","ref":"140","name":"Örnekköy Saha","lines":[]},"geometry":{"type":"Point","coordinates":[27.1102,38.4834]}},{"type":"Feature","properties":{"id":"bus-140-s20632","kind":"busstop","ref":"140","name":"Örnekköy Polis Merkezi","lines":["136"]},"geometry":{"type":"Point","coordinates":[27.1114,38.4825]}},{"type":"Feature","properties":{"id":"bus-140-s20630","kind":"busstop","ref":"140","name":"Örnekköy  Muhtarlık","lines":["136"]},"geometry":{"type":"Point","coordinates":[27.1106,38.4806]}},{"type":"Feature","properties":{"id":"bus-140-s20628","kind":"busstop","ref":"140","name":"Örnekköy İlköğretim Okulu","lines":["136"]},"geometry":{"type":"Point","coordinates":[27.1102,38.478]}},{"type":"Feature","properties":{"id":"bus-140-s20626","kind":"busstop","ref":"140","name":"Havva Özişbakan Lisesi","lines":["136"]},"geometry":{"type":"Point","coordinates":[27.10979,38.47622]}},{"type":"Feature","properties":{"id":"bus-140-s20624","kind":"busstop","ref":"140","name":"İmbatlı Muhtarlık Durağı","lines":["136"]},"geometry":{"type":"Point","coordinates":[27.11149,38.47537]}},{"type":"Feature","properties":{"id":"bus-140-s20656","kind":"busstop","ref":"140","name":"Çam","lines":["136"]},"geometry":{"type":"Point","coordinates":[27.11324,38.47485]}},{"type":"Feature","properties":{"id":"bus-140-s20482","kind":"busstop","ref":"140","name":"Girne Konutları","lines":["136","147","148","240","258","426","430","434","435","532","535","741","847"]},"geometry":{"type":"Point","coordinates":[27.1148,38.4737]}},{"type":"Feature","properties":{"id":"bus-140-s20066","kind":"busstop","ref":"140","name":"Soğukkuyu Trafik","lines":["77","78","125","147","148","240","426","434","577","602","608","660","800","912"]},"geometry":{"type":"Point","coordinates":[27.1179,38.4674]}},{"type":"Feature","properties":{"id":"bus-140-s20064","kind":"busstop","ref":"140","name":"Öztürk","lines":["77","78","125","147","148","240","426","434","577","602","608","660","800","912"]},"geometry":{"type":"Point","coordinates":[27.12228,38.46832]}},{"type":"Feature","properties":{"id":"bus-140-s20062","kind":"busstop","ref":"140","name":"Naldöken","lines":["77","78","125","147","148","240","335","426","434","477","577","602","608","660","800","912"]},"geometry":{"type":"Point","coordinates":[27.1297,38.4661]}},{"type":"Feature","properties":{"id":"bus-140-s20060","kind":"busstop","ref":"140","name":"Turan","lines":["77","78","121","125","147","148","200","213","240","290","330","335","426","434","477","543","577","602","608","660","800","912","920"]},"geometry":{"type":"Point","coordinates":[27.1503,38.4675]}},{"type":"Feature","properties":{"id":"bus-140-s20058","kind":"busstop","ref":"140","name":"Bayraklı Çamlık","lines":["77","78","125","147","148","240","335","426","434","477","577"]},"geometry":{"type":"Point","coordinates":[27.1597,38.4676]}},{"type":"Feature","properties":{"id":"bus-140-s20056","kind":"busstop","ref":"140","name":"Bayraklı Park","lines":["77","78","125","147","148","240","335","426","434","477","577"]},"geometry":{"type":"Point","coordinates":[27.1635,38.4646]}},{"type":"Feature","properties":{"id":"bus-140-s20054","kind":"busstop","ref":"140","name":"Bayraklı İstasyon","lines":["77","78","125","147","148","240","335","426","434","477","577"]},"geometry":{"type":"Point","coordinates":[27.1647,38.463]}},{"type":"Feature","properties":{"id":"bus-140-s20052","kind":"busstop","ref":"140","name":"Çevre ve Şehircilik İl Müdürlüğü","lines":["77","78","125","147","148","240","335","426","434","477","577"]},"geometry":{"type":"Point","coordinates":[27.16715,38.45887]}},{"type":"Feature","properties":{"id":"bus-140-s20050","kind":"busstop","ref":"140","name":"Körfez","lines":["77","78","125","147","148","240","335","426","434","477","577"]},"geometry":{"type":"Point","coordinates":[27.16848,38.45642]}},{"type":"Feature","properties":{"id":"bus-140-s20048","kind":"busstop","ref":"140","name":"Makine Mühendisleri Odası","lines":["77","78","125","147","148","240","335","426","434","477","577"]},"geometry":{"type":"Point","coordinates":[27.1705,38.4525]}},{"type":"Feature","properties":{"id":"bus-140-s20046","kind":"busstop","ref":"140","name":"Salhane İş Merkezi","lines":["77","78","125","147","148","240","335","426","434","477","577"]},"geometry":{"type":"Point","coordinates":[27.1716,38.4508]}},{"type":"Feature","properties":{"id":"bus-140-s20044","kind":"busstop","ref":"140","name":"Zafer Payzın Kavşağı","lines":["77","78","125","147","148","240","335","426","434","477","577"]},"geometry":{"type":"Point","coordinates":[27.1729,38.4455]}},{"type":"Feature","properties":{"id":"bus-140-s20042","kind":"busstop","ref":"140","name":"Egem","lines":["77","78","125","147","148","240","335","426","434","477","577"]},"geometry":{"type":"Point","coordinates":[27.173,38.4436]}},{"type":"Feature","properties":{"id":"bus-140-s20040","kind":"busstop","ref":"140","name":"Çınarlı Hastanesi","lines":["77","78","125","147","148","240","335","426","434","477","577"]},"geometry":{"type":"Point","coordinates":[27.17267,38.44192]}},{"type":"Feature","properties":{"id":"bus-140-s11890","kind":"busstop","ref":"140","name":"Altınyağ","lines":["77","78","125","147","148","240","335","426","434","477","577"]},"geometry":{"type":"Point","coordinates":[27.1711,38.439]}},{"type":"Feature","properties":{"id":"bus-140-s15605","kind":"busstop","ref":"140","name":"Halkapınar 2","lines":[]},"geometry":{"type":"Point","coordinates":[27.16812,38.43539]}},{"type":"Feature","properties":{"id":"bus-140-s11889","kind":"busstop","ref":"140","name":"Altınyağ","lines":["77","78","125","147","148","240","335","426","434","477","577"]},"geometry":{"type":"Point","coordinates":[27.1709,38.4388]}},{"type":"Feature","properties":{"id":"bus-140-s20041","kind":"busstop","ref":"140","name":"Çınarlı Hastanesi","lines":["77","78","125","147","148","240","335","426","434","477","577"]},"geometry":{"type":"Point","coordinates":[27.1728,38.4418]}},{"type":"Feature","properties":{"id":"bus-140-s20045","kind":"busstop","ref":"140","name":"Salhane İş Merkezi","lines":["77","78","125","147","148","240","335","426","434","477","577"]},"geometry":{"type":"Point","coordinates":[27.1723,38.44991]}},{"type":"Feature","properties":{"id":"bus-140-s20047","kind":"busstop","ref":"140","name":"Makine Mühendisleri Odası","lines":["77","78","125","147","148","240","335","426","434","477","577"]},"geometry":{"type":"Point","coordinates":[27.17,38.4537]}},{"type":"Feature","properties":{"id":"bus-140-s20051","kind":"busstop","ref":"140","name":"Çevre ve Şehircilik İl Müdürlüğü","lines":["77","78","125","147","148","240","335","426","434","477","577"]},"geometry":{"type":"Point","coordinates":[27.1671,38.4593]}},{"type":"Feature","properties":{"id":"bus-140-s20053","kind":"busstop","ref":"140","name":"Bayraklı İstasyon","lines":["77","78","125","147","148","240","335","426","434","477","577"]},"geometry":{"type":"Point","coordinates":[27.16471,38.46323]}},{"type":"Feature","properties":{"id":"bus-140-s20055","kind":"busstop","ref":"140","name":"Bayraklı Çamlık","lines":["77","78","102","125","147","148","240","335","426","434","477","501","502","504","577","662"]},"geometry":{"type":"Point","coordinates":[27.1611,38.4671]}},{"type":"Feature","properties":{"id":"bus-140-s20057","kind":"busstop","ref":"140","name":"Turan","lines":["77","78","121","125","147","148","200","240","290","330","335","426","434","477","543","577","602","608","660","800","912","920"]},"geometry":{"type":"Point","coordinates":[27.14939,38.46755]}},{"type":"Feature","properties":{"id":"bus-140-s20059","kind":"busstop","ref":"140","name":"Naldöken","lines":["77","78","125","147","148","240","426","434","577","602","608","660","800","912"]},"geometry":{"type":"Point","coordinates":[27.1293,38.4667]}},{"type":"Feature","properties":{"id":"bus-140-s20061","kind":"busstop","ref":"140","name":"Öztürk","lines":["77","78","125","147","148","240","426","434","577","602","608","660","800","912"]},"geometry":{"type":"Point","coordinates":[27.12101,38.46832]}},{"type":"Feature","properties":{"id":"bus-140-s20063","kind":"busstop","ref":"140","name":"Soğukkuyu Trafik","lines":["77","78","125","147","148","240","426","434","577","602","608","660","800","912"]},"geometry":{"type":"Point","coordinates":[27.1174,38.4675]}},{"type":"Feature","properties":{"id":"bus-140-s20627","kind":"busstop","ref":"140","name":"İmbatlı Merkez Cami","lines":["136"]},"geometry":{"type":"Point","coordinates":[27.10939,38.47351]}},{"type":"Feature","properties":{"id":"bus-140-s20629","kind":"busstop","ref":"140","name":"Havva Özişbakan Lisesi","lines":["136"]},"geometry":{"type":"Point","coordinates":[27.10996,38.4762]}},{"type":"Feature","properties":{"id":"bus-140-s20631","kind":"busstop","ref":"140","name":"Örnekköy İlköğretim Okulu","lines":["136"]},"geometry":{"type":"Point","coordinates":[27.1102,38.4778]}},{"type":"Feature","properties":{"id":"bus-140-s20633","kind":"busstop","ref":"140","name":"Örnekköy Pazaryeri","lines":["136"]},"geometry":{"type":"Point","coordinates":[27.1106,38.4805]}},{"type":"Feature","properties":{"id":"bus-140-s20635","kind":"busstop","ref":"140","name":"Örnekköy Polis Merkezi","lines":["136"]},"geometry":{"type":"Point","coordinates":[27.1114,38.4823]}},{"type":"Feature","properties":{"id":"bus-140-s20665","kind":"busstop","ref":"140","name":"Örnekköy Saha","lines":[]},"geometry":{"type":"Point","coordinates":[27.1103,38.4836]}},{"type":"Feature","properties":{"id":"bus-140-s20667","kind":"busstop","ref":"140","name":"Çilek","lines":[]},"geometry":{"type":"Point","coordinates":[27.1066,38.4847]}}]}