{"type":"FeatureCollection","features":[{"type":"Feature","properties":{"id":"bus-15-1","kind":"busline","ref":"15","dir":1},"geometry":{"type":"LineString","coordinates":[[27.1008,38.4043],[27.101,38.4045],[27.1008,38.4043],[27.1013,38.4037],[27.1023,38.4039],[27.1032,38.4044],[27.104,38.4042],[27.1047,38.4031],[27.1057,38.4024],[27.1059,38.4015],[27.1094,38.4016],[27.1135,38.4023],[27.1162,38.403],[27.1181,38.4039],[27.1208,38.4056],[27.1226,38.4061],[27.1235,38.4069],[27.1265,38.4084],[27.1273,38.4091],[27.1287,38.4107],[27.1286,38.411],[27.1279,38.4115],[27.1275,38.4123],[27.1277,38.4125],[27.1281,38.4121],[27.1284,38.4121],[27.1284,38.4123],[27.1269,38.4134],[27.1262,38.4136],[27.1282,38.4133],[27.1289,38.4137],[27.129,38.4144],[27.1286,38.4151],[27.1276,38.4161],[27.1263,38.4169],[27.1259,38.4168],[27.126,38.4164],[27.1276,38.4157],[27.1276,38.4152]]}},{"type":"Feature","properties":{"id":"bus-15-2","kind":"busline","ref":"15","dir":2},"geometry":{"type":"LineString","coordinates":[[27.1276,38.4152],[27.1277,38.4149],[27.1282,38.4148],[27.1276,38.4143],[27.1265,38.4145],[27.126,38.4145],[27.1257,38.4143],[27.1279,38.4137],[27.1279,38.4134],[27.1265,38.4138],[27.1262,38.4136],[27.1269,38.4134],[27.1284,38.4123],[27.1284,38.4121],[27.1281,38.4121],[27.1278,38.4125],[27.1275,38.4123],[27.1279,38.4115],[27.1285,38.4109],[27.1278,38.4103],[27.127,38.4089],[27.1243,38.4073],[27.1212,38.406],[27.1182,38.4041],[27.116,38.403],[27.113,38.4022],[27.1094,38.4016],[27.1059,38.4015],[27.1057,38.4024],[27.1047,38.4031],[27.104,38.4042],[27.1032,38.4044],[27.1024,38.404],[27.1014,38.4042],[27.101,38.4045],[27.1008,38.4043]]}},{"type":"Feature","properties":{"id":"bus-15-s12193","kind":"busstop","ref":"15","name":"İnönü","lines":[]},"geometry":{"type":"Point","coordinates":[27.10078,38.40436]}},{"type":"Feature","properties":{"id":"bus-15-s12192","kind":"busstop","ref":"15","name":"Gönül","lines":[]},"geometry":{"type":"Point","coordinates":[27.1039,38.4042]}},{"type":"Feature","properties":{"id":"bus-15-s12190","kind":"busstop","ref":"15","name":"Türkoğlu","lines":[]},"geometry":{"type":"Point","coordinates":[27.1052,38.4026]}},{"type":"Feature","properties":{"id":"bus-15-s10282","kind":"busstop","ref":"15","name":"Çeşme","lines":["681","950"]},"geometry":{"type":"Point","coordinates":[27.1095,38.4015]}},{"type":"Feature","properties":{"id":"bus-15-s10262","kind":"busstop","ref":"15","name":"Şoförler Lokali","lines":["681","950"]},"geometry":{"type":"Point","coordinates":[27.1144,38.4024]}},{"type":"Feature","properties":{"id":"bus-15-s10254","kind":"busstop","ref":"15","name":"İzmir Spor","lines":["20","681"]},"geometry":{"type":"Point","coordinates":[27.11911,38.40452]}},{"type":"Feature","properties":{"id":"bus-15-s10248","kind":"busstop","ref":"15","name":"Altıntaş","lines":["18","19","20","152","508","550","587","588","681","887","910","950"]},"geometry":{"type":"Point","coordinates":[27.124,38.407]}},{"type":"Feature","properties":{"id":"bus-15-s10246","kind":"busstop","ref":"15","name":"Bayramyeri","lines":["18","19","20","152","508","550","587","588","681","887","910","950"]},"geometry":{"type":"Point","coordinates":[27.1267,38.4085]}},{"type":"Feature","properties":{"id":"bus-15-s10240","kind":"busstop","ref":"15","name":"Kız Yurdu","lines":["18","19","20","23","29","30","32","33","72","104","105","152","157","171","193","224","233","285","374","465","471","484","485","508","550","587","588","887"]},"geometry":{"type":"Point","coordinates":[27.12721,38.41322]}},{"type":"Feature","properties":{"id":"bus-15-s10008","kind":"busstop","ref":"15","name":"Bahribaba","lines":[]},"geometry":{"type":"Point","coordinates":[27.12757,38.41519]}},{"type":"Feature","properties":{"id":"bus-15-s10241","kind":"busstop","ref":"15","name":"Kız Yurdu","lines":["29","30","32","33","152","157","193","224","233","508","550","587","588","887"]},"geometry":{"type":"Point","coordinates":[27.12728,38.41293]}},{"type":"Feature","properties":{"id":"bus-15-s10247","kind":"busstop","ref":"15","name":"Bayramyeri","lines":["18","19","20","152","157","508","550","587","588","681","811","887","910","950"]},"geometry":{"type":"Point","coordinates":[27.1267,38.4088]}},{"type":"Feature","properties":{"id":"bus-15-s10251","kind":"busstop","ref":"15","name":"Altıntaş","lines":["18","19","20","152","157","508","550","587","588","681","811","887","910","950"]},"geometry":{"type":"Point","coordinates":[27.1241,38.4073]}},{"type":"Feature","properties":{"id":"bus-15-s10257","kind":"busstop","ref":"15","name":"İzmir Spor","lines":["20","520","575","681","811","950"]},"geometry":{"type":"Point","coordinates":[27.1194,38.4049]}},{"type":"Feature","properties":{"id":"bus-15-s10259","kind":"busstop","ref":"15","name":"Şoförler Lokali","lines":["681","811","950"]},"geometry":{"type":"Point","coordinates":[27.11432,38.40254]}},{"type":"Feature","properties":{"id":"bus-15-s10285","kind":"busstop","ref":"15","name":"Hatay Çeşme","lines":["681","811","950"]},"geometry":{"type":"Point","coordinates":[27.1094,38.4017]}},{"type":"Feature","properties":{"id":"bus-15-s12189","kind":"busstop","ref":"15","name":"Türkoğlu","lines":[]},"geometry":{"type":"Point","coordinates":[27.1053,38.4026]}},{"type":"Feature","properties":{"id":"bus-15-s12191","kind":"busstop","ref":"15","name":"Gönül","lines":[]},"geometry":{"type":"Point","coordinates":[27.1036,38.4043]}}]}