{"type":"FeatureCollection","features":[{"type":"Feature","properties":{"id":"bus-153-1","kind":"busline","ref":"153","dir":1},"geometry":{"type":"LineString","coordinates":[[27.1897,38.4117],[27.1888,38.4118],[27.1886,38.412],[27.1885,38.413],[27.1879,38.4132],[27.1877,38.4135],[27.1877,38.4143],[27.1879,38.4145],[27.1906,38.4144],[27.191,38.4146],[27.1906,38.4153],[27.1891,38.4168],[27.189,38.418],[27.187,38.4213],[27.187,38.4219],[27.1868,38.422],[27.1865,38.4218],[27.1852,38.4217],[27.1825,38.4219],[27.1792,38.4237],[27.1792,38.424],[27.1796,38.4242],[27.1819,38.4242],[27.1824,38.4243],[27.1825,38.4245],[27.1811,38.4254],[27.1806,38.426],[27.18,38.4262],[27.1752,38.426],[27.1739,38.4256],[27.1708,38.4252],[27.1633,38.4233],[27.1621,38.4232],[27.1596,38.4234],[27.1562,38.4228],[27.1562,38.4224],[27.1568,38.4212],[27.1568,38.4216]]}},{"type":"Feature","properties":{"id":"bus-153-2","kind":"busline","ref":"153","dir":2},"geometry":{"type":"LineString","coordinates":[[27.1568,38.4216],[27.1563,38.4227],[27.1576,38.423],[27.1588,38.4229],[27.1596,38.4233],[27.1631,38.4232],[27.1688,38.4246],[27.1694,38.4246],[27.1713,38.4252],[27.1738,38.4255],[27.175,38.4259],[27.18,38.426],[27.1819,38.4248],[27.182,38.4244],[27.1802,38.4244],[27.1789,38.4238],[27.1824,38.4219],[27.185,38.4216],[27.1867,38.4217],[27.1879,38.4198],[27.1878,38.4193],[27.1884,38.4189],[27.189,38.4179],[27.189,38.4168],[27.1909,38.4147],[27.1907,38.4145],[27.188,38.4146],[27.1876,38.4141],[27.1877,38.4132],[27.1884,38.413],[27.1885,38.4119],[27.1889,38.4117],[27.1897,38.4117]]}},{"type":"Feature","properties":{"id":"bus-153-s30440","kind":"busstop","ref":"153","name":"Çamkule Son Durak","lines":[]},"geometry":{"type":"Point","coordinates":[27.1898,38.4118]}},{"type":"Feature","properties":{"id":"bus-153-s30438","kind":"busstop","ref":"153","name":"Çamkule Eski Son Durak","lines":[]},"geometry":{"type":"Point","coordinates":[27.1882,38.4145]}},{"type":"Feature","properties":{"id":"bus-153-s30436","kind":"busstop","ref":"153","name":"İğdeli","lines":["505"]},"geometry":{"type":"Point","coordinates":[27.1896,38.4145]}},{"type":"Feature","properties":{"id":"bus-153-s30422","kind":"busstop","ref":"153","name":"Çamkule","lines":["53","57","119"]},"geometry":{"type":"Point","coordinates":[27.1909,38.4149]}},{"type":"Feature","properties":{"id":"bus-153-s30420","kind":"busstop","ref":"153","name":"Levent Kara Sağlık Ocağı","lines":["53","57"]},"geometry":{"type":"Point","coordinates":[27.1895,38.4164]}},{"type":"Feature","properties":{"id":"bus-153-s30416","kind":"busstop","ref":"153","name":"Çamkule Pazar Yeri","lines":["53","57"]},"geometry":{"type":"Point","coordinates":[27.18899,38.41817]}},{"type":"Feature","properties":{"id":"bus-153-s30410","kind":"busstop","ref":"153","name":"Tekstilciler Çarşısı","lines":["154"]},"geometry":{"type":"Point","coordinates":[27.1881,38.4196]}},{"type":"Feature","properties":{"id":"bus-153-s30414","kind":"busstop","ref":"153","name":"MTK Çiçek","lines":["154"]},"geometry":{"type":"Point","coordinates":[27.1859,38.4218]}},{"type":"Feature","properties":{"id":"bus-153-s30408","kind":"busstop","ref":"153","name":"Tekstilciler Cami","lines":["154"]},"geometry":{"type":"Point","coordinates":[27.184,38.4218]}},{"type":"Feature","properties":{"id":"bus-153-s30406","kind":"busstop","ref":"153","name":"MTK Trafo","lines":["154"]},"geometry":{"type":"Point","coordinates":[27.18142,38.42261]}},{"type":"Feature","properties":{"id":"bus-153-s32280","kind":"busstop","ref":"153","name":"Dr. Behçet Uz Rekreasyon Alanı","lines":["154"]},"geometry":{"type":"Point","coordinates":[27.17958,38.42366]}},{"type":"Feature","properties":{"id":"bus-153-s30404","kind":"busstop","ref":"153","name":"Katip","lines":["154"]},"geometry":{"type":"Point","coordinates":[27.1814,38.4242]}},{"type":"Feature","properties":{"id":"bus-153-s30402","kind":"busstop","ref":"153","name":"MTK Giriş","lines":["154"]},"geometry":{"type":"Point","coordinates":[27.18132,38.42538]}},{"type":"Feature","properties":{"id":"bus-153-s32243","kind":"busstop","ref":"153","name":"Ağır Bakım","lines":["54","57","58","59","60","64","117","154","214","249","302","367","662","699"]},"geometry":{"type":"Point","coordinates":[27.17642,38.42606]}},{"type":"Feature","properties":{"id":"bus-153-s10370","kind":"busstop","ref":"153","name":"Halkapınar İZSU","lines":["54","57","58","59","60","64","117","154","214","249","302","367","662","699"]},"geometry":{"type":"Point","coordinates":[27.1734,38.4256]}},{"type":"Feature","properties":{"id":"bus-153-s10368","kind":"busstop","ref":"153","name":"Yenişehir PTT","lines":["44","45","54","57","58","59","60","64","117","214","249","302","367","418","662","699"]},"geometry":{"type":"Point","coordinates":[27.16915,38.4248]}},{"type":"Feature","properties":{"id":"bus-153-s10366","kind":"busstop","ref":"153","name":"Tepecik Doğum Hastanesi","lines":["44","45","54","57","58","59","60","64","117","214","249","302","367","418","662","699"]},"geometry":{"type":"Point","coordinates":[27.1662,38.424]}},{"type":"Feature","properties":{"id":"bus-153-s10364","kind":"busstop","ref":"153","name":"Ziya Gökalp Ortaokulu","lines":["44","45","54","57","58","59","60","64","117","214","249","302","367","418","662","699"]},"geometry":{"type":"Point","coordinates":[27.1627,38.4233]}},{"type":"Feature","properties":{"id":"bus-153-s10362","kind":"busstop","ref":"153","name":"Eşref Paşa Hastanesi","lines":["44","45","54","57","58","59","60","64","117","214","249","302","367","418","662","699"]},"geometry":{"type":"Point","coordinates":[27.16,38.4234]}},{"type":"Feature","properties":{"id":"bus-153-s13341","kind":"busstop","ref":"153","name":"Kemer Aktarma Merkezi","lines":[]},"geometry":{"type":"Point","coordinates":[27.15685,38.42157]}},{"type":"Feature","properties":{"id":"bus-153-s10363","kind":"busstop","ref":"153","name":"Eşref Paşa Hastanesi","lines":["44","45","49","54","57","58","59","60","64","117","214","249","302","367","418","662","699"]},"geometry":{"type":"Point","coordinates":[27.16153,38.42325]}},{"type":"Feature","properties":{"id":"bus-153-s10365","kind":"busstop","ref":"153","name":"Ziya Gökalp Ortaokulu","lines":["44","45","49","54","57","58","59","60","64","117","214","249","302","367","418","662","699"]},"geometry":{"type":"Point","coordinates":[27.16312,38.42325]}},{"type":"Feature","properties":{"id":"bus-153-s10367","kind":"busstop","ref":"153","name":"Tepecik Doğum Hastanesi","lines":["44","45","54","57","58","59","60","64","117","214","249","302","367","418","662","699"]},"geometry":{"type":"Point","coordinates":[27.1663,38.4239]}},{"type":"Feature","properties":{"id":"bus-153-s10369","kind":"busstop","ref":"153","name":"Yenişehir PTT","lines":["44","45","54","57","58","59","60","64","117","214","249","302","367","418","662","699"]},"geometry":{"type":"Point","coordinates":[27.17008,38.42475]}},{"type":"Feature","properties":{"id":"bus-153-s10371","kind":"busstop","ref":"153","name":"Halkapınar İZSU","lines":["54","57","58","59","60","64","117","154","214","249","302","367","662","699"]},"geometry":{"type":"Point","coordinates":[27.1742,38.4256]}},{"type":"Feature","properties":{"id":"bus-153-s32244","kind":"busstop","ref":"153","name":"Ağır Bakım","lines":["54","57","58","59","60","64","117","154","214","249","302","367","662","699"]},"geometry":{"type":"Point","coordinates":[27.17645,38.42588]}},{"type":"Feature","properties":{"id":"bus-153-s30403","kind":"busstop","ref":"153","name":"MTK Giriş","lines":["154"]},"geometry":{"type":"Point","coordinates":[27.1805,38.4256]}},{"type":"Feature","properties":{"id":"bus-153-s30405","kind":"busstop","ref":"153","name":"Katip","lines":["154"]},"geometry":{"type":"Point","coordinates":[27.1815,38.4243]}},{"type":"Feature","properties":{"id":"bus-153-s32279","kind":"busstop","ref":"153","name":"Dr. Behçet Uz Rekreasyon Alanı","lines":["154"]},"geometry":{"type":"Point","coordinates":[27.17941,38.42348]}},{"type":"Feature","properties":{"id":"bus-153-s30407","kind":"busstop","ref":"153","name":"MTK Trafo","lines":["154"]},"geometry":{"type":"Point","coordinates":[27.18135,38.42242]}},{"type":"Feature","properties":{"id":"bus-153-s30409","kind":"busstop","ref":"153","name":"Tekstilciler Cami","lines":["154"]},"geometry":{"type":"Point","coordinates":[27.1836,38.4218]}},{"type":"Feature","properties":{"id":"bus-153-s30413","kind":"busstop","ref":"153","name":"MTK Çiçek","lines":["154"]},"geometry":{"type":"Point","coordinates":[27.186,38.4217]}},{"type":"Feature","properties":{"id":"bus-153-s30411","kind":"busstop","ref":"153","name":"Tekstilciler Çarşısı","lines":["154"]},"geometry":{"type":"Point","coordinates":[27.1878,38.4197]}},{"type":"Feature","properties":{"id":"bus-153-s30419","kind":"busstop","ref":"153","name":"Levent Kara Sağlık Ocağı","lines":["53","57"]},"geometry":{"type":"Point","coordinates":[27.18893,38.41733]}},{"type":"Feature","properties":{"id":"bus-153-s30421","kind":"busstop","ref":"153","name":"Çamkule","lines":["53","57","119"]},"geometry":{"type":"Point","coordinates":[27.1908,38.4149]}},{"type":"Feature","properties":{"id":"bus-153-s30435","kind":"busstop","ref":"153","name":"İğdeli","lines":["505"]},"geometry":{"type":"Point","coordinates":[27.1897,38.4146]}},{"type":"Feature","properties":{"id":"bus-153-s30437","kind":"busstop","ref":"153","name":"Çamkule Eski Son Durak","lines":["505"]},"geometry":{"type":"Point","coordinates":[27.1883,38.4146]}},{"type":"Feature","properties":{"id":"bus-153-s32206","kind":"busstop","ref":"153","name":"Habipler Cami","lines":[]},"geometry":{"type":"Point","coordinates":[27.18824,38.41305]}}]}