{"type":"FeatureCollection","features":[{"type":"Feature","properties":{"id":"bus-154-1","kind":"busline","ref":"154","dir":1},"geometry":{"type":"LineString","coordinates":[[27.1864,38.4195],[27.186,38.4197],[27.1866,38.4194],[27.188,38.4192],[27.1882,38.4194],[27.187,38.4214],[27.187,38.422],[27.1856,38.4218],[27.1825,38.422],[27.1791,38.4239],[27.1798,38.4243],[27.1817,38.4242],[27.1825,38.4244],[27.1823,38.4247],[27.181,38.4255],[27.1809,38.4259],[27.1801,38.4262],[27.1781,38.426],[27.175,38.426],[27.1739,38.4256],[27.173,38.4255],[27.173,38.4281],[27.1741,38.4313],[27.1741,38.4328],[27.1714,38.4332],[27.1684,38.4341],[27.1683,38.4339],[27.1687,38.4333],[27.1691,38.4329],[27.1695,38.4328],[27.1696,38.433],[27.1695,38.4329]]}},{"type":"Feature","properties":{"id":"bus-154-2","kind":"busline","ref":"154","dir":2},"geometry":{"type":"LineString","coordinates":[[27.1695,38.4329],[27.1696,38.433],[27.1694,38.4327],[27.1696,38.4326],[27.17,38.4327],[27.17,38.4334],[27.1734,38.4328],[27.1738,38.4327],[27.174,38.4324],[27.174,38.4314],[27.1733,38.4296],[27.1728,38.4275],[27.1729,38.4254],[27.176,38.426],[27.18,38.426],[27.1822,38.4245],[27.1818,38.4243],[27.1799,38.4244],[27.1789,38.4239],[27.1824,38.4219],[27.1867,38.4217],[27.1879,38.4197],[27.1876,38.4194],[27.186,38.4197],[27.1866,38.4194],[27.1864,38.4195]]}},{"type":"Feature","properties":{"id":"bus-154-s30412","kind":"busstop","ref":"154","name":"MTK Çarşısı","lines":["53","57","119"]},"geometry":{"type":"Point","coordinates":[27.1864,38.4194]}},{"type":"Feature","properties":{"id":"bus-154-s30410","kind":"busstop","ref":"154","name":"Tekstilciler Çarşısı","lines":["153"]},"geometry":{"type":"Point","coordinates":[27.1881,38.4196]}},{"type":"Feature","properties":{"id":"bus-154-s30414","kind":"busstop","ref":"154","name":"MTK Çiçek","lines":["153"]},"geometry":{"type":"Point","coordinates":[27.1859,38.4218]}},{"type":"Feature","properties":{"id":"bus-154-s30408","kind":"busstop","ref":"154","name":"Tekstilciler Cami","lines":["153"]},"geometry":{"type":"Point","coordinates":[27.184,38.4218]}},{"type":"Feature","properties":{"id":"bus-154-s30406","kind":"busstop","ref":"154","name":"MTK Trafo","lines":["153"]},"geometry":{"type":"Point","coordinates":[27.18142,38.42261]}},{"type":"Feature","properties":{"id":"bus-154-s32280","kind":"busstop","ref":"154","name":"Dr. Behçet Uz Rekreasyon Alanı","lines":["153"]},"geometry":{"type":"Point","coordinates":[27.17958,38.42366]}},{"type":"Feature","properties":{"id":"bus-154-s30404","kind":"busstop","ref":"154","name":"Katip","lines":["153"]},"geometry":{"type":"Point","coordinates":[27.1814,38.4242]}},{"type":"Feature","properties":{"id":"bus-154-s30402","kind":"busstop","ref":"154","name":"MTK Giriş","lines":["153"]},"geometry":{"type":"Point","coordinates":[27.18132,38.42538]}},{"type":"Feature","properties":{"id":"bus-154-s32243","kind":"busstop","ref":"154","name":"Ağır Bakım","lines":["54","57","58","59","60","64","117","153","214","249","302","367","662","699"]},"geometry":{"type":"Point","coordinates":[27.17642,38.42606]}},{"type":"Feature","properties":{"id":"bus-154-s10370","kind":"busstop","ref":"154","name":"Halkapınar İZSU","lines":["54","57","58","59","60","64","117","153","214","249","302","367","662","699"]},"geometry":{"type":"Point","coordinates":[27.1734,38.4256]}},{"type":"Feature","properties":{"id":"bus-154-s11897","kind":"busstop","ref":"154","name":"Yenişehir Gıda Çarşısı İZSU Yanı","lines":["418","475"]},"geometry":{"type":"Point","coordinates":[27.173,38.426]}},{"type":"Feature","properties":{"id":"bus-154-s11896","kind":"busstop","ref":"154","name":"Veterinerlik","lines":["418","475"]},"geometry":{"type":"Point","coordinates":[27.1731,38.4285]}},{"type":"Feature","properties":{"id":"bus-154-s11894","kind":"busstop","ref":"154","name":"Birinci Sanayi Sitesi","lines":["418","475"]},"geometry":{"type":"Point","coordinates":[27.1742,38.43155]}},{"type":"Feature","properties":{"id":"bus-154-s12874","kind":"busstop","ref":"154","name":"Halkapınar Tramvay","lines":["53","55","102","168","364","418","475","498","501","502","503","504","513","515","534","539","543","555","560","564","599","930"]},"geometry":{"type":"Point","coordinates":[27.17041,38.43345]}},{"type":"Feature","properties":{"id":"bus-154-s10464","kind":"busstop","ref":"154","name":"Halkapınar Metro","lines":[]},"geometry":{"type":"Point","coordinates":[27.1694,38.43304]}},{"type":"Feature","properties":{"id":"bus-154-s11893","kind":"busstop","ref":"154","name":"Birinci Sanayi Sitesi","lines":["418","475"]},"geometry":{"type":"Point","coordinates":[27.1739,38.4315]}},{"type":"Feature","properties":{"id":"bus-154-s11895","kind":"busstop","ref":"154","name":"Veterinerlik","lines":["418","475"]},"geometry":{"type":"Point","coordinates":[27.1731,38.4289]}},{"type":"Feature","properties":{"id":"bus-154-s11898","kind":"busstop","ref":"154","name":"Yenişehir Gıda Çarşısı İZSU Yanı","lines":["418","475"]},"geometry":{"type":"Point","coordinates":[27.17287,38.42605]}},{"type":"Feature","properties":{"id":"bus-154-s10371","kind":"busstop","ref":"154","name":"Halkapınar İZSU","lines":["54","57","58","59","60","64","117","153","214","249","302","367","662","699"]},"geometry":{"type":"Point","coordinates":[27.1742,38.4256]}},{"type":"Feature","properties":{"id":"bus-154-s32244","kind":"busstop","ref":"154","name":"Ağır Bakım","lines":["54","57","58","59","60","64","117","153","214","249","302","367","662","699"]},"geometry":{"type":"Point","coordinates":[27.17645,38.42588]}},{"type":"Feature","properties":{"id":"bus-154-s30403","kind":"busstop","ref":"154","name":"MTK Giriş","lines":["153"]},"geometry":{"type":"Point","coordinates":[27.1805,38.4256]}},{"type":"Feature","properties":{"id":"bus-154-s30405","kind":"busstop","ref":"154","name":"Katip","lines":["153"]},"geometry":{"type":"Point","coordinates":[27.1815,38.4243]}},{"type":"Feature","properties":{"id":"bus-154-s32279","kind":"busstop","ref":"154","name":"Dr. Behçet Uz Rekreasyon Alanı","lines":["153"]},"geometry":{"type":"Point","coordinates":[27.17941,38.42348]}},{"type":"Feature","properties":{"id":"bus-154-s30407","kind":"busstop","ref":"154","name":"MTK Trafo","lines":["153"]},"geometry":{"type":"Point","coordinates":[27.18135,38.42242]}},{"type":"Feature","properties":{"id":"bus-154-s30409","kind":"busstop","ref":"154","name":"Tekstilciler Cami","lines":["153"]},"geometry":{"type":"Point","coordinates":[27.1836,38.4218]}},{"type":"Feature","properties":{"id":"bus-154-s30413","kind":"busstop","ref":"154","name":"MTK Çiçek","lines":["153"]},"geometry":{"type":"Point","coordinates":[27.186,38.4217]}},{"type":"Feature","properties":{"id":"bus-154-s30411","kind":"busstop","ref":"154","name":"Tekstilciler Çarşısı","lines":["153"]},"geometry":{"type":"Point","coordinates":[27.1878,38.4197]}}]}