{"type":"FeatureCollection","features":[{"type":"Feature","properties":{"id":"bus-171-1","kind":"busline","ref":"171","dir":1},"geometry":{"type":"LineString","coordinates":[[27.2113,38.3684],[27.2125,38.3681],[27.1971,38.373],[27.1947,38.3721],[27.1944,38.3725],[27.1942,38.3724],[27.1948,38.3717],[27.195,38.3707],[27.1957,38.3695],[27.1968,38.3683],[27.1965,38.3681],[27.1965,38.3675],[27.1959,38.3667],[27.1943,38.3667],[27.1933,38.3672],[27.1926,38.3678],[27.192,38.3677],[27.1907,38.3668],[27.189,38.3677],[27.1875,38.3679],[27.1825,38.3676],[27.1817,38.3682],[27.1746,38.3682],[27.1733,38.368],[27.1735,38.3693],[27.1734,38.3706],[27.1709,38.3709],[27.1701,38.3713],[27.169,38.3709],[27.1678,38.3697],[27.1665,38.369],[27.165,38.3703],[27.1668,38.3718],[27.165,38.3728],[27.1646,38.3732],[27.1638,38.3743],[27.1634,38.3754],[27.1635,38.3768],[27.1646,38.3784],[27.1645,38.3785],[27.1591,38.3788],[27.1586,38.3789],[27.158,38.3794],[27.1572,38.3797],[27.1563,38.3796],[27.1555,38.3791],[27.1538,38.3791],[27.1508,38.38],[27.1497,38.3799],[27.1462,38.3805],[27.1471,38.3827],[27.1474,38.3842],[27.1461,38.3845],[27.1434,38.3863],[27.1425,38.3872],[27.1405,38.3915],[27.1404,38.3923],[27.1408,38.3934],[27.1411,38.3937],[27.141,38.3939],[27.1402,38.3942],[27.1359,38.3949],[27.1326,38.3969],[27.1318,38.398],[27.1294,38.4041],[27.1285,38.4058],[27.1284,38.4077],[27.1289,38.4086],[27.1288,38.4108],[27.1279,38.4115],[27.1275,38.4123],[27.1277,38.4125],[27.1281,38.4121],[27.1284,38.4121],[27.1284,38.4123],[27.1269,38.4134],[27.1262,38.4136],[27.1282,38.4133],[27.129,38.4139],[27.129,38.4144],[27.1286,38.4151],[27.1275,38.4163],[27.1272,38.4164]]}},{"type":"Feature","properties":{"id":"bus-171-2","kind":"busline","ref":"171","dir":2},"geometry":{"type":"LineString","coordinates":[[27.1272,38.4164],[27.1275,38.4163],[27.1266,38.4168],[27.1265,38.4172],[27.1278,38.419],[27.1283,38.4204],[27.1289,38.4211],[27.1305,38.4219],[27.131,38.4224],[27.1375,38.4225],[27.1369,38.4204],[27.1367,38.4179],[27.1355,38.4166],[27.1342,38.4143],[27.1334,38.4135],[27.132,38.413],[27.1307,38.412],[27.1289,38.4111],[27.1287,38.4107],[27.1288,38.4087],[27.1284,38.4082],[27.1282,38.4075],[27.1283,38.4062],[27.1286,38.4052],[27.1294,38.4038],[27.1314,38.3985],[27.1325,38.3969],[27.1359,38.3948],[27.1397,38.3942],[27.141,38.3937],[27.1404,38.3923],[27.1405,38.3915],[27.1426,38.387],[27.1433,38.3862],[27.1439,38.386],[27.1461,38.3845],[27.1473,38.3841],[27.1471,38.3827],[27.1462,38.3805],[27.1498,38.3798],[27.1507,38.3798],[27.1537,38.3791],[27.1555,38.3791],[27.1563,38.3796],[27.1572,38.3797],[27.158,38.3794],[27.1586,38.3789],[27.1591,38.3788],[27.1643,38.3784],[27.1633,38.3765],[27.1634,38.3748],[27.1641,38.3737],[27.165,38.3728],[27.1668,38.3718],[27.165,38.3703],[27.1665,38.369],[27.1678,38.3697],[27.169,38.3709],[27.1701,38.3713],[27.1709,38.3709],[27.1734,38.3706],[27.1735,38.3693],[27.1733,38.368],[27.1746,38.3682],[27.1817,38.3682],[27.1825,38.3676],[27.1862,38.3678],[27.1871,38.3678],[27.1874,38.3676],[27.1875,38.3678],[27.1887,38.3678],[27.1907,38.3668],[27.192,38.3677],[27.1926,38.3678],[27.1933,38.3672],[27.1943,38.3667],[27.1959,38.3667],[27.1965,38.3675],[27.1965,38.3681],[27.1958,38.3679],[27.1939,38.3681],[27.1927,38.3716],[27.1932,38.3722],[27.1944,38.3723],[27.1948,38.3717],[27.195,38.3707],[27.1954,38.3702],[27.1957,38.3704],[27.1948,38.372],[27.1971,38.3729],[27.2052,38.3702],[27.2054,38.37],[27.2057,38.3701],[27.2125,38.3681],[27.2113,38.3684]]}},{"type":"Feature","properties":{"id":"bus-171-s41416","kind":"busstop","ref":"171","name":"Tınaztepe Yerleşke Son Durak","lines":["277","465","476","676"]},"geometry":{"type":"Point","coordinates":[27.21132,38.36843]}},{"type":"Feature","properties":{"id":"bus-171-s40128","kind":"busstop","ref":"171","name":"Mühendislik Fakültesi","lines":["213","277","290","304","353","390","412","465","470","471","472","476","490","515","676","690","878"]},"geometry":{"type":"Point","coordinates":[27.2079,38.3696]}},{"type":"Feature","properties":{"id":"bus-171-s40892","kind":"busstop","ref":"171","name":"Kütüphane","lines":["277","304","353","412","465","470","471","472","476","490","515","676","878"]},"geometry":{"type":"Point","coordinates":[27.2028,38.3712]}},{"type":"Feature","properties":{"id":"bus-171-s40890","kind":"busstop","ref":"171","name":"Spor Salonu","lines":["277","304","353","412","465","470","471","472","476","490","515","676","878"]},"geometry":{"type":"Point","coordinates":[27.19967,38.37223]}},{"type":"Feature","properties":{"id":"bus-171-s40085","kind":"busstop","ref":"171","name":"Beş Selviler","lines":["174","175","176","177","206","277","304","353","465","470","471","472","476","490","515","536","676","878"]},"geometry":{"type":"Point","coordinates":[27.19377,38.37286]}},{"type":"Feature","properties":{"id":"bus-171-s40087","kind":"busstop","ref":"171","name":"Buca Belediye Şantiye","lines":["174","175","176","177","206","277","536","676"]},"geometry":{"type":"Point","coordinates":[27.19621,38.36889]}},{"type":"Feature","properties":{"id":"bus-171-s40877","kind":"busstop","ref":"171","name":"Eski Son Durak","lines":["476","676"]},"geometry":{"type":"Point","coordinates":[27.1964,38.3677]}},{"type":"Feature","properties":{"id":"bus-171-s40879","kind":"busstop","ref":"171","name":"Kahve","lines":["476","676"]},"geometry":{"type":"Point","coordinates":[27.1941,38.3668]}},{"type":"Feature","properties":{"id":"bus-171-s40867","kind":"busstop","ref":"171","name":"Şafak","lines":["476","676"]},"geometry":{"type":"Point","coordinates":[27.19241,38.36787]}},{"type":"Feature","properties":{"id":"bus-171-s40854","kind":"busstop","ref":"171","name":"Emek","lines":["476","676"]},"geometry":{"type":"Point","coordinates":[27.19,38.3672]}},{"type":"Feature","properties":{"id":"bus-171-s40852","kind":"busstop","ref":"171","name":"Buca Kooperatif Meydan","lines":["417","476","676"]},"geometry":{"type":"Point","coordinates":[27.1875,38.3678]}},{"type":"Feature","properties":{"id":"bus-171-s40850","kind":"busstop","ref":"171","name":"Şehit Astsubay Ümit Başaran İlkokulu","lines":["417","476","676"]},"geometry":{"type":"Point","coordinates":[27.18516,38.36776]}},{"type":"Feature","properties":{"id":"bus-171-s40838","kind":"busstop","ref":"171","name":"Zeytinlik","lines":["417","476","676"]},"geometry":{"type":"Point","coordinates":[27.1817,38.3682]}},{"type":"Feature","properties":{"id":"bus-171-s40836","kind":"busstop","ref":"171","name":"Sıraevler","lines":["417","476","676"]},"geometry":{"type":"Point","coordinates":[27.18048,38.36825]}},{"type":"Feature","properties":{"id":"bus-171-s40825","kind":"busstop","ref":"171","name":"Akmeşe","lines":["417","476","676"]},"geometry":{"type":"Point","coordinates":[27.1773,38.3682]}},{"type":"Feature","properties":{"id":"bus-171-s40822","kind":"busstop","ref":"171","name":"Cumhuriyet Sitesi","lines":["417","476","676"]},"geometry":{"type":"Point","coordinates":[27.1745,38.3682]}},{"type":"Feature","properties":{"id":"bus-171-s41154","kind":"busstop","ref":"171","name":"Dilek","lines":["417","476","676"]},"geometry":{"type":"Point","coordinates":[27.17356,38.37001]}},{"type":"Feature","properties":{"id":"bus-171-s41157","kind":"busstop","ref":"171","name":"Eski Bahçe","lines":["417"]},"geometry":{"type":"Point","coordinates":[27.1711,38.371]}},{"type":"Feature","properties":{"id":"bus-171-s40803","kind":"busstop","ref":"171","name":"Menekşe","lines":["105","417","805"]},"geometry":{"type":"Point","coordinates":[27.16822,38.37024]}},{"type":"Feature","properties":{"id":"bus-171-s40813","kind":"busstop","ref":"171","name":"Yasemin","lines":["105","417","805"]},"geometry":{"type":"Point","coordinates":[27.16607,38.3694]}},{"type":"Feature","properties":{"id":"bus-171-s41442","kind":"busstop","ref":"171","name":"Çamlıkule Pazaryeri","lines":["417"]},"geometry":{"type":"Point","coordinates":[27.16588,38.37085]}},{"type":"Feature","properties":{"id":"bus-171-s41302","kind":"busstop","ref":"171","name":"Belediye Ek Hizmet Binası","lines":["417"]},"geometry":{"type":"Point","coordinates":[27.16577,38.37246]}},{"type":"Feature","properties":{"id":"bus-171-s41298","kind":"busstop","ref":"171","name":"Nazım Hikmet Parkı","lines":["74","417"]},"geometry":{"type":"Point","coordinates":[27.1636,38.3747]}},{"type":"Feature","properties":{"id":"bus-171-s41296","kind":"busstop","ref":"171","name":"Yenigün Muhtar","lines":["74","417"]},"geometry":{"type":"Point","coordinates":[27.164,38.3775]}},{"type":"Feature","properties":{"id":"bus-171-s41162","kind":"busstop","ref":"171","name":"Gardenya","lines":["417"]},"geometry":{"type":"Point","coordinates":[27.1621,38.3786]}},{"type":"Feature","properties":{"id":"bus-171-s41164","kind":"busstop","ref":"171","name":"Kasımpatı","lines":["417"]},"geometry":{"type":"Point","coordinates":[27.1586,38.379]}},{"type":"Feature","properties":{"id":"bus-171-s41168","kind":"busstop","ref":"171","name":"Süsen","lines":["105","417"]},"geometry":{"type":"Point","coordinates":[27.15581,38.37937]}},{"type":"Feature","properties":{"id":"bus-171-s41166","kind":"busstop","ref":"171","name":"Kızılkanat","lines":["105","417"]},"geometry":{"type":"Point","coordinates":[27.1517,38.3797]}},{"type":"Feature","properties":{"id":"bus-171-s40195","kind":"busstop","ref":"171","name":"Koşuyolu","lines":["105","417"]},"geometry":{"type":"Point","coordinates":[27.14903,38.38006]}},{"type":"Feature","properties":{"id":"bus-171-s40176","kind":"busstop","ref":"171","name":"İzban Koşu Durağı","lines":["105","233","417","484","671"]},"geometry":{"type":"Point","coordinates":[27.1474,38.3836]}},{"type":"Feature","properties":{"id":"bus-171-s40146","kind":"busstop","ref":"171","name":"Akıncılar Merkez","lines":["105","233","417","484","671"]},"geometry":{"type":"Point","coordinates":[27.1458,38.3847]}},{"type":"Feature","properties":{"id":"bus-171-s40142","kind":"busstop","ref":"171","name":"Akıncılar Cami","lines":["105","233","417","484","671"]},"geometry":{"type":"Point","coordinates":[27.1431,38.3867]}},{"type":"Feature","properties":{"id":"bus-171-s40140","kind":"busstop","ref":"171","name":"Şirinyer Ertuğrul Gazi Anadolu Lisesi","lines":["105","233","417","484","671"]},"geometry":{"type":"Point","coordinates":[27.14192,38.3887]}},{"type":"Feature","properties":{"id":"bus-171-s40138","kind":"busstop","ref":"171","name":"Nato 1","lines":["105","233","417","484","671"]},"geometry":{"type":"Point","coordinates":[27.1406,38.3927]}},{"type":"Feature","properties":{"id":"bus-171-s12070","kind":"busstop","ref":"171","name":"Şelale Parkı","lines":["72","104","105","233","234","285","374","465","470","471","484","490","940"]},"geometry":{"type":"Point","coordinates":[27.134,38.396]}},{"type":"Feature","properties":{"id":"bus-171-s12068","kind":"busstop","ref":"171","name":"Konak Anadolu Lisesi","lines":["72","104","105","233","234","285","374","465","470","471","484","485","490","940"]},"geometry":{"type":"Point","coordinates":[27.1321,38.3978]}},{"type":"Feature","properties":{"id":"bus-171-s12064","kind":"busstop","ref":"171","name":"Yağhaneler 2","lines":["72","104","105","233","234","285","374","465","470","471","484","485","490","940"]},"geometry":{"type":"Point","coordinates":[27.1306,38.4011]}},{"type":"Feature","properties":{"id":"bus-171-s12066","kind":"busstop","ref":"171","name":"Arap Cami","lines":["33","72","104","105","233","285","374","465","471","484","485","940"]},"geometry":{"type":"Point","coordinates":[27.12859,38.40571]}},{"type":"Feature","properties":{"id":"bus-171-s12058","kind":"busstop","ref":"171","name":"Eşrefpaşa","lines":["23","29","30","32","33","72","104","105","157","193","224","233","285","374","465","471","484","485","940"]},"geometry":{"type":"Point","coordinates":[27.1288,38.4083]}},{"type":"Feature","properties":{"id":"bus-171-s10240","kind":"busstop","ref":"171","name":"Kız Yurdu","lines":["15","18","19","20","23","29","30","32","33","72","104","105","152","157","193","224","233","285","374","465","471","484","485","508","550","587","588","887"]},"geometry":{"type":"Point","coordinates":[27.12721,38.41322]}},{"type":"Feature","properties":{"id":"bus-171-s10036","kind":"busstop","ref":"171","name":"Konak","lines":["104","465","471"]},"geometry":{"type":"Point","coordinates":[27.12724,38.41647]}},{"type":"Feature","properties":{"id":"bus-171-s10119","kind":"busstop","ref":"171","name":"Kavaflar","lines":["72","104","105","285","374","465","471","484","485","811"]},"geometry":{"type":"Point","coordinates":[27.1365,38.4224]}},{"type":"Feature","properties":{"id":"bus-171-s10231","kind":"busstop","ref":"171","name":"Kestelli","lines":["18","19","20","23","72","104","105","234","285","374","465","470","471","484","485","680","681","691","811","910","940","950"]},"geometry":{"type":"Point","coordinates":[27.1348,38.4156]}},{"type":"Feature","properties":{"id":"bus-171-s10235","kind":"busstop","ref":"171","name":"Koruluk","lines":["23","72","104","105","234","285","374","465","470","471","484","485","680","691","910","940","950"]},"geometry":{"type":"Point","coordinates":[27.1309,38.4123]}},{"type":"Feature","properties":{"id":"bus-171-s12057","kind":"busstop","ref":"171","name":"Eşrefpaşa","lines":["72","104","105","233","234","285","374","465","470","471","484","485","940"]},"geometry":{"type":"Point","coordinates":[27.1285,38.4081]}},{"type":"Feature","properties":{"id":"bus-171-s12065","kind":"busstop","ref":"171","name":"Yağhaneler 2","lines":["72","104","105","233","234","285","374","465","470","471","484","485","940"]},"geometry":{"type":"Point","coordinates":[27.13044,38.40104]}},{"type":"Feature","properties":{"id":"bus-171-s12069","kind":"busstop","ref":"171","name":"Konak Anadolu Lisesi","lines":["72","104","105","233","234","285","374","465","470","471","484","485","940"]},"geometry":{"type":"Point","coordinates":[27.1312,38.399]}},{"type":"Feature","properties":{"id":"bus-171-s12071","kind":"busstop","ref":"171","name":"Şelale Parkı","lines":["72","104","105","233","234","285","374","465","470","471","484","485","940"]},"geometry":{"type":"Point","coordinates":[27.13419,38.39567]}},{"type":"Feature","properties":{"id":"bus-171-s40137","kind":"busstop","ref":"171","name":"Nato 1","lines":["105","233","417","484","671"]},"geometry":{"type":"Point","coordinates":[27.1406,38.3929]}},{"type":"Feature","properties":{"id":"bus-171-s40141","kind":"busstop","ref":"171","name":" Şirinyer Ertuğrul Gazi Anadolu Lisesi","lines":["105","233","417","484","671"]},"geometry":{"type":"Point","coordinates":[27.14174,38.38862]}},{"type":"Feature","properties":{"id":"bus-171-s40143","kind":"busstop","ref":"171","name":"Akıncılar Cami","lines":["105","233","417","484","671"]},"geometry":{"type":"Point","coordinates":[27.1436,38.386]}},{"type":"Feature","properties":{"id":"bus-171-s40145","kind":"busstop","ref":"171","name":"Akıncılar Merkez","lines":["105","233","417","484","671"]},"geometry":{"type":"Point","coordinates":[27.14599,38.38453]}},{"type":"Feature","properties":{"id":"bus-171-s40175","kind":"busstop","ref":"171","name":"İzban Koşu Durağı","lines":["105","233","417","484","671"]},"geometry":{"type":"Point","coordinates":[27.14717,38.38349]}},{"type":"Feature","properties":{"id":"bus-171-s40196","kind":"busstop","ref":"171","name":"Koşuyolu","lines":["105","417"]},"geometry":{"type":"Point","coordinates":[27.1493,38.37986]}},{"type":"Feature","properties":{"id":"bus-171-s41167","kind":"busstop","ref":"171","name":"Kızılkanat","lines":["105","417"]},"geometry":{"type":"Point","coordinates":[27.1517,38.3795]}},{"type":"Feature","properties":{"id":"bus-171-s41165","kind":"busstop","ref":"171","name":"Süsen","lines":["105","417"]},"geometry":{"type":"Point","coordinates":[27.15587,38.3792]}},{"type":"Feature","properties":{"id":"bus-171-s41161","kind":"busstop","ref":"171","name":"Kasımpatı","lines":["417"]},"geometry":{"type":"Point","coordinates":[27.15802,38.3792]}},{"type":"Feature","properties":{"id":"bus-171-s41163","kind":"busstop","ref":"171","name":"Gardenya","lines":["417"]},"geometry":{"type":"Point","coordinates":[27.1623,38.3785]}},{"type":"Feature","properties":{"id":"bus-171-s41295","kind":"busstop","ref":"171","name":"Yenigün Muhtar","lines":["74","417"]},"geometry":{"type":"Point","coordinates":[27.1638,38.3775]}},{"type":"Feature","properties":{"id":"bus-171-s41297","kind":"busstop","ref":"171","name":"Nazım Hikmet Parkı","lines":["74","417"]},"geometry":{"type":"Point","coordinates":[27.1634,38.3747]}},{"type":"Feature","properties":{"id":"bus-171-s41301","kind":"busstop","ref":"171","name":"Belediye Ek Hizmet Binası","lines":["417"]},"geometry":{"type":"Point","coordinates":[27.1655,38.3725]}},{"type":"Feature","properties":{"id":"bus-171-s41441","kind":"busstop","ref":"171","name":"Çamlıkule Pazaryeri","lines":["417"]},"geometry":{"type":"Point","coordinates":[27.16592,38.37101]}},{"type":"Feature","properties":{"id":"bus-171-s40812","kind":"busstop","ref":"171","name":"Yasemin","lines":["105","417","805"]},"geometry":{"type":"Point","coordinates":[27.166,38.3693]}},{"type":"Feature","properties":{"id":"bus-171-s40802","kind":"busstop","ref":"171","name":"Menekşe","lines":["105","417","805"]},"geometry":{"type":"Point","coordinates":[27.16801,38.36988]}},{"type":"Feature","properties":{"id":"bus-171-s41156","kind":"busstop","ref":"171","name":"Eski Bahçe","lines":["417"]},"geometry":{"type":"Point","coordinates":[27.1714,38.3708]}},{"type":"Feature","properties":{"id":"bus-171-s41155","kind":"busstop","ref":"171","name":"Dilek","lines":["417","476","676"]},"geometry":{"type":"Point","coordinates":[27.1734,38.36956]}},{"type":"Feature","properties":{"id":"bus-171-s40827","kind":"busstop","ref":"171","name":"Cumhuriyet Sitesi","lines":["417","476","676"]},"geometry":{"type":"Point","coordinates":[27.17493,38.36812]}},{"type":"Feature","properties":{"id":"bus-171-s40824","kind":"busstop","ref":"171","name":"Akmeşe","lines":["417","476","676"]},"geometry":{"type":"Point","coordinates":[27.1784,38.36805]}},{"type":"Feature","properties":{"id":"bus-171-s40839","kind":"busstop","ref":"171","name":"Zeytinlik","lines":["417","476","676"]},"geometry":{"type":"Point","coordinates":[27.18178,38.36816]}},{"type":"Feature","properties":{"id":"bus-171-s40849","kind":"busstop","ref":"171","name":"Şehit Astsubay Ümit Başaran İlkokulu","lines":["417","476","676"]},"geometry":{"type":"Point","coordinates":[27.1853,38.3677]}},{"type":"Feature","properties":{"id":"bus-171-s40851","kind":"busstop","ref":"171","name":"Buca Kooperatif Meydan","lines":["417","476","676"]},"geometry":{"type":"Point","coordinates":[27.1876,38.3678]}},{"type":"Feature","properties":{"id":"bus-171-s40853","kind":"busstop","ref":"171","name":"Emek","lines":["476","676"]},"geometry":{"type":"Point","coordinates":[27.18996,38.36717]}},{"type":"Feature","properties":{"id":"bus-171-s40870","kind":"busstop","ref":"171","name":"Şafak","lines":["476","676"]},"geometry":{"type":"Point","coordinates":[27.19263,38.36766]}},{"type":"Feature","properties":{"id":"bus-171-s40880","kind":"busstop","ref":"171","name":"Kahve","lines":["476","676"]},"geometry":{"type":"Point","coordinates":[27.1942,38.3667]}},{"type":"Feature","properties":{"id":"bus-171-s40878","kind":"busstop","ref":"171","name":"Eski Son Durak","lines":["476","676"]},"geometry":{"type":"Point","coordinates":[27.1965,38.368]}},{"type":"Feature","properties":{"id":"bus-171-s40881","kind":"busstop","ref":"171","name":"Aybers Hikmet Karabacak Anadolu Lisesi","lines":["476","676"]},"geometry":{"type":"Point","coordinates":[27.1939,38.3683]}},{"type":"Feature","properties":{"id":"bus-171-s40866","kind":"busstop","ref":"171","name":"Kuruçeşme","lines":["476","676"]},"geometry":{"type":"Point","coordinates":[27.1931,38.3721]}},{"type":"Feature","properties":{"id":"bus-171-s40889","kind":"busstop","ref":"171","name":"Spor Salonu","lines":["277","304","353","412","465","470","471","472","476","490","515","676","878"]},"geometry":{"type":"Point","coordinates":[27.19977,38.37195]}},{"type":"Feature","properties":{"id":"bus-171-s40891","kind":"busstop","ref":"171","name":"Kütüphane","lines":["277","304","353","412","465","470","471","472","476","490","515","676","878"]},"geometry":{"type":"Point","coordinates":[27.2028,38.371]}},{"type":"Feature","properties":{"id":"bus-171-s40127","kind":"busstop","ref":"171","name":"Mühendislik Fakültesi","lines":["277","290","304","353","390","412","465","470","471","472","476","490","515","676","690","878"]},"geometry":{"type":"Point","coordinates":[27.208,38.3693]}},{"type":"Feature","properties":{"id":"bus-171-s41336","kind":"busstop","ref":"171","name":"Tınaztepe Yerleşke Son Durak","lines":["277","290","304","353","390","465","471","472","476","490","515","676","690"]},"geometry":{"type":"Point","coordinates":[27.21055,38.36849]}}]}