{"type":"FeatureCollection","features":[{"type":"Feature","properties":{"id":"bus-177-1","kind":"busline","ref":"177","dir":1},"geometry":{"type":"LineString","coordinates":[[27.2828,38.3636],[27.283,38.3636],[27.2822,38.3635],[27.2816,38.3637],[27.281,38.3643],[27.2802,38.3647],[27.2788,38.3643],[27.278,38.3649],[27.2775,38.3659],[27.2764,38.3661],[27.2753,38.3669],[27.2729,38.3662],[27.2719,38.3656],[27.2715,38.3649],[27.2716,38.3645],[27.2712,38.3637],[27.2704,38.3633],[27.269,38.3634],[27.2681,38.363],[27.2672,38.3631],[27.2655,38.362],[27.2651,38.3613],[27.2646,38.3596],[27.263,38.3575],[27.2616,38.3567],[27.2613,38.3562],[27.2586,38.3546],[27.2554,38.3531],[27.2517,38.3529],[27.2498,38.3533],[27.245,38.3536],[27.243,38.3543],[27.2402,38.3548],[27.241,38.3556],[27.2412,38.3567],[27.2426,38.3584],[27.243,38.3594],[27.2421,38.3599],[27.243,38.3594],[27.2426,38.3584],[27.2412,38.3567],[27.241,38.3556],[27.2402,38.3548],[27.239,38.3551],[27.2375,38.3552],[27.234,38.3564],[27.2298,38.3572],[27.2295,38.357],[27.2294,38.3564],[27.2285,38.3548],[27.2277,38.3521],[27.2223,38.3473],[27.2218,38.3461],[27.2223,38.3473],[27.2277,38.3521],[27.23,38.3503],[27.2303,38.3487],[27.2302,38.3484],[27.2303,38.3487],[27.23,38.3503],[27.2277,38.3521],[27.2285,38.3548],[27.23,38.3571],[27.2261,38.3581],[27.221,38.3602],[27.2178,38.3613],[27.2141,38.3617],[27.2109,38.3615],[27.2086,38.3616],[27.2074,38.3621],[27.2036,38.365],[27.1998,38.3656],[27.1991,38.366],[27.1967,38.3686],[27.1946,38.3723],[27.1919,38.3757],[27.1888,38.3779],[27.1876,38.3792],[27.1855,38.3801],[27.1848,38.3801],[27.1834,38.3809],[27.1826,38.3819],[27.1812,38.3808],[27.1803,38.3812],[27.1775,38.3818],[27.1765,38.3822],[27.1778,38.3845],[27.1789,38.3853],[27.1807,38.3842],[27.1816,38.3831],[27.1838,38.3854],[27.1852,38.3855],[27.1855,38.3848],[27.1872,38.3851],[27.1867,38.385]]}},{"type":"Feature","properties":{"id":"bus-177-2","kind":"busline","ref":"177","dir":2},"geometry":{"type":"LineString","coordinates":[[27.1867,38.385],[27.1872,38.3851],[27.1855,38.3848],[27.1856,38.3835],[27.1864,38.382],[27.1856,38.3817],[27.1847,38.3815],[27.184,38.3828],[27.184,38.3854],[27.1831,38.3848],[27.1816,38.3831],[27.1807,38.3842],[27.1793,38.3853],[27.1789,38.3854],[27.1778,38.3845],[27.1765,38.3822],[27.1763,38.3823],[27.1762,38.382],[27.1795,38.3814],[27.1819,38.3806],[27.1843,38.3793],[27.1856,38.3792],[27.1871,38.3781],[27.1894,38.3771],[27.1916,38.3758],[27.1948,38.3717],[27.195,38.3707],[27.1959,38.3692],[27.1967,38.3685],[27.1971,38.3678],[27.1997,38.3655],[27.2011,38.3652],[27.2024,38.3652],[27.2038,38.3648],[27.2074,38.362],[27.2086,38.3615],[27.2097,38.3614],[27.214,38.3616],[27.2175,38.3613],[27.2268,38.3578],[27.2295,38.357],[27.2294,38.3564],[27.2282,38.354],[27.2277,38.3521],[27.2223,38.3473],[27.2218,38.3461],[27.2223,38.3473],[27.2277,38.3521],[27.23,38.3503],[27.2303,38.3487],[27.2302,38.3484],[27.2303,38.3487],[27.23,38.3503],[27.2277,38.3521],[27.2285,38.3548],[27.2299,38.3569],[27.2343,38.3563],[27.2375,38.3552],[27.239,38.3551],[27.2402,38.3548],[27.241,38.3556],[27.2412,38.3567],[27.2426,38.3584],[27.243,38.3594],[27.2421,38.3599],[27.243,38.3594],[27.2426,38.3584],[27.2412,38.3567],[27.241,38.3556],[27.2402,38.3548],[27.243,38.3543],[27.245,38.3536],[27.2498,38.3533],[27.2517,38.3529],[27.2554,38.3531],[27.2586,38.3546],[27.2613,38.3562],[27.2616,38.3567],[27.263,38.3575],[27.2646,38.3596],[27.2651,38.3613],[27.2655,38.362],[27.2672,38.3631],[27.2681,38.363],[27.269,38.3634],[27.2704,38.3633],[27.2712,38.3637],[27.2716,38.3645],[27.2715,38.3649],[27.2719,38.3656],[27.2729,38.3662],[27.2753,38.3669],[27.2764,38.3661],[27.2775,38.3659],[27.278,38.3649],[27.2788,38.3643],[27.2802,38.3647],[27.281,38.3643],[27.2816,38.3637],[27.2822,38.3635],[27.283,38.3636],[27.2828,38.3636]]}},{"type":"Feature","properties":{"id":"bus-177-s40965","kind":"busstop","ref":"177","name":"Kaynaklar Son Durak","lines":[]},"geometry":{"type":"Point","coordinates":[27.28285,38.36352]}},{"type":"Feature","properties":{"id":"bus-177-s40964","kind":"busstop","ref":"177","name":"Pazar Yeri","lines":[]},"geometry":{"type":"Point","coordinates":[27.2804,38.3647]}},{"type":"Feature","properties":{"id":"bus-177-s40962","kind":"busstop","ref":"177","name":"Kaynaklar İlköğretim Okulu","lines":[]},"geometry":{"type":"Point","coordinates":[27.2778,38.3655]}},{"type":"Feature","properties":{"id":"bus-177-s40960","kind":"busstop","ref":"177","name":"Sağlık Ocağı","lines":[]},"geometry":{"type":"Point","coordinates":[27.2762,38.3662]}},{"type":"Feature","properties":{"id":"bus-177-s40958","kind":"busstop","ref":"177","name":"Düzlük","lines":[]},"geometry":{"type":"Point","coordinates":[27.2735,38.3663]}},{"type":"Feature","properties":{"id":"bus-177-s40955","kind":"busstop","ref":"177","name":"Kasap","lines":[]},"geometry":{"type":"Point","coordinates":[27.2716,38.3648]}},{"type":"Feature","properties":{"id":"bus-177-s40954","kind":"busstop","ref":"177","name":"Çıkış","lines":[]},"geometry":{"type":"Point","coordinates":[27.2708,38.3635]}},{"type":"Feature","properties":{"id":"bus-177-s40952","kind":"busstop","ref":"177","name":"Karacaoğlan","lines":[]},"geometry":{"type":"Point","coordinates":[27.26903,38.36342]}},{"type":"Feature","properties":{"id":"bus-177-s40950","kind":"busstop","ref":"177","name":"Dede Korkut","lines":[]},"geometry":{"type":"Point","coordinates":[27.2653,38.3616]}},{"type":"Feature","properties":{"id":"bus-177-s40948","kind":"busstop","ref":"177","name":"Köprü","lines":[]},"geometry":{"type":"Point","coordinates":[27.26187,38.35688]}},{"type":"Feature","properties":{"id":"bus-177-s40946","kind":"busstop","ref":"177","name":"İğde","lines":[]},"geometry":{"type":"Point","coordinates":[27.2593,38.3551]}},{"type":"Feature","properties":{"id":"bus-177-s40944","kind":"busstop","ref":"177","name":"Çiçek","lines":[]},"geometry":{"type":"Point","coordinates":[27.2561,38.3534]}},{"type":"Feature","properties":{"id":"bus-177-s40942","kind":"busstop","ref":"177","name":"Zeytinlik","lines":[]},"geometry":{"type":"Point","coordinates":[27.2534,38.353]}},{"type":"Feature","properties":{"id":"bus-177-s41419","kind":"busstop","ref":"177","name":"Çamlar","lines":[]},"geometry":{"type":"Point","coordinates":[27.24751,38.35342]}},{"type":"Feature","properties":{"id":"bus-177-s40940","kind":"busstop","ref":"177","name":"Jandarma","lines":[]},"geometry":{"type":"Point","coordinates":[27.2438,38.3539]}},{"type":"Feature","properties":{"id":"bus-177-s40971","kind":"busstop","ref":"177","name":"Atatürk Spor Lisesi","lines":[]},"geometry":{"type":"Point","coordinates":[27.2427,38.35963]}},{"type":"Feature","properties":{"id":"bus-177-s41388","kind":"busstop","ref":"177","name":"Villalar","lines":[]},"geometry":{"type":"Point","coordinates":[27.24227,38.35799]}},{"type":"Feature","properties":{"id":"bus-177-s40972","kind":"busstop","ref":"177","name":"Atatürk Spor Lisesi Giriş","lines":[]},"geometry":{"type":"Point","coordinates":[27.24018,38.35486]}},{"type":"Feature","properties":{"id":"bus-177-s40938","kind":"busstop","ref":"177","name":"Sebze Hali","lines":[]},"geometry":{"type":"Point","coordinates":[27.2378,38.3552]}},{"type":"Feature","properties":{"id":"bus-177-s40934","kind":"busstop","ref":"177","name":"Olduruk","lines":["174","175","176","277"]},"geometry":{"type":"Point","coordinates":[27.2314,38.3569]}},{"type":"Feature","properties":{"id":"bus-177-s40987","kind":"busstop","ref":"177","name":"Olduruk 2","lines":[]},"geometry":{"type":"Point","coordinates":[27.2293,38.3565]}},{"type":"Feature","properties":{"id":"bus-177-s40989","kind":"busstop","ref":"177","name":"Depo","lines":[]},"geometry":{"type":"Point","coordinates":[27.2282,38.3541]}},{"type":"Feature","properties":{"id":"bus-177-s40978","kind":"busstop","ref":"177","name":"Besiciler","lines":[]},"geometry":{"type":"Point","coordinates":[27.22598,38.35062]}},{"type":"Feature","properties":{"id":"bus-177-s40980","kind":"busstop","ref":"177","name":"Muzaffer Ersezgin","lines":[]},"geometry":{"type":"Point","coordinates":[27.22345,38.34854]}},{"type":"Feature","properties":{"id":"bus-177-s40982","kind":"busstop","ref":"177","name":"Buca spor tesisleri","lines":[]},"geometry":{"type":"Point","coordinates":[27.22176,38.34627]}},{"type":"Feature","properties":{"id":"bus-177-s40983","kind":"busstop","ref":"177","name":"Buca spor tesisleri","lines":[]},"geometry":{"type":"Point","coordinates":[27.22198,38.34627]}},{"type":"Feature","properties":{"id":"bus-177-s40981","kind":"busstop","ref":"177","name":"Muzaffer Ersezgin","lines":[]},"geometry":{"type":"Point","coordinates":[27.22357,38.34844]}},{"type":"Feature","properties":{"id":"bus-177-s40979","kind":"busstop","ref":"177","name":"Besiciler","lines":[]},"geometry":{"type":"Point","coordinates":[27.226,38.35043]}},{"type":"Feature","properties":{"id":"bus-177-s40991","kind":"busstop","ref":"177","name":"Soğuk Hava","lines":[]},"geometry":{"type":"Point","coordinates":[27.2289,38.3511]}},{"type":"Feature","properties":{"id":"bus-177-s40992","kind":"busstop","ref":"177","name":"Balık Hali Son Durak","lines":[]},"geometry":{"type":"Point","coordinates":[27.2302,38.3492]}},{"type":"Feature","properties":{"id":"bus-177-s40990","kind":"busstop","ref":"177","name":"Soğuk Hava","lines":[]},"geometry":{"type":"Point","coordinates":[27.2291,38.351]}},{"type":"Feature","properties":{"id":"bus-177-s40988","kind":"busstop","ref":"177","name":"Depo","lines":[]},"geometry":{"type":"Point","coordinates":[27.2282,38.354]}},{"type":"Feature","properties":{"id":"bus-177-s40986","kind":"busstop","ref":"177","name":"Olduruk 2","lines":[]},"geometry":{"type":"Point","coordinates":[27.2294,38.3565]}},{"type":"Feature","properties":{"id":"bus-177-s40966","kind":"busstop","ref":"177","name":"Yeni Mezarlık İki","lines":["174","175","176","277"]},"geometry":{"type":"Point","coordinates":[27.2264,38.3582]}},{"type":"Feature","properties":{"id":"bus-177-s40932","kind":"busstop","ref":"177","name":"Yeni Mezarlık","lines":["174","175","176","277"]},"geometry":{"type":"Point","coordinates":[27.2227,38.3595]}},{"type":"Feature","properties":{"id":"bus-177-s40930","kind":"busstop","ref":"177","name":"Bağ Arası","lines":["174","175","176","277"]},"geometry":{"type":"Point","coordinates":[27.2173,38.3613]}},{"type":"Feature","properties":{"id":"bus-177-s40094","kind":"busstop","ref":"177","name":"Buca Belediye Şantiye","lines":["174","175","176","206","277","536"]},"geometry":{"type":"Point","coordinates":[27.19606,38.36973]}},{"type":"Feature","properties":{"id":"bus-177-s40092","kind":"busstop","ref":"177","name":"Beş Selviler","lines":["174","175","176","206","304","353","470","472","490","515","536","878"]},"geometry":{"type":"Point","coordinates":[27.19406,38.37307]}},{"type":"Feature","properties":{"id":"bus-177-s40088","kind":"busstop","ref":"177","name":"Begos","lines":["174","175","176","206","304","353","470","472","490","515","536","878"]},"geometry":{"type":"Point","coordinates":[27.18968,38.37751]}},{"type":"Feature","properties":{"id":"bus-177-s40086","kind":"busstop","ref":"177","name":"Papatya","lines":["174","175","176","206","304","353","470","472","490","515","536","878"]},"geometry":{"type":"Point","coordinates":[27.1857,38.3801]}},{"type":"Feature","properties":{"id":"bus-177-s40070","kind":"busstop","ref":"177","name":"Eski Mezarlık","lines":["174","176","206","304","353","470","472","490","515","536","866","878"]},"geometry":{"type":"Point","coordinates":[27.18311,38.38131]}},{"type":"Feature","properties":{"id":"bus-177-s40080","kind":"busstop","ref":"177","name":"Buca Eski Mezarlık","lines":["174","175","176","304","536","866"]},"geometry":{"type":"Point","coordinates":[27.182,38.3815]}},{"type":"Feature","properties":{"id":"bus-177-s41200","kind":"busstop","ref":"177","name":"Hasan Ağa Bahçesi","lines":["174","175","176","304","536","866"]},"geometry":{"type":"Point","coordinates":[27.1795,38.3814]}},{"type":"Feature","properties":{"id":"bus-177-s40057","kind":"busstop","ref":"177","name":"Fatma Saygın Anadolu Lisesi","lines":["174","175","176","206","353"]},"geometry":{"type":"Point","coordinates":[27.1769,38.383]}},{"type":"Feature","properties":{"id":"bus-177-s40065","kind":"busstop","ref":"177","name":"İktisadi ve İdari Bilimler Fakültesi","lines":["104","174","175","176","206","353","470","472","490","515","878"]},"geometry":{"type":"Point","coordinates":[27.17994,38.38462]}},{"type":"Feature","properties":{"id":"bus-177-s40577","kind":"busstop","ref":"177","name":"Fakülte","lines":["104","174","175","176","940"]},"geometry":{"type":"Point","coordinates":[27.1827,38.3842]}},{"type":"Feature","properties":{"id":"bus-177-s40574","kind":"busstop","ref":"177","name":"Adatepe","lines":["104","174","175","176","940"]},"geometry":{"type":"Point","coordinates":[27.18523,38.38519]}},{"type":"Feature","properties":{"id":"bus-177-s40581","kind":"busstop","ref":"177","name":"Adatepe Son Durak","lines":["174","175","176","940"]},"geometry":{"type":"Point","coordinates":[27.18673,38.38503]}},{"type":"Feature","properties":{"id":"bus-177-s41387","kind":"busstop","ref":"177","name":"Adatepe Son Durak","lines":["174","175","176","940"]},"geometry":{"type":"Point","coordinates":[27.1866,38.38504]}},{"type":"Feature","properties":{"id":"bus-177-s40582","kind":"busstop","ref":"177","name":"Adatepe Üçgen Park","lines":["104","174","175","176","940"]},"geometry":{"type":"Point","coordinates":[27.18585,38.38278]}},{"type":"Feature","properties":{"id":"bus-177-s41204","kind":"busstop","ref":"177","name":"Işılay Saygın Lisesi","lines":["174","175","176","866","940"]},"geometry":{"type":"Point","coordinates":[27.1855,38.3817]}},{"type":"Feature","properties":{"id":"bus-177-s40584","kind":"busstop","ref":"177","name":"Işılay Saygın Güzel Sanatlar Lisesi","lines":["174","175","176","940"]},"geometry":{"type":"Point","coordinates":[27.18416,38.38262]}},{"type":"Feature","properties":{"id":"bus-177-s40578","kind":"busstop","ref":"177","name":"Fakülte","lines":["104","174","175","176","940"]},"geometry":{"type":"Point","coordinates":[27.1828,38.3844]}},{"type":"Feature","properties":{"id":"bus-177-s40068","kind":"busstop","ref":"177","name":"İktisadi ve İdari Bilimler Fakültesi","lines":["104","174","175","176","470","490","940"]},"geometry":{"type":"Point","coordinates":[27.17986,38.38484]}},{"type":"Feature","properties":{"id":"bus-177-s40058","kind":"busstop","ref":"177","name":"Fatma Saygın Anadolu Lisesi","lines":["174","175","176","206","353"]},"geometry":{"type":"Point","coordinates":[27.1767,38.3828]}},{"type":"Feature","properties":{"id":"bus-177-s40079","kind":"busstop","ref":"177","name":"Hasan Ağa Bahçesi","lines":["174","175","176","304","536","866","940"]},"geometry":{"type":"Point","coordinates":[27.18,38.3812]}},{"type":"Feature","properties":{"id":"bus-177-s40077","kind":"busstop","ref":"177","name":"Buca Diyaliz Merkezi","lines":["174","175","176","304","536"]},"geometry":{"type":"Point","coordinates":[27.1838,38.37944]}},{"type":"Feature","properties":{"id":"bus-177-s40071","kind":"busstop","ref":"177","name":"Begos","lines":["174","175","176","206","304","353","470","472","490","515","536","878"]},"geometry":{"type":"Point","coordinates":[27.18785,38.37758]}},{"type":"Feature","properties":{"id":"bus-177-s40085","kind":"busstop","ref":"177","name":"Beş Selviler","lines":["171","174","175","176","206","277","304","353","465","470","471","472","476","490","515","536","676","878"]},"geometry":{"type":"Point","coordinates":[27.19377,38.37286]}},{"type":"Feature","properties":{"id":"bus-177-s40087","kind":"busstop","ref":"177","name":"Buca Belediye Şantiye","lines":["171","174","175","176","206","277","536","676"]},"geometry":{"type":"Point","coordinates":[27.19621,38.36889]}},{"type":"Feature","properties":{"id":"bus-177-s40931","kind":"busstop","ref":"177","name":"Bağ Arası","lines":["174","175","176","277"]},"geometry":{"type":"Point","coordinates":[27.2169,38.3613]}},{"type":"Feature","properties":{"id":"bus-177-s40933","kind":"busstop","ref":"177","name":"Yeni Mezarlık","lines":["174","175","176","277"]},"geometry":{"type":"Point","coordinates":[27.2225,38.3595]}},{"type":"Feature","properties":{"id":"bus-177-s40967","kind":"busstop","ref":"177","name":"Yeni Mezarlık İki","lines":["174","175","176","277"]},"geometry":{"type":"Point","coordinates":[27.2259,38.3581]}},{"type":"Feature","properties":{"id":"bus-177-s40937","kind":"busstop","ref":"177","name":"Sebze Hali","lines":[]},"geometry":{"type":"Point","coordinates":[27.2373,38.3552]}},{"type":"Feature","properties":{"id":"bus-177-s40970","kind":"busstop","ref":"177","name":"Atatürk Spor Lisesi Giriş","lines":[]},"geometry":{"type":"Point","coordinates":[27.24062,38.35494]}},{"type":"Feature","properties":{"id":"bus-177-s40939","kind":"busstop","ref":"177","name":"Jandarma","lines":[]},"geometry":{"type":"Point","coordinates":[27.2433,38.3541]}},{"type":"Feature","properties":{"id":"bus-177-s41418","kind":"busstop","ref":"177","name":"Çamlar","lines":[]},"geometry":{"type":"Point","coordinates":[27.24802,38.35329]}},{"type":"Feature","properties":{"id":"bus-177-s40941","kind":"busstop","ref":"177","name":"Zeytinlik","lines":[]},"geometry":{"type":"Point","coordinates":[27.2533,38.3529]}},{"type":"Feature","properties":{"id":"bus-177-s40943","kind":"busstop","ref":"177","name":"Çiçek","lines":[]},"geometry":{"type":"Point","coordinates":[27.2557,38.3532]}},{"type":"Feature","properties":{"id":"bus-177-s40945","kind":"busstop","ref":"177","name":"İğde","lines":[]},"geometry":{"type":"Point","coordinates":[27.2588,38.3548]}},{"type":"Feature","properties":{"id":"bus-177-s40947","kind":"busstop","ref":"177","name":"Köprü","lines":[]},"geometry":{"type":"Point","coordinates":[27.26199,38.35684]}},{"type":"Feature","properties":{"id":"bus-177-s40949","kind":"busstop","ref":"177","name":"Dede Korkut","lines":[]},"geometry":{"type":"Point","coordinates":[27.2654,38.3616]}},{"type":"Feature","properties":{"id":"bus-177-s40951","kind":"busstop","ref":"177","name":"Karacaoğlan","lines":[]},"geometry":{"type":"Point","coordinates":[27.27088,38.36353]}},{"type":"Feature","properties":{"id":"bus-177-s40953","kind":"busstop","ref":"177","name":"Kasap","lines":[]},"geometry":{"type":"Point","coordinates":[27.27185,38.36526]}},{"type":"Feature","properties":{"id":"bus-177-s41355","kind":"busstop","ref":"177","name":"Düzlük","lines":[]},"geometry":{"type":"Point","coordinates":[27.27401,38.36647]}},{"type":"Feature","properties":{"id":"bus-177-s40959","kind":"busstop","ref":"177","name":"Sağlık Ocağı","lines":[]},"geometry":{"type":"Point","coordinates":[27.27623,38.36612]}},{"type":"Feature","properties":{"id":"bus-177-s40961","kind":"busstop","ref":"177","name":"Kaynaklar İlköğretim Okulu","lines":[]},"geometry":{"type":"Point","coordinates":[27.2778,38.36524]}},{"type":"Feature","properties":{"id":"bus-177-s40963","kind":"busstop","ref":"177","name":"Pazar Yeri","lines":[]},"geometry":{"type":"Point","coordinates":[27.28076,38.36435]}}]}