{"type":"FeatureCollection","features":[{"type":"Feature","properties":{"id":"bus-18-1","kind":"busline","ref":"18","dir":1},"geometry":{"type":"LineString","coordinates":[[27.104,38.3863],[27.1039,38.3862],[27.1043,38.3863],[27.1037,38.3869],[27.102,38.3867],[27.1008,38.3868],[27.0996,38.3881],[27.099,38.3884],[27.0953,38.3891],[27.0965,38.3904],[27.0973,38.392],[27.0986,38.3932],[27.1017,38.3951],[27.1027,38.396],[27.1058,38.3968],[27.1068,38.3969],[27.1102,38.3964],[27.1104,38.3958],[27.1104,38.3951],[27.1102,38.3947],[27.1128,38.3947],[27.1138,38.3937],[27.1153,38.3931],[27.1167,38.3931],[27.1187,38.3936],[27.1168,38.395],[27.1158,38.3954],[27.1141,38.3967],[27.1129,38.3972],[27.1128,38.3984],[27.1116,38.3987],[27.1115,38.399],[27.1163,38.4023],[27.117,38.4031],[27.1169,38.4034],[27.1181,38.4039],[27.1208,38.4056],[27.1226,38.4061],[27.1235,38.4069],[27.127,38.4088],[27.1287,38.4107],[27.1287,38.4109],[27.1279,38.4115],[27.1275,38.4123],[27.1277,38.4125],[27.1281,38.4121],[27.1284,38.4121],[27.1284,38.4123],[27.1269,38.4134],[27.1262,38.4136],[27.1282,38.4133],[27.129,38.4139],[27.129,38.4144],[27.1287,38.4149],[27.1288,38.4148]]}},{"type":"Feature","properties":{"id":"bus-18-2","kind":"busline","ref":"18","dir":2},"geometry":{"type":"LineString","coordinates":[[27.1288,38.4148],[27.1289,38.4146],[27.1276,38.4161],[27.1265,38.4169],[27.1265,38.4172],[27.1278,38.419],[27.1283,38.4204],[27.1289,38.4211],[27.1305,38.4219],[27.1311,38.4224],[27.1375,38.4225],[27.1369,38.4204],[27.1367,38.4179],[27.1355,38.4166],[27.1337,38.4137],[27.132,38.413],[27.1305,38.4118],[27.1281,38.4105],[27.127,38.4089],[27.1261,38.4083],[27.1235,38.4069],[27.1212,38.406],[27.1168,38.4034],[27.1169,38.4031],[27.1159,38.4021],[27.1142,38.4011],[27.1112,38.3989],[27.1114,38.3987],[27.1128,38.3984],[27.1129,38.3972],[27.1141,38.3967],[27.1158,38.3954],[27.1168,38.395],[27.1187,38.3936],[27.1167,38.3931],[27.1153,38.3931],[27.1138,38.3937],[27.1128,38.3947],[27.1102,38.3947],[27.1104,38.3951],[27.1102,38.3964],[27.1068,38.3969],[27.1058,38.3968],[27.1027,38.396],[27.1017,38.3951],[27.0986,38.3932],[27.0973,38.392],[27.0965,38.3904],[27.0955,38.3896],[27.0952,38.389],[27.099,38.3883],[27.1011,38.3865],[27.1021,38.3868],[27.1037,38.3869],[27.1043,38.3863],[27.1039,38.3862],[27.104,38.3863]]}},{"type":"Feature","properties":{"id":"bus-18-s12441","kind":"busstop","ref":"18","name":"Yeşilyurt","lines":["16","20","579","680"]},"geometry":{"type":"Point","coordinates":[27.10458,38.386]}},{"type":"Feature","properties":{"id":"bus-18-s12439","kind":"busstop","ref":"18","name":"Yadigar Sitesi","lines":["16","20","579","680"]},"geometry":{"type":"Point","coordinates":[27.10241,38.38681]}},{"type":"Feature","properties":{"id":"bus-18-s12430","kind":"busstop","ref":"18","name":"Arap Deresi","lines":["517","523","524","579"]},"geometry":{"type":"Point","coordinates":[27.09987,38.38787]}},{"type":"Feature","properties":{"id":"bus-18-s12428","kind":"busstop","ref":"18","name":"Maliyeciler","lines":["517","523","524","579"]},"geometry":{"type":"Point","coordinates":[27.09702,38.38878]}},{"type":"Feature","properties":{"id":"bus-18-s12344","kind":"busstop","ref":"18","name":"Mermerci","lines":["19","523","524","575","579","879"]},"geometry":{"type":"Point","coordinates":[27.09638,38.39022]}},{"type":"Feature","properties":{"id":"bus-18-s12342","kind":"busstop","ref":"18","name":"Karabağlar Halk Eğitim Merkezi","lines":["19","523","524","575","579","879"]},"geometry":{"type":"Point","coordinates":[27.09774,38.39232]}},{"type":"Feature","properties":{"id":"bus-18-s12340","kind":"busstop","ref":"18","name":"Hasan Tahsin","lines":["19","523","524","575","579","879"]},"geometry":{"type":"Point","coordinates":[27.0995,38.3937]}},{"type":"Feature","properties":{"id":"bus-18-s12338","kind":"busstop","ref":"18","name":"Şehit Erkan Özcan Anadolu Lisesi","lines":["16","520","575","579"]},"geometry":{"type":"Point","coordinates":[27.102,38.3953]}},{"type":"Feature","properties":{"id":"bus-18-s12336","kind":"busstop","ref":"18","name":"Yeşilyurt Devlet Hastanesi","lines":["16","520","575","579"]},"geometry":{"type":"Point","coordinates":[27.10399,38.39634]}},{"type":"Feature","properties":{"id":"bus-18-s12334","kind":"busstop","ref":"18","name":"Fidan","lines":["520","575","579"]},"geometry":{"type":"Point","coordinates":[27.1076,38.3967]}},{"type":"Feature","properties":{"id":"bus-18-s12332","kind":"busstop","ref":"18","name":"Mızraklı","lines":["520","575","579"]},"geometry":{"type":"Point","coordinates":[27.11018,38.39616]}},{"type":"Feature","properties":{"id":"bus-18-s12326","kind":"busstop","ref":"18","name":"Şehit Muzaffer Erdönmez İlkokulu","lines":["575","579"]},"geometry":{"type":"Point","coordinates":[27.1108,38.3947]}},{"type":"Feature","properties":{"id":"bus-18-s12324","kind":"busstop","ref":"18","name":"Yeşilyurt Merkez Cami","lines":["575","579"]},"geometry":{"type":"Point","coordinates":[27.1137,38.3937]}},{"type":"Feature","properties":{"id":"bus-18-s12316","kind":"busstop","ref":"18","name":"Ahmet Ragıp Üzümcü İlkokulu","lines":["20","575","579"]},"geometry":{"type":"Point","coordinates":[27.11723,38.39312]}},{"type":"Feature","properties":{"id":"bus-18-s12308","kind":"busstop","ref":"18","name":"Öztepe","lines":["575","579","879"]},"geometry":{"type":"Point","coordinates":[27.1168,38.395]}},{"type":"Feature","properties":{"id":"bus-18-s12306","kind":"busstop","ref":"18","name":"Defne","lines":["575","579","879"]},"geometry":{"type":"Point","coordinates":[27.1149,38.3962]}},{"type":"Feature","properties":{"id":"bus-18-s12304","kind":"busstop","ref":"18","name":"İzsu","lines":["575","579","879"]},"geometry":{"type":"Point","coordinates":[27.11296,38.39728]}},{"type":"Feature","properties":{"id":"bus-18-s12270","kind":"busstop","ref":"18","name":"Karabağlar Cumhuriyet Mesleki ve Teknik Anadolu Lisesi","lines":["16","19","520","523","524","575","579"]},"geometry":{"type":"Point","coordinates":[27.11216,38.39935]}},{"type":"Feature","properties":{"id":"bus-18-s12268","kind":"busstop","ref":"18","name":"Yeşilyurt İtfaiye","lines":["16","19","520","523","524","575","579"]},"geometry":{"type":"Point","coordinates":[27.1155,38.4016]}},{"type":"Feature","properties":{"id":"bus-18-s10252","kind":"busstop","ref":"18","name":"Üçyol Metro","lines":["16","19","84","89","92","108","124","156","490","522","556","588","681","823","950"]},"geometry":{"type":"Point","coordinates":[27.1213,38.4057]}},{"type":"Feature","properties":{"id":"bus-18-s10248","kind":"busstop","ref":"18","name":"Altıntaş","lines":["15","19","20","152","508","550","587","588","681","887","910","950"]},"geometry":{"type":"Point","coordinates":[27.124,38.407]}},{"type":"Feature","properties":{"id":"bus-18-s10246","kind":"busstop","ref":"18","name":"Bayramyeri","lines":["15","19","20","152","508","550","587","588","681","887","910","950"]},"geometry":{"type":"Point","coordinates":[27.1267,38.4085]}},{"type":"Feature","properties":{"id":"bus-18-s10240","kind":"busstop","ref":"18","name":"Kız Yurdu","lines":["15","19","20","23","29","30","32","33","72","104","105","152","157","171","193","224","233","285","374","465","471","484","485","508","550","587","588","887"]},"geometry":{"type":"Point","coordinates":[27.12721,38.41322]}},{"type":"Feature","properties":{"id":"bus-18-s10242","kind":"busstop","ref":"18","name":"Etnografya Müzesi","lines":["19","20","23"]},"geometry":{"type":"Point","coordinates":[27.1289,38.4146]}},{"type":"Feature","properties":{"id":"bus-18-s10103","kind":"busstop","ref":"18","name":"Belediye Sarayı","lines":["19","20","36","121","202","253","302","466","811","838","910","920","930","940","950"]},"geometry":{"type":"Point","coordinates":[27.1297,38.4214]}},{"type":"Feature","properties":{"id":"bus-18-s10225","kind":"busstop","ref":"18","name":"Mezarlıkbaşı","lines":["19","20","811"]},"geometry":{"type":"Point","coordinates":[27.1371,38.421]}},{"type":"Feature","properties":{"id":"bus-18-s10231","kind":"busstop","ref":"18","name":"Kestelli","lines":["19","20","23","72","104","105","171","234","285","374","465","470","471","484","485","680","681","691","811","910","940","950"]},"geometry":{"type":"Point","coordinates":[27.1348,38.4156]}},{"type":"Feature","properties":{"id":"bus-18-s10233","kind":"busstop","ref":"18","name":"Koruluk","lines":["19","20","681","811"]},"geometry":{"type":"Point","coordinates":[27.1313,38.4125]}},{"type":"Feature","properties":{"id":"bus-18-s10247","kind":"busstop","ref":"18","name":"Bayramyeri","lines":["15","19","20","152","157","508","550","587","588","681","811","887","910","950"]},"geometry":{"type":"Point","coordinates":[27.1267,38.4088]}},{"type":"Feature","properties":{"id":"bus-18-s10251","kind":"busstop","ref":"18","name":"Altıntaş","lines":["15","19","20","152","157","508","550","587","588","681","811","887","910","950"]},"geometry":{"type":"Point","coordinates":[27.1241,38.4073]}},{"type":"Feature","properties":{"id":"bus-18-s10255","kind":"busstop","ref":"18","name":"Üçyol Metro","lines":["19","92","108","490","523","524","575","579","950"]},"geometry":{"type":"Point","coordinates":[27.1209,38.4059]}},{"type":"Feature","properties":{"id":"bus-18-s12267","kind":"busstop","ref":"18","name":"Yeşilyurt İtfaiye","lines":["16","19","490","520","523","524","575","579"]},"geometry":{"type":"Point","coordinates":[27.11552,38.40192]}},{"type":"Feature","properties":{"id":"bus-18-s12269","kind":"busstop","ref":"18","name":"Karabağlar Cumhuriyet Mesleki ve Teknik Anadolu Lisesi","lines":["16","19","490","520","523","524","575","579"]},"geometry":{"type":"Point","coordinates":[27.11266,38.39994]}},{"type":"Feature","properties":{"id":"bus-18-s12303","kind":"busstop","ref":"18","name":"İzsu","lines":["575","579","879"]},"geometry":{"type":"Point","coordinates":[27.11369,38.39689]}},{"type":"Feature","properties":{"id":"bus-18-s12305","kind":"busstop","ref":"18","name":"Defne","lines":["575","579","879"]},"geometry":{"type":"Point","coordinates":[27.1151,38.3959]}},{"type":"Feature","properties":{"id":"bus-18-s12307","kind":"busstop","ref":"18","name":"Öztepe","lines":["575","579","879"]},"geometry":{"type":"Point","coordinates":[27.11755,38.39443]}},{"type":"Feature","properties":{"id":"bus-18-s12315","kind":"busstop","ref":"18","name":"Ahmet Ragıp Üzümcü İlkokulu","lines":["20","575","579"]},"geometry":{"type":"Point","coordinates":[27.1172,38.3932]}},{"type":"Feature","properties":{"id":"bus-18-s12323","kind":"busstop","ref":"18","name":"Yeşilyurt Merkez Cami","lines":["575","579"]},"geometry":{"type":"Point","coordinates":[27.11331,38.39435]}},{"type":"Feature","properties":{"id":"bus-18-s12325","kind":"busstop","ref":"18","name":"Şehit Muzaffer Erdönmez İlkokulu","lines":["575","579"]},"geometry":{"type":"Point","coordinates":[27.11103,38.39477]}},{"type":"Feature","properties":{"id":"bus-18-s12367","kind":"busstop","ref":"18","name":"Mızraklı","lines":["520","575","579"]},"geometry":{"type":"Point","coordinates":[27.11036,38.39582]}},{"type":"Feature","properties":{"id":"bus-18-s12331","kind":"busstop","ref":"18","name":"Fidan","lines":["520","575","579"]},"geometry":{"type":"Point","coordinates":[27.1074,38.3968]}},{"type":"Feature","properties":{"id":"bus-18-s12333","kind":"busstop","ref":"18","name":"Yeşilyurt Devlet Hastanesi","lines":["16","520","575","579"]},"geometry":{"type":"Point","coordinates":[27.104,38.3964]}},{"type":"Feature","properties":{"id":"bus-18-s12335","kind":"busstop","ref":"18","name":"Şehit Erkan Özcan Anadolu Lisesi","lines":["16","520","575","579"]},"geometry":{"type":"Point","coordinates":[27.10221,38.39571]}},{"type":"Feature","properties":{"id":"bus-18-s12337","kind":"busstop","ref":"18","name":"Hasan Tahsin","lines":["19","523","524","575","579","879"]},"geometry":{"type":"Point","coordinates":[27.0998,38.3939]}},{"type":"Feature","properties":{"id":"bus-18-s12339","kind":"busstop","ref":"18","name":"Karabağlar Halk Eğitim Merkezi","lines":["19","523","524","575","579","879"]},"geometry":{"type":"Point","coordinates":[27.09806,38.39287]}},{"type":"Feature","properties":{"id":"bus-18-s12341","kind":"busstop","ref":"18","name":"Mermerci","lines":["19","523","524","575","579","879"]},"geometry":{"type":"Point","coordinates":[27.0962,38.3901]}},{"type":"Feature","properties":{"id":"bus-18-s12427","kind":"busstop","ref":"18","name":"Maliyeciler","lines":["517","523","524","579"]},"geometry":{"type":"Point","coordinates":[27.0965,38.3887]}},{"type":"Feature","properties":{"id":"bus-18-s12429","kind":"busstop","ref":"18","name":"Arap Deresi","lines":["517","523","524","579"]},"geometry":{"type":"Point","coordinates":[27.0997,38.38772]}},{"type":"Feature","properties":{"id":"bus-18-s12440","kind":"busstop","ref":"18","name":"Yadigar Sitesi","lines":["16","20","579","680"]},"geometry":{"type":"Point","coordinates":[27.1025,38.3867]}}]}