{"type":"FeatureCollection","features":[{"type":"Feature","properties":{"id":"bus-19-1","kind":"busline","ref":"19","dir":1},"geometry":{"type":"LineString","coordinates":[[27.0877,38.3896],[27.0876,38.3898],[27.0878,38.3894],[27.0875,38.3885],[27.0867,38.3873],[27.0886,38.387],[27.0903,38.3871],[27.0912,38.3866],[27.0929,38.3874],[27.0954,38.3892],[27.0956,38.3896],[27.0965,38.3904],[27.0973,38.392],[27.0982,38.3929],[27.1017,38.3951],[27.1004,38.3966],[27.1,38.3973],[27.1002,38.3977],[27.101,38.3982],[27.1022,38.3985],[27.1074,38.3983],[27.1092,38.3984],[27.1114,38.3988],[27.1142,38.401],[27.1163,38.4023],[27.117,38.4031],[27.1169,38.4034],[27.1181,38.4039],[27.1208,38.4056],[27.1226,38.4061],[27.1235,38.4069],[27.127,38.4088],[27.1287,38.4107],[27.1287,38.4109],[27.1279,38.4115],[27.1275,38.4123],[27.1277,38.4125],[27.1281,38.4121],[27.1284,38.4121],[27.1284,38.4123],[27.1269,38.4134],[27.1262,38.4136],[27.1282,38.4133],[27.129,38.4139],[27.129,38.4144],[27.1287,38.4149],[27.1288,38.4148]]}},{"type":"Feature","properties":{"id":"bus-19-2","kind":"busline","ref":"19","dir":2},"geometry":{"type":"LineString","coordinates":[[27.1288,38.4148],[27.1289,38.4146],[27.1275,38.4163],[27.1265,38.4169],[27.1265,38.4172],[27.1278,38.419],[27.1283,38.4204],[27.1289,38.4211],[27.1305,38.4219],[27.1311,38.4224],[27.1375,38.4225],[27.1369,38.4204],[27.1367,38.4179],[27.1355,38.4166],[27.1342,38.4143],[27.1334,38.4135],[27.132,38.413],[27.1305,38.4118],[27.1281,38.4105],[27.1269,38.4088],[27.1235,38.4069],[27.1212,38.406],[27.1168,38.4034],[27.1169,38.4031],[27.1159,38.4021],[27.1142,38.4011],[27.1112,38.3989],[27.1086,38.3988],[27.1063,38.3983],[27.1017,38.3985],[27.1005,38.398],[27.0998,38.3974],[27.1017,38.3951],[27.0982,38.3929],[27.0973,38.392],[27.0965,38.3904],[27.0955,38.3896],[27.0952,38.389],[27.0937,38.3879],[27.0917,38.3868],[27.0912,38.3866],[27.0898,38.3874],[27.089,38.3876],[27.0886,38.3885],[27.088,38.3889],[27.0876,38.3898],[27.0877,38.3896]]}},{"type":"Feature","properties":{"id":"bus-19-s12421","kind":"busstop","ref":"19","name":"Şehitler","lines":[]},"geometry":{"type":"Point","coordinates":[27.08741,38.38955]}},{"type":"Feature","properties":{"id":"bus-19-s12422","kind":"busstop","ref":"19","name":"Fırın","lines":[]},"geometry":{"type":"Point","coordinates":[27.0873,38.3881]}},{"type":"Feature","properties":{"id":"bus-19-s12420","kind":"busstop","ref":"19","name":"Yokuş","lines":[]},"geometry":{"type":"Point","coordinates":[27.0887,38.387]}},{"type":"Feature","properties":{"id":"bus-19-s12350","kind":"busstop","ref":"19","name":"Şehit Üsteğmen Sadullah Sever İlkokulu","lines":[]},"geometry":{"type":"Point","coordinates":[27.0911,38.3866]}},{"type":"Feature","properties":{"id":"bus-19-s12348","kind":"busstop","ref":"19","name":"Esendere","lines":[]},"geometry":{"type":"Point","coordinates":[27.093,38.3873]}},{"type":"Feature","properties":{"id":"bus-19-s12346","kind":"busstop","ref":"19","name":"Maliyeciler","lines":[]},"geometry":{"type":"Point","coordinates":[27.0948,38.3886]}},{"type":"Feature","properties":{"id":"bus-19-s12344","kind":"busstop","ref":"19","name":"Mermerci","lines":["18","523","524","575","579","879"]},"geometry":{"type":"Point","coordinates":[27.09638,38.39022]}},{"type":"Feature","properties":{"id":"bus-19-s12342","kind":"busstop","ref":"19","name":"Karabağlar Halk Eğitim Merkezi","lines":["18","523","524","575","579","879"]},"geometry":{"type":"Point","coordinates":[27.09774,38.39232]}},{"type":"Feature","properties":{"id":"bus-19-s12340","kind":"busstop","ref":"19","name":"Hasan Tahsin","lines":["18","523","524","575","579","879"]},"geometry":{"type":"Point","coordinates":[27.0995,38.3937]}},{"type":"Feature","properties":{"id":"bus-19-s12364","kind":"busstop","ref":"19","name":"Şehit Halit Taş Ortaokulu","lines":["16","520","523","524","879"]},"geometry":{"type":"Point","coordinates":[27.10113,38.39591]}},{"type":"Feature","properties":{"id":"bus-19-s12278","kind":"busstop","ref":"19","name":"Basın Sitesi","lines":["16","520","523","524","879"]},"geometry":{"type":"Point","coordinates":[27.1004,38.3976]}},{"type":"Feature","properties":{"id":"bus-19-s12276","kind":"busstop","ref":"19","name":"Yeşilyurt Huzurevi","lines":["16","520","523","524","879"]},"geometry":{"type":"Point","coordinates":[27.10237,38.39844]}},{"type":"Feature","properties":{"id":"bus-19-s12274","kind":"busstop","ref":"19","name":"Yeşilyurt Devlet Hastanesi","lines":["16","520","523","524","879"]},"geometry":{"type":"Point","coordinates":[27.10504,38.3983]}},{"type":"Feature","properties":{"id":"bus-19-s12272","kind":"busstop","ref":"19","name":"Yeşilyurt Çeşme","lines":["16","520","523","524","879"]},"geometry":{"type":"Point","coordinates":[27.10827,38.39831]}},{"type":"Feature","properties":{"id":"bus-19-s12270","kind":"busstop","ref":"19","name":"Karabağlar Cumhuriyet Mesleki ve Teknik Anadolu Lisesi","lines":["16","18","520","523","524","575","579"]},"geometry":{"type":"Point","coordinates":[27.11216,38.39935]}},{"type":"Feature","properties":{"id":"bus-19-s12268","kind":"busstop","ref":"19","name":"Yeşilyurt İtfaiye","lines":["16","18","520","523","524","575","579"]},"geometry":{"type":"Point","coordinates":[27.1155,38.4016]}},{"type":"Feature","properties":{"id":"bus-19-s10252","kind":"busstop","ref":"19","name":"Üçyol Metro","lines":["16","18","84","89","92","108","124","156","490","522","556","588","681","823","950"]},"geometry":{"type":"Point","coordinates":[27.1213,38.4057]}},{"type":"Feature","properties":{"id":"bus-19-s10248","kind":"busstop","ref":"19","name":"Altıntaş","lines":["15","18","20","152","508","550","587","588","681","887","910","950"]},"geometry":{"type":"Point","coordinates":[27.124,38.407]}},{"type":"Feature","properties":{"id":"bus-19-s10246","kind":"busstop","ref":"19","name":"Bayramyeri","lines":["15","18","20","152","508","550","587","588","681","887","910","950"]},"geometry":{"type":"Point","coordinates":[27.1267,38.4085]}},{"type":"Feature","properties":{"id":"bus-19-s10240","kind":"busstop","ref":"19","name":"Kız Yurdu","lines":["15","18","20","23","29","30","32","33","72","104","105","152","157","171","193","224","233","285","374","465","471","484","485","508","550","587","588","887"]},"geometry":{"type":"Point","coordinates":[27.12721,38.41322]}},{"type":"Feature","properties":{"id":"bus-19-s10242","kind":"busstop","ref":"19","name":"Etnografya Müzesi","lines":["18","20","23"]},"geometry":{"type":"Point","coordinates":[27.1289,38.4146]}},{"type":"Feature","properties":{"id":"bus-19-s10103","kind":"busstop","ref":"19","name":"Belediye Sarayı","lines":["18","20","36","121","202","253","302","466","811","838","910","920","930","940","950"]},"geometry":{"type":"Point","coordinates":[27.1297,38.4214]}},{"type":"Feature","properties":{"id":"bus-19-s10225","kind":"busstop","ref":"19","name":"Mezarlıkbaşı","lines":["18","20","811"]},"geometry":{"type":"Point","coordinates":[27.1371,38.421]}},{"type":"Feature","properties":{"id":"bus-19-s10231","kind":"busstop","ref":"19","name":"Kestelli","lines":["18","20","23","72","104","105","171","234","285","374","465","470","471","484","485","680","681","691","811","910","940","950"]},"geometry":{"type":"Point","coordinates":[27.1348,38.4156]}},{"type":"Feature","properties":{"id":"bus-19-s10233","kind":"busstop","ref":"19","name":"Koruluk","lines":["18","20","681","811"]},"geometry":{"type":"Point","coordinates":[27.1313,38.4125]}},{"type":"Feature","properties":{"id":"bus-19-s10247","kind":"busstop","ref":"19","name":"Bayramyeri","lines":["15","18","20","152","157","508","550","587","588","681","811","887","910","950"]},"geometry":{"type":"Point","coordinates":[27.1267,38.4088]}},{"type":"Feature","properties":{"id":"bus-19-s10251","kind":"busstop","ref":"19","name":"Altıntaş","lines":["15","18","20","152","157","508","550","587","588","681","811","887","910","950"]},"geometry":{"type":"Point","coordinates":[27.1241,38.4073]}},{"type":"Feature","properties":{"id":"bus-19-s10255","kind":"busstop","ref":"19","name":"Üçyol Metro","lines":["18","92","108","490","523","524","575","579","950"]},"geometry":{"type":"Point","coordinates":[27.1209,38.4059]}},{"type":"Feature","properties":{"id":"bus-19-s12267","kind":"busstop","ref":"19","name":"Yeşilyurt İtfaiye","lines":["16","18","490","520","523","524","575","579"]},"geometry":{"type":"Point","coordinates":[27.11552,38.40192]}},{"type":"Feature","properties":{"id":"bus-19-s12269","kind":"busstop","ref":"19","name":"Karabağlar Cumhuriyet Mesleki ve Teknik Anadolu Lisesi","lines":["16","18","490","520","523","524","575","579"]},"geometry":{"type":"Point","coordinates":[27.11266,38.39994]}},{"type":"Feature","properties":{"id":"bus-19-s12271","kind":"busstop","ref":"19","name":"Yeşilyurt Çeşme","lines":["16","520","523","524","879"]},"geometry":{"type":"Point","coordinates":[27.1085,38.3988]}},{"type":"Feature","properties":{"id":"bus-19-s16960","kind":"busstop","ref":"19","name":"Yeşilyurt Devlet Hastanesi","lines":["16","520","523","524","879"]},"geometry":{"type":"Point","coordinates":[27.10512,38.39839]}},{"type":"Feature","properties":{"id":"bus-19-s12273","kind":"busstop","ref":"19","name":"Yeşilyurt Devlet Hastanesi 2","lines":["16","520","523","524","879"]},"geometry":{"type":"Point","coordinates":[27.10352,38.39851]}},{"type":"Feature","properties":{"id":"bus-19-s12275","kind":"busstop","ref":"19","name":"Yeşilyurt Huzurevi","lines":["16","520","523","524","879"]},"geometry":{"type":"Point","coordinates":[27.1024,38.39856]}},{"type":"Feature","properties":{"id":"bus-19-s12277","kind":"busstop","ref":"19","name":"Basın Sitesi","lines":["16","520","523","524","879"]},"geometry":{"type":"Point","coordinates":[27.1001,38.3977]}},{"type":"Feature","properties":{"id":"bus-19-s12363","kind":"busstop","ref":"19","name":"Şehit Halit Taş Ortaokulu","lines":["16","520","523","524","879"]},"geometry":{"type":"Point","coordinates":[27.1012,38.3958]}},{"type":"Feature","properties":{"id":"bus-19-s12337","kind":"busstop","ref":"19","name":"Hasan Tahsin","lines":["18","523","524","575","579","879"]},"geometry":{"type":"Point","coordinates":[27.0998,38.3939]}},{"type":"Feature","properties":{"id":"bus-19-s12339","kind":"busstop","ref":"19","name":"Karabağlar Halk Eğitim Merkezi","lines":["18","523","524","575","579","879"]},"geometry":{"type":"Point","coordinates":[27.09806,38.39287]}},{"type":"Feature","properties":{"id":"bus-19-s12341","kind":"busstop","ref":"19","name":"Mermerci","lines":["18","523","524","575","579","879"]},"geometry":{"type":"Point","coordinates":[27.0962,38.3901]}},{"type":"Feature","properties":{"id":"bus-19-s12343","kind":"busstop","ref":"19","name":"Maliyeciler","lines":[]},"geometry":{"type":"Point","coordinates":[27.09471,38.38865]}},{"type":"Feature","properties":{"id":"bus-19-s12345","kind":"busstop","ref":"19","name":"Esendere","lines":[]},"geometry":{"type":"Point","coordinates":[27.0928,38.3873]}},{"type":"Feature","properties":{"id":"bus-19-s12347","kind":"busstop","ref":"19","name":"Şehit Üsteğmen Sadullah Sever İlkokulu","lines":[]},"geometry":{"type":"Point","coordinates":[27.09102,38.38668]}},{"type":"Feature","properties":{"id":"bus-19-s12419","kind":"busstop","ref":"19","name":"Fırın","lines":[]},"geometry":{"type":"Point","coordinates":[27.0889,38.3879]}}]}