{"type":"FeatureCollection","features":[{"type":"Feature","properties":{"id":"bus-193-1","kind":"busline","ref":"193","dir":1},"geometry":{"type":"LineString","coordinates":[[27.0979,38.3604],[27.0979,38.3607],[27.0966,38.3609],[27.0976,38.3614],[27.0978,38.3616],[27.0976,38.3619],[27.0956,38.3628],[27.0952,38.3632],[27.0944,38.3631],[27.094,38.3625],[27.0948,38.3622],[27.0948,38.3617],[27.0954,38.3607],[27.0953,38.3602],[27.0941,38.3607],[27.0937,38.3605],[27.0924,38.3607],[27.0923,38.3609],[27.0926,38.3616],[27.0931,38.3648],[27.0924,38.3644],[27.0919,38.3638],[27.0912,38.3625],[27.0893,38.3616],[27.0871,38.3612],[27.085,38.3622],[27.0863,38.3624],[27.087,38.362],[27.0876,38.362],[27.0894,38.3629],[27.0898,38.3635],[27.0908,38.3641],[27.0913,38.3648],[27.0915,38.3659],[27.0918,38.3662],[27.0924,38.3664],[27.0945,38.3678],[27.0952,38.3679],[27.0975,38.371],[27.1021,38.3743],[27.1026,38.375],[27.1026,38.3757],[27.1034,38.3759],[27.1045,38.3781],[27.1049,38.3783],[27.1056,38.378],[27.1067,38.3773],[27.1072,38.3764],[27.1074,38.3764],[27.1079,38.3769],[27.1089,38.377],[27.11,38.3774],[27.1121,38.3787],[27.113,38.38],[27.1129,38.3807],[27.1133,38.3831],[27.1139,38.3843],[27.1142,38.3842],[27.1143,38.3847],[27.1157,38.3861],[27.1162,38.3881],[27.117,38.3892],[27.1189,38.3892],[27.1196,38.3895],[27.1206,38.3896],[27.1227,38.3903],[27.1254,38.3916],[27.1268,38.3937],[27.1272,38.3962],[27.1279,38.3979],[27.1281,38.399],[27.1289,38.3998],[27.1294,38.4019],[27.1301,38.4022],[27.1294,38.4041],[27.1285,38.4058],[27.1284,38.4077],[27.1289,38.4086],[27.1288,38.4108],[27.1279,38.4115],[27.1275,38.4123],[27.1277,38.4125],[27.1281,38.4121],[27.1284,38.4121],[27.1284,38.4123],[27.1269,38.4134],[27.1262,38.4136],[27.1282,38.4133],[27.1289,38.4137],[27.129,38.4144],[27.1286,38.4151],[27.1276,38.4161],[27.1263,38.4169],[27.1259,38.4168],[27.126,38.4164],[27.1276,38.4157],[27.1274,38.4153],[27.1276,38.415]]}},{"type":"Feature","properties":{"id":"bus-193-2","kind":"busline","ref":"193","dir":2},"geometry":{"type":"LineString","coordinates":[[27.1276,38.415],[27.1281,38.4149],[27.1282,38.4147],[27.1276,38.4143],[27.1265,38.4145],[27.126,38.4145],[27.1257,38.4143],[27.128,38.4136],[27.1279,38.4134],[27.1265,38.4138],[27.1262,38.4136],[27.1269,38.4134],[27.1284,38.4123],[27.1284,38.4121],[27.1281,38.4121],[27.1278,38.4125],[27.1275,38.4123],[27.1279,38.4115],[27.1287,38.4107],[27.1288,38.4087],[27.1284,38.4082],[27.1282,38.4069],[27.1286,38.4052],[27.1291,38.4045],[27.1296,38.403],[27.1288,38.3998],[27.1278,38.3985],[27.127,38.3953],[27.1268,38.3937],[27.1254,38.3916],[27.1227,38.3903],[27.1206,38.3896],[27.1196,38.3895],[27.1189,38.3892],[27.117,38.3892],[27.1162,38.3881],[27.1157,38.3861],[27.1142,38.3845],[27.1139,38.3844],[27.1132,38.3828],[27.1131,38.3812],[27.1126,38.3801],[27.1126,38.3795],[27.1121,38.3787],[27.11,38.3774],[27.1089,38.377],[27.1079,38.3769],[27.1074,38.3766],[27.1067,38.3773],[27.1051,38.3782],[27.105,38.3786],[27.1048,38.3786],[27.1043,38.3779],[27.1034,38.3759],[27.1026,38.3757],[27.1026,38.375],[27.1021,38.3743],[27.0975,38.371],[27.0952,38.3679],[27.0945,38.3678],[27.0924,38.3664],[27.0918,38.3662],[27.0915,38.3659],[27.0913,38.3648],[27.0908,38.3641],[27.0898,38.3635],[27.0894,38.3629],[27.0876,38.362],[27.087,38.362],[27.0863,38.3624],[27.0854,38.3622],[27.0848,38.3623],[27.0871,38.3612],[27.0893,38.3616],[27.0912,38.3625],[27.0919,38.3638],[27.0924,38.3644],[27.0931,38.3648],[27.0926,38.3616],[27.0923,38.3609],[27.0924,38.3607],[27.0937,38.3605],[27.0941,38.3607],[27.0953,38.3602],[27.0954,38.3607],[27.0948,38.3617],[27.0948,38.3622],[27.094,38.3625],[27.0944,38.3631],[27.0952,38.3632],[27.0956,38.3628],[27.0976,38.3619],[27.0978,38.3616],[27.0976,38.3614],[27.0966,38.3609],[27.0979,38.3607],[27.0979,38.3604]]}},{"type":"Feature","properties":{"id":"bus-193-s12800","kind":"busstop","ref":"193","name":"Karabaglar Nene Hatun Mesleki Ve Teknik Anadolu Lisesi","lines":["524"]},"geometry":{"type":"Point","coordinates":[27.09797,38.36043]}},{"type":"Feature","properties":{"id":"bus-193-s12788","kind":"busstop","ref":"193","name":"Yurtoğlu Muhtarlık","lines":["524"]},"geometry":{"type":"Point","coordinates":[27.09752,38.36135]}},{"type":"Feature","properties":{"id":"bus-193-s12796","kind":"busstop","ref":"193","name":"Yurtoğlu Son Durak","lines":["524","873"]},"geometry":{"type":"Point","coordinates":[27.096,38.3627]}},{"type":"Feature","properties":{"id":"bus-193-s12797","kind":"busstop","ref":"193","name":"Yurtoğlu Pazaryeri","lines":["524","873"]},"geometry":{"type":"Point","coordinates":[27.09474,38.36155]}},{"type":"Feature","properties":{"id":"bus-193-s12811","kind":"busstop","ref":"193","name":"Destan Aksoy Parkı","lines":["524","873"]},"geometry":{"type":"Point","coordinates":[27.09425,38.36065]}},{"type":"Feature","properties":{"id":"bus-193-s12804","kind":"busstop","ref":"193","name":"Şehit Egemen Öztürk Ortaokulu","lines":["524","873"]},"geometry":{"type":"Point","coordinates":[27.0927,38.36067]}},{"type":"Feature","properties":{"id":"bus-193-s15623","kind":"busstop","ref":"193","name":"İlkkent","lines":["873"]},"geometry":{"type":"Point","coordinates":[27.09286,38.36301]}},{"type":"Feature","properties":{"id":"bus-193-s12792","kind":"busstop","ref":"193","name":"Muran","lines":["524","873","877"]},"geometry":{"type":"Point","coordinates":[27.0929,38.3647]}},{"type":"Feature","properties":{"id":"bus-193-s16142","kind":"busstop","ref":"193","name":"Kent","lines":["524","873","877"]},"geometry":{"type":"Point","coordinates":[27.09142,38.36289]}},{"type":"Feature","properties":{"id":"bus-193-s12802","kind":"busstop","ref":"193","name":"Yurtoğlu Üçyol","lines":["524","873","877"]},"geometry":{"type":"Point","coordinates":[27.09003,38.36198]}},{"type":"Feature","properties":{"id":"bus-193-s12790","kind":"busstop","ref":"193","name":"Cennetçeşme Beyazıt Cami","lines":["224","524","873","877"]},"geometry":{"type":"Point","coordinates":[27.0872,38.3612]}},{"type":"Feature","properties":{"id":"bus-193-s12542","kind":"busstop","ref":"193","name":"Sacide Ayaz İlk ve Ortaokulu","lines":["224","524","873","877"]},"geometry":{"type":"Point","coordinates":[27.0852,38.3621]}},{"type":"Feature","properties":{"id":"bus-193-s12474","kind":"busstop","ref":"193","name":"Toprak","lines":["224","517","522","524","671"]},"geometry":{"type":"Point","coordinates":[27.088,38.3621]}},{"type":"Feature","properties":{"id":"bus-193-s12472","kind":"busstop","ref":"193","name":"Güzel İzmir Cami","lines":["224","517","522","524","671"]},"geometry":{"type":"Point","coordinates":[27.0908,38.3641]}},{"type":"Feature","properties":{"id":"bus-193-s12470","kind":"busstop","ref":"193","name":"Memiş Kahya","lines":["517","522","524","671","877"]},"geometry":{"type":"Point","coordinates":[27.0929,38.3667]}},{"type":"Feature","properties":{"id":"bus-193-s12468","kind":"busstop","ref":"193","name":"Ali Fuat Erden Mahallesi Muhtarlığı","lines":["522","524","671","877"]},"geometry":{"type":"Point","coordinates":[27.09634,38.36929]}},{"type":"Feature","properties":{"id":"bus-193-s12466","kind":"busstop","ref":"193","name":"Çakırtepe","lines":["522","524","671","877"]},"geometry":{"type":"Point","coordinates":[27.0987,38.3718]}},{"type":"Feature","properties":{"id":"bus-193-s12464","kind":"busstop","ref":"193","name":"Küçük Trafo","lines":["522","524","671","877"]},"geometry":{"type":"Point","coordinates":[27.1011,38.3736]}},{"type":"Feature","properties":{"id":"bus-193-s12462","kind":"busstop","ref":"193","name":"Umut Mahallesi Köprü","lines":["522","524","671","877"]},"geometry":{"type":"Point","coordinates":[27.10373,38.37655]}},{"type":"Feature","properties":{"id":"bus-193-s12460","kind":"busstop","ref":"193","name":"Briketçi","lines":["522","524","671","877"]},"geometry":{"type":"Point","coordinates":[27.10474,38.37816]}},{"type":"Feature","properties":{"id":"bus-193-s12508","kind":"busstop","ref":"193","name":"Yıkık Cami 2","lines":["522","523","587","671","680","877"]},"geometry":{"type":"Point","coordinates":[27.1069,38.3769]}},{"type":"Feature","properties":{"id":"bus-193-s12216","kind":"busstop","ref":"193","name":"Kuyu","lines":["23","224","522","587","671","680","823"]},"geometry":{"type":"Point","coordinates":[27.11087,38.3779]}},{"type":"Feature","properties":{"id":"bus-193-s12214","kind":"busstop","ref":"193","name":"Bayram Kahya","lines":["23","124","587","588","680"]},"geometry":{"type":"Point","coordinates":[27.1131,38.3814]}},{"type":"Feature","properties":{"id":"bus-193-s12212","kind":"busstop","ref":"193","name":"Karaselvi","lines":["23","124","224","522","587","588","680","823","879"]},"geometry":{"type":"Point","coordinates":[27.1152,38.3854]}},{"type":"Feature","properties":{"id":"bus-193-s12210","kind":"busstop","ref":"193","name":"Karakuyu","lines":["23","124","224","522","587","588","680","823","879"]},"geometry":{"type":"Point","coordinates":[27.11616,38.38757]}},{"type":"Feature","properties":{"id":"bus-193-s12208","kind":"busstop","ref":"193","name":"Bozyaka Cami","lines":["23","224","522","588","680","823"]},"geometry":{"type":"Point","coordinates":[27.12069,38.38956]}},{"type":"Feature","properties":{"id":"bus-193-s12206","kind":"busstop","ref":"193","name":"Kestelli","lines":["23","224","522","588","680","823"]},"geometry":{"type":"Point","coordinates":[27.1224,38.3901]}},{"type":"Feature","properties":{"id":"bus-193-s12204","kind":"busstop","ref":"193","name":"Zincirlikuyu","lines":["23","224","522","550","556","588","680","823"]},"geometry":{"type":"Point","coordinates":[27.1259,38.3922]}},{"type":"Feature","properties":{"id":"bus-193-s12202","kind":"busstop","ref":"193","name":"Narlık","lines":["23","89","224","522","550","556","588","680","823"]},"geometry":{"type":"Point","coordinates":[27.1268,38.3936]}},{"type":"Feature","properties":{"id":"bus-193-s12200","kind":"busstop","ref":"193","name":"Kilimci Tepe","lines":["23","89","224","522","550","556","588","680","823"]},"geometry":{"type":"Point","coordinates":[27.1274,38.3962]}},{"type":"Feature","properties":{"id":"bus-193-s12198","kind":"busstop","ref":"193","name":"Yağhaneler 3","lines":["23","157","224","680","691"]},"geometry":{"type":"Point","coordinates":[27.1293,38.4013]}},{"type":"Feature","properties":{"id":"bus-193-s12062","kind":"busstop","ref":"193","name":"Yağhaneler","lines":["23","157","224","234","470","680","691"]},"geometry":{"type":"Point","coordinates":[27.12912,38.40463]}},{"type":"Feature","properties":{"id":"bus-193-s12058","kind":"busstop","ref":"193","name":"Eşrefpaşa","lines":["23","29","30","32","33","72","104","105","157","171","224","233","285","374","465","471","484","485","940"]},"geometry":{"type":"Point","coordinates":[27.1288,38.4083]}},{"type":"Feature","properties":{"id":"bus-193-s10240","kind":"busstop","ref":"193","name":"Kız Yurdu","lines":["15","18","19","20","23","29","30","32","33","72","104","105","152","157","171","224","233","285","374","465","471","484","485","508","550","587","588","887"]},"geometry":{"type":"Point","coordinates":[27.12721,38.41322]}},{"type":"Feature","properties":{"id":"bus-193-s10012","kind":"busstop","ref":"193","name":"Bahribaba","lines":[]},"geometry":{"type":"Point","coordinates":[27.12725,38.41517]}},{"type":"Feature","properties":{"id":"bus-193-s10241","kind":"busstop","ref":"193","name":"Kız Yurdu","lines":["15","29","30","32","33","152","157","224","233","508","550","587","588","887"]},"geometry":{"type":"Point","coordinates":[27.12728,38.41293]}},{"type":"Feature","properties":{"id":"bus-193-s12061","kind":"busstop","ref":"193","name":"Eşrefpaşa","lines":["23","224","680","691"]},"geometry":{"type":"Point","coordinates":[27.1283,38.4076]}},{"type":"Feature","properties":{"id":"bus-193-s12063","kind":"busstop","ref":"193","name":"Yağhaneler","lines":["23","224","234","680","691"]},"geometry":{"type":"Point","coordinates":[27.12935,38.40331]}},{"type":"Feature","properties":{"id":"bus-193-s12199","kind":"busstop","ref":"193","name":"Kilimci Tepe","lines":["23","89","224","522","550","556","588","680","823"]},"geometry":{"type":"Point","coordinates":[27.12713,38.39615]}},{"type":"Feature","properties":{"id":"bus-193-s12201","kind":"busstop","ref":"193","name":"Narlık","lines":["23","89","224","522","550","556","588","680","823"]},"geometry":{"type":"Point","coordinates":[27.12662,38.39351]}},{"type":"Feature","properties":{"id":"bus-193-s12203","kind":"busstop","ref":"193","name":"Zincirlikuyu","lines":["23","224","522","588","680","823"]},"geometry":{"type":"Point","coordinates":[27.1245,38.3912]}},{"type":"Feature","properties":{"id":"bus-193-s12205","kind":"busstop","ref":"193","name":"Kestelli","lines":["23","224","522","588","680","823"]},"geometry":{"type":"Point","coordinates":[27.12187,38.39008]}},{"type":"Feature","properties":{"id":"bus-193-s12207","kind":"busstop","ref":"193","name":"Bozyaka Cami","lines":["23","224","522","588","680","823"]},"geometry":{"type":"Point","coordinates":[27.11989,38.38953]}},{"type":"Feature","properties":{"id":"bus-193-s12209","kind":"busstop","ref":"193","name":"Karakuyu","lines":["23","124","224","522","587","588","680","823","879"]},"geometry":{"type":"Point","coordinates":[27.1159,38.3872]}},{"type":"Feature","properties":{"id":"bus-193-s12211","kind":"busstop","ref":"193","name":"Karaselvi","lines":["23","124","224","522","587","588","680","823","879"]},"geometry":{"type":"Point","coordinates":[27.1147,38.3851]}},{"type":"Feature","properties":{"id":"bus-193-s12213","kind":"busstop","ref":"193","name":"Bayram Kahya","lines":["23","124","587","588","680"]},"geometry":{"type":"Point","coordinates":[27.11289,38.38077]}},{"type":"Feature","properties":{"id":"bus-193-s12215","kind":"busstop","ref":"193","name":"Kuyu","lines":["23","224","522","587","671","680","823"]},"geometry":{"type":"Point","coordinates":[27.1106,38.3778]}},{"type":"Feature","properties":{"id":"bus-193-s12509","kind":"busstop","ref":"193","name":"Yıkık Cami 2","lines":["522","523","587","671","680","877"]},"geometry":{"type":"Point","coordinates":[27.107,38.377]}},{"type":"Feature","properties":{"id":"bus-193-s12461","kind":"busstop","ref":"193","name":"Briketçi","lines":["522","524","671","877"]},"geometry":{"type":"Point","coordinates":[27.1045,38.3781]}},{"type":"Feature","properties":{"id":"bus-193-s12463","kind":"busstop","ref":"193","name":"Umut Mahallesi Köprü","lines":["522","524","671","877"]},"geometry":{"type":"Point","coordinates":[27.1037,38.3766]}},{"type":"Feature","properties":{"id":"bus-193-s12465","kind":"busstop","ref":"193","name":"Küçük Trafo","lines":["522","524","671","877"]},"geometry":{"type":"Point","coordinates":[27.10115,38.37374]}},{"type":"Feature","properties":{"id":"bus-193-s12467","kind":"busstop","ref":"193","name":"Çakırtepe","lines":["522","524","671","877"]},"geometry":{"type":"Point","coordinates":[27.0987,38.3719]}},{"type":"Feature","properties":{"id":"bus-193-s12469","kind":"busstop","ref":"193","name":"Ali Fuat Erden Mahallesi Muhtarlığı","lines":["517","522","524","671","877"]},"geometry":{"type":"Point","coordinates":[27.0962,38.3693]}},{"type":"Feature","properties":{"id":"bus-193-s12471","kind":"busstop","ref":"193","name":"Memiş Kahya","lines":["517","522","524","671","877"]},"geometry":{"type":"Point","coordinates":[27.0931,38.3669]}},{"type":"Feature","properties":{"id":"bus-193-s12473","kind":"busstop","ref":"193","name":"Güzel İzmir Cami","lines":["224","517","522","524","671"]},"geometry":{"type":"Point","coordinates":[27.0908,38.3642]}},{"type":"Feature","properties":{"id":"bus-193-s12475","kind":"busstop","ref":"193","name":"Toprak","lines":["224","517","522","524","671"]},"geometry":{"type":"Point","coordinates":[27.0879,38.3622]}},{"type":"Feature","properties":{"id":"bus-193-s12541","kind":"busstop","ref":"193","name":"Sacide Ayaz İlk ve Ortaokulu","lines":["224","524","873","877"]},"geometry":{"type":"Point","coordinates":[27.0853,38.362]}},{"type":"Feature","properties":{"id":"bus-193-s12789","kind":"busstop","ref":"193","name":"Cennetçeşme Beyazıt Cami","lines":["224","524","873","877"]},"geometry":{"type":"Point","coordinates":[27.0872,38.36118]}},{"type":"Feature","properties":{"id":"bus-193-s12801","kind":"busstop","ref":"193","name":"Yurtoğlu Üçyol","lines":["524","873","877"]},"geometry":{"type":"Point","coordinates":[27.08955,38.3617]}},{"type":"Feature","properties":{"id":"bus-193-s16178","kind":"busstop","ref":"193","name":"Kent","lines":["524","873"]},"geometry":{"type":"Point","coordinates":[27.0916,38.36293]}},{"type":"Feature","properties":{"id":"bus-193-s12791","kind":"busstop","ref":"193","name":"Muran","lines":["524","873","877"]},"geometry":{"type":"Point","coordinates":[27.0928,38.3645]}},{"type":"Feature","properties":{"id":"bus-193-s12805","kind":"busstop","ref":"193","name":"İlkkent","lines":["873"]},"geometry":{"type":"Point","coordinates":[27.09283,38.36332]}},{"type":"Feature","properties":{"id":"bus-193-s12807","kind":"busstop","ref":"193","name":"Şehit Egemen Öztürk Ortaokulu","lines":["873"]},"geometry":{"type":"Point","coordinates":[27.09283,38.36062]}},{"type":"Feature","properties":{"id":"bus-193-s12808","kind":"busstop","ref":"193","name":"Destan Aksoy Parkı","lines":["524","873"]},"geometry":{"type":"Point","coordinates":[27.09427,38.36051]}},{"type":"Feature","properties":{"id":"bus-193-s12798","kind":"busstop","ref":"193","name":"Yurtoğlu Pazaryeri","lines":["524","873"]},"geometry":{"type":"Point","coordinates":[27.0949,38.3617]}},{"type":"Feature","properties":{"id":"bus-193-s12787","kind":"busstop","ref":"193","name":"Yurtoğlu Muhtarlık","lines":["524"]},"geometry":{"type":"Point","coordinates":[27.09751,38.36146]}}]}