{"type":"FeatureCollection","features":[{"type":"Feature","properties":{"id":"bus-200-1","kind":"busline","ref":"200","dir":1},"geometry":{"type":"LineString","coordinates":[[27.0837,38.481],[27.0838,38.4809],[27.0836,38.4812],[27.0832,38.4812],[27.0813,38.482],[27.0762,38.4815],[27.0757,38.4811],[27.0758,38.478],[27.0756,38.4777],[27.0758,38.4758],[27.0736,38.4757],[27.0733,38.4755],[27.0734,38.4751],[27.0739,38.4748],[27.074,38.4723],[27.0756,38.4723],[27.0754,38.4722],[27.0754,38.4695],[27.0796,38.4694],[27.0809,38.4684],[27.0811,38.4682],[27.08,38.4673],[27.0801,38.4668],[27.0806,38.4664],[27.082,38.4658],[27.0822,38.4653],[27.0884,38.4592],[27.0904,38.4576],[27.0937,38.456],[27.098,38.4544],[27.1053,38.4509],[27.1088,38.4501],[27.1115,38.4497],[27.1162,38.4522],[27.1175,38.4536],[27.1198,38.4553],[27.1205,38.4556],[27.1234,38.4557],[27.1239,38.4559],[27.1265,38.4597],[27.1279,38.4613],[27.128,38.4624],[27.1294,38.4639],[27.1298,38.4652],[27.1304,38.4657],[27.1396,38.4649],[27.1415,38.4649],[27.1437,38.4654],[27.1528,38.4683],[27.1555,38.4686],[27.1568,38.4684],[27.1596,38.4671],[27.1611,38.4659],[27.1619,38.4651],[27.1625,38.4641],[27.1632,38.4635],[27.171,38.4486],[27.1715,38.4464],[27.1708,38.4428],[27.1699,38.4411],[27.1678,38.4391],[27.1628,38.4356],[27.1566,38.4301],[27.1525,38.427],[27.1519,38.4262],[27.1517,38.4252],[27.1524,38.4229],[27.153,38.4215],[27.1539,38.4202],[27.1561,38.4146],[27.1562,38.413],[27.156,38.4122],[27.1554,38.4111],[27.1544,38.4103],[27.1537,38.41],[27.1479,38.4088],[27.1459,38.4081],[27.1448,38.4075],[27.1441,38.4067],[27.1439,38.4062],[27.1439,38.4048],[27.1435,38.403],[27.143,38.4021],[27.1415,38.4007],[27.1399,38.3997],[27.1392,38.399],[27.1387,38.3982],[27.1382,38.3966],[27.1376,38.3957],[27.1353,38.3945],[27.1348,38.3939],[27.1346,38.3933],[27.1345,38.3846],[27.1347,38.3843],[27.1348,38.3737],[27.137,38.3656],[27.1373,38.3641],[27.1373,38.3621],[27.137,38.3609],[27.1343,38.3561],[27.1338,38.3549],[27.1335,38.3536],[27.1335,38.3502],[27.1326,38.3478],[27.1323,38.3461],[27.1333,38.3428],[27.1333,38.3395],[27.134,38.3349],[27.1347,38.3323],[27.1357,38.3298],[27.1369,38.323],[27.1384,38.3194],[27.1414,38.3155],[27.142,38.3133],[27.1424,38.3099],[27.1423,38.3083],[27.142,38.3071],[27.1414,38.3058],[27.1408,38.3053],[27.1408,38.3055],[27.1405,38.3054],[27.1406,38.3052],[27.1395,38.3026],[27.1391,38.3011],[27.1392,38.299],[27.1395,38.2989],[27.1396,38.2991],[27.1399,38.2991],[27.1415,38.2986],[27.1424,38.298],[27.1432,38.2966],[27.1432,38.2946],[27.1446,38.2908],[27.1457,38.291],[27.146,38.2903],[27.1466,38.2896],[27.1485,38.2899],[27.1487,38.2901],[27.1481,38.293],[27.1472,38.296],[27.1465,38.2965],[27.145,38.2962],[27.1444,38.2957],[27.1475,38.2948]]}},{"type":"Feature","properties":{"id":"bus-200-2","kind":"busline","ref":"200","dir":2},"geometry":{"type":"LineString","coordinates":[[27.1485,38.2913],[27.1487,38.2901],[27.1481,38.293],[27.1472,38.296],[27.1468,38.2964],[27.1465,38.2965],[27.1454,38.2963],[27.1446,38.296],[27.1444,38.2957],[27.1447,38.2945],[27.1436,38.2943],[27.1434,38.2949],[27.1435,38.2963],[27.1402,38.3021],[27.1401,38.3032],[27.1403,38.3038],[27.1416,38.3058],[27.1422,38.3071],[27.1426,38.3086],[27.1425,38.313],[27.1415,38.3157],[27.139,38.3188],[27.1377,38.3211],[27.1373,38.3222],[27.1361,38.329],[27.1346,38.3333],[27.134,38.3366],[27.1341,38.337],[27.1334,38.3396],[27.1334,38.3432],[27.1325,38.3461],[27.1327,38.3475],[27.1338,38.3506],[27.1339,38.3535],[27.1342,38.355],[27.1368,38.3598],[27.1374,38.3613],[27.1376,38.3626],[27.1376,38.364],[27.1372,38.3658],[27.1351,38.3734],[27.135,38.3842],[27.1347,38.393],[27.1355,38.3945],[27.1363,38.395],[27.1375,38.3954],[27.1379,38.3958],[27.1382,38.3962],[27.1388,38.3982],[27.1392,38.3988],[27.1428,38.4016],[27.1435,38.4026],[27.1438,38.4035],[27.1442,38.4051],[27.1441,38.406],[27.1443,38.4066],[27.1451,38.4075],[27.1474,38.4084],[27.1486,38.4085],[27.151,38.4093],[27.1533,38.4096],[27.1549,38.4104],[27.1558,38.4114],[27.1564,38.4133],[27.1562,38.4149],[27.1544,38.4195],[27.1531,38.4217],[27.1523,38.4237],[27.1519,38.425],[27.1519,38.426],[27.1523,38.4266],[27.1567,38.43],[27.1604,38.4334],[27.1638,38.4362],[27.1689,38.4398],[27.1701,38.4411],[27.1711,38.4427],[27.1725,38.4442],[27.1727,38.4448],[27.1726,38.4455],[27.1719,38.4463],[27.1712,38.4484],[27.169,38.4528],[27.1648,38.4607],[27.1643,38.462],[27.1627,38.4646],[27.1603,38.4669],[27.1588,38.4678],[27.1569,38.4685],[27.1557,38.4687],[27.1544,38.4687],[27.1518,38.4682],[27.1433,38.4654],[27.1415,38.465],[27.139,38.465],[27.1336,38.4656],[27.1323,38.4664],[27.131,38.4664],[27.1301,38.466],[27.1298,38.4656],[27.1293,38.4639],[27.1277,38.4622],[27.1276,38.4611],[27.1266,38.46],[27.124,38.4561],[27.1209,38.4559],[27.1201,38.4556],[27.1176,38.4539],[27.1155,38.4519],[27.1116,38.4498],[27.1059,38.4508],[27.0971,38.455],[27.0912,38.4573],[27.0885,38.4593],[27.0824,38.4653],[27.0822,38.466],[27.0806,38.4664],[27.0801,38.4668],[27.08,38.4673],[27.0811,38.4682],[27.0809,38.4684],[27.0796,38.4694],[27.0755,38.4696],[27.0754,38.4719],[27.0758,38.4724],[27.0758,38.4748],[27.0762,38.4751],[27.0762,38.4755],[27.0759,38.4757],[27.076,38.4778],[27.0757,38.4811],[27.0762,38.4815],[27.0804,38.482],[27.0821,38.4817],[27.083,38.4813],[27.0865,38.4777],[27.0866,38.4779],[27.0851,38.4792],[27.0836,38.4812],[27.0837,38.481]]}},{"type":"Feature","properties":{"id":"bus-200-s22190","kind":"busstop","ref":"200","name":"Mavişehir Aktarma Merkezi","lines":["121","821"]},"geometry":{"type":"Point","coordinates":[27.0837,38.481]}},{"type":"Feature","properties":{"id":"bus-200-s22058","kind":"busstop","ref":"200","name":"Albayrak Mavişehir Evleri","lines":["121","821"]},"geometry":{"type":"Point","coordinates":[27.08161,38.48198]}},{"type":"Feature","properties":{"id":"bus-200-s22054","kind":"busstop","ref":"200","name":"Bayrak","lines":["121","821"]},"geometry":{"type":"Point","coordinates":[27.07723,38.48171]}},{"type":"Feature","properties":{"id":"bus-200-s22052","kind":"busstop","ref":"200","name":"Fotoğraf Müzesi","lines":["121","821"]},"geometry":{"type":"Point","coordinates":[27.07571,38.47914]}},{"type":"Feature","properties":{"id":"bus-200-s22050","kind":"busstop","ref":"200","name":"Soyak","lines":["121","821"]},"geometry":{"type":"Point","coordinates":[27.0757,38.47662]}},{"type":"Feature","properties":{"id":"bus-200-s20384","kind":"busstop","ref":"200","name":"Süleyman Demirel Lisesi","lines":["121","777","821"]},"geometry":{"type":"Point","coordinates":[27.0738,38.4738]}},{"type":"Feature","properties":{"id":"bus-200-s20382","kind":"busstop","ref":"200","name":"Pamukkale Sitesi 2","lines":[]},"geometry":{"type":"Point","coordinates":[27.07536,38.46989]}},{"type":"Feature","properties":{"id":"bus-200-s20356","kind":"busstop","ref":"200","name":"Mavişehir Dört Yol","lines":["121","777","821"]},"geometry":{"type":"Point","coordinates":[27.0764,38.4694]}},{"type":"Feature","properties":{"id":"bus-200-s20354","kind":"busstop","ref":"200","name":"Pamukkale Sitesi","lines":["121","777","821"]},"geometry":{"type":"Point","coordinates":[27.0785,38.4694]}},{"type":"Feature","properties":{"id":"bus-200-s20352","kind":"busstop","ref":"200","name":"Spor Merkezi","lines":["121","777","821"]},"geometry":{"type":"Point","coordinates":[27.081,38.4682]}},{"type":"Feature","properties":{"id":"bus-200-s20196","kind":"busstop","ref":"200","name":"Beşikçioğlu Cami","lines":["121","229","322","423","428","429","442","443","445","446","447","595","777","820","821","827"]},"geometry":{"type":"Point","coordinates":[27.0844,38.4631]}},{"type":"Feature","properties":{"id":"bus-200-s20194","kind":"busstop","ref":"200","name":"Bostanlı Pazaryeri","lines":["121","229","322","423","428","429","442","443","445","446","447","595","777","820","821","827"]},"geometry":{"type":"Point","coordinates":[27.0869,38.4606]}},{"type":"Feature","properties":{"id":"bus-200-s20198","kind":"busstop","ref":"200","name":"Bostanlı Market","lines":["121","229","322","423","428","429","442","443","445","446","447","595","777","820","821","827"]},"geometry":{"type":"Point","coordinates":[27.0913,38.4571]}},{"type":"Feature","properties":{"id":"bus-200-s20172","kind":"busstop","ref":"200","name":"Bostanlı İskele","lines":["121","777"]},"geometry":{"type":"Point","coordinates":[27.09764,38.45429]}},{"type":"Feature","properties":{"id":"bus-200-s20154","kind":"busstop","ref":"200","name":"Osman Bey Parkı","lines":["121","126","135","136","137","197","222","258","290","326","330","361","487","543","741","742","777","847","853","920"]},"geometry":{"type":"Point","coordinates":[27.1187,38.4545]}},{"type":"Feature","properties":{"id":"bus-200-s23600","kind":"busstop","ref":"200","name":"Karşıyaka İskele","lines":["121","212","213","290","330","543","777"]},"geometry":{"type":"Point","coordinates":[27.12269,38.45564]}},{"type":"Feature","properties":{"id":"bus-200-s20148","kind":"busstop","ref":"200","name":"Muammer Aksoy Parkı","lines":["121","196","290","330","543","920"]},"geometry":{"type":"Point","coordinates":[27.125,38.45729]}},{"type":"Feature","properties":{"id":"bus-200-s20146","kind":"busstop","ref":"200","name":" Selçuk Yaşar Alaybey Ortaokulu","lines":["121","196","290","330","543","920"]},"geometry":{"type":"Point","coordinates":[27.1265,38.4596]}},{"type":"Feature","properties":{"id":"bus-200-s20144","kind":"busstop","ref":"200","name":"Tersane","lines":["121","196","290","330","543","920"]},"geometry":{"type":"Point","coordinates":[27.12804,38.46159]}},{"type":"Feature","properties":{"id":"bus-200-s20060","kind":"busstop","ref":"200","name":"Turan","lines":["77","78","121","125","140","147","148","213","240","290","330","335","426","434","477","543","577","602","608","660","800","912","920"]},"geometry":{"type":"Point","coordinates":[27.1503,38.4675]}},{"type":"Feature","properties":{"id":"bus-200-s20134","kind":"busstop","ref":"200","name":"Bayraklı Üst Geçit","lines":["102","121","213","290","330","501","502","504","543","602","608","660","662","800","912","920"]},"geometry":{"type":"Point","coordinates":[27.1625,38.4641]}},{"type":"Feature","properties":{"id":"bus-200-s11853","kind":"busstop","ref":"200","name":"Yenişehir Pazar Yeri","lines":["36","515","539"]},"geometry":{"type":"Point","coordinates":[27.1545,38.4186]}},{"type":"Feature","properties":{"id":"bus-200-s11855","kind":"busstop","ref":"200","name":"Yenişehir Üst Geçit","lines":["36","515","539"]},"geometry":{"type":"Point","coordinates":[27.1561,38.4133]}},{"type":"Feature","properties":{"id":"bus-200-s11857","kind":"busstop","ref":"200","name":"Yeşildere","lines":["36","234","515","539"]},"geometry":{"type":"Point","coordinates":[27.14442,38.40723]}},{"type":"Feature","properties":{"id":"bus-200-s15604","kind":"busstop","ref":"200","name":"Tünel İşletme Şefliği","lines":["234","417","515","539"]},"geometry":{"type":"Point","coordinates":[27.13916,38.39903]}},{"type":"Feature","properties":{"id":"bus-200-s11859","kind":"busstop","ref":"200","name":"Buca Köprüsü","lines":["539"]},"geometry":{"type":"Point","coordinates":[27.13542,38.39468]}},{"type":"Feature","properties":{"id":"bus-200-s10625","kind":"busstop","ref":"200","name":"Hasan Hüseyinler","lines":["92","108","152","156","157","508","539","691","887","910"]},"geometry":{"type":"Point","coordinates":[27.13444,38.39212]}},{"type":"Feature","properties":{"id":"bus-200-s10629","kind":"busstop","ref":"200","name":"Orcaner","lines":["92","108","152","156","157","508","539","691","887","910"]},"geometry":{"type":"Point","coordinates":[27.13442,38.38686]}},{"type":"Feature","properties":{"id":"bus-200-s10631","kind":"busstop","ref":"200","name":"Çitlenbik","lines":["92","152","156","157","508","539","691","887","910"]},"geometry":{"type":"Point","coordinates":[27.13454,38.38229]}},{"type":"Feature","properties":{"id":"bus-200-s10633","kind":"busstop","ref":"200","name":"Kaymakkuyu","lines":["92","152","508","539","691","887","910"]},"geometry":{"type":"Point","coordinates":[27.13458,38.37826]}},{"type":"Feature","properties":{"id":"bus-200-s10635","kind":"busstop","ref":"200","name":"Karabağlar Cumhuriyet Anadolu Lisesi","lines":["92","152","508","539","691","887","910"]},"geometry":{"type":"Point","coordinates":[27.13479,38.37334]}},{"type":"Feature","properties":{"id":"bus-200-s10637","kind":"busstop","ref":"200","name":"Kızılcık","lines":["152","508","539","691","887","910"]},"geometry":{"type":"Point","coordinates":[27.1356,38.3701]}},{"type":"Feature","properties":{"id":"bus-200-s10639","kind":"busstop","ref":"200","name":"Paşa Köprüsü","lines":["152","508","539","691","887","910"]},"geometry":{"type":"Point","coordinates":[27.13631,38.36751]}},{"type":"Feature","properties":{"id":"bus-200-s10641","kind":"busstop","ref":"200","name":"Karabağlar","lines":["152","508","539","691","887","910"]},"geometry":{"type":"Point","coordinates":[27.13711,38.36416]}},{"type":"Feature","properties":{"id":"bus-200-s10651","kind":"busstop","ref":"200","name":"Sinem","lines":["152","485","508","539","691","887","910"]},"geometry":{"type":"Point","coordinates":[27.1363,38.3596]}},{"type":"Feature","properties":{"id":"bus-200-s10653","kind":"busstop","ref":"200","name":"Gaziemir Semt Garajı","lines":["152","508","539","610","691","823","828","877","879","887","891","910"]},"geometry":{"type":"Point","coordinates":[27.13479,38.35704]}},{"type":"Feature","properties":{"id":"bus-200-s10655","kind":"busstop","ref":"200","name":"Emrez","lines":["152","508","539","610","691","823","828","877","879","887","891","910"]},"geometry":{"type":"Point","coordinates":[27.134,38.3555]}},{"type":"Feature","properties":{"id":"bus-200-s10657","kind":"busstop","ref":"200","name":"Aktepe","lines":["152","508","539","610","691","823","828","877","879","887","891","910"]},"geometry":{"type":"Point","coordinates":[27.1334,38.3518]}},{"type":"Feature","properties":{"id":"bus-200-s10659","kind":"busstop","ref":"200","name":"Altıncı Sanayi Kavşağı","lines":["202","204","206","510","697","806","858","910"]},"geometry":{"type":"Point","coordinates":[27.1331,38.3408]}},{"type":"Feature","properties":{"id":"bus-200-s10661","kind":"busstop","ref":"200","name":"Ege Serbest Bölge","lines":["152","202","204","206","353","508","510","691","697","806","808","858","887","891","910"]},"geometry":{"type":"Point","coordinates":[27.13378,38.33572]}},{"type":"Feature","properties":{"id":"bus-200-s10663","kind":"busstop","ref":"200","name":"Leylak","lines":["152","202","204","206","353","508","510","691","697","806","808","858","887","891","910"]},"geometry":{"type":"Point","coordinates":[27.1352,38.3309]}},{"type":"Feature","properties":{"id":"bus-200-s10665","kind":"busstop","ref":"200","name":"Ulaştırma","lines":["152","202","204","206","353","508","510","691","697","806","808","858","887","891","910"]},"geometry":{"type":"Point","coordinates":[27.136,38.3282]}},{"type":"Feature","properties":{"id":"bus-200-s10667","kind":"busstop","ref":"200","name":"Gaziemir Alt Geçidi","lines":["202","204","206","508","697","806","808","858","887"]},"geometry":{"type":"Point","coordinates":[27.1366,38.3247]}},{"type":"Feature","properties":{"id":"bus-200-s10669","kind":"busstop","ref":"200","name":"Kolej","lines":["202","204","206","508","697","806","808","858","887"]},"geometry":{"type":"Point","coordinates":[27.1376,38.3209]}},{"type":"Feature","properties":{"id":"bus-200-s10671","kind":"busstop","ref":"200","name":"Gaziemir İlçe Emniyet","lines":["202","204","206","508","697","806","808","858","887"]},"geometry":{"type":"Point","coordinates":[27.1404,38.3167]}},{"type":"Feature","properties":{"id":"bus-200-s10675","kind":"busstop","ref":"200","name":"Emlak Bankası Evleri","lines":["202","204","206","508","697","806","808","858"]},"geometry":{"type":"Point","coordinates":[27.14233,38.30909]}},{"type":"Feature","properties":{"id":"bus-200-s10677","kind":"busstop","ref":"200","name":"Seçkinler Sitesi","lines":["202","204","206","508","697","806","808","858"]},"geometry":{"type":"Point","coordinates":[27.1415,38.3061]}},{"type":"Feature","properties":{"id":"bus-200-s10909","kind":"busstop","ref":"200","name":"Tasiş Ambar","lines":["508","808"]},"geometry":{"type":"Point","coordinates":[27.13915,38.30181]}},{"type":"Feature","properties":{"id":"bus-200-s13018","kind":"busstop","ref":"200","name":"Havalimanı İç Hatlar Geliş","lines":["202","204","206"]},"geometry":{"type":"Point","coordinates":[27.1488,38.2914]}},{"type":"Feature","properties":{"id":"bus-200-s13016","kind":"busstop","ref":"200","name":"Havalimanı Dış Hatlar Geliş","lines":["202","204","206"]},"geometry":{"type":"Point","coordinates":[27.1476,38.2948]}},{"type":"Feature","properties":{"id":"bus-200-s10676","kind":"busstop","ref":"200","name":"Seçkinler Sitesi","lines":["202","204","206","508","697","806","808","858"]},"geometry":{"type":"Point","coordinates":[27.1418,38.3061]}},{"type":"Feature","properties":{"id":"bus-200-s10674","kind":"busstop","ref":"200","name":"Emlak Bankası Evleri","lines":["202","204","206","508","697","806","808","858"]},"geometry":{"type":"Point","coordinates":[27.1426,38.3087]}},{"type":"Feature","properties":{"id":"bus-200-s10679","kind":"busstop","ref":"200","name":"Akçay","lines":["202","204","206","508","697","806","808","858"]},"geometry":{"type":"Point","coordinates":[27.14259,38.31087]}},{"type":"Feature","properties":{"id":"bus-200-s10670","kind":"busstop","ref":"200","name":"Gaziemir İlçe Emniyet","lines":["202","204","206","508","697","806","808","858","887"]},"geometry":{"type":"Point","coordinates":[27.1406,38.3169]}},{"type":"Feature","properties":{"id":"bus-200-s10668","kind":"busstop","ref":"200","name":"Kolej","lines":["202","204","206","508","697","806","808","858","887"]},"geometry":{"type":"Point","coordinates":[27.1379,38.3209]}},{"type":"Feature","properties":{"id":"bus-200-s10666","kind":"busstop","ref":"200","name":"Askeri Lojmanlar","lines":["202","204","206","508","697","806","808","858","887"]},"geometry":{"type":"Point","coordinates":[27.1371,38.3237]}},{"type":"Feature","properties":{"id":"bus-200-s10664","kind":"busstop","ref":"200","name":"Ulaştırma","lines":["152","202","204","206","353","508","510","691","697","806","808","858","887","891","910"]},"geometry":{"type":"Point","coordinates":[27.13592,38.32971]}},{"type":"Feature","properties":{"id":"bus-200-s10662","kind":"busstop","ref":"200","name":"Leylak","lines":["152","202","204","206","353","508","510","691","697","806","808","858","887","891","910"]},"geometry":{"type":"Point","coordinates":[27.1348,38.3331]}},{"type":"Feature","properties":{"id":"bus-200-s10660","kind":"busstop","ref":"200","name":"Ege Serbest Bölge","lines":["152","202","204","206","353","508","510","691","697","806","808","828","858","887","891","910"]},"geometry":{"type":"Point","coordinates":[27.134,38.3372]}},{"type":"Feature","properties":{"id":"bus-200-s10656","kind":"busstop","ref":"200","name":"Aktepe","lines":["152","508","539","610","691","823","828","877","879","887","891","910"]},"geometry":{"type":"Point","coordinates":[27.134,38.3526]}},{"type":"Feature","properties":{"id":"bus-200-s10654","kind":"busstop","ref":"200","name":"Gaziemir Semt Garajı","lines":["152","539","691","887","910"]},"geometry":{"type":"Point","coordinates":[27.13562,38.3573]}},{"type":"Feature","properties":{"id":"bus-200-s10652","kind":"busstop","ref":"200","name":"Sinem","lines":["152","485","508","539","691","887","910"]},"geometry":{"type":"Point","coordinates":[27.1371,38.3603]}},{"type":"Feature","properties":{"id":"bus-200-s10642","kind":"busstop","ref":"200","name":"Karabağlar","lines":["152","508","539","691","887","910"]},"geometry":{"type":"Point","coordinates":[27.13756,38.36411]}},{"type":"Feature","properties":{"id":"bus-200-s10640","kind":"busstop","ref":"200","name":"Paşa Köprüsü","lines":["152","508","539","691","887","910"]},"geometry":{"type":"Point","coordinates":[27.13667,38.36778]}},{"type":"Feature","properties":{"id":"bus-200-s10638","kind":"busstop","ref":"200","name":"Kızılcık","lines":["92","152","508","539","691","887","910"]},"geometry":{"type":"Point","coordinates":[27.13607,38.36998]}},{"type":"Feature","properties":{"id":"bus-200-s10636","kind":"busstop","ref":"200","name":"Söğüt","lines":["92","152","508","539","691","887","910"]},"geometry":{"type":"Point","coordinates":[27.1356,38.3718]}},{"type":"Feature","properties":{"id":"bus-200-s10634","kind":"busstop","ref":"200","name":"Karabağlar Cumhuriyet Anadolu Lisesi","lines":["92","152","508","539","691","887","910"]},"geometry":{"type":"Point","coordinates":[27.13509,38.37625]}},{"type":"Feature","properties":{"id":"bus-200-s10632","kind":"busstop","ref":"200","name":"Kaymakkuyu","lines":["92","152","156","157","508","539","691","887","910"]},"geometry":{"type":"Point","coordinates":[27.13501,38.38019]}},{"type":"Feature","properties":{"id":"bus-200-s10630","kind":"busstop","ref":"200","name":"Çitlenbik","lines":["92","152","156","157","508","539","691","887","910"]},"geometry":{"type":"Point","coordinates":[27.1351,38.3839]}},{"type":"Feature","properties":{"id":"bus-200-s10628","kind":"busstop","ref":"200","name":"Orcaner","lines":["92","108","152","156","157","508","539","691","887","910"]},"geometry":{"type":"Point","coordinates":[27.13498,38.38699]}},{"type":"Feature","properties":{"id":"bus-200-s11860","kind":"busstop","ref":"200","name":"Buca Köprüsü","lines":["539"]},"geometry":{"type":"Point","coordinates":[27.13723,38.39528]}},{"type":"Feature","properties":{"id":"bus-200-s11856","kind":"busstop","ref":"200","name":"Yeşildere","lines":["36","234","515","539"]},"geometry":{"type":"Point","coordinates":[27.1454,38.4076]}},{"type":"Feature","properties":{"id":"bus-200-s11854","kind":"busstop","ref":"200","name":"Yenişehir Üst Geçit","lines":["36","234","515","539"]},"geometry":{"type":"Point","coordinates":[27.1546,38.4101]}},{"type":"Feature","properties":{"id":"bus-200-s20135","kind":"busstop","ref":"200","name":"Bayraklı Üst Geçit","lines":["121","290","330","543","602","608","660","800","912","920"]},"geometry":{"type":"Point","coordinates":[27.1631,38.4641]}},{"type":"Feature","properties":{"id":"bus-200-s20137","kind":"busstop","ref":"200","name":"Nikah Salonu","lines":["121","290","330","543","602","608","660","800","912","920"]},"geometry":{"type":"Point","coordinates":[27.1606,38.4667]}},{"type":"Feature","properties":{"id":"bus-200-s20057","kind":"busstop","ref":"200","name":"Turan","lines":["77","78","121","125","140","147","148","240","290","330","335","426","434","477","543","577","602","608","660","800","912","920"]},"geometry":{"type":"Point","coordinates":[27.14939,38.46755]}},{"type":"Feature","properties":{"id":"bus-200-s20145","kind":"busstop","ref":"200","name":"Tersane","lines":["121","196","290","330","543","920"]},"geometry":{"type":"Point","coordinates":[27.1282,38.4629]}},{"type":"Feature","properties":{"id":"bus-200-s20147","kind":"busstop","ref":"200","name":" Selçuk Yaşar Alaybey Ortaokulu","lines":["121","196","290","330","543","920"]},"geometry":{"type":"Point","coordinates":[27.12628,38.45951]}},{"type":"Feature","properties":{"id":"bus-200-s20149","kind":"busstop","ref":"200","name":"Muammer Aksoy Parkı","lines":["121","196","290","330","543","920"]},"geometry":{"type":"Point","coordinates":[27.12499,38.45754]}},{"type":"Feature","properties":{"id":"bus-200-s20151","kind":"busstop","ref":"200","name":"Karşıyaka İskele","lines":["121","126","135","136","137","197","222","258","290","326","330","361","487","543","741","742","777","847","853","920"]},"geometry":{"type":"Point","coordinates":[27.1223,38.456]}},{"type":"Feature","properties":{"id":"bus-200-s20153","kind":"busstop","ref":"200","name":"Osman Bey Parkı","lines":["121","126","135","136","137","197","222","258","290","326","330","361","487","543","741","742","777","847","853","920"]},"geometry":{"type":"Point","coordinates":[27.1178,38.4541]}},{"type":"Feature","properties":{"id":"bus-200-s20155","kind":"busstop","ref":"200","name":"Tarık Dursun Kakınç","lines":["121","126","135","136","137","197","222","258","290","326","330","361","487","543","741","742","777","847","853","920"]},"geometry":{"type":"Point","coordinates":[27.1155,38.452]}},{"type":"Feature","properties":{"id":"bus-200-s20157","kind":"busstop","ref":"200","name":"Dokuz Eylül Dispanser","lines":["121","126","135","136","137","197","222","258","290","326","330","361","487","543","741","742","777","847","853","920"]},"geometry":{"type":"Point","coordinates":[27.1126,38.4504]}},{"type":"Feature","properties":{"id":"bus-200-s20159","kind":"busstop","ref":"200","name":"Karşıyaka Yelken Kulübü","lines":["121","126","135","136","137","197","222","258","290","326","330","361","487","543","741","742","777","847","853","920"]},"geometry":{"type":"Point","coordinates":[27.1085,38.4503]}},{"type":"Feature","properties":{"id":"bus-200-s20161","kind":"busstop","ref":"200","name":"Yunuslar","lines":["121","126","135","136","137","197","222","258","290","326","330","361","487","543","741","742","777","847","853","920"]},"geometry":{"type":"Point","coordinates":[27.106,38.4509]}},{"type":"Feature","properties":{"id":"bus-200-s20185","kind":"busstop","ref":"200","name":"Yıllar","lines":["121","290","330","430","435","532","543","777"]},"geometry":{"type":"Point","coordinates":[27.1022,38.4526]}},{"type":"Feature","properties":{"id":"bus-200-s20197","kind":"busstop","ref":"200","name":"Bostanlı Market","lines":["121","229","322","423","428","429","442","443","445","446","447","595","777","820","821","827"]},"geometry":{"type":"Point","coordinates":[27.0914,38.4573]}},{"type":"Feature","properties":{"id":"bus-200-s20189","kind":"busstop","ref":"200","name":"Bostanlı Pazaryeri","lines":["121","229","322","423","428","429","442","443","445","446","447","595","777","820","821","827"]},"geometry":{"type":"Point","coordinates":[27.0869,38.4609]}},{"type":"Feature","properties":{"id":"bus-200-s20191","kind":"busstop","ref":"200","name":"Beşikçioğlu Cami","lines":["121","229","322","423","428","429","442","443","445","446","447","595","777","820","821","827"]},"geometry":{"type":"Point","coordinates":[27.08431,38.4636]}},{"type":"Feature","properties":{"id":"bus-200-s20353","kind":"busstop","ref":"200","name":"Spor Merkezi","lines":["121","777","821"]},"geometry":{"type":"Point","coordinates":[27.0812,38.4683]}},{"type":"Feature","properties":{"id":"bus-200-s20355","kind":"busstop","ref":"200","name":"Pamukkale Sitesi","lines":["121","777","821"]},"geometry":{"type":"Point","coordinates":[27.0786,38.4695]}},{"type":"Feature","properties":{"id":"bus-200-s20357","kind":"busstop","ref":"200","name":"Mavişehir Dört Yol","lines":["121","777","821"]},"geometry":{"type":"Point","coordinates":[27.0765,38.4695]}},{"type":"Feature","properties":{"id":"bus-200-s20383","kind":"busstop","ref":"200","name":"Pamukkale Sitesi 2","lines":[]},"geometry":{"type":"Point","coordinates":[27.0755,38.4702]}},{"type":"Feature","properties":{"id":"bus-200-s20385","kind":"busstop","ref":"200","name":"Süleyman Demirel Lisesi","lines":["121","777","821"]},"geometry":{"type":"Point","coordinates":[27.07585,38.47407]}},{"type":"Feature","properties":{"id":"bus-200-s22051","kind":"busstop","ref":"200","name":"Soyak","lines":["121","821"]},"geometry":{"type":"Point","coordinates":[27.0759,38.4772]}},{"type":"Feature","properties":{"id":"bus-200-s22053","kind":"busstop","ref":"200","name":"Fotoğraf Müzesi","lines":["121","821"]},"geometry":{"type":"Point","coordinates":[27.07587,38.4796]}},{"type":"Feature","properties":{"id":"bus-200-s22055","kind":"busstop","ref":"200","name":"Bayrak","lines":["121","821"]},"geometry":{"type":"Point","coordinates":[27.07743,38.48158]}},{"type":"Feature","properties":{"id":"bus-200-s22049","kind":"busstop","ref":"200","name":"Albayrak Mavişehir Evleri","lines":["121","821"]},"geometry":{"type":"Point","coordinates":[27.08019,38.48187]}},{"type":"Feature","properties":{"id":"bus-200-s22047","kind":"busstop","ref":"200","name":"Doğa Koleji","lines":["121","821"]},"geometry":{"type":"Point","coordinates":[27.0839,38.4803]}},{"type":"Feature","properties":{"id":"bus-200-s22061","kind":"busstop","ref":"200","name":"Yaşam","lines":["121","821"]},"geometry":{"type":"Point","coordinates":[27.0856,38.4785]}}]}