{"type":"FeatureCollection","features":[{"type":"Feature","properties":{"id":"bus-202-1","kind":"busline","ref":"202","dir":1},"geometry":{"type":"LineString","coordinates":[[27.1358,38.427],[27.1348,38.4285],[27.1351,38.4288],[27.141,38.428],[27.1412,38.4277],[27.1414,38.4278],[27.1416,38.4294],[27.1419,38.4299],[27.1417,38.4301],[27.1407,38.4302],[27.1367,38.4314],[27.1349,38.4295],[27.135,38.4288],[27.1346,38.4285],[27.134,38.4285],[27.133,38.4274],[27.1321,38.4246],[27.1308,38.4223],[27.1285,38.4209],[27.1277,38.4191],[27.1265,38.4175],[27.1241,38.4161],[27.1217,38.4144],[27.1209,38.4132],[27.1208,38.4124],[27.1203,38.4115],[27.119,38.4105],[27.118,38.4102],[27.1154,38.4099],[27.1107,38.4098],[27.1071,38.4082],[27.1038,38.4079],[27.0994,38.4065],[27.098,38.4057],[27.0952,38.403],[27.093,38.402],[27.0908,38.3999],[27.089,38.399],[27.0865,38.3984],[27.0858,38.3984],[27.0804,38.4003],[27.0779,38.4006],[27.0776,38.4004],[27.0773,38.3987],[27.0752,38.3986],[27.07,38.3976],[27.0653,38.3972],[27.0597,38.3964],[27.0591,38.3964],[27.0577,38.397],[27.0572,38.3976],[27.0573,38.3986],[27.0577,38.399],[27.059,38.3995],[27.0605,38.3993],[27.0618,38.3985],[27.0624,38.3976],[27.0628,38.3963],[27.0629,38.3928],[27.0631,38.3916],[27.064,38.3896],[27.0645,38.3888],[27.066,38.3872],[27.07,38.3845],[27.0715,38.3831],[27.0718,38.3826],[27.0731,38.3776],[27.074,38.376],[27.0768,38.3726],[27.0787,38.3697],[27.0799,38.3667],[27.0806,38.3638],[27.0815,38.3619],[27.0834,38.3595],[27.0854,38.3579],[27.0886,38.3562],[27.0924,38.3552],[27.0945,38.355],[27.0994,38.3553],[27.1017,38.3552],[27.1097,38.3534],[27.1134,38.3531],[27.1176,38.3523],[27.1208,38.351],[27.127,38.3472],[27.1288,38.3464],[27.1325,38.3438],[27.1332,38.3425],[27.1333,38.3395],[27.134,38.3349],[27.1347,38.3323],[27.1357,38.3298],[27.1369,38.323],[27.1384,38.3194],[27.1414,38.3155],[27.142,38.3133],[27.1424,38.3089],[27.142,38.3071],[27.1414,38.3058],[27.1406,38.3047],[27.14,38.3033],[27.1399,38.3018],[27.1404,38.2987],[27.1403,38.2984],[27.1399,38.2983],[27.1396,38.2988],[27.1401,38.299],[27.1415,38.2986],[27.1424,38.298],[27.1432,38.2966],[27.1432,38.2946],[27.1446,38.2908],[27.1457,38.291],[27.146,38.2903],[27.1466,38.2896],[27.1485,38.2899],[27.1487,38.2901],[27.1481,38.293],[27.1471,38.2962],[27.1465,38.2965],[27.1446,38.296],[27.1444,38.2957],[27.1447,38.2945],[27.1434,38.2942],[27.1446,38.2908],[27.1457,38.291],[27.1464,38.2897],[27.1469,38.2896],[27.1485,38.2899],[27.1487,38.2901],[27.1481,38.293],[27.1472,38.296],[27.1465,38.2965],[27.145,38.2962],[27.1444,38.2957],[27.1475,38.2948]]}},{"type":"Feature","properties":{"id":"bus-202-2","kind":"busline","ref":"202","dir":2},"geometry":{"type":"LineString","coordinates":[[27.1485,38.2913],[27.1487,38.2901],[27.1481,38.293],[27.1472,38.296],[27.1468,38.2964],[27.1465,38.2965],[27.1454,38.2963],[27.1446,38.296],[27.1444,38.2957],[27.1447,38.2945],[27.1436,38.2943],[27.1434,38.2949],[27.1435,38.2963],[27.1402,38.3021],[27.1401,38.3032],[27.1403,38.3038],[27.1416,38.3058],[27.1422,38.3071],[27.1426,38.3086],[27.1425,38.313],[27.1415,38.3157],[27.139,38.3188],[27.1377,38.3211],[27.1373,38.3222],[27.1361,38.329],[27.1346,38.3333],[27.1334,38.3396],[27.1334,38.3432],[27.1325,38.3461],[27.1326,38.3468],[27.1332,38.3474],[27.1337,38.3473],[27.134,38.347],[27.134,38.3466],[27.1336,38.3463],[27.1324,38.3462],[27.1303,38.3464],[27.1284,38.3469],[27.1269,38.3475],[27.12,38.3516],[27.116,38.3529],[27.1078,38.3539],[27.104,38.3549],[27.1017,38.3553],[27.0984,38.3554],[27.0969,38.3552],[27.0937,38.3552],[27.0916,38.3555],[27.0889,38.3563],[27.0867,38.3573],[27.0839,38.3593],[27.0824,38.3609],[27.0816,38.3621],[27.0808,38.3639],[27.08,38.3672],[27.0794,38.3688],[27.0765,38.3736],[27.0736,38.377],[27.0727,38.3795],[27.0723,38.3817],[27.0716,38.3832],[27.0705,38.3844],[27.0658,38.3876],[27.0646,38.3889],[27.064,38.3899],[27.0634,38.3913],[27.0631,38.3928],[27.063,38.3963],[27.0632,38.3971],[27.0639,38.3982],[27.0648,38.3988],[27.0655,38.3988],[27.0654,38.3985],[27.0635,38.3969],[27.0616,38.3966],[27.0606,38.3961],[27.0597,38.3959],[27.0576,38.3956],[27.0574,38.3953],[27.0576,38.395],[27.0581,38.395],[27.0615,38.3963],[27.0632,38.3967],[27.0672,38.3972],[27.0703,38.397],[27.0706,38.3975],[27.071,38.3977],[27.0751,38.3985],[27.0786,38.3987],[27.0788,38.3988],[27.0787,38.3997],[27.0792,38.4002],[27.0802,38.4002],[27.0819,38.3997],[27.0853,38.3983],[27.0869,38.3983],[27.0887,38.3987],[27.0909,38.3997],[27.0929,38.4018],[27.0949,38.4026],[27.0955,38.403],[27.0973,38.4049],[27.0992,38.4062],[27.1002,38.4066],[27.1044,38.4079],[27.1067,38.408],[27.1114,38.4098],[27.115,38.4097],[27.1194,38.4104],[27.1207,38.4118],[27.1211,38.4131],[27.1219,38.4142],[27.1266,38.4174],[27.1278,38.419],[27.1283,38.4204],[27.1289,38.4211],[27.1305,38.4219],[27.1312,38.4225],[27.1328,38.4225],[27.1354,38.4269],[27.1359,38.4269],[27.1358,38.427]]}},{"type":"Feature","properties":{"id":"bus-202-s10210","kind":"busstop","ref":"202","name":"İzmir Mesleki ve Teknik Anadolu Lisesi","lines":[]},"geometry":{"type":"Point","coordinates":[27.13586,38.42708]}},{"type":"Feature","properties":{"id":"bus-202-s10330","kind":"busstop","ref":"202","name":"Montrö","lines":["691","910","930","940","950"]},"geometry":{"type":"Point","coordinates":[27.14154,38.42876]}},{"type":"Feature","properties":{"id":"bus-202-s10554","kind":"busstop","ref":"202","name":"Vasıf Çınar","lines":["910","940","950"]},"geometry":{"type":"Point","coordinates":[27.14076,38.43022]}},{"type":"Feature","properties":{"id":"bus-202-s10106","kind":"busstop","ref":"202","name":"Dokuz Eylül Rektörlük","lines":["121","253","910","920","940","950"]},"geometry":{"type":"Point","coordinates":[27.1359,38.4305]}},{"type":"Feature","properties":{"id":"bus-202-s10104","kind":"busstop","ref":"202","name":"Sosyal Sigortalar Kurumu","lines":["121","253","910","920","940","950"]},"geometry":{"type":"Point","coordinates":[27.1324,38.4252]}},{"type":"Feature","properties":{"id":"bus-202-s10102","kind":"busstop","ref":"202","name":"İskele","lines":["35","36","121","253","302","466","838","910","920","930","940","950","951"]},"geometry":{"type":"Point","coordinates":[27.1279,38.4199]}},{"type":"Feature","properties":{"id":"bus-202-s10199","kind":"busstop","ref":"202","name":"Adnan Saygun Sanat Merkezi","lines":["5","6","7","17","24","25","480","486","510","650","671","690","873","977"]},"geometry":{"type":"Point","coordinates":[27.07748,38.39979]}},{"type":"Feature","properties":{"id":"bus-202-s10177","kind":"busstop","ref":"202","name":"Hava Hastanesi","lines":["5","6","7","10","17","24","25","480","486","510","650","671","690","873","977"]},"geometry":{"type":"Point","coordinates":[27.0732,38.3982]}},{"type":"Feature","properties":{"id":"bus-202-s50007","kind":"busstop","ref":"202","name":"Fahrettin Altay Meydan 2","lines":["5","6","7","24","25","311","480","510","551","650","811","950","977"]},"geometry":{"type":"Point","coordinates":[27.06869,38.39752]}},{"type":"Feature","properties":{"id":"bus-202-s14501","kind":"busstop","ref":"202","name":"Moda","lines":["17","24","25","510","650","671","690","873","977"]},"geometry":{"type":"Point","coordinates":[27.0731,38.3769]}},{"type":"Feature","properties":{"id":"bus-202-s10659","kind":"busstop","ref":"202","name":"Altıncı Sanayi Kavşağı","lines":["200","204","206","510","697","806","858","910"]},"geometry":{"type":"Point","coordinates":[27.1331,38.3408]}},{"type":"Feature","properties":{"id":"bus-202-s10661","kind":"busstop","ref":"202","name":"Ege Serbest Bölge","lines":["152","200","204","206","353","508","510","691","697","806","808","858","887","891","910"]},"geometry":{"type":"Point","coordinates":[27.13378,38.33572]}},{"type":"Feature","properties":{"id":"bus-202-s10663","kind":"busstop","ref":"202","name":"Leylak","lines":["152","200","204","206","353","508","510","691","697","806","808","858","887","891","910"]},"geometry":{"type":"Point","coordinates":[27.1352,38.3309]}},{"type":"Feature","properties":{"id":"bus-202-s10665","kind":"busstop","ref":"202","name":"Ulaştırma","lines":["152","200","204","206","353","508","510","691","697","806","808","858","887","891","910"]},"geometry":{"type":"Point","coordinates":[27.136,38.3282]}},{"type":"Feature","properties":{"id":"bus-202-s10667","kind":"busstop","ref":"202","name":"Gaziemir Alt Geçidi","lines":["200","204","206","508","697","806","808","858","887"]},"geometry":{"type":"Point","coordinates":[27.1366,38.3247]}},{"type":"Feature","properties":{"id":"bus-202-s10669","kind":"busstop","ref":"202","name":"Kolej","lines":["200","204","206","508","697","806","808","858","887"]},"geometry":{"type":"Point","coordinates":[27.1376,38.3209]}},{"type":"Feature","properties":{"id":"bus-202-s10671","kind":"busstop","ref":"202","name":"Gaziemir İlçe Emniyet","lines":["200","204","206","508","697","806","808","858","887"]},"geometry":{"type":"Point","coordinates":[27.1404,38.3167]}},{"type":"Feature","properties":{"id":"bus-202-s10673","kind":"busstop","ref":"202","name":"Sarnıç Alt Geçidi","lines":["204","206","697","806","858"]},"geometry":{"type":"Point","coordinates":[27.14213,38.31139]}},{"type":"Feature","properties":{"id":"bus-202-s10675","kind":"busstop","ref":"202","name":"Emlak Bankası Evleri","lines":["200","204","206","508","697","806","808","858"]},"geometry":{"type":"Point","coordinates":[27.14233,38.30909]}},{"type":"Feature","properties":{"id":"bus-202-s10677","kind":"busstop","ref":"202","name":"Seçkinler Sitesi","lines":["200","204","206","508","697","806","808","858"]},"geometry":{"type":"Point","coordinates":[27.1415,38.3061]}},{"type":"Feature","properties":{"id":"bus-202-s13018","kind":"busstop","ref":"202","name":"Havalimanı İç Hatlar Geliş","lines":["200","204","206"]},"geometry":{"type":"Point","coordinates":[27.1488,38.2914]}},{"type":"Feature","properties":{"id":"bus-202-s13016","kind":"busstop","ref":"202","name":"Havalimanı Dış Hatlar Geliş","lines":["200","204","206"]},"geometry":{"type":"Point","coordinates":[27.1476,38.2948]}},{"type":"Feature","properties":{"id":"bus-202-s10676","kind":"busstop","ref":"202","name":"Seçkinler Sitesi","lines":["200","204","206","508","697","806","808","858"]},"geometry":{"type":"Point","coordinates":[27.1418,38.3061]}},{"type":"Feature","properties":{"id":"bus-202-s10674","kind":"busstop","ref":"202","name":"Emlak Bankası Evleri","lines":["200","204","206","508","697","806","808","858"]},"geometry":{"type":"Point","coordinates":[27.1426,38.3087]}},{"type":"Feature","properties":{"id":"bus-202-s10679","kind":"busstop","ref":"202","name":"Akçay","lines":["200","204","206","508","697","806","808","858"]},"geometry":{"type":"Point","coordinates":[27.14259,38.31087]}},{"type":"Feature","properties":{"id":"bus-202-s10670","kind":"busstop","ref":"202","name":"Gaziemir İlçe Emniyet","lines":["200","204","206","508","697","806","808","858","887"]},"geometry":{"type":"Point","coordinates":[27.1406,38.3169]}},{"type":"Feature","properties":{"id":"bus-202-s10668","kind":"busstop","ref":"202","name":"Kolej","lines":["200","204","206","508","697","806","808","858","887"]},"geometry":{"type":"Point","coordinates":[27.1379,38.3209]}},{"type":"Feature","properties":{"id":"bus-202-s10666","kind":"busstop","ref":"202","name":"Askeri Lojmanlar","lines":["200","204","206","508","697","806","808","858","887"]},"geometry":{"type":"Point","coordinates":[27.1371,38.3237]}},{"type":"Feature","properties":{"id":"bus-202-s10664","kind":"busstop","ref":"202","name":"Ulaştırma","lines":["152","200","204","206","353","508","510","691","697","806","808","858","887","891","910"]},"geometry":{"type":"Point","coordinates":[27.13592,38.32971]}},{"type":"Feature","properties":{"id":"bus-202-s10662","kind":"busstop","ref":"202","name":"Leylak","lines":["152","200","204","206","353","508","510","691","697","806","808","858","887","891","910"]},"geometry":{"type":"Point","coordinates":[27.1348,38.3331]}},{"type":"Feature","properties":{"id":"bus-202-s10660","kind":"busstop","ref":"202","name":"Ege Serbest Bölge","lines":["152","200","204","206","353","508","510","691","697","806","808","828","858","887","891","910"]},"geometry":{"type":"Point","coordinates":[27.134,38.3372]}},{"type":"Feature","properties":{"id":"bus-202-s14500","kind":"busstop","ref":"202","name":"Moda","lines":["17","24","25","510","650","671","690","873","977"]},"geometry":{"type":"Point","coordinates":[27.07448,38.37604]}},{"type":"Feature","properties":{"id":"bus-202-s50008","kind":"busstop","ref":"202","name":"Beyaz","lines":["5","6","7","8","24","25","82","305","311","321","481","510","650","909","971","975","977","981","982","983","984","985","987"]},"geometry":{"type":"Point","coordinates":[27.06161,38.39621]}},{"type":"Feature","properties":{"id":"bus-202-s50004","kind":"busstop","ref":"202","name":"Fahrettin Altay Meydan 9 ","lines":["5","6","7","10","24","25","82","167","305","311","321","480","510","551","650","675","684","883","909","945","946","971","975","977","981","982","983","984","985","987"]},"geometry":{"type":"Point","coordinates":[27.0686,38.3971]}},{"type":"Feature","properties":{"id":"bus-202-s10182","kind":"busstop","ref":"202","name":"Fahrettin Altay Meydan 5","lines":["5","6","7","10","24","25","480","486","510","650","945","977"]},"geometry":{"type":"Point","coordinates":[27.07112,38.39764]}},{"type":"Feature","properties":{"id":"bus-202-s10178","kind":"busstop","ref":"202","name":"Adnan Saygun Sanat Merkezi","lines":["5","6","7","10","24","25","480","486","510","650","945","946","977"]},"geometry":{"type":"Point","coordinates":[27.07629,38.39857]}},{"type":"Feature","properties":{"id":"bus-202-s10103","kind":"busstop","ref":"202","name":"Belediye Sarayı","lines":["18","19","20","36","121","253","302","466","811","838","910","920","930","940","950"]},"geometry":{"type":"Point","coordinates":[27.1297,38.4214]}},{"type":"Feature","properties":{"id":"bus-202-s16586","kind":"busstop","ref":"202","name":"Mimar Kemalettin","lines":["121","253","910","920","940","950"]},"geometry":{"type":"Point","coordinates":[27.13351,38.42368]}},{"type":"Feature","properties":{"id":"bus-202-s10112","kind":"busstop","ref":"202","name":"Halit Ziya","lines":["121","253","910","920","940","950"]},"geometry":{"type":"Point","coordinates":[27.13502,38.4261]}}]}