{"type":"FeatureCollection","features":[{"type":"Feature","properties":{"id":"bus-204-1","kind":"busline","ref":"204","dir":1},"geometry":{"type":"LineString","coordinates":[[27.2142,38.4588],[27.2136,38.4587],[27.2136,38.4584],[27.2146,38.4585],[27.2146,38.459],[27.2115,38.4587],[27.2106,38.4588],[27.2102,38.4587],[27.2099,38.4581],[27.2096,38.4579],[27.2079,38.4571],[27.2056,38.457],[27.2051,38.4567],[27.2051,38.4565],[27.2058,38.4559],[27.2055,38.4531],[27.2057,38.4509],[27.2062,38.4496],[27.2073,38.4477],[27.2098,38.4455],[27.2113,38.4447],[27.2157,38.443],[27.2162,38.4426],[27.2168,38.4416],[27.217,38.4407],[27.2166,38.4394],[27.2132,38.4359],[27.2105,38.4342],[27.2105,38.4338],[27.2115,38.433],[27.2119,38.4324],[27.2123,38.4283],[27.213,38.4283],[27.2123,38.4291],[27.2122,38.4296],[27.2122,38.4298],[27.2129,38.4298],[27.213,38.4318],[27.2124,38.4318],[27.2121,38.432],[27.212,38.4332],[27.2107,38.4338],[27.2106,38.4342],[27.2108,38.4344],[27.2131,38.4357],[27.215,38.4374],[27.2172,38.4391],[27.218,38.4395],[27.2243,38.4408],[27.2252,38.4407],[27.2265,38.4402],[27.2276,38.4394],[27.2292,38.4378],[27.2365,38.4254],[27.2373,38.4231],[27.2378,38.4209],[27.2382,38.4142],[27.2377,38.412],[27.2362,38.4094],[27.2315,38.4042],[27.2297,38.4006],[27.2293,38.3988],[27.2291,38.3972],[27.2292,38.3949],[27.2305,38.3893],[27.2306,38.3859],[27.2298,38.3726],[27.2291,38.3692],[27.2283,38.3683],[27.2266,38.3676],[27.2142,38.3662],[27.2066,38.3638],[27.2039,38.3633],[27.2016,38.3633],[27.197,38.3639],[27.1884,38.3644],[27.1824,38.3654],[27.1795,38.3656],[27.1723,38.3651],[27.1639,38.3642],[27.16,38.363],[27.1577,38.3616],[27.1561,38.3603],[27.1546,38.3585],[27.1523,38.3539],[27.1511,38.3519],[27.1493,38.35],[27.1466,38.3482],[27.1452,38.3476],[27.1421,38.3467],[27.1389,38.3464],[27.1338,38.3462],[27.1316,38.3463],[27.1309,38.3466],[27.1308,38.347],[27.1311,38.3474],[27.1319,38.3475],[27.1322,38.3473],[27.1324,38.3466],[27.1324,38.3455],[27.1333,38.3428],[27.1333,38.3395],[27.134,38.3349],[27.1347,38.3323],[27.1357,38.3298],[27.1369,38.323],[27.1384,38.3194],[27.1414,38.3155],[27.142,38.3133],[27.1424,38.3089],[27.142,38.3071],[27.1414,38.3058],[27.1406,38.3047],[27.14,38.3033],[27.1399,38.3018],[27.1404,38.2987],[27.1403,38.2984],[27.1399,38.2983],[27.1396,38.2988],[27.1401,38.299],[27.1415,38.2986],[27.1424,38.298],[27.1432,38.2966],[27.1432,38.2946],[27.1446,38.2908],[27.1457,38.291],[27.146,38.2903],[27.1466,38.2896],[27.1485,38.2899],[27.1487,38.2901],[27.1487,38.2906],[27.1471,38.2962],[27.1465,38.2965],[27.1446,38.296],[27.1444,38.2957],[27.1447,38.2945],[27.1436,38.2943],[27.1447,38.2945]]}},{"type":"Feature","properties":{"id":"bus-204-2","kind":"busline","ref":"204","dir":2},"geometry":{"type":"LineString","coordinates":[[27.1485,38.2913],[27.1487,38.2901],[27.1481,38.293],[27.1472,38.296],[27.1468,38.2964],[27.1465,38.2965],[27.1454,38.2963],[27.1446,38.296],[27.1444,38.2957],[27.1447,38.2945],[27.1436,38.2943],[27.1434,38.2949],[27.1435,38.2963],[27.1402,38.3021],[27.1401,38.3032],[27.1403,38.3038],[27.1416,38.3058],[27.1422,38.3071],[27.1426,38.3086],[27.1425,38.313],[27.1415,38.3157],[27.139,38.3188],[27.1377,38.3211],[27.1373,38.3222],[27.1361,38.329],[27.1346,38.3333],[27.1334,38.3396],[27.1336,38.3439],[27.1341,38.3451],[27.1347,38.3456],[27.1356,38.3459],[27.1378,38.3462],[27.1405,38.3463],[27.1437,38.3469],[27.1474,38.3484],[27.15,38.3504],[27.1511,38.3516],[27.1521,38.3531],[27.1543,38.3576],[27.1567,38.3606],[27.1577,38.3614],[27.1598,38.3626],[27.1638,38.364],[27.1742,38.3651],[27.1795,38.3654],[27.1828,38.3651],[27.1895,38.3641],[27.196,38.3638],[27.2016,38.3631],[27.2038,38.3631],[27.2065,38.3636],[27.2119,38.3654],[27.2166,38.3664],[27.2294,38.3675],[27.2315,38.3674],[27.2326,38.3671],[27.2337,38.3664],[27.2342,38.3656],[27.2342,38.3644],[27.2337,38.3637],[27.233,38.3634],[27.232,38.3635],[27.2315,38.3638],[27.2312,38.3643],[27.2301,38.3679],[27.2299,38.3709],[27.2309,38.3878],[27.2305,38.3905],[27.2294,38.3949],[27.2293,38.3963],[27.2294,38.3979],[27.2299,38.4004],[27.231,38.4029],[27.2322,38.4048],[27.237,38.4101],[27.238,38.4124],[27.2385,38.4146],[27.2382,38.4193],[27.2378,38.4223],[27.2375,38.4235],[27.2364,38.4261],[27.2307,38.4358],[27.2289,38.4385],[27.2277,38.4396],[27.2251,38.4412],[27.2235,38.4418],[27.2209,38.4424],[27.2196,38.4431],[27.2196,38.4436],[27.22,38.4441],[27.2211,38.4442],[27.2217,38.4435],[27.2214,38.4429],[27.2182,38.4406],[27.2132,38.4359],[27.2106,38.4344],[27.2105,38.4338],[27.2115,38.433],[27.2119,38.4324],[27.2121,38.4296],[27.2125,38.4278],[27.2128,38.4275],[27.2132,38.4276],[27.213,38.4284],[27.2123,38.4291],[27.2122,38.4296],[27.2122,38.4298],[27.2129,38.4298],[27.213,38.4318],[27.2122,38.4319],[27.212,38.4332],[27.2108,38.4337],[27.2106,38.4342],[27.2131,38.4357],[27.2193,38.4412],[27.2215,38.4426],[27.2237,38.4434],[27.2246,38.4434],[27.2251,38.4429],[27.2251,38.4423],[27.2246,38.4419],[27.2239,38.4418],[27.214,38.444],[27.212,38.4446],[27.209,38.4463],[27.2069,38.4486],[27.206,38.4507],[27.2057,38.4524],[27.2064,38.4559],[27.2074,38.4568],[27.2089,38.4575],[27.2112,38.4582],[27.2146,38.4583],[27.2146,38.4588],[27.2142,38.4588]]}},{"type":"Feature","properties":{"id":"bus-204-s30012","kind":"busstop","ref":"204","name":"Bornova Metro","lines":["390"]},"geometry":{"type":"Point","coordinates":[27.21466,38.45859]}},{"type":"Feature","properties":{"id":"bus-204-s30272","kind":"busstop","ref":"204","name":"Ege Üniversitesi Hastanesi","lines":["119","390"]},"geometry":{"type":"Point","coordinates":[27.208,38.4572]}},{"type":"Feature","properties":{"id":"bus-204-s31556","kind":"busstop","ref":"204","name":"Otogar Benzinlik","lines":["54","277","302","505","555","602","608","660","697","806","858"]},"geometry":{"type":"Point","coordinates":[27.21187,38.43064]}},{"type":"Feature","properties":{"id":"bus-204-s30511","kind":"busstop","ref":"204","name":"Otogar","lines":["54","277","302","505","555"]},"geometry":{"type":"Point","coordinates":[27.213,38.4309]}},{"type":"Feature","properties":{"id":"bus-204-s10659","kind":"busstop","ref":"204","name":"Altıncı Sanayi Kavşağı","lines":["200","202","206","510","697","806","858","910"]},"geometry":{"type":"Point","coordinates":[27.1331,38.3408]}},{"type":"Feature","properties":{"id":"bus-204-s10661","kind":"busstop","ref":"204","name":"Ege Serbest Bölge","lines":["152","200","202","206","353","508","510","691","697","806","808","858","887","891","910"]},"geometry":{"type":"Point","coordinates":[27.13378,38.33572]}},{"type":"Feature","properties":{"id":"bus-204-s10663","kind":"busstop","ref":"204","name":"Leylak","lines":["152","200","202","206","353","508","510","691","697","806","808","858","887","891","910"]},"geometry":{"type":"Point","coordinates":[27.1352,38.3309]}},{"type":"Feature","properties":{"id":"bus-204-s10665","kind":"busstop","ref":"204","name":"Ulaştırma","lines":["152","200","202","206","353","508","510","691","697","806","808","858","887","891","910"]},"geometry":{"type":"Point","coordinates":[27.136,38.3282]}},{"type":"Feature","properties":{"id":"bus-204-s10667","kind":"busstop","ref":"204","name":"Gaziemir Alt Geçidi","lines":["200","202","206","508","697","806","808","858","887"]},"geometry":{"type":"Point","coordinates":[27.1366,38.3247]}},{"type":"Feature","properties":{"id":"bus-204-s10669","kind":"busstop","ref":"204","name":"Kolej","lines":["200","202","206","508","697","806","808","858","887"]},"geometry":{"type":"Point","coordinates":[27.1376,38.3209]}},{"type":"Feature","properties":{"id":"bus-204-s10671","kind":"busstop","ref":"204","name":"Gaziemir İlçe Emniyet","lines":["200","202","206","508","697","806","808","858","887"]},"geometry":{"type":"Point","coordinates":[27.1404,38.3167]}},{"type":"Feature","properties":{"id":"bus-204-s10673","kind":"busstop","ref":"204","name":"Sarnıç Alt Geçidi","lines":["202","206","697","806","858"]},"geometry":{"type":"Point","coordinates":[27.14213,38.31139]}},{"type":"Feature","properties":{"id":"bus-204-s10675","kind":"busstop","ref":"204","name":"Emlak Bankası Evleri","lines":["200","202","206","508","697","806","808","858"]},"geometry":{"type":"Point","coordinates":[27.14233,38.30909]}},{"type":"Feature","properties":{"id":"bus-204-s10677","kind":"busstop","ref":"204","name":"Seçkinler Sitesi","lines":["200","202","206","508","697","806","808","858"]},"geometry":{"type":"Point","coordinates":[27.1415,38.3061]}},{"type":"Feature","properties":{"id":"bus-204-s13018","kind":"busstop","ref":"204","name":"Havalimanı İç Hatlar Geliş","lines":["200","202","206"]},"geometry":{"type":"Point","coordinates":[27.1488,38.2914]}},{"type":"Feature","properties":{"id":"bus-204-s13016","kind":"busstop","ref":"204","name":"Havalimanı Dış Hatlar Geliş","lines":["200","202","206"]},"geometry":{"type":"Point","coordinates":[27.1476,38.2948]}},{"type":"Feature","properties":{"id":"bus-204-s10676","kind":"busstop","ref":"204","name":"Seçkinler Sitesi","lines":["200","202","206","508","697","806","808","858"]},"geometry":{"type":"Point","coordinates":[27.1418,38.3061]}},{"type":"Feature","properties":{"id":"bus-204-s10674","kind":"busstop","ref":"204","name":"Emlak Bankası Evleri","lines":["200","202","206","508","697","806","808","858"]},"geometry":{"type":"Point","coordinates":[27.1426,38.3087]}},{"type":"Feature","properties":{"id":"bus-204-s10679","kind":"busstop","ref":"204","name":"Akçay","lines":["200","202","206","508","697","806","808","858"]},"geometry":{"type":"Point","coordinates":[27.14259,38.31087]}},{"type":"Feature","properties":{"id":"bus-204-s10670","kind":"busstop","ref":"204","name":"Gaziemir İlçe Emniyet","lines":["200","202","206","508","697","806","808","858","887"]},"geometry":{"type":"Point","coordinates":[27.1406,38.3169]}},{"type":"Feature","properties":{"id":"bus-204-s10668","kind":"busstop","ref":"204","name":"Kolej","lines":["200","202","206","508","697","806","808","858","887"]},"geometry":{"type":"Point","coordinates":[27.1379,38.3209]}},{"type":"Feature","properties":{"id":"bus-204-s10666","kind":"busstop","ref":"204","name":"Askeri Lojmanlar","lines":["200","202","206","508","697","806","808","858","887"]},"geometry":{"type":"Point","coordinates":[27.1371,38.3237]}},{"type":"Feature","properties":{"id":"bus-204-s10664","kind":"busstop","ref":"204","name":"Ulaştırma","lines":["152","200","202","206","353","508","510","691","697","806","808","858","887","891","910"]},"geometry":{"type":"Point","coordinates":[27.13592,38.32971]}},{"type":"Feature","properties":{"id":"bus-204-s10662","kind":"busstop","ref":"204","name":"Leylak","lines":["152","200","202","206","353","508","510","691","697","806","808","858","887","891","910"]},"geometry":{"type":"Point","coordinates":[27.1348,38.3331]}},{"type":"Feature","properties":{"id":"bus-204-s10660","kind":"busstop","ref":"204","name":"Ege Serbest Bölge","lines":["152","200","202","206","353","508","510","691","697","806","808","828","858","887","891","910"]},"geometry":{"type":"Point","coordinates":[27.134,38.3372]}},{"type":"Feature","properties":{"id":"bus-204-s30255","kind":"busstop","ref":"204","name":"Ege Üniversitesi Hastanesi","lines":["119","290","390","558","800"]},"geometry":{"type":"Point","coordinates":[27.2098,38.4577]}}]}