{"type":"FeatureCollection","features":[{"type":"Feature","properties":{"id":"bus-207-1","kind":"busline","ref":"207","dir":1},"geometry":{"type":"LineString","coordinates":[[27.175,38.4914],[27.1749,38.4912],[27.1765,38.4921],[27.1787,38.4921],[27.1803,38.4926],[27.1806,38.493],[27.1806,38.494],[27.1812,38.493],[27.1812,38.4925],[27.1806,38.4918],[27.178,38.4907],[27.1756,38.4902],[27.1743,38.4886],[27.1738,38.4883],[27.1721,38.4877],[27.1712,38.4877],[27.171,38.4878],[27.1715,38.4885],[27.1712,38.4887],[27.1706,38.4875],[27.1699,38.487],[27.1686,38.4865],[27.1677,38.4865],[27.1643,38.4855],[27.1618,38.4844],[27.1604,38.4835],[27.1612,38.4833],[27.1618,38.4836],[27.1621,38.4834],[27.1618,38.4826],[27.162,38.4808],[27.1633,38.4792],[27.1646,38.4784],[27.1663,38.478],[27.168,38.4783],[27.1701,38.4792],[27.1698,38.4795],[27.1687,38.4799],[27.1662,38.48],[27.166,38.4802],[27.1662,38.4805],[27.1669,38.4805],[27.1669,38.4809],[27.1666,38.4813],[27.1669,38.4818],[27.1676,38.4822],[27.1698,38.482],[27.1758,38.4821],[27.1783,38.482],[27.1801,38.4817],[27.1823,38.4817],[27.1823,38.4813],[27.1821,38.4812],[27.1806,38.4814],[27.1778,38.4814],[27.1635,38.4811],[27.1571,38.4814],[27.1499,38.4822],[27.1466,38.4828],[27.1403,38.4851],[27.135,38.4861],[27.1307,38.4865],[27.1211,38.4862],[27.1147,38.4866],[27.1081,38.4879],[27.1012,38.49],[27.0972,38.4905],[27.095,38.4905],[27.0919,38.4901],[27.088,38.4889],[27.0813,38.485],[27.0784,38.4838],[27.0749,38.4831],[27.0675,38.4826],[27.0611,38.4816],[27.0564,38.4804],[27.0511,38.4786],[27.0496,38.4783],[27.0467,38.478],[27.0437,38.4781],[27.0396,38.4789],[27.0374,38.4798],[27.0351,38.481],[27.0335,38.4821],[27.032,38.4835],[27.0301,38.486],[27.0289,38.4888],[27.0286,38.4907],[27.0278,38.5049],[27.0278,38.515],[27.0285,38.5172],[27.0316,38.518],[27.0322,38.5179],[27.0324,38.5182],[27.0319,38.5183],[27.0289,38.5174],[27.0284,38.5176],[27.0279,38.5187],[27.0274,38.5227],[27.0267,38.5254],[27.0243,38.5314],[27.0237,38.5332],[27.0233,38.5353],[27.0232,38.5369],[27.0236,38.54],[27.0238,38.541],[27.0248,38.5435],[27.0257,38.5451],[27.0312,38.5514],[27.0315,38.5516],[27.0323,38.5515],[27.0323,38.5508],[27.0317,38.5506],[27.0312,38.5507],[27.0146,38.5555],[27.0122,38.5574],[27.0112,38.5597],[27.0108,38.5602],[27.0077,38.5617],[27.0051,38.5627],[27.0033,38.5657],[27.0027,38.5662],[27.0018,38.5664],[27.0012,38.5663],[26.9994,38.567],[26.9981,38.5683],[26.9973,38.5685],[26.9978,38.5697],[26.9975,38.5707],[26.9953,38.5708],[26.9934,38.5714],[26.9915,38.5727],[26.9794,38.5776],[26.9707,38.5754],[26.9705,38.5755],[26.9695,38.5778],[26.9695,38.5786],[26.9702,38.5816],[26.9689,38.5817],[26.9677,38.5821],[26.9646,38.5821],[26.9639,38.5823],[26.9641,38.5823]]}},{"type":"Feature","properties":{"id":"bus-207-2","kind":"busline","ref":"207","dir":2},"geometry":{"type":"LineString","coordinates":[[26.9641,38.5823],[26.9639,38.5823],[26.9646,38.5821],[26.9677,38.5821],[26.9689,38.5817],[26.9702,38.5816],[26.9695,38.5786],[26.9695,38.5778],[26.9704,38.5757],[26.9707,38.5754],[26.9794,38.5776],[26.9915,38.5727],[26.9934,38.5714],[26.9953,38.5708],[26.9975,38.5707],[26.9978,38.5697],[26.9973,38.5685],[26.9981,38.5683],[26.9994,38.567],[27.0012,38.5663],[27.0018,38.5664],[27.0027,38.5662],[27.0033,38.5657],[27.0051,38.5627],[27.0077,38.5617],[27.0108,38.5602],[27.0112,38.5597],[27.0122,38.5574],[27.0146,38.5555],[27.025,38.5525],[27.0278,38.5515],[27.0283,38.551],[27.0287,38.5499],[27.0286,38.5494],[27.0267,38.5471],[27.025,38.5443],[27.024,38.5421],[27.0231,38.5387],[27.023,38.5366],[27.0233,38.534],[27.0237,38.5325],[27.0262,38.5262],[27.027,38.5236],[27.0274,38.5211],[27.0273,38.5191],[27.0269,38.5173],[27.0286,38.5172],[27.0316,38.518],[27.0322,38.5179],[27.0324,38.5182],[27.0319,38.5183],[27.0289,38.5174],[27.0269,38.5174],[27.0275,38.5137],[27.0274,38.5087],[27.0284,38.49],[27.029,38.4877],[27.0295,38.4866],[27.0316,38.4836],[27.0339,38.4815],[27.0368,38.4798],[27.0408,38.4784],[27.0431,38.478],[27.0463,38.4778],[27.0494,38.4781],[27.051,38.4784],[27.0574,38.4805],[27.0633,38.4818],[27.0657,38.4822],[27.075,38.4829],[27.0777,38.4834],[27.08,38.4842],[27.0819,38.4851],[27.0852,38.4872],[27.0885,38.4889],[27.0929,38.4901],[27.0946,38.4903],[27.0977,38.4903],[27.0996,38.4901],[27.1023,38.4895],[27.1095,38.4873],[27.1166,38.4862],[27.1236,38.486],[27.1297,38.4863],[27.1345,38.4859],[27.1401,38.4848],[27.1466,38.4826],[27.1549,38.4813],[27.1633,38.4808],[27.1744,38.4811],[27.1767,38.4809],[27.1767,38.4806],[27.1741,38.481],[27.168,38.4803],[27.1669,38.4807],[27.1666,38.4811],[27.1656,38.4812],[27.1655,38.481],[27.1659,38.4806],[27.1659,38.4802],[27.1663,38.4799],[27.1692,38.4797],[27.1696,38.4793],[27.1691,38.4789],[27.1677,38.4783],[27.1667,38.4781],[27.1657,38.4782],[27.1645,38.4786],[27.1629,38.4798],[27.1624,38.4803],[27.1619,38.4816],[27.1619,38.4824],[27.1622,38.4835],[27.162,38.4837],[27.1611,38.4834],[27.1607,38.4835],[27.1612,38.484],[27.1639,38.4852],[27.1681,38.4862],[27.1698,38.4868],[27.1708,38.4876],[27.1725,38.4877],[27.1743,38.4884],[27.1749,38.4892],[27.1759,38.4899],[27.1756,38.4902],[27.1743,38.4886],[27.1738,38.4883],[27.1737,38.4887],[27.174,38.4898],[27.1749,38.4912],[27.1758,38.4918],[27.175,38.4914]]}},{"type":"Feature","properties":{"id":"bus-207-s23986","kind":"busstop","ref":"207","name":"Yurt","lines":["558","559"]},"geometry":{"type":"Point","coordinates":[27.17511,38.4913]}},{"type":"Feature","properties":{"id":"bus-207-s21328","kind":"busstop","ref":"207","name":"Katip Çelebi Üniversitesi","lines":["595","596","817","920"]},"geometry":{"type":"Point","coordinates":[27.03117,38.51781]}},{"type":"Feature","properties":{"id":"bus-207-s23769","kind":"busstop","ref":"207","name":"Bakırçay  YDY","lines":["812"]},"geometry":{"type":"Point","coordinates":[26.97843,38.57741]}},{"type":"Feature","properties":{"id":"bus-207-s21593","kind":"busstop","ref":"207","name":"Bakırçay Üniversitesi","lines":["619","750","757","812","850"]},"geometry":{"type":"Point","coordinates":[26.9641,38.58229]}}]}