{"type":"FeatureCollection","features":[{"type":"Feature","properties":{"id":"bus-224-1","kind":"busline","ref":"224","dir":1},"geometry":{"type":"LineString","coordinates":[[27.0917,38.3586],[27.0917,38.3584],[27.0917,38.3592],[27.0912,38.3603],[27.0904,38.3616],[27.0899,38.3619],[27.0893,38.3616],[27.0871,38.3612],[27.0848,38.3623],[27.0854,38.3622],[27.0863,38.3624],[27.087,38.362],[27.0879,38.3621],[27.0894,38.3629],[27.0898,38.3635],[27.0908,38.3641],[27.0913,38.3648],[27.0915,38.3659],[27.0918,38.3662],[27.0925,38.3665],[27.0942,38.3668],[27.0944,38.367],[27.0962,38.3665],[27.0961,38.3663],[27.0945,38.3659],[27.0937,38.3651],[27.096,38.3642],[27.0986,38.3635],[27.0993,38.3632],[27.0999,38.3626],[27.1003,38.3635],[27.1002,38.3636],[27.0985,38.364],[27.0971,38.3645],[27.0968,38.3648],[27.0972,38.3652],[27.098,38.3655],[27.0986,38.3653],[27.0985,38.3658],[27.0988,38.3662],[27.0999,38.3663],[27.0998,38.3664],[27.1002,38.3671],[27.1002,38.3676],[27.0999,38.3683],[27.1002,38.3684],[27.1006,38.3677],[27.1004,38.3662],[27.1008,38.366],[27.1015,38.3668],[27.1016,38.3674],[27.1033,38.3682],[27.1038,38.3691],[27.1053,38.3695],[27.1066,38.3707],[27.107,38.3715],[27.1071,38.3714],[27.1078,38.3744],[27.1078,38.3751],[27.1074,38.3765],[27.1079,38.3769],[27.1093,38.3771],[27.1106,38.3777],[27.1121,38.3787],[27.1128,38.3799],[27.1131,38.3801],[27.1199,38.3826],[27.1207,38.3827],[27.1206,38.383],[27.1194,38.3835],[27.1148,38.3841],[27.1142,38.3844],[27.1143,38.3847],[27.1157,38.3861],[27.1162,38.3881],[27.117,38.3892],[27.1189,38.3892],[27.1196,38.3895],[27.1206,38.3896],[27.1236,38.3907],[27.1254,38.3916],[27.1268,38.3937],[27.1272,38.3962],[27.1279,38.3979],[27.1281,38.399],[27.1289,38.3998],[27.1294,38.4019],[27.1301,38.4022],[27.1294,38.4041],[27.1285,38.4058],[27.1284,38.4077],[27.1289,38.4086],[27.1288,38.4108],[27.1279,38.4115],[27.1275,38.4123],[27.1277,38.4125],[27.1281,38.4121],[27.1284,38.4121],[27.1284,38.4123],[27.1269,38.4134],[27.1262,38.4136],[27.1282,38.4133],[27.1289,38.4137],[27.129,38.4144],[27.1286,38.4151],[27.1276,38.4161],[27.1263,38.4169],[27.1259,38.4168],[27.126,38.4164],[27.1276,38.4157],[27.1274,38.4153],[27.1276,38.415]]}},{"type":"Feature","properties":{"id":"bus-224-2","kind":"busline","ref":"224","dir":2},"geometry":{"type":"LineString","coordinates":[[27.1276,38.415],[27.1281,38.4149],[27.1282,38.4147],[27.1276,38.4143],[27.1265,38.4145],[27.126,38.4145],[27.1257,38.4143],[27.128,38.4136],[27.1279,38.4134],[27.1265,38.4138],[27.1262,38.4136],[27.1269,38.4134],[27.1284,38.4123],[27.1284,38.4121],[27.1281,38.4121],[27.1278,38.4125],[27.1275,38.4123],[27.1279,38.4115],[27.1287,38.4107],[27.1288,38.4087],[27.1284,38.4082],[27.1282,38.4069],[27.1286,38.4052],[27.1291,38.4045],[27.1296,38.403],[27.1288,38.3998],[27.1279,38.3987],[27.127,38.3953],[27.1268,38.3937],[27.1254,38.3916],[27.1236,38.3907],[27.1206,38.3896],[27.1196,38.3895],[27.1189,38.3892],[27.117,38.3892],[27.1162,38.3881],[27.1157,38.3861],[27.1142,38.3845],[27.1139,38.3844],[27.1139,38.3842],[27.1193,38.3834],[27.1202,38.3829],[27.1153,38.3809],[27.1133,38.3802],[27.1127,38.3802],[27.1123,38.3789],[27.1106,38.3777],[27.1093,38.3771],[27.1083,38.377],[27.1072,38.3766],[27.1078,38.3751],[27.1078,38.3744],[27.1071,38.3714],[27.107,38.3715],[27.1066,38.3707],[27.1053,38.3695],[27.1038,38.3691],[27.1033,38.3682],[27.1016,38.3674],[27.1015,38.3668],[27.1008,38.366],[27.1004,38.3662],[27.1006,38.3677],[27.1002,38.3684],[27.0999,38.3683],[27.1002,38.3676],[27.0999,38.3663],[27.0988,38.3662],[27.0985,38.3658],[27.0986,38.3653],[27.098,38.3655],[27.0972,38.3652],[27.0968,38.3648],[27.0971,38.3645],[27.0985,38.364],[27.1002,38.3636],[27.1003,38.3635],[27.0999,38.3626],[27.0993,38.3632],[27.0986,38.3635],[27.096,38.3642],[27.0937,38.3651],[27.0945,38.3659],[27.0961,38.3663],[27.0962,38.3665],[27.0944,38.367],[27.0942,38.3668],[27.0925,38.3665],[27.0918,38.3662],[27.0915,38.3659],[27.0913,38.3648],[27.0908,38.3641],[27.0898,38.3635],[27.0894,38.3629],[27.0879,38.3621],[27.087,38.362],[27.0863,38.3624],[27.0854,38.3622],[27.0848,38.3623],[27.0871,38.3612],[27.0893,38.3616],[27.0899,38.3619],[27.0904,38.3616],[27.0912,38.3603],[27.0917,38.3592],[27.0917,38.3584],[27.0917,38.3586]]}},{"type":"Feature","properties":{"id":"bus-224-s12810","kind":"busstop","ref":"224","name":"Cennetçeşme","lines":[]},"geometry":{"type":"Point","coordinates":[27.0916,38.3586]}},{"type":"Feature","properties":{"id":"bus-224-s12806","kind":"busstop","ref":"224","name":"Market","lines":[]},"geometry":{"type":"Point","coordinates":[27.09097,38.36066]}},{"type":"Feature","properties":{"id":"bus-224-s12790","kind":"busstop","ref":"224","name":"Cennetçeşme Beyazıt Cami","lines":["193","524","873","877"]},"geometry":{"type":"Point","coordinates":[27.0872,38.3612]}},{"type":"Feature","properties":{"id":"bus-224-s12542","kind":"busstop","ref":"224","name":"Sacide Ayaz İlk ve Ortaokulu","lines":["193","524","873","877"]},"geometry":{"type":"Point","coordinates":[27.0852,38.3621]}},{"type":"Feature","properties":{"id":"bus-224-s12474","kind":"busstop","ref":"224","name":"Toprak","lines":["193","517","522","524","671"]},"geometry":{"type":"Point","coordinates":[27.088,38.3621]}},{"type":"Feature","properties":{"id":"bus-224-s12472","kind":"busstop","ref":"224","name":"Güzel İzmir Cami","lines":["193","517","522","524","671"]},"geometry":{"type":"Point","coordinates":[27.0908,38.3641]}},{"type":"Feature","properties":{"id":"bus-224-s12778","kind":"busstop","ref":"224","name":"Sümbül","lines":["877"]},"geometry":{"type":"Point","coordinates":[27.0941,38.36682]}},{"type":"Feature","properties":{"id":"bus-224-s12779","kind":"busstop","ref":"224","name":"Market","lines":["877"]},"geometry":{"type":"Point","coordinates":[27.09584,38.36657]}},{"type":"Feature","properties":{"id":"bus-224-s12781","kind":"busstop","ref":"224","name":"Remzi Oğuz Arık İlkokulu","lines":["877"]},"geometry":{"type":"Point","coordinates":[27.09461,38.36599]}},{"type":"Feature","properties":{"id":"bus-224-s12793","kind":"busstop","ref":"224","name":"Tekstil","lines":["524"]},"geometry":{"type":"Point","coordinates":[27.09493,38.36453]}},{"type":"Feature","properties":{"id":"bus-224-s16835","kind":"busstop","ref":"224","name":"Yüzbaşı Şerafettin Muhtarlık 2","lines":[]},"geometry":{"type":"Point","coordinates":[27.09877,38.36332]}},{"type":"Feature","properties":{"id":"bus-224-s12769","kind":"busstop","ref":"224","name":"Çağlayan","lines":[]},"geometry":{"type":"Point","coordinates":[27.1001,38.3632]}},{"type":"Feature","properties":{"id":"bus-224-s12768","kind":"busstop","ref":"224","name":"Yüzbaşı Şerafettin","lines":[]},"geometry":{"type":"Point","coordinates":[27.09847,38.36405]}},{"type":"Feature","properties":{"id":"bus-224-s12766","kind":"busstop","ref":"224","name":"Tepe","lines":[]},"geometry":{"type":"Point","coordinates":[27.0979,38.3653]}},{"type":"Feature","properties":{"id":"bus-224-s12764","kind":"busstop","ref":"224","name":"Özgür Mahallesi Köşe","lines":[]},"geometry":{"type":"Point","coordinates":[27.1001,38.3667]}},{"type":"Feature","properties":{"id":"bus-224-s12762","kind":"busstop","ref":"224","name":"Fatih Seylan Cami","lines":[]},"geometry":{"type":"Point","coordinates":[27.10057,38.36761]}},{"type":"Feature","properties":{"id":"bus-224-s12760","kind":"busstop","ref":"224","name":"Neşe","lines":[]},"geometry":{"type":"Point","coordinates":[27.1007,38.366]}},{"type":"Feature","properties":{"id":"bus-224-s12758","kind":"busstop","ref":"224","name":"Orta","lines":[]},"geometry":{"type":"Point","coordinates":[27.103,38.368]}},{"type":"Feature","properties":{"id":"bus-224-s12756","kind":"busstop","ref":"224","name":"Ödemiş","lines":[]},"geometry":{"type":"Point","coordinates":[27.10436,38.36917]}},{"type":"Feature","properties":{"id":"bus-224-s12754","kind":"busstop","ref":"224","name":"Hulusi Kentmen 2","lines":[]},"geometry":{"type":"Point","coordinates":[27.10698,38.37139]}},{"type":"Feature","properties":{"id":"bus-224-s12220","kind":"busstop","ref":"224","name":"Naci Şensoy Anadolu Lisesi","lines":["23","523","823","877"]},"geometry":{"type":"Point","coordinates":[27.1075,38.3729]}},{"type":"Feature","properties":{"id":"bus-224-s12218","kind":"busstop","ref":"224","name":"Yıkık Cami","lines":["23","523","823","877"]},"geometry":{"type":"Point","coordinates":[27.1076,38.3757]}},{"type":"Feature","properties":{"id":"bus-224-s12216","kind":"busstop","ref":"224","name":"Kuyu","lines":["23","193","522","587","671","680","823"]},"geometry":{"type":"Point","coordinates":[27.11087,38.3779]}},{"type":"Feature","properties":{"id":"bus-224-s12620","kind":"busstop","ref":"224","name":"Çamlık Yol Ayrımı","lines":["522","588","671","823"]},"geometry":{"type":"Point","coordinates":[27.1139,38.3803]}},{"type":"Feature","properties":{"id":"bus-224-s12618","kind":"busstop","ref":"224","name":"Karanfil","lines":["522","671","823"]},"geometry":{"type":"Point","coordinates":[27.11625,38.38111]}},{"type":"Feature","properties":{"id":"bus-224-s12643","kind":"busstop","ref":"224","name":"İsmail Hakkı Tonguç Parkı","lines":["522","823","879"]},"geometry":{"type":"Point","coordinates":[27.11888,38.3836]}},{"type":"Feature","properties":{"id":"bus-224-s16520","kind":"busstop","ref":"224","name":"Sevgi Mahalle Muhtarlığı","lines":["522","823","879"]},"geometry":{"type":"Point","coordinates":[27.11561,38.38404]}},{"type":"Feature","properties":{"id":"bus-224-s12212","kind":"busstop","ref":"224","name":"Karaselvi","lines":["23","124","193","522","587","588","680","823","879"]},"geometry":{"type":"Point","coordinates":[27.1152,38.3854]}},{"type":"Feature","properties":{"id":"bus-224-s12210","kind":"busstop","ref":"224","name":"Karakuyu","lines":["23","124","193","522","587","588","680","823","879"]},"geometry":{"type":"Point","coordinates":[27.11616,38.38757]}},{"type":"Feature","properties":{"id":"bus-224-s12208","kind":"busstop","ref":"224","name":"Bozyaka Cami","lines":["23","193","522","588","680","823"]},"geometry":{"type":"Point","coordinates":[27.12069,38.38956]}},{"type":"Feature","properties":{"id":"bus-224-s12206","kind":"busstop","ref":"224","name":"Kestelli","lines":["23","193","522","588","680","823"]},"geometry":{"type":"Point","coordinates":[27.1224,38.3901]}},{"type":"Feature","properties":{"id":"bus-224-s12204","kind":"busstop","ref":"224","name":"Zincirlikuyu","lines":["23","193","522","550","556","588","680","823"]},"geometry":{"type":"Point","coordinates":[27.1259,38.3922]}},{"type":"Feature","properties":{"id":"bus-224-s12202","kind":"busstop","ref":"224","name":"Narlık","lines":["23","89","193","522","550","556","588","680","823"]},"geometry":{"type":"Point","coordinates":[27.1268,38.3936]}},{"type":"Feature","properties":{"id":"bus-224-s12200","kind":"busstop","ref":"224","name":"Kilimci Tepe","lines":["23","89","193","522","550","556","588","680","823"]},"geometry":{"type":"Point","coordinates":[27.1274,38.3962]}},{"type":"Feature","properties":{"id":"bus-224-s12198","kind":"busstop","ref":"224","name":"Yağhaneler 3","lines":["23","157","193","680","691"]},"geometry":{"type":"Point","coordinates":[27.1293,38.4013]}},{"type":"Feature","properties":{"id":"bus-224-s12062","kind":"busstop","ref":"224","name":"Yağhaneler","lines":["23","157","193","234","470","680","691"]},"geometry":{"type":"Point","coordinates":[27.12912,38.40463]}},{"type":"Feature","properties":{"id":"bus-224-s12058","kind":"busstop","ref":"224","name":"Eşrefpaşa","lines":["23","29","30","32","33","72","104","105","157","171","193","233","285","374","465","471","484","485","940"]},"geometry":{"type":"Point","coordinates":[27.1288,38.4083]}},{"type":"Feature","properties":{"id":"bus-224-s10240","kind":"busstop","ref":"224","name":"Kız Yurdu","lines":["15","18","19","20","23","29","30","32","33","72","104","105","152","157","171","193","233","285","374","465","471","484","485","508","550","587","588","887"]},"geometry":{"type":"Point","coordinates":[27.12721,38.41322]}},{"type":"Feature","properties":{"id":"bus-224-s10011","kind":"busstop","ref":"224","name":"Bahribaba","lines":[]},"geometry":{"type":"Point","coordinates":[27.12756,38.41502]}},{"type":"Feature","properties":{"id":"bus-224-s10241","kind":"busstop","ref":"224","name":"Kız Yurdu","lines":["15","29","30","32","33","152","157","193","233","508","550","587","588","887"]},"geometry":{"type":"Point","coordinates":[27.12728,38.41293]}},{"type":"Feature","properties":{"id":"bus-224-s12061","kind":"busstop","ref":"224","name":"Eşrefpaşa","lines":["23","193","680","691"]},"geometry":{"type":"Point","coordinates":[27.1283,38.4076]}},{"type":"Feature","properties":{"id":"bus-224-s12063","kind":"busstop","ref":"224","name":"Yağhaneler","lines":["23","193","234","680","691"]},"geometry":{"type":"Point","coordinates":[27.12935,38.40331]}},{"type":"Feature","properties":{"id":"bus-224-s12199","kind":"busstop","ref":"224","name":"Kilimci Tepe","lines":["23","89","193","522","550","556","588","680","823"]},"geometry":{"type":"Point","coordinates":[27.12713,38.39615]}},{"type":"Feature","properties":{"id":"bus-224-s12201","kind":"busstop","ref":"224","name":"Narlık","lines":["23","89","193","522","550","556","588","680","823"]},"geometry":{"type":"Point","coordinates":[27.12662,38.39351]}},{"type":"Feature","properties":{"id":"bus-224-s12203","kind":"busstop","ref":"224","name":"Zincirlikuyu","lines":["23","193","522","588","680","823"]},"geometry":{"type":"Point","coordinates":[27.1245,38.3912]}},{"type":"Feature","properties":{"id":"bus-224-s12205","kind":"busstop","ref":"224","name":"Kestelli","lines":["23","193","522","588","680","823"]},"geometry":{"type":"Point","coordinates":[27.12187,38.39008]}},{"type":"Feature","properties":{"id":"bus-224-s12207","kind":"busstop","ref":"224","name":"Bozyaka Cami","lines":["23","193","522","588","680","823"]},"geometry":{"type":"Point","coordinates":[27.11989,38.38953]}},{"type":"Feature","properties":{"id":"bus-224-s12209","kind":"busstop","ref":"224","name":"Karakuyu","lines":["23","124","193","522","587","588","680","823","879"]},"geometry":{"type":"Point","coordinates":[27.1159,38.3872]}},{"type":"Feature","properties":{"id":"bus-224-s12211","kind":"busstop","ref":"224","name":"Karaselvi","lines":["23","124","193","522","587","588","680","823","879"]},"geometry":{"type":"Point","coordinates":[27.1147,38.3851]}},{"type":"Feature","properties":{"id":"bus-224-s16521","kind":"busstop","ref":"224","name":"Sevgi Mahalle Muhtarlığı","lines":["522","823","879"]},"geometry":{"type":"Point","coordinates":[27.11559,38.3839]}},{"type":"Feature","properties":{"id":"bus-224-s12644","kind":"busstop","ref":"224","name":"İsmail Hakkı Tonguç Parkı","lines":["522","823","879"]},"geometry":{"type":"Point","coordinates":[27.11788,38.3835]}},{"type":"Feature","properties":{"id":"bus-224-s12625","kind":"busstop","ref":"224","name":"Trafo","lines":["522","671","823"]},"geometry":{"type":"Point","coordinates":[27.118,38.3821]}},{"type":"Feature","properties":{"id":"bus-224-s12617","kind":"busstop","ref":"224","name":"Karanfil","lines":["522","671","823"]},"geometry":{"type":"Point","coordinates":[27.11612,38.38126]}},{"type":"Feature","properties":{"id":"bus-224-s12621","kind":"busstop","ref":"224","name":"Çamlık Yol Ayrımı","lines":["522","671","823"]},"geometry":{"type":"Point","coordinates":[27.11348,38.38033]}},{"type":"Feature","properties":{"id":"bus-224-s12215","kind":"busstop","ref":"224","name":"Kuyu","lines":["23","193","522","587","671","680","823"]},"geometry":{"type":"Point","coordinates":[27.1106,38.3778]}},{"type":"Feature","properties":{"id":"bus-224-s12217","kind":"busstop","ref":"224","name":"Yıkık Cami","lines":["23","523","823","877"]},"geometry":{"type":"Point","coordinates":[27.10765,38.3753]}},{"type":"Feature","properties":{"id":"bus-224-s12219","kind":"busstop","ref":"224","name":"Naci Şensoy Anadolu Lisesi","lines":["23","523","823","877"]},"geometry":{"type":"Point","coordinates":[27.10726,38.37252]}},{"type":"Feature","properties":{"id":"bus-224-s12221","kind":"busstop","ref":"224","name":"Hulusi Kentmen 2","lines":[]},"geometry":{"type":"Point","coordinates":[27.10691,38.37142]}},{"type":"Feature","properties":{"id":"bus-224-s12753","kind":"busstop","ref":"224","name":"Ödemiş","lines":[]},"geometry":{"type":"Point","coordinates":[27.10424,38.36927]}},{"type":"Feature","properties":{"id":"bus-224-s12755","kind":"busstop","ref":"224","name":"Orta","lines":[]},"geometry":{"type":"Point","coordinates":[27.1031,38.3681]}},{"type":"Feature","properties":{"id":"bus-224-s12757","kind":"busstop","ref":"224","name":"Neşe","lines":[]},"geometry":{"type":"Point","coordinates":[27.1009,38.366]}},{"type":"Feature","properties":{"id":"bus-224-s12759","kind":"busstop","ref":"224","name":"Fatih Seylan Cami","lines":[]},"geometry":{"type":"Point","coordinates":[27.1005,38.368]}},{"type":"Feature","properties":{"id":"bus-224-s12761","kind":"busstop","ref":"224","name":"Köşe","lines":[]},"geometry":{"type":"Point","coordinates":[27.1,38.3668]}},{"type":"Feature","properties":{"id":"bus-224-s12763","kind":"busstop","ref":"224","name":"Tepe","lines":[]},"geometry":{"type":"Point","coordinates":[27.098,38.3654]}},{"type":"Feature","properties":{"id":"bus-224-s12765","kind":"busstop","ref":"224","name":"Yüzbaşı Şerafettin","lines":[]},"geometry":{"type":"Point","coordinates":[27.0985,38.364]}},{"type":"Feature","properties":{"id":"bus-224-s16472","kind":"busstop","ref":"224","name":"Çağlayan","lines":[]},"geometry":{"type":"Point","coordinates":[27.10013,38.36322]}},{"type":"Feature","properties":{"id":"bus-224-s16473","kind":"busstop","ref":"224","name":"Yüzbaşı Şerafettin Muhtarlık","lines":[]},"geometry":{"type":"Point","coordinates":[27.09872,38.36347]}},{"type":"Feature","properties":{"id":"bus-224-s12794","kind":"busstop","ref":"224","name":"Tekstil","lines":["524"]},"geometry":{"type":"Point","coordinates":[27.09439,38.36487]}},{"type":"Feature","properties":{"id":"bus-224-s12782","kind":"busstop","ref":"224","name":"Remzi Oğuz Arık İlkokulu","lines":["877"]},"geometry":{"type":"Point","coordinates":[27.09453,38.36585]}},{"type":"Feature","properties":{"id":"bus-224-s12780","kind":"busstop","ref":"224","name":"Market","lines":["877"]},"geometry":{"type":"Point","coordinates":[27.09593,38.3662]}},{"type":"Feature","properties":{"id":"bus-224-s12777","kind":"busstop","ref":"224","name":"Sümbül","lines":["877"]},"geometry":{"type":"Point","coordinates":[27.09391,38.3668]}},{"type":"Feature","properties":{"id":"bus-224-s12473","kind":"busstop","ref":"224","name":"Güzel İzmir Cami","lines":["193","517","522","524","671"]},"geometry":{"type":"Point","coordinates":[27.0908,38.3642]}},{"type":"Feature","properties":{"id":"bus-224-s12475","kind":"busstop","ref":"224","name":"Toprak","lines":["193","517","522","524","671"]},"geometry":{"type":"Point","coordinates":[27.0879,38.3622]}},{"type":"Feature","properties":{"id":"bus-224-s12541","kind":"busstop","ref":"224","name":"Sacide Ayaz İlk ve Ortaokulu","lines":["193","524","873","877"]},"geometry":{"type":"Point","coordinates":[27.0853,38.362]}},{"type":"Feature","properties":{"id":"bus-224-s12789","kind":"busstop","ref":"224","name":"Cennetçeşme Beyazıt Cami","lines":["193","524","873","877"]},"geometry":{"type":"Point","coordinates":[27.0872,38.36118]}},{"type":"Feature","properties":{"id":"bus-224-s12809","kind":"busstop","ref":"224","name":"Market","lines":[]},"geometry":{"type":"Point","coordinates":[27.09088,38.36074]}}]}