{"type":"FeatureCollection","features":[{"type":"Feature","properties":{"id":"bus-24-1","kind":"busline","ref":"24","dir":1},"geometry":{"type":"LineString","coordinates":[[26.9583,38.3105],[26.9583,38.3103],[26.9583,38.3109],[26.9576,38.3109],[26.9567,38.3113],[26.9581,38.3125],[26.9595,38.3128],[26.9619,38.3127],[26.9631,38.313],[26.9647,38.3121],[26.9649,38.3118],[26.9658,38.3118],[26.9664,38.3126],[26.9674,38.3131],[26.9678,38.3136],[26.969,38.3138],[26.9702,38.3148],[26.9717,38.3148],[26.9742,38.3153],[26.9749,38.3159],[26.9763,38.3158],[26.9776,38.3167],[26.9777,38.3162],[26.9782,38.3158],[26.9804,38.3159],[26.9817,38.3156],[26.9868,38.3168],[26.9874,38.3173],[26.9885,38.3178],[26.9903,38.3179],[26.9913,38.3183],[26.9927,38.3196],[26.9928,38.3199],[26.9915,38.3215],[26.9914,38.3217],[26.9916,38.3219],[26.9941,38.3233],[26.9961,38.3229],[26.9999,38.3228],[27.0019,38.3239],[27.0038,38.3261],[27.0048,38.3256],[27.0055,38.3255],[27.0073,38.324],[27.0073,38.3231],[27.0068,38.3221],[27.0081,38.3213],[27.0089,38.3204],[27.0104,38.3196],[27.0117,38.3194],[27.0136,38.3188],[27.0168,38.3173],[27.0173,38.3174],[27.0179,38.3168],[27.0199,38.3172],[27.0202,38.3176],[27.0224,38.3175],[27.0229,38.3172],[27.0238,38.3161],[27.0254,38.3168],[27.0259,38.3159],[27.0262,38.3159],[27.0268,38.3165],[27.0273,38.3167],[27.0277,38.3168],[27.0284,38.3166],[27.0291,38.3169],[27.0297,38.3169],[27.0301,38.3171],[27.0305,38.3177],[27.0314,38.318],[27.0338,38.3157],[27.0351,38.3156],[27.0365,38.315],[27.0396,38.316],[27.0407,38.3171],[27.0429,38.3177],[27.0442,38.3178],[27.045,38.3185],[27.046,38.3202],[27.0471,38.3208],[27.0474,38.3214],[27.0474,38.3221],[27.0479,38.3231],[27.0478,38.3234],[27.0489,38.3238],[27.0491,38.3235],[27.049,38.3232],[27.0492,38.3223],[27.0488,38.3213],[27.0496,38.3206],[27.0498,38.3201],[27.0503,38.3199],[27.0504,38.3195],[27.0503,38.3193],[27.0497,38.3192],[27.0496,38.3188],[27.05,38.3174],[27.0504,38.3175],[27.0505,38.3177],[27.0502,38.3185],[27.0504,38.3187],[27.0507,38.3188],[27.0512,38.3186],[27.0548,38.3193],[27.0556,38.3193],[27.0564,38.3199],[27.0571,38.3201],[27.0592,38.3198],[27.0598,38.3202],[27.0602,38.3202],[27.0611,38.3199],[27.0614,38.3191],[27.0616,38.319],[27.0623,38.319],[27.0629,38.3187],[27.0638,38.3186],[27.0642,38.319],[27.0661,38.3192],[27.0665,38.3194],[27.0673,38.3203],[27.0681,38.3207],[27.0683,38.3209],[27.0685,38.3224],[27.0694,38.3232],[27.0703,38.3234],[27.0705,38.3243],[27.0709,38.3248],[27.0704,38.3254],[27.0702,38.3263],[27.0699,38.3267],[27.0703,38.3293],[27.0713,38.3315],[27.0723,38.332],[27.0726,38.3332],[27.0722,38.3338],[27.0713,38.3343],[27.0713,38.3347],[27.0719,38.3357],[27.0723,38.3369],[27.0724,38.3379],[27.0728,38.3384],[27.0718,38.34],[27.0719,38.3407],[27.0735,38.3417],[27.0738,38.3425],[27.0743,38.3428],[27.0745,38.3434],[27.076,38.3442],[27.0771,38.3453],[27.0783,38.3457],[27.08,38.3475],[27.0815,38.3477],[27.082,38.348],[27.0826,38.3489],[27.0826,38.3503],[27.0822,38.3515],[27.0837,38.3524],[27.0821,38.3535],[27.0821,38.3552],[27.0807,38.3552],[27.081,38.3565],[27.0796,38.3577],[27.0797,38.3582],[27.08,38.3585],[27.0799,38.3595],[27.0796,38.3597],[27.0787,38.3595],[27.0785,38.3598],[27.0787,38.3602],[27.0803,38.3612],[27.083,38.3618],[27.0828,38.3612],[27.0825,38.3611],[27.0816,38.3621],[27.0808,38.3639],[27.08,38.3672],[27.0794,38.3688],[27.0765,38.3736],[27.0736,38.377],[27.0727,38.3795],[27.0723,38.3817],[27.0716,38.3832],[27.0705,38.3844],[27.0658,38.3876],[27.0646,38.3889],[27.0635,38.391],[27.063,38.3941],[27.0631,38.3968],[27.0639,38.3982],[27.0648,38.3988],[27.0655,38.3988],[27.0654,38.3985],[27.0635,38.3969],[27.0616,38.3966],[27.0606,38.3961],[27.0597,38.3959],[27.0576,38.3956],[27.0574,38.3953],[27.0576,38.395],[27.0581,38.395],[27.0615,38.3963],[27.0632,38.3967],[27.0672,38.3972],[27.0703,38.397],[27.0706,38.3975],[27.071,38.3977],[27.0751,38.3985],[27.0788,38.3988],[27.0786,38.4003],[27.0783,38.4006],[27.0773,38.4007],[27.0754,38.4013],[27.0722,38.4033],[27.0696,38.4045],[27.069,38.405],[27.069,38.4053],[27.0696,38.4056],[27.069,38.4051]]}},{"type":"Feature","properties":{"id":"bus-24-2","kind":"busline","ref":"24","dir":2},"geometry":{"type":"LineString","coordinates":[[27.069,38.4051],[27.0693,38.4055],[27.0698,38.4056],[27.0697,38.4058],[27.0685,38.405],[27.0687,38.4049],[27.0686,38.4048],[27.0701,38.4041],[27.0708,38.4032],[27.0714,38.4033],[27.0722,38.4031],[27.0746,38.4015],[27.0775,38.4004],[27.0776,38.3998],[27.0773,38.3987],[27.0752,38.3986],[27.0693,38.3975],[27.0653,38.3972],[27.0597,38.3964],[27.0591,38.3964],[27.0577,38.397],[27.0572,38.3976],[27.0573,38.3986],[27.0577,38.399],[27.059,38.3995],[27.0605,38.3993],[27.0618,38.3985],[27.0624,38.3976],[27.0628,38.3963],[27.0629,38.3928],[27.0631,38.3916],[27.0645,38.3888],[27.0666,38.3867],[27.0706,38.384],[27.0718,38.3826],[27.0731,38.3776],[27.074,38.376],[27.0768,38.3726],[27.0787,38.3697],[27.0799,38.3667],[27.0806,38.3638],[27.082,38.3611],[27.0819,38.3608],[27.0816,38.3608],[27.081,38.3611],[27.0808,38.3614],[27.0803,38.3613],[27.0786,38.3602],[27.0784,38.3597],[27.0787,38.3594],[27.0795,38.3596],[27.0798,38.3595],[27.0799,38.3585],[27.0795,38.3581],[27.0795,38.3576],[27.0809,38.3564],[27.0806,38.3552],[27.0821,38.3552],[27.0821,38.3535],[27.0837,38.3524],[27.0821,38.3515],[27.0824,38.351],[27.0825,38.3489],[27.0817,38.3479],[27.0814,38.3477],[27.08,38.3475],[27.0783,38.3457],[27.0771,38.3453],[27.076,38.3442],[27.0745,38.3434],[27.0743,38.3428],[27.0738,38.3425],[27.0735,38.3417],[27.0719,38.3407],[27.0718,38.34],[27.0728,38.3384],[27.0724,38.3379],[27.0723,38.3369],[27.0719,38.3357],[27.0713,38.3347],[27.0713,38.3343],[27.0722,38.3338],[27.0726,38.3332],[27.0723,38.332],[27.0713,38.3315],[27.0703,38.3293],[27.0699,38.3267],[27.0702,38.3263],[27.0704,38.3254],[27.0709,38.3248],[27.0705,38.3243],[27.0703,38.3234],[27.0694,38.3232],[27.0685,38.3224],[27.0683,38.3209],[27.0681,38.3207],[27.0673,38.3203],[27.0665,38.3194],[27.0661,38.3192],[27.0642,38.319],[27.0638,38.3186],[27.0629,38.3187],[27.0623,38.319],[27.0616,38.319],[27.0614,38.3191],[27.0611,38.3199],[27.0602,38.3202],[27.0598,38.3202],[27.0592,38.3198],[27.0571,38.3201],[27.0564,38.3199],[27.0556,38.3193],[27.0548,38.3193],[27.0512,38.3186],[27.0507,38.3188],[27.0504,38.3187],[27.0502,38.3185],[27.0505,38.3177],[27.0504,38.3175],[27.05,38.3174],[27.0496,38.3188],[27.0497,38.3192],[27.0503,38.3193],[27.0504,38.3195],[27.0503,38.3199],[27.0498,38.3201],[27.0496,38.3206],[27.0488,38.3213],[27.0492,38.3223],[27.049,38.3232],[27.0491,38.3235],[27.0489,38.3238],[27.0478,38.3234],[27.0479,38.3231],[27.0474,38.3221],[27.0474,38.3214],[27.0471,38.3208],[27.046,38.3202],[27.045,38.3185],[27.0442,38.3178],[27.0429,38.3177],[27.0407,38.3171],[27.0396,38.316],[27.0365,38.315],[27.0351,38.3156],[27.0338,38.3157],[27.0314,38.318],[27.0305,38.3177],[27.0301,38.3171],[27.0297,38.3169],[27.0291,38.3169],[27.0284,38.3166],[27.0277,38.3168],[27.0273,38.3167],[27.0268,38.3165],[27.0262,38.3159],[27.0259,38.3159],[27.0254,38.3168],[27.0238,38.3161],[27.0229,38.3172],[27.0224,38.3175],[27.0202,38.3176],[27.0199,38.3172],[27.0179,38.3168],[27.0173,38.3174],[27.0168,38.3173],[27.0136,38.3188],[27.0117,38.3194],[27.0104,38.3196],[27.0089,38.3204],[27.0081,38.3213],[27.0068,38.3221],[27.0073,38.3231],[27.0073,38.324],[27.0055,38.3255],[27.0048,38.3256],[27.0038,38.3261],[27.0019,38.3239],[26.9999,38.3228],[26.9961,38.3229],[26.9941,38.3233],[26.9916,38.3219],[26.9914,38.3217],[26.9915,38.3215],[26.9928,38.3199],[26.9927,38.3196],[26.9913,38.3183],[26.9903,38.3179],[26.9885,38.3178],[26.9874,38.3173],[26.9868,38.3168],[26.9817,38.3156],[26.9804,38.3159],[26.9782,38.3158],[26.9777,38.3162],[26.9776,38.3167],[26.9763,38.3158],[26.9749,38.3159],[26.9742,38.3153],[26.9717,38.3148],[26.9702,38.3148],[26.969,38.3138],[26.9678,38.3136],[26.9674,38.3131],[26.9664,38.3126],[26.9658,38.3118],[26.9649,38.3118],[26.9647,38.3121],[26.9631,38.313],[26.9619,38.3127],[26.9595,38.3128],[26.9581,38.3125],[26.9567,38.3113],[26.9576,38.3109],[26.9583,38.3109],[26.9583,38.3103],[26.9583,38.3105]]}},{"type":"Feature","properties":{"id":"bus-24-s50722","kind":"busstop","ref":"24","name":"Kavacık","lines":["28"]},"geometry":{"type":"Point","coordinates":[26.9582,38.3105]}},{"type":"Feature","properties":{"id":"bus-24-s50708","kind":"busstop","ref":"24","name":"Orkide","lines":["28"]},"geometry":{"type":"Point","coordinates":[26.9571,38.3116]}},{"type":"Feature","properties":{"id":"bus-24-s16415","kind":"busstop","ref":"24","name":"Kavacık Çıkış","lines":[]},"geometry":{"type":"Point","coordinates":[26.9591,38.31261]}},{"type":"Feature","properties":{"id":"bus-24-s52605","kind":"busstop","ref":"24","name":"Kavacık Mezarlık","lines":[]},"geometry":{"type":"Point","coordinates":[26.96349,38.31274]}},{"type":"Feature","properties":{"id":"bus-24-s50720","kind":"busstop","ref":"24","name":"Çadır","lines":[]},"geometry":{"type":"Point","coordinates":[26.9651,38.3116]}},{"type":"Feature","properties":{"id":"bus-24-s52606","kind":"busstop","ref":"24","name":"Kavacık Manzara","lines":[]},"geometry":{"type":"Point","coordinates":[26.97161,38.3147]}},{"type":"Feature","properties":{"id":"bus-24-s52608","kind":"busstop","ref":"24","name":"Kavacık Tarla","lines":[]},"geometry":{"type":"Point","coordinates":[26.9769,38.31619]}},{"type":"Feature","properties":{"id":"bus-24-s52610","kind":"busstop","ref":"24","name":"Kavacık Çardak","lines":[]},"geometry":{"type":"Point","coordinates":[26.98128,38.31563]}},{"type":"Feature","properties":{"id":"bus-24-s52612","kind":"busstop","ref":"24","name":"Kavacık Bahçe","lines":[]},"geometry":{"type":"Point","coordinates":[26.9865,38.31674]}},{"type":"Feature","properties":{"id":"bus-24-s52615","kind":"busstop","ref":"24","name":"Kavacık Üzüm","lines":[]},"geometry":{"type":"Point","coordinates":[26.99321,38.32259]}},{"type":"Feature","properties":{"id":"bus-24-s52617","kind":"busstop","ref":"24","name":"Kavacık Küme","lines":[]},"geometry":{"type":"Point","coordinates":[26.99941,38.32268]}},{"type":"Feature","properties":{"id":"bus-24-s16417","kind":"busstop","ref":"24","name":"Kavacık Yol Ayrımı","lines":[]},"geometry":{"type":"Point","coordinates":[27.00355,38.32577]}},{"type":"Feature","properties":{"id":"bus-24-s50718","kind":"busstop","ref":"24","name":"Efem Çukuru","lines":[]},"geometry":{"type":"Point","coordinates":[27.0123,38.319]}},{"type":"Feature","properties":{"id":"bus-24-s52644","kind":"busstop","ref":"24","name":"Tırazlı Bahçe","lines":[]},"geometry":{"type":"Point","coordinates":[27.03913,38.31574]}},{"type":"Feature","properties":{"id":"bus-24-s50716","kind":"busstop","ref":"24","name":"Tırazlı Çıkış","lines":[]},"geometry":{"type":"Point","coordinates":[27.0592,38.3197]}},{"type":"Feature","properties":{"id":"bus-24-s50714","kind":"busstop","ref":"24","name":"Tırazlı","lines":[]},"geometry":{"type":"Point","coordinates":[27.0615,38.3189]}},{"type":"Feature","properties":{"id":"bus-24-s52149","kind":"busstop","ref":"24","name":"Tırazlı Kümeevler","lines":[]},"geometry":{"type":"Point","coordinates":[27.06756,38.32039]}},{"type":"Feature","properties":{"id":"bus-24-s16419","kind":"busstop","ref":"24","name":"Tırazlı Mezarlık","lines":[]},"geometry":{"type":"Point","coordinates":[27.07079,38.32537]}},{"type":"Feature","properties":{"id":"bus-24-s13256","kind":"busstop","ref":"24","name":"Sümbül","lines":["17","517","522","877"]},"geometry":{"type":"Point","coordinates":[27.08268,38.3531]}},{"type":"Feature","properties":{"id":"bus-24-s13268","kind":"busstop","ref":"24","name":"Yaşar Kemal Mahalle Muhtarlığı","lines":["17","517","522","877"]},"geometry":{"type":"Point","coordinates":[27.0821,38.35399]}},{"type":"Feature","properties":{"id":"bus-24-s50712","kind":"busstop","ref":"24","name":"Kavacık Yolu","lines":["17","517","522","877"]},"geometry":{"type":"Point","coordinates":[27.08007,38.36097]}},{"type":"Feature","properties":{"id":"bus-24-s14500","kind":"busstop","ref":"24","name":"Moda","lines":["17","25","202","510","650","671","690","873","977"]},"geometry":{"type":"Point","coordinates":[27.07448,38.37604]}},{"type":"Feature","properties":{"id":"bus-24-s50008","kind":"busstop","ref":"24","name":"Beyaz","lines":["5","6","7","8","25","82","202","305","311","321","481","510","650","909","971","975","977","981","982","983","984","985","987"]},"geometry":{"type":"Point","coordinates":[27.06161,38.39621]}},{"type":"Feature","properties":{"id":"bus-24-s50004","kind":"busstop","ref":"24","name":"Fahrettin Altay Meydan 9 ","lines":["5","6","7","10","25","82","167","202","305","311","321","480","510","551","650","675","684","883","909","945","946","971","975","977","981","982","983","984","985","987"]},"geometry":{"type":"Point","coordinates":[27.0686,38.3971]}},{"type":"Feature","properties":{"id":"bus-24-s10182","kind":"busstop","ref":"24","name":"Fahrettin Altay Meydan 5","lines":["5","6","7","10","25","202","480","486","510","650","945","977"]},"geometry":{"type":"Point","coordinates":[27.07112,38.39764]}},{"type":"Feature","properties":{"id":"bus-24-s10178","kind":"busstop","ref":"24","name":"Adnan Saygun Sanat Merkezi","lines":["5","6","7","10","25","202","480","486","510","650","945","946","977"]},"geometry":{"type":"Point","coordinates":[27.07629,38.39857]}},{"type":"Feature","properties":{"id":"bus-24-s50003","kind":"busstop","ref":"24","name":"Üçkuyular İskele Son Durak","lines":["480","486"]},"geometry":{"type":"Point","coordinates":[27.06905,38.40505]}},{"type":"Feature","properties":{"id":"bus-24-s10199","kind":"busstop","ref":"24","name":"Adnan Saygun Sanat Merkezi","lines":["5","6","7","17","25","202","480","486","510","650","671","690","873","977"]},"geometry":{"type":"Point","coordinates":[27.07748,38.39979]}},{"type":"Feature","properties":{"id":"bus-24-s10177","kind":"busstop","ref":"24","name":"Hava Hastanesi","lines":["5","6","7","10","17","25","202","480","486","510","650","671","690","873","977"]},"geometry":{"type":"Point","coordinates":[27.0732,38.3982]}},{"type":"Feature","properties":{"id":"bus-24-s50007","kind":"busstop","ref":"24","name":"Fahrettin Altay Meydan 2","lines":["5","6","7","25","202","311","480","510","551","650","811","950","977"]},"geometry":{"type":"Point","coordinates":[27.06869,38.39752]}},{"type":"Feature","properties":{"id":"bus-24-s14501","kind":"busstop","ref":"24","name":"Moda","lines":["17","25","202","510","650","671","690","873","977"]},"geometry":{"type":"Point","coordinates":[27.0731,38.3769]}},{"type":"Feature","properties":{"id":"bus-24-s50713","kind":"busstop","ref":"24","name":"Kavacık Yolu","lines":["17","517","522","877"]},"geometry":{"type":"Point","coordinates":[27.0804,38.3613]}},{"type":"Feature","properties":{"id":"bus-24-s13267","kind":"busstop","ref":"24","name":"Yaşar Kemal Mahalle Muhtarlığı","lines":["17","517","522","877"]},"geometry":{"type":"Point","coordinates":[27.08192,38.35392]}},{"type":"Feature","properties":{"id":"bus-24-s13257","kind":"busstop","ref":"24","name":"Sümbül","lines":["17","517","522","877"]},"geometry":{"type":"Point","coordinates":[27.08272,38.35292]}},{"type":"Feature","properties":{"id":"bus-24-s50710","kind":"busstop","ref":"24","name":"Tırazlı Mezarlık","lines":[]},"geometry":{"type":"Point","coordinates":[27.0703,38.3262]}},{"type":"Feature","properties":{"id":"bus-24-s52150","kind":"busstop","ref":"24","name":"Tırazlı Kümeevler","lines":[]},"geometry":{"type":"Point","coordinates":[27.06758,38.32047]}},{"type":"Feature","properties":{"id":"bus-24-s50715","kind":"busstop","ref":"24","name":"Tırazlı","lines":[]},"geometry":{"type":"Point","coordinates":[27.0616,38.319]}},{"type":"Feature","properties":{"id":"bus-24-s50717","kind":"busstop","ref":"24","name":"Tırazlı Çıkış","lines":[]},"geometry":{"type":"Point","coordinates":[27.0592,38.3198]}},{"type":"Feature","properties":{"id":"bus-24-s52645","kind":"busstop","ref":"24","name":"Tırazlı Bahçe","lines":[]},"geometry":{"type":"Point","coordinates":[27.03849,38.31568]}},{"type":"Feature","properties":{"id":"bus-24-s16418","kind":"busstop","ref":"24","name":"Efem Çukuru","lines":[]},"geometry":{"type":"Point","coordinates":[27.01216,38.31927]}},{"type":"Feature","properties":{"id":"bus-24-s52614","kind":"busstop","ref":"24","name":"Kavacık Üzüm","lines":[]},"geometry":{"type":"Point","coordinates":[26.99328,38.32272]}},{"type":"Feature","properties":{"id":"bus-24-s52616","kind":"busstop","ref":"24","name":"Kavacık Küme","lines":[]},"geometry":{"type":"Point","coordinates":[26.99919,38.32277]}},{"type":"Feature","properties":{"id":"bus-24-s50699","kind":"busstop","ref":"24","name":"Kavacık Yol Ayrımı","lines":[]},"geometry":{"type":"Point","coordinates":[27.0036,38.3259]}},{"type":"Feature","properties":{"id":"bus-24-s52613","kind":"busstop","ref":"24","name":"Kavacık Bahçe","lines":[]},"geometry":{"type":"Point","coordinates":[26.98639,38.31678]}},{"type":"Feature","properties":{"id":"bus-24-s52611","kind":"busstop","ref":"24","name":"Kavacık Çardak","lines":[]},"geometry":{"type":"Point","coordinates":[26.98123,38.31569]}},{"type":"Feature","properties":{"id":"bus-24-s52609","kind":"busstop","ref":"24","name":"Kavacık Tarla","lines":[]},"geometry":{"type":"Point","coordinates":[26.97667,38.31606]}},{"type":"Feature","properties":{"id":"bus-24-s52607","kind":"busstop","ref":"24","name":"Kavacık Manzara","lines":[]},"geometry":{"type":"Point","coordinates":[26.97152,38.31479]}},{"type":"Feature","properties":{"id":"bus-24-s50721","kind":"busstop","ref":"24","name":"Çadır","lines":[]},"geometry":{"type":"Point","coordinates":[26.96513,38.31184]}},{"type":"Feature","properties":{"id":"bus-24-s52604","kind":"busstop","ref":"24","name":"Kavacık Mezarlık","lines":[]},"geometry":{"type":"Point","coordinates":[26.96361,38.31276]}},{"type":"Feature","properties":{"id":"bus-24-s50703","kind":"busstop","ref":"24","name":"Kavacık Çıkış","lines":[]},"geometry":{"type":"Point","coordinates":[26.9588,38.3127]}},{"type":"Feature","properties":{"id":"bus-24-s16416","kind":"busstop","ref":"24","name":"Orkide","lines":["28"]},"geometry":{"type":"Point","coordinates":[26.95685,38.31166]}}]}