{"type":"FeatureCollection","features":[{"type":"Feature","properties":{"id":"bus-247-1","kind":"busline","ref":"247","dir":1},"geometry":{"type":"LineString","coordinates":[[27.091,38.5013],[27.0913,38.5017],[27.0911,38.5017],[27.0909,38.5021],[27.0905,38.5035],[27.0901,38.5042],[27.0894,38.5045],[27.0888,38.5045],[27.0881,38.504],[27.0878,38.5031],[27.0874,38.5026],[27.0875,38.5012],[27.088,38.501],[27.0891,38.4999],[27.0896,38.4998],[27.0922,38.4982],[27.0923,38.4979],[27.0921,38.4974],[27.0923,38.4966],[27.0921,38.4963],[27.0906,38.4952],[27.0899,38.494],[27.0885,38.4927],[27.0967,38.4943],[27.0984,38.4951],[27.0985,38.4955],[27.0967,38.4944],[27.0886,38.4928],[27.0858,38.4903],[27.0834,38.4909],[27.0834,38.4899],[27.0838,38.4897],[27.0831,38.4882],[27.0808,38.4889],[27.0803,38.4885],[27.0772,38.4879],[27.0762,38.4882],[27.0753,38.4877],[27.0743,38.4878],[27.0716,38.4887],[27.068,38.4904],[27.064,38.4928],[27.0625,38.4938],[27.0618,38.4945],[27.0615,38.4945],[27.0612,38.4942],[27.0586,38.4931],[27.0575,38.4931],[27.0574,38.4924],[27.057,38.4917],[27.0547,38.489],[27.058,38.487],[27.0595,38.4892],[27.0618,38.4917],[27.0619,38.4919],[27.0616,38.492]]}},{"type":"Feature","properties":{"id":"bus-247-2","kind":"busline","ref":"247","dir":2},"geometry":{"type":"LineString","coordinates":[[27.0616,38.492],[27.0619,38.4919],[27.0618,38.4917],[27.0595,38.4892],[27.058,38.487],[27.0547,38.489],[27.057,38.4917],[27.0576,38.493],[27.0589,38.493],[27.0591,38.4933],[27.0614,38.4942],[27.0686,38.4899],[27.0712,38.4887],[27.082,38.485],[27.0826,38.4844],[27.0824,38.4839],[27.082,38.4837],[27.0814,38.4838],[27.0811,38.4842],[27.0813,38.4847],[27.0819,38.4851],[27.0836,38.4859],[27.0842,38.4858],[27.0846,38.4854],[27.0844,38.4848],[27.0837,38.4846],[27.0763,38.4871],[27.0758,38.4874],[27.0757,38.4878],[27.0763,38.4882],[27.0768,38.4879],[27.0772,38.4879],[27.0799,38.4884],[27.0808,38.4889],[27.0831,38.4882],[27.0838,38.4897],[27.0834,38.4899],[27.0834,38.4909],[27.0858,38.4903],[27.0885,38.4927],[27.0967,38.4943],[27.0984,38.4951],[27.0985,38.4955],[27.0967,38.4944],[27.0886,38.4928],[27.0899,38.494],[27.0906,38.4952],[27.0921,38.4963],[27.0923,38.4966],[27.0921,38.4971],[27.0923,38.4979],[27.0922,38.4982],[27.0896,38.4998],[27.0891,38.4999],[27.088,38.501],[27.0875,38.5012],[27.0874,38.5026],[27.0878,38.5031],[27.0881,38.504],[27.0888,38.5045],[27.0894,38.5045],[27.0901,38.5042],[27.091,38.5019],[27.091,38.5014],[27.0907,38.5013],[27.091,38.5013]]}},{"type":"Feature","properties":{"id":"bus-247-s20836","kind":"busstop","ref":"247","name":"Evka 6","lines":["125","322","326","426","430","447"]},"geometry":{"type":"Point","coordinates":[27.091,38.50129]}},{"type":"Feature","properties":{"id":"bus-247-s20834","kind":"busstop","ref":"247","name":"Gürgen","lines":["426","430","447"]},"geometry":{"type":"Point","coordinates":[27.0906,38.5035]}},{"type":"Feature","properties":{"id":"bus-247-s20816","kind":"busstop","ref":"247","name":"Sevgi Ormanı","lines":["426","430","447"]},"geometry":{"type":"Point","coordinates":[27.0889,38.5045]}},{"type":"Feature","properties":{"id":"bus-247-s20832","kind":"busstop","ref":"247","name":"Şehit Astsubay Uğur Görkem Harmankaya","lines":["426","430","447"]},"geometry":{"type":"Point","coordinates":[27.0876,38.503]}},{"type":"Feature","properties":{"id":"bus-247-s20830","kind":"busstop","ref":"247","name":"Kamelya","lines":["426","447"]},"geometry":{"type":"Point","coordinates":[27.0879,38.501]}},{"type":"Feature","properties":{"id":"bus-247-s20828","kind":"busstop","ref":"247","name":"Şehit Jandarma Komando Fikri Koruer Parkı","lines":["426","447"]},"geometry":{"type":"Point","coordinates":[27.0901,38.4994]}},{"type":"Feature","properties":{"id":"bus-247-s20826","kind":"busstop","ref":"247","name":"Yıldız","lines":["426","447"]},"geometry":{"type":"Point","coordinates":[27.0918,38.4984]}},{"type":"Feature","properties":{"id":"bus-247-s20824","kind":"busstop","ref":"247","name":"Ketenci","lines":["430","447"]},"geometry":{"type":"Point","coordinates":[27.092,38.4963]}},{"type":"Feature","properties":{"id":"bus-247-s20822","kind":"busstop","ref":"247","name":"Kızılağaç","lines":["430","447"]},"geometry":{"type":"Point","coordinates":[27.0909,38.4953]}},{"type":"Feature","properties":{"id":"bus-247-s20820","kind":"busstop","ref":"247","name":"Acer","lines":["430","447"]},"geometry":{"type":"Point","coordinates":[27.0893,38.4933]}},{"type":"Feature","properties":{"id":"bus-247-s22012","kind":"busstop","ref":"247","name":"Oyak Blokları","lines":["430"]},"geometry":{"type":"Point","coordinates":[27.0906,38.493]}},{"type":"Feature","properties":{"id":"bus-247-s20857","kind":"busstop","ref":"247","name":"Körfez Köy","lines":["125","322","326","426","430"]},"geometry":{"type":"Point","coordinates":[27.0935,38.4936]}},{"type":"Feature","properties":{"id":"bus-247-s20853","kind":"busstop","ref":"247","name":"Mustafa Kemal Mahallesi Muhtarlığı","lines":["125","322","326","426","430"]},"geometry":{"type":"Point","coordinates":[27.0968,38.4943]}},{"type":"Feature","properties":{"id":"bus-247-s20858","kind":"busstop","ref":"247","name":"Mustafa Kemal Mahallesi Muhtarlığı","lines":["125","322","326","426","430"]},"geometry":{"type":"Point","coordinates":[27.0965,38.4944]}},{"type":"Feature","properties":{"id":"bus-247-s20856","kind":"busstop","ref":"247","name":"Körfez Köy","lines":["125","322","326","426","430"]},"geometry":{"type":"Point","coordinates":[27.094,38.4938]}},{"type":"Feature","properties":{"id":"bus-247-s22011","kind":"busstop","ref":"247","name":"Oyak Blokları","lines":["430"]},"geometry":{"type":"Point","coordinates":[27.0903,38.4931]}},{"type":"Feature","properties":{"id":"bus-247-s20818","kind":"busstop","ref":"247","name":"Akçaağaç","lines":["447"]},"geometry":{"type":"Point","coordinates":[27.0874,38.4916]}},{"type":"Feature","properties":{"id":"bus-247-s20764","kind":"busstop","ref":"247","name":"Aydınlıkevler Park","lines":["447"]},"geometry":{"type":"Point","coordinates":[27.0861,38.4905]}},{"type":"Feature","properties":{"id":"bus-247-s20760","kind":"busstop","ref":"247","name":"Aydınlıkevler Cami","lines":["447"]},"geometry":{"type":"Point","coordinates":[27.084,38.4908]}},{"type":"Feature","properties":{"id":"bus-247-s20758","kind":"busstop","ref":"247","name":"Aydınlıkevler Muhtarlık","lines":["447"]},"geometry":{"type":"Point","coordinates":[27.0833,38.4902]}},{"type":"Feature","properties":{"id":"bus-247-s20756","kind":"busstop","ref":"247","name":"Akasya","lines":["447"]},"geometry":{"type":"Point","coordinates":[27.0828,38.4883]}},{"type":"Feature","properties":{"id":"bus-247-s20762","kind":"busstop","ref":"247","name":"Fakir Baykurt Parkı","lines":["447"]},"geometry":{"type":"Point","coordinates":[27.0813,38.4888]}},{"type":"Feature","properties":{"id":"bus-247-s20754","kind":"busstop","ref":"247","name":"Göknar","lines":["344","447"]},"geometry":{"type":"Point","coordinates":[27.0795,38.4884]}},{"type":"Feature","properties":{"id":"bus-247-s20752","kind":"busstop","ref":"247","name":"Çiğli Emniyet Müdürlüğü","lines":["344","447"]},"geometry":{"type":"Point","coordinates":[27.07749,38.48806]}},{"type":"Feature","properties":{"id":"bus-247-s20081","kind":"busstop","ref":"247","name":"Çiğli İtfaiye","lines":["229","329","344","428","429","443","445","446","447","529","535","602","608","660","800","820","827","853","912","920"]},"geometry":{"type":"Point","coordinates":[27.0722,38.4885]}},{"type":"Feature","properties":{"id":"bus-247-s20083","kind":"busstop","ref":"247","name":"Eğitim Gönüllüleri","lines":["229","329","344","428","429","443","445","446","529","535","602","608","660","800","820","827","853","912","920"]},"geometry":{"type":"Point","coordinates":[27.0689,38.49]}},{"type":"Feature","properties":{"id":"bus-247-s20085","kind":"busstop","ref":"247","name":"Çiğli Belediye","lines":["229","329","344","428","429","443","446","529","535","602","608","660","800","820","827","853","912","920"]},"geometry":{"type":"Point","coordinates":[27.0663,38.4915]}},{"type":"Feature","properties":{"id":"bus-247-s21129","kind":"busstop","ref":"247","name":"Eshotçular Sitesi","lines":["123","149","329","342","344","529","595","751","816"]},"geometry":{"type":"Point","coordinates":[27.05683,38.4917]}},{"type":"Feature","properties":{"id":"bus-247-s21122","kind":"busstop","ref":"247","name":"Büyük Çiğli Mezarlık","lines":["123","149","329","342","344","529","595","751","816"]},"geometry":{"type":"Point","coordinates":[27.05498,38.48947]}},{"type":"Feature","properties":{"id":"bus-247-s24151","kind":"busstop","ref":"247","name":"Ataşehir Köprü","lines":["123","149","329","342","344","529","751","816"]},"geometry":{"type":"Point","coordinates":[27.05666,38.48776]}},{"type":"Feature","properties":{"id":"bus-247-s24153","kind":"busstop","ref":"247","name":"Ataşehir Mahallesi Parkı","lines":["123","149","329","342","344","529","751","816"]},"geometry":{"type":"Point","coordinates":[27.05948,38.48888]}},{"type":"Feature","properties":{"id":"bus-247-s22146","kind":"busstop","ref":"247","name":"Çiğli Aktarma Merkezi","lines":["344","547"]},"geometry":{"type":"Point","coordinates":[27.0616,38.49207]}},{"type":"Feature","properties":{"id":"bus-247-s24152","kind":"busstop","ref":"247","name":"Ataşehir Mahallesi Parkı","lines":["123","149","329","342","344","529","751","816"]},"geometry":{"type":"Point","coordinates":[27.0589,38.48838]}},{"type":"Feature","properties":{"id":"bus-247-s24150","kind":"busstop","ref":"247","name":"Ataşehir Köprü","lines":["123","149","329","342","344","529","751","816"]},"geometry":{"type":"Point","coordinates":[27.05624,38.48817]}},{"type":"Feature","properties":{"id":"bus-247-s21123","kind":"busstop","ref":"247","name":"Büyük Çiğli Mezarlık","lines":["123","149","329","342","344","529","595","751","816"]},"geometry":{"type":"Point","coordinates":[27.0551,38.4894]}},{"type":"Feature","properties":{"id":"bus-247-s21130","kind":"busstop","ref":"247","name":"Eshotçular Sitesi","lines":["123","149","329","342","344","529","595","751","816"]},"geometry":{"type":"Point","coordinates":[27.05734,38.49217]}},{"type":"Feature","properties":{"id":"bus-247-s20086","kind":"busstop","ref":"247","name":"Çiğli Belediye","lines":["229","329","344","428","429","443","446","529","535","602","608","660","800","820","827","853","912","920"]},"geometry":{"type":"Point","coordinates":[27.0665,38.4911]}},{"type":"Feature","properties":{"id":"bus-247-s20084","kind":"busstop","ref":"247","name":"Eğitim Gönüllüleri","lines":["229","329","344","428","429","443","445","446","529","535","602","608","660","800","820","827","853","912","920"]},"geometry":{"type":"Point","coordinates":[27.069,38.4896]}},{"type":"Feature","properties":{"id":"bus-247-s20082","kind":"busstop","ref":"247","name":"Çiğli İtfaiye","lines":["229","329","344","428","429","443","445","446","529","535","602","608","660","800","820","827","853","912","920"]},"geometry":{"type":"Point","coordinates":[27.0726,38.4882]}},{"type":"Feature","properties":{"id":"bus-247-s20751","kind":"busstop","ref":"247","name":"Çiğli Emniyet Müdürlüğü","lines":["344","447"]},"geometry":{"type":"Point","coordinates":[27.0775,38.4879]}},{"type":"Feature","properties":{"id":"bus-247-s20753","kind":"busstop","ref":"247","name":"Göknar","lines":["344","447"]},"geometry":{"type":"Point","coordinates":[27.07985,38.48836]}},{"type":"Feature","properties":{"id":"bus-247-s20761","kind":"busstop","ref":"247","name":"Fakir Baykurt Parkı","lines":["447"]},"geometry":{"type":"Point","coordinates":[27.08115,38.48872]}},{"type":"Feature","properties":{"id":"bus-247-s20755","kind":"busstop","ref":"247","name":"Akasya","lines":["447"]},"geometry":{"type":"Point","coordinates":[27.0825,38.4883]}},{"type":"Feature","properties":{"id":"bus-247-s20757","kind":"busstop","ref":"247","name":"Aydınlıkevler Muhtarlık","lines":["447"]},"geometry":{"type":"Point","coordinates":[27.0834,38.4903]}},{"type":"Feature","properties":{"id":"bus-247-s20759","kind":"busstop","ref":"247","name":"Aydınlıkevler Cami","lines":["447"]},"geometry":{"type":"Point","coordinates":[27.0839,38.4907]}},{"type":"Feature","properties":{"id":"bus-247-s20763","kind":"busstop","ref":"247","name":"Aydınlıkevler Park","lines":["447"]},"geometry":{"type":"Point","coordinates":[27.0862,38.4905]}},{"type":"Feature","properties":{"id":"bus-247-s20819","kind":"busstop","ref":"247","name":"Akçaağaç","lines":["447"]},"geometry":{"type":"Point","coordinates":[27.0875,38.4917]}},{"type":"Feature","properties":{"id":"bus-247-s20821","kind":"busstop","ref":"247","name":"Acer","lines":["430","447"]},"geometry":{"type":"Point","coordinates":[27.0895,38.4933]}},{"type":"Feature","properties":{"id":"bus-247-s20823","kind":"busstop","ref":"247","name":"Kızılağaç","lines":["430","447"]},"geometry":{"type":"Point","coordinates":[27.0911,38.4954]}},{"type":"Feature","properties":{"id":"bus-247-s20825","kind":"busstop","ref":"247","name":"Ketenci","lines":["430","447"]},"geometry":{"type":"Point","coordinates":[27.09205,38.49621]}},{"type":"Feature","properties":{"id":"bus-247-s20827","kind":"busstop","ref":"247","name":"Yıldız","lines":["426","447"]},"geometry":{"type":"Point","coordinates":[27.0918,38.4985]}},{"type":"Feature","properties":{"id":"bus-247-s20829","kind":"busstop","ref":"247","name":"Şehit Jandarma Komando Fikri Koruer Parkı","lines":["426","447"]},"geometry":{"type":"Point","coordinates":[27.0898,38.4997]}},{"type":"Feature","properties":{"id":"bus-247-s20831","kind":"busstop","ref":"247","name":"Kamelya","lines":["426","447"]},"geometry":{"type":"Point","coordinates":[27.0878,38.5011]}},{"type":"Feature","properties":{"id":"bus-247-s20833","kind":"busstop","ref":"247","name":"Şehit Astsubay Uğur Görkem Harmankaya","lines":["426","430","447"]},"geometry":{"type":"Point","coordinates":[27.088,38.5033]}},{"type":"Feature","properties":{"id":"bus-247-s20815","kind":"busstop","ref":"247","name":"Sevgi Ormanı","lines":["426","430","447"]},"geometry":{"type":"Point","coordinates":[27.0891,38.5044]}},{"type":"Feature","properties":{"id":"bus-247-s20835","kind":"busstop","ref":"247","name":"Gürgen","lines":["426","430","447"]},"geometry":{"type":"Point","coordinates":[27.0905,38.5033]}}]}