{"type":"FeatureCollection","features":[{"type":"Feature","properties":{"id":"bus-249-1","kind":"busline","ref":"249","dir":1},"geometry":{"type":"LineString","coordinates":[[27.2144,38.495],[27.2129,38.4943],[27.2127,38.4928],[27.213,38.4923],[27.2144,38.4916],[27.2153,38.4907],[27.2141,38.4878],[27.2169,38.4879],[27.2176,38.4856],[27.2185,38.4841],[27.2185,38.4838],[27.2147,38.4828],[27.2119,38.4829],[27.2077,38.4844],[27.2063,38.4843],[27.2052,38.484],[27.2046,38.4836],[27.2037,38.4827],[27.2045,38.481],[27.2042,38.4804],[27.205,38.4794],[27.2029,38.4785],[27.2027,38.4783],[27.2026,38.4772],[27.2029,38.4758],[27.2066,38.4732],[27.2068,38.473],[27.2067,38.4729],[27.204,38.472],[27.2023,38.4724],[27.1987,38.4734],[27.1943,38.4758],[27.1927,38.4765],[27.1913,38.4768],[27.1905,38.4768],[27.1889,38.4764],[27.1866,38.4751],[27.1855,38.474],[27.1859,38.4715],[27.1863,38.4716],[27.1874,38.4712],[27.1895,38.471],[27.1912,38.4713],[27.1924,38.472],[27.1929,38.4721],[27.1947,38.4714],[27.1937,38.4695],[27.1948,38.4669],[27.1951,38.4639],[27.1949,38.4631],[27.1945,38.4626],[27.1943,38.4618],[27.1938,38.461],[27.1937,38.4596],[27.1933,38.4594],[27.1904,38.4591],[27.1879,38.4584],[27.1846,38.4567],[27.1769,38.4551],[27.1789,38.4514],[27.179,38.4508],[27.1794,38.4505],[27.1805,38.4484],[27.1804,38.4478],[27.1808,38.4476],[27.1811,38.446],[27.1803,38.4441],[27.18,38.4426],[27.1801,38.4402],[27.1805,38.4382],[27.1806,38.4339],[27.1804,38.4332],[27.1806,38.4328],[27.18,38.4286],[27.1801,38.4273],[27.1799,38.4265],[27.1789,38.4261],[27.175,38.426],[27.1739,38.4256],[27.1705,38.4252],[27.1671,38.4242],[27.1631,38.4233],[27.1595,38.4234],[27.1563,38.4229],[27.1562,38.4223],[27.1566,38.4213],[27.1569,38.421],[27.1567,38.4219]]}},{"type":"Feature","properties":{"id":"bus-249-2","kind":"busline","ref":"249","dir":2},"geometry":{"type":"LineString","coordinates":[[27.1567,38.4219],[27.1563,38.4225],[27.1564,38.4227],[27.1594,38.4233],[27.1629,38.4232],[27.1643,38.4234],[27.1711,38.4252],[27.1739,38.4255],[27.1749,38.4259],[27.1779,38.4259],[27.1789,38.4261],[27.1801,38.426],[27.1803,38.4273],[27.1803,38.4298],[27.1807,38.4321],[27.1806,38.4381],[27.1802,38.4415],[27.1802,38.443],[27.1807,38.4447],[27.1812,38.4455],[27.181,38.4473],[27.1811,38.4482],[27.1806,38.4484],[27.1793,38.4511],[27.1774,38.4544],[27.1774,38.4548],[27.1776,38.4551],[27.1783,38.4554],[27.1799,38.4557],[27.1813,38.4556],[27.1819,38.456],[27.1839,38.4564],[27.1887,38.4585],[27.1905,38.459],[27.1938,38.4593],[27.1941,38.4595],[27.1939,38.4598],[27.1939,38.461],[27.1945,38.462],[27.195,38.4624],[27.1952,38.4635],[27.1951,38.4658],[27.1953,38.4662],[27.1941,38.4693],[27.1942,38.47],[27.195,38.4714],[27.1927,38.4722],[27.1912,38.4713],[27.1902,38.4711],[27.1887,38.471],[27.187,38.4713],[27.186,38.4717],[27.1856,38.4736],[27.1857,38.4741],[27.1868,38.4751],[27.1896,38.4765],[27.1916,38.4767],[27.1942,38.4758],[27.1958,38.4747],[27.199,38.4732],[27.2033,38.4721],[27.2043,38.472],[27.2069,38.473],[27.2032,38.4755],[27.2028,38.4762],[27.2026,38.4772],[27.2027,38.4783],[27.2036,38.4789],[27.2051,38.4794],[27.2046,38.48],[27.2045,38.4813],[27.2041,38.4821],[27.2042,38.4831],[27.2046,38.4836],[27.2052,38.484],[27.2063,38.4843],[27.2077,38.4844],[27.2113,38.483],[27.2126,38.4828],[27.2147,38.4828],[27.2189,38.4838],[27.2178,38.4853],[27.2172,38.488],[27.2143,38.4878],[27.2145,38.489],[27.2154,38.4907],[27.2144,38.4917],[27.2129,38.4925],[27.2129,38.4941],[27.2133,38.4945],[27.2144,38.495]]}},{"type":"Feature","properties":{"id":"bus-249-s31370","kind":"busstop","ref":"249","name":"Evka 4 Son Durak","lines":["168","565","566","568","585"]},"geometry":{"type":"Point","coordinates":[27.21397,38.49504]}},{"type":"Feature","properties":{"id":"bus-249-s31368","kind":"busstop","ref":"249","name":"Evka-4 Anaokulu","lines":["168","565","566","568","585"]},"geometry":{"type":"Point","coordinates":[27.2128,38.4936]}},{"type":"Feature","properties":{"id":"bus-249-s31366","kind":"busstop","ref":"249","name":"Mehmet Akif Cami","lines":["168","565","566","568","585"]},"geometry":{"type":"Point","coordinates":[27.2137,38.4919]}},{"type":"Feature","properties":{"id":"bus-249-s31364","kind":"busstop","ref":"249","name":"Evka 4 Muhtarlık","lines":["168","365","565","566","568","585"]},"geometry":{"type":"Point","coordinates":[27.2149,38.4903]}},{"type":"Feature","properties":{"id":"bus-249-s31362","kind":"busstop","ref":"249","name":"Yeditepe İtfaiye","lines":["168","365","565","566","568"]},"geometry":{"type":"Point","coordinates":[27.21429,38.48832]}},{"type":"Feature","properties":{"id":"bus-249-s31360","kind":"busstop","ref":"249","name":"Depo","lines":["168","365","565","566","568"]},"geometry":{"type":"Point","coordinates":[27.21643,38.48784]}},{"type":"Feature","properties":{"id":"bus-249-s31358","kind":"busstop","ref":"249","name":"Nedim Dağtaş","lines":["168","365","565","566","568"]},"geometry":{"type":"Point","coordinates":[27.21793,38.48517]}},{"type":"Feature","properties":{"id":"bus-249-s31392","kind":"busstop","ref":"249","name":"Turgut Reis","lines":["168","568"]},"geometry":{"type":"Point","coordinates":[27.21577,38.48306]}},{"type":"Feature","properties":{"id":"bus-249-s31390","kind":"busstop","ref":"249","name":"Gazi","lines":["168","568"]},"geometry":{"type":"Point","coordinates":[27.21257,38.48286]}},{"type":"Feature","properties":{"id":"bus-249-s31388","kind":"busstop","ref":"249","name":"Akdemir Parkı","lines":["168","568"]},"geometry":{"type":"Point","coordinates":[27.20853,38.48437]}},{"type":"Feature","properties":{"id":"bus-249-s31386","kind":"busstop","ref":"249","name":"Sevgi","lines":["168","568"]},"geometry":{"type":"Point","coordinates":[27.2049,38.484]}},{"type":"Feature","properties":{"id":"bus-249-s32423","kind":"busstop","ref":"249","name":"Seyit Şanlı Anadolu Lisesi","lines":["168","568","584","585"]},"geometry":{"type":"Point","coordinates":[27.2041,38.48185]}},{"type":"Feature","properties":{"id":"bus-249-s31246","kind":"busstop","ref":"249","name":"Bülbül","lines":["168","568","585"]},"geometry":{"type":"Point","coordinates":[27.2042,38.4791]}},{"type":"Feature","properties":{"id":"bus-249-s31244","kind":"busstop","ref":"249","name":"Zehra Hoca İlköğretim Okulu","lines":["168","568"]},"geometry":{"type":"Point","coordinates":[27.2026,38.4779]}},{"type":"Feature","properties":{"id":"bus-249-s31242","kind":"busstop","ref":"249","name":"Ali İhsan Bey","lines":["168","568"]},"geometry":{"type":"Point","coordinates":[27.20297,38.4756]}},{"type":"Feature","properties":{"id":"bus-249-s31240","kind":"busstop","ref":"249","name":"Dörtyol","lines":["168","568"]},"geometry":{"type":"Point","coordinates":[27.2062,38.47339]}},{"type":"Feature","properties":{"id":"bus-249-s31228","kind":"busstop","ref":"249","name":"Şehit Kara Pilot Yüzbaşı Mehmet İlker Karaman","lines":["168","568"]},"geometry":{"type":"Point","coordinates":[27.20295,38.47239]}},{"type":"Feature","properties":{"id":"bus-249-s31224","kind":"busstop","ref":"249","name":"İsmet Sezgin İlköğretim Okulu","lines":["168","568"]},"geometry":{"type":"Point","coordinates":[27.19821,38.47366]}},{"type":"Feature","properties":{"id":"bus-249-s31222","kind":"busstop","ref":"249","name":"Şehit Harun Bağlam","lines":["168","568","570"]},"geometry":{"type":"Point","coordinates":[27.19467,38.47554]}},{"type":"Feature","properties":{"id":"bus-249-s31218","kind":"busstop","ref":"249","name":"Aydın","lines":["168","568","570"]},"geometry":{"type":"Point","coordinates":[27.18984,38.47664]}},{"type":"Feature","properties":{"id":"bus-249-s31216","kind":"busstop","ref":"249","name":"Öğretmen","lines":["168","568","570"]},"geometry":{"type":"Point","coordinates":[27.18772,38.47569]}},{"type":"Feature","properties":{"id":"bus-249-s31214","kind":"busstop","ref":"249","name":"Osman Gazi","lines":["168","568","570"]},"geometry":{"type":"Point","coordinates":[27.18591,38.47449]}},{"type":"Feature","properties":{"id":"bus-249-s31206","kind":"busstop","ref":"249","name":"Şehit Asteğmen Ergin KAYA","lines":["568","570"]},"geometry":{"type":"Point","coordinates":[27.18728,38.47118]}},{"type":"Feature","properties":{"id":"bus-249-s31204","kind":"busstop","ref":"249","name":"İbrahim Ethem","lines":["568","570"]},"geometry":{"type":"Point","coordinates":[27.18974,38.47095]}},{"type":"Feature","properties":{"id":"bus-249-s31202","kind":"busstop","ref":"249","name":"Çukurbahçe Cami","lines":["568","570"]},"geometry":{"type":"Point","coordinates":[27.19306,38.47197]}},{"type":"Feature","properties":{"id":"bus-249-s31190","kind":"busstop","ref":"249","name":"Dalgın","lines":["570"]},"geometry":{"type":"Point","coordinates":[27.19427,38.47071]}},{"type":"Feature","properties":{"id":"bus-249-s31188","kind":"busstop","ref":"249","name":"Aydınkent","lines":["570"]},"geometry":{"type":"Point","coordinates":[27.19409,38.46845]}},{"type":"Feature","properties":{"id":"bus-249-s31186","kind":"busstop","ref":"249","name":"Şehit Polis Fethi Sekin İlköğretim Okulu","lines":["498","570"]},"geometry":{"type":"Point","coordinates":[27.19503,38.46371]}},{"type":"Feature","properties":{"id":"bus-249-s31192","kind":"busstop","ref":"249","name":"Mustafa Kemal Lisesi","lines":["498","570"]},"geometry":{"type":"Point","coordinates":[27.19371,38.46059]}},{"type":"Feature","properties":{"id":"bus-249-s30308","kind":"busstop","ref":"249","name":"Çamkıran","lines":["214","328","330","515","559","930","963"]},"geometry":{"type":"Point","coordinates":[27.1915,38.4592]}},{"type":"Feature","properties":{"id":"bus-249-s30306","kind":"busstop","ref":"249","name":"Şehit Murat Aslantürk","lines":["214","328","330","515","930","963"]},"geometry":{"type":"Point","coordinates":[27.18692,38.45803]}},{"type":"Feature","properties":{"id":"bus-249-s30302","kind":"busstop","ref":"249","name":"Şehit Hakan Ünal","lines":["214","328","330","515","930","963"]},"geometry":{"type":"Point","coordinates":[27.18391,38.45657]}},{"type":"Feature","properties":{"id":"bus-249-s30300","kind":"busstop","ref":"249","name":"Adalet Mahallesi","lines":["214","330","515","930","963"]},"geometry":{"type":"Point","coordinates":[27.179,38.4556]}},{"type":"Feature","properties":{"id":"bus-249-s30282","kind":"busstop","ref":"249","name":"Halide Edip Adıvar","lines":["102","214","359","498","501","502","503","504","513","515","543","599","662","699","930","963"]},"geometry":{"type":"Point","coordinates":[27.17845,38.45217]}},{"type":"Feature","properties":{"id":"bus-249-s30280","kind":"busstop","ref":"249","name":"Adliye","lines":["102","214","501","502","503","504","513","515","539","543","599","662","699","930","963"]},"geometry":{"type":"Point","coordinates":[27.1796,38.45]}},{"type":"Feature","properties":{"id":"bus-249-s30140","kind":"busstop","ref":"249","name":"Üçüncü Sanayi","lines":["102","168","214","501","502","503","504","513","515","539","543","599","662","699","930"]},"geometry":{"type":"Point","coordinates":[27.181,38.4458]}},{"type":"Feature","properties":{"id":"bus-249-s30136","kind":"busstop","ref":"249","name":"Stadyum İstasyon","lines":["119","214","515","539","543","662","699","930"]},"geometry":{"type":"Point","coordinates":[27.18,38.4415]}},{"type":"Feature","properties":{"id":"bus-249-s30134","kind":"busstop","ref":"249","name":"Mersinli","lines":["54","55","119","214","515","539","543","555","662","699","930"]},"geometry":{"type":"Point","coordinates":[27.1804,38.438]}},{"type":"Feature","properties":{"id":"bus-249-s30132","kind":"busstop","ref":"249","name":"Çamdibi Sağlık Ocağı","lines":["54","55","214","515","539","543","555","662","699","930"]},"geometry":{"type":"Point","coordinates":[27.1805,38.4349]}},{"type":"Feature","properties":{"id":"bus-249-s30130","kind":"busstop","ref":"249","name":"Taç Sanayi","lines":["53","54","59","214","662","699"]},"geometry":{"type":"Point","coordinates":[27.1805,38.432]}},{"type":"Feature","properties":{"id":"bus-249-s30128","kind":"busstop","ref":"249","name":"Birinci Sanayi Sitesi","lines":["53","54","59","214","662","699"]},"geometry":{"type":"Point","coordinates":[27.1802,38.4301]}},{"type":"Feature","properties":{"id":"bus-249-s30124","kind":"busstop","ref":"249","name":"Miralay Fethi Bey","lines":["53","54","59","214","662","699"]},"geometry":{"type":"Point","coordinates":[27.17995,38.42777]}},{"type":"Feature","properties":{"id":"bus-249-s32243","kind":"busstop","ref":"249","name":"Ağır Bakım","lines":["54","57","58","59","60","64","117","153","154","214","302","367","662","699"]},"geometry":{"type":"Point","coordinates":[27.17642,38.42606]}},{"type":"Feature","properties":{"id":"bus-249-s10370","kind":"busstop","ref":"249","name":"Halkapınar İZSU","lines":["54","57","58","59","60","64","117","153","154","214","302","367","662","699"]},"geometry":{"type":"Point","coordinates":[27.1734,38.4256]}},{"type":"Feature","properties":{"id":"bus-249-s10368","kind":"busstop","ref":"249","name":"Yenişehir PTT","lines":["44","45","54","57","58","59","60","64","117","153","214","302","367","418","662","699"]},"geometry":{"type":"Point","coordinates":[27.16915,38.4248]}},{"type":"Feature","properties":{"id":"bus-249-s10366","kind":"busstop","ref":"249","name":"Tepecik Doğum Hastanesi","lines":["44","45","54","57","58","59","60","64","117","153","214","302","367","418","662","699"]},"geometry":{"type":"Point","coordinates":[27.1662,38.424]}},{"type":"Feature","properties":{"id":"bus-249-s10364","kind":"busstop","ref":"249","name":"Ziya Gökalp Ortaokulu","lines":["44","45","54","57","58","59","60","64","117","153","214","302","367","418","662","699"]},"geometry":{"type":"Point","coordinates":[27.1627,38.4233]}},{"type":"Feature","properties":{"id":"bus-249-s10362","kind":"busstop","ref":"249","name":"Eşref Paşa Hastanesi","lines":["44","45","54","57","58","59","60","64","117","153","214","302","367","418","662","699"]},"geometry":{"type":"Point","coordinates":[27.16,38.4234]}},{"type":"Feature","properties":{"id":"bus-249-s13343","kind":"busstop","ref":"249","name":"Kemer Aktarma Merkezi","lines":[]},"geometry":{"type":"Point","coordinates":[27.15673,38.42192]}},{"type":"Feature","properties":{"id":"bus-249-s10363","kind":"busstop","ref":"249","name":"Eşref Paşa Hastanesi","lines":["44","45","49","54","57","58","59","60","64","117","153","214","302","367","418","662","699"]},"geometry":{"type":"Point","coordinates":[27.16153,38.42325]}},{"type":"Feature","properties":{"id":"bus-249-s10365","kind":"busstop","ref":"249","name":"Ziya Gökalp Ortaokulu","lines":["44","45","49","54","57","58","59","60","64","117","153","214","302","367","418","662","699"]},"geometry":{"type":"Point","coordinates":[27.16312,38.42325]}},{"type":"Feature","properties":{"id":"bus-249-s10367","kind":"busstop","ref":"249","name":"Tepecik Doğum Hastanesi","lines":["44","45","54","57","58","59","60","64","117","153","214","302","367","418","662","699"]},"geometry":{"type":"Point","coordinates":[27.1663,38.4239]}},{"type":"Feature","properties":{"id":"bus-249-s10369","kind":"busstop","ref":"249","name":"Yenişehir PTT","lines":["44","45","54","57","58","59","60","64","117","153","214","302","367","418","662","699"]},"geometry":{"type":"Point","coordinates":[27.17008,38.42475]}},{"type":"Feature","properties":{"id":"bus-249-s10371","kind":"busstop","ref":"249","name":"Halkapınar İZSU","lines":["54","57","58","59","60","64","117","153","154","214","302","367","662","699"]},"geometry":{"type":"Point","coordinates":[27.1742,38.4256]}},{"type":"Feature","properties":{"id":"bus-249-s32244","kind":"busstop","ref":"249","name":"Ağır Bakım","lines":["54","57","58","59","60","64","117","153","154","214","302","367","662","699"]},"geometry":{"type":"Point","coordinates":[27.17645,38.42588]}},{"type":"Feature","properties":{"id":"bus-249-s30123","kind":"busstop","ref":"249","name":"Miralay Fethi Bey","lines":["53","54","59","214","662","699"]},"geometry":{"type":"Point","coordinates":[27.18036,38.42772]}},{"type":"Feature","properties":{"id":"bus-249-s30127","kind":"busstop","ref":"249","name":"Birinci Sanayi Sitesi","lines":["53","54","59","214","662","699"]},"geometry":{"type":"Point","coordinates":[27.1805,38.4301]}},{"type":"Feature","properties":{"id":"bus-249-s30129","kind":"busstop","ref":"249","name":"Taç Sanayi","lines":["53","54","59","214","662","699"]},"geometry":{"type":"Point","coordinates":[27.18064,38.4317]}},{"type":"Feature","properties":{"id":"bus-249-s30131","kind":"busstop","ref":"249","name":"Çamdibi Sağlık Ocağı","lines":["54","102","214","498","501","502","503","504","513","515","539","543","555","599","662","699","930"]},"geometry":{"type":"Point","coordinates":[27.1807,38.4352]}},{"type":"Feature","properties":{"id":"bus-249-s30133","kind":"busstop","ref":"249","name":"Mersinli","lines":["102","214","498","501","502","503","504","513","515","539","543","599","662","699","930"]},"geometry":{"type":"Point","coordinates":[27.18073,38.43757]}},{"type":"Feature","properties":{"id":"bus-249-s30135","kind":"busstop","ref":"249","name":"Stadyum İstasyon","lines":["102","214","498","501","502","503","504","513","515","539","543","599","662","699","930"]},"geometry":{"type":"Point","coordinates":[27.1803,38.442]}},{"type":"Feature","properties":{"id":"bus-249-s30137","kind":"busstop","ref":"249","name":"Bölge İdare Mahkemesi","lines":["102","214","498","501","502","503","504","513","515","539","543","599","662","699","930"]},"geometry":{"type":"Point","coordinates":[27.1806,38.4442]}},{"type":"Feature","properties":{"id":"bus-249-s30139","kind":"busstop","ref":"249","name":"Üçüncü Sanayi","lines":["102","214","498","501","502","503","504","513","515","539","543","599","662","699","930"]},"geometry":{"type":"Point","coordinates":[27.1812,38.4464]}},{"type":"Feature","properties":{"id":"bus-249-s30279","kind":"busstop","ref":"249","name":"Adliye","lines":["102","214","498","501","502","503","504","513","515","539","543","599","662","699","930","963"]},"geometry":{"type":"Point","coordinates":[27.1799,38.4498]}},{"type":"Feature","properties":{"id":"bus-249-s30281","kind":"busstop","ref":"249","name":"Halide Edip Adıvar","lines":["102","214","338","359","498","501","502","503","504","513","515","543","599","662","699","930","963"]},"geometry":{"type":"Point","coordinates":[27.17891,38.45184]}},{"type":"Feature","properties":{"id":"bus-249-s30299","kind":"busstop","ref":"249","name":"Adalet Mahallesi","lines":["214","330","515","930","963"]},"geometry":{"type":"Point","coordinates":[27.1789,38.4554]}},{"type":"Feature","properties":{"id":"bus-249-s30301","kind":"busstop","ref":"249","name":"Şehit Hakan Ünal","lines":["214","328","330","515","930","963"]},"geometry":{"type":"Point","coordinates":[27.18288,38.45615]}},{"type":"Feature","properties":{"id":"bus-249-s30303","kind":"busstop","ref":"249","name":"Şehit Murat Aslantürk","lines":["214","328","330","515","930","963"]},"geometry":{"type":"Point","coordinates":[27.187,38.4577]}},{"type":"Feature","properties":{"id":"bus-249-s30305","kind":"busstop","ref":"249","name":"Çamkıran","lines":["214","328","330","515","559","930","963"]},"geometry":{"type":"Point","coordinates":[27.1918,38.4591]}},{"type":"Feature","properties":{"id":"bus-249-s31191","kind":"busstop","ref":"249","name":"Mustafa Kemal Lisesi","lines":["498","570"]},"geometry":{"type":"Point","coordinates":[27.19391,38.46065]}},{"type":"Feature","properties":{"id":"bus-249-s31185","kind":"busstop","ref":"249","name":"Şehit Polis Fethi Sekin İlköğretim Okulu","lines":["498","570"]},"geometry":{"type":"Point","coordinates":[27.19521,38.46335]}},{"type":"Feature","properties":{"id":"bus-249-s31187","kind":"busstop","ref":"249","name":"Aydınkent","lines":["570"]},"geometry":{"type":"Point","coordinates":[27.19501,38.46731]}},{"type":"Feature","properties":{"id":"bus-249-s31189","kind":"busstop","ref":"249","name":"Dalgın","lines":["570"]},"geometry":{"type":"Point","coordinates":[27.19443,38.47046]}},{"type":"Feature","properties":{"id":"bus-249-s31201","kind":"busstop","ref":"249","name":"Çukurbahçe Cami","lines":["568","570"]},"geometry":{"type":"Point","coordinates":[27.19322,38.47207]}},{"type":"Feature","properties":{"id":"bus-249-s31203","kind":"busstop","ref":"249","name":"İbrahim Ethem","lines":["568","570"]},"geometry":{"type":"Point","coordinates":[27.19021,38.47109]}},{"type":"Feature","properties":{"id":"bus-249-s31205","kind":"busstop","ref":"249","name":"Şehit Asteğmen Ergin KAYA","lines":["568","570"]},"geometry":{"type":"Point","coordinates":[27.18715,38.47132]}},{"type":"Feature","properties":{"id":"bus-249-s31213","kind":"busstop","ref":"249","name":"Osman Gazi","lines":["168","568","570"]},"geometry":{"type":"Point","coordinates":[27.18611,38.47448]}},{"type":"Feature","properties":{"id":"bus-249-s31215","kind":"busstop","ref":"249","name":"Öğretmen","lines":["168","568","570"]},"geometry":{"type":"Point","coordinates":[27.18783,38.47559]}},{"type":"Feature","properties":{"id":"bus-249-s31217","kind":"busstop","ref":"249","name":"Aydın","lines":["168","568","570"]},"geometry":{"type":"Point","coordinates":[27.19089,38.47672]}},{"type":"Feature","properties":{"id":"bus-249-s31221","kind":"busstop","ref":"249","name":"Şehit Harun Bağlam","lines":["168","568","570"]},"geometry":{"type":"Point","coordinates":[27.19434,38.47562]}},{"type":"Feature","properties":{"id":"bus-249-s31223","kind":"busstop","ref":"249","name":"İsmet Sezgin İlköğretim Okulu","lines":["168","568"]},"geometry":{"type":"Point","coordinates":[27.19843,38.47343]}},{"type":"Feature","properties":{"id":"bus-249-s31227","kind":"busstop","ref":"249","name":"Şehit Kara Pilot Yüzbaşı Mehmet İlker Karaman","lines":["168","568"]},"geometry":{"type":"Point","coordinates":[27.20375,38.472]}},{"type":"Feature","properties":{"id":"bus-249-s31239","kind":"busstop","ref":"249","name":"Dörtyol","lines":["168","568"]},"geometry":{"type":"Point","coordinates":[27.20627,38.47341]}},{"type":"Feature","properties":{"id":"bus-249-s31241","kind":"busstop","ref":"249","name":"Ali İhsan Bey","lines":["168","568"]},"geometry":{"type":"Point","coordinates":[27.20285,38.47618]}},{"type":"Feature","properties":{"id":"bus-249-s31243","kind":"busstop","ref":"249","name":"Zehra Hoca İlköğretim Okulu","lines":["168","568"]},"geometry":{"type":"Point","coordinates":[27.2027,38.4781]}},{"type":"Feature","properties":{"id":"bus-249-s31245","kind":"busstop","ref":"249","name":"Bülbül","lines":["168","568","585"]},"geometry":{"type":"Point","coordinates":[27.2044,38.479]}},{"type":"Feature","properties":{"id":"bus-249-s31319","kind":"busstop","ref":"249","name":"Seyit Şanlı Anadolu Lisesi","lines":["168","568","584","585"]},"geometry":{"type":"Point","coordinates":[27.20428,38.48189]}},{"type":"Feature","properties":{"id":"bus-249-s31385","kind":"busstop","ref":"249","name":"Sevgi","lines":["168","568"]},"geometry":{"type":"Point","coordinates":[27.2056,38.48402]}},{"type":"Feature","properties":{"id":"bus-249-s31387","kind":"busstop","ref":"249","name":"Akdemir Parkı","lines":["168","568"]},"geometry":{"type":"Point","coordinates":[27.20829,38.48414]}},{"type":"Feature","properties":{"id":"bus-249-s31389","kind":"busstop","ref":"249","name":"Gazi","lines":["168","568"]},"geometry":{"type":"Point","coordinates":[27.21226,38.4828]}},{"type":"Feature","properties":{"id":"bus-249-s31391","kind":"busstop","ref":"249","name":"Turgut Reis","lines":["168","568"]},"geometry":{"type":"Point","coordinates":[27.21581,38.48298]}},{"type":"Feature","properties":{"id":"bus-249-s31359","kind":"busstop","ref":"249","name":"Nedim Dağtaş","lines":["168","365","565","566","568"]},"geometry":{"type":"Point","coordinates":[27.21813,38.48489]}},{"type":"Feature","properties":{"id":"bus-249-s31361","kind":"busstop","ref":"249","name":"Evka 4 Depo","lines":["168","365","565","566","568"]},"geometry":{"type":"Point","coordinates":[27.21622,38.48796]}},{"type":"Feature","properties":{"id":"bus-249-s31365","kind":"busstop","ref":"249","name":"Evka 4 Muhtarlık","lines":["168","365","565","566","568"]},"geometry":{"type":"Point","coordinates":[27.2148,38.4892]}},{"type":"Feature","properties":{"id":"bus-249-s31367","kind":"busstop","ref":"249","name":"Mehmet Akif Cami","lines":["168","565","566","568","585"]},"geometry":{"type":"Point","coordinates":[27.21507,38.49113]}},{"type":"Feature","properties":{"id":"bus-249-s32372","kind":"busstop","ref":"249","name":"Evka 4 İş Merkezi","lines":["168","565","566","568","585"]},"geometry":{"type":"Point","coordinates":[27.21338,38.4922]}},{"type":"Feature","properties":{"id":"bus-249-s31369","kind":"busstop","ref":"249","name":"Evka-4 Anaokulu","lines":["168","565","566","568","585"]},"geometry":{"type":"Point","coordinates":[27.21301,38.49359]}}]}