{"type":"FeatureCollection","features":[{"type":"Feature","properties":{"id":"bus-25-1","kind":"busline","ref":"25","dir":1},"geometry":{"type":"LineString","coordinates":[[27.0875,38.3716],[27.0874,38.37],[27.087,38.3698],[27.0845,38.3701],[27.0837,38.3712],[27.0823,38.3716],[27.0819,38.3715],[27.0819,38.3709],[27.0814,38.3693],[27.0815,38.368],[27.0818,38.3673],[27.0825,38.3666],[27.0842,38.3655],[27.084,38.3642],[27.0846,38.3634],[27.0848,38.3627],[27.0848,38.3623],[27.0837,38.3622],[27.0829,38.3618],[27.0828,38.3612],[27.0825,38.3611],[27.0816,38.3621],[27.081,38.3633],[27.08,38.3672],[27.0794,38.3688],[27.0783,38.3708],[27.0765,38.3736],[27.0736,38.377],[27.0732,38.3778],[27.0723,38.3817],[27.0718,38.3829],[27.0705,38.3844],[27.0658,38.3876],[27.0646,38.3889],[27.0638,38.3903],[27.0631,38.3928],[27.0631,38.3968],[27.0639,38.3982],[27.0648,38.3988],[27.0655,38.3988],[27.0654,38.3985],[27.0635,38.3969],[27.0616,38.3966],[27.0606,38.3961],[27.0597,38.3959],[27.0576,38.3956],[27.0574,38.3954],[27.0575,38.3951],[27.0581,38.395],[27.0618,38.3964],[27.0634,38.3967],[27.0671,38.3972],[27.0703,38.397],[27.0706,38.3975],[27.071,38.3977],[27.0751,38.3985],[27.0788,38.3988],[27.0786,38.4003],[27.0783,38.4006],[27.0773,38.4007],[27.0754,38.4013],[27.0722,38.4033],[27.071,38.4037],[27.0693,38.4047],[27.069,38.405],[27.069,38.4053],[27.0693,38.4055]]}},{"type":"Feature","properties":{"id":"bus-25-2","kind":"busline","ref":"25","dir":2},"geometry":{"type":"LineString","coordinates":[[27.0693,38.4055],[27.0692,38.4054],[27.0698,38.4057],[27.0695,38.4058],[27.0685,38.405],[27.0687,38.4049],[27.0686,38.4048],[27.0701,38.4041],[27.0707,38.4032],[27.0714,38.4033],[27.0722,38.4031],[27.0746,38.4015],[27.0775,38.4004],[27.0776,38.3998],[27.0773,38.3987],[27.0752,38.3986],[27.0693,38.3975],[27.0655,38.3972],[27.0597,38.3964],[27.0591,38.3964],[27.0577,38.397],[27.0573,38.3974],[27.0573,38.3986],[27.0577,38.399],[27.059,38.3995],[27.0605,38.3993],[27.0618,38.3985],[27.0624,38.3976],[27.0628,38.3963],[27.0629,38.3928],[27.0631,38.3916],[27.064,38.3896],[27.0645,38.3888],[27.066,38.3872],[27.07,38.3845],[27.0715,38.3831],[27.0718,38.3826],[27.0731,38.3776],[27.074,38.376],[27.0779,38.371],[27.0793,38.3684],[27.0806,38.3638],[27.082,38.361],[27.0819,38.3608],[27.0816,38.3608],[27.081,38.3611],[27.0809,38.3613],[27.0834,38.3619],[27.084,38.3622],[27.085,38.3622],[27.0847,38.3634],[27.0841,38.3641],[27.0843,38.3655],[27.0826,38.3666],[27.0816,38.368],[27.0815,38.3693],[27.0822,38.3715],[27.0823,38.3716],[27.0835,38.3711],[27.0843,38.3701],[27.0858,38.3698],[27.0859,38.37],[27.087,38.3698],[27.0874,38.37],[27.0875,38.3716]]}},{"type":"Feature","properties":{"id":"bus-25-s10571","kind":"busstop","ref":"25","name":"Olimpiyat Köyü","lines":[]},"geometry":{"type":"Point","coordinates":[27.08739,38.37155]}},{"type":"Feature","properties":{"id":"bus-25-s10570","kind":"busstop","ref":"25","name":"Olimpiyat Köy Havuzu","lines":[]},"geometry":{"type":"Point","coordinates":[27.0865,38.3699]}},{"type":"Feature","properties":{"id":"bus-25-s10568","kind":"busstop","ref":"25","name":"Atletizm","lines":[]},"geometry":{"type":"Point","coordinates":[27.0836,38.3712]}},{"type":"Feature","properties":{"id":"bus-25-s10566","kind":"busstop","ref":"25","name":"Olimpiyat Köyü Çarşı","lines":[]},"geometry":{"type":"Point","coordinates":[27.0818,38.3711]}},{"type":"Feature","properties":{"id":"bus-25-s10564","kind":"busstop","ref":"25","name":"Olimpiyat Köyü Giriş","lines":[]},"geometry":{"type":"Point","coordinates":[27.0829,38.3663]}},{"type":"Feature","properties":{"id":"bus-25-s10562","kind":"busstop","ref":"25","name":"Meşale","lines":["517","522","671","873","877"]},"geometry":{"type":"Point","coordinates":[27.0844,38.3623]}},{"type":"Feature","properties":{"id":"bus-25-s14500","kind":"busstop","ref":"25","name":"Moda","lines":["17","24","202","510","650","671","690","873","977"]},"geometry":{"type":"Point","coordinates":[27.07448,38.37604]}},{"type":"Feature","properties":{"id":"bus-25-s50008","kind":"busstop","ref":"25","name":"Beyaz","lines":["5","6","7","8","24","82","202","305","311","321","481","510","650","909","971","975","977","981","982","983","984","985","987"]},"geometry":{"type":"Point","coordinates":[27.06161,38.39621]}},{"type":"Feature","properties":{"id":"bus-25-s50004","kind":"busstop","ref":"25","name":"Fahrettin Altay Meydan 9 ","lines":["5","6","7","10","24","82","167","202","305","311","321","480","510","551","650","675","684","883","909","945","946","971","975","977","981","982","983","984","985","987"]},"geometry":{"type":"Point","coordinates":[27.0686,38.3971]}},{"type":"Feature","properties":{"id":"bus-25-s10182","kind":"busstop","ref":"25","name":"Fahrettin Altay Meydan 5","lines":["5","6","7","10","24","202","480","486","510","650","945","977"]},"geometry":{"type":"Point","coordinates":[27.07112,38.39764]}},{"type":"Feature","properties":{"id":"bus-25-s10178","kind":"busstop","ref":"25","name":"Adnan Saygun Sanat Merkezi","lines":["5","6","7","10","24","202","480","486","510","650","945","946","977"]},"geometry":{"type":"Point","coordinates":[27.07629,38.39857]}},{"type":"Feature","properties":{"id":"bus-25-s50130","kind":"busstop","ref":"25","name":"Üçkuyular iskele Son Durak","lines":["10","650","977"]},"geometry":{"type":"Point","coordinates":[27.06915,38.40496]}},{"type":"Feature","properties":{"id":"bus-25-s10199","kind":"busstop","ref":"25","name":"Adnan Saygun Sanat Merkezi","lines":["5","6","7","17","24","202","480","486","510","650","671","690","873","977"]},"geometry":{"type":"Point","coordinates":[27.07748,38.39979]}},{"type":"Feature","properties":{"id":"bus-25-s10177","kind":"busstop","ref":"25","name":"Hava Hastanesi","lines":["5","6","7","10","17","24","202","480","486","510","650","671","690","873","977"]},"geometry":{"type":"Point","coordinates":[27.0732,38.3982]}},{"type":"Feature","properties":{"id":"bus-25-s50007","kind":"busstop","ref":"25","name":"Fahrettin Altay Meydan 2","lines":["5","6","7","24","202","311","480","510","551","650","811","950","977"]},"geometry":{"type":"Point","coordinates":[27.06869,38.39752]}},{"type":"Feature","properties":{"id":"bus-25-s14501","kind":"busstop","ref":"25","name":"Moda","lines":["17","24","202","510","650","671","690","873","977"]},"geometry":{"type":"Point","coordinates":[27.0731,38.3769]}},{"type":"Feature","properties":{"id":"bus-25-s10561","kind":"busstop","ref":"25","name":"Meşale","lines":["517","522","671","873","877"]},"geometry":{"type":"Point","coordinates":[27.08477,38.36214]}},{"type":"Feature","properties":{"id":"bus-25-s10563","kind":"busstop","ref":"25","name":"Olimpiyat Köyü Giriş","lines":[]},"geometry":{"type":"Point","coordinates":[27.08277,38.36658]}},{"type":"Feature","properties":{"id":"bus-25-s10565","kind":"busstop","ref":"25","name":"Olimpiyat Köyü Çarşı","lines":[]},"geometry":{"type":"Point","coordinates":[27.0821,38.3712]}},{"type":"Feature","properties":{"id":"bus-25-s10567","kind":"busstop","ref":"25","name":"Atletizm","lines":[]},"geometry":{"type":"Point","coordinates":[27.0833,38.3712]}},{"type":"Feature","properties":{"id":"bus-25-s10559","kind":"busstop","ref":"25","name":"Küçük Park","lines":[]},"geometry":{"type":"Point","coordinates":[27.0847,38.3701]}},{"type":"Feature","properties":{"id":"bus-25-s10569","kind":"busstop","ref":"25","name":"Olimpiyat Köy Havuzu","lines":[]},"geometry":{"type":"Point","coordinates":[27.0866,38.3698]}}]}