{"type":"FeatureCollection","features":[{"type":"Feature","properties":{"id":"bus-267-1","kind":"busline","ref":"267","dir":1},"geometry":{"type":"LineString","coordinates":[[27.2798,38.4387],[27.2802,38.4388],[27.2782,38.4386],[27.2782,38.4383],[27.2785,38.4366],[27.2803,38.4368],[27.2799,38.4355],[27.277,38.4333],[27.2742,38.432],[27.2762,38.4278],[27.2738,38.4264],[27.2726,38.4283],[27.2721,38.4314],[27.2653,38.4294],[27.2637,38.4304],[27.2641,38.4299],[27.2647,38.4285],[27.2644,38.4269],[27.2641,38.4266],[27.2641,38.426],[27.2631,38.4257],[27.2613,38.4246],[27.2575,38.4238],[27.254,38.4239],[27.2514,38.4231],[27.2494,38.4232],[27.2482,38.4236],[27.2473,38.4243],[27.2459,38.425],[27.2441,38.4254],[27.2438,38.4259],[27.244,38.4293],[27.2393,38.429],[27.239,38.4288],[27.2394,38.4267],[27.2406,38.4268],[27.241,38.4247],[27.2357,38.4242],[27.2354,38.4243],[27.2338,38.426],[27.2338,38.4262],[27.232,38.4261],[27.2302,38.4257],[27.2295,38.4265],[27.2296,38.4271],[27.2293,38.4283],[27.2274,38.4308],[27.2273,38.4318],[27.2286,38.4323],[27.2286,38.4326],[27.227,38.4362],[27.2255,38.4388],[27.2258,38.4398],[27.2288,38.4428],[27.2289,38.4435],[27.2285,38.4456],[27.2275,38.4463],[27.2264,38.4463],[27.2224,38.4457],[27.221,38.4457],[27.22,38.4462],[27.2192,38.4474],[27.2183,38.45],[27.218,38.452],[27.2169,38.4554],[27.2167,38.4558],[27.2157,38.4564],[27.2165,38.4586],[27.2164,38.4592],[27.2145,38.459],[27.2146,38.4585],[27.2142,38.4584]]}},{"type":"Feature","properties":{"id":"bus-267-2","kind":"busline","ref":"267","dir":2},"geometry":{"type":"LineString","coordinates":[[27.2142,38.4584],[27.2136,38.4584],[27.2164,38.4584],[27.2156,38.4563],[27.2166,38.4558],[27.2179,38.4519],[27.2182,38.4501],[27.2192,38.4474],[27.22,38.4462],[27.221,38.4457],[27.2224,38.4457],[27.2268,38.4463],[27.2277,38.4461],[27.2283,38.4457],[27.2285,38.4453],[27.2288,38.4431],[27.2284,38.4423],[27.2258,38.4398],[27.2255,38.4391],[27.2257,38.4383],[27.2275,38.4352],[27.2284,38.4325],[27.2267,38.4317],[27.2247,38.4311],[27.2222,38.4308],[27.2222,38.4304],[27.2241,38.4307],[27.2285,38.4294],[27.2294,38.4281],[27.2296,38.4271],[27.2295,38.4265],[27.2302,38.4257],[27.2313,38.426],[27.2336,38.4262],[27.2354,38.4242],[27.2358,38.424],[27.241,38.4246],[27.2406,38.4268],[27.2394,38.4267],[27.239,38.4288],[27.2432,38.4293],[27.2439,38.4293],[27.2437,38.426],[27.2438,38.4251],[27.2453,38.4252],[27.2468,38.4246],[27.2482,38.4236],[27.2494,38.4232],[27.2504,38.4231],[27.2514,38.4231],[27.254,38.4239],[27.2575,38.4238],[27.2613,38.4246],[27.2631,38.4257],[27.2641,38.426],[27.2641,38.4266],[27.2644,38.4269],[27.2647,38.4285],[27.2652,38.4286],[27.2656,38.429],[27.2653,38.4294],[27.2664,38.4298],[27.2668,38.4297],[27.2722,38.4301],[27.2726,38.4283],[27.2738,38.4264],[27.2762,38.4278],[27.2742,38.432],[27.277,38.4333],[27.2799,38.4355],[27.2801,38.4364],[27.281,38.4378],[27.2803,38.4378],[27.2802,38.4388],[27.2798,38.4387]]}},{"type":"Feature","properties":{"id":"bus-267-s30690","kind":"busstop","ref":"267","name":"Beşinci Sanayi Sitesi","lines":["60","67","358","560"]},"geometry":{"type":"Point","coordinates":[27.2798,38.4388]}},{"type":"Feature","properties":{"id":"bus-267-s30694","kind":"busstop","ref":"267","name":"Park","lines":["60","67","358","560"]},"geometry":{"type":"Point","coordinates":[27.2783,38.4373]}},{"type":"Feature","properties":{"id":"bus-267-s30692","kind":"busstop","ref":"267","name":"Pınarbaşı Sanayi Giriş","lines":["60","67","358","560"]},"geometry":{"type":"Point","coordinates":[27.27991,38.43659]}},{"type":"Feature","properties":{"id":"bus-267-s30688","kind":"busstop","ref":"267","name":"Şen","lines":["60","67","358","560"]},"geometry":{"type":"Point","coordinates":[27.2784,38.4344]}},{"type":"Feature","properties":{"id":"bus-267-s30686","kind":"busstop","ref":"267","name":"Göçmen","lines":["60","67","358","560"]},"geometry":{"type":"Point","coordinates":[27.2771,38.4334]}},{"type":"Feature","properties":{"id":"bus-267-s30684","kind":"busstop","ref":"267","name":"Market","lines":["60","67","358","560"]},"geometry":{"type":"Point","coordinates":[27.2753,38.4325]}},{"type":"Feature","properties":{"id":"bus-267-s30682","kind":"busstop","ref":"267","name":"Siteler","lines":["60","67","358","560"]},"geometry":{"type":"Point","coordinates":[27.2746,38.431]}},{"type":"Feature","properties":{"id":"bus-267-s30680","kind":"busstop","ref":"267","name":"Pınarbaşı Kültür Merkezi","lines":["60","67","358","560"]},"geometry":{"type":"Point","coordinates":[27.2757,38.4286]}},{"type":"Feature","properties":{"id":"bus-267-s30678","kind":"busstop","ref":"267","name":"Demirler","lines":["60","67","358","560"]},"geometry":{"type":"Point","coordinates":[27.274,38.4266]}},{"type":"Feature","properties":{"id":"bus-267-s30676","kind":"busstop","ref":"267","name":"Güzeller","lines":["60","67","358","560"]},"geometry":{"type":"Point","coordinates":[27.27248,38.42938]}},{"type":"Feature","properties":{"id":"bus-267-s30670","kind":"busstop","ref":"267","name":"Kent Bahçeleri","lines":["60","67","358","560"]},"geometry":{"type":"Point","coordinates":[27.27166,38.43128]}},{"type":"Feature","properties":{"id":"bus-267-s30672","kind":"busstop","ref":"267","name":"Aziz Erol Güzelcan Mesleki ve Teknik Anadolu Lisesi ","lines":["60","67","358","560"]},"geometry":{"type":"Point","coordinates":[27.26768,38.43016]}},{"type":"Feature","properties":{"id":"bus-267-s30652","kind":"busstop","ref":"267","name":"Çamlık Alan Parkı 2","lines":["60","67","560"]},"geometry":{"type":"Point","coordinates":[27.26485,38.42977]}},{"type":"Feature","properties":{"id":"bus-267-s30550","kind":"busstop","ref":"267","name":"Pınarbaşı Kara Ali Camii","lines":["60","67","560"]},"geometry":{"type":"Point","coordinates":[27.26408,38.42663]}},{"type":"Feature","properties":{"id":"bus-267-s30528","kind":"busstop","ref":"267","name":"Gürpınar","lines":[]},"geometry":{"type":"Point","coordinates":[27.26146,38.42477]}},{"type":"Feature","properties":{"id":"bus-267-s30526","kind":"busstop","ref":"267","name":"Pınarbaşı Mezarlığı","lines":[]},"geometry":{"type":"Point","coordinates":[27.25612,38.4239]}},{"type":"Feature","properties":{"id":"bus-267-s30524","kind":"busstop","ref":"267","name":"Sanayi","lines":[]},"geometry":{"type":"Point","coordinates":[27.25192,38.42327]}},{"type":"Feature","properties":{"id":"bus-267-s30522","kind":"busstop","ref":"267","name":"Tır Garajı","lines":["277"]},"geometry":{"type":"Point","coordinates":[27.247,38.4246]}},{"type":"Feature","properties":{"id":"bus-267-s32297","kind":"busstop","ref":"267","name":"Işıkkent Kamyon Garajı","lines":["364"]},"geometry":{"type":"Point","coordinates":[27.24406,38.42777]}},{"type":"Feature","properties":{"id":"bus-267-s32489","kind":"busstop","ref":"267","name":"Ayakkabıcılar Sitesi Cami","lines":[]},"geometry":{"type":"Point","coordinates":[27.2411,38.42919]}},{"type":"Feature","properties":{"id":"bus-267-s30534","kind":"busstop","ref":"267","name":"Meltem","lines":["64","564"]},"geometry":{"type":"Point","coordinates":[27.2392,38.428]}},{"type":"Feature","properties":{"id":"bus-267-s32490","kind":"busstop","ref":"267","name":"Güney","lines":["564"]},"geometry":{"type":"Point","coordinates":[27.24062,38.42611]}},{"type":"Feature","properties":{"id":"bus-267-s30552","kind":"busstop","ref":"267","name":"Ayakkabıcılar Sitesi","lines":["64","277","364"]},"geometry":{"type":"Point","coordinates":[27.23971,38.42457]}},{"type":"Feature","properties":{"id":"bus-267-s30520","kind":"busstop","ref":"267","name":"Yener","lines":["64","277","564"]},"geometry":{"type":"Point","coordinates":[27.2351,38.4247]}},{"type":"Feature","properties":{"id":"bus-267-s30518","kind":"busstop","ref":"267","name":"Hatice Güzelcan Anadolu Lisesi","lines":["64","277","564"]},"geometry":{"type":"Point","coordinates":[27.2332,38.4262]}},{"type":"Feature","properties":{"id":"bus-267-s30516","kind":"busstop","ref":"267","name":"Işıkkent","lines":["64","277","564"]},"geometry":{"type":"Point","coordinates":[27.23058,38.42584]}},{"type":"Feature","properties":{"id":"bus-267-s30514","kind":"busstop","ref":"267","name":"Yıldız","lines":["64","277","564"]},"geometry":{"type":"Point","coordinates":[27.22968,38.42699]}},{"type":"Feature","properties":{"id":"bus-267-s30512","kind":"busstop","ref":"267","name":"Işıkkent Mezarlık","lines":["64","277","564"]},"geometry":{"type":"Point","coordinates":[27.2279,38.4301]}},{"type":"Feature","properties":{"id":"bus-267-s30546","kind":"busstop","ref":"267","name":"İzeltaş","lines":["367","505"]},"geometry":{"type":"Point","coordinates":[27.2282,38.4336]}},{"type":"Feature","properties":{"id":"bus-267-s30548","kind":"busstop","ref":"267","name":"İzeltaş Mağaza","lines":["367","505"]},"geometry":{"type":"Point","coordinates":[27.2267,38.4368]}},{"type":"Feature","properties":{"id":"bus-267-s30544","kind":"busstop","ref":"267","name":"Köprü","lines":["367","505"]},"geometry":{"type":"Point","coordinates":[27.22889,38.44377]}},{"type":"Feature","properties":{"id":"bus-267-s30560","kind":"busstop","ref":"267","name":"Eser","lines":["367","505"]},"geometry":{"type":"Point","coordinates":[27.226,38.4462]}},{"type":"Feature","properties":{"id":"bus-267-s30562","kind":"busstop","ref":"267","name":"Selçuk Yaşar Boyacılık EML","lines":["367","505"]},"geometry":{"type":"Point","coordinates":[27.2225,38.4457]}},{"type":"Feature","properties":{"id":"bus-267-s30558","kind":"busstop","ref":"267","name":"Bornova Anadolu Lisesi","lines":["367","505"]},"geometry":{"type":"Point","coordinates":[27.21913,38.44832]}},{"type":"Feature","properties":{"id":"bus-267-s30556","kind":"busstop","ref":"267","name":"Öğrenci Köyü","lines":["59","268","358","368","468","505"]},"geometry":{"type":"Point","coordinates":[27.2182,38.4507]}},{"type":"Feature","properties":{"id":"bus-267-s32476","kind":"busstop","ref":"267","name":"Ege Üniversitesi Öğrenci Köyü","lines":["59","268","358","368","468","505"]},"geometry":{"type":"Point","coordinates":[27.21732,38.45416]}},{"type":"Feature","properties":{"id":"bus-267-s30554","kind":"busstop","ref":"267","name":"Yeşil Köşk","lines":["59","268","358","368","468","505"]},"geometry":{"type":"Point","coordinates":[27.21625,38.45769]}},{"type":"Feature","properties":{"id":"bus-267-s30006","kind":"busstop","ref":"267","name":"Bornova Metro","lines":[]},"geometry":{"type":"Point","coordinates":[27.21387,38.45861]}},{"type":"Feature","properties":{"id":"bus-267-s30553","kind":"busstop","ref":"267","name":"Yeşil Köşk","lines":["59","268","358","368","468","505"]},"geometry":{"type":"Point","coordinates":[27.2161,38.4579]}},{"type":"Feature","properties":{"id":"bus-267-s32475","kind":"busstop","ref":"267","name":"Ege Üniversitesi Öğrenci Köyü","lines":["59","268","358","368","468","505"]},"geometry":{"type":"Point","coordinates":[27.21715,38.45404]}},{"type":"Feature","properties":{"id":"bus-267-s30555","kind":"busstop","ref":"267","name":"Öğrenci Köyü","lines":["59","268","358","368","468","505"]},"geometry":{"type":"Point","coordinates":[27.2181,38.4504]}},{"type":"Feature","properties":{"id":"bus-267-s30557","kind":"busstop","ref":"267","name":"Bornova Anadolu Lisesi","lines":["367","505"]},"geometry":{"type":"Point","coordinates":[27.2193,38.4472]}},{"type":"Feature","properties":{"id":"bus-267-s30561","kind":"busstop","ref":"267","name":"Selçuk Yaşar Boyacılık EML","lines":["367","505"]},"geometry":{"type":"Point","coordinates":[27.2226,38.4457]}},{"type":"Feature","properties":{"id":"bus-267-s30559","kind":"busstop","ref":"267","name":"Eser","lines":["367","505"]},"geometry":{"type":"Point","coordinates":[27.2257,38.4461]}},{"type":"Feature","properties":{"id":"bus-267-s30543","kind":"busstop","ref":"267","name":"Yunus Emre","lines":["367","505"]},"geometry":{"type":"Point","coordinates":[27.2287,38.4437]}},{"type":"Feature","properties":{"id":"bus-267-s30545","kind":"busstop","ref":"267","name":"İzeltaş Mağaza","lines":["367","505"]},"geometry":{"type":"Point","coordinates":[27.2266,38.4368]}},{"type":"Feature","properties":{"id":"bus-267-s30547","kind":"busstop","ref":"267","name":"İzeltaş","lines":["367","505"]},"geometry":{"type":"Point","coordinates":[27.228,38.4336]}},{"type":"Feature","properties":{"id":"bus-267-s30513","kind":"busstop","ref":"267","name":"Turanlar","lines":["64","277","564"]},"geometry":{"type":"Point","coordinates":[27.2245,38.4305]}},{"type":"Feature","properties":{"id":"bus-267-s30515","kind":"busstop","ref":"267","name":"Işıkkent Mezarlık","lines":["64","277","564"]},"geometry":{"type":"Point","coordinates":[27.2279,38.4295]}},{"type":"Feature","properties":{"id":"bus-267-s30517","kind":"busstop","ref":"267","name":"Yıldız","lines":["64","277","564"]},"geometry":{"type":"Point","coordinates":[27.22956,38.42696]}},{"type":"Feature","properties":{"id":"bus-267-s30519","kind":"busstop","ref":"267","name":"Işıkkent","lines":["64","277","564"]},"geometry":{"type":"Point","coordinates":[27.2307,38.4258]}},{"type":"Feature","properties":{"id":"bus-267-s30521","kind":"busstop","ref":"267","name":"Hatice Güzelcan Anadolu Lisesi","lines":["64","277","564"]},"geometry":{"type":"Point","coordinates":[27.233,38.4261]}},{"type":"Feature","properties":{"id":"bus-267-s30523","kind":"busstop","ref":"267","name":"Yener","lines":["64","277","564"]},"geometry":{"type":"Point","coordinates":[27.2351,38.4246]}},{"type":"Feature","properties":{"id":"bus-267-s30551","kind":"busstop","ref":"267","name":"Ayakkabıcılar Sitesi","lines":["64","277","364"]},"geometry":{"type":"Point","coordinates":[27.23981,38.42438]}},{"type":"Feature","properties":{"id":"bus-267-s30509","kind":"busstop","ref":"267","name":"Kuzey","lines":["64","564"]},"geometry":{"type":"Point","coordinates":[27.2407,38.4264]}},{"type":"Feature","properties":{"id":"bus-267-s30533","kind":"busstop","ref":"267","name":"Meltem","lines":["64","564"]},"geometry":{"type":"Point","coordinates":[27.2393,38.4277]}},{"type":"Feature","properties":{"id":"bus-267-s32488","kind":"busstop","ref":"267","name":"Ayakkabıcılar Sitesi Cami","lines":[]},"geometry":{"type":"Point","coordinates":[27.24186,38.42905]}},{"type":"Feature","properties":{"id":"bus-267-s32296","kind":"busstop","ref":"267","name":"Işıkkent Kamyon Garajı","lines":["364"]},"geometry":{"type":"Point","coordinates":[27.24374,38.42842]}},{"type":"Feature","properties":{"id":"bus-267-s30525","kind":"busstop","ref":"267","name":"Tır Garajı","lines":["277"]},"geometry":{"type":"Point","coordinates":[27.2467,38.4245]}},{"type":"Feature","properties":{"id":"bus-267-s30527","kind":"busstop","ref":"267","name":"Sanayi","lines":[]},"geometry":{"type":"Point","coordinates":[27.25214,38.42328]}},{"type":"Feature","properties":{"id":"bus-267-s30529","kind":"busstop","ref":"267","name":"Pınarbaşı Mezarlığı","lines":[]},"geometry":{"type":"Point","coordinates":[27.25628,38.42374]}},{"type":"Feature","properties":{"id":"bus-267-s30539","kind":"busstop","ref":"267","name":"Gürpınar","lines":[]},"geometry":{"type":"Point","coordinates":[27.26152,38.4247]}},{"type":"Feature","properties":{"id":"bus-267-s30549","kind":"busstop","ref":"267","name":"Pınarbaşı Kara Ali Camii","lines":["60","67","560"]},"geometry":{"type":"Point","coordinates":[27.26463,38.42749]}},{"type":"Feature","properties":{"id":"bus-267-s30671","kind":"busstop","ref":"267","name":"Aziz Erol Güzelcan Mesleki ve Teknik Anadolu Lisesi ","lines":["60","67","560"]},"geometry":{"type":"Point","coordinates":[27.26568,38.42947]}},{"type":"Feature","properties":{"id":"bus-267-s30673","kind":"busstop","ref":"267","name":"Kent Bahçeleri","lines":["60","67","358","560"]},"geometry":{"type":"Point","coordinates":[27.2696,38.4299]}},{"type":"Feature","properties":{"id":"bus-267-s30677","kind":"busstop","ref":"267","name":"Güzeller","lines":["60","67","358","560"]},"geometry":{"type":"Point","coordinates":[27.27243,38.42892]}},{"type":"Feature","properties":{"id":"bus-267-s30679","kind":"busstop","ref":"267","name":"Demirler","lines":["60","67","358","560"]},"geometry":{"type":"Point","coordinates":[27.2742,38.4265]}},{"type":"Feature","properties":{"id":"bus-267-s30681","kind":"busstop","ref":"267","name":"Pınarbaşı Kültür Merkezi","lines":["60","67","358","560"]},"geometry":{"type":"Point","coordinates":[27.2758,38.4287]}},{"type":"Feature","properties":{"id":"bus-267-s30683","kind":"busstop","ref":"267","name":"Siteler","lines":["60","67","358","560"]},"geometry":{"type":"Point","coordinates":[27.27453,38.43143]}},{"type":"Feature","properties":{"id":"bus-267-s30685","kind":"busstop","ref":"267","name":"Market","lines":["60","67","358","560"]},"geometry":{"type":"Point","coordinates":[27.27552,38.43257]}},{"type":"Feature","properties":{"id":"bus-267-s30687","kind":"busstop","ref":"267","name":"Göçmen","lines":["60","67","358","560"]},"geometry":{"type":"Point","coordinates":[27.2769,38.4332]}},{"type":"Feature","properties":{"id":"bus-267-s30689","kind":"busstop","ref":"267","name":"Şen Market","lines":["60","67","358","560"]},"geometry":{"type":"Point","coordinates":[27.27853,38.43437]}},{"type":"Feature","properties":{"id":"bus-267-s30691","kind":"busstop","ref":"267","name":"Pınarbaşı Sanayi Giriş","lines":["60","67","358","560"]},"geometry":{"type":"Point","coordinates":[27.2801,38.4364]}}]}