{"type":"FeatureCollection","features":[{"type":"Feature","properties":{"id":"bus-27-1","kind":"busline","ref":"27","dir":1},"geometry":{"type":"LineString","coordinates":[[27.1205,38.3632],[27.1205,38.3635],[27.1205,38.3628],[27.1214,38.3626],[27.1219,38.3638],[27.1211,38.3641],[27.1176,38.3639],[27.1174,38.3642],[27.118,38.3645],[27.1177,38.3645],[27.1177,38.3653],[27.1163,38.3654],[27.1163,38.3658],[27.1172,38.3657],[27.1173,38.3661],[27.1168,38.3661],[27.1172,38.3671],[27.1187,38.3677],[27.1194,38.3663],[27.1203,38.3663],[27.1207,38.3673],[27.1217,38.3683],[27.1228,38.3692],[27.124,38.3695],[27.1247,38.3694],[27.1261,38.3688],[27.1275,38.3687],[27.1288,38.3677],[27.1296,38.3683],[27.1297,38.3689],[27.1296,38.373],[27.1297,38.3742],[27.1299,38.3746],[27.1322,38.3774],[27.1344,38.3767],[27.135,38.3767],[27.1348,38.3918],[27.1351,38.3927],[27.1358,38.3933],[27.1358,38.3937],[27.1357,38.394],[27.1348,38.3948],[27.1289,38.3992],[27.1294,38.4019],[27.1301,38.4022],[27.1294,38.4041],[27.1285,38.4058],[27.1284,38.4077],[27.1289,38.4086],[27.1288,38.4108],[27.1279,38.4115],[27.1275,38.4123],[27.1277,38.4125],[27.1281,38.4121],[27.1284,38.4121],[27.1284,38.4123],[27.1269,38.4134],[27.1262,38.4136],[27.1282,38.4133],[27.129,38.4139],[27.129,38.4144],[27.1286,38.4151],[27.1275,38.4163],[27.1265,38.4169],[27.1266,38.4174],[27.1278,38.419],[27.1283,38.4204],[27.1289,38.4211],[27.1305,38.4219],[27.1312,38.4225],[27.1375,38.4225],[27.1369,38.4204],[27.1367,38.4179],[27.1355,38.4166],[27.1338,38.4138],[27.132,38.413],[27.1305,38.4118],[27.1281,38.4105],[27.1269,38.4088],[27.1243,38.4073],[27.1222,38.4064],[27.1223,38.4047],[27.123,38.4037],[27.125,38.4019],[27.1291,38.3989],[27.1293,38.3985],[27.1309,38.3973],[27.131,38.3975],[27.1332,38.3958],[27.1339,38.3951],[27.1344,38.3942],[27.1346,38.3928],[27.1345,38.3846],[27.1347,38.3843],[27.1347,38.3787],[27.1337,38.3786],[27.1326,38.3778],[27.1309,38.376],[27.1295,38.3739],[27.1297,38.3732],[27.1296,38.3683],[27.1288,38.3677],[27.1275,38.3687],[27.1257,38.3689],[27.1247,38.3694],[27.124,38.3695],[27.1228,38.3692],[27.1207,38.3673],[27.1198,38.3652],[27.1198,38.3648],[27.1188,38.3645],[27.118,38.3645],[27.1174,38.3642],[27.1176,38.3639],[27.1194,38.3639],[27.12,38.3641],[27.1215,38.364],[27.1212,38.3633],[27.1205,38.3634]]}},{"type":"Feature","properties":{"id":"bus-27-2","kind":"busline","ref":"27","dir":2},"geometry":{"type":"LineString","coordinates":[[27.1205,38.3632],[27.1205,38.3635],[27.1205,38.3628],[27.1214,38.3626],[27.1219,38.3638],[27.1211,38.3641],[27.1176,38.3639],[27.1174,38.3642],[27.118,38.3645],[27.1177,38.3645],[27.1177,38.3653],[27.1163,38.3654],[27.1163,38.3658],[27.1172,38.3657],[27.1173,38.3661],[27.1168,38.3661],[27.1172,38.3671],[27.1187,38.3677],[27.1194,38.3663],[27.1203,38.3663],[27.1207,38.3673],[27.1217,38.3683],[27.1228,38.3692],[27.124,38.3695],[27.1247,38.3694],[27.1261,38.3688],[27.1275,38.3687],[27.1288,38.3677],[27.1296,38.3683],[27.1297,38.3689],[27.1296,38.373],[27.1297,38.3742],[27.1299,38.3746],[27.1322,38.3774],[27.1344,38.3767],[27.135,38.3767],[27.1348,38.3918],[27.1351,38.3927],[27.1358,38.3933],[27.1358,38.3937],[27.1357,38.394],[27.1348,38.3948],[27.1289,38.3992],[27.1294,38.4019],[27.1301,38.4022],[27.1294,38.4041],[27.1285,38.4058],[27.1284,38.4077],[27.1289,38.4086],[27.1288,38.4108],[27.1279,38.4115],[27.1275,38.4123],[27.1277,38.4125],[27.1281,38.4121],[27.1284,38.4121],[27.1284,38.4123],[27.1269,38.4134],[27.1262,38.4136],[27.1282,38.4133],[27.129,38.4139],[27.129,38.4144],[27.1286,38.4151],[27.1275,38.4163],[27.1265,38.4169],[27.1266,38.4174],[27.1278,38.419],[27.1283,38.4204],[27.1289,38.4211],[27.1305,38.4219],[27.1312,38.4225],[27.1375,38.4225],[27.1369,38.4204],[27.1367,38.4179],[27.1355,38.4166],[27.1338,38.4138],[27.132,38.413],[27.1305,38.4118],[27.1281,38.4105],[27.1269,38.4088],[27.1243,38.4073],[27.1222,38.4064],[27.1223,38.4047],[27.123,38.4037],[27.125,38.4019],[27.1291,38.3989],[27.1293,38.3985],[27.1309,38.3973],[27.131,38.3975],[27.1332,38.3958],[27.1339,38.3951],[27.1344,38.3942],[27.1346,38.3928],[27.1345,38.3846],[27.1347,38.3843],[27.1347,38.3787],[27.1337,38.3786],[27.1326,38.3778],[27.1309,38.376],[27.1297,38.3742],[27.1296,38.3683],[27.1288,38.3677],[27.1275,38.3687],[27.1257,38.3689],[27.1247,38.3694],[27.124,38.3695],[27.1228,38.3692],[27.1207,38.3673],[27.1198,38.3652],[27.1198,38.3648],[27.1188,38.3645],[27.118,38.3645],[27.1174,38.3642],[27.1176,38.3639],[27.1194,38.3639],[27.12,38.3641],[27.1215,38.364],[27.1212,38.3633],[27.1205,38.3634]]}}]}