{"type":"FeatureCollection","features":[{"type":"Feature","properties":{"id":"bus-28-1","kind":"busline","ref":"28","dir":1},"geometry":{"type":"LineString","coordinates":[[26.9583,38.3105],[26.9583,38.3103],[26.9583,38.3109],[26.9576,38.3109],[26.9568,38.3112],[26.9567,38.3114],[26.957,38.3117],[26.955,38.3121],[26.9551,38.3133],[26.9548,38.3138],[26.9548,38.3144],[26.9554,38.3147],[26.9555,38.3153],[26.9559,38.3156],[26.9566,38.316],[26.9574,38.316],[26.9576,38.3167],[26.9581,38.3174],[26.958,38.3178],[26.9583,38.3191],[26.9573,38.3199],[26.957,38.3211],[26.9574,38.323],[26.9573,38.3233],[26.9576,38.324],[26.9571,38.3245],[26.9568,38.3256],[26.9569,38.3261],[26.9566,38.3267],[26.9557,38.3274],[26.9545,38.3275],[26.9546,38.3272],[26.9554,38.3271],[26.9558,38.3268],[26.956,38.3263],[26.9559,38.326],[26.9554,38.326],[26.9548,38.3264],[26.954,38.3262],[26.953,38.3252],[26.9525,38.325],[26.9521,38.3256],[26.9512,38.3259],[26.9506,38.3276],[26.9493,38.3287],[26.9481,38.3292],[26.9473,38.3292],[26.9469,38.3296],[26.9465,38.3297],[26.9455,38.3298],[26.944,38.3296],[26.9431,38.3289],[26.9425,38.3287],[26.9423,38.3284],[26.9423,38.3265],[26.9406,38.3247],[26.939,38.324],[26.9374,38.3227],[26.9363,38.3227],[26.9354,38.3217],[26.9343,38.3216],[26.9319,38.3227],[26.9303,38.3215],[26.9299,38.3214],[26.9298,38.3208],[26.9291,38.3196],[26.9279,38.3178],[26.9266,38.3163],[26.9253,38.3155],[26.9245,38.3155],[26.9235,38.3161],[26.9238,38.317],[26.9237,38.3179],[26.9242,38.3181],[26.9237,38.3193],[26.9239,38.3201],[26.9236,38.3205],[26.9235,38.3212],[26.9239,38.3215],[26.9241,38.3222],[26.9244,38.3223],[26.9243,38.3236],[26.9247,38.3247],[26.9255,38.3252],[26.9268,38.3253],[26.9268,38.3256],[26.9262,38.3261],[26.926,38.3271],[26.9261,38.3274],[26.9276,38.3274],[26.9269,38.3284],[26.9259,38.3291],[26.9256,38.3291],[26.9241,38.3283],[26.9228,38.3283],[26.9224,38.3285],[26.9225,38.3294],[26.9219,38.3301],[26.92,38.3296],[26.9192,38.3296],[26.9177,38.3301],[26.9174,38.3291],[26.917,38.3289],[26.9148,38.3284],[26.914,38.3286],[26.9138,38.329],[26.914,38.3298],[26.9126,38.3294],[26.9115,38.3304],[26.9114,38.3309],[26.9117,38.3312],[26.9116,38.3318],[26.9119,38.332],[26.9119,38.3325],[26.9126,38.3328],[26.9128,38.3339],[26.9126,38.3342],[26.91,38.3346],[26.9093,38.3351],[26.9086,38.3349],[26.907,38.3349],[26.9055,38.3356],[26.9052,38.3366],[26.9038,38.3371],[26.9033,38.3371],[26.9026,38.3365],[26.9017,38.3362],[26.9014,38.3358],[26.9007,38.3356],[26.9001,38.3351],[26.8992,38.335],[26.898,38.3344],[26.8979,38.3342],[26.8984,38.334],[26.8984,38.3338],[26.8979,38.3336],[26.8967,38.3326],[26.8963,38.3326],[26.8964,38.3321],[26.8959,38.3318],[26.8959,38.3316],[26.8957,38.3322],[26.8964,38.3334],[26.8956,38.3335],[26.8955,38.3337],[26.8961,38.3345],[26.896,38.3352],[26.8964,38.3358],[26.8964,38.3362],[26.8958,38.3373],[26.896,38.3381],[26.8955,38.3383],[26.8954,38.339],[26.895,38.3392],[26.8948,38.3397],[26.8947,38.3425],[26.895,38.343],[26.8951,38.3444],[26.8949,38.3447],[26.895,38.3452],[26.8947,38.3456],[26.8945,38.3476],[26.8936,38.3486],[26.8933,38.3486],[26.8929,38.3482],[26.8925,38.3485],[26.8929,38.3501],[26.8927,38.3505],[26.892,38.3506],[26.8909,38.3497],[26.8902,38.3502],[26.8888,38.3506],[26.8881,38.3504],[26.8882,38.3509],[26.8887,38.3512],[26.8897,38.3511],[26.8904,38.3514],[26.8877,38.3522],[26.8868,38.3528],[26.886,38.3527],[26.8851,38.353],[26.8855,38.3531],[26.8859,38.3529],[26.8867,38.3533],[26.8876,38.3531],[26.8879,38.3532],[26.8882,38.3537],[26.8883,38.3543],[26.888,38.3555],[26.8872,38.3571],[26.8879,38.3575],[26.8874,38.3583],[26.8879,38.3586],[26.8886,38.3584],[26.8879,38.3586],[26.8868,38.358],[26.8868,38.3573],[26.887,38.3571]]}},{"type":"Feature","properties":{"id":"bus-28-2","kind":"busline","ref":"28","dir":2},"geometry":{"type":"LineString","coordinates":[[26.887,38.3571],[26.8879,38.3575],[26.8874,38.3583],[26.8879,38.3586],[26.8886,38.3584],[26.8879,38.3586],[26.8867,38.3579],[26.8878,38.3561],[26.8883,38.3543],[26.8882,38.3537],[26.8879,38.3532],[26.8876,38.3531],[26.8867,38.3533],[26.8859,38.3529],[26.8855,38.3531],[26.8851,38.353],[26.886,38.3527],[26.8868,38.3528],[26.8877,38.3522],[26.8904,38.3514],[26.8897,38.3511],[26.8887,38.3512],[26.8882,38.3509],[26.8881,38.3504],[26.8888,38.3506],[26.8902,38.3502],[26.8909,38.3497],[26.892,38.3506],[26.8927,38.3505],[26.8929,38.3501],[26.8925,38.3485],[26.8929,38.3482],[26.8933,38.3486],[26.8936,38.3486],[26.8945,38.3476],[26.8947,38.3456],[26.895,38.3452],[26.8949,38.3447],[26.8951,38.3444],[26.895,38.343],[26.8947,38.3425],[26.8948,38.3397],[26.895,38.3392],[26.8954,38.339],[26.8955,38.3383],[26.896,38.3381],[26.8958,38.3373],[26.8964,38.3362],[26.8964,38.3358],[26.896,38.3352],[26.8961,38.3345],[26.8955,38.3337],[26.8956,38.3335],[26.8964,38.3334],[26.8957,38.3322],[26.8959,38.3316],[26.8959,38.3318],[26.8964,38.3321],[26.8963,38.3326],[26.8967,38.3326],[26.8979,38.3336],[26.8984,38.3338],[26.8984,38.334],[26.8979,38.3342],[26.898,38.3344],[26.8992,38.335],[26.9001,38.3351],[26.9007,38.3356],[26.9014,38.3358],[26.9017,38.3362],[26.9026,38.3365],[26.9033,38.3371],[26.9038,38.3371],[26.9052,38.3366],[26.9055,38.3356],[26.907,38.3349],[26.9086,38.3349],[26.9093,38.3351],[26.91,38.3346],[26.9126,38.3342],[26.9128,38.334],[26.9126,38.3328],[26.9119,38.3325],[26.9119,38.332],[26.9116,38.3318],[26.9117,38.3312],[26.9114,38.3309],[26.9115,38.3304],[26.9126,38.3294],[26.914,38.3298],[26.9138,38.3294],[26.914,38.3286],[26.9148,38.3284],[26.917,38.3289],[26.9174,38.3291],[26.9177,38.3301],[26.9192,38.3296],[26.92,38.3296],[26.9219,38.3301],[26.9225,38.3294],[26.9224,38.3285],[26.9228,38.3283],[26.9241,38.3283],[26.9256,38.3291],[26.9259,38.3291],[26.9269,38.3284],[26.9276,38.3274],[26.9261,38.3274],[26.926,38.3271],[26.9262,38.3261],[26.9268,38.3256],[26.9268,38.3253],[26.9255,38.3252],[26.9247,38.3247],[26.9243,38.3236],[26.9244,38.3223],[26.9241,38.3222],[26.9239,38.3215],[26.9235,38.3212],[26.9236,38.3205],[26.9239,38.3201],[26.9237,38.3193],[26.9242,38.3181],[26.9237,38.3179],[26.9238,38.317],[26.9235,38.3161],[26.9245,38.3155],[26.9253,38.3155],[26.9266,38.3163],[26.9279,38.3178],[26.9291,38.3196],[26.9298,38.3208],[26.9299,38.3214],[26.9303,38.3215],[26.9319,38.3227],[26.9343,38.3216],[26.9354,38.3217],[26.9363,38.3227],[26.9374,38.3227],[26.939,38.324],[26.9406,38.3247],[26.9423,38.3265],[26.9423,38.3284],[26.9425,38.3287],[26.9431,38.3289],[26.944,38.3296],[26.9455,38.3298],[26.9465,38.3297],[26.9469,38.3296],[26.9473,38.3292],[26.9481,38.3292],[26.9493,38.3287],[26.9506,38.3276],[26.9512,38.3259],[26.9521,38.3256],[26.9525,38.325],[26.953,38.3252],[26.954,38.3262],[26.9548,38.3264],[26.9554,38.326],[26.9559,38.326],[26.956,38.3263],[26.9558,38.3268],[26.9554,38.3271],[26.9546,38.3272],[26.9545,38.3275],[26.9557,38.3274],[26.9566,38.3267],[26.9569,38.3261],[26.9568,38.3256],[26.9571,38.3245],[26.9576,38.324],[26.9573,38.3233],[26.9574,38.323],[26.957,38.3211],[26.9573,38.3199],[26.9583,38.3191],[26.958,38.3178],[26.9581,38.3174],[26.9576,38.3167],[26.9574,38.316],[26.9566,38.316],[26.9559,38.3156],[26.9555,38.3153],[26.9554,38.3147],[26.9548,38.3144],[26.9548,38.3138],[26.9551,38.3133],[26.955,38.3121],[26.957,38.3117],[26.9567,38.3114],[26.9568,38.3112],[26.9576,38.3109],[26.9583,38.3109],[26.9583,38.3103],[26.9583,38.3105]]}},{"type":"Feature","properties":{"id":"bus-28-s50722","kind":"busstop","ref":"28","name":"Kavacık","lines":["24"]},"geometry":{"type":"Point","coordinates":[26.9582,38.3105]}},{"type":"Feature","properties":{"id":"bus-28-s50708","kind":"busstop","ref":"28","name":"Orkide","lines":["24"]},"geometry":{"type":"Point","coordinates":[26.9571,38.3116]}},{"type":"Feature","properties":{"id":"bus-28-s52639","kind":"busstop","ref":"28","name":"Kavacık Giriş","lines":[]},"geometry":{"type":"Point","coordinates":[26.95494,38.31364]}},{"type":"Feature","properties":{"id":"bus-28-s52637","kind":"busstop","ref":"28","name":"Kavacık Restoran","lines":[]},"geometry":{"type":"Point","coordinates":[26.95702,38.32478]}},{"type":"Feature","properties":{"id":"bus-28-s52635","kind":"busstop","ref":"28","name":"Kavacık Bağ","lines":[]},"geometry":{"type":"Point","coordinates":[26.95108,38.32635]}},{"type":"Feature","properties":{"id":"bus-28-s52632","kind":"busstop","ref":"28","name":"Payamlı Bağ","lines":[]},"geometry":{"type":"Point","coordinates":[26.93911,38.32402]}},{"type":"Feature","properties":{"id":"bus-28-s52630","kind":"busstop","ref":"28","name":"Payamlı Kısıklar","lines":[]},"geometry":{"type":"Point","coordinates":[26.9334,38.3221]}},{"type":"Feature","properties":{"id":"bus-28-s52213","kind":"busstop","ref":"28","name":"Payamlı Manzara","lines":[]},"geometry":{"type":"Point","coordinates":[26.92958,38.32058]}},{"type":"Feature","properties":{"id":"bus-28-s52021","kind":"busstop","ref":"28","name":"Payamlı Vadi","lines":[]},"geometry":{"type":"Point","coordinates":[26.926,38.31592]}},{"type":"Feature","properties":{"id":"bus-28-s52020","kind":"busstop","ref":"28","name":"Kayapınarı","lines":[]},"geometry":{"type":"Point","coordinates":[26.9237,38.31599]}},{"type":"Feature","properties":{"id":"bus-28-s50700","kind":"busstop","ref":"28","name":"Payamlı","lines":[]},"geometry":{"type":"Point","coordinates":[26.92427,38.31819]}},{"type":"Feature","properties":{"id":"bus-28-s52016","kind":"busstop","ref":"28","name":"Payamlı Giriş","lines":[]},"geometry":{"type":"Point","coordinates":[26.9236,38.32084]}},{"type":"Feature","properties":{"id":"bus-28-s52018","kind":"busstop","ref":"28","name":"Manzara","lines":[]},"geometry":{"type":"Point","coordinates":[26.92447,38.32294]}},{"type":"Feature","properties":{"id":"bus-28-s52662","kind":"busstop","ref":"28","name":"Payamlı Orman","lines":[]},"geometry":{"type":"Point","coordinates":[26.92627,38.32892]}},{"type":"Feature","properties":{"id":"bus-28-s52660","kind":"busstop","ref":"28","name":"Payamlı Restoran","lines":[]},"geometry":{"type":"Point","coordinates":[26.9143,38.32859]}},{"type":"Feature","properties":{"id":"bus-28-s52658","kind":"busstop","ref":"28","name":"Payamlı Zeytinlik","lines":[]},"geometry":{"type":"Point","coordinates":[26.91201,38.32994]}},{"type":"Feature","properties":{"id":"bus-28-s52656","kind":"busstop","ref":"28","name":"Payamlı Çam","lines":[]},"geometry":{"type":"Point","coordinates":[26.91112,38.33443]}},{"type":"Feature","properties":{"id":"bus-28-s50702","kind":"busstop","ref":"28","name":"Küçükkaya Köyü","lines":[]},"geometry":{"type":"Point","coordinates":[26.8959,38.3319]}},{"type":"Feature","properties":{"id":"bus-28-s52603","kind":"busstop","ref":"28","name":"Panaroma Evleri","lines":[]},"geometry":{"type":"Point","coordinates":[26.89626,38.33554]}},{"type":"Feature","properties":{"id":"bus-28-s52601","kind":"busstop","ref":"28","name":"Küçükkaya Pansiyon","lines":[]},"geometry":{"type":"Point","coordinates":[26.89603,38.33785]}},{"type":"Feature","properties":{"id":"bus-28-s52599","kind":"busstop","ref":"28","name":"Küçükkaya Yol Ayrımı","lines":[]},"geometry":{"type":"Point","coordinates":[26.89474,38.34591]}},{"type":"Feature","properties":{"id":"bus-28-s52181","kind":"busstop","ref":"28","name":"Küçükkaya Manzara","lines":[]},"geometry":{"type":"Point","coordinates":[26.88834,38.35052]}},{"type":"Feature","properties":{"id":"bus-28-s52289","kind":"busstop","ref":"28","name":"Tepe","lines":[]},"geometry":{"type":"Point","coordinates":[26.88808,38.35346]}},{"type":"Feature","properties":{"id":"bus-28-s51954","kind":"busstop","ref":"28","name":"Güzelbahçe Vali Kazım Paşa Ortaokulu","lines":["9","82","321"]},"geometry":{"type":"Point","coordinates":[26.88795,38.35861]}},{"type":"Feature","properties":{"id":"bus-28-s50371","kind":"busstop","ref":"28","name":"Güzelbahçe","lines":["8","9","82","321","762"]},"geometry":{"type":"Point","coordinates":[26.887,38.3571]}},{"type":"Feature","properties":{"id":"bus-28-s52597","kind":"busstop","ref":"28","name":"Tepe","lines":[]},"geometry":{"type":"Point","coordinates":[26.88792,38.35342]}},{"type":"Feature","properties":{"id":"bus-28-s52180","kind":"busstop","ref":"28","name":"Küçükkaya Manzara","lines":[]},"geometry":{"type":"Point","coordinates":[26.88826,38.35031]}},{"type":"Feature","properties":{"id":"bus-28-s52598","kind":"busstop","ref":"28","name":"Küçükkaya Yol Ayrımı","lines":[]},"geometry":{"type":"Point","coordinates":[26.8947,38.34552]}},{"type":"Feature","properties":{"id":"bus-28-s52600","kind":"busstop","ref":"28","name":"Küçükkaya Pansiyon","lines":[]},"geometry":{"type":"Point","coordinates":[26.89584,38.33766]}},{"type":"Feature","properties":{"id":"bus-28-s52602","kind":"busstop","ref":"28","name":"Panaroma Evleri","lines":[]},"geometry":{"type":"Point","coordinates":[26.89591,38.33517]}},{"type":"Feature","properties":{"id":"bus-28-s50701","kind":"busstop","ref":"28","name":"Küçükkaya Köyü","lines":[]},"geometry":{"type":"Point","coordinates":[26.89596,38.33178]}},{"type":"Feature","properties":{"id":"bus-28-s52655","kind":"busstop","ref":"28","name":"Payamlı Çam","lines":[]},"geometry":{"type":"Point","coordinates":[26.91069,38.33445]}},{"type":"Feature","properties":{"id":"bus-28-s52657","kind":"busstop","ref":"28","name":"Payamlı Zeytinlik","lines":[]},"geometry":{"type":"Point","coordinates":[26.91231,38.32957]}},{"type":"Feature","properties":{"id":"bus-28-s52659","kind":"busstop","ref":"28","name":"Payamlı Restoran","lines":[]},"geometry":{"type":"Point","coordinates":[26.9145,38.32847]}},{"type":"Feature","properties":{"id":"bus-28-s52661","kind":"busstop","ref":"28","name":"Payamlı Orman","lines":[]},"geometry":{"type":"Point","coordinates":[26.92661,38.32859]}},{"type":"Feature","properties":{"id":"bus-28-s52017","kind":"busstop","ref":"28","name":"Manzara","lines":[]},"geometry":{"type":"Point","coordinates":[26.92434,38.32302]}},{"type":"Feature","properties":{"id":"bus-28-s52015","kind":"busstop","ref":"28","name":"Payamlı Giriş","lines":[]},"geometry":{"type":"Point","coordinates":[26.92348,38.32094]}},{"type":"Feature","properties":{"id":"bus-28-s52663","kind":"busstop","ref":"28","name":"Payamlı","lines":[]},"geometry":{"type":"Point","coordinates":[26.92416,38.31823]}},{"type":"Feature","properties":{"id":"bus-28-s52019","kind":"busstop","ref":"28","name":"Kayapınarı","lines":[]},"geometry":{"type":"Point","coordinates":[26.92357,38.31601]}},{"type":"Feature","properties":{"id":"bus-28-s52022","kind":"busstop","ref":"28","name":"Payamlı Vadi","lines":[]},"geometry":{"type":"Point","coordinates":[26.92595,38.31577]}},{"type":"Feature","properties":{"id":"bus-28-s52214","kind":"busstop","ref":"28","name":"Payamlı Manzara","lines":[]},"geometry":{"type":"Point","coordinates":[26.92957,38.32046]}},{"type":"Feature","properties":{"id":"bus-28-s52631","kind":"busstop","ref":"28","name":"Payamlı Kısıklar","lines":[]},"geometry":{"type":"Point","coordinates":[26.9332,38.32205]}},{"type":"Feature","properties":{"id":"bus-28-s52633","kind":"busstop","ref":"28","name":"Payamlı Bağ","lines":[]},"geometry":{"type":"Point","coordinates":[26.93938,38.32406]}},{"type":"Feature","properties":{"id":"bus-28-s52634","kind":"busstop","ref":"28","name":"Kavacık Bağ","lines":[]},"geometry":{"type":"Point","coordinates":[26.95097,38.32657]}},{"type":"Feature","properties":{"id":"bus-28-s52636","kind":"busstop","ref":"28","name":"Kavacık Restoran","lines":[]},"geometry":{"type":"Point","coordinates":[26.95687,38.3251]}},{"type":"Feature","properties":{"id":"bus-28-s52638","kind":"busstop","ref":"28","name":"Kavacık Giriş","lines":[]},"geometry":{"type":"Point","coordinates":[26.95472,38.31395]}},{"type":"Feature","properties":{"id":"bus-28-s16416","kind":"busstop","ref":"28","name":"Orkide","lines":["24"]},"geometry":{"type":"Point","coordinates":[26.95685,38.31166]}}]}