{"type":"FeatureCollection","features":[{"type":"Feature","properties":{"id":"bus-30-1","kind":"busline","ref":"30","dir":1},"geometry":{"type":"LineString","coordinates":[[27.1401,38.4083],[27.1406,38.4086],[27.14,38.4083],[27.1396,38.4074],[27.1395,38.4057],[27.139,38.4054],[27.1381,38.4061],[27.1368,38.4066],[27.1366,38.4053],[27.1362,38.4042],[27.1342,38.4046],[27.134,38.4041],[27.1322,38.4049],[27.132,38.4048],[27.1295,38.4061],[27.1292,38.4056],[27.1287,38.4053],[27.1285,38.4058],[27.1284,38.4077],[27.1289,38.4086],[27.1288,38.4108],[27.1279,38.4115],[27.1275,38.4123],[27.1277,38.4125],[27.1281,38.4121],[27.1284,38.4121],[27.1284,38.4123],[27.1269,38.4134],[27.1262,38.4136],[27.1282,38.4133],[27.1289,38.4137],[27.129,38.4144],[27.1286,38.4151],[27.1276,38.4161],[27.1263,38.4169],[27.1259,38.4168],[27.126,38.4164],[27.1276,38.4157],[27.1275,38.4155],[27.1277,38.4151]]}},{"type":"Feature","properties":{"id":"bus-30-2","kind":"busline","ref":"30","dir":2},"geometry":{"type":"LineString","coordinates":[[27.1279,38.4149],[27.1282,38.4147],[27.1276,38.4143],[27.1265,38.4145],[27.126,38.4145],[27.1257,38.4143],[27.128,38.4136],[27.1279,38.4134],[27.1265,38.4138],[27.1262,38.4136],[27.1269,38.4134],[27.1284,38.4123],[27.1284,38.4121],[27.1281,38.4121],[27.1278,38.4125],[27.1275,38.4123],[27.1279,38.4115],[27.1287,38.4107],[27.1288,38.4087],[27.1284,38.4082],[27.1282,38.4075],[27.1283,38.4062],[27.1286,38.4052],[27.129,38.4053],[27.1295,38.4061],[27.132,38.4048],[27.1322,38.4049],[27.134,38.4041],[27.1342,38.4046],[27.1362,38.4042],[27.1366,38.4053],[27.1368,38.4066],[27.1381,38.4061],[27.139,38.4054],[27.1395,38.4057],[27.1396,38.4074],[27.14,38.4083],[27.1406,38.4086],[27.14,38.4083]]}},{"type":"Feature","properties":{"id":"bus-30-s12142","kind":"busstop","ref":"30","name":"Kaynak","lines":[]},"geometry":{"type":"Point","coordinates":[27.1401,38.4083]}},{"type":"Feature","properties":{"id":"bus-30-s12140","kind":"busstop","ref":"30","name":"Gökalp","lines":[]},"geometry":{"type":"Point","coordinates":[27.13947,38.40601]}},{"type":"Feature","properties":{"id":"bus-30-s12138","kind":"busstop","ref":"30","name":"Beştepeler Lisesi","lines":[]},"geometry":{"type":"Point","coordinates":[27.13658,38.40576]}},{"type":"Feature","properties":{"id":"bus-30-s12136","kind":"busstop","ref":"30","name":"Girgin","lines":[]},"geometry":{"type":"Point","coordinates":[27.136,38.4043]}},{"type":"Feature","properties":{"id":"bus-30-s12118","kind":"busstop","ref":"30","name":"Çimentepe Aile Sağlık Merkezi","lines":["29","32"]},"geometry":{"type":"Point","coordinates":[27.13383,38.40422]}},{"type":"Feature","properties":{"id":"bus-30-s12126","kind":"busstop","ref":"30","name":"Konak Ömer Lütfü Akad Ortaokulu","lines":["29","32"]},"geometry":{"type":"Point","coordinates":[27.13241,38.40486]}},{"type":"Feature","properties":{"id":"bus-30-s12116","kind":"busstop","ref":"30","name":"Kasap","lines":["29","32"]},"geometry":{"type":"Point","coordinates":[27.13052,38.40563]}},{"type":"Feature","properties":{"id":"bus-30-s12058","kind":"busstop","ref":"30","name":"Eşrefpaşa","lines":["23","29","32","33","72","104","105","157","171","193","224","233","285","374","465","471","484","485","940"]},"geometry":{"type":"Point","coordinates":[27.1288,38.4083]}},{"type":"Feature","properties":{"id":"bus-30-s10240","kind":"busstop","ref":"30","name":"Kız Yurdu","lines":["15","18","19","20","23","29","32","33","72","104","105","152","157","171","193","224","233","285","374","465","471","484","485","508","550","587","588","887"]},"geometry":{"type":"Point","coordinates":[27.12721,38.41322]}},{"type":"Feature","properties":{"id":"bus-30-s10007","kind":"busstop","ref":"30","name":"Bahribaba","lines":["29"]},"geometry":{"type":"Point","coordinates":[27.12772,38.41514]}},{"type":"Feature","properties":{"id":"bus-30-s10241","kind":"busstop","ref":"30","name":"Kız Yurdu","lines":["15","29","32","33","152","157","193","224","233","508","550","587","588","887"]},"geometry":{"type":"Point","coordinates":[27.12728,38.41293]}},{"type":"Feature","properties":{"id":"bus-30-s12059","kind":"busstop","ref":"30","name":"Eşrefpaşa","lines":["29","32","33"]},"geometry":{"type":"Point","coordinates":[27.12832,38.40796]}},{"type":"Feature","properties":{"id":"bus-30-s12117","kind":"busstop","ref":"30","name":"Kasap","lines":["29","32"]},"geometry":{"type":"Point","coordinates":[27.1305,38.4056]}},{"type":"Feature","properties":{"id":"bus-30-s12119","kind":"busstop","ref":"30","name":"Konak Ömer Lütfü Akad Ortaokulu","lines":["29","32"]},"geometry":{"type":"Point","coordinates":[27.1323,38.4048]}},{"type":"Feature","properties":{"id":"bus-30-s12121","kind":"busstop","ref":"30","name":"Çimentepe Aile Sağlık Merkezi","lines":["29","32"]},"geometry":{"type":"Point","coordinates":[27.13358,38.40426]}},{"type":"Feature","properties":{"id":"bus-30-s12135","kind":"busstop","ref":"30","name":"Girgin","lines":[]},"geometry":{"type":"Point","coordinates":[27.1359,38.4042]}},{"type":"Feature","properties":{"id":"bus-30-s12137","kind":"busstop","ref":"30","name":"Beştepeler Lisesi","lines":[]},"geometry":{"type":"Point","coordinates":[27.13672,38.40589]}},{"type":"Feature","properties":{"id":"bus-30-s12139","kind":"busstop","ref":"30","name":"Gökalp","lines":[]},"geometry":{"type":"Point","coordinates":[27.1395,38.40592]}}]}