{"type":"FeatureCollection","features":[{"type":"Feature","properties":{"id":"bus-305-1","kind":"busline","ref":"305","dir":1},"geometry":{"type":"LineString","coordinates":[[27.0174,38.3897],[27.0176,38.3897],[27.0175,38.3894],[27.0158,38.3888],[27.0149,38.3876],[27.0141,38.3885],[27.0142,38.39],[27.014,38.3906],[27.0144,38.3912],[27.0153,38.3915],[27.0159,38.3905],[27.0157,38.3901],[27.015,38.3896],[27.0153,38.3893],[27.0158,38.3894],[27.0169,38.3906],[27.0185,38.3936],[27.0255,38.3925],[27.0318,38.3929],[27.0362,38.3938],[27.0393,38.3942],[27.0418,38.3942],[27.0433,38.394],[27.0481,38.3942],[27.0533,38.3939],[27.0581,38.395],[27.0622,38.3965],[27.0658,38.3971],[27.0693,38.3972],[27.0693,38.3975],[27.0656,38.3972],[27.0651,38.3975],[27.0652,38.3979],[27.0662,38.3987],[27.0666,38.3988],[27.0671,38.3984],[27.0666,38.3983]]}},{"type":"Feature","properties":{"id":"bus-305-2","kind":"busline","ref":"305","dir":2},"geometry":{"type":"LineString","coordinates":[[27.0665,38.3984],[27.066,38.398],[27.0662,38.3978],[27.0671,38.3984],[27.0666,38.3988],[27.0662,38.3987],[27.0661,38.399],[27.0658,38.399],[27.0657,38.3986],[27.0649,38.3979],[27.065,38.3973],[27.0647,38.3971],[27.062,38.3967],[27.0606,38.3961],[27.0576,38.3956],[27.0571,38.3952],[27.0537,38.3942],[27.0476,38.3944],[27.0426,38.3942],[27.041,38.3944],[27.0383,38.3944],[27.0367,38.3939],[27.0306,38.3929],[27.0258,38.3926],[27.0229,38.3929],[27.0182,38.3938],[27.0183,38.3934],[27.0169,38.3906],[27.0158,38.3894],[27.0153,38.3893],[27.015,38.3896],[27.0157,38.3901],[27.0159,38.3905],[27.0155,38.3913],[27.015,38.3915],[27.0144,38.3912],[27.014,38.3906],[27.0142,38.39],[27.0141,38.3885],[27.0149,38.3876],[27.0158,38.3888],[27.0175,38.3894],[27.0176,38.3897],[27.0174,38.3897]]}},{"type":"Feature","properties":{"id":"bus-305-s50237","kind":"busstop","ref":"305","name":"Atatürk Mahallesi","lines":[]},"geometry":{"type":"Point","coordinates":[27.0174,38.3898]}},{"type":"Feature","properties":{"id":"bus-305-s50234","kind":"busstop","ref":"305","name":"Seyran","lines":[]},"geometry":{"type":"Point","coordinates":[27.0157,38.3887]}},{"type":"Feature","properties":{"id":"bus-305-s50232","kind":"busstop","ref":"305","name":"Köprü","lines":[]},"geometry":{"type":"Point","coordinates":[27.0151,38.3877]}},{"type":"Feature","properties":{"id":"bus-305-s50226","kind":"busstop","ref":"305","name":"İkinci İnönü Meydan","lines":["971"]},"geometry":{"type":"Point","coordinates":[27.0141,38.3901]}},{"type":"Feature","properties":{"id":"bus-305-s50224","kind":"busstop","ref":"305","name":"Çocuk Parkı","lines":["971"]},"geometry":{"type":"Point","coordinates":[27.0155,38.3912]}},{"type":"Feature","properties":{"id":"bus-305-s50222","kind":"busstop","ref":"305","name":"Maltepe","lines":["971"]},"geometry":{"type":"Point","coordinates":[27.0159,38.3895]}},{"type":"Feature","properties":{"id":"bus-305-s50220","kind":"busstop","ref":"305","name":"Çayırlı","lines":["971"]},"geometry":{"type":"Point","coordinates":[27.0182,38.393]}},{"type":"Feature","properties":{"id":"bus-305-s50030","kind":"busstop","ref":"305","name":"Balcı","lines":["5","6","7","8","82","321","551","909","950","971","975","981","982","983","984","985","987"]},"geometry":{"type":"Point","coordinates":[27.0204,38.3932]}},{"type":"Feature","properties":{"id":"bus-305-s50028","kind":"busstop","ref":"305","name":"Güzel Sanatlar Fakültesi","lines":["5","6","7","8","82","971"]},"geometry":{"type":"Point","coordinates":[27.0244,38.3926]}},{"type":"Feature","properties":{"id":"bus-305-s50026","kind":"busstop","ref":"305","name":"İzsu","lines":["5","6","7","8","82","321","551","909","950","971","975","981","982","983","984","985","987"]},"geometry":{"type":"Point","coordinates":[27.0264,38.3925]}},{"type":"Feature","properties":{"id":"bus-305-s50024","kind":"busstop","ref":"305","name":"Kantar","lines":["5","6","7","8","82","321","551","909","950","971","975","981","982","983","984","985","987"]},"geometry":{"type":"Point","coordinates":[27.02975,38.39273]}},{"type":"Feature","properties":{"id":"bus-305-s50022","kind":"busstop","ref":"305","name":"Dokuz Eylül","lines":["5","6","7","8","82","321","551","909","950","971","975","981","982","983","984","985","987"]},"geometry":{"type":"Point","coordinates":[27.0336,38.3932]}},{"type":"Feature","properties":{"id":"bus-305-s50020","kind":"busstop","ref":"305","name":"Dokuz Eylül Hastanesi İstasyon","lines":["5","6","7","8","82","311","321","481","483","510","650","909","971","975","981","982","983","984","985","987"]},"geometry":{"type":"Point","coordinates":[27.0394,38.39413]}},{"type":"Feature","properties":{"id":"bus-305-s50018","kind":"busstop","ref":"305","name":"Hoca","lines":["5","6","7","8","82","311","321","481","510","650","909","971","975","981","982","983","984","985","987"]},"geometry":{"type":"Point","coordinates":[27.04249,38.39406]}},{"type":"Feature","properties":{"id":"bus-305-s50016","kind":"busstop","ref":"305","name":"Çağdaş İstasyon","lines":["5","6","7","8","82","311","321","510","650","909","971","975","981","982","983","984","985","987"]},"geometry":{"type":"Point","coordinates":[27.04672,38.39407]}},{"type":"Feature","properties":{"id":"bus-305-s50014","kind":"busstop","ref":"305","name":"İş Bankası Evleri","lines":["5","6","7","8","82","311","321","510","650","909","971","975","981","982","983","984","985","987"]},"geometry":{"type":"Point","coordinates":[27.0493,38.394]}},{"type":"Feature","properties":{"id":"bus-305-s50012","kind":"busstop","ref":"305","name":"Molla Kuyusu","lines":["5","6","7","8","82","311","321","481","510","650","909","971","975","981","982","983","984","985","987"]},"geometry":{"type":"Point","coordinates":[27.0532,38.39388]}},{"type":"Feature","properties":{"id":"bus-305-s50010","kind":"busstop","ref":"305","name":"Balçova İstasyon","lines":["5","6","7","8","82","311","321","481","510","650","909","971","975","981","982","983","984","985","987"]},"geometry":{"type":"Point","coordinates":[27.0569,38.3947]}},{"type":"Feature","properties":{"id":"bus-305-s50008","kind":"busstop","ref":"305","name":"Beyaz","lines":["5","6","7","8","24","25","82","202","311","321","481","510","650","909","971","975","977","981","982","983","984","985","987"]},"geometry":{"type":"Point","coordinates":[27.06161,38.39621]}},{"type":"Feature","properties":{"id":"bus-305-s50004","kind":"busstop","ref":"305","name":"Fahrettin Altay Meydan 9 ","lines":["5","6","7","10","24","25","82","167","202","311","321","480","510","551","650","675","684","883","909","945","946","971","975","977","981","982","983","984","985","987"]},"geometry":{"type":"Point","coordinates":[27.0686,38.3971]}},{"type":"Feature","properties":{"id":"bus-305-s51920","kind":"busstop","ref":"305","name":"Fahrettin Altay Aktarma Merkezi","lines":[]},"geometry":{"type":"Point","coordinates":[27.06591,38.39818]}},{"type":"Feature","properties":{"id":"bus-305-s50011","kind":"busstop","ref":"305","name":"Balçova İstasyon","lines":["5","6","7","8","82","311","321","481","510","650","811","909","971","975","981","982","983","984","985","987"]},"geometry":{"type":"Point","coordinates":[27.05601,38.39495]}},{"type":"Feature","properties":{"id":"bus-305-s50013","kind":"busstop","ref":"305","name":"Molla Kuyusu","lines":["5","6","7","8","82","311","321","510","650","811","909","971","975","981","982","983","984","985","987"]},"geometry":{"type":"Point","coordinates":[27.0515,38.3942]}},{"type":"Feature","properties":{"id":"bus-305-s50015","kind":"busstop","ref":"305","name":"İş Bankası Evleri","lines":["5","6","7","8","82","311","321","510","811","909","971","975","981","982","983","984","985","987"]},"geometry":{"type":"Point","coordinates":[27.04861,38.39441]}},{"type":"Feature","properties":{"id":"bus-305-s50017","kind":"busstop","ref":"305","name":"Çağdaş İstasyon","lines":["5","6","7","8","82","311","321","510","650","811","909","971","975","981","982","983","984","985","987"]},"geometry":{"type":"Point","coordinates":[27.04563,38.39437]}},{"type":"Feature","properties":{"id":"bus-305-s50019","kind":"busstop","ref":"305","name":"Hoca","lines":["5","6","7","8","82","311","321","510","650","811","909","971","975","981","982","983","984","985","987"]},"geometry":{"type":"Point","coordinates":[27.0424,38.3943]}},{"type":"Feature","properties":{"id":"bus-305-s50021","kind":"busstop","ref":"305","name":"Dokuz Eylül Hastanesi İstasyon","lines":["5","6","7","8","82","311","321","650","811","909","971","975","981","982","983","984","985","987"]},"geometry":{"type":"Point","coordinates":[27.0388,38.3944]}},{"type":"Feature","properties":{"id":"bus-305-s50023","kind":"busstop","ref":"305","name":"Dokuz Eylül","lines":["5","6","7","8","82","321","551","909","950","971","975","981","982","983","984","985","987"]},"geometry":{"type":"Point","coordinates":[27.0331,38.3933]}},{"type":"Feature","properties":{"id":"bus-305-s50025","kind":"busstop","ref":"305","name":"Kantar","lines":["5","6","7","8","82","321","551","909","950","971","975","981","982","983","984","985","987"]},"geometry":{"type":"Point","coordinates":[27.02682,38.39278]}},{"type":"Feature","properties":{"id":"bus-305-s50027","kind":"busstop","ref":"305","name":"Güzel Sanatlar Fakültesi","lines":["5","6","7","8","82","321","551","909","950","971","975","981","982","983","984","985","987"]},"geometry":{"type":"Point","coordinates":[27.024,38.3929]}},{"type":"Feature","properties":{"id":"bus-305-s50221","kind":"busstop","ref":"305","name":"Çayırlı","lines":["971"]},"geometry":{"type":"Point","coordinates":[27.018,38.3928]}},{"type":"Feature","properties":{"id":"bus-305-s50223","kind":"busstop","ref":"305","name":"Maltepe","lines":["971"]},"geometry":{"type":"Point","coordinates":[27.0158,38.3894]}},{"type":"Feature","properties":{"id":"bus-305-s50225","kind":"busstop","ref":"305","name":"Çocuk Parkı","lines":["971"]},"geometry":{"type":"Point","coordinates":[27.0156,38.3913]}},{"type":"Feature","properties":{"id":"bus-305-s50227","kind":"busstop","ref":"305","name":"İkinci İnönü Meydan","lines":["971"]},"geometry":{"type":"Point","coordinates":[27.01407,38.39018]}},{"type":"Feature","properties":{"id":"bus-305-s50233","kind":"busstop","ref":"305","name":"Köprü","lines":[]},"geometry":{"type":"Point","coordinates":[27.0149,38.38772]}},{"type":"Feature","properties":{"id":"bus-305-s50235","kind":"busstop","ref":"305","name":"Seyran","lines":[]},"geometry":{"type":"Point","coordinates":[27.0157,38.3886]}}]}