{"type":"FeatureCollection","features":[{"type":"Feature","properties":{"id":"bus-313-1","kind":"busline","ref":"313","dir":1},"geometry":{"type":"LineString","coordinates":[[27.2572,38.4864],[27.2574,38.4865],[27.2563,38.4859],[27.2556,38.4848],[27.2557,38.4842],[27.2568,38.4834],[27.2566,38.4831],[27.2555,38.4837],[27.2548,38.4847],[27.2539,38.484],[27.2531,38.4828],[27.2524,38.4828],[27.2521,38.4832],[27.2528,38.4844],[27.2528,38.4847],[27.2526,38.4848],[27.2509,38.4838],[27.2491,38.4813],[27.2476,38.4804],[27.2469,38.4801],[27.2459,38.48],[27.2449,38.4795],[27.2414,38.4796],[27.2402,38.4791],[27.2387,38.4775],[27.2375,38.4769],[27.2356,38.4769],[27.2353,38.4766],[27.2351,38.4759],[27.2354,38.4752],[27.2352,38.4749],[27.2345,38.4746],[27.2343,38.4741],[27.2338,38.4739],[27.2329,38.4739],[27.2319,38.4735],[27.231,38.4736],[27.2324,38.4756],[27.2336,38.4769],[27.2382,38.4799],[27.2402,38.4821],[27.2415,38.4826],[27.245,38.4829],[27.2483,38.4851],[27.2497,38.4855],[27.2497,38.4859],[27.2481,38.4854],[27.2449,38.483],[27.241,38.4826],[27.2403,38.4823],[27.2395,38.4817],[27.2381,38.48],[27.2346,38.4779],[27.2331,38.4766],[27.2296,38.4721],[27.228,38.4696],[27.2272,38.4664],[27.2269,38.4634],[27.2263,38.4624],[27.2255,38.4623],[27.2205,38.463],[27.2176,38.4618],[27.2169,38.4609],[27.2163,38.4607],[27.2164,38.4592],[27.2136,38.4589],[27.2136,38.4585],[27.2146,38.4586]]}},{"type":"Feature","properties":{"id":"bus-313-2","kind":"busline","ref":"313","dir":2},"geometry":{"type":"LineString","coordinates":[[27.2146,38.4586],[27.2136,38.4584],[27.2164,38.4584],[27.2163,38.4607],[27.2169,38.4609],[27.2176,38.4618],[27.2206,38.4629],[27.2233,38.4627],[27.2255,38.4623],[27.2262,38.4624],[27.226,38.4622],[27.2261,38.4616],[27.2264,38.4614],[27.2271,38.4615],[27.2274,38.4619],[27.2272,38.4626],[27.2275,38.4661],[27.2281,38.4685],[27.2288,38.4702],[27.2301,38.4725],[27.231,38.4736],[27.2319,38.4735],[27.2329,38.4739],[27.2338,38.4739],[27.2343,38.4741],[27.2345,38.4746],[27.2352,38.4749],[27.2354,38.4752],[27.2351,38.4759],[27.2353,38.4766],[27.2356,38.4769],[27.2375,38.4769],[27.2387,38.4775],[27.2402,38.4791],[27.2414,38.4796],[27.2449,38.4795],[27.2459,38.48],[27.2469,38.4801],[27.2476,38.4804],[27.2491,38.4813],[27.2509,38.4838],[27.2526,38.4848],[27.2528,38.4847],[27.2528,38.4844],[27.2521,38.4832],[27.2524,38.4828],[27.2531,38.4828],[27.2539,38.484],[27.2548,38.4847],[27.2555,38.4837],[27.2566,38.4831],[27.2568,38.4834],[27.2557,38.4842],[27.2556,38.4848],[27.2563,38.4859],[27.2574,38.4865],[27.2572,38.4864]]}},{"type":"Feature","properties":{"id":"bus-313-s30075","kind":"busstop","ref":"313","name":"Yeni Mezarlık","lines":[]},"geometry":{"type":"Point","coordinates":[27.25721,38.48646]}},{"type":"Feature","properties":{"id":"bus-313-s30074","kind":"busstop","ref":"313","name":"Tulumba Mevki","lines":[]},"geometry":{"type":"Point","coordinates":[27.24633,38.48009]}},{"type":"Feature","properties":{"id":"bus-313-s30377","kind":"busstop","ref":"313","name":"Mezarlık","lines":["315","316"]},"geometry":{"type":"Point","coordinates":[27.2441,38.48268]}},{"type":"Feature","properties":{"id":"bus-313-s30379","kind":"busstop","ref":"313","name":"Dostlar Sitesi","lines":["315","316"]},"geometry":{"type":"Point","coordinates":[27.24955,38.4854]}},{"type":"Feature","properties":{"id":"bus-313-s30378","kind":"busstop","ref":"313","name":"Dostlar Sitesi","lines":["315","316"]},"geometry":{"type":"Point","coordinates":[27.247,38.4846]}},{"type":"Feature","properties":{"id":"bus-313-s31281","kind":"busstop","ref":"313","name":"Suphi Koyuncu","lines":["314","338"]},"geometry":{"type":"Point","coordinates":[27.2249,38.4624]}},{"type":"Feature","properties":{"id":"bus-313-s31279","kind":"busstop","ref":"313","name":"Rektörlük","lines":["338"]},"geometry":{"type":"Point","coordinates":[27.21921,38.46254]}},{"type":"Feature","properties":{"id":"bus-313-s31272","kind":"busstop","ref":"313","name":"Mahfel","lines":["314","338","565","566","568","570","584","585"]},"geometry":{"type":"Point","coordinates":[27.21619,38.46019]}},{"type":"Feature","properties":{"id":"bus-313-s30017","kind":"busstop","ref":"313","name":"Bornova Metro","lines":[]},"geometry":{"type":"Point","coordinates":[27.21466,38.45863]}},{"type":"Feature","properties":{"id":"bus-313-s31271","kind":"busstop","ref":"313","name":"Mahfel","lines":["314","338","565","566","568","570","584","585"]},"geometry":{"type":"Point","coordinates":[27.21628,38.46011]}},{"type":"Feature","properties":{"id":"bus-313-s31280","kind":"busstop","ref":"313","name":"Rektörlük","lines":["214","314","328","330","338","365","515","559","565","566","568","570","584","585","930","963"]},"geometry":{"type":"Point","coordinates":[27.2193,38.4624]}},{"type":"Feature","properties":{"id":"bus-313-s31282","kind":"busstop","ref":"313","name":"Suphi Koyuncu","lines":["214","314","328","330","338","365","515","559","963"]},"geometry":{"type":"Point","coordinates":[27.2248,38.4624]}},{"type":"Feature","properties":{"id":"bus-313-s30373","kind":"busstop","ref":"313","name":"Topçu Birliği","lines":["315","316"]},"geometry":{"type":"Point","coordinates":[27.2287,38.47]}},{"type":"Feature","properties":{"id":"bus-313-s30073","kind":"busstop","ref":"313","name":"Tulumba Mevki","lines":[]},"geometry":{"type":"Point","coordinates":[27.24637,38.47996]}}]}