{"type":"FeatureCollection","features":[{"type":"Feature","properties":{"id":"bus-315-1","kind":"busline","ref":"315","dir":1},"geometry":{"type":"LineString","coordinates":[[27.271,38.5178],[27.2724,38.5184],[27.2726,38.5188],[27.2717,38.5198],[27.2709,38.5196],[27.2702,38.5197],[27.2696,38.5194],[27.2677,38.5162],[27.27,38.5162],[27.2708,38.5165],[27.271,38.5161],[27.2709,38.5158],[27.269,38.514],[27.2691,38.5126],[27.2688,38.5115],[27.2693,38.5114],[27.27,38.5117],[27.2697,38.5097],[27.2699,38.5091],[27.2693,38.5075],[27.2693,38.5067],[27.2695,38.5059],[27.2702,38.5048],[27.2718,38.5032],[27.2726,38.5021],[27.2726,38.5012],[27.2721,38.5005],[27.2711,38.5],[27.2692,38.4999],[27.2681,38.4994],[27.2675,38.4984],[27.2675,38.4971],[27.2671,38.4961],[27.265,38.4945],[27.2642,38.4929],[27.2635,38.4922],[27.2622,38.4917],[27.2595,38.492],[27.2583,38.492],[27.257,38.4917],[27.2558,38.491],[27.2551,38.4903],[27.2532,38.4873],[27.2519,38.4861],[27.2512,38.4859],[27.25,38.486],[27.249,38.4858],[27.2481,38.4854],[27.2449,38.483],[27.241,38.4826],[27.2403,38.4823],[27.2395,38.4817],[27.2381,38.48],[27.2346,38.4779],[27.2323,38.4757],[27.2296,38.4721],[27.228,38.4696],[27.228,38.4694],[27.2294,38.4687],[27.232,38.4675],[27.2336,38.467],[27.2304,38.4652],[27.2291,38.4661],[27.2288,38.4661],[27.2286,38.4656]]}},{"type":"Feature","properties":{"id":"bus-315-2","kind":"busline","ref":"315","dir":2},"geometry":{"type":"LineString","coordinates":[[27.2286,38.4656],[27.2288,38.4661],[27.2291,38.4661],[27.2304,38.4652],[27.2337,38.4668],[27.2347,38.4669],[27.232,38.4676],[27.2285,38.4693],[27.2288,38.4702],[27.2301,38.4725],[27.2324,38.4756],[27.2336,38.4769],[27.2382,38.4799],[27.2396,38.4816],[27.2406,38.4823],[27.2415,38.4826],[27.245,38.4829],[27.2483,38.4851],[27.2497,38.4855],[27.2497,38.4859],[27.2493,38.4859],[27.2481,38.4854],[27.2467,38.4842],[27.2481,38.4854],[27.2493,38.4859],[27.2497,38.4859],[27.2497,38.4855],[27.2507,38.4855],[27.252,38.4858],[27.2532,38.4867],[27.2536,38.4877],[27.2554,38.4905],[27.2566,38.4914],[27.2581,38.4919],[27.2622,38.4916],[27.2635,38.492],[27.2643,38.4927],[27.2653,38.4946],[27.2666,38.4954],[27.2675,38.4965],[27.2677,38.4985],[27.2684,38.4994],[27.2692,38.4998],[27.271,38.4999],[27.2716,38.5001],[27.2725,38.5008],[27.2728,38.5014],[27.2728,38.5019],[27.2725,38.5026],[27.2703,38.5049],[27.2695,38.5063],[27.2695,38.5078],[27.27,38.5091],[27.2697,38.5097],[27.27,38.5117],[27.2693,38.5114],[27.2688,38.5115],[27.2691,38.5126],[27.269,38.514],[27.2709,38.5158],[27.271,38.5161],[27.2708,38.5165],[27.27,38.5162],[27.2677,38.5162],[27.2696,38.5194],[27.2702,38.5197],[27.2709,38.5196],[27.2717,38.5198],[27.2726,38.5188],[27.2724,38.5184],[27.271,38.5178]]}},{"type":"Feature","properties":{"id":"bus-315-s30947","kind":"busstop","ref":"315","name":"Karaçam","lines":[]},"geometry":{"type":"Point","coordinates":[27.27106,38.51778]}},{"type":"Feature","properties":{"id":"bus-315-s32386","kind":"busstop","ref":"315","name":"Karaçam Park","lines":[]},"geometry":{"type":"Point","coordinates":[27.27263,38.51873]}},{"type":"Feature","properties":{"id":"bus-315-s32384","kind":"busstop","ref":"315","name":"Karaçam Santral","lines":[]},"geometry":{"type":"Point","coordinates":[27.27093,38.51966]}},{"type":"Feature","properties":{"id":"bus-315-s32382","kind":"busstop","ref":"315","name":"Karaçam Çiftlik","lines":[]},"geometry":{"type":"Point","coordinates":[27.26851,38.51767]}},{"type":"Feature","properties":{"id":"bus-315-s30946","kind":"busstop","ref":"315","name":"Trafo","lines":[]},"geometry":{"type":"Point","coordinates":[27.27081,38.51628]}},{"type":"Feature","properties":{"id":"bus-315-s30950","kind":"busstop","ref":"315","name":"Karaçam Havuz","lines":[]},"geometry":{"type":"Point","coordinates":[27.2693,38.51434]}},{"type":"Feature","properties":{"id":"bus-315-s30944","kind":"busstop","ref":"315","name":"Zirve Kent","lines":[]},"geometry":{"type":"Point","coordinates":[27.26897,38.51339]}},{"type":"Feature","properties":{"id":"bus-315-s30940","kind":"busstop","ref":"315","name":"Villa","lines":[]},"geometry":{"type":"Point","coordinates":[27.26952,38.51159]}},{"type":"Feature","properties":{"id":"bus-315-s30384","kind":"busstop","ref":"315","name":"Karaçam Giriş","lines":[]},"geometry":{"type":"Point","coordinates":[27.26963,38.5089]}},{"type":"Feature","properties":{"id":"bus-315-s30378","kind":"busstop","ref":"315","name":"Dostlar Sitesi","lines":["313","316"]},"geometry":{"type":"Point","coordinates":[27.247,38.4846]}},{"type":"Feature","properties":{"id":"bus-315-s31423","kind":"busstop","ref":"315","name":"Ali Rıza Güven Cami","lines":["214","316","498"]},"geometry":{"type":"Point","coordinates":[27.2291,38.4688]}},{"type":"Feature","properties":{"id":"bus-315-s31425","kind":"busstop","ref":"315","name":"Ataberk","lines":["214","316","498"]},"geometry":{"type":"Point","coordinates":[27.2317,38.4676]}},{"type":"Feature","properties":{"id":"bus-315-s31773","kind":"busstop","ref":"315","name":"Evka 3 Aktarma Merkezi","lines":["316","365","515"]},"geometry":{"type":"Point","coordinates":[27.22856,38.46566]}},{"type":"Feature","properties":{"id":"bus-315-s31426","kind":"busstop","ref":"315","name":"Ataberk","lines":["214","316","498"]},"geometry":{"type":"Point","coordinates":[27.2314,38.4679]}},{"type":"Feature","properties":{"id":"bus-315-s31424","kind":"busstop","ref":"315","name":"Ali Rıza Güven Cami","lines":["214","316","498"]},"geometry":{"type":"Point","coordinates":[27.2291,38.469]}},{"type":"Feature","properties":{"id":"bus-315-s30373","kind":"busstop","ref":"315","name":"Topçu Birliği","lines":["313","316"]},"geometry":{"type":"Point","coordinates":[27.2287,38.47]}},{"type":"Feature","properties":{"id":"bus-315-s30377","kind":"busstop","ref":"315","name":"Mezarlık","lines":["313","316"]},"geometry":{"type":"Point","coordinates":[27.2441,38.48268]}},{"type":"Feature","properties":{"id":"bus-315-s30379","kind":"busstop","ref":"315","name":"Dostlar Sitesi","lines":["313","316"]},"geometry":{"type":"Point","coordinates":[27.24955,38.4854]}},{"type":"Feature","properties":{"id":"bus-315-s30939","kind":"busstop","ref":"315","name":"Karaçam Giriş","lines":[]},"geometry":{"type":"Point","coordinates":[27.26981,38.50945]}},{"type":"Feature","properties":{"id":"bus-315-s30941","kind":"busstop","ref":"315","name":"Villa","lines":[]},"geometry":{"type":"Point","coordinates":[27.26969,38.51171]}},{"type":"Feature","properties":{"id":"bus-315-s30943","kind":"busstop","ref":"315","name":"Zirve Kent","lines":[]},"geometry":{"type":"Point","coordinates":[27.2691,38.5131]}},{"type":"Feature","properties":{"id":"bus-315-s30951","kind":"busstop","ref":"315","name":"Karaçam Havuz","lines":[]},"geometry":{"type":"Point","coordinates":[27.26931,38.5143]}},{"type":"Feature","properties":{"id":"bus-315-s30945","kind":"busstop","ref":"315","name":"Trafo","lines":[]},"geometry":{"type":"Point","coordinates":[27.27098,38.5161]}},{"type":"Feature","properties":{"id":"bus-315-s32381","kind":"busstop","ref":"315","name":"Karaçam Çiftlik","lines":[]},"geometry":{"type":"Point","coordinates":[27.26874,38.51792]}},{"type":"Feature","properties":{"id":"bus-315-s32383","kind":"busstop","ref":"315","name":"Karaçam Santral","lines":[]},"geometry":{"type":"Point","coordinates":[27.27084,38.51955]}},{"type":"Feature","properties":{"id":"bus-315-s32385","kind":"busstop","ref":"315","name":"Karaçam Park","lines":[]},"geometry":{"type":"Point","coordinates":[27.27232,38.51908]}}]}