{"type":"FeatureCollection","features":[{"type":"Feature","properties":{"id":"bus-316-1","kind":"busline","ref":"316","dir":1},"geometry":{"type":"LineString","coordinates":[[27.276,38.5482],[27.2774,38.5484],[27.2774,38.5479],[27.2767,38.547],[27.2767,38.5465],[27.2775,38.5467],[27.278,38.5456],[27.2784,38.5455],[27.2791,38.5458],[27.2794,38.5452],[27.2799,38.545],[27.2805,38.5443],[27.2807,38.5442],[27.2813,38.5445],[27.2816,38.5443],[27.2822,38.5435],[27.2827,38.5422],[27.2828,38.5406],[27.2832,38.5407],[27.2845,38.5417],[27.2852,38.5419],[27.2855,38.5418],[27.2826,38.5378],[27.2823,38.5356],[27.2816,38.5332],[27.28,38.5313],[27.2814,38.5304],[27.2811,38.53],[27.2805,38.53],[27.2802,38.5298],[27.2799,38.5291],[27.2806,38.5281],[27.2805,38.5275],[27.2809,38.5271],[27.2816,38.5269],[27.2826,38.5273],[27.2831,38.5285],[27.285,38.5296],[27.2862,38.53],[27.2873,38.531],[27.2876,38.5317],[27.2898,38.5332],[27.2909,38.5336],[27.2912,38.5334],[27.2913,38.5329],[27.2917,38.5329],[27.2931,38.534],[27.2933,38.534],[27.2935,38.5335],[27.2944,38.5333],[27.2959,38.5334],[27.2971,38.534],[27.2976,38.5351],[27.2986,38.536],[27.2994,38.5378],[27.2997,38.5381],[27.3014,38.539],[27.3029,38.5394],[27.3042,38.5401],[27.304,38.5405],[27.3043,38.5417],[27.305,38.5428],[27.3058,38.5429],[27.3076,38.5426],[27.3094,38.5427],[27.3098,38.5424],[27.3104,38.5424],[27.3098,38.5424],[27.3094,38.5427],[27.3076,38.5426],[27.3058,38.5429],[27.305,38.5428],[27.3043,38.5417],[27.304,38.5405],[27.3042,38.5401],[27.3029,38.5394],[27.3014,38.539],[27.2997,38.5381],[27.2994,38.5378],[27.2986,38.536],[27.2976,38.5351],[27.2971,38.534],[27.2959,38.5334],[27.2944,38.5333],[27.2935,38.5335],[27.2938,38.5328],[27.2937,38.5322],[27.2928,38.5314],[27.2904,38.5275],[27.2944,38.5276],[27.2952,38.5274],[27.2958,38.5267],[27.2976,38.5268],[27.2998,38.5255],[27.3027,38.5248],[27.3047,38.524],[27.3058,38.5234],[27.3066,38.5226],[27.3072,38.5211],[27.3077,38.5204],[27.3093,38.5194],[27.3107,38.519],[27.3115,38.5181],[27.3132,38.5175],[27.3137,38.5175],[27.3152,38.5164],[27.3157,38.5165],[27.3163,38.5173],[27.3168,38.5175],[27.3167,38.5155],[27.317,38.5144],[27.3166,38.5137],[27.3161,38.5134],[27.3171,38.5134],[27.3193,38.5124],[27.32,38.5124],[27.3205,38.5121],[27.3217,38.5121],[27.3205,38.5121],[27.32,38.5124],[27.3193,38.5124],[27.3171,38.5134],[27.3161,38.5134],[27.3155,38.5128],[27.3141,38.5106],[27.3141,38.5103],[27.3128,38.5082],[27.312,38.5064],[27.3112,38.5054],[27.3091,38.5037],[27.3072,38.5017],[27.3053,38.5001],[27.3039,38.4992],[27.3022,38.4986],[27.3016,38.4986],[27.2957,38.5001],[27.2932,38.4997],[27.2891,38.4987],[27.2866,38.4993],[27.2836,38.5007],[27.2817,38.5007],[27.2794,38.502],[27.2771,38.5021],[27.274,38.5038],[27.2737,38.5038],[27.273,38.5032],[27.2716,38.5028],[27.271,38.5029],[27.2709,38.5032],[27.2711,38.5034],[27.2718,38.5032],[27.2724,38.5025],[27.2726,38.5021],[27.2725,38.501],[27.2721,38.5005],[27.2711,38.5],[27.2692,38.4999],[27.2681,38.4994],[27.2675,38.4984],[27.2675,38.4971],[27.2671,38.4961],[27.265,38.4945],[27.2642,38.4929],[27.2635,38.4922],[27.2622,38.4917],[27.2595,38.492],[27.2583,38.492],[27.257,38.4917],[27.2558,38.491],[27.2551,38.4903],[27.2532,38.4873],[27.2519,38.4861],[27.2512,38.4859],[27.25,38.486],[27.249,38.4858],[27.2481,38.4854],[27.2449,38.483],[27.241,38.4826],[27.2403,38.4823],[27.2395,38.4817],[27.2381,38.48],[27.2346,38.4779],[27.2331,38.4766],[27.2296,38.4721],[27.228,38.4694],[27.232,38.4675],[27.2336,38.467],[27.2304,38.4652],[27.2291,38.4661],[27.2288,38.4661],[27.2286,38.4656]]}},{"type":"Feature","properties":{"id":"bus-316-2","kind":"busline","ref":"316","dir":2},"geometry":{"type":"LineString","coordinates":[[27.2286,38.4656],[27.2288,38.4661],[27.2291,38.4661],[27.2304,38.4652],[27.2337,38.4668],[27.2347,38.4669],[27.232,38.4676],[27.2285,38.4693],[27.2288,38.4702],[27.2301,38.4725],[27.2324,38.4756],[27.2336,38.4769],[27.2382,38.4799],[27.2396,38.4816],[27.2406,38.4823],[27.2415,38.4826],[27.245,38.4829],[27.2483,38.4851],[27.2497,38.4855],[27.2497,38.4859],[27.2493,38.4859],[27.2481,38.4854],[27.2467,38.4842],[27.2481,38.4854],[27.2493,38.4859],[27.2497,38.4859],[27.2497,38.4855],[27.2507,38.4855],[27.252,38.4858],[27.2532,38.4867],[27.2536,38.4877],[27.2554,38.4905],[27.2566,38.4914],[27.2581,38.4919],[27.2622,38.4916],[27.2635,38.492],[27.2643,38.4927],[27.2653,38.4946],[27.2666,38.4954],[27.2675,38.4965],[27.2678,38.4988],[27.2689,38.4997],[27.271,38.4999],[27.2721,38.5004],[27.2728,38.5014],[27.2727,38.5021],[27.2732,38.5025],[27.2734,38.5024],[27.2739,38.5026],[27.2739,38.5028],[27.2733,38.5034],[27.2737,38.5037],[27.2741,38.5037],[27.2771,38.5021],[27.2794,38.502],[27.2817,38.5007],[27.2836,38.5007],[27.2866,38.4993],[27.2891,38.4987],[27.2932,38.4997],[27.2957,38.5001],[27.3016,38.4986],[27.3022,38.4986],[27.3039,38.4992],[27.3053,38.5001],[27.3072,38.5017],[27.3091,38.5037],[27.3112,38.5054],[27.312,38.5064],[27.3128,38.5082],[27.3141,38.5103],[27.3141,38.5106],[27.3155,38.5128],[27.3161,38.5134],[27.3171,38.5134],[27.3193,38.5124],[27.32,38.5124],[27.3205,38.5121],[27.3217,38.5121],[27.3205,38.5121],[27.32,38.5124],[27.3193,38.5124],[27.3171,38.5134],[27.3161,38.5134],[27.3166,38.5137],[27.317,38.5144],[27.3167,38.5155],[27.3168,38.5175],[27.3163,38.5173],[27.3157,38.5165],[27.3152,38.5164],[27.3137,38.5175],[27.3132,38.5175],[27.3115,38.5181],[27.3107,38.519],[27.3093,38.5194],[27.3077,38.5204],[27.3072,38.5211],[27.3066,38.5226],[27.3058,38.5234],[27.3047,38.524],[27.3027,38.5248],[27.2998,38.5255],[27.2976,38.5268],[27.2958,38.5267],[27.2952,38.5274],[27.2944,38.5276],[27.2904,38.5275],[27.2928,38.5314],[27.2937,38.5322],[27.2938,38.5328],[27.2935,38.5335],[27.2944,38.5333],[27.2959,38.5334],[27.2971,38.534],[27.2976,38.5351],[27.2986,38.536],[27.2994,38.5378],[27.2997,38.5381],[27.3014,38.539],[27.3029,38.5394],[27.3042,38.5401],[27.304,38.5405],[27.3043,38.5417],[27.305,38.5428],[27.3058,38.5429],[27.3076,38.5426],[27.3094,38.5427],[27.3098,38.5424],[27.3104,38.5424],[27.3098,38.5424],[27.3094,38.5427],[27.3076,38.5426],[27.3058,38.5429],[27.305,38.5428],[27.3043,38.5417],[27.304,38.5405],[27.3042,38.5401],[27.3029,38.5394],[27.3014,38.539],[27.2997,38.5381],[27.2994,38.5378],[27.2986,38.536],[27.2976,38.5351],[27.2971,38.534],[27.2959,38.5334],[27.2944,38.5333],[27.2935,38.5335],[27.2933,38.534],[27.2931,38.534],[27.2917,38.5329],[27.2913,38.5329],[27.2912,38.5334],[27.2909,38.5336],[27.2898,38.5332],[27.2876,38.5317],[27.2873,38.531],[27.2862,38.53],[27.285,38.5296],[27.2831,38.5285],[27.2826,38.5273],[27.2816,38.5269],[27.2809,38.5271],[27.2805,38.5275],[27.2806,38.5281],[27.2799,38.5293],[27.2805,38.53],[27.2811,38.53],[27.2813,38.5302],[27.2814,38.5304],[27.2809,38.5308],[27.2813,38.5315],[27.2816,38.533],[27.2825,38.5348],[27.2835,38.5357],[27.2835,38.5359],[27.2827,38.5366],[27.2825,38.537],[27.2827,38.5377],[27.2857,38.5418],[27.2852,38.5419],[27.2845,38.5417],[27.2832,38.5407],[27.2828,38.5406],[27.2827,38.5422],[27.2822,38.5435],[27.2816,38.5443],[27.2814,38.5445],[27.2807,38.5442],[27.2805,38.5443],[27.2799,38.545],[27.2794,38.5452],[27.2791,38.5458],[27.2784,38.5455],[27.278,38.5456],[27.2775,38.5467],[27.2767,38.5465],[27.2767,38.547],[27.2774,38.5479],[27.2774,38.5484],[27.276,38.5482]]}},{"type":"Feature","properties":{"id":"bus-316-s32453","kind":"busstop","ref":"316","name":"Sarnıçköy","lines":[]},"geometry":{"type":"Point","coordinates":[27.27588,38.54811]}},{"type":"Feature","properties":{"id":"bus-316-s32451","kind":"busstop","ref":"316","name":"Sarnıçköy Ladin","lines":[]},"geometry":{"type":"Point","coordinates":[27.2772,38.54656]}},{"type":"Feature","properties":{"id":"bus-316-s32455","kind":"busstop","ref":"316","name":"Kodelya","lines":[]},"geometry":{"type":"Point","coordinates":[27.27917,38.54564]}},{"type":"Feature","properties":{"id":"bus-316-s32457","kind":"busstop","ref":"316","name":"Sarnıçköy Giriş","lines":[]},"geometry":{"type":"Point","coordinates":[27.28152,38.54421]}},{"type":"Feature","properties":{"id":"bus-316-s32459","kind":"busstop","ref":"316","name":"Sarnıçköy Çamlık","lines":[]},"geometry":{"type":"Point","coordinates":[27.28264,38.54213]}},{"type":"Feature","properties":{"id":"bus-316-s32497","kind":"busstop","ref":"316","name":"Beşyol Çiftlik","lines":[]},"geometry":{"type":"Point","coordinates":[27.28713,38.53081]}},{"type":"Feature","properties":{"id":"bus-316-s32460","kind":"busstop","ref":"316","name":"Beşyol Giriş","lines":[]},"geometry":{"type":"Point","coordinates":[27.28952,38.53296]}},{"type":"Feature","properties":{"id":"bus-316-s32005","kind":"busstop","ref":"316","name":"Beşyol son durak","lines":[]},"geometry":{"type":"Point","coordinates":[27.2929,38.5338]}},{"type":"Feature","properties":{"id":"bus-316-s32235","kind":"busstop","ref":"316","name":"Küme Evler","lines":[]},"geometry":{"type":"Point","coordinates":[27.29661,38.5336]}},{"type":"Feature","properties":{"id":"bus-316-s32430","kind":"busstop","ref":"316","name":"Issız","lines":[]},"geometry":{"type":"Point","coordinates":[27.29895,38.53649]}},{"type":"Feature","properties":{"id":"bus-316-s32432","kind":"busstop","ref":"316","name":"Limon Servi","lines":[]},"geometry":{"type":"Point","coordinates":[27.30095,38.53866]}},{"type":"Feature","properties":{"id":"bus-316-s32207","kind":"busstop","ref":"316","name":"Orman İçi","lines":[]},"geometry":{"type":"Point","coordinates":[27.304,38.53991]}},{"type":"Feature","properties":{"id":"bus-316-s32431","kind":"busstop","ref":"316","name":"Limon Servi","lines":[]},"geometry":{"type":"Point","coordinates":[27.30131,38.53895]}},{"type":"Feature","properties":{"id":"bus-316-s32429","kind":"busstop","ref":"316","name":"Issız","lines":[]},"geometry":{"type":"Point","coordinates":[27.29878,38.53637]}},{"type":"Feature","properties":{"id":"bus-316-s32236","kind":"busstop","ref":"316","name":"Küme Evler","lines":[]},"geometry":{"type":"Point","coordinates":[27.29648,38.53365]}},{"type":"Feature","properties":{"id":"bus-316-s32214","kind":"busstop","ref":"316","name":"Orman Okulu","lines":[]},"geometry":{"type":"Point","coordinates":[27.29263,38.53134]}},{"type":"Feature","properties":{"id":"bus-316-s32010","kind":"busstop","ref":"316","name":"Bahçeiçi","lines":[]},"geometry":{"type":"Point","coordinates":[27.29477,38.52748]}},{"type":"Feature","properties":{"id":"bus-316-s32002","kind":"busstop","ref":"316","name":"Özbek","lines":[]},"geometry":{"type":"Point","coordinates":[27.29625,38.52665]}},{"type":"Feature","properties":{"id":"bus-316-s32008","kind":"busstop","ref":"316","name":"Şirintepe","lines":[]},"geometry":{"type":"Point","coordinates":[27.30066,38.52528]}},{"type":"Feature","properties":{"id":"bus-316-s32006","kind":"busstop","ref":"316","name":"Kiraz","lines":[]},"geometry":{"type":"Point","coordinates":[27.3064,38.5226]}},{"type":"Feature","properties":{"id":"bus-316-s32000","kind":"busstop","ref":"316","name":"Enerji Sitesi","lines":[]},"geometry":{"type":"Point","coordinates":[27.31408,38.51719]}},{"type":"Feature","properties":{"id":"bus-316-s31825","kind":"busstop","ref":"316","name":"Yakaköy Mezarlık","lines":[]},"geometry":{"type":"Point","coordinates":[27.3166,38.5133]}},{"type":"Feature","properties":{"id":"bus-316-s31827","kind":"busstop","ref":"316","name":"Dereiçi","lines":[]},"geometry":{"type":"Point","coordinates":[27.31954,38.5123]}},{"type":"Feature","properties":{"id":"bus-316-s31828","kind":"busstop","ref":"316","name":"Yakaköy Son Durak","lines":[]},"geometry":{"type":"Point","coordinates":[27.3215,38.512]}},{"type":"Feature","properties":{"id":"bus-316-s31826","kind":"busstop","ref":"316","name":"Dereiçi","lines":[]},"geometry":{"type":"Point","coordinates":[27.3197,38.51248]}},{"type":"Feature","properties":{"id":"bus-316-s31824","kind":"busstop","ref":"316","name":"Yakaköy Mezarlık","lines":[]},"geometry":{"type":"Point","coordinates":[27.3168,38.5134]}},{"type":"Feature","properties":{"id":"bus-316-s31822","kind":"busstop","ref":"316","name":"Kare Ev","lines":[]},"geometry":{"type":"Point","coordinates":[27.3141,38.5108]}},{"type":"Feature","properties":{"id":"bus-316-s31802","kind":"busstop","ref":"316","name":"Töev","lines":[]},"geometry":{"type":"Point","coordinates":[27.3134,38.509]}},{"type":"Feature","properties":{"id":"bus-316-s31820","kind":"busstop","ref":"316","name":"Erkal Sitesi","lines":[]},"geometry":{"type":"Point","coordinates":[27.3105,38.5049]}},{"type":"Feature","properties":{"id":"bus-316-s31818","kind":"busstop","ref":"316","name":"Üçevler","lines":[]},"geometry":{"type":"Point","coordinates":[27.3068,38.5015]}},{"type":"Feature","properties":{"id":"bus-316-s32239","kind":"busstop","ref":"316","name":"Orman","lines":[]},"geometry":{"type":"Point","coordinates":[27.3036,38.4992]}},{"type":"Feature","properties":{"id":"bus-316-s31816","kind":"busstop","ref":"316","name":"Yakaköy Girişi","lines":[]},"geometry":{"type":"Point","coordinates":[27.2997,38.499]}},{"type":"Feature","properties":{"id":"bus-316-s31814","kind":"busstop","ref":"316","name":"Mapaz","lines":[]},"geometry":{"type":"Point","coordinates":[27.29258,38.49954]}},{"type":"Feature","properties":{"id":"bus-316-s31812","kind":"busstop","ref":"316","name":"Pınar Sokak","lines":[]},"geometry":{"type":"Point","coordinates":[27.2897,38.4988]}},{"type":"Feature","properties":{"id":"bus-316-s31810","kind":"busstop","ref":"316","name":"Çiçekli Köprü","lines":[]},"geometry":{"type":"Point","coordinates":[27.28653,38.49944]}},{"type":"Feature","properties":{"id":"bus-316-s32444","kind":"busstop","ref":"316","name":"Çiçekli Köy","lines":[]},"geometry":{"type":"Point","coordinates":[27.28449,38.50036]}},{"type":"Feature","properties":{"id":"bus-316-s31798","kind":"busstop","ref":"316","name":"Çiftlik","lines":[]},"geometry":{"type":"Point","coordinates":[27.28028,38.50163]}},{"type":"Feature","properties":{"id":"bus-316-s31806","kind":"busstop","ref":"316","name":"Çamaltı","lines":[]},"geometry":{"type":"Point","coordinates":[27.2777,38.502]}},{"type":"Feature","properties":{"id":"bus-316-s31804","kind":"busstop","ref":"316","name":"Çiçekli Mesire Alanı","lines":[]},"geometry":{"type":"Point","coordinates":[27.2749,38.5032]}},{"type":"Feature","properties":{"id":"bus-316-s30378","kind":"busstop","ref":"316","name":"Dostlar Sitesi","lines":["313","315"]},"geometry":{"type":"Point","coordinates":[27.247,38.4846]}},{"type":"Feature","properties":{"id":"bus-316-s31423","kind":"busstop","ref":"316","name":"Ali Rıza Güven Cami","lines":["214","315","498"]},"geometry":{"type":"Point","coordinates":[27.2291,38.4688]}},{"type":"Feature","properties":{"id":"bus-316-s31425","kind":"busstop","ref":"316","name":"Ataberk","lines":["214","315","498"]},"geometry":{"type":"Point","coordinates":[27.2317,38.4676]}},{"type":"Feature","properties":{"id":"bus-316-s31773","kind":"busstop","ref":"316","name":"Evka 3 Aktarma Merkezi","lines":["315","365","515"]},"geometry":{"type":"Point","coordinates":[27.22856,38.46566]}},{"type":"Feature","properties":{"id":"bus-316-s31426","kind":"busstop","ref":"316","name":"Ataberk","lines":["214","315","498"]},"geometry":{"type":"Point","coordinates":[27.2314,38.4679]}},{"type":"Feature","properties":{"id":"bus-316-s31424","kind":"busstop","ref":"316","name":"Ali Rıza Güven Cami","lines":["214","315","498"]},"geometry":{"type":"Point","coordinates":[27.2291,38.469]}},{"type":"Feature","properties":{"id":"bus-316-s30373","kind":"busstop","ref":"316","name":"Topçu Birliği","lines":["313","315"]},"geometry":{"type":"Point","coordinates":[27.2287,38.47]}},{"type":"Feature","properties":{"id":"bus-316-s30377","kind":"busstop","ref":"316","name":"Mezarlık","lines":["313","315"]},"geometry":{"type":"Point","coordinates":[27.2441,38.48268]}},{"type":"Feature","properties":{"id":"bus-316-s30379","kind":"busstop","ref":"316","name":"Dostlar Sitesi","lines":["313","315"]},"geometry":{"type":"Point","coordinates":[27.24955,38.4854]}},{"type":"Feature","properties":{"id":"bus-316-s31805","kind":"busstop","ref":"316","name":"Çiçekli Mesire Alanı","lines":[]},"geometry":{"type":"Point","coordinates":[27.27439,38.50353]}},{"type":"Feature","properties":{"id":"bus-316-s31807","kind":"busstop","ref":"316","name":"Çamaltı","lines":[]},"geometry":{"type":"Point","coordinates":[27.278,38.5019]}},{"type":"Feature","properties":{"id":"bus-316-s31803","kind":"busstop","ref":"316","name":"Çiftlik","lines":[]},"geometry":{"type":"Point","coordinates":[27.27992,38.50167]}},{"type":"Feature","properties":{"id":"bus-316-s32443","kind":"busstop","ref":"316","name":"Çiçekli Köy","lines":[]},"geometry":{"type":"Point","coordinates":[27.28451,38.50024]}},{"type":"Feature","properties":{"id":"bus-316-s31811","kind":"busstop","ref":"316","name":"Çiçekli Köprü","lines":[]},"geometry":{"type":"Point","coordinates":[27.2863,38.4994]}},{"type":"Feature","properties":{"id":"bus-316-s31813","kind":"busstop","ref":"316","name":"Pınar Sokak","lines":[]},"geometry":{"type":"Point","coordinates":[27.2896,38.4988]}},{"type":"Feature","properties":{"id":"bus-316-s31815","kind":"busstop","ref":"316","name":"Mapaz","lines":[]},"geometry":{"type":"Point","coordinates":[27.29392,38.49972]}},{"type":"Feature","properties":{"id":"bus-316-s31817","kind":"busstop","ref":"316","name":"Yakaköy Girişi","lines":[]},"geometry":{"type":"Point","coordinates":[27.2998,38.4989]}},{"type":"Feature","properties":{"id":"bus-316-s32238","kind":"busstop","ref":"316","name":"Orman","lines":[]},"geometry":{"type":"Point","coordinates":[27.3038,38.4992]}},{"type":"Feature","properties":{"id":"bus-316-s31819","kind":"busstop","ref":"316","name":"Üçevler","lines":[]},"geometry":{"type":"Point","coordinates":[27.307,38.5016]}},{"type":"Feature","properties":{"id":"bus-316-s31821","kind":"busstop","ref":"316","name":"Erkal Sitesi","lines":[]},"geometry":{"type":"Point","coordinates":[27.3107,38.5049]}},{"type":"Feature","properties":{"id":"bus-316-s31801","kind":"busstop","ref":"316","name":"Töev","lines":[]},"geometry":{"type":"Point","coordinates":[27.3134,38.5088]}},{"type":"Feature","properties":{"id":"bus-316-s31823","kind":"busstop","ref":"316","name":"Kare Ev","lines":[]},"geometry":{"type":"Point","coordinates":[27.314,38.5106]}},{"type":"Feature","properties":{"id":"bus-316-s32001","kind":"busstop","ref":"316","name":"Enerji Sitesi","lines":[]},"geometry":{"type":"Point","coordinates":[27.3143,38.5171]}},{"type":"Feature","properties":{"id":"bus-316-s32007","kind":"busstop","ref":"316","name":"Kiraz","lines":[]},"geometry":{"type":"Point","coordinates":[27.3067,38.5225]}},{"type":"Feature","properties":{"id":"bus-316-s32009","kind":"busstop","ref":"316","name":"Şirintepe","lines":[]},"geometry":{"type":"Point","coordinates":[27.30089,38.52532]}},{"type":"Feature","properties":{"id":"bus-316-s32003","kind":"busstop","ref":"316","name":"Özbek","lines":[]},"geometry":{"type":"Point","coordinates":[27.29701,38.52687]}},{"type":"Feature","properties":{"id":"bus-316-s32011","kind":"busstop","ref":"316","name":"Bahçeiçi","lines":[]},"geometry":{"type":"Point","coordinates":[27.29497,38.5275]}},{"type":"Feature","properties":{"id":"bus-316-s32215","kind":"busstop","ref":"316","name":"Orman Okulu","lines":[]},"geometry":{"type":"Point","coordinates":[27.29269,38.5312]}},{"type":"Feature","properties":{"id":"bus-316-s32461","kind":"busstop","ref":"316","name":"Beşyol Giriş","lines":[]},"geometry":{"type":"Point","coordinates":[27.28925,38.53288]}},{"type":"Feature","properties":{"id":"bus-316-s32498","kind":"busstop","ref":"316","name":"Beşyol Çiftlik","lines":[]},"geometry":{"type":"Point","coordinates":[27.28691,38.53077]}},{"type":"Feature","properties":{"id":"bus-316-s32458","kind":"busstop","ref":"316","name":"Sarnıçköy Çamlık","lines":[]},"geometry":{"type":"Point","coordinates":[27.28277,38.54233]}},{"type":"Feature","properties":{"id":"bus-316-s32456","kind":"busstop","ref":"316","name":"Sarnıçköy Giriş","lines":[]},"geometry":{"type":"Point","coordinates":[27.28164,38.54435]}},{"type":"Feature","properties":{"id":"bus-316-s32454","kind":"busstop","ref":"316","name":"Kodelya","lines":[]},"geometry":{"type":"Point","coordinates":[27.27903,38.54588]}},{"type":"Feature","properties":{"id":"bus-316-s32452","kind":"busstop","ref":"316","name":"Sarnıçköy Ladin","lines":[]},"geometry":{"type":"Point","coordinates":[27.27713,38.54665]}}]}