{"type":"FeatureCollection","features":[{"type":"Feature","properties":{"id":"bus-317-1","kind":"busline","ref":"317","dir":1},"geometry":{"type":"LineString","coordinates":[[27.3149,38.4508],[27.3141,38.4512],[27.3169,38.45],[27.3185,38.4503],[27.3204,38.4512],[27.3214,38.4521],[27.3219,38.4529],[27.3237,38.4542],[27.3256,38.4546],[27.3266,38.4551],[27.3256,38.4546],[27.3237,38.4542],[27.3219,38.4529],[27.3214,38.4521],[27.3204,38.4512],[27.3185,38.4503],[27.3187,38.4501],[27.3186,38.4499],[27.3174,38.4494],[27.3173,38.4492],[27.3159,38.4491],[27.315,38.4494],[27.314,38.4492],[27.3129,38.4495],[27.3123,38.4491],[27.3095,38.4499],[27.3062,38.4514],[27.305,38.4515],[27.3048,38.4507],[27.305,38.45],[27.3039,38.4496],[27.3041,38.4493],[27.304,38.4487],[27.3043,38.4483],[27.3042,38.448],[27.3034,38.4479],[27.303,38.4481],[27.3023,38.4478],[27.2986,38.447],[27.2973,38.4469],[27.2955,38.4478],[27.2945,38.449],[27.2911,38.4478],[27.2887,38.4456],[27.2866,38.4446],[27.2826,38.4434],[27.27,38.4413],[27.2683,38.4464],[27.2635,38.4464],[27.2636,38.4478],[27.261,38.4489],[27.2611,38.4492],[27.2637,38.4502],[27.2647,38.4513],[27.265,38.4512],[27.2649,38.4514],[27.2656,38.4521],[27.266,38.4521],[27.2663,38.4524],[27.2661,38.4527],[27.2652,38.4528],[27.2534,38.4571],[27.2517,38.4575],[27.2511,38.458],[27.2535,38.4649],[27.2509,38.4656],[27.2503,38.4654],[27.2497,38.4644],[27.2497,38.464],[27.2484,38.4641],[27.2461,38.4648],[27.2446,38.4655],[27.2432,38.4659],[27.2431,38.4661],[27.2426,38.4659],[27.2412,38.466],[27.2388,38.4657],[27.2365,38.4661],[27.234,38.4671],[27.2337,38.4671],[27.2304,38.4652],[27.2291,38.4661],[27.2288,38.4661],[27.2287,38.4657],[27.2287,38.4659]]}},{"type":"Feature","properties":{"id":"bus-317-2","kind":"busline","ref":"317","dir":2},"geometry":{"type":"LineString","coordinates":[[27.2287,38.4659],[27.2287,38.4657],[27.2288,38.4661],[27.2291,38.4661],[27.2304,38.4652],[27.234,38.4669],[27.2355,38.4663],[27.2378,38.4657],[27.2409,38.4659],[27.2435,38.4658],[27.2479,38.4641],[27.249,38.4636],[27.2491,38.4634],[27.2526,38.4626],[27.2511,38.4583],[27.2504,38.4577],[27.2504,38.4575],[27.2507,38.4573],[27.2521,38.4572],[27.2538,38.4567],[27.2651,38.4526],[27.2654,38.4523],[27.2654,38.452],[27.2645,38.4514],[27.2645,38.4511],[27.2637,38.4502],[27.2611,38.4492],[27.261,38.4489],[27.2632,38.4479],[27.2635,38.4475],[27.2635,38.4464],[27.2683,38.4464],[27.2693,38.4437],[27.2699,38.4412],[27.2814,38.4431],[27.2826,38.4431],[27.2878,38.4449],[27.2915,38.4479],[27.2931,38.4482],[27.2946,38.4489],[27.2955,38.4478],[27.2973,38.4469],[27.2986,38.447],[27.3023,38.4478],[27.303,38.4481],[27.3034,38.4479],[27.3042,38.448],[27.3043,38.4483],[27.304,38.4487],[27.3041,38.4493],[27.3039,38.4496],[27.305,38.45],[27.3048,38.4503],[27.305,38.4515],[27.3062,38.4514],[27.3095,38.4499],[27.3123,38.4491],[27.3129,38.4495],[27.314,38.4492],[27.3146,38.4494],[27.3159,38.4491],[27.3173,38.4492],[27.3174,38.4494],[27.3186,38.4499],[27.3187,38.4501],[27.3185,38.4503],[27.3204,38.4512],[27.3214,38.4521],[27.3219,38.4529],[27.3237,38.4542],[27.3256,38.4546],[27.3266,38.4551],[27.3256,38.4546],[27.3237,38.4542],[27.3219,38.4529],[27.3214,38.4521],[27.3204,38.4512],[27.3185,38.4503],[27.3169,38.45],[27.3141,38.4512],[27.315,38.4508]]}},{"type":"Feature","properties":{"id":"bus-317-s30720","kind":"busstop","ref":"317","name":"Saliha Hüseyin Özyavuz Ortaokulu ","lines":["117"]},"geometry":{"type":"Point","coordinates":[27.31489,38.45075]}},{"type":"Feature","properties":{"id":"bus-317-s32204","kind":"busstop","ref":"317","name":"Kavaklıdere Çıkış","lines":["117"]},"geometry":{"type":"Point","coordinates":[27.32065,38.45146]}},{"type":"Feature","properties":{"id":"bus-317-s32205","kind":"busstop","ref":"317","name":"Arıtma Tesisi","lines":["117"]},"geometry":{"type":"Point","coordinates":[27.32204,38.45305]}},{"type":"Feature","properties":{"id":"bus-317-s32203","kind":"busstop","ref":"317","name":"Kavaklıdere Çıkış","lines":["117"]},"geometry":{"type":"Point","coordinates":[27.32061,38.4516]}},{"type":"Feature","properties":{"id":"bus-317-s30734","kind":"busstop","ref":"317","name":"İncir","lines":["117"]},"geometry":{"type":"Point","coordinates":[27.3181,38.4497]}},{"type":"Feature","properties":{"id":"bus-317-s30718","kind":"busstop","ref":"317","name":"Kavaklıdere Köyü Cami","lines":["117"]},"geometry":{"type":"Point","coordinates":[27.31664,38.44927]}},{"type":"Feature","properties":{"id":"bus-317-s30728","kind":"busstop","ref":"317","name":"Kavaklıdere","lines":["117"]},"geometry":{"type":"Point","coordinates":[27.315,38.4494]}},{"type":"Feature","properties":{"id":"bus-317-s30726","kind":"busstop","ref":"317","name":"Dostlar","lines":["117"]},"geometry":{"type":"Point","coordinates":[27.312,38.4492]}},{"type":"Feature","properties":{"id":"bus-317-s30722","kind":"busstop","ref":"317","name":"Oya","lines":["117"]},"geometry":{"type":"Point","coordinates":[27.308,38.4506]}},{"type":"Feature","properties":{"id":"bus-317-s30732","kind":"busstop","ref":"317","name":"Kavaklıdere Mezarlık","lines":["117"]},"geometry":{"type":"Point","coordinates":[27.30561,38.45143]}},{"type":"Feature","properties":{"id":"bus-317-s30730","kind":"busstop","ref":"317","name":"Yeşilçam Orman","lines":["117"]},"geometry":{"type":"Point","coordinates":[27.304,38.4482]}},{"type":"Feature","properties":{"id":"bus-317-s30712","kind":"busstop","ref":"317","name":"Yeşilçam Market","lines":["117"]},"geometry":{"type":"Point","coordinates":[27.3003,38.4475]}},{"type":"Feature","properties":{"id":"bus-317-s30710","kind":"busstop","ref":"317","name":"Yeşilçam Muhtarlık","lines":["117"]},"geometry":{"type":"Point","coordinates":[27.2981,38.447]}},{"type":"Feature","properties":{"id":"bus-317-s30716","kind":"busstop","ref":"317","name":"Yeşilçam Eczane","lines":["117"]},"geometry":{"type":"Point","coordinates":[27.296,38.4475]}},{"type":"Feature","properties":{"id":"bus-317-s30060","kind":"busstop","ref":"317","name":"Defne","lines":["117"]},"geometry":{"type":"Point","coordinates":[27.294,38.4489]}},{"type":"Feature","properties":{"id":"bus-317-s30058","kind":"busstop","ref":"317","name":"Jandarma","lines":["117"]},"geometry":{"type":"Point","coordinates":[27.2893,38.4462]}},{"type":"Feature","properties":{"id":"bus-317-s30082","kind":"busstop","ref":"317","name":"Beşinci Sanayi Giriş","lines":["117"]},"geometry":{"type":"Point","coordinates":[27.28349,38.44371]}},{"type":"Feature","properties":{"id":"bus-317-s30054","kind":"busstop","ref":"317","name":"Mezarlık","lines":["117"]},"geometry":{"type":"Point","coordinates":[27.2779,38.4426]}},{"type":"Feature","properties":{"id":"bus-317-s30056","kind":"busstop","ref":"317","name":"Beşinci Sanayi","lines":["117"]},"geometry":{"type":"Point","coordinates":[27.27068,38.44143]}},{"type":"Feature","properties":{"id":"bus-317-s30702","kind":"busstop","ref":"317","name":"Ulaştırma","lines":["358"]},"geometry":{"type":"Point","coordinates":[27.26898,38.44461]}},{"type":"Feature","properties":{"id":"bus-317-s30708","kind":"busstop","ref":"317","name":"Sivil Savunma","lines":["358"]},"geometry":{"type":"Point","coordinates":[27.26496,38.44642]}},{"type":"Feature","properties":{"id":"bus-317-s30706","kind":"busstop","ref":"317","name":"Bornova Doğanlar Stadyum","lines":["358"]},"geometry":{"type":"Point","coordinates":[27.26359,38.44719]}},{"type":"Feature","properties":{"id":"bus-317-s30704","kind":"busstop","ref":"317","name":"Topçu Taburu","lines":["358"]},"geometry":{"type":"Point","coordinates":[27.2638,38.45019]}},{"type":"Feature","properties":{"id":"bus-317-s30332","kind":"busstop","ref":"317","name":"Çimento Fabrikası","lines":["111","949","966","988"]},"geometry":{"type":"Point","coordinates":[27.26454,38.45307]}},{"type":"Feature","properties":{"id":"bus-317-s30344","kind":"busstop","ref":"317","name":"Terbay","lines":["111","949","966","988"]},"geometry":{"type":"Point","coordinates":[27.2572,38.4558]}},{"type":"Feature","properties":{"id":"bus-317-s30340","kind":"busstop","ref":"317","name":"Dördüncü Sanayi Kavşağı","lines":["111","949","966","988"]},"geometry":{"type":"Point","coordinates":[27.2525,38.4574]}},{"type":"Feature","properties":{"id":"bus-317-s31467","kind":"busstop","ref":"317","name":"Türkan Özilhan Devlet Hastanesi","lines":["67","111","314","966","988"]},"geometry":{"type":"Point","coordinates":[27.25155,38.45915]}},{"type":"Feature","properties":{"id":"bus-317-s31469","kind":"busstop","ref":"317","name":"Ses","lines":["67","111","966","988"]},"geometry":{"type":"Point","coordinates":[27.25261,38.46191]}},{"type":"Feature","properties":{"id":"bus-317-s31471","kind":"busstop","ref":"317","name":"Dördüncü Sanayi","lines":["67","111","966","988"]},"geometry":{"type":"Point","coordinates":[27.25339,38.46405]}},{"type":"Feature","properties":{"id":"bus-317-s31485","kind":"busstop","ref":"317","name":"Şehit Erkan Er Ortaokulu","lines":["67","111","314","966","988"]},"geometry":{"type":"Point","coordinates":[27.2516,38.4654]}},{"type":"Feature","properties":{"id":"bus-317-s31475","kind":"busstop","ref":"317","name":"Adil Demir Sitesi","lines":["67","111","314","966","988"]},"geometry":{"type":"Point","coordinates":[27.24725,38.46442]}},{"type":"Feature","properties":{"id":"bus-317-s31477","kind":"busstop","ref":"317","name":"Bornova Kooperatif","lines":["67","111","314","966","988"]},"geometry":{"type":"Point","coordinates":[27.2446,38.4655]}},{"type":"Feature","properties":{"id":"bus-317-s31481","kind":"busstop","ref":"317","name":"Bornova Tenis Kulübü","lines":["67","111","114","966","988"]},"geometry":{"type":"Point","coordinates":[27.23996,38.4659]}},{"type":"Feature","properties":{"id":"bus-317-s31483","kind":"busstop","ref":"317","name":"Profesörler Sitesi","lines":["67","111","114","966","988"]},"geometry":{"type":"Point","coordinates":[27.2357,38.46639]}},{"type":"Feature","properties":{"id":"bus-317-s31775","kind":"busstop","ref":"317","name":"Evka 3 Aktarma Merkezi","lines":[]},"geometry":{"type":"Point","coordinates":[27.22846,38.46589]}},{"type":"Feature","properties":{"id":"bus-317-s31484","kind":"busstop","ref":"317","name":"Profesörler Sitesi","lines":["67","111","114","966","988"]},"geometry":{"type":"Point","coordinates":[27.23544,38.46631]}},{"type":"Feature","properties":{"id":"bus-317-s31482","kind":"busstop","ref":"317","name":"Bornova Tenis Kulübü","lines":["67","111","114","966","988"]},"geometry":{"type":"Point","coordinates":[27.2398,38.4657]}},{"type":"Feature","properties":{"id":"bus-317-s31476","kind":"busstop","ref":"317","name":"Bornova Kooperatif","lines":["67","111","314","966","988"]},"geometry":{"type":"Point","coordinates":[27.2443,38.4655]}},{"type":"Feature","properties":{"id":"bus-317-s31474","kind":"busstop","ref":"317","name":"Adil Demir Sitesi","lines":["67","111","314","966","988"]},"geometry":{"type":"Point","coordinates":[27.2477,38.4642]}},{"type":"Feature","properties":{"id":"bus-317-s31472","kind":"busstop","ref":"317","name":"Erez","lines":["67","111","966","988"]},"geometry":{"type":"Point","coordinates":[27.25103,38.46308]}},{"type":"Feature","properties":{"id":"bus-317-s31470","kind":"busstop","ref":"317","name":"Ses","lines":["67","111","966","988"]},"geometry":{"type":"Point","coordinates":[27.2523,38.46185]}},{"type":"Feature","properties":{"id":"bus-317-s31468","kind":"busstop","ref":"317","name":"Türkan Özilhan Devlet Hastanesi","lines":["67","111","314","966","988"]},"geometry":{"type":"Point","coordinates":[27.2511,38.4585]}},{"type":"Feature","properties":{"id":"bus-317-s30341","kind":"busstop","ref":"317","name":"Dördüncü Sanayi Kavşağı","lines":["111","949","966","988"]},"geometry":{"type":"Point","coordinates":[27.2525,38.4571]}},{"type":"Feature","properties":{"id":"bus-317-s30342","kind":"busstop","ref":"317","name":"Terbay","lines":["111","949","966","988"]},"geometry":{"type":"Point","coordinates":[27.2566,38.4556]}},{"type":"Feature","properties":{"id":"bus-317-s30355","kind":"busstop","ref":"317","name":"Çimento Fabrikası","lines":["111","949","966","988"]},"geometry":{"type":"Point","coordinates":[27.26439,38.45272]}},{"type":"Feature","properties":{"id":"bus-317-s30703","kind":"busstop","ref":"317","name":"Topçu Taburu","lines":["358"]},"geometry":{"type":"Point","coordinates":[27.26343,38.45011]}},{"type":"Feature","properties":{"id":"bus-317-s30705","kind":"busstop","ref":"317","name":"Bornova Doğanlar Stadyum","lines":["358"]},"geometry":{"type":"Point","coordinates":[27.26341,38.44719]}},{"type":"Feature","properties":{"id":"bus-317-s30707","kind":"busstop","ref":"317","name":"Sivil Savunma","lines":["358"]},"geometry":{"type":"Point","coordinates":[27.265,38.4463]}},{"type":"Feature","properties":{"id":"bus-317-s30701","kind":"busstop","ref":"317","name":"Ulaştırma","lines":["358"]},"geometry":{"type":"Point","coordinates":[27.26889,38.44445]}},{"type":"Feature","properties":{"id":"bus-317-s30061","kind":"busstop","ref":"317","name":"Beşinci Sanayi","lines":["117"]},"geometry":{"type":"Point","coordinates":[27.271,38.4414]}},{"type":"Feature","properties":{"id":"bus-317-s30063","kind":"busstop","ref":"317","name":"Mezarlık","lines":["117"]},"geometry":{"type":"Point","coordinates":[27.27835,38.44252]}},{"type":"Feature","properties":{"id":"bus-317-s30083","kind":"busstop","ref":"317","name":"Beşinci Sanayi Giriş","lines":["117"]},"geometry":{"type":"Point","coordinates":[27.2833,38.4433]}},{"type":"Feature","properties":{"id":"bus-317-s30065","kind":"busstop","ref":"317","name":"Jandarma","lines":["117"]},"geometry":{"type":"Point","coordinates":[27.2888,38.4455]}},{"type":"Feature","properties":{"id":"bus-317-s30067","kind":"busstop","ref":"317","name":"Defne","lines":["117"]},"geometry":{"type":"Point","coordinates":[27.29425,38.44862]}},{"type":"Feature","properties":{"id":"bus-317-s30713","kind":"busstop","ref":"317","name":"Yeşilçam Eczane","lines":["117"]},"geometry":{"type":"Point","coordinates":[27.2957,38.4475]}},{"type":"Feature","properties":{"id":"bus-317-s30709","kind":"busstop","ref":"317","name":"Yeşilçam Muhtarlık","lines":["117"]},"geometry":{"type":"Point","coordinates":[27.2982,38.4469]}},{"type":"Feature","properties":{"id":"bus-317-s30711","kind":"busstop","ref":"317","name":"Yeşilçam Market","lines":["117"]},"geometry":{"type":"Point","coordinates":[27.3004,38.4474]}},{"type":"Feature","properties":{"id":"bus-317-s30729","kind":"busstop","ref":"317","name":"Yeşilçam Orman","lines":["117"]},"geometry":{"type":"Point","coordinates":[27.3042,38.4482]}},{"type":"Feature","properties":{"id":"bus-317-s30731","kind":"busstop","ref":"317","name":"Kavaklıdere Mezarlık","lines":["117"]},"geometry":{"type":"Point","coordinates":[27.3053,38.4514]}},{"type":"Feature","properties":{"id":"bus-317-s30721","kind":"busstop","ref":"317","name":"Oya","lines":["117"]},"geometry":{"type":"Point","coordinates":[27.3081,38.4505]}},{"type":"Feature","properties":{"id":"bus-317-s30725","kind":"busstop","ref":"317","name":"Dostlar","lines":["117"]},"geometry":{"type":"Point","coordinates":[27.3119,38.4492]}},{"type":"Feature","properties":{"id":"bus-317-s30727","kind":"busstop","ref":"317","name":"Kavaklıdere","lines":["117"]},"geometry":{"type":"Point","coordinates":[27.3149,38.4493]}},{"type":"Feature","properties":{"id":"bus-317-s30717","kind":"busstop","ref":"317","name":"Kavaklıdere Köyü Cami","lines":["117"]},"geometry":{"type":"Point","coordinates":[27.31662,38.44912]}},{"type":"Feature","properties":{"id":"bus-317-s30733","kind":"busstop","ref":"317","name":"İncir","lines":["117"]},"geometry":{"type":"Point","coordinates":[27.31865,38.44982]}},{"type":"Feature","properties":{"id":"bus-317-s30719","kind":"busstop","ref":"317","name":"Saliha Hüseyin Özyavuz Ortaokulu ","lines":["117"]},"geometry":{"type":"Point","coordinates":[27.3151,38.4508]}}]}