{"type":"FeatureCollection","features":[{"type":"Feature","properties":{"id":"bus-322-1","kind":"busline","ref":"322","dir":1},"geometry":{"type":"LineString","coordinates":[[27.091,38.5013],[27.0911,38.5015],[27.0918,38.5016],[27.0961,38.5012],[27.0932,38.5006],[27.0924,38.5001],[27.092,38.4996],[27.0919,38.499],[27.0924,38.4976],[27.0932,38.497],[27.0936,38.497],[27.0939,38.4973],[27.0941,38.4982],[27.094,38.4992],[27.0951,38.4998],[27.0969,38.5004],[27.098,38.5003],[27.0969,38.5004],[27.0951,38.4998],[27.094,38.4992],[27.094,38.4989],[27.0941,38.4982],[27.0951,38.4977],[27.0955,38.4972],[27.0956,38.4963],[27.096,38.4962],[27.0965,38.4966],[27.0971,38.4979],[27.0979,38.4975],[27.0984,38.4964],[27.0984,38.4955],[27.0967,38.4944],[27.0925,38.4935],[27.0913,38.4919],[27.091,38.491],[27.0913,38.4892],[27.0918,38.4879],[27.0917,38.4875],[27.0905,38.4869],[27.0886,38.4864],[27.0882,38.4859],[27.0882,38.4853],[27.0883,38.4851],[27.0886,38.4852],[27.0884,38.4854],[27.0884,38.4859],[27.089,38.4864],[27.0919,38.4872],[27.0921,38.4871],[27.0911,38.4907],[27.0921,38.4906],[27.0922,38.4903],[27.088,38.4889],[27.0813,38.485],[27.0784,38.4838],[27.0741,38.483],[27.0711,38.4828],[27.0679,38.4829],[27.0628,38.4821],[27.0621,38.4824],[27.0621,38.4826],[27.0625,38.4829],[27.0632,38.4825],[27.0659,38.4773],[27.0679,38.4751],[27.0721,38.4752],[27.0733,38.475],[27.0761,38.475],[27.0767,38.4752],[27.0806,38.4752],[27.0816,38.4748],[27.085,38.4713],[27.0849,38.4706],[27.0821,38.4664],[27.082,38.4658],[27.0822,38.4653],[27.0884,38.4592],[27.0904,38.4576],[27.0937,38.456],[27.0971,38.4547],[27.0975,38.4541],[27.0972,38.4537],[27.0974,38.4531]]}},{"type":"Feature","properties":{"id":"bus-322-2","kind":"busline","ref":"322","dir":2},"geometry":{"type":"LineString","coordinates":[[27.0974,38.4531],[27.0975,38.4528],[27.0978,38.4528],[27.0975,38.4535],[27.0976,38.4541],[27.0971,38.4547],[27.0971,38.455],[27.0921,38.4569],[27.0902,38.458],[27.0885,38.4593],[27.0823,38.4655],[27.0825,38.4667],[27.0848,38.4703],[27.0855,38.471],[27.0822,38.4745],[27.0808,38.4753],[27.0774,38.4753],[27.0759,38.4757],[27.0736,38.4757],[27.0721,38.4753],[27.0684,38.4752],[27.0674,38.4759],[27.0666,38.4768],[27.0648,38.4798],[27.0648,38.4807],[27.065,38.4811],[27.0654,38.4816],[27.0663,38.482],[27.075,38.4829],[27.0777,38.4834],[27.08,38.4842],[27.0819,38.4851],[27.0852,38.4872],[27.088,38.4887],[27.0923,38.4898],[27.0925,38.4896],[27.0922,38.4893],[27.0915,38.4891],[27.0921,38.4871],[27.0919,38.4872],[27.089,38.4864],[27.0884,38.4859],[27.0884,38.4854],[27.0886,38.4852],[27.0883,38.4851],[27.0882,38.4853],[27.0882,38.4859],[27.0886,38.4864],[27.0905,38.4869],[27.0917,38.4875],[27.0918,38.4879],[27.0914,38.4889],[27.0916,38.4888],[27.0911,38.4904],[27.0911,38.491],[27.0915,38.4921],[27.0926,38.4934],[27.0967,38.4943],[27.0984,38.4951],[27.0985,38.4965],[27.0981,38.4975],[27.0977,38.4978],[27.0971,38.4979],[27.0965,38.4966],[27.096,38.4962],[27.0956,38.4963],[27.0955,38.4972],[27.0951,38.4977],[27.0941,38.4982],[27.094,38.4989],[27.094,38.4992],[27.0951,38.4998],[27.0969,38.5004],[27.098,38.5003],[27.0969,38.5004],[27.0951,38.4998],[27.094,38.4992],[27.0941,38.4982],[27.0939,38.4973],[27.0936,38.497],[27.0932,38.497],[27.0924,38.4976],[27.0919,38.499],[27.092,38.4996],[27.0924,38.5001],[27.0932,38.5006],[27.0961,38.5012],[27.0919,38.5015],[27.0913,38.5017],[27.091,38.5017],[27.091,38.5014],[27.0907,38.5014],[27.091,38.5013]]}},{"type":"Feature","properties":{"id":"bus-322-s20836","kind":"busstop","ref":"322","name":"Evka 6","lines":["125","247","326","426","430","447"]},"geometry":{"type":"Point","coordinates":[27.091,38.50129]}},{"type":"Feature","properties":{"id":"bus-322-s22016","kind":"busstop","ref":"322","name":"Yüksek Vadi","lines":["125","326","426","430"]},"geometry":{"type":"Point","coordinates":[27.0934,38.5014]}},{"type":"Feature","properties":{"id":"bus-322-s22046","kind":"busstop","ref":"322","name":"Yüksek Vadi 2","lines":["125","326","426","430"]},"geometry":{"type":"Point","coordinates":[27.09469,38.50089]}},{"type":"Feature","properties":{"id":"bus-322-s22014","kind":"busstop","ref":"322","name":"Taş Duvar","lines":["125","326","426","430"]},"geometry":{"type":"Point","coordinates":[27.0923,38.5]}},{"type":"Feature","properties":{"id":"bus-322-s22010","kind":"busstop","ref":"322","name":"Şehit Üsteğmen Ahmet Konuksever","lines":["125","326","426","430"]},"geometry":{"type":"Point","coordinates":[27.092,38.4985]}},{"type":"Feature","properties":{"id":"bus-322-s23301","kind":"busstop","ref":"322","name":"Ada","lines":["125","326","426"]},"geometry":{"type":"Point","coordinates":[27.09402,38.49774]}},{"type":"Feature","properties":{"id":"bus-322-s23305","kind":"busstop","ref":"322","name":"Mustafa Kemal Mahallesi Eski Son Durak","lines":["125","326","426"]},"geometry":{"type":"Point","coordinates":[27.09619,38.50023]}},{"type":"Feature","properties":{"id":"bus-322-s23306","kind":"busstop","ref":"322","name":"Spor Kondisyon Parkı","lines":["125","426"]},"geometry":{"type":"Point","coordinates":[27.0945,38.4995]}},{"type":"Feature","properties":{"id":"bus-322-s22624","kind":"busstop","ref":"322","name":"Fidelya","lines":["125","326","426"]},"geometry":{"type":"Point","coordinates":[27.09454,38.49787]}},{"type":"Feature","properties":{"id":"bus-322-s22626","kind":"busstop","ref":"322","name":"Ortanca","lines":["125","326","426"]},"geometry":{"type":"Point","coordinates":[27.09541,38.49714]}},{"type":"Feature","properties":{"id":"bus-322-s22630","kind":"busstop","ref":"322","name":"Yonca","lines":["125","326","426","430"]},"geometry":{"type":"Point","coordinates":[27.0983,38.4958]}},{"type":"Feature","properties":{"id":"bus-322-s20858","kind":"busstop","ref":"322","name":"Mustafa Kemal Mahallesi Muhtarlığı","lines":["125","247","326","426","430"]},"geometry":{"type":"Point","coordinates":[27.0965,38.4944]}},{"type":"Feature","properties":{"id":"bus-322-s20856","kind":"busstop","ref":"322","name":"Körfez Köy","lines":["125","247","326","426","430"]},"geometry":{"type":"Point","coordinates":[27.094,38.4938]}},{"type":"Feature","properties":{"id":"bus-322-s20854","kind":"busstop","ref":"322","name":"Şehit Üsteğmen Onur Özkaya","lines":["125","326","426"]},"geometry":{"type":"Point","coordinates":[27.0912,38.4917]}},{"type":"Feature","properties":{"id":"bus-322-s22142","kind":"busstop","ref":"322","name":"Soyak","lines":["125","326"]},"geometry":{"type":"Point","coordinates":[27.0916,38.4883]}},{"type":"Feature","properties":{"id":"bus-322-s22424","kind":"busstop","ref":"322","name":"Siesta Konutları","lines":["326"]},"geometry":{"type":"Point","coordinates":[27.0881,38.48537]}},{"type":"Feature","properties":{"id":"bus-322-s22422","kind":"busstop","ref":"322","name":"Siesta Konutları Yolu","lines":["326"]},"geometry":{"type":"Point","coordinates":[27.09101,38.48688]}},{"type":"Feature","properties":{"id":"bus-322-s20340","kind":"busstop","ref":"322","name":"Karya","lines":["229","423","428","429","442","443","445","446","447","547","595","777","820","827"]},"geometry":{"type":"Point","coordinates":[27.06672,38.47626]}},{"type":"Feature","properties":{"id":"bus-322-s20338","kind":"busstop","ref":"322","name":"Mavişehir","lines":["229","423","428","429","442","443","445","446","447","547","595","820","827"]},"geometry":{"type":"Point","coordinates":[27.0745,38.4749]}},{"type":"Feature","properties":{"id":"bus-322-s20396","kind":"busstop","ref":"322","name":"Atakent Anadolu Lisesi","lines":["229","423","428","429","442","443","445","446","447","595","820","827"]},"geometry":{"type":"Point","coordinates":[27.084,38.4692]}},{"type":"Feature","properties":{"id":"bus-322-s20196","kind":"busstop","ref":"322","name":"Beşikçioğlu Cami","lines":["121","200","229","423","428","429","442","443","445","446","447","595","777","820","821","827"]},"geometry":{"type":"Point","coordinates":[27.0844,38.4631]}},{"type":"Feature","properties":{"id":"bus-322-s20194","kind":"busstop","ref":"322","name":"Bostanlı Pazaryeri","lines":["121","200","229","423","428","429","442","443","445","446","447","595","777","820","821","827"]},"geometry":{"type":"Point","coordinates":[27.0869,38.4606]}},{"type":"Feature","properties":{"id":"bus-322-s20198","kind":"busstop","ref":"322","name":"Bostanlı Market","lines":["121","200","229","423","428","429","442","443","445","446","447","595","777","820","821","827"]},"geometry":{"type":"Point","coordinates":[27.0913,38.4571]}},{"type":"Feature","properties":{"id":"bus-322-s20026","kind":"busstop","ref":"322","name":"Bostanlı İskele","lines":["221"]},"geometry":{"type":"Point","coordinates":[27.09739,38.45305]}},{"type":"Feature","properties":{"id":"bus-322-s20197","kind":"busstop","ref":"322","name":"Bostanlı Market","lines":["121","200","229","423","428","429","442","443","445","446","447","595","777","820","821","827"]},"geometry":{"type":"Point","coordinates":[27.0914,38.4573]}},{"type":"Feature","properties":{"id":"bus-322-s20189","kind":"busstop","ref":"322","name":"Bostanlı Pazaryeri","lines":["121","200","229","423","428","429","442","443","445","446","447","595","777","820","821","827"]},"geometry":{"type":"Point","coordinates":[27.0869,38.4609]}},{"type":"Feature","properties":{"id":"bus-322-s20191","kind":"busstop","ref":"322","name":"Beşikçioğlu Cami","lines":["121","200","229","423","428","429","442","443","445","446","447","595","777","820","821","827"]},"geometry":{"type":"Point","coordinates":[27.08431,38.4636]}},{"type":"Feature","properties":{"id":"bus-322-s20395","kind":"busstop","ref":"322","name":"Atakent Anadolu Lisesi","lines":["229","423","428","429","442","443","445","446","447","595","820","827"]},"geometry":{"type":"Point","coordinates":[27.0845,38.4697]}},{"type":"Feature","properties":{"id":"bus-322-s20337","kind":"busstop","ref":"322","name":"Haydar Aliyev Parkı","lines":["229","423","428","429","442","443","445","446","447","547","595","820","827"]},"geometry":{"type":"Point","coordinates":[27.08404,38.47269]}},{"type":"Feature","properties":{"id":"bus-322-s20339","kind":"busstop","ref":"322","name":"Mavişehir","lines":["121","229","423","428","429","442","443","445","446","447","547","595","777","820","821","827"]},"geometry":{"type":"Point","coordinates":[27.07491,38.47576]}},{"type":"Feature","properties":{"id":"bus-322-s20341","kind":"busstop","ref":"322","name":"Karya","lines":["229","423","428","429","442","443","445","446","447","547","595","777","820","827"]},"geometry":{"type":"Point","coordinates":[27.06558,38.47846]}},{"type":"Feature","properties":{"id":"bus-322-s22421","kind":"busstop","ref":"322","name":"Siesta Konutları 2","lines":["326"]},"geometry":{"type":"Point","coordinates":[27.08809,38.48562]}},{"type":"Feature","properties":{"id":"bus-322-s22141","kind":"busstop","ref":"322","name":"Soyak","lines":["125","326"]},"geometry":{"type":"Point","coordinates":[27.0917,38.4883]}},{"type":"Feature","properties":{"id":"bus-322-s20855","kind":"busstop","ref":"322","name":"Şehit Üsteğmen Onur Özkaya","lines":["125","326","426"]},"geometry":{"type":"Point","coordinates":[27.09147,38.49182]}},{"type":"Feature","properties":{"id":"bus-322-s20857","kind":"busstop","ref":"322","name":"Körfez Köy","lines":["125","247","326","426","430"]},"geometry":{"type":"Point","coordinates":[27.0935,38.4936]}},{"type":"Feature","properties":{"id":"bus-322-s20853","kind":"busstop","ref":"322","name":"Mustafa Kemal Mahallesi Muhtarlığı","lines":["125","247","326","426","430"]},"geometry":{"type":"Point","coordinates":[27.0968,38.4943]}},{"type":"Feature","properties":{"id":"bus-322-s22631","kind":"busstop","ref":"322","name":"Yonca","lines":["125","326","426","430"]},"geometry":{"type":"Point","coordinates":[27.0986,38.4954]}},{"type":"Feature","properties":{"id":"bus-322-s22627","kind":"busstop","ref":"322","name":"Ortanca","lines":["125","326","426"]},"geometry":{"type":"Point","coordinates":[27.09552,38.4973]}},{"type":"Feature","properties":{"id":"bus-322-s22625","kind":"busstop","ref":"322","name":"Fidelya","lines":["125","326","426"]},"geometry":{"type":"Point","coordinates":[27.0946,38.49801]}},{"type":"Feature","properties":{"id":"bus-322-s23307","kind":"busstop","ref":"322","name":"Spor Kondisyon Parkı","lines":["125","326","426"]},"geometry":{"type":"Point","coordinates":[27.09424,38.4991]}},{"type":"Feature","properties":{"id":"bus-322-s23302","kind":"busstop","ref":"322","name":"Ada","lines":["125","326","426"]},"geometry":{"type":"Point","coordinates":[27.09383,38.49757]}},{"type":"Feature","properties":{"id":"bus-322-s22009","kind":"busstop","ref":"322","name":"Şehit Üsteğmen Ahmet Konuksever","lines":["125","326","426","430"]},"geometry":{"type":"Point","coordinates":[27.0921,38.4987]}},{"type":"Feature","properties":{"id":"bus-322-s22013","kind":"busstop","ref":"322","name":"Taş Duvar","lines":["125","326","426","430"]},"geometry":{"type":"Point","coordinates":[27.0925,38.5001]}},{"type":"Feature","properties":{"id":"bus-322-s22045","kind":"busstop","ref":"322","name":"Yüksek Vadi 2","lines":["125","326","426","430"]},"geometry":{"type":"Point","coordinates":[27.09474,38.50081]}},{"type":"Feature","properties":{"id":"bus-322-s22015","kind":"busstop","ref":"322","name":"Yüksek Vadi","lines":["125","326","426","430"]},"geometry":{"type":"Point","coordinates":[27.0929,38.5015]}}]}