{"type":"FeatureCollection","features":[{"type":"Feature","properties":{"id":"bus-327-1","kind":"busline","ref":"327","dir":1},"geometry":{"type":"LineString","coordinates":[[27.0972,38.4536],[27.0975,38.4528],[27.0978,38.4528],[27.0975,38.4535],[27.0977,38.4542],[27.1001,38.4532],[27.1006,38.4534],[27.0971,38.455],[27.0912,38.4573],[27.0885,38.4593],[27.0823,38.4655],[27.0825,38.4667],[27.0848,38.4703],[27.0855,38.471],[27.0822,38.4745],[27.0808,38.4753],[27.0774,38.4753],[27.0759,38.4757],[27.0736,38.4757],[27.0721,38.4753],[27.0681,38.4753],[27.0666,38.4768],[27.0651,38.4791],[27.0648,38.4798],[27.0648,38.4807],[27.0654,38.4816],[27.0663,38.482],[27.075,38.4829],[27.0789,38.4838],[27.0819,38.4851],[27.0852,38.4872],[27.088,38.4887],[27.0921,38.4898],[27.0925,38.4896],[27.0919,38.4891],[27.0915,38.4891],[27.0916,38.4888],[27.0914,38.4889],[27.0919,38.4872],[27.0944,38.4869],[27.0947,38.487],[27.096,38.4863],[27.0972,38.4864],[27.0972,38.4879],[27.0975,38.4884],[27.0987,38.4883],[27.0991,38.4886],[27.0995,38.4883],[27.1002,38.4867],[27.1002,38.4857],[27.0999,38.485],[27.0997,38.4835],[27.0992,38.4832],[27.0968,38.484],[27.097,38.4832],[27.096,38.4813],[27.096,38.4807],[27.0964,38.48],[27.098,38.4788],[27.0993,38.4774],[27.1023,38.4761],[27.1022,38.4758],[27.1004,38.4768],[27.0948,38.4785],[27.0874,38.483],[27.0813,38.4854],[27.0809,38.4857],[27.0809,38.4861],[27.0813,38.4865],[27.0819,38.4865],[27.0823,38.4862],[27.0823,38.4858],[27.0813,38.485],[27.0795,38.4842],[27.0769,38.4834],[27.0711,38.4828],[27.0679,38.4829],[27.0628,38.4821],[27.0623,38.4822],[27.0621,38.4826],[27.0626,38.4829],[27.0632,38.4825],[27.0659,38.4773],[27.0679,38.4751],[27.0721,38.4752],[27.0733,38.475],[27.0761,38.475],[27.0767,38.4752],[27.0806,38.4752],[27.0816,38.4748],[27.085,38.4713],[27.0849,38.4706],[27.0821,38.4664],[27.082,38.4658],[27.0822,38.4653],[27.0884,38.4592],[27.0904,38.4576],[27.0973,38.4545],[27.0975,38.4541],[27.0972,38.4537],[27.0974,38.4531]]}},{"type":"Feature","properties":{"id":"bus-327-2","kind":"busline","ref":"327","dir":2},"geometry":{"type":"LineString","coordinates":[[27.0972,38.4536],[27.0975,38.4528],[27.0978,38.4528],[27.0975,38.4535],[27.0977,38.4542],[27.1001,38.4532],[27.1006,38.4534],[27.0971,38.455],[27.0912,38.4573],[27.0885,38.4593],[27.0823,38.4655],[27.0825,38.4667],[27.0848,38.4703],[27.0855,38.471],[27.0822,38.4745],[27.0808,38.4753],[27.0774,38.4753],[27.0759,38.4757],[27.0736,38.4757],[27.0721,38.4753],[27.0681,38.4753],[27.0666,38.4768],[27.0651,38.4791],[27.0648,38.4798],[27.0648,38.4807],[27.0654,38.4816],[27.0663,38.482],[27.075,38.4829],[27.0789,38.4838],[27.0819,38.4851],[27.0852,38.4872],[27.088,38.4887],[27.0921,38.4898],[27.0925,38.4896],[27.0919,38.4891],[27.0915,38.4891],[27.0916,38.4888],[27.0914,38.4889],[27.0919,38.4872],[27.0944,38.4869],[27.0947,38.487],[27.096,38.4863],[27.0972,38.4864],[27.0972,38.4879],[27.0975,38.4884],[27.0987,38.4883],[27.0991,38.4886],[27.0995,38.4883],[27.1002,38.4867],[27.1002,38.4857],[27.0999,38.485],[27.0997,38.4835],[27.0992,38.4832],[27.0968,38.484],[27.097,38.4832],[27.096,38.4813],[27.096,38.4807],[27.0964,38.48],[27.098,38.4788],[27.0993,38.4774],[27.1023,38.4761],[27.1022,38.4758],[27.1004,38.4768],[27.0948,38.4785],[27.0874,38.483],[27.0813,38.4854],[27.0809,38.4857],[27.0809,38.4861],[27.0813,38.4865],[27.0819,38.4865],[27.0823,38.4862],[27.0823,38.4858],[27.0813,38.485],[27.0795,38.4842],[27.0769,38.4834],[27.0711,38.4828],[27.0679,38.4829],[27.0628,38.4821],[27.0623,38.4822],[27.0621,38.4826],[27.0626,38.4829],[27.0632,38.4825],[27.0659,38.4773],[27.0679,38.4751],[27.0721,38.4752],[27.0733,38.475],[27.0761,38.475],[27.0767,38.4752],[27.0806,38.4752],[27.0816,38.4748],[27.085,38.4713],[27.0849,38.4706],[27.0821,38.4664],[27.082,38.4658],[27.0822,38.4653],[27.0884,38.4592],[27.0904,38.4576],[27.0973,38.4545],[27.0975,38.4541],[27.0972,38.4537],[27.0974,38.4531]]}}]}