{"type":"FeatureCollection","features":[{"type":"Feature","properties":{"id":"bus-335-1","kind":"busline","ref":"335","dir":1},"geometry":{"type":"LineString","coordinates":[[27.1557,38.4981],[27.1558,38.4978],[27.1554,38.4972],[27.1552,38.4959],[27.1547,38.4951],[27.1543,38.4951],[27.154,38.4956],[27.1535,38.4959],[27.1522,38.4953],[27.1516,38.4954],[27.1509,38.4951],[27.1506,38.4945],[27.1505,38.4935],[27.1492,38.4913],[27.1477,38.4899],[27.1469,38.4888],[27.1406,38.4775],[27.1405,38.4748],[27.14,38.4741],[27.1389,38.4736],[27.1376,38.4711],[27.1369,38.4693],[27.1368,38.4684],[27.1364,38.4679],[27.1376,38.467],[27.1335,38.4666],[27.1333,38.4662],[27.1313,38.4665],[27.1305,38.4663],[27.1295,38.4656],[27.1289,38.4659],[27.1287,38.4663],[27.1291,38.4665],[27.1298,38.4661],[27.1316,38.4656],[27.1335,38.4654],[27.1397,38.4649],[27.1414,38.465],[27.1523,38.4682],[27.1546,38.4686],[27.1561,38.4686],[27.1577,38.4682],[27.1585,38.4678],[27.1588,38.4673],[27.1582,38.4672],[27.1565,38.4678],[27.1565,38.4682],[27.1567,38.4683],[27.1594,38.4678],[27.1608,38.4671],[27.1624,38.4659],[27.1641,38.464],[27.1675,38.4586],[27.1701,38.4533],[27.1724,38.4492],[27.1731,38.4445],[27.1723,38.4396],[27.1685,38.4375],[27.1678,38.4358],[27.168,38.4356]]}},{"type":"Feature","properties":{"id":"bus-335-2","kind":"busline","ref":"335","dir":2},"geometry":{"type":"LineString","coordinates":[[27.1681,38.4356],[27.168,38.4351],[27.1677,38.435],[27.1676,38.4351],[27.1684,38.4375],[27.1724,38.4397],[27.1725,38.441],[27.1731,38.4435],[27.1728,38.4468],[27.1719,38.4504],[27.1703,38.4529],[27.1663,38.4607],[27.1641,38.4641],[27.1626,38.4658],[27.1606,38.4673],[27.16,38.4668],[27.1587,38.4677],[27.1574,38.4683],[27.1561,38.4686],[27.1546,38.4686],[27.1504,38.4677],[27.142,38.465],[27.1404,38.4649],[27.1329,38.4655],[27.1302,38.4662],[27.1302,38.4664],[27.1311,38.4666],[27.1335,38.4665],[27.1376,38.467],[27.1363,38.4679],[27.1367,38.4682],[27.1369,38.4687],[27.1371,38.4699],[27.1378,38.4715],[27.1386,38.4727],[27.1389,38.4736],[27.1399,38.474],[27.1406,38.4748],[27.1405,38.4772],[27.1465,38.4881],[27.1483,38.4906],[27.1493,38.4914],[27.1504,38.4934],[27.1509,38.4951],[27.1514,38.4955],[27.1522,38.4954],[27.1534,38.4959],[27.154,38.4956],[27.1543,38.4951],[27.1546,38.495],[27.1552,38.4957],[27.1555,38.4973],[27.1558,38.4978],[27.1557,38.4981]]}},{"type":"Feature","properties":{"id":"bus-335-s20470","kind":"busstop","ref":"335","name":"Doğançay","lines":["537","742"]},"geometry":{"type":"Point","coordinates":[27.15575,38.49782]}},{"type":"Feature","properties":{"id":"bus-335-s20468","kind":"busstop","ref":"335","name":"Doğançay Meydan","lines":["135","537","742"]},"geometry":{"type":"Point","coordinates":[27.155,38.4956]}},{"type":"Feature","properties":{"id":"bus-335-s20466","kind":"busstop","ref":"335","name":"Çolakoğlu","lines":["135","537","742"]},"geometry":{"type":"Point","coordinates":[27.1541,38.4956]}},{"type":"Feature","properties":{"id":"bus-335-s24648","kind":"busstop","ref":"335","name":"Doğançay Köprü","lines":["135","537","742"]},"geometry":{"type":"Point","coordinates":[27.15248,38.49548]}},{"type":"Feature","properties":{"id":"bus-335-s20464","kind":"busstop","ref":"335","name":"Doğançay Mezarlık","lines":["135","742"]},"geometry":{"type":"Point","coordinates":[27.1505,38.4945]}},{"type":"Feature","properties":{"id":"bus-335-s20462","kind":"busstop","ref":"335","name":"Kentaş","lines":["135","742"]},"geometry":{"type":"Point","coordinates":[27.1469,38.489]}},{"type":"Feature","properties":{"id":"bus-335-s20460","kind":"busstop","ref":"335","name":"Doğançay Viyadüğü","lines":["135","742"]},"geometry":{"type":"Point","coordinates":[27.1439,38.4836]}},{"type":"Feature","properties":{"id":"bus-335-s20458","kind":"busstop","ref":"335","name":"Cemil Atlas İlköğretim Okulu","lines":["135","742"]},"geometry":{"type":"Point","coordinates":[27.1413,38.4789]}},{"type":"Feature","properties":{"id":"bus-335-s23618","kind":"busstop","ref":"335","name":"Doğançay Aile Sağlığı Merkezi","lines":["135","742"]},"geometry":{"type":"Point","coordinates":[27.14071,38.47796]}},{"type":"Feature","properties":{"id":"bus-335-s20456","kind":"busstop","ref":"335","name":"Gümüşpala Su Deposu","lines":["77","135","196","197","477","577","742"]},"geometry":{"type":"Point","coordinates":[27.1405,38.4766]}},{"type":"Feature","properties":{"id":"bus-335-s20454","kind":"busstop","ref":"335","name":"Gümüşpala Merkez","lines":["77","196","197","477","537"]},"geometry":{"type":"Point","coordinates":[27.14,38.4743]}},{"type":"Feature","properties":{"id":"bus-335-s20452","kind":"busstop","ref":"335","name":"Emek","lines":["77","196","197","477","537"]},"geometry":{"type":"Point","coordinates":[27.13801,38.47207]}},{"type":"Feature","properties":{"id":"bus-335-s20450","kind":"busstop","ref":"335","name":"Muhtar","lines":["77","196","197","477","537"]},"geometry":{"type":"Point","coordinates":[27.1372,38.4701]}},{"type":"Feature","properties":{"id":"bus-335-s20448","kind":"busstop","ref":"335","name":"Gümüşpala Kahveler","lines":["196","477"]},"geometry":{"type":"Point","coordinates":[27.13668,38.46852]}},{"type":"Feature","properties":{"id":"bus-335-s20420","kind":"busstop","ref":"335","name":"Çam","lines":["196","477"]},"geometry":{"type":"Point","coordinates":[27.13707,38.46741]}},{"type":"Feature","properties":{"id":"bus-335-s20418","kind":"busstop","ref":"335","name":"Naldöken İtfaiye","lines":["196","477"]},"geometry":{"type":"Point","coordinates":[27.1342,38.4668]}},{"type":"Feature","properties":{"id":"bus-335-s20062","kind":"busstop","ref":"335","name":"Naldöken","lines":["77","78","125","140","147","148","240","426","434","477","577","602","608","660","800","912"]},"geometry":{"type":"Point","coordinates":[27.1297,38.4661]}},{"type":"Feature","properties":{"id":"bus-335-s20060","kind":"busstop","ref":"335","name":"Turan","lines":["77","78","121","125","140","147","148","200","213","240","290","330","426","434","477","543","577","602","608","660","800","912","920"]},"geometry":{"type":"Point","coordinates":[27.1503,38.4675]}},{"type":"Feature","properties":{"id":"bus-335-s20058","kind":"busstop","ref":"335","name":"Bayraklı Çamlık","lines":["77","78","125","140","147","148","240","426","434","477","577"]},"geometry":{"type":"Point","coordinates":[27.1597,38.4676]}},{"type":"Feature","properties":{"id":"bus-335-s20056","kind":"busstop","ref":"335","name":"Bayraklı Park","lines":["77","78","125","140","147","148","240","426","434","477","577"]},"geometry":{"type":"Point","coordinates":[27.1635,38.4646]}},{"type":"Feature","properties":{"id":"bus-335-s20054","kind":"busstop","ref":"335","name":"Bayraklı İstasyon","lines":["77","78","125","140","147","148","240","426","434","477","577"]},"geometry":{"type":"Point","coordinates":[27.1647,38.463]}},{"type":"Feature","properties":{"id":"bus-335-s20052","kind":"busstop","ref":"335","name":"Çevre ve Şehircilik İl Müdürlüğü","lines":["77","78","125","140","147","148","240","426","434","477","577"]},"geometry":{"type":"Point","coordinates":[27.16715,38.45887]}},{"type":"Feature","properties":{"id":"bus-335-s20050","kind":"busstop","ref":"335","name":"Körfez","lines":["77","78","125","140","147","148","240","426","434","477","577"]},"geometry":{"type":"Point","coordinates":[27.16848,38.45642]}},{"type":"Feature","properties":{"id":"bus-335-s20048","kind":"busstop","ref":"335","name":"Makine Mühendisleri Odası","lines":["77","78","125","140","147","148","240","426","434","477","577"]},"geometry":{"type":"Point","coordinates":[27.1705,38.4525]}},{"type":"Feature","properties":{"id":"bus-335-s20046","kind":"busstop","ref":"335","name":"Salhane İş Merkezi","lines":["77","78","125","140","147","148","240","426","434","477","577"]},"geometry":{"type":"Point","coordinates":[27.1716,38.4508]}},{"type":"Feature","properties":{"id":"bus-335-s20044","kind":"busstop","ref":"335","name":"Zafer Payzın Kavşağı","lines":["77","78","125","140","147","148","240","426","434","477","577"]},"geometry":{"type":"Point","coordinates":[27.1729,38.4455]}},{"type":"Feature","properties":{"id":"bus-335-s20042","kind":"busstop","ref":"335","name":"Egem","lines":["77","78","125","140","147","148","240","426","434","477","577"]},"geometry":{"type":"Point","coordinates":[27.173,38.4436]}},{"type":"Feature","properties":{"id":"bus-335-s20040","kind":"busstop","ref":"335","name":"Çınarlı Hastanesi","lines":["77","78","125","140","147","148","240","426","434","477","577"]},"geometry":{"type":"Point","coordinates":[27.17267,38.44192]}},{"type":"Feature","properties":{"id":"bus-335-s11890","kind":"busstop","ref":"335","name":"Altınyağ","lines":["77","78","125","140","147","148","240","426","434","477","577"]},"geometry":{"type":"Point","coordinates":[27.1711,38.439]}},{"type":"Feature","properties":{"id":"bus-335-s10491","kind":"busstop","ref":"335","name":"Halkapınar 2","lines":["147","434"]},"geometry":{"type":"Point","coordinates":[27.16791,38.43548]}},{"type":"Feature","properties":{"id":"bus-335-s11889","kind":"busstop","ref":"335","name":"Altınyağ","lines":["77","78","125","140","147","148","240","426","434","477","577"]},"geometry":{"type":"Point","coordinates":[27.1709,38.4388]}},{"type":"Feature","properties":{"id":"bus-335-s20041","kind":"busstop","ref":"335","name":"Çınarlı Hastanesi","lines":["77","78","125","140","147","148","240","426","434","477","577"]},"geometry":{"type":"Point","coordinates":[27.1728,38.4418]}},{"type":"Feature","properties":{"id":"bus-335-s20043","kind":"busstop","ref":"335","name":"Egem","lines":["125","240","426","434","477","577"]},"geometry":{"type":"Point","coordinates":[27.17321,38.44403]}},{"type":"Feature","properties":{"id":"bus-335-s20045","kind":"busstop","ref":"335","name":"Salhane İş Merkezi","lines":["77","78","125","140","147","148","240","426","434","477","577"]},"geometry":{"type":"Point","coordinates":[27.1723,38.44991]}},{"type":"Feature","properties":{"id":"bus-335-s20047","kind":"busstop","ref":"335","name":"Makine Mühendisleri Odası","lines":["77","78","125","140","147","148","240","426","434","477","577"]},"geometry":{"type":"Point","coordinates":[27.17,38.4537]}},{"type":"Feature","properties":{"id":"bus-335-s20049","kind":"busstop","ref":"335","name":"Körfez","lines":["77","78","125","147","240","426","434","477","577"]},"geometry":{"type":"Point","coordinates":[27.16885,38.45614]}},{"type":"Feature","properties":{"id":"bus-335-s20051","kind":"busstop","ref":"335","name":"Çevre ve Şehircilik İl Müdürlüğü","lines":["77","78","125","140","147","148","240","426","434","477","577"]},"geometry":{"type":"Point","coordinates":[27.1671,38.4593]}},{"type":"Feature","properties":{"id":"bus-335-s20053","kind":"busstop","ref":"335","name":"Bayraklı İstasyon","lines":["77","78","125","140","147","148","240","426","434","477","577"]},"geometry":{"type":"Point","coordinates":[27.16471,38.46323]}},{"type":"Feature","properties":{"id":"bus-335-s20055","kind":"busstop","ref":"335","name":"Bayraklı Çamlık","lines":["77","78","102","125","140","147","148","240","426","434","477","501","502","504","577","662"]},"geometry":{"type":"Point","coordinates":[27.1611,38.4671]}},{"type":"Feature","properties":{"id":"bus-335-s20057","kind":"busstop","ref":"335","name":"Turan","lines":["77","78","121","125","140","147","148","200","240","290","330","426","434","477","543","577","602","608","660","800","912","920"]},"geometry":{"type":"Point","coordinates":[27.14939,38.46755]}},{"type":"Feature","properties":{"id":"bus-335-s20421","kind":"busstop","ref":"335","name":"Naldöken Yol Ayrımı","lines":["196","477"]},"geometry":{"type":"Point","coordinates":[27.131,38.4666]}},{"type":"Feature","properties":{"id":"bus-335-s20417","kind":"busstop","ref":"335","name":"Naldöken İtfaiye","lines":["196","477"]},"geometry":{"type":"Point","coordinates":[27.1343,38.4666]}},{"type":"Feature","properties":{"id":"bus-335-s20419","kind":"busstop","ref":"335","name":"Çam","lines":["196","477"]},"geometry":{"type":"Point","coordinates":[27.13728,38.46737]}},{"type":"Feature","properties":{"id":"bus-335-s20447","kind":"busstop","ref":"335","name":"Gümüşpala Kahveler","lines":["196","477"]},"geometry":{"type":"Point","coordinates":[27.13686,38.46863]}},{"type":"Feature","properties":{"id":"bus-335-s20449","kind":"busstop","ref":"335","name":"Muhtar","lines":["77","196","197","477","537"]},"geometry":{"type":"Point","coordinates":[27.13738,38.47034]}},{"type":"Feature","properties":{"id":"bus-335-s20451","kind":"busstop","ref":"335","name":"Emek","lines":["77","196","197","477","537"]},"geometry":{"type":"Point","coordinates":[27.13825,38.47221]}},{"type":"Feature","properties":{"id":"bus-335-s20453","kind":"busstop","ref":"335","name":"Gümüşpala Merkez","lines":["77","196","197","477","537"]},"geometry":{"type":"Point","coordinates":[27.1403,38.4742]}},{"type":"Feature","properties":{"id":"bus-335-s20455","kind":"busstop","ref":"335","name":"Gümüşpala Su Deposu","lines":["77","135","196","197","477","577","742"]},"geometry":{"type":"Point","coordinates":[27.14055,38.47654]}},{"type":"Feature","properties":{"id":"bus-335-s23619","kind":"busstop","ref":"335","name":"Doğançay Aile Sağlığı Merkezi","lines":["135","742"]},"geometry":{"type":"Point","coordinates":[27.14089,38.47802]}},{"type":"Feature","properties":{"id":"bus-335-s20457","kind":"busstop","ref":"335","name":"Cemil Atlas İlköğretim Okulu","lines":["135","742"]},"geometry":{"type":"Point","coordinates":[27.1415,38.4791]}},{"type":"Feature","properties":{"id":"bus-335-s20459","kind":"busstop","ref":"335","name":"Doğançay Viyadüğü","lines":["135","742"]},"geometry":{"type":"Point","coordinates":[27.1441,38.4838]}},{"type":"Feature","properties":{"id":"bus-335-s20461","kind":"busstop","ref":"335","name":"Kentaş","lines":["135","742"]},"geometry":{"type":"Point","coordinates":[27.1468,38.4887]}},{"type":"Feature","properties":{"id":"bus-335-s20463","kind":"busstop","ref":"335","name":"Doğançay Mezarlık","lines":["135","742"]},"geometry":{"type":"Point","coordinates":[27.15066,38.49454]}},{"type":"Feature","properties":{"id":"bus-335-s24647","kind":"busstop","ref":"335","name":"Doğançay Köprü","lines":["135","537","742"]},"geometry":{"type":"Point","coordinates":[27.15221,38.49531]}},{"type":"Feature","properties":{"id":"bus-335-s20465","kind":"busstop","ref":"335","name":"Çolakoğlu ","lines":["135","537","742"]},"geometry":{"type":"Point","coordinates":[27.15406,38.49549]}},{"type":"Feature","properties":{"id":"bus-335-s20467","kind":"busstop","ref":"335","name":"Doğançay Meydan","lines":["135","537","742"]},"geometry":{"type":"Point","coordinates":[27.155,38.4955]}}]}