{"type":"FeatureCollection","features":[{"type":"Feature","properties":{"id":"bus-359-1","kind":"busline","ref":"359","dir":1},"geometry":{"type":"LineString","coordinates":[[27.169,38.4771],[27.1701,38.4773],[27.1688,38.4771],[27.1701,38.4772],[27.1709,38.4776],[27.1714,38.4785],[27.1726,38.4792],[27.173,38.479],[27.1749,38.4788],[27.1753,38.4798],[27.1764,38.4796],[27.179,38.4796],[27.1814,38.4783],[27.1818,38.4772],[27.1818,38.4766],[27.1823,38.4758],[27.1823,38.4748],[27.1827,38.4742],[27.1808,38.4736],[27.1803,38.4732],[27.181,38.4717],[27.1811,38.4711],[27.1788,38.4708],[27.1787,38.4706],[27.1773,38.47],[27.1747,38.4684],[27.17,38.4667],[27.1688,38.4665],[27.1684,38.4659],[27.1681,38.4647],[27.1711,38.4618],[27.172,38.4615],[27.1737,38.4599],[27.1768,38.4554],[27.1769,38.4549],[27.1791,38.4509],[27.1731,38.4492],[27.1728,38.4504],[27.1721,38.452],[27.1724,38.4513]]}},{"type":"Feature","properties":{"id":"bus-359-2","kind":"busline","ref":"359","dir":2},"geometry":{"type":"LineString","coordinates":[[27.1724,38.4513],[27.1721,38.452],[27.1728,38.4504],[27.1731,38.449],[27.1794,38.4507],[27.1773,38.4545],[27.1774,38.455],[27.1769,38.4554],[27.174,38.4598],[27.1715,38.4622],[27.1709,38.4621],[27.1689,38.4638],[27.1682,38.4649],[27.1684,38.4659],[27.1688,38.4665],[27.17,38.4667],[27.1747,38.4684],[27.1787,38.4707],[27.1795,38.4706],[27.1811,38.4709],[27.181,38.4717],[27.1803,38.4732],[27.1808,38.4736],[27.1827,38.4742],[27.1823,38.4748],[27.1823,38.4758],[27.1818,38.4766],[27.1818,38.4772],[27.1814,38.4783],[27.179,38.4796],[27.1764,38.4796],[27.175,38.4799],[27.1749,38.4797],[27.1746,38.4798],[27.1744,38.4796],[27.1741,38.4789],[27.1726,38.4792],[27.1719,38.4787],[27.1713,38.4788],[27.1712,38.4782],[27.1709,38.4778],[27.1701,38.4773],[27.1688,38.4771],[27.169,38.4771]]}},{"type":"Feature","properties":{"id":"bus-359-s31082","kind":"busstop","ref":"359","name":"Cengizhan Son Durak","lines":["502","559","597","599","662","699"]},"geometry":{"type":"Point","coordinates":[27.169,38.4772]}},{"type":"Feature","properties":{"id":"bus-359-s31132","kind":"busstop","ref":"359","name":"Tepe","lines":["599","699"]},"geometry":{"type":"Point","coordinates":[27.1714,38.4781]}},{"type":"Feature","properties":{"id":"bus-359-s31130","kind":"busstop","ref":"359","name":"Ticaret Borsası İlköğretim Okulu","lines":["597","599","699"]},"geometry":{"type":"Point","coordinates":[27.1724,38.479]}},{"type":"Feature","properties":{"id":"bus-359-s32176","kind":"busstop","ref":"359","name":"Huzur","lines":[]},"geometry":{"type":"Point","coordinates":[27.1755,38.4797]}},{"type":"Feature","properties":{"id":"bus-359-s32174","kind":"busstop","ref":"359","name":"Kayabaşı Cami","lines":[]},"geometry":{"type":"Point","coordinates":[27.1784,38.4795]}},{"type":"Feature","properties":{"id":"bus-359-s32172","kind":"busstop","ref":"359","name":"Uysal","lines":[]},"geometry":{"type":"Point","coordinates":[27.1809,38.4786]}},{"type":"Feature","properties":{"id":"bus-359-s31094","kind":"busstop","ref":"359","name":"Çeşme","lines":["503","513","597","599","699"]},"geometry":{"type":"Point","coordinates":[27.1822,38.4754]}},{"type":"Feature","properties":{"id":"bus-359-s31092","kind":"busstop","ref":"359","name":"Park","lines":["503","513","597","599","699"]},"geometry":{"type":"Point","coordinates":[27.18051,38.47337]}},{"type":"Feature","properties":{"id":"bus-359-s30982","kind":"busstop","ref":"359","name":"Çay Mahallesi Son Durak","lines":["503","513","597","599","699"]},"geometry":{"type":"Point","coordinates":[27.1806,38.4711]}},{"type":"Feature","properties":{"id":"bus-359-s30980","kind":"busstop","ref":"359","name":"Heykel","lines":["503","513","597","599","699"]},"geometry":{"type":"Point","coordinates":[27.1785,38.4706]}},{"type":"Feature","properties":{"id":"bus-359-s30978","kind":"busstop","ref":"359","name":"Şehit Hakan Uysal","lines":["503","513","597","599","699"]},"geometry":{"type":"Point","coordinates":[27.1761,38.4692]}},{"type":"Feature","properties":{"id":"bus-359-s30976","kind":"busstop","ref":"359","name":"Çorapçı","lines":["503","513","597","599","699"]},"geometry":{"type":"Point","coordinates":[27.17362,38.46811]}},{"type":"Feature","properties":{"id":"bus-359-s30974","kind":"busstop","ref":"359","name":"Dede Fırını","lines":["503","513","597","599","699"]},"geometry":{"type":"Point","coordinates":[27.1711,38.4671]}},{"type":"Feature","properties":{"id":"bus-359-s30970","kind":"busstop","ref":"359","name":"Bayraklı Çocuk Parkı","lines":["503","513","599","699"]},"geometry":{"type":"Point","coordinates":[27.1682,38.4654]}},{"type":"Feature","properties":{"id":"bus-359-s30962","kind":"busstop","ref":"359","name":"Matbaa","lines":["503","513","599","699"]},"geometry":{"type":"Point","coordinates":[27.1696,38.4631]}},{"type":"Feature","properties":{"id":"bus-359-s30290","kind":"busstop","ref":"359","name":"Smyrna","lines":["102","330","338","498","501","502","503","504","513","543","599","662","699"]},"geometry":{"type":"Point","coordinates":[27.1732,38.4604]}},{"type":"Feature","properties":{"id":"bus-359-s30286","kind":"busstop","ref":"359","name":"Manas","lines":["102","330","338","498","501","502","503","504","513","543","599","662","699"]},"geometry":{"type":"Point","coordinates":[27.17507,38.4579]}},{"type":"Feature","properties":{"id":"bus-359-s30284","kind":"busstop","ref":"359","name":"Bayraklı Depo","lines":["102","330","338","498","501","502","503","504","513","543","599","662","699"]},"geometry":{"type":"Point","coordinates":[27.1764,38.4559]}},{"type":"Feature","properties":{"id":"bus-359-s30282","kind":"busstop","ref":"359","name":"Halide Edip Adıvar","lines":["102","214","249","498","501","502","503","504","513","515","543","599","662","699","930","963"]},"geometry":{"type":"Point","coordinates":[27.17845,38.45217]}},{"type":"Feature","properties":{"id":"bus-359-s30298","kind":"busstop","ref":"359","name":"Şehit Polis Fethi Sekin","lines":["328","498","539"]},"geometry":{"type":"Point","coordinates":[27.1781,38.4506]}},{"type":"Feature","properties":{"id":"bus-359-s30292","kind":"busstop","ref":"359","name":"Şehit Musa Can","lines":["328","498","539"]},"geometry":{"type":"Point","coordinates":[27.1736,38.4494]}},{"type":"Feature","properties":{"id":"bus-359-s22220","kind":"busstop","ref":"359","name":"Salhane Aktarma Merkezi","lines":["328","338","539"]},"geometry":{"type":"Point","coordinates":[27.17225,38.45128]}},{"type":"Feature","properties":{"id":"bus-359-s30291","kind":"busstop","ref":"359","name":"Şehit Musa Can","lines":["328","338","539"]},"geometry":{"type":"Point","coordinates":[27.1741,38.4493]}},{"type":"Feature","properties":{"id":"bus-359-s30304","kind":"busstop","ref":"359","name":"Şehit Polis Fethi Sekin","lines":["328","338","539"]},"geometry":{"type":"Point","coordinates":[27.1788,38.4505]}},{"type":"Feature","properties":{"id":"bus-359-s30281","kind":"busstop","ref":"359","name":"Halide Edip Adıvar","lines":["102","214","249","338","498","501","502","503","504","513","515","543","599","662","699","930","963"]},"geometry":{"type":"Point","coordinates":[27.17891,38.45184]}},{"type":"Feature","properties":{"id":"bus-359-s30283","kind":"busstop","ref":"359","name":"Bayraklı Depo","lines":["102","330","338","498","501","502","503","504","513","543","599","662","699"]},"geometry":{"type":"Point","coordinates":[27.1766,38.4559]}},{"type":"Feature","properties":{"id":"bus-359-s30285","kind":"busstop","ref":"359","name":"Manas","lines":["102","330","338","498","501","502","503","504","513","543","599","662","699"]},"geometry":{"type":"Point","coordinates":[27.1752,38.4581]}},{"type":"Feature","properties":{"id":"bus-359-s30289","kind":"busstop","ref":"359","name":"Smyrna","lines":["102","330","338","498","501","502","503","504","513","543","599","662","699"]},"geometry":{"type":"Point","coordinates":[27.1728,38.461]}},{"type":"Feature","properties":{"id":"bus-359-s30963","kind":"busstop","ref":"359","name":"Matbaa","lines":["102","501","502","503","504","513","599","662","699"]},"geometry":{"type":"Point","coordinates":[27.16954,38.46342]}},{"type":"Feature","properties":{"id":"bus-359-s30971","kind":"busstop","ref":"359","name":"Bayraklı Çocuk Parkı","lines":["503","513","597","599","699"]},"geometry":{"type":"Point","coordinates":[27.1683,38.4655]}},{"type":"Feature","properties":{"id":"bus-359-s30983","kind":"busstop","ref":"359","name":"Dede Fırını","lines":["503","513","597","599","699"]},"geometry":{"type":"Point","coordinates":[27.1712,38.4671]}},{"type":"Feature","properties":{"id":"bus-359-s30975","kind":"busstop","ref":"359","name":"Çorapçı","lines":["503","513","597","599","699"]},"geometry":{"type":"Point","coordinates":[27.1737,38.468]}},{"type":"Feature","properties":{"id":"bus-359-s30977","kind":"busstop","ref":"359","name":"Şehit Hakan Uysal","lines":["503","513","597","599","699"]},"geometry":{"type":"Point","coordinates":[27.176,38.469]}},{"type":"Feature","properties":{"id":"bus-359-s30979","kind":"busstop","ref":"359","name":"Heykel","lines":["503","513","597","599","699"]},"geometry":{"type":"Point","coordinates":[27.1783,38.4704]}},{"type":"Feature","properties":{"id":"bus-359-s30981","kind":"busstop","ref":"359","name":"Çay Mahallesi","lines":["503","513","597","599","699"]},"geometry":{"type":"Point","coordinates":[27.1799,38.4707]}},{"type":"Feature","properties":{"id":"bus-359-s31091","kind":"busstop","ref":"359","name":"Park","lines":["503","513","597","599","699"]},"geometry":{"type":"Point","coordinates":[27.1805,38.4733]}},{"type":"Feature","properties":{"id":"bus-359-s31093","kind":"busstop","ref":"359","name":"Çeşme","lines":["503","513","597","599","699"]},"geometry":{"type":"Point","coordinates":[27.1823,38.4753]}},{"type":"Feature","properties":{"id":"bus-359-s32171","kind":"busstop","ref":"359","name":"Uysal","lines":[]},"geometry":{"type":"Point","coordinates":[27.1811,38.4785]}},{"type":"Feature","properties":{"id":"bus-359-s32173","kind":"busstop","ref":"359","name":"Kayabaşı Cami","lines":[]},"geometry":{"type":"Point","coordinates":[27.1785,38.4796]}},{"type":"Feature","properties":{"id":"bus-359-s32175","kind":"busstop","ref":"359","name":"Huzur","lines":[]},"geometry":{"type":"Point","coordinates":[27.1757,38.4797]}},{"type":"Feature","properties":{"id":"bus-359-s31129","kind":"busstop","ref":"359","name":"Ticaret Borsası İlköğretim Okulu","lines":["597","599","699"]},"geometry":{"type":"Point","coordinates":[27.17222,38.47882]}},{"type":"Feature","properties":{"id":"bus-359-s31131","kind":"busstop","ref":"359","name":"Tepe","lines":["597","599","699"]},"geometry":{"type":"Point","coordinates":[27.1711,38.4781]}}]}