{"type":"FeatureCollection","features":[{"type":"Feature","properties":{"id":"bus-364-1","kind":"busline","ref":"364","dir":1},"geometry":{"type":"LineString","coordinates":[[27.2366,38.4133],[27.2361,38.4118],[27.2367,38.4139],[27.2368,38.4176],[27.2371,38.4189],[27.237,38.4215],[27.2368,38.4225],[27.2358,38.4236],[27.2358,38.424],[27.2354,38.424],[27.2352,38.4242],[27.2353,38.4243],[27.2359,38.424],[27.2443,38.4251],[27.2443,38.4254],[27.2441,38.4254],[27.2438,38.4259],[27.244,38.4293],[27.2435,38.4343],[27.2425,38.4377],[27.2356,38.4358],[27.2325,38.4343],[27.2308,38.4331],[27.2247,38.4311],[27.22,38.4305],[27.2143,38.4283],[27.2122,38.4283],[27.2098,38.428],[27.1879,38.433],[27.1806,38.433],[27.1797,38.4332],[27.1732,38.4329],[27.1701,38.4335],[27.1684,38.4341],[27.1683,38.4339],[27.1687,38.4333],[27.169,38.433],[27.1696,38.433],[27.1694,38.433]]}},{"type":"Feature","properties":{"id":"bus-364-2","kind":"busline","ref":"364","dir":2},"geometry":{"type":"LineString","coordinates":[[27.1694,38.433],[27.169,38.433],[27.1696,38.433],[27.1696,38.4335],[27.1734,38.4328],[27.1796,38.4331],[27.1807,38.4329],[27.1873,38.433],[27.2124,38.4273],[27.2203,38.4305],[27.2225,38.4304],[27.2274,38.4318],[27.2319,38.4335],[27.2322,38.4339],[27.2334,38.4346],[27.236,38.4358],[27.2423,38.4376],[27.2432,38.4345],[27.2437,38.4312],[27.2439,38.4293],[27.2438,38.4253],[27.2435,38.4251],[27.2414,38.4247],[27.238,38.4243],[27.2352,38.4242],[27.2354,38.424],[27.2358,38.424],[27.2358,38.4236],[27.2368,38.4225],[27.237,38.4215],[27.2371,38.4189],[27.2368,38.4176],[27.2367,38.4139],[27.2361,38.4118],[27.2366,38.4133]]}},{"type":"Feature","properties":{"id":"bus-364-s32298","kind":"busstop","ref":"364","name":"Işıklar","lines":[]},"geometry":{"type":"Point","coordinates":[27.23659,38.41326]}},{"type":"Feature","properties":{"id":"bus-364-s32289","kind":"busstop","ref":"364","name":"Aydınlar Caddesi","lines":[]},"geometry":{"type":"Point","coordinates":[27.2368,38.41717]}},{"type":"Feature","properties":{"id":"bus-364-s32291","kind":"busstop","ref":"364","name":"Şehit. Jnd. Onbaşı Uğur Demirkan","lines":[]},"geometry":{"type":"Point","coordinates":[27.23717,38.42049]}},{"type":"Feature","properties":{"id":"bus-364-s32306","kind":"busstop","ref":"364","name":"Aydınlar Köşe","lines":[]},"geometry":{"type":"Point","coordinates":[27.23667,38.42296]}},{"type":"Feature","properties":{"id":"bus-364-s30551","kind":"busstop","ref":"364","name":"Ayakkabıcılar Sitesi","lines":["64","267","277"]},"geometry":{"type":"Point","coordinates":[27.23981,38.42438]}},{"type":"Feature","properties":{"id":"bus-364-s30541","kind":"busstop","ref":"364","name":"Kara Nakliyeciler","lines":["64","277"]},"geometry":{"type":"Point","coordinates":[27.2426,38.4248]}},{"type":"Feature","properties":{"id":"bus-364-s32297","kind":"busstop","ref":"364","name":"Işıkkent Kamyon Garajı","lines":["267"]},"geometry":{"type":"Point","coordinates":[27.24406,38.42777]}},{"type":"Feature","properties":{"id":"bus-364-s32293","kind":"busstop","ref":"364","name":"Yabancılar Şube Müdürlüğü","lines":[]},"geometry":{"type":"Point","coordinates":[27.24385,38.43179]}},{"type":"Feature","properties":{"id":"bus-364-s32294","kind":"busstop","ref":"364","name":"Galericiler","lines":[]},"geometry":{"type":"Point","coordinates":[27.2433,38.43517]}},{"type":"Feature","properties":{"id":"bus-364-s30044","kind":"busstop","ref":"364","name":"Pınar Süt","lines":["60","117","560"]},"geometry":{"type":"Point","coordinates":[27.2398,38.4371]}},{"type":"Feature","properties":{"id":"bus-364-s30042","kind":"busstop","ref":"364","name":"Efes","lines":["60","117","560"]},"geometry":{"type":"Point","coordinates":[27.2342,38.4353]}},{"type":"Feature","properties":{"id":"bus-364-s30040","kind":"busstop","ref":"364","name":"Işıkkent Benzinlik","lines":["60","64","117","277","367","505","560","564"]},"geometry":{"type":"Point","coordinates":[27.2263,38.4316]}},{"type":"Feature","properties":{"id":"bus-364-s30038","kind":"busstop","ref":"364","name":"Koyuncu","lines":["60","64","117","277","367","505","560","564"]},"geometry":{"type":"Point","coordinates":[27.22131,38.43079]}},{"type":"Feature","properties":{"id":"bus-364-s30036","kind":"busstop","ref":"364","name":"Egemenlik","lines":["60","64","117","367","505","560","564"]},"geometry":{"type":"Point","coordinates":[27.21384,38.42834]}},{"type":"Feature","properties":{"id":"bus-364-s30166","kind":"busstop","ref":"364","name":"Bulvar","lines":["54","555","560","564"]},"geometry":{"type":"Point","coordinates":[27.21015,38.42806]}},{"type":"Feature","properties":{"id":"bus-364-s30164","kind":"busstop","ref":"364","name":"Altındağ Atatürk Kültür Merkezi STK Yerleşke","lines":["54","555","560","564"]},"geometry":{"type":"Point","coordinates":[27.2067,38.4287]}},{"type":"Feature","properties":{"id":"bus-364-s30162","kind":"busstop","ref":"364","name":"Park","lines":["59","560","564"]},"geometry":{"type":"Point","coordinates":[27.20111,38.43001]}},{"type":"Feature","properties":{"id":"bus-364-s30160","kind":"busstop","ref":"364","name":"Kahveler","lines":["59","560","564"]},"geometry":{"type":"Point","coordinates":[27.1994,38.4304]}},{"type":"Feature","properties":{"id":"bus-364-s30158","kind":"busstop","ref":"364","name":"Umut","lines":["59","560","564"]},"geometry":{"type":"Point","coordinates":[27.1967,38.431]}},{"type":"Feature","properties":{"id":"bus-364-s30156","kind":"busstop","ref":"364","name":"Çamdibi Esnaf Odası","lines":["59","560","564"]},"geometry":{"type":"Point","coordinates":[27.1936,38.4317]}},{"type":"Feature","properties":{"id":"bus-364-s30154","kind":"busstop","ref":"364","name":"Kartal","lines":["59","560","564"]},"geometry":{"type":"Point","coordinates":[27.1907,38.4324]}},{"type":"Feature","properties":{"id":"bus-364-s30152","kind":"busstop","ref":"364","name":"Gürbüz","lines":["59","560","564"]},"geometry":{"type":"Point","coordinates":[27.1865,38.4331]}},{"type":"Feature","properties":{"id":"bus-364-s30150","kind":"busstop","ref":"364","name":"Kamil Tunca Bulvarı","lines":["59","560","564"]},"geometry":{"type":"Point","coordinates":[27.18256,38.4331]}},{"type":"Feature","properties":{"id":"bus-364-s11878","kind":"busstop","ref":"364","name":"Atatürk Stadı","lines":["53","55","515","539","543","555","560","564","930"]},"geometry":{"type":"Point","coordinates":[27.1794,38.4332]}},{"type":"Feature","properties":{"id":"bus-364-s12874","kind":"busstop","ref":"364","name":"Halkapınar Tramvay","lines":["53","55","102","154","168","418","475","498","501","502","503","504","513","515","534","539","543","555","560","564","599","930"]},"geometry":{"type":"Point","coordinates":[27.17041,38.43345]}},{"type":"Feature","properties":{"id":"bus-364-s10463","kind":"busstop","ref":"364","name":"Halkapınar Metro","lines":[]},"geometry":{"type":"Point","coordinates":[27.16936,38.43292]}},{"type":"Feature","properties":{"id":"bus-364-s30149","kind":"busstop","ref":"364","name":"Kamil Tunca Bulvarı","lines":["55","59","560","564"]},"geometry":{"type":"Point","coordinates":[27.1817,38.433]}},{"type":"Feature","properties":{"id":"bus-364-s30151","kind":"busstop","ref":"364","name":"Gürbüz","lines":["55","59","560","564"]},"geometry":{"type":"Point","coordinates":[27.1865,38.433]}},{"type":"Feature","properties":{"id":"bus-364-s30153","kind":"busstop","ref":"364","name":"Kartal","lines":["55","59","560","564"]},"geometry":{"type":"Point","coordinates":[27.1913,38.4321]}},{"type":"Feature","properties":{"id":"bus-364-s30155","kind":"busstop","ref":"364","name":"Çamdibi Esnaf Odası","lines":["55","59","560","564"]},"geometry":{"type":"Point","coordinates":[27.194,38.4315]}},{"type":"Feature","properties":{"id":"bus-364-s30157","kind":"busstop","ref":"364","name":"Umut","lines":["55","59","560","564"]},"geometry":{"type":"Point","coordinates":[27.1969,38.43081]}},{"type":"Feature","properties":{"id":"bus-364-s30159","kind":"busstop","ref":"364","name":"Kahveler","lines":["55","59","560","564"]},"geometry":{"type":"Point","coordinates":[27.19924,38.43026]}},{"type":"Feature","properties":{"id":"bus-364-s30161","kind":"busstop","ref":"364","name":"Park","lines":["55","59","560","564"]},"geometry":{"type":"Point","coordinates":[27.2029,38.4295]}},{"type":"Feature","properties":{"id":"bus-364-s30163","kind":"busstop","ref":"364","name":"Altındağ Atatürk Kültür Merkezi STK Yerleşke","lines":["54","555","560","564"]},"geometry":{"type":"Point","coordinates":[27.2066,38.42855]}},{"type":"Feature","properties":{"id":"bus-364-s30165","kind":"busstop","ref":"364","name":"Bulvar","lines":["54","555","560","564"]},"geometry":{"type":"Point","coordinates":[27.211,38.4276]}},{"type":"Feature","properties":{"id":"bus-364-s30041","kind":"busstop","ref":"364","name":"Egemenlik","lines":["60","64","117","277","367","505","560","564"]},"geometry":{"type":"Point","coordinates":[27.2141,38.42784]}},{"type":"Feature","properties":{"id":"bus-364-s30043","kind":"busstop","ref":"364","name":"Işıkkent Benzinlik","lines":["60","64","117","277","367","505","560","564"]},"geometry":{"type":"Point","coordinates":[27.2192,38.43]}},{"type":"Feature","properties":{"id":"bus-364-s30045","kind":"busstop","ref":"364","name":"Metaş","lines":["60","117","367","505","560"]},"geometry":{"type":"Point","coordinates":[27.2247,38.4309]}},{"type":"Feature","properties":{"id":"bus-364-s30047","kind":"busstop","ref":"364","name":"Işıkkent Mezarlık","lines":["60","117","367","560"]},"geometry":{"type":"Point","coordinates":[27.2278,38.432]}},{"type":"Feature","properties":{"id":"bus-364-s30049","kind":"busstop","ref":"364","name":"Tuborg","lines":["60","117","560"]},"geometry":{"type":"Point","coordinates":[27.2346,38.4351]}},{"type":"Feature","properties":{"id":"bus-364-s30051","kind":"busstop","ref":"364","name":"Pınar Süt","lines":["60","117","560"]},"geometry":{"type":"Point","coordinates":[27.2409,38.4371]}},{"type":"Feature","properties":{"id":"bus-364-s32295","kind":"busstop","ref":"364","name":"Yabancılar Şube Müdürlüğü","lines":[]},"geometry":{"type":"Point","coordinates":[27.24333,38.43295]}},{"type":"Feature","properties":{"id":"bus-364-s32296","kind":"busstop","ref":"364","name":"Işıkkent Kamyon Garajı","lines":["267"]},"geometry":{"type":"Point","coordinates":[27.24374,38.42842]}},{"type":"Feature","properties":{"id":"bus-364-s30540","kind":"busstop","ref":"364","name":"Kara Nakliyeciler","lines":["64","277"]},"geometry":{"type":"Point","coordinates":[27.2427,38.4249]}},{"type":"Feature","properties":{"id":"bus-364-s30552","kind":"busstop","ref":"364","name":"Ayakkabıcılar Sitesi","lines":["64","267","277"]},"geometry":{"type":"Point","coordinates":[27.23971,38.42457]}},{"type":"Feature","properties":{"id":"bus-364-s32305","kind":"busstop","ref":"364","name":"Aydınlar Köşe","lines":[]},"geometry":{"type":"Point","coordinates":[27.23619,38.42311]}},{"type":"Feature","properties":{"id":"bus-364-s32292","kind":"busstop","ref":"364","name":"Şehit. Jnd. Onbaşı Uğur Demirkan","lines":[]},"geometry":{"type":"Point","coordinates":[27.23686,38.42072]}},{"type":"Feature","properties":{"id":"bus-364-s32290","kind":"busstop","ref":"364","name":"Aydınlar Caddesi","lines":[]},"geometry":{"type":"Point","coordinates":[27.23666,38.41746]}}]}