{"type":"FeatureCollection","features":[{"type":"Feature","properties":{"id":"bus-365-1","kind":"busline","ref":"365","dir":1},"geometry":{"type":"LineString","coordinates":[[27.2406,38.5173],[27.2401,38.5174],[27.2414,38.5173],[27.2433,38.5182],[27.2439,38.5181],[27.2443,38.5175],[27.2447,38.5157],[27.2452,38.5153],[27.2451,38.5143],[27.2448,38.5138],[27.2456,38.5131],[27.2458,38.5123],[27.2467,38.5117],[27.2465,38.5096],[27.2468,38.5091],[27.246,38.5073],[27.2468,38.5091],[27.2465,38.5096],[27.2467,38.5117],[27.2458,38.5123],[27.2456,38.5131],[27.2448,38.5138],[27.2451,38.5143],[27.2452,38.5153],[27.2447,38.5157],[27.2444,38.5172],[27.2439,38.5181],[27.2433,38.5182],[27.2414,38.5173],[27.2383,38.5173],[27.2371,38.5169],[27.2362,38.5178],[27.2337,38.5187],[27.2349,38.5189],[27.2378,38.519],[27.2359,38.519],[27.2337,38.5187],[27.2362,38.5178],[27.2368,38.5171],[27.2351,38.5175],[27.2327,38.5172],[27.2309,38.5176],[27.2308,38.5168],[27.2305,38.5162],[27.2294,38.5158],[27.2293,38.5164],[27.2288,38.5168],[27.2286,38.5165],[27.2283,38.5165],[27.2272,38.5169],[27.2267,38.5175],[27.2259,38.5175],[27.2257,38.5181],[27.224,38.5199],[27.2227,38.5208],[27.2226,38.5196],[27.223,38.5188],[27.223,38.5182],[27.2227,38.5177],[27.2227,38.5168],[27.2221,38.5171],[27.2206,38.5167],[27.2204,38.5166],[27.2201,38.5157],[27.2205,38.5152],[27.2211,38.5133],[27.2216,38.5108],[27.2224,38.5099],[27.223,38.5097],[27.223,38.5095],[27.2224,38.5086],[27.2224,38.5082],[27.2217,38.5075],[27.2205,38.5075],[27.2203,38.5067],[27.2198,38.5063],[27.2182,38.5059],[27.2177,38.5055],[27.218,38.5051],[27.2195,38.5042],[27.2202,38.5035],[27.2203,38.5029],[27.2201,38.5024],[27.2203,38.5018],[27.2201,38.5014],[27.2196,38.5011],[27.2186,38.5012],[27.2184,38.5014],[27.2177,38.5012],[27.2172,38.5014],[27.2168,38.5011],[27.2152,38.5017],[27.2148,38.5023],[27.214,38.5026],[27.2133,38.5035],[27.2129,38.5037],[27.2121,38.5038],[27.2108,38.5036],[27.2111,38.5054],[27.2104,38.5059],[27.2104,38.5066],[27.2099,38.5081],[27.2099,38.5084],[27.2104,38.5091],[27.2086,38.5091],[27.2082,38.5097],[27.2082,38.5106],[27.2062,38.5114],[27.2082,38.5106],[27.2082,38.5097],[27.2086,38.5091],[27.2104,38.5091],[27.2099,38.5084],[27.2099,38.5081],[27.2104,38.5066],[27.2104,38.5059],[27.2111,38.5054],[27.2111,38.5048],[27.2107,38.5037],[27.2113,38.5036],[27.2125,38.5038],[27.2133,38.5035],[27.214,38.5026],[27.2148,38.5023],[27.2152,38.5017],[27.2167,38.5012],[27.2173,38.5],[27.2173,38.4994],[27.2169,38.499],[27.2168,38.4986],[27.2174,38.497],[27.2172,38.4965],[27.2167,38.496],[27.2167,38.4955],[27.216,38.4948],[27.2161,38.4944],[27.2169,38.4939],[27.2174,38.4931],[27.2172,38.4922],[27.2167,38.4912],[27.2153,38.4908],[27.2141,38.4878],[27.2169,38.4879],[27.2176,38.4856],[27.2188,38.4837],[27.2186,38.4828],[27.2187,38.4813],[27.2183,38.4802],[27.2188,38.4795],[27.2192,38.4784],[27.2188,38.4772],[27.2184,38.4769],[27.2185,38.4765],[27.2181,38.4748],[27.2182,38.4735],[27.219,38.4724],[27.2186,38.472],[27.2187,38.4717],[27.2192,38.4711],[27.2204,38.4706],[27.2207,38.4703],[27.2219,38.4698],[27.2234,38.4697],[27.2232,38.4695],[27.2232,38.4691],[27.2219,38.4682],[27.2203,38.4677],[27.219,38.4663],[27.219,38.4654],[27.2184,38.4641],[27.2179,38.4635],[27.2179,38.4633],[27.2184,38.4629],[27.2179,38.462],[27.218,38.4619],[27.2198,38.4627],[27.221,38.4629],[27.2255,38.4623],[27.2262,38.4624],[27.226,38.4622],[27.2261,38.4616],[27.2264,38.4614],[27.2271,38.4615],[27.2274,38.4619],[27.2272,38.4623],[27.2274,38.4642],[27.2304,38.4652],[27.2291,38.4661],[27.2283,38.4662],[27.2282,38.4656],[27.2286,38.4655],[27.2287,38.4657],[27.2286,38.4656]]}},{"type":"Feature","properties":{"id":"bus-365-2","kind":"busline","ref":"365","dir":2},"geometry":{"type":"LineString","coordinates":[[27.2286,38.4656],[27.2288,38.4661],[27.2291,38.4661],[27.2304,38.4652],[27.227,38.4641],[27.2268,38.4631],[27.2261,38.4623],[27.2243,38.4625],[27.224,38.4626],[27.224,38.4641],[27.2231,38.4646],[27.2222,38.4648],[27.2212,38.4653],[27.2205,38.4659],[27.2194,38.4663],[27.2197,38.4673],[27.2182,38.4686],[27.2183,38.4688],[27.2194,38.469],[27.2201,38.4695],[27.2207,38.4703],[27.219,38.4713],[27.2186,38.4719],[27.219,38.4724],[27.2182,38.4735],[27.2184,38.4761],[27.2192,38.4784],[27.2184,38.4803],[27.2187,38.4813],[27.2189,38.4838],[27.2178,38.4853],[27.2172,38.488],[27.2143,38.4878],[27.2145,38.489],[27.2153,38.4906],[27.2167,38.4911],[27.217,38.4914],[27.2174,38.4925],[27.2173,38.4933],[27.2169,38.4939],[27.2161,38.4944],[27.216,38.4947],[27.2167,38.4955],[27.2167,38.496],[27.2172,38.4965],[27.2174,38.497],[27.2168,38.4986],[27.2169,38.499],[27.2173,38.4994],[27.2173,38.5],[27.2167,38.5012],[27.2152,38.5017],[27.2148,38.5023],[27.214,38.5026],[27.2133,38.5035],[27.2125,38.5038],[27.2113,38.5036],[27.2107,38.5037],[27.2111,38.5048],[27.2111,38.5054],[27.2104,38.5059],[27.2104,38.5066],[27.2099,38.5081],[27.2099,38.5084],[27.2104,38.5091],[27.2086,38.5091],[27.2082,38.5097],[27.2082,38.5106],[27.2062,38.5114],[27.2082,38.5106],[27.2082,38.5097],[27.2086,38.5091],[27.2104,38.5091],[27.2099,38.5084],[27.2099,38.5081],[27.2104,38.5066],[27.2104,38.5059],[27.2111,38.5054],[27.2108,38.5036],[27.2121,38.5038],[27.2129,38.5037],[27.2133,38.5035],[27.214,38.5026],[27.2148,38.5023],[27.2152,38.5017],[27.2168,38.5011],[27.2172,38.5014],[27.2176,38.5012],[27.2184,38.5014],[27.2186,38.5012],[27.2196,38.5011],[27.2201,38.5014],[27.2203,38.5018],[27.2201,38.5024],[27.2203,38.5029],[27.2202,38.5035],[27.2195,38.5042],[27.218,38.5051],[27.2177,38.5055],[27.2182,38.5059],[27.2198,38.5063],[27.2203,38.5067],[27.2205,38.5075],[27.2217,38.5075],[27.2224,38.5082],[27.2224,38.5086],[27.223,38.5095],[27.223,38.5097],[27.2224,38.5099],[27.2216,38.5108],[27.2211,38.5133],[27.2205,38.5152],[27.2201,38.5157],[27.2204,38.5166],[27.2206,38.5167],[27.2221,38.5171],[27.2227,38.5168],[27.2227,38.5177],[27.223,38.5182],[27.223,38.5188],[27.2226,38.5196],[27.2227,38.5208],[27.224,38.5199],[27.2257,38.5181],[27.2259,38.5175],[27.2267,38.5175],[27.2272,38.5169],[27.2283,38.5165],[27.2286,38.5165],[27.2288,38.5168],[27.2293,38.5164],[27.2294,38.5158],[27.2305,38.5162],[27.2308,38.5168],[27.2309,38.5176],[27.2327,38.5172],[27.2351,38.5175],[27.2368,38.5171],[27.2362,38.5178],[27.2337,38.5187],[27.2349,38.5189],[27.2378,38.519],[27.2359,38.519],[27.2337,38.5187],[27.2362,38.5178],[27.2371,38.5169],[27.2383,38.5173],[27.2414,38.5173],[27.2433,38.5182],[27.2439,38.5181],[27.2444,38.5172],[27.2447,38.5157],[27.2452,38.5153],[27.2451,38.5143],[27.2448,38.5138],[27.2456,38.5131],[27.2458,38.5123],[27.2467,38.5117],[27.2465,38.5096],[27.2468,38.5091],[27.246,38.5073],[27.2468,38.5091],[27.2465,38.5096],[27.2467,38.5117],[27.2458,38.5123],[27.2456,38.5131],[27.2448,38.5138],[27.2451,38.5143],[27.2452,38.5153],[27.2447,38.5157],[27.2443,38.5175],[27.2439,38.5181],[27.2433,38.5182],[27.2414,38.5173],[27.2399,38.5174],[27.2434,38.5182]]}},{"type":"Feature","properties":{"id":"bus-365-s31983","kind":"busstop","ref":"365","name":"Kayadibi Köy Cami Yeni Son Durak","lines":[]},"geometry":{"type":"Point","coordinates":[27.24061,38.51727]}},{"type":"Feature","properties":{"id":"bus-365-s31984","kind":"busstop","ref":"365","name":"Kayadibi Çevre","lines":[]},"geometry":{"type":"Point","coordinates":[27.2434,38.51819]}},{"type":"Feature","properties":{"id":"bus-365-s32482","kind":"busstop","ref":"365","name":"Kayadibi Orman","lines":[]},"geometry":{"type":"Point","coordinates":[27.24498,38.51462]}},{"type":"Feature","properties":{"id":"bus-365-s32208","kind":"busstop","ref":"365","name":"Atlı Vadi","lines":[]},"geometry":{"type":"Point","coordinates":[27.24641,38.50999]}},{"type":"Feature","properties":{"id":"bus-365-s32481","kind":"busstop","ref":"365","name":"Kayadibi Orman","lines":[]},"geometry":{"type":"Point","coordinates":[27.2452,38.51478]}},{"type":"Feature","properties":{"id":"bus-365-s31982","kind":"busstop","ref":"365","name":"Kayadibi Doğa Park","lines":[]},"geometry":{"type":"Point","coordinates":[27.23766,38.51896]}},{"type":"Feature","properties":{"id":"bus-365-s31981","kind":"busstop","ref":"365","name":"Kayadibi Doğa Park","lines":[]},"geometry":{"type":"Point","coordinates":[27.2378,38.51902]}},{"type":"Feature","properties":{"id":"bus-365-s31968","kind":"busstop","ref":"365","name":"Kayadibi","lines":[]},"geometry":{"type":"Point","coordinates":[27.23669,38.51719]}},{"type":"Feature","properties":{"id":"bus-365-s32376","kind":"busstop","ref":"365","name":"Kayadibi Giriş","lines":[]},"geometry":{"type":"Point","coordinates":[27.23052,38.51643]}},{"type":"Feature","properties":{"id":"bus-365-s31970","kind":"busstop","ref":"365","name":"Homeros Piknik Alanı","lines":[]},"geometry":{"type":"Point","coordinates":[27.22503,38.51877]}},{"type":"Feature","properties":{"id":"bus-365-s31966","kind":"busstop","ref":"365","name":"Sedir","lines":[]},"geometry":{"type":"Point","coordinates":[27.22151,38.51703]}},{"type":"Feature","properties":{"id":"bus-365-s31964","kind":"busstop","ref":"365","name":"Çamiçi Meydan","lines":[]},"geometry":{"type":"Point","coordinates":[27.2204,38.5152]}},{"type":"Feature","properties":{"id":"bus-365-s31962","kind":"busstop","ref":"365","name":"Çilek","lines":[]},"geometry":{"type":"Point","coordinates":[27.22186,38.51038]}},{"type":"Feature","properties":{"id":"bus-365-s31960","kind":"busstop","ref":"365","name":"Sarmaşık","lines":[]},"geometry":{"type":"Point","coordinates":[27.22029,38.50699]}},{"type":"Feature","properties":{"id":"bus-365-s31950","kind":"busstop","ref":"365","name":"Eğridere Meşe","lines":[]},"geometry":{"type":"Point","coordinates":[27.21838,38.50485]}},{"type":"Feature","properties":{"id":"bus-365-s31958","kind":"busstop","ref":"365","name":"Palamut","lines":[]},"geometry":{"type":"Point","coordinates":[27.22001,38.50146]}},{"type":"Feature","properties":{"id":"bus-365-s31973","kind":"busstop","ref":"365","name":"Mezarlık","lines":[]},"geometry":{"type":"Point","coordinates":[27.21467,38.50227]}},{"type":"Feature","properties":{"id":"bus-365-s31975","kind":"busstop","ref":"365","name":"Yamaç","lines":[]},"geometry":{"type":"Point","coordinates":[27.21195,38.50379]}},{"type":"Feature","properties":{"id":"bus-365-s32327","kind":"busstop","ref":"365","name":"Eğridere Çam","lines":[]},"geometry":{"type":"Point","coordinates":[27.21115,38.50498]}},{"type":"Feature","properties":{"id":"bus-365-s31977","kind":"busstop","ref":"365","name":"Bahçe","lines":[]},"geometry":{"type":"Point","coordinates":[27.2102,38.50855]}},{"type":"Feature","properties":{"id":"bus-365-s31979","kind":"busstop","ref":"365","name":"Papatya","lines":[]},"geometry":{"type":"Point","coordinates":[27.2084,38.50939]}},{"type":"Feature","properties":{"id":"bus-365-s31980","kind":"busstop","ref":"365","name":"Yukarı Mahalle Cami","lines":[]},"geometry":{"type":"Point","coordinates":[27.20784,38.51075]}},{"type":"Feature","properties":{"id":"bus-365-s31978","kind":"busstop","ref":"365","name":"Papatya","lines":[]},"geometry":{"type":"Point","coordinates":[27.20837,38.50927]}},{"type":"Feature","properties":{"id":"bus-365-s31976","kind":"busstop","ref":"365","name":"Bahçe","lines":[]},"geometry":{"type":"Point","coordinates":[27.21003,38.50852]}},{"type":"Feature","properties":{"id":"bus-365-s32328","kind":"busstop","ref":"365","name":"Eğridere Çam","lines":[]},"geometry":{"type":"Point","coordinates":[27.21099,38.50471]}},{"type":"Feature","properties":{"id":"bus-365-s31974","kind":"busstop","ref":"365","name":"Yamaç","lines":[]},"geometry":{"type":"Point","coordinates":[27.21219,38.50375]}},{"type":"Feature","properties":{"id":"bus-365-s31972","kind":"busstop","ref":"365","name":"Mezarlık","lines":[]},"geometry":{"type":"Point","coordinates":[27.21474,38.5022]}},{"type":"Feature","properties":{"id":"bus-365-s32477","kind":"busstop","ref":"365","name":"Eğridere Meydan","lines":[]},"geometry":{"type":"Point","coordinates":[27.21642,38.50122]}},{"type":"Feature","properties":{"id":"bus-365-s31956","kind":"busstop","ref":"365","name":"Eğridere Meydan","lines":[]},"geometry":{"type":"Point","coordinates":[27.2168,38.50098]}},{"type":"Feature","properties":{"id":"bus-365-s31954","kind":"busstop","ref":"365","name":"Kiraz","lines":[]},"geometry":{"type":"Point","coordinates":[27.2169,38.49803]}},{"type":"Feature","properties":{"id":"bus-365-s31952","kind":"busstop","ref":"365","name":"Defne","lines":[]},"geometry":{"type":"Point","coordinates":[27.2173,38.49264]}},{"type":"Feature","properties":{"id":"bus-365-s31364","kind":"busstop","ref":"365","name":"Evka 4 Muhtarlık","lines":["168","249","565","566","568","585"]},"geometry":{"type":"Point","coordinates":[27.2149,38.4903]}},{"type":"Feature","properties":{"id":"bus-365-s31362","kind":"busstop","ref":"365","name":"Yeditepe İtfaiye","lines":["168","249","565","566","568"]},"geometry":{"type":"Point","coordinates":[27.21429,38.48832]}},{"type":"Feature","properties":{"id":"bus-365-s31360","kind":"busstop","ref":"365","name":"Depo","lines":["168","249","565","566","568"]},"geometry":{"type":"Point","coordinates":[27.21643,38.48784]}},{"type":"Feature","properties":{"id":"bus-365-s31358","kind":"busstop","ref":"365","name":"Nedim Dağtaş","lines":["168","249","565","566","568"]},"geometry":{"type":"Point","coordinates":[27.21793,38.48517]}},{"type":"Feature","properties":{"id":"bus-365-s31304","kind":"busstop","ref":"365","name":"Vecihi Hürkuş","lines":["566"]},"geometry":{"type":"Point","coordinates":[27.21847,38.48076]}},{"type":"Feature","properties":{"id":"bus-365-s31306","kind":"busstop","ref":"365","name":"Gayrettepe Cami","lines":["566"]},"geometry":{"type":"Point","coordinates":[27.21892,38.47783]}},{"type":"Feature","properties":{"id":"bus-365-s31302","kind":"busstop","ref":"365","name":"Toprak Yol","lines":["565","566","584","585"]},"geometry":{"type":"Point","coordinates":[27.2181,38.47449]}},{"type":"Feature","properties":{"id":"bus-365-s31300","kind":"busstop","ref":"365","name":"Lale Tepe Cami","lines":["565","566","584","585"]},"geometry":{"type":"Point","coordinates":[27.21876,38.47272]}},{"type":"Feature","properties":{"id":"bus-365-s31298","kind":"busstop","ref":"365","name":"Malazgirt İlköğretim Okulu","lines":["565","566","584","585"]},"geometry":{"type":"Point","coordinates":[27.2199,38.47074]}},{"type":"Feature","properties":{"id":"bus-365-s32268","kind":"busstop","ref":"365","name":"Yıkık Minare Cami","lines":["565","566","584","585"]},"geometry":{"type":"Point","coordinates":[27.22252,38.46969]}},{"type":"Feature","properties":{"id":"bus-365-s31292","kind":"busstop","ref":"365","name":"Erzene Muhtarlık","lines":["565","566","584","585"]},"geometry":{"type":"Point","coordinates":[27.21935,38.46672]}},{"type":"Feature","properties":{"id":"bus-365-s31280","kind":"busstop","ref":"365","name":"Rektörlük","lines":["214","313","314","328","330","338","515","559","565","566","568","570","584","585","930","963"]},"geometry":{"type":"Point","coordinates":[27.2193,38.4624]}},{"type":"Feature","properties":{"id":"bus-365-s31282","kind":"busstop","ref":"365","name":"Suphi Koyuncu","lines":["214","313","314","328","330","338","515","559","963"]},"geometry":{"type":"Point","coordinates":[27.2248,38.4624]}},{"type":"Feature","properties":{"id":"bus-365-s31773","kind":"busstop","ref":"365","name":"Evka 3 Aktarma Merkezi","lines":["315","316","515"]},"geometry":{"type":"Point","coordinates":[27.22856,38.46566]}},{"type":"Feature","properties":{"id":"bus-365-s31285","kind":"busstop","ref":"365","name":"Suphi Koyuncu","lines":["214","328","330","515","559","565","566","568","570","584","585","930","963"]},"geometry":{"type":"Point","coordinates":[27.2241,38.4632]}},{"type":"Feature","properties":{"id":"bus-365-s31289","kind":"busstop","ref":"365","name":"Ata","lines":["214","314","328","330","515","559","565","566","568","570","584","585","930","963"]},"geometry":{"type":"Point","coordinates":[27.2232,38.4646]}},{"type":"Feature","properties":{"id":"bus-365-s31295","kind":"busstop","ref":"365","name":"Hükümet Konağı","lines":["498","565","566","584","585"]},"geometry":{"type":"Point","coordinates":[27.21963,38.46679]}},{"type":"Feature","properties":{"id":"bus-365-s32428","kind":"busstop","ref":"365","name":"Dumlupınar","lines":["498","565","566","584","585"]},"geometry":{"type":"Point","coordinates":[27.21964,38.46908]}},{"type":"Feature","properties":{"id":"bus-365-s31299","kind":"busstop","ref":"365","name":"Malazgirt İlköğretim Okulu","lines":["565","566","584","585"]},"geometry":{"type":"Point","coordinates":[27.22008,38.47074]}},{"type":"Feature","properties":{"id":"bus-365-s31301","kind":"busstop","ref":"365","name":"Lale Tepe Cami","lines":["565","566","584","585"]},"geometry":{"type":"Point","coordinates":[27.2187,38.4729]}},{"type":"Feature","properties":{"id":"bus-365-s31303","kind":"busstop","ref":"365","name":"Toprak Yol","lines":["565","566","584","585"]},"geometry":{"type":"Point","coordinates":[27.21824,38.47447]}},{"type":"Feature","properties":{"id":"bus-365-s31307","kind":"busstop","ref":"365","name":"Gayrettepe Cami","lines":["566"]},"geometry":{"type":"Point","coordinates":[27.21921,38.47795]}},{"type":"Feature","properties":{"id":"bus-365-s31305","kind":"busstop","ref":"365","name":"Vecihi Hürkuş","lines":["566"]},"geometry":{"type":"Point","coordinates":[27.21861,38.48083]}},{"type":"Feature","properties":{"id":"bus-365-s31359","kind":"busstop","ref":"365","name":"Nedim Dağtaş","lines":["168","249","565","566","568"]},"geometry":{"type":"Point","coordinates":[27.21813,38.48489]}},{"type":"Feature","properties":{"id":"bus-365-s31361","kind":"busstop","ref":"365","name":"Evka 4 Depo","lines":["168","249","565","566","568"]},"geometry":{"type":"Point","coordinates":[27.21622,38.48796]}},{"type":"Feature","properties":{"id":"bus-365-s31365","kind":"busstop","ref":"365","name":"Evka 4 Muhtarlık","lines":["168","249","565","566","568"]},"geometry":{"type":"Point","coordinates":[27.2148,38.4892]}},{"type":"Feature","properties":{"id":"bus-365-s31953","kind":"busstop","ref":"365","name":"Defne","lines":[]},"geometry":{"type":"Point","coordinates":[27.21737,38.49218]}},{"type":"Feature","properties":{"id":"bus-365-s31955","kind":"busstop","ref":"365","name":"Kiraz","lines":[]},"geometry":{"type":"Point","coordinates":[27.21727,38.4966]}},{"type":"Feature","properties":{"id":"bus-365-s31957","kind":"busstop","ref":"365","name":"Eğridere Meydan","lines":[]},"geometry":{"type":"Point","coordinates":[27.21693,38.50108]}},{"type":"Feature","properties":{"id":"bus-365-s31959","kind":"busstop","ref":"365","name":"Palamut","lines":[]},"geometry":{"type":"Point","coordinates":[27.22023,38.50155]}},{"type":"Feature","properties":{"id":"bus-365-s31951","kind":"busstop","ref":"365","name":"Eğridere Meşe","lines":[]},"geometry":{"type":"Point","coordinates":[27.21819,38.50506]}},{"type":"Feature","properties":{"id":"bus-365-s31961","kind":"busstop","ref":"365","name":"Sarmaşık","lines":[]},"geometry":{"type":"Point","coordinates":[27.2205,38.5072]}},{"type":"Feature","properties":{"id":"bus-365-s31963","kind":"busstop","ref":"365","name":"Çilek","lines":[]},"geometry":{"type":"Point","coordinates":[27.22209,38.51027]}},{"type":"Feature","properties":{"id":"bus-365-s31965","kind":"busstop","ref":"365","name":"Çamiçi Meydan","lines":[]},"geometry":{"type":"Point","coordinates":[27.22037,38.51527]}},{"type":"Feature","properties":{"id":"bus-365-s31967","kind":"busstop","ref":"365","name":"Sedir","lines":[]},"geometry":{"type":"Point","coordinates":[27.22174,38.51699]}},{"type":"Feature","properties":{"id":"bus-365-s31971","kind":"busstop","ref":"365","name":"Homeros Piknik Alanı","lines":[]},"geometry":{"type":"Point","coordinates":[27.22486,38.51869]}},{"type":"Feature","properties":{"id":"bus-365-s32377","kind":"busstop","ref":"365","name":"Kayadibi Giriş","lines":[]},"geometry":{"type":"Point","coordinates":[27.2305,38.51628]}},{"type":"Feature","properties":{"id":"bus-365-s31969","kind":"busstop","ref":"365","name":"Kayadibi","lines":[]},"geometry":{"type":"Point","coordinates":[27.23664,38.51713]}}]}