{"type":"FeatureCollection","features":[{"type":"Feature","properties":{"id":"bus-374-1","kind":"busline","ref":"374","dir":1},"geometry":{"type":"LineString","coordinates":[[27.2003,38.4019],[27.1986,38.4029],[27.1965,38.4036],[27.1957,38.4032],[27.1954,38.403],[27.1965,38.402],[27.194,38.3991],[27.192,38.4001],[27.1906,38.3984],[27.1895,38.3988],[27.1881,38.3978],[27.1865,38.3974],[27.1866,38.3964],[27.1873,38.3957],[27.1855,38.3942],[27.1848,38.3942],[27.1843,38.3947],[27.1808,38.3959],[27.1798,38.3965],[27.1783,38.3978],[27.1761,38.3975],[27.1749,38.397],[27.1729,38.3984],[27.1719,38.3985],[27.1691,38.3969],[27.1673,38.3969],[27.1666,38.3931],[27.1657,38.3909],[27.1651,38.3902],[27.1524,38.3919],[27.1495,38.3929],[27.1489,38.3934],[27.1468,38.3931],[27.1422,38.3935],[27.1402,38.3942],[27.1359,38.3949],[27.1326,38.3969],[27.1318,38.398],[27.1294,38.4041],[27.1285,38.4058],[27.1284,38.4077],[27.1289,38.4086],[27.1288,38.4108],[27.1279,38.4115],[27.1275,38.4123],[27.1277,38.4125],[27.1281,38.4121],[27.1284,38.4121],[27.1284,38.4123],[27.1269,38.4134],[27.1262,38.4136],[27.1282,38.4133],[27.1289,38.4137],[27.129,38.4144],[27.1275,38.4163],[27.1266,38.4168],[27.1269,38.4166]]}},{"type":"Feature","properties":{"id":"bus-374-2","kind":"busline","ref":"374","dir":2},"geometry":{"type":"LineString","coordinates":[[27.1269,38.4166],[27.1276,38.4161],[27.1265,38.4169],[27.1265,38.4172],[27.1278,38.419],[27.1283,38.4204],[27.1289,38.4211],[27.1305,38.4219],[27.131,38.4224],[27.1375,38.4225],[27.1369,38.4204],[27.1368,38.4184],[27.1366,38.4177],[27.1355,38.4166],[27.1337,38.4137],[27.132,38.413],[27.1307,38.412],[27.1289,38.4111],[27.1287,38.4107],[27.1288,38.4087],[27.1284,38.4082],[27.1282,38.4069],[27.1286,38.4052],[27.1294,38.4038],[27.1314,38.3985],[27.1322,38.3972],[27.1331,38.3964],[27.1359,38.3948],[27.1397,38.3942],[27.1411,38.3936],[27.1485,38.393],[27.1523,38.3919],[27.1652,38.3901],[27.1663,38.3923],[27.167,38.3948],[27.1688,38.3946],[27.1692,38.3944],[27.1694,38.3971],[27.1719,38.3985],[27.173,38.3983],[27.1749,38.3967],[27.1754,38.3972],[27.1761,38.3975],[27.1783,38.3978],[27.1798,38.3965],[27.1808,38.3959],[27.1839,38.3948],[27.1846,38.3942],[27.1856,38.394],[27.1875,38.3957],[27.1867,38.3962],[27.1865,38.3974],[27.1881,38.3978],[27.1895,38.3988],[27.1907,38.3984],[27.1921,38.4],[27.194,38.3991],[27.1965,38.402],[27.1954,38.403],[27.1957,38.4032],[27.1965,38.4036],[27.1986,38.4029],[27.2003,38.4019]]}},{"type":"Feature","properties":{"id":"bus-374-s40661","kind":"busstop","ref":"374","name":"İzmir Tınaztepe Üniversitesi","lines":["104","284","285","475","866","874","875","876"]},"geometry":{"type":"Point","coordinates":[27.2003,38.4019]}},{"type":"Feature","properties":{"id":"bus-374-s40658","kind":"busstop","ref":"374","name":"Mursal Meydanı","lines":["104","284","285","866","874"]},"geometry":{"type":"Point","coordinates":[27.19883,38.4029]}},{"type":"Feature","properties":{"id":"bus-374-s40656","kind":"busstop","ref":"374","name":"Şehit Polis Cebrail Aksöz","lines":["104","284","285","866","874"]},"geometry":{"type":"Point","coordinates":[27.19663,38.40357]}},{"type":"Feature","properties":{"id":"bus-374-s40645","kind":"busstop","ref":"374","name":"Buca İlçe Halk Kütüphanesi","lines":["104","284","285","866","874"]},"geometry":{"type":"Point","coordinates":[27.19616,38.40222]}},{"type":"Feature","properties":{"id":"bus-374-s40640","kind":"busstop","ref":"374","name":"Mimar Kemalettin İlkokulu","lines":["874"]},"geometry":{"type":"Point","coordinates":[27.1947,38.4]}},{"type":"Feature","properties":{"id":"bus-374-s40612","kind":"busstop","ref":"374","name":"Yedi Göller İş Merkezi","lines":["874"]},"geometry":{"type":"Point","coordinates":[27.19266,38.39976]}},{"type":"Feature","properties":{"id":"bus-374-s40608","kind":"busstop","ref":"374","name":"İzkent 1","lines":[]},"geometry":{"type":"Point","coordinates":[27.1912,38.3991]}},{"type":"Feature","properties":{"id":"bus-374-s40602","kind":"busstop","ref":"374","name":"İzkent Mahalle Muhtarlığı","lines":[]},"geometry":{"type":"Point","coordinates":[27.1897,38.3987]}},{"type":"Feature","properties":{"id":"bus-374-s40600","kind":"busstop","ref":"374","name":"İzkent Depo","lines":["874"]},"geometry":{"type":"Point","coordinates":[27.18806,38.39786]}},{"type":"Feature","properties":{"id":"bus-374-s40598","kind":"busstop","ref":"374","name":"Güneş","lines":["874"]},"geometry":{"type":"Point","coordinates":[27.18698,38.39589]}},{"type":"Feature","properties":{"id":"bus-374-s40527","kind":"busstop","ref":"374","name":"Yedi Göller","lines":["874"]},"geometry":{"type":"Point","coordinates":[27.185,38.3942]}},{"type":"Feature","properties":{"id":"bus-374-s41427","kind":"busstop","ref":"374","name":"Pazaryeri","lines":["874"]},"geometry":{"type":"Point","coordinates":[27.18244,38.3954]}},{"type":"Feature","properties":{"id":"bus-374-s40524","kind":"busstop","ref":"374","name":"Buca Tütün İhracatçıları Birliği İlkokulu","lines":["874"]},"geometry":{"type":"Point","coordinates":[27.18,38.3964]}},{"type":"Feature","properties":{"id":"bus-374-s40522","kind":"busstop","ref":"374","name":"Dokuz Eylül Öğrenci Yurdu","lines":["874","876"]},"geometry":{"type":"Point","coordinates":[27.1771,38.3976]}},{"type":"Feature","properties":{"id":"bus-374-s40506","kind":"busstop","ref":"374","name":" Süleyman Şah Mesleki ve Teknik Anadolu Lisesi","lines":["284","285","874","875"]},"geometry":{"type":"Point","coordinates":[27.17384,38.39774]}},{"type":"Feature","properties":{"id":"bus-374-s40504","kind":"busstop","ref":"374","name":"Evka 1 Çeşme","lines":["284","285","874","875"]},"geometry":{"type":"Point","coordinates":[27.171,38.3981]}},{"type":"Feature","properties":{"id":"bus-374-s40488","kind":"busstop","ref":"374","name":"Evka 1 İtfaiye","lines":["284","285","874","875"]},"geometry":{"type":"Point","coordinates":[27.1684,38.3969]}},{"type":"Feature","properties":{"id":"bus-374-s40464","kind":"busstop","ref":"374","name":"Hüdaverdi Cami","lines":["284","285","874","875"]},"geometry":{"type":"Point","coordinates":[27.167,38.3952]}},{"type":"Feature","properties":{"id":"bus-374-s40462","kind":"busstop","ref":"374","name":"Çakıl","lines":["285","874","875","876"]},"geometry":{"type":"Point","coordinates":[27.166,38.3918]}},{"type":"Feature","properties":{"id":"bus-374-s40016","kind":"busstop","ref":"374","name":"Buca Belediye Sarayı","lines":["104","206","285","303","304","470","476","490","515","536","676","805","874","875","876","940"]},"geometry":{"type":"Point","coordinates":[27.1634,38.3905]}},{"type":"Feature","properties":{"id":"bus-374-s40014","kind":"busstop","ref":"374","name":"Buca Vergi Dairesi","lines":["104","206","285","303","304","470","476","490","515","536","676","805","874","875","876","940"]},"geometry":{"type":"Point","coordinates":[27.1604,38.3909]}},{"type":"Feature","properties":{"id":"bus-374-s40012","kind":"busstop","ref":"374","name":"Yeni Mahalle","lines":["104","206","285","303","304","470","476","490","515","536","676","805","874","875","876","940"]},"geometry":{"type":"Point","coordinates":[27.1571,38.3913]}},{"type":"Feature","properties":{"id":"bus-374-s40010","kind":"busstop","ref":"374","name":"Şirinyer PTT","lines":["72","104","206","285","303","304","441","470","472","476","490","515","536","676","805","871","874","875","876","940"]},"geometry":{"type":"Point","coordinates":[27.1534,38.3918]}},{"type":"Feature","properties":{"id":"bus-374-s40004","kind":"busstop","ref":"374","name":"Şirinyer Merkez","lines":["72","104","206","285","465","470","471","485","490","515","940"]},"geometry":{"type":"Point","coordinates":[27.14808,38.39327]}},{"type":"Feature","properties":{"id":"bus-374-s40002","kind":"busstop","ref":"374","name":"Nato","lines":["72","104","285","465","470","471","485","490","515","940"]},"geometry":{"type":"Point","coordinates":[27.1415,38.3938]}},{"type":"Feature","properties":{"id":"bus-374-s12070","kind":"busstop","ref":"374","name":"Şelale Parkı","lines":["72","104","105","171","233","234","285","465","470","471","484","490","940"]},"geometry":{"type":"Point","coordinates":[27.134,38.396]}},{"type":"Feature","properties":{"id":"bus-374-s12068","kind":"busstop","ref":"374","name":"Konak Anadolu Lisesi","lines":["72","104","105","171","233","234","285","465","470","471","484","485","490","940"]},"geometry":{"type":"Point","coordinates":[27.1321,38.3978]}},{"type":"Feature","properties":{"id":"bus-374-s12064","kind":"busstop","ref":"374","name":"Yağhaneler 2","lines":["72","104","105","171","233","234","285","465","470","471","484","485","490","940"]},"geometry":{"type":"Point","coordinates":[27.1306,38.4011]}},{"type":"Feature","properties":{"id":"bus-374-s12066","kind":"busstop","ref":"374","name":"Arap Cami","lines":["33","72","104","105","171","233","285","465","471","484","485","940"]},"geometry":{"type":"Point","coordinates":[27.12859,38.40571]}},{"type":"Feature","properties":{"id":"bus-374-s12058","kind":"busstop","ref":"374","name":"Eşrefpaşa","lines":["23","29","30","32","33","72","104","105","157","171","193","224","233","285","465","471","484","485","940"]},"geometry":{"type":"Point","coordinates":[27.1288,38.4083]}},{"type":"Feature","properties":{"id":"bus-374-s10240","kind":"busstop","ref":"374","name":"Kız Yurdu","lines":["15","18","19","20","23","29","30","32","33","72","104","105","152","157","171","193","224","233","285","465","471","484","485","508","550","587","588","887"]},"geometry":{"type":"Point","coordinates":[27.12721,38.41322]}},{"type":"Feature","properties":{"id":"bus-374-s15531","kind":"busstop","ref":"374","name":"Konak","lines":["285"]},"geometry":{"type":"Point","coordinates":[27.12693,38.41667]}},{"type":"Feature","properties":{"id":"bus-374-s10119","kind":"busstop","ref":"374","name":"Kavaflar","lines":["72","104","105","171","285","465","471","484","485","811"]},"geometry":{"type":"Point","coordinates":[27.1365,38.4224]}},{"type":"Feature","properties":{"id":"bus-374-s10231","kind":"busstop","ref":"374","name":"Kestelli","lines":["18","19","20","23","72","104","105","171","234","285","465","470","471","484","485","680","681","691","811","910","940","950"]},"geometry":{"type":"Point","coordinates":[27.1348,38.4156]}},{"type":"Feature","properties":{"id":"bus-374-s10235","kind":"busstop","ref":"374","name":"Koruluk","lines":["23","72","104","105","171","234","285","465","470","471","484","485","680","691","910","940","950"]},"geometry":{"type":"Point","coordinates":[27.1309,38.4123]}},{"type":"Feature","properties":{"id":"bus-374-s12057","kind":"busstop","ref":"374","name":"Eşrefpaşa","lines":["72","104","105","171","233","234","285","465","470","471","484","485","940"]},"geometry":{"type":"Point","coordinates":[27.1285,38.4081]}},{"type":"Feature","properties":{"id":"bus-374-s12065","kind":"busstop","ref":"374","name":"Yağhaneler 2","lines":["72","104","105","171","233","234","285","465","470","471","484","485","940"]},"geometry":{"type":"Point","coordinates":[27.13044,38.40104]}},{"type":"Feature","properties":{"id":"bus-374-s12069","kind":"busstop","ref":"374","name":"Konak Anadolu Lisesi","lines":["72","104","105","171","233","234","285","465","470","471","484","485","940"]},"geometry":{"type":"Point","coordinates":[27.1312,38.399]}},{"type":"Feature","properties":{"id":"bus-374-s12071","kind":"busstop","ref":"374","name":"Şelale Parkı","lines":["72","104","105","171","233","234","285","465","470","471","484","485","940"]},"geometry":{"type":"Point","coordinates":[27.13419,38.39567]}},{"type":"Feature","properties":{"id":"bus-374-s40001","kind":"busstop","ref":"374","name":"Nato","lines":["72","104","285","465","470","471","485","490","515","671","940"]},"geometry":{"type":"Point","coordinates":[27.1434,38.3933]}},{"type":"Feature","properties":{"id":"bus-374-s40009","kind":"busstop","ref":"374","name":"Şirinyer Pazar Yeri","lines":["72","74","206","285","303","304","441","472","476","485","536","676","805","838","866","871","874","875","876"]},"geometry":{"type":"Point","coordinates":[27.1499,38.3926]}},{"type":"Feature","properties":{"id":"bus-374-s40011","kind":"busstop","ref":"374","name":"Yeni Mahalle","lines":["104","206","285","303","304","470","476","490","515","536","676","805","874","875","876","940"]},"geometry":{"type":"Point","coordinates":[27.1564,38.3913]}},{"type":"Feature","properties":{"id":"bus-374-s40013","kind":"busstop","ref":"374","name":"Buca Vergi Dairesi","lines":["104","206","285","303","304","470","476","490","515","536","676","805","874","875","876","940"]},"geometry":{"type":"Point","coordinates":[27.1594,38.3909]}},{"type":"Feature","properties":{"id":"bus-374-s40015","kind":"busstop","ref":"374","name":"Buca Belediye Sarayı","lines":["104","206","285","303","304","470","476","490","515","536","676","805","874","875","876","940"]},"geometry":{"type":"Point","coordinates":[27.163,38.3904]}},{"type":"Feature","properties":{"id":"bus-374-s40461","kind":"busstop","ref":"374","name":"Çakıl","lines":["285","874","875","876"]},"geometry":{"type":"Point","coordinates":[27.16625,38.3919]}},{"type":"Feature","properties":{"id":"bus-374-s40475","kind":"busstop","ref":"374","name":"Hüdaverdi Cami","lines":["284","285","874","875"]},"geometry":{"type":"Point","coordinates":[27.1676,38.3947]}},{"type":"Feature","properties":{"id":"bus-374-s40503","kind":"busstop","ref":"374","name":"Evka 1 İtfaiye","lines":["284","285","874","875"]},"geometry":{"type":"Point","coordinates":[27.1693,38.3961]}},{"type":"Feature","properties":{"id":"bus-374-s40505","kind":"busstop","ref":"374","name":"Evka 1 Ceşme","lines":["284","285","874","875"]},"geometry":{"type":"Point","coordinates":[27.1706,38.3979]}},{"type":"Feature","properties":{"id":"bus-374-s40507","kind":"busstop","ref":"374","name":" Süleyman Şah Mesleki ve Teknik Anadolu Lisesi","lines":["284","285","874","875"]},"geometry":{"type":"Point","coordinates":[27.1745,38.3971]}},{"type":"Feature","properties":{"id":"bus-374-s40523","kind":"busstop","ref":"374","name":"Dokuz Eylül Öğrenci Yurdu","lines":["874","876"]},"geometry":{"type":"Point","coordinates":[27.177,38.3976]}},{"type":"Feature","properties":{"id":"bus-374-s41401","kind":"busstop","ref":"374","name":"Buca Tütün İhracatçıları Birliği İlkokulu","lines":["874"]},"geometry":{"type":"Point","coordinates":[27.17951,38.39671]}},{"type":"Feature","properties":{"id":"bus-374-s41426","kind":"busstop","ref":"374","name":"Pazaryeri","lines":["874"]},"geometry":{"type":"Point","coordinates":[27.18203,38.39538]}},{"type":"Feature","properties":{"id":"bus-374-s40526","kind":"busstop","ref":"374","name":"Yedi Göller","lines":["874"]},"geometry":{"type":"Point","coordinates":[27.185,38.3941]}},{"type":"Feature","properties":{"id":"bus-374-s40599","kind":"busstop","ref":"374","name":"Güneş","lines":["874"]},"geometry":{"type":"Point","coordinates":[27.18701,38.39601]}},{"type":"Feature","properties":{"id":"bus-374-s40601","kind":"busstop","ref":"374","name":"İzkent Depo","lines":["874"]},"geometry":{"type":"Point","coordinates":[27.1884,38.3979]}},{"type":"Feature","properties":{"id":"bus-374-s40603","kind":"busstop","ref":"374","name":"İzkent Mahalle Muhtarlığı","lines":[]},"geometry":{"type":"Point","coordinates":[27.1899,38.3986]}},{"type":"Feature","properties":{"id":"bus-374-s41400","kind":"busstop","ref":"374","name":"İzkent 1","lines":[]},"geometry":{"type":"Point","coordinates":[27.19132,38.39893]}},{"type":"Feature","properties":{"id":"bus-374-s40611","kind":"busstop","ref":"374","name":"Yedi Göller İş Merkezi","lines":["874"]},"geometry":{"type":"Point","coordinates":[27.1927,38.3997]}},{"type":"Feature","properties":{"id":"bus-374-s40641","kind":"busstop","ref":"374","name":"Mimar Kemalettin İlkokulu","lines":["874"]},"geometry":{"type":"Point","coordinates":[27.1948,38.4]}},{"type":"Feature","properties":{"id":"bus-374-s40644","kind":"busstop","ref":"374","name":"Buca İlçe Halk Kütüphanesi","lines":["104","284","285","866","874"]},"geometry":{"type":"Point","coordinates":[27.19618,38.40234]}},{"type":"Feature","properties":{"id":"bus-374-s40657","kind":"busstop","ref":"374","name":"Şehit Polis Cebrail Aksöz","lines":["104","284","285","866","874"]},"geometry":{"type":"Point","coordinates":[27.19687,38.40335]}},{"type":"Feature","properties":{"id":"bus-374-s40659","kind":"busstop","ref":"374","name":"Mursal Meydanı","lines":["104","284","285","866","874"]},"geometry":{"type":"Point","coordinates":[27.19869,38.40281]}}]}