{"type":"FeatureCollection","features":[{"type":"Feature","properties":{"id":"bus-39-1","kind":"busline","ref":"39","dir":1},"geometry":{"type":"LineString","coordinates":[[27.1597,38.4076],[27.1598,38.4077],[27.1591,38.4065],[27.1587,38.4065],[27.1577,38.4059],[27.1559,38.4054],[27.1554,38.4048],[27.1555,38.4047],[27.1559,38.405],[27.1599,38.406],[27.1604,38.4064],[27.1607,38.4064],[27.1606,38.4068],[27.1612,38.4069],[27.1613,38.4073],[27.1615,38.4074],[27.1615,38.4091],[27.1618,38.4091],[27.1614,38.4098],[27.1607,38.41],[27.1605,38.4097],[27.1592,38.4096],[27.1582,38.4092],[27.1595,38.4102],[27.1603,38.4123],[27.161,38.4127],[27.1613,38.4131],[27.1611,38.4137],[27.1605,38.4143],[27.1578,38.4186],[27.1566,38.4221],[27.1565,38.422],[27.1563,38.4225],[27.1564,38.4227],[27.1591,38.4233],[27.1521,38.4221],[27.1477,38.4225],[27.1436,38.4221],[27.1433,38.4228],[27.1433,38.424],[27.1431,38.4241],[27.1426,38.4241],[27.1421,38.4237],[27.1329,38.4244],[27.1319,38.4225],[27.1322,38.423]]}},{"type":"Feature","properties":{"id":"bus-39-2","kind":"busline","ref":"39","dir":2},"geometry":{"type":"LineString","coordinates":[[27.1327,38.4239],[27.1319,38.4225],[27.1428,38.4225],[27.1435,38.4221],[27.1474,38.4225],[27.1521,38.422],[27.1582,38.4231],[27.1585,38.4224],[27.1566,38.4221],[27.1564,38.4219],[27.1583,38.4177],[27.1613,38.4132],[27.161,38.4127],[27.1603,38.4123],[27.1595,38.4102],[27.1582,38.4092],[27.1592,38.4096],[27.1605,38.4097],[27.1607,38.41],[27.1614,38.4098],[27.1618,38.4091],[27.1615,38.4091],[27.1615,38.4074],[27.1613,38.4073],[27.1612,38.4069],[27.1606,38.4068],[27.1607,38.4064],[27.1604,38.4064],[27.1599,38.406],[27.1559,38.405],[27.1555,38.4047],[27.1554,38.4048],[27.1559,38.4054],[27.1577,38.4059],[27.1587,38.4065],[27.1591,38.4065],[27.1598,38.4077],[27.1597,38.4076]]}},{"type":"Feature","properties":{"id":"bus-39-s41126","kind":"busstop","ref":"39","name":"İsmet Paşa","lines":[]},"geometry":{"type":"Point","coordinates":[27.1598,38.4076]}},{"type":"Feature","properties":{"id":"bus-39-s41124","kind":"busstop","ref":"39","name":" Rıdvan Nafiz Edgüer Ortaokulu","lines":[]},"geometry":{"type":"Point","coordinates":[27.1595,38.4069]}},{"type":"Feature","properties":{"id":"bus-39-s41122","kind":"busstop","ref":"39","name":"Çağrı","lines":[]},"geometry":{"type":"Point","coordinates":[27.1573,38.4058]}},{"type":"Feature","properties":{"id":"bus-39-s40686","kind":"busstop","ref":"39","name":"Çimenli Cami","lines":[]},"geometry":{"type":"Point","coordinates":[27.1555,38.4047]}},{"type":"Feature","properties":{"id":"bus-39-s40684","kind":"busstop","ref":"39","name":"Merdivenli Yol","lines":[]},"geometry":{"type":"Point","coordinates":[27.157,38.4052]}},{"type":"Feature","properties":{"id":"bus-39-s40682","kind":"busstop","ref":"39","name":"İsmet Paşa Muhtarlık","lines":[]},"geometry":{"type":"Point","coordinates":[27.1596,38.4059]}},{"type":"Feature","properties":{"id":"bus-39-s40680","kind":"busstop","ref":"39","name":"Düzlük","lines":[]},"geometry":{"type":"Point","coordinates":[27.16075,38.40683]}},{"type":"Feature","properties":{"id":"bus-39-s41389","kind":"busstop","ref":"39","name":"Kasap 1","lines":[]},"geometry":{"type":"Point","coordinates":[27.16169,38.40909]}},{"type":"Feature","properties":{"id":"bus-39-s41139","kind":"busstop","ref":"39","name":"Mavi Köşe","lines":["838"]},"geometry":{"type":"Point","coordinates":[27.1605,38.4098]}},{"type":"Feature","properties":{"id":"bus-39-s10581","kind":"busstop","ref":"39","name":"İsmet Paşa Sağlık Ocağı","lines":["418","466","838"]},"geometry":{"type":"Point","coordinates":[27.15961,38.41044]}},{"type":"Feature","properties":{"id":"bus-39-s10579","kind":"busstop","ref":"39","name":"Gürçeşme Cami","lines":["34","418","466","838"]},"geometry":{"type":"Point","coordinates":[27.1608,38.414]}},{"type":"Feature","properties":{"id":"bus-39-s10577","kind":"busstop","ref":"39","name":"Gürçeşme","lines":["34","418","466","838"]},"geometry":{"type":"Point","coordinates":[27.1591,38.4166]}},{"type":"Feature","properties":{"id":"bus-39-s10575","kind":"busstop","ref":"39","name":"Ülkü Sineması","lines":["34","418","466","838"]},"geometry":{"type":"Point","coordinates":[27.1578,38.4186]}},{"type":"Feature","properties":{"id":"bus-39-s13352","kind":"busstop","ref":"39","name":"Kemer Aktarma Merkezi","lines":["34","41","42","46","49","418","466","838"]},"geometry":{"type":"Point","coordinates":[27.1567,38.42159]}},{"type":"Feature","properties":{"id":"bus-39-s10358","kind":"busstop","ref":"39","name":"Kemer","lines":["34","35","36","41","42","44","45","46","49","302","466","838"]},"geometry":{"type":"Point","coordinates":[27.14892,38.42243]}},{"type":"Feature","properties":{"id":"bus-39-s10356","kind":"busstop","ref":"39","name":"Basmane Gar","lines":["34","35","36","41","42","44","45","46","49","302","466","838"]},"geometry":{"type":"Point","coordinates":[27.1448,38.4223]}},{"type":"Feature","properties":{"id":"bus-39-s10124","kind":"busstop","ref":"39","name":"Çardak 2","lines":["34","41","42","44","45","46","234"]},"geometry":{"type":"Point","coordinates":[27.13882,38.42399]}},{"type":"Feature","properties":{"id":"bus-39-s16887","kind":"busstop","ref":"39","name":"Şehit Fethibey","lines":[]},"geometry":{"type":"Point","coordinates":[27.13212,38.423]}},{"type":"Feature","properties":{"id":"bus-39-s10123","kind":"busstop","ref":"39","name":"Basmane Ptt","lines":["34","35","36","466","811","838"]},"geometry":{"type":"Point","coordinates":[27.1415,38.4224]}},{"type":"Feature","properties":{"id":"bus-39-s10357","kind":"busstop","ref":"39","name":"Basmane Gar","lines":["34","35","36","41","42","44","45","46","49","302","466","838"]},"geometry":{"type":"Point","coordinates":[27.1455,38.4224]}},{"type":"Feature","properties":{"id":"bus-39-s10361","kind":"busstop","ref":"39","name":"Kemer 2","lines":["34","36","41","42","44","45","46","466","838"]},"geometry":{"type":"Point","coordinates":[27.1506,38.422]}},{"type":"Feature","properties":{"id":"bus-39-s13351","kind":"busstop","ref":"39","name":"Kemer Aktarma Merkezi","lines":["34","41","42","46","49","418","466","838"]},"geometry":{"type":"Point","coordinates":[27.15657,38.42134]}},{"type":"Feature","properties":{"id":"bus-39-s10574","kind":"busstop","ref":"39","name":"Ülkü Sineması","lines":["34","418","466","838"]},"geometry":{"type":"Point","coordinates":[27.1578,38.4184]}},{"type":"Feature","properties":{"id":"bus-39-s10576","kind":"busstop","ref":"39","name":"Gürçeşme","lines":["34","418","466","838"]},"geometry":{"type":"Point","coordinates":[27.1592,38.4162]}},{"type":"Feature","properties":{"id":"bus-39-s10578","kind":"busstop","ref":"39","name":"Gürçeşme Cami","lines":["34","418","466","838"]},"geometry":{"type":"Point","coordinates":[27.1607,38.4141]}},{"type":"Feature","properties":{"id":"bus-39-s10580","kind":"busstop","ref":"39","name":"İsmet Paşa Sağlık Ocağı","lines":["418","466","838"]},"geometry":{"type":"Point","coordinates":[27.15962,38.41078]}},{"type":"Feature","properties":{"id":"bus-39-s41138","kind":"busstop","ref":"39","name":"Mavi Köşe","lines":["838"]},"geometry":{"type":"Point","coordinates":[27.1605,38.4099]}},{"type":"Feature","properties":{"id":"bus-39-s41135","kind":"busstop","ref":"39","name":"Kasap","lines":["838"]},"geometry":{"type":"Point","coordinates":[27.16152,38.40907]}},{"type":"Feature","properties":{"id":"bus-39-s40681","kind":"busstop","ref":"39","name":"Düzlük","lines":[]},"geometry":{"type":"Point","coordinates":[27.1609,38.4069]}},{"type":"Feature","properties":{"id":"bus-39-s40683","kind":"busstop","ref":"39","name":"İsmet Paşa Muhtarlık","lines":[]},"geometry":{"type":"Point","coordinates":[27.15959,38.40596]}},{"type":"Feature","properties":{"id":"bus-39-s40685","kind":"busstop","ref":"39","name":"Merdivenli Yol","lines":[]},"geometry":{"type":"Point","coordinates":[27.1574,38.4053]}},{"type":"Feature","properties":{"id":"bus-39-s40687","kind":"busstop","ref":"39","name":"Çimenli Cami","lines":[]},"geometry":{"type":"Point","coordinates":[27.1556,38.4048]}},{"type":"Feature","properties":{"id":"bus-39-s41123","kind":"busstop","ref":"39","name":"Çağrı","lines":[]},"geometry":{"type":"Point","coordinates":[27.1571,38.4056]}},{"type":"Feature","properties":{"id":"bus-39-s41125","kind":"busstop","ref":"39","name":" Rıdvan Nafiz Edgüer Ortaokulu","lines":[]},"geometry":{"type":"Point","coordinates":[27.1593,38.4067]}}]}