{"type":"FeatureCollection","features":[{"type":"Feature","properties":{"id":"bus-41-1","kind":"busline","ref":"41","dir":1},"geometry":{"type":"LineString","coordinates":[[27.1663,38.4131],[27.1659,38.4138],[27.1659,38.4163],[27.1665,38.4186],[27.1676,38.4205],[27.1656,38.4203],[27.1624,38.4194],[27.1577,38.419],[27.1563,38.4226],[27.1581,38.423],[27.159,38.423],[27.1591,38.4233],[27.1521,38.4221],[27.1477,38.4225],[27.1436,38.4221],[27.1433,38.4228],[27.1433,38.424],[27.1431,38.4241],[27.1426,38.4241],[27.1421,38.4237],[27.1329,38.4244],[27.1319,38.4225],[27.1321,38.4228]]}},{"type":"Feature","properties":{"id":"bus-41-2","kind":"busline","ref":"41","dir":2},"geometry":{"type":"LineString","coordinates":[[27.1323,38.4232],[27.1327,38.4239],[27.1319,38.4225],[27.1428,38.4225],[27.1435,38.4221],[27.1474,38.4225],[27.1519,38.422],[27.1582,38.4231],[27.1585,38.4224],[27.1566,38.4221],[27.1564,38.4219],[27.1577,38.419],[27.1624,38.4194],[27.1656,38.4203],[27.1676,38.4205],[27.1665,38.4186],[27.1659,38.4163],[27.1659,38.4138],[27.1663,38.4131]]}},{"type":"Feature","properties":{"id":"bus-41-s11952","kind":"busstop","ref":"41","name":"Levent","lines":["42","46"]},"geometry":{"type":"Point","coordinates":[27.1663,38.4131]}},{"type":"Feature","properties":{"id":"bus-41-s11942","kind":"busstop","ref":"41","name":"Levent Depo","lines":["42","46"]},"geometry":{"type":"Point","coordinates":[27.1659,38.4155]}},{"type":"Feature","properties":{"id":"bus-41-s11940","kind":"busstop","ref":"41","name":"Levent Çeşme","lines":["42","46"]},"geometry":{"type":"Point","coordinates":[27.16656,38.41851]}},{"type":"Feature","properties":{"id":"bus-41-s11937","kind":"busstop","ref":"41","name":"Barbaros Hayrettin İlkokulu","lines":["42","46"]},"geometry":{"type":"Point","coordinates":[27.1675,38.4202]}},{"type":"Feature","properties":{"id":"bus-41-s11932","kind":"busstop","ref":"41","name":"Zeytinlik","lines":["42","46","49"]},"geometry":{"type":"Point","coordinates":[27.16275,38.41957]}},{"type":"Feature","properties":{"id":"bus-41-s11930","kind":"busstop","ref":"41","name":"Hacı Bayram Cami","lines":["42","46","49"]},"geometry":{"type":"Point","coordinates":[27.15969,38.41918]}},{"type":"Feature","properties":{"id":"bus-41-s13352","kind":"busstop","ref":"41","name":"Kemer Aktarma Merkezi","lines":["34","39","42","46","49","418","466","838"]},"geometry":{"type":"Point","coordinates":[27.1567,38.42159]}},{"type":"Feature","properties":{"id":"bus-41-s10358","kind":"busstop","ref":"41","name":"Kemer","lines":["34","35","36","39","42","44","45","46","49","302","466","838"]},"geometry":{"type":"Point","coordinates":[27.14892,38.42243]}},{"type":"Feature","properties":{"id":"bus-41-s10356","kind":"busstop","ref":"41","name":"Basmane Gar","lines":["34","35","36","39","42","44","45","46","49","302","466","838"]},"geometry":{"type":"Point","coordinates":[27.1448,38.4223]}},{"type":"Feature","properties":{"id":"bus-41-s10124","kind":"busstop","ref":"41","name":"Çardak 2","lines":["34","39","42","44","45","46","234"]},"geometry":{"type":"Point","coordinates":[27.13882,38.42399]}},{"type":"Feature","properties":{"id":"bus-41-s10130","kind":"busstop","ref":"41","name":"Şehit Fethibey","lines":["42"]},"geometry":{"type":"Point","coordinates":[27.13204,38.42283]}},{"type":"Feature","properties":{"id":"bus-41-s10121","kind":"busstop","ref":"41","name":"Çankaya","lines":["42","44","45","46","234","302","811","951"]},"geometry":{"type":"Point","coordinates":[27.13935,38.42242]}},{"type":"Feature","properties":{"id":"bus-41-s10357","kind":"busstop","ref":"41","name":"Basmane Gar","lines":["34","35","36","39","42","44","45","46","49","302","466","838"]},"geometry":{"type":"Point","coordinates":[27.1455,38.4224]}},{"type":"Feature","properties":{"id":"bus-41-s10361","kind":"busstop","ref":"41","name":"Kemer 2","lines":["34","36","39","42","44","45","46","466","838"]},"geometry":{"type":"Point","coordinates":[27.1506,38.422]}},{"type":"Feature","properties":{"id":"bus-41-s13351","kind":"busstop","ref":"41","name":"Kemer Aktarma Merkezi","lines":["34","39","42","46","49","418","466","838"]},"geometry":{"type":"Point","coordinates":[27.15657,38.42134]}},{"type":"Feature","properties":{"id":"bus-41-s11929","kind":"busstop","ref":"41","name":"Hacı Bayram Cami","lines":["42","46"]},"geometry":{"type":"Point","coordinates":[27.16004,38.41913]}},{"type":"Feature","properties":{"id":"bus-41-s11931","kind":"busstop","ref":"41","name":"Zeytinlik","lines":["42","46"]},"geometry":{"type":"Point","coordinates":[27.1632,38.4196]}},{"type":"Feature","properties":{"id":"bus-41-s11938","kind":"busstop","ref":"41","name":"Barbaros Hayrettin İlkokulu","lines":["42","46"]},"geometry":{"type":"Point","coordinates":[27.1672,38.4198]}},{"type":"Feature","properties":{"id":"bus-41-s11939","kind":"busstop","ref":"41","name":"Levent Çeşme","lines":["42","46"]},"geometry":{"type":"Point","coordinates":[27.1665,38.4187]}},{"type":"Feature","properties":{"id":"bus-41-s11941","kind":"busstop","ref":"41","name":"Levent Depo","lines":["42","46"]},"geometry":{"type":"Point","coordinates":[27.1659,38.4158]}}]}