{"type":"FeatureCollection","features":[{"type":"Feature","properties":{"id":"bus-42-1","kind":"busline","ref":"42","dir":1},"geometry":{"type":"LineString","coordinates":[[27.1867,38.4076],[27.1873,38.4077],[27.1863,38.4075],[27.1823,38.4074],[27.1799,38.4085],[27.1794,38.4089],[27.1793,38.4097],[27.1791,38.4096],[27.1786,38.4084],[27.1773,38.4093],[27.1771,38.4102],[27.1762,38.4107],[27.175,38.4109],[27.173,38.4105],[27.1727,38.4106],[27.1727,38.411],[27.1723,38.4115],[27.1713,38.4115],[27.1695,38.411],[27.1669,38.4109],[27.1663,38.4131],[27.1659,38.4138],[27.1658,38.4155],[27.1662,38.4178],[27.1676,38.4205],[27.1656,38.4203],[27.1624,38.4194],[27.1577,38.419],[27.1563,38.4226],[27.1591,38.4233],[27.1521,38.4221],[27.1477,38.4225],[27.1436,38.4221],[27.1433,38.4228],[27.1433,38.424],[27.1431,38.4241],[27.1426,38.4241],[27.1421,38.4237],[27.1329,38.4244],[27.1319,38.4225],[27.1321,38.4228]]}},{"type":"Feature","properties":{"id":"bus-42-2","kind":"busline","ref":"42","dir":2},"geometry":{"type":"LineString","coordinates":[[27.1323,38.4232],[27.1327,38.4239],[27.1319,38.4225],[27.1428,38.4225],[27.1435,38.4221],[27.1474,38.4225],[27.1519,38.422],[27.1582,38.4231],[27.1585,38.4224],[27.1566,38.4221],[27.1564,38.4219],[27.1577,38.419],[27.1624,38.4194],[27.1656,38.4203],[27.1676,38.4205],[27.1662,38.4178],[27.1658,38.4155],[27.1659,38.4138],[27.1661,38.4136],[27.1657,38.4133],[27.1654,38.4124],[27.1649,38.4117],[27.1649,38.4111],[27.1665,38.4109],[27.1695,38.411],[27.1713,38.4115],[27.1723,38.4115],[27.1727,38.411],[27.1728,38.4104],[27.175,38.4109],[27.1762,38.4107],[27.1771,38.4102],[27.1773,38.4093],[27.1786,38.4084],[27.1791,38.4096],[27.1793,38.4097],[27.1794,38.4089],[27.1799,38.4085],[27.1823,38.4074],[27.1863,38.4075],[27.1873,38.4077],[27.1867,38.4076]]}},{"type":"Feature","properties":{"id":"bus-42-s12054","kind":"busstop","ref":"42","name":"Çınartepe","lines":["441"]},"geometry":{"type":"Point","coordinates":[27.18671,38.40769]}},{"type":"Feature","properties":{"id":"bus-42-s12052","kind":"busstop","ref":"42","name":"Çınartepe Muhtarlık","lines":["441"]},"geometry":{"type":"Point","coordinates":[27.18296,38.40745]}},{"type":"Feature","properties":{"id":"bus-42-s12050","kind":"busstop","ref":"42","name":"Aydın","lines":["441"]},"geometry":{"type":"Point","coordinates":[27.1808,38.4081]}},{"type":"Feature","properties":{"id":"bus-42-s12042","kind":"busstop","ref":"42","name":"Düğün Salonu","lines":["34","441"]},"geometry":{"type":"Point","coordinates":[27.1792,38.4097]}},{"type":"Feature","properties":{"id":"bus-42-s41148","kind":"busstop","ref":"42","name":"Gültepe Mezarlık","lines":["34","441","475"]},"geometry":{"type":"Point","coordinates":[27.178,38.4087]}},{"type":"Feature","properties":{"id":"bus-42-s41146","kind":"busstop","ref":"42","name":"Manzara","lines":["34","441","475"]},"geometry":{"type":"Point","coordinates":[27.1763,38.4107]}},{"type":"Feature","properties":{"id":"bus-42-s41144","kind":"busstop","ref":"42","name":"Toros Meydan","lines":["34","441","475"]},"geometry":{"type":"Point","coordinates":[27.1731,38.4105]}},{"type":"Feature","properties":{"id":"bus-42-s41142","kind":"busstop","ref":"42","name":"Tepe","lines":["475"]},"geometry":{"type":"Point","coordinates":[27.17078,38.41134]}},{"type":"Feature","properties":{"id":"bus-42-s41140","kind":"busstop","ref":"42","name":"Mustafa Kemal İlkokulu","lines":["475"]},"geometry":{"type":"Point","coordinates":[27.16741,38.41098]}},{"type":"Feature","properties":{"id":"bus-42-s11952","kind":"busstop","ref":"42","name":"Levent","lines":["41","46"]},"geometry":{"type":"Point","coordinates":[27.1663,38.4131]}},{"type":"Feature","properties":{"id":"bus-42-s11942","kind":"busstop","ref":"42","name":"Levent Depo","lines":["41","46"]},"geometry":{"type":"Point","coordinates":[27.1659,38.4155]}},{"type":"Feature","properties":{"id":"bus-42-s11940","kind":"busstop","ref":"42","name":"Levent Çeşme","lines":["41","46"]},"geometry":{"type":"Point","coordinates":[27.16656,38.41851]}},{"type":"Feature","properties":{"id":"bus-42-s11938","kind":"busstop","ref":"42","name":"Barbaros Hayrettin İlkokulu","lines":["41","46"]},"geometry":{"type":"Point","coordinates":[27.1672,38.4198]}},{"type":"Feature","properties":{"id":"bus-42-s11932","kind":"busstop","ref":"42","name":"Zeytinlik","lines":["41","46","49"]},"geometry":{"type":"Point","coordinates":[27.16275,38.41957]}},{"type":"Feature","properties":{"id":"bus-42-s11930","kind":"busstop","ref":"42","name":"Hacı Bayram Cami","lines":["41","46","49"]},"geometry":{"type":"Point","coordinates":[27.15969,38.41918]}},{"type":"Feature","properties":{"id":"bus-42-s13352","kind":"busstop","ref":"42","name":"Kemer Aktarma Merkezi","lines":["34","39","41","46","49","418","466","838"]},"geometry":{"type":"Point","coordinates":[27.1567,38.42159]}},{"type":"Feature","properties":{"id":"bus-42-s10358","kind":"busstop","ref":"42","name":"Kemer","lines":["34","35","36","39","41","44","45","46","49","302","466","838"]},"geometry":{"type":"Point","coordinates":[27.14892,38.42243]}},{"type":"Feature","properties":{"id":"bus-42-s10356","kind":"busstop","ref":"42","name":"Basmane Gar","lines":["34","35","36","39","41","44","45","46","49","302","466","838"]},"geometry":{"type":"Point","coordinates":[27.1448,38.4223]}},{"type":"Feature","properties":{"id":"bus-42-s10124","kind":"busstop","ref":"42","name":"Çardak 2","lines":["34","39","41","44","45","46","234"]},"geometry":{"type":"Point","coordinates":[27.13882,38.42399]}},{"type":"Feature","properties":{"id":"bus-42-s10130","kind":"busstop","ref":"42","name":"Şehit Fethibey","lines":["41"]},"geometry":{"type":"Point","coordinates":[27.13204,38.42283]}},{"type":"Feature","properties":{"id":"bus-42-s10121","kind":"busstop","ref":"42","name":"Çankaya","lines":["41","44","45","46","234","302","811","951"]},"geometry":{"type":"Point","coordinates":[27.13935,38.42242]}},{"type":"Feature","properties":{"id":"bus-42-s10357","kind":"busstop","ref":"42","name":"Basmane Gar","lines":["34","35","36","39","41","44","45","46","49","302","466","838"]},"geometry":{"type":"Point","coordinates":[27.1455,38.4224]}},{"type":"Feature","properties":{"id":"bus-42-s10361","kind":"busstop","ref":"42","name":"Kemer 2","lines":["34","36","39","41","44","45","46","466","838"]},"geometry":{"type":"Point","coordinates":[27.1506,38.422]}},{"type":"Feature","properties":{"id":"bus-42-s13351","kind":"busstop","ref":"42","name":"Kemer Aktarma Merkezi","lines":["34","39","41","46","49","418","466","838"]},"geometry":{"type":"Point","coordinates":[27.15657,38.42134]}},{"type":"Feature","properties":{"id":"bus-42-s11929","kind":"busstop","ref":"42","name":"Hacı Bayram Cami","lines":["41","46"]},"geometry":{"type":"Point","coordinates":[27.16004,38.41913]}},{"type":"Feature","properties":{"id":"bus-42-s11931","kind":"busstop","ref":"42","name":"Zeytinlik","lines":["41","46"]},"geometry":{"type":"Point","coordinates":[27.1632,38.4196]}},{"type":"Feature","properties":{"id":"bus-42-s11937","kind":"busstop","ref":"42","name":"Barbaros Hayrettin İlkokulu","lines":["41","46"]},"geometry":{"type":"Point","coordinates":[27.1675,38.4202]}},{"type":"Feature","properties":{"id":"bus-42-s11939","kind":"busstop","ref":"42","name":"Levent Çeşme","lines":["41","46"]},"geometry":{"type":"Point","coordinates":[27.1665,38.4187]}},{"type":"Feature","properties":{"id":"bus-42-s11941","kind":"busstop","ref":"42","name":"Levent Depo","lines":["41","46"]},"geometry":{"type":"Point","coordinates":[27.1659,38.4158]}},{"type":"Feature","properties":{"id":"bus-42-s11947","kind":"busstop","ref":"42","name":"Dörtyol","lines":["46"]},"geometry":{"type":"Point","coordinates":[27.1656,38.4132]}},{"type":"Feature","properties":{"id":"bus-42-s11949","kind":"busstop","ref":"42","name":"Ferahlı","lines":["475"]},"geometry":{"type":"Point","coordinates":[27.16514,38.41214]}},{"type":"Feature","properties":{"id":"bus-42-s41141","kind":"busstop","ref":"42","name":"Mustafa Kemal İlkokulu","lines":["475"]},"geometry":{"type":"Point","coordinates":[27.16759,38.41094]}},{"type":"Feature","properties":{"id":"bus-42-s41143","kind":"busstop","ref":"42","name":"Tepe","lines":["475"]},"geometry":{"type":"Point","coordinates":[27.1708,38.4113]}},{"type":"Feature","properties":{"id":"bus-42-s41145","kind":"busstop","ref":"42","name":"Toros Meydan","lines":["34","441","475"]},"geometry":{"type":"Point","coordinates":[27.173,38.4105]}},{"type":"Feature","properties":{"id":"bus-42-s41147","kind":"busstop","ref":"42","name":"Manzara","lines":["34","441","475"]},"geometry":{"type":"Point","coordinates":[27.1764,38.4106]}},{"type":"Feature","properties":{"id":"bus-42-s41149","kind":"busstop","ref":"42","name":"Gültepe Mezarlık","lines":["34","441","475"]},"geometry":{"type":"Point","coordinates":[27.1778,38.40883]}},{"type":"Feature","properties":{"id":"bus-42-s12043","kind":"busstop","ref":"42","name":"Düğün Salonu","lines":["34","441"]},"geometry":{"type":"Point","coordinates":[27.17897,38.40921]}},{"type":"Feature","properties":{"id":"bus-42-s12049","kind":"busstop","ref":"42","name":"Aydın","lines":["441"]},"geometry":{"type":"Point","coordinates":[27.1802,38.4083]}},{"type":"Feature","properties":{"id":"bus-42-s12051","kind":"busstop","ref":"42","name":"Çınartepe Muhtarlık","lines":["441"]},"geometry":{"type":"Point","coordinates":[27.1831,38.4074]}}]}