{"type":"FeatureCollection","features":[{"type":"Feature","properties":{"id":"bus-423-1","kind":"busline","ref":"423","dir":1},"geometry":{"type":"LineString","coordinates":[[27.069,38.5063],[27.0694,38.5067],[27.0681,38.5049],[27.0672,38.5027],[27.0659,38.5014],[27.0656,38.5008],[27.0644,38.4995],[27.063,38.4986],[27.0628,38.4983],[27.0627,38.4984],[27.0604,38.4964],[27.0598,38.4962],[27.0598,38.4959],[27.0613,38.4945],[27.0612,38.4942],[27.0586,38.4931],[27.0508,38.4935],[27.0513,38.4922],[27.0533,38.4888],[27.0533,38.4859],[27.0578,38.4859],[27.0598,38.4862],[27.0612,38.4862],[27.0615,38.4859],[27.0659,38.4773],[27.0679,38.4751],[27.0721,38.4752],[27.0733,38.475],[27.0761,38.475],[27.0767,38.4752],[27.0806,38.4752],[27.0816,38.4748],[27.085,38.4713],[27.0849,38.4706],[27.0821,38.4664],[27.082,38.4658],[27.0822,38.4653],[27.0895,38.4583],[27.0913,38.4571],[27.0971,38.4547],[27.0975,38.4541],[27.0972,38.4537],[27.0975,38.4531],[27.0974,38.4533]]}},{"type":"Feature","properties":{"id":"bus-423-2","kind":"busline","ref":"423","dir":2},"geometry":{"type":"LineString","coordinates":[[27.0974,38.4533],[27.0975,38.4531],[27.0972,38.4537],[27.0975,38.4541],[27.0971,38.4547],[27.0971,38.455],[27.0921,38.4569],[27.0902,38.458],[27.0885,38.4593],[27.0823,38.4655],[27.0825,38.4667],[27.0848,38.4703],[27.0855,38.471],[27.0822,38.4745],[27.0808,38.4753],[27.0774,38.4753],[27.0759,38.4757],[27.0736,38.4757],[27.0721,38.4753],[27.0681,38.4753],[27.0666,38.4768],[27.0651,38.4791],[27.0615,38.4861],[27.0615,38.4865],[27.0576,38.486],[27.0536,38.4861],[27.0534,38.4888],[27.0515,38.4921],[27.0511,38.4932],[27.0514,38.4934],[27.0589,38.493],[27.0591,38.4933],[27.0615,38.4943],[27.0617,38.4942],[27.0618,38.4945],[27.0601,38.4961],[27.0617,38.4973],[27.063,38.4986],[27.0644,38.4995],[27.0656,38.5008],[27.0659,38.5014],[27.0672,38.5027],[27.0681,38.5049],[27.0694,38.5067],[27.069,38.5063]]}},{"type":"Feature","properties":{"id":"bus-423-s22071","kind":"busstop","ref":"423","name":"Şirinevler Son Durak","lines":[]},"geometry":{"type":"Point","coordinates":[27.069,38.50627]}},{"type":"Feature","properties":{"id":"bus-423-s22070","kind":"busstop","ref":"423","name":"Şirinevler Giriş","lines":[]},"geometry":{"type":"Point","coordinates":[27.0681,38.505]}},{"type":"Feature","properties":{"id":"bus-423-s22068","kind":"busstop","ref":"423","name":"Bahar","lines":[]},"geometry":{"type":"Point","coordinates":[27.0669,38.5024]}},{"type":"Feature","properties":{"id":"bus-423-s22066","kind":"busstop","ref":"423","name":"Ormancı Sitesi 2","lines":[]},"geometry":{"type":"Point","coordinates":[27.06569,38.50122]}},{"type":"Feature","properties":{"id":"bus-423-s20978","kind":"busstop","ref":"423","name":"Büyük Çiğli Anadolu Lisesi","lines":["123","342","442","443","816"]},"geometry":{"type":"Point","coordinates":[27.0625,38.4983]}},{"type":"Feature","properties":{"id":"bus-423-s20966","kind":"busstop","ref":"423","name":"Egekent Dispanser","lines":["123","342","442","443","816"]},"geometry":{"type":"Point","coordinates":[27.0609,38.4969]}},{"type":"Feature","properties":{"id":"bus-423-s21133","kind":"busstop","ref":"423","name":"Şehit Ali Karaoğlan Lisesi","lines":["149","442","751","853"]},"geometry":{"type":"Point","coordinates":[27.053,38.4935]}},{"type":"Feature","properties":{"id":"bus-423-s21116","kind":"busstop","ref":"423","name":"Kent Hastanesi","lines":["442","816","817"]},"geometry":{"type":"Point","coordinates":[27.0522,38.4905]}},{"type":"Feature","properties":{"id":"bus-423-s21114","kind":"busstop","ref":"423","name":"Tenis Kulübü","lines":["442","595","816","817"]},"geometry":{"type":"Point","coordinates":[27.0533,38.4871]}},{"type":"Feature","properties":{"id":"bus-423-s21096","kind":"busstop","ref":"423","name":"Bayraktar Sitesi","lines":["442","595","816","817"]},"geometry":{"type":"Point","coordinates":[27.05635,38.48586]}},{"type":"Feature","properties":{"id":"bus-423-s21094","kind":"busstop","ref":"423","name":"Söğüt","lines":["442","595","816","817"]},"geometry":{"type":"Point","coordinates":[27.06005,38.48616]}},{"type":"Feature","properties":{"id":"bus-423-s20340","kind":"busstop","ref":"423","name":"Karya","lines":["229","322","428","429","442","443","445","446","447","547","595","777","820","827"]},"geometry":{"type":"Point","coordinates":[27.06672,38.47626]}},{"type":"Feature","properties":{"id":"bus-423-s20338","kind":"busstop","ref":"423","name":"Mavişehir","lines":["229","322","428","429","442","443","445","446","447","547","595","820","827"]},"geometry":{"type":"Point","coordinates":[27.0745,38.4749]}},{"type":"Feature","properties":{"id":"bus-423-s20336","kind":"busstop","ref":"423","name":"Haydar Aliyev Parkı","lines":["229","428","429","442","443","445","446","447","547","595","820","827"]},"geometry":{"type":"Point","coordinates":[27.0836,38.4727]}},{"type":"Feature","properties":{"id":"bus-423-s20396","kind":"busstop","ref":"423","name":"Atakent Anadolu Lisesi","lines":["229","322","428","429","442","443","445","446","447","595","820","827"]},"geometry":{"type":"Point","coordinates":[27.084,38.4692]}},{"type":"Feature","properties":{"id":"bus-423-s20196","kind":"busstop","ref":"423","name":"Beşikçioğlu Cami","lines":["121","200","229","322","428","429","442","443","445","446","447","595","777","820","821","827"]},"geometry":{"type":"Point","coordinates":[27.0844,38.4631]}},{"type":"Feature","properties":{"id":"bus-423-s20194","kind":"busstop","ref":"423","name":"Bostanlı Pazaryeri","lines":["121","200","229","322","428","429","442","443","445","446","447","595","777","820","821","827"]},"geometry":{"type":"Point","coordinates":[27.0869,38.4606]}},{"type":"Feature","properties":{"id":"bus-423-s20198","kind":"busstop","ref":"423","name":"Bostanlı Market","lines":["121","200","229","322","428","429","442","443","445","446","447","595","777","820","821","827"]},"geometry":{"type":"Point","coordinates":[27.0913,38.4571]}},{"type":"Feature","properties":{"id":"bus-423-s20024","kind":"busstop","ref":"423","name":"Bostanlı İskele","lines":["442"]},"geometry":{"type":"Point","coordinates":[27.09738,38.45329]}},{"type":"Feature","properties":{"id":"bus-423-s20197","kind":"busstop","ref":"423","name":"Bostanlı Market","lines":["121","200","229","322","428","429","442","443","445","446","447","595","777","820","821","827"]},"geometry":{"type":"Point","coordinates":[27.0914,38.4573]}},{"type":"Feature","properties":{"id":"bus-423-s20189","kind":"busstop","ref":"423","name":"Bostanlı Pazaryeri","lines":["121","200","229","322","428","429","442","443","445","446","447","595","777","820","821","827"]},"geometry":{"type":"Point","coordinates":[27.0869,38.4609]}},{"type":"Feature","properties":{"id":"bus-423-s20191","kind":"busstop","ref":"423","name":"Beşikçioğlu Cami","lines":["121","200","229","322","428","429","442","443","445","446","447","595","777","820","821","827"]},"geometry":{"type":"Point","coordinates":[27.08431,38.4636]}},{"type":"Feature","properties":{"id":"bus-423-s20395","kind":"busstop","ref":"423","name":"Atakent Anadolu Lisesi","lines":["229","322","428","429","442","443","445","446","447","595","820","827"]},"geometry":{"type":"Point","coordinates":[27.0845,38.4697]}},{"type":"Feature","properties":{"id":"bus-423-s20337","kind":"busstop","ref":"423","name":"Haydar Aliyev Parkı","lines":["229","322","428","429","442","443","445","446","447","547","595","820","827"]},"geometry":{"type":"Point","coordinates":[27.08404,38.47269]}},{"type":"Feature","properties":{"id":"bus-423-s20339","kind":"busstop","ref":"423","name":"Mavişehir","lines":["121","229","322","428","429","442","443","445","446","447","547","595","777","820","821","827"]},"geometry":{"type":"Point","coordinates":[27.07491,38.47576]}},{"type":"Feature","properties":{"id":"bus-423-s20341","kind":"busstop","ref":"423","name":"Karya","lines":["229","322","428","429","442","443","445","446","447","547","595","777","820","827"]},"geometry":{"type":"Point","coordinates":[27.06558,38.47846]}},{"type":"Feature","properties":{"id":"bus-423-s21095","kind":"busstop","ref":"423","name":"Söğüt","lines":["442","595","816","817"]},"geometry":{"type":"Point","coordinates":[27.05886,38.48622]}},{"type":"Feature","properties":{"id":"bus-423-s21097","kind":"busstop","ref":"423","name":"Bayraktar Sitesi","lines":["442","595","816","817"]},"geometry":{"type":"Point","coordinates":[27.0561,38.486]}},{"type":"Feature","properties":{"id":"bus-423-s21115","kind":"busstop","ref":"423","name":"Tenis Kulübü","lines":["442","595","816","817"]},"geometry":{"type":"Point","coordinates":[27.0535,38.487]}},{"type":"Feature","properties":{"id":"bus-423-s21117","kind":"busstop","ref":"423","name":"Kent Hastanesi","lines":["442","816","817"]},"geometry":{"type":"Point","coordinates":[27.0524,38.4907]}},{"type":"Feature","properties":{"id":"bus-423-s21132","kind":"busstop","ref":"423","name":"Şehit Ali Karaoğlan Lisesi","lines":["149","442","751","853"]},"geometry":{"type":"Point","coordinates":[27.0545,38.4932]}},{"type":"Feature","properties":{"id":"bus-423-s20965","kind":"busstop","ref":"423","name":"Egekent Dispanser","lines":["123","342","442","443","816"]},"geometry":{"type":"Point","coordinates":[27.06103,38.49677]}},{"type":"Feature","properties":{"id":"bus-423-s20977","kind":"busstop","ref":"423","name":"Büyük Çiğli Anadolu Lisesi","lines":["123","342","442","443","816"]},"geometry":{"type":"Point","coordinates":[27.0629,38.4983]}},{"type":"Feature","properties":{"id":"bus-423-s22065","kind":"busstop","ref":"423","name":"Ormancı Sitesi 2","lines":[]},"geometry":{"type":"Point","coordinates":[27.06582,38.50109]}},{"type":"Feature","properties":{"id":"bus-423-s22067","kind":"busstop","ref":"423","name":"Bahar","lines":[]},"geometry":{"type":"Point","coordinates":[27.0671,38.5026]}},{"type":"Feature","properties":{"id":"bus-423-s22069","kind":"busstop","ref":"423","name":"Şirinevler Giriş","lines":[]},"geometry":{"type":"Point","coordinates":[27.0683,38.5052]}}]}