{"type":"FeatureCollection","features":[{"type":"Feature","properties":{"id":"bus-429-1","kind":"busline","ref":"429","dir":1},"geometry":{"type":"LineString","coordinates":[[27.0754,38.4961],[27.0747,38.4959],[27.0755,38.4961],[27.0751,38.4957],[27.0734,38.4948],[27.0734,38.4946],[27.073,38.4948],[27.0729,38.4952],[27.0727,38.4952],[27.0711,38.494],[27.0693,38.493],[27.0687,38.493],[27.068,38.4934],[27.0708,38.4963],[27.0709,38.4966],[27.0717,38.4964],[27.0719,38.4975],[27.0731,38.4994],[27.0749,38.5003],[27.0766,38.5007],[27.0772,38.5018],[27.0779,38.5022],[27.0779,38.5025],[27.0733,38.5013],[27.072,38.5007],[27.0707,38.5004],[27.0689,38.4989],[27.0685,38.4981],[27.068,38.4976],[27.0653,38.4963],[27.0632,38.4948],[27.0628,38.495],[27.0624,38.4947],[27.0615,38.4945],[27.0614,38.4943],[27.0644,38.4923],[27.0686,38.4899],[27.0712,38.4887],[27.0752,38.4873],[27.0774,38.4863],[27.0777,38.4859],[27.0777,38.4855],[27.0771,38.4839],[27.076,38.4834],[27.0741,38.483],[27.0711,38.4828],[27.0679,38.4829],[27.0628,38.4821],[27.0621,38.4824],[27.0621,38.4826],[27.0625,38.4829],[27.0632,38.4825],[27.0659,38.4773],[27.0679,38.4751],[27.0721,38.4752],[27.0733,38.475],[27.0761,38.475],[27.0767,38.4752],[27.0806,38.4752],[27.0816,38.4748],[27.085,38.4713],[27.0849,38.4706],[27.0821,38.4664],[27.082,38.4658],[27.0822,38.4653],[27.0895,38.4583],[27.0913,38.4571],[27.0971,38.4547],[27.0975,38.4541],[27.0972,38.4537],[27.0975,38.4532]]}},{"type":"Feature","properties":{"id":"bus-429-2","kind":"busline","ref":"429","dir":2},"geometry":{"type":"LineString","coordinates":[[27.0975,38.4532],[27.0972,38.4537],[27.0975,38.4528],[27.0978,38.4528],[27.0975,38.4535],[27.0976,38.4541],[27.0971,38.4547],[27.0971,38.455],[27.0921,38.4569],[27.0902,38.458],[27.0885,38.4593],[27.0823,38.4655],[27.0825,38.4667],[27.0848,38.4703],[27.0855,38.471],[27.0822,38.4745],[27.0808,38.4753],[27.0774,38.4753],[27.0759,38.4757],[27.0736,38.4757],[27.0721,38.4753],[27.0684,38.4752],[27.0674,38.4759],[27.0666,38.4768],[27.0651,38.4791],[27.0648,38.4798],[27.0648,38.4807],[27.0654,38.4816],[27.0663,38.482],[27.075,38.4829],[27.0777,38.4834],[27.08,38.4842],[27.0836,38.4859],[27.0842,38.4858],[27.0846,38.4854],[27.0845,38.4849],[27.0837,38.4846],[27.0716,38.4887],[27.0697,38.4895],[27.0656,38.4918],[27.0653,38.4934],[27.0654,38.4939],[27.0662,38.4952],[27.0685,38.4981],[27.0689,38.4989],[27.0692,38.499],[27.0703,38.5002],[27.0733,38.5013],[27.0779,38.5025],[27.0779,38.5022],[27.0772,38.5018],[27.0766,38.5007],[27.0749,38.5003],[27.0731,38.4994],[27.0719,38.4975],[27.0717,38.4964],[27.0709,38.4966],[27.0708,38.4963],[27.068,38.4934],[27.0687,38.493],[27.0693,38.493],[27.0711,38.494],[27.0727,38.4952],[27.0729,38.4952],[27.073,38.4948],[27.0734,38.4946],[27.0734,38.4948],[27.0751,38.4957],[27.0755,38.4961],[27.0747,38.4959],[27.0754,38.4961]]}},{"type":"Feature","properties":{"id":"bus-429-s20956","kind":"busstop","ref":"429","name":"Güzeltepe","lines":["329"]},"geometry":{"type":"Point","coordinates":[27.0754,38.4961]}},{"type":"Feature","properties":{"id":"bus-429-s20954","kind":"busstop","ref":"429","name":"Şehit Ahmet Ay Parkı","lines":["329"]},"geometry":{"type":"Point","coordinates":[27.0739,38.4951]}},{"type":"Feature","properties":{"id":"bus-429-s20952","kind":"busstop","ref":"429","name":"Güzeltepe Eski Son Durak","lines":["329"]},"geometry":{"type":"Point","coordinates":[27.0727,38.4952]}},{"type":"Feature","properties":{"id":"bus-429-s20950","kind":"busstop","ref":"429","name":"Güzeltepe Kahve","lines":["329"]},"geometry":{"type":"Point","coordinates":[27.07046,38.49374]}},{"type":"Feature","properties":{"id":"bus-429-s20948","kind":"busstop","ref":"429","name":"Şirintepe Market","lines":["329"]},"geometry":{"type":"Point","coordinates":[27.0682,38.4933]}},{"type":"Feature","properties":{"id":"bus-429-s20946","kind":"busstop","ref":"429","name":"Güzeltepe Karakol","lines":["329"]},"geometry":{"type":"Point","coordinates":[27.0694,38.4949]}},{"type":"Feature","properties":{"id":"bus-429-s20943","kind":"busstop","ref":"429","name":"Güzeltepe İlkokulu","lines":["329"]},"geometry":{"type":"Point","coordinates":[27.0713,38.4965]}},{"type":"Feature","properties":{"id":"bus-429-s20938","kind":"busstop","ref":"429","name":"Şehit Erdal Kılıç","lines":["329"]},"geometry":{"type":"Point","coordinates":[27.07252,38.49835]}},{"type":"Feature","properties":{"id":"bus-429-s20941","kind":"busstop","ref":"429","name":"Güzeltepe Manzara","lines":["329"]},"geometry":{"type":"Point","coordinates":[27.0738,38.4997]}},{"type":"Feature","properties":{"id":"bus-429-s20940","kind":"busstop","ref":"429","name":"Güzeltepe Üçyol","lines":["329"]},"geometry":{"type":"Point","coordinates":[27.0764,38.5005]}},{"type":"Feature","properties":{"id":"bus-429-s20912","kind":"busstop","ref":"429","name":"Kemal Hadımlı Ortaokulu","lines":["229","329","529"]},"geometry":{"type":"Point","coordinates":[27.07718,38.50246]}},{"type":"Feature","properties":{"id":"bus-429-s20910","kind":"busstop","ref":"429","name":"Güzeltepe Esentepe Cami","lines":["229","329","529"]},"geometry":{"type":"Point","coordinates":[27.07531,38.50187]}},{"type":"Feature","properties":{"id":"bus-429-s20908","kind":"busstop","ref":"429","name":"Güzeltepe Muhtarlık","lines":["229","329","529"]},"geometry":{"type":"Point","coordinates":[27.0724,38.501]}},{"type":"Feature","properties":{"id":"bus-429-s20906","kind":"busstop","ref":"429","name":"Güzeltepe Dört Yol","lines":["229","329","529"]},"geometry":{"type":"Point","coordinates":[27.0702,38.5001]}},{"type":"Feature","properties":{"id":"bus-429-s20890","kind":"busstop","ref":"429","name":"Çiğli Kız Meslek Lisesi","lines":["229","329","529"]},"geometry":{"type":"Point","coordinates":[27.0686,38.4984]}},{"type":"Feature","properties":{"id":"bus-429-s20904","kind":"busstop","ref":"429","name":"Okul","lines":["229","329","529"]},"geometry":{"type":"Point","coordinates":[27.0657,38.4965]}},{"type":"Feature","properties":{"id":"bus-429-s20902","kind":"busstop","ref":"429","name":"Köyiçi Mahallesi Muhtarlık","lines":["229","329","529"]},"geometry":{"type":"Point","coordinates":[27.0633,38.495]}},{"type":"Feature","properties":{"id":"bus-429-s20086","kind":"busstop","ref":"429","name":"Çiğli Belediye","lines":["229","247","329","344","428","443","446","529","535","602","608","660","800","820","827","853","912","920"]},"geometry":{"type":"Point","coordinates":[27.0665,38.4911]}},{"type":"Feature","properties":{"id":"bus-429-s20084","kind":"busstop","ref":"429","name":"Eğitim Gönüllüleri","lines":["229","247","329","344","428","443","445","446","529","535","602","608","660","800","820","827","853","912","920"]},"geometry":{"type":"Point","coordinates":[27.069,38.4896]}},{"type":"Feature","properties":{"id":"bus-429-s20082","kind":"busstop","ref":"429","name":"Çiğli İtfaiye","lines":["229","247","329","344","428","443","445","446","529","535","602","608","660","800","820","827","853","912","920"]},"geometry":{"type":"Point","coordinates":[27.0726,38.4882]}},{"type":"Feature","properties":{"id":"bus-429-s20340","kind":"busstop","ref":"429","name":"Karya","lines":["229","322","423","428","442","443","445","446","447","547","595","777","820","827"]},"geometry":{"type":"Point","coordinates":[27.06672,38.47626]}},{"type":"Feature","properties":{"id":"bus-429-s20338","kind":"busstop","ref":"429","name":"Mavişehir","lines":["229","322","423","428","442","443","445","446","447","547","595","820","827"]},"geometry":{"type":"Point","coordinates":[27.0745,38.4749]}},{"type":"Feature","properties":{"id":"bus-429-s20336","kind":"busstop","ref":"429","name":"Haydar Aliyev Parkı","lines":["229","423","428","442","443","445","446","447","547","595","820","827"]},"geometry":{"type":"Point","coordinates":[27.0836,38.4727]}},{"type":"Feature","properties":{"id":"bus-429-s20396","kind":"busstop","ref":"429","name":"Atakent Anadolu Lisesi","lines":["229","322","423","428","442","443","445","446","447","595","820","827"]},"geometry":{"type":"Point","coordinates":[27.084,38.4692]}},{"type":"Feature","properties":{"id":"bus-429-s20196","kind":"busstop","ref":"429","name":"Beşikçioğlu Cami","lines":["121","200","229","322","423","428","442","443","445","446","447","595","777","820","821","827"]},"geometry":{"type":"Point","coordinates":[27.0844,38.4631]}},{"type":"Feature","properties":{"id":"bus-429-s20194","kind":"busstop","ref":"429","name":"Bostanlı Pazaryeri","lines":["121","200","229","322","423","428","442","443","445","446","447","595","777","820","821","827"]},"geometry":{"type":"Point","coordinates":[27.0869,38.4606]}},{"type":"Feature","properties":{"id":"bus-429-s20198","kind":"busstop","ref":"429","name":"Bostanlı Market","lines":["121","200","229","322","423","428","442","443","445","446","447","595","777","820","821","827"]},"geometry":{"type":"Point","coordinates":[27.0913,38.4571]}},{"type":"Feature","properties":{"id":"bus-429-s20025","kind":"busstop","ref":"429","name":"Bostanlı İskele","lines":["229"]},"geometry":{"type":"Point","coordinates":[27.09744,38.45316]}},{"type":"Feature","properties":{"id":"bus-429-s20197","kind":"busstop","ref":"429","name":"Bostanlı Market","lines":["121","200","229","322","423","428","442","443","445","446","447","595","777","820","821","827"]},"geometry":{"type":"Point","coordinates":[27.0914,38.4573]}},{"type":"Feature","properties":{"id":"bus-429-s20189","kind":"busstop","ref":"429","name":"Bostanlı Pazaryeri","lines":["121","200","229","322","423","428","442","443","445","446","447","595","777","820","821","827"]},"geometry":{"type":"Point","coordinates":[27.0869,38.4609]}},{"type":"Feature","properties":{"id":"bus-429-s20191","kind":"busstop","ref":"429","name":"Beşikçioğlu Cami","lines":["121","200","229","322","423","428","442","443","445","446","447","595","777","820","821","827"]},"geometry":{"type":"Point","coordinates":[27.08431,38.4636]}},{"type":"Feature","properties":{"id":"bus-429-s20395","kind":"busstop","ref":"429","name":"Atakent Anadolu Lisesi","lines":["229","322","423","428","442","443","445","446","447","595","820","827"]},"geometry":{"type":"Point","coordinates":[27.0845,38.4697]}},{"type":"Feature","properties":{"id":"bus-429-s20337","kind":"busstop","ref":"429","name":"Haydar Aliyev Parkı","lines":["229","322","423","428","442","443","445","446","447","547","595","820","827"]},"geometry":{"type":"Point","coordinates":[27.08404,38.47269]}},{"type":"Feature","properties":{"id":"bus-429-s20339","kind":"busstop","ref":"429","name":"Mavişehir","lines":["121","229","322","423","428","442","443","445","446","447","547","595","777","820","821","827"]},"geometry":{"type":"Point","coordinates":[27.07491,38.47576]}},{"type":"Feature","properties":{"id":"bus-429-s20341","kind":"busstop","ref":"429","name":"Karya","lines":["229","322","423","428","442","443","445","446","447","547","595","777","820","827"]},"geometry":{"type":"Point","coordinates":[27.06558,38.47846]}},{"type":"Feature","properties":{"id":"bus-429-s20081","kind":"busstop","ref":"429","name":"Çiğli İtfaiye","lines":["229","247","329","344","428","443","445","446","447","529","535","602","608","660","800","820","827","853","912","920"]},"geometry":{"type":"Point","coordinates":[27.0722,38.4885]}},{"type":"Feature","properties":{"id":"bus-429-s20083","kind":"busstop","ref":"429","name":"Eğitim Gönüllüleri","lines":["229","247","329","344","428","443","445","446","529","535","602","608","660","800","820","827","853","912","920"]},"geometry":{"type":"Point","coordinates":[27.0689,38.49]}},{"type":"Feature","properties":{"id":"bus-429-s20085","kind":"busstop","ref":"429","name":"Çiğli Belediye","lines":["229","247","329","344","428","443","446","529","535","602","608","660","800","820","827","853","912","920"]},"geometry":{"type":"Point","coordinates":[27.0663,38.4915]}},{"type":"Feature","properties":{"id":"bus-429-s20885","kind":"busstop","ref":"429","name":"Mobilyacı","lines":["229","329","529"]},"geometry":{"type":"Point","coordinates":[27.06542,38.49341]}},{"type":"Feature","properties":{"id":"bus-429-s20887","kind":"busstop","ref":"429","name":"Dereyolu","lines":["229","329","529"]},"geometry":{"type":"Point","coordinates":[27.06732,38.49643]}},{"type":"Feature","properties":{"id":"bus-429-s20889","kind":"busstop","ref":"429","name":"Çiğli Kız Meslek Lisesi","lines":["229","329","529"]},"geometry":{"type":"Point","coordinates":[27.0685,38.498]}},{"type":"Feature","properties":{"id":"bus-429-s20907","kind":"busstop","ref":"429","name":"Güzeltepe Dört Yol","lines":["229","329","529"]},"geometry":{"type":"Point","coordinates":[27.0703,38.5]}},{"type":"Feature","properties":{"id":"bus-429-s20909","kind":"busstop","ref":"429","name":"Güzeltepe Muhtarlık","lines":["229","329","529"]},"geometry":{"type":"Point","coordinates":[27.0726,38.501]}},{"type":"Feature","properties":{"id":"bus-429-s20911","kind":"busstop","ref":"429","name":"Güzeltepe Esentepe Cami","lines":["229","329","529"]},"geometry":{"type":"Point","coordinates":[27.0753,38.5018]}},{"type":"Feature","properties":{"id":"bus-429-s20913","kind":"busstop","ref":"429","name":"Kemal Hadımlı Ortaokulu","lines":["229","329","529"]},"geometry":{"type":"Point","coordinates":[27.077,38.5023]}},{"type":"Feature","properties":{"id":"bus-429-s20939","kind":"busstop","ref":"429","name":"Güzeltepe Üçyol","lines":["329"]},"geometry":{"type":"Point","coordinates":[27.0766,38.5006]}},{"type":"Feature","properties":{"id":"bus-429-s20942","kind":"busstop","ref":"429","name":"Güzeltepe Manzara","lines":["329"]},"geometry":{"type":"Point","coordinates":[27.0737,38.4997]}},{"type":"Feature","properties":{"id":"bus-429-s20937","kind":"busstop","ref":"429","name":"Şehit Erdal Kılıç","lines":["329"]},"geometry":{"type":"Point","coordinates":[27.07229,38.49816]}},{"type":"Feature","properties":{"id":"bus-429-s20944","kind":"busstop","ref":"429","name":"Güzeltepe İlkokulu","lines":["329"]},"geometry":{"type":"Point","coordinates":[27.0713,38.4966]}},{"type":"Feature","properties":{"id":"bus-429-s20945","kind":"busstop","ref":"429","name":"Güzeltepe Karakol","lines":["329"]},"geometry":{"type":"Point","coordinates":[27.0694,38.495]}},{"type":"Feature","properties":{"id":"bus-429-s20947","kind":"busstop","ref":"429","name":"Şirintepe Market","lines":["329"]},"geometry":{"type":"Point","coordinates":[27.0681,38.4932]}},{"type":"Feature","properties":{"id":"bus-429-s20949","kind":"busstop","ref":"429","name":"Güzeltepe Kahve","lines":["329"]},"geometry":{"type":"Point","coordinates":[27.07047,38.49362]}},{"type":"Feature","properties":{"id":"bus-429-s20951","kind":"busstop","ref":"429","name":"Güzeltepe Eski son durak","lines":["329"]},"geometry":{"type":"Point","coordinates":[27.0727,38.4951]}},{"type":"Feature","properties":{"id":"bus-429-s20953","kind":"busstop","ref":"429","name":"Şehit Ahmet Ay Parkı","lines":["329"]},"geometry":{"type":"Point","coordinates":[27.07387,38.49512]}}]}