{"type":"FeatureCollection","features":[{"type":"Feature","properties":{"id":"bus-434-1","kind":"busline","ref":"434","dir":1},"geometry":{"type":"LineString","coordinates":[[27.1342,38.493],[27.1338,38.4929],[27.1352,38.4931],[27.1347,38.4915],[27.135,38.4911],[27.1358,38.491],[27.1353,38.4888],[27.1349,38.4884],[27.1345,38.4891],[27.134,38.4893],[27.134,38.4884],[27.1337,38.4874],[27.1335,38.4871],[27.1333,38.4871],[27.1328,38.4877],[27.1324,38.4867],[27.1241,38.4862],[27.1183,38.4863],[27.1131,38.4869],[27.1128,38.4872],[27.1128,38.4877],[27.113,38.4879],[27.1137,38.488],[27.1142,38.4876],[27.1137,38.4838],[27.1149,38.4804],[27.1155,38.4775],[27.1153,38.4754],[27.1149,38.4739],[27.1141,38.4725],[27.1111,38.4695],[27.1103,38.4695],[27.1103,38.4701],[27.111,38.4702],[27.1144,38.468],[27.1164,38.4674],[27.1181,38.4674],[27.1219,38.4684],[27.1254,38.4684],[27.1273,38.4677],[27.1294,38.4663],[27.1306,38.4658],[27.1332,38.4654],[27.1396,38.4649],[27.1415,38.4649],[27.1429,38.4652],[27.1528,38.4683],[27.1548,38.4686],[27.1568,38.4684],[27.1588,38.4675],[27.1587,38.4672],[27.1583,38.4672],[27.1564,38.4681],[27.1567,38.4683],[27.1572,38.4683],[27.1594,38.4678],[27.161,38.467],[27.1625,38.4658],[27.1645,38.4636],[27.1672,38.4591],[27.1705,38.4525],[27.1719,38.4505],[27.1724,38.4491],[27.1732,38.4444],[27.1724,38.4396],[27.1686,38.4376],[27.168,38.4365],[27.1677,38.4351],[27.1675,38.4349],[27.1668,38.435],[27.1666,38.4347],[27.167,38.4346],[27.1676,38.4348],[27.1678,38.435],[27.1678,38.4357],[27.1678,38.4355]]}},{"type":"Feature","properties":{"id":"bus-434-2","kind":"busline","ref":"434","dir":2},"geometry":{"type":"LineString","coordinates":[[27.1678,38.4355],[27.1678,38.435],[27.1678,38.4359],[27.1686,38.4376],[27.1724,38.4396],[27.1732,38.4443],[27.1724,38.4491],[27.1719,38.4505],[27.1705,38.4525],[27.1675,38.4587],[27.1645,38.4636],[27.1627,38.4657],[27.161,38.467],[27.1605,38.4672],[27.1601,38.467],[27.1588,38.4678],[27.1569,38.4685],[27.1544,38.4687],[27.1518,38.4682],[27.1426,38.4652],[27.1415,38.465],[27.139,38.465],[27.1318,38.4657],[27.1297,38.4664],[27.1273,38.4678],[27.1258,38.4684],[27.1246,38.4686],[27.1218,38.4685],[27.1181,38.4675],[27.1167,38.4675],[27.1146,38.4681],[27.114,38.4684],[27.1135,38.469],[27.1129,38.4708],[27.1133,38.4715],[27.114,38.4721],[27.1151,38.4739],[27.1156,38.476],[27.1156,38.4779],[27.115,38.4807],[27.1142,38.4832],[27.1146,38.4845],[27.1163,38.4857],[27.1173,38.486],[27.1287,38.4862],[27.1318,38.4857],[27.1321,38.4866],[27.1325,38.4868],[27.1328,38.4877],[27.1333,38.4871],[27.1335,38.4871],[27.1337,38.4874],[27.1341,38.4892],[27.1345,38.489],[27.1349,38.4883],[27.1351,38.4883],[27.1353,38.4888],[27.1358,38.491],[27.135,38.4911],[27.1347,38.4915],[27.1352,38.4931],[27.1338,38.4929],[27.1342,38.493]]}},{"type":"Feature","properties":{"id":"bus-434-s22044","kind":"busstop","ref":"434","name":"Körfez Evleri Son Durak","lines":["435"]},"geometry":{"type":"Point","coordinates":[27.1342,38.4929]}},{"type":"Feature","properties":{"id":"bus-434-s22032","kind":"busstop","ref":"434","name":"Hakimevleri Giriş","lines":["435"]},"geometry":{"type":"Point","coordinates":[27.1348,38.4921]}},{"type":"Feature","properties":{"id":"bus-434-s22041","kind":"busstop","ref":"434","name":"Körfez Evleri","lines":["435"]},"geometry":{"type":"Point","coordinates":[27.13531,38.49104]}},{"type":"Feature","properties":{"id":"bus-434-s22040","kind":"busstop","ref":"434","name":"Körfez Koru Evleri","lines":["435"]},"geometry":{"type":"Point","coordinates":[27.1354,38.4894]}},{"type":"Feature","properties":{"id":"bus-434-s22038","kind":"busstop","ref":"434","name":"Körfez Evleri Giriş","lines":["435","537"]},"geometry":{"type":"Point","coordinates":[27.134,38.489]}},{"type":"Feature","properties":{"id":"bus-434-s22036","kind":"busstop","ref":"434","name":"Körfez Mahallesi","lines":["435","537"]},"geometry":{"type":"Point","coordinates":[27.1325,38.4871]}},{"type":"Feature","properties":{"id":"bus-434-s20488","kind":"busstop","ref":"434","name":"Zihni Üstün İlkokulu","lines":["240","426","430","435","535","537","741"]},"geometry":{"type":"Point","coordinates":[27.11453,38.48101]}},{"type":"Feature","properties":{"id":"bus-434-s20486","kind":"busstop","ref":"434","name":"Girne Pazaryeri","lines":["240","426","430","435","535","537","741"]},"geometry":{"type":"Point","coordinates":[27.1151,38.4788]}},{"type":"Feature","properties":{"id":"bus-434-s20484","kind":"busstop","ref":"434","name":"Yeni Girne","lines":["147","148","240","258","426","430","435","532","535","537","741","847"]},"geometry":{"type":"Point","coordinates":[27.1152,38.4758]}},{"type":"Feature","properties":{"id":"bus-434-s20482","kind":"busstop","ref":"434","name":"Girne Konutları","lines":["136","140","147","148","240","258","426","430","435","532","535","741","847"]},"geometry":{"type":"Point","coordinates":[27.1148,38.4737]}},{"type":"Feature","properties":{"id":"bus-434-s20066","kind":"busstop","ref":"434","name":"Soğukkuyu Trafik","lines":["77","78","125","140","147","148","240","426","577","602","608","660","800","912"]},"geometry":{"type":"Point","coordinates":[27.1179,38.4674]}},{"type":"Feature","properties":{"id":"bus-434-s20064","kind":"busstop","ref":"434","name":"Öztürk","lines":["77","78","125","140","147","148","240","426","577","602","608","660","800","912"]},"geometry":{"type":"Point","coordinates":[27.12228,38.46832]}},{"type":"Feature","properties":{"id":"bus-434-s20062","kind":"busstop","ref":"434","name":"Naldöken","lines":["77","78","125","140","147","148","240","335","426","477","577","602","608","660","800","912"]},"geometry":{"type":"Point","coordinates":[27.1297,38.4661]}},{"type":"Feature","properties":{"id":"bus-434-s20060","kind":"busstop","ref":"434","name":"Turan","lines":["77","78","121","125","140","147","148","200","213","240","290","330","335","426","477","543","577","602","608","660","800","912","920"]},"geometry":{"type":"Point","coordinates":[27.1503,38.4675]}},{"type":"Feature","properties":{"id":"bus-434-s20058","kind":"busstop","ref":"434","name":"Bayraklı Çamlık","lines":["77","78","125","140","147","148","240","335","426","477","577"]},"geometry":{"type":"Point","coordinates":[27.1597,38.4676]}},{"type":"Feature","properties":{"id":"bus-434-s20056","kind":"busstop","ref":"434","name":"Bayraklı Park","lines":["77","78","125","140","147","148","240","335","426","477","577"]},"geometry":{"type":"Point","coordinates":[27.1635,38.4646]}},{"type":"Feature","properties":{"id":"bus-434-s20054","kind":"busstop","ref":"434","name":"Bayraklı İstasyon","lines":["77","78","125","140","147","148","240","335","426","477","577"]},"geometry":{"type":"Point","coordinates":[27.1647,38.463]}},{"type":"Feature","properties":{"id":"bus-434-s20052","kind":"busstop","ref":"434","name":"Çevre ve Şehircilik İl Müdürlüğü","lines":["77","78","125","140","147","148","240","335","426","477","577"]},"geometry":{"type":"Point","coordinates":[27.16715,38.45887]}},{"type":"Feature","properties":{"id":"bus-434-s20050","kind":"busstop","ref":"434","name":"Körfez","lines":["77","78","125","140","147","148","240","335","426","477","577"]},"geometry":{"type":"Point","coordinates":[27.16848,38.45642]}},{"type":"Feature","properties":{"id":"bus-434-s20048","kind":"busstop","ref":"434","name":"Makine Mühendisleri Odası","lines":["77","78","125","140","147","148","240","335","426","477","577"]},"geometry":{"type":"Point","coordinates":[27.1705,38.4525]}},{"type":"Feature","properties":{"id":"bus-434-s20046","kind":"busstop","ref":"434","name":"Salhane İş Merkezi","lines":["77","78","125","140","147","148","240","335","426","477","577"]},"geometry":{"type":"Point","coordinates":[27.1716,38.4508]}},{"type":"Feature","properties":{"id":"bus-434-s20044","kind":"busstop","ref":"434","name":"Zafer Payzın Kavşağı","lines":["77","78","125","140","147","148","240","335","426","477","577"]},"geometry":{"type":"Point","coordinates":[27.1729,38.4455]}},{"type":"Feature","properties":{"id":"bus-434-s20042","kind":"busstop","ref":"434","name":"Egem","lines":["77","78","125","140","147","148","240","335","426","477","577"]},"geometry":{"type":"Point","coordinates":[27.173,38.4436]}},{"type":"Feature","properties":{"id":"bus-434-s20040","kind":"busstop","ref":"434","name":"Çınarlı Hastanesi","lines":["77","78","125","140","147","148","240","335","426","477","577"]},"geometry":{"type":"Point","coordinates":[27.17267,38.44192]}},{"type":"Feature","properties":{"id":"bus-434-s11890","kind":"busstop","ref":"434","name":"Altınyağ","lines":["77","78","125","140","147","148","240","335","426","477","577"]},"geometry":{"type":"Point","coordinates":[27.1711,38.439]}},{"type":"Feature","properties":{"id":"bus-434-s10491","kind":"busstop","ref":"434","name":"Halkapınar 2","lines":["147","335"]},"geometry":{"type":"Point","coordinates":[27.16791,38.43548]}},{"type":"Feature","properties":{"id":"bus-434-s11889","kind":"busstop","ref":"434","name":"Altınyağ","lines":["77","78","125","140","147","148","240","335","426","477","577"]},"geometry":{"type":"Point","coordinates":[27.1709,38.4388]}},{"type":"Feature","properties":{"id":"bus-434-s20041","kind":"busstop","ref":"434","name":"Çınarlı Hastanesi","lines":["77","78","125","140","147","148","240","335","426","477","577"]},"geometry":{"type":"Point","coordinates":[27.1728,38.4418]}},{"type":"Feature","properties":{"id":"bus-434-s20043","kind":"busstop","ref":"434","name":"Egem","lines":["125","240","335","426","477","577"]},"geometry":{"type":"Point","coordinates":[27.17321,38.44403]}},{"type":"Feature","properties":{"id":"bus-434-s20045","kind":"busstop","ref":"434","name":"Salhane İş Merkezi","lines":["77","78","125","140","147","148","240","335","426","477","577"]},"geometry":{"type":"Point","coordinates":[27.1723,38.44991]}},{"type":"Feature","properties":{"id":"bus-434-s20047","kind":"busstop","ref":"434","name":"Makine Mühendisleri Odası","lines":["77","78","125","140","147","148","240","335","426","477","577"]},"geometry":{"type":"Point","coordinates":[27.17,38.4537]}},{"type":"Feature","properties":{"id":"bus-434-s20049","kind":"busstop","ref":"434","name":"Körfez","lines":["77","78","125","147","240","335","426","477","577"]},"geometry":{"type":"Point","coordinates":[27.16885,38.45614]}},{"type":"Feature","properties":{"id":"bus-434-s20051","kind":"busstop","ref":"434","name":"Çevre ve Şehircilik İl Müdürlüğü","lines":["77","78","125","140","147","148","240","335","426","477","577"]},"geometry":{"type":"Point","coordinates":[27.1671,38.4593]}},{"type":"Feature","properties":{"id":"bus-434-s20053","kind":"busstop","ref":"434","name":"Bayraklı İstasyon","lines":["77","78","125","140","147","148","240","335","426","477","577"]},"geometry":{"type":"Point","coordinates":[27.16471,38.46323]}},{"type":"Feature","properties":{"id":"bus-434-s20055","kind":"busstop","ref":"434","name":"Bayraklı Çamlık","lines":["77","78","102","125","140","147","148","240","335","426","477","501","502","504","577","662"]},"geometry":{"type":"Point","coordinates":[27.1611,38.4671]}},{"type":"Feature","properties":{"id":"bus-434-s20057","kind":"busstop","ref":"434","name":"Turan","lines":["77","78","121","125","140","147","148","200","240","290","330","335","426","477","543","577","602","608","660","800","912","920"]},"geometry":{"type":"Point","coordinates":[27.14939,38.46755]}},{"type":"Feature","properties":{"id":"bus-434-s20059","kind":"busstop","ref":"434","name":"Naldöken","lines":["77","78","125","140","147","148","240","426","577","602","608","660","800","912"]},"geometry":{"type":"Point","coordinates":[27.1293,38.4667]}},{"type":"Feature","properties":{"id":"bus-434-s20061","kind":"busstop","ref":"434","name":"Öztürk","lines":["77","78","125","140","147","148","240","426","577","602","608","660","800","912"]},"geometry":{"type":"Point","coordinates":[27.12101,38.46832]}},{"type":"Feature","properties":{"id":"bus-434-s20063","kind":"busstop","ref":"434","name":"Soğukkuyu Trafik","lines":["77","78","125","140","147","148","240","426","577","602","608","660","800","912"]},"geometry":{"type":"Point","coordinates":[27.1174,38.4675]}},{"type":"Feature","properties":{"id":"bus-434-s20483","kind":"busstop","ref":"434","name":"Girne Konutları","lines":["77","78","135","137","147","148","197","240","258","426","430","435","532","535","537","577","741","742","847"]},"geometry":{"type":"Point","coordinates":[27.1151,38.4737]}},{"type":"Feature","properties":{"id":"bus-434-s20485","kind":"busstop","ref":"434","name":"Yeni Girne","lines":["147","148","240","258","426","430","435","532","535","537","741","847"]},"geometry":{"type":"Point","coordinates":[27.1155,38.4754]}},{"type":"Feature","properties":{"id":"bus-434-s20487","kind":"busstop","ref":"434","name":"Girne Pazaryeri","lines":["240","426","430","435","535","537","741"]},"geometry":{"type":"Point","coordinates":[27.1155,38.4788]}},{"type":"Feature","properties":{"id":"bus-434-s20489","kind":"busstop","ref":"434","name":"Zihni Üstün İlkokulu","lines":["240","426","430","435","535","537","741"]},"geometry":{"type":"Point","coordinates":[27.1149,38.4812]}},{"type":"Feature","properties":{"id":"bus-434-s22035","kind":"busstop","ref":"434","name":"Körfez Mahallesi","lines":["435","537"]},"geometry":{"type":"Point","coordinates":[27.1327,38.4873]}},{"type":"Feature","properties":{"id":"bus-434-s22037","kind":"busstop","ref":"434","name":"Körfez Evleri Giriş","lines":["435","537"]},"geometry":{"type":"Point","coordinates":[27.1342,38.4888]}},{"type":"Feature","properties":{"id":"bus-434-s22039","kind":"busstop","ref":"434","name":"Körfez Koru Evleri","lines":["435"]},"geometry":{"type":"Point","coordinates":[27.1355,38.4896]}},{"type":"Feature","properties":{"id":"bus-434-s22042","kind":"busstop","ref":"434","name":"Körfez Evleri","lines":["435"]},"geometry":{"type":"Point","coordinates":[27.1354,38.4911]}},{"type":"Feature","properties":{"id":"bus-434-s22031","kind":"busstop","ref":"434","name":"Hakimevleri Giriş","lines":["435"]},"geometry":{"type":"Point","coordinates":[27.1349,38.4922]}}]}