{"type":"FeatureCollection","features":[{"type":"Feature","properties":{"id":"bus-441-1","kind":"busline","ref":"441","dir":1},"geometry":{"type":"LineString","coordinates":[[27.1867,38.4076],[27.1823,38.4074],[27.1799,38.4085],[27.1794,38.4089],[27.1793,38.4097],[27.1791,38.4096],[27.1786,38.4084],[27.1773,38.4093],[27.1771,38.4102],[27.1755,38.4109],[27.1734,38.4105],[27.1728,38.4106],[27.1708,38.4101],[27.1706,38.41],[27.1709,38.4093],[27.1688,38.4085],[27.1674,38.4074],[27.1659,38.4072],[27.1657,38.4067],[27.1663,38.4055],[27.1664,38.4049],[27.1654,38.4043],[27.1652,38.4038],[27.1647,38.4033],[27.1601,38.4013],[27.1592,38.4005],[27.1587,38.3999],[27.1565,38.3956],[27.1547,38.3916],[27.1512,38.3922],[27.1495,38.3929],[27.1489,38.3934],[27.1472,38.3931],[27.1477,38.3906],[27.1484,38.3898],[27.1496,38.3891]]}},{"type":"Feature","properties":{"id":"bus-441-2","kind":"busline","ref":"441","dir":2},"geometry":{"type":"LineString","coordinates":[[27.1488,38.3907],[27.1488,38.3898],[27.1488,38.3908],[27.1485,38.3912],[27.1485,38.3916],[27.1487,38.3918],[27.1485,38.393],[27.1496,38.3928],[27.1518,38.392],[27.1547,38.3916],[27.1565,38.3956],[27.1587,38.3999],[27.1592,38.4005],[27.1601,38.4013],[27.1635,38.4029],[27.1647,38.4032],[27.1661,38.403],[27.1661,38.4047],[27.1664,38.4049],[27.1664,38.4052],[27.1657,38.4067],[27.1659,38.4072],[27.1674,38.4074],[27.1688,38.4085],[27.1709,38.4093],[27.1706,38.41],[27.1708,38.4101],[27.1728,38.4106],[27.1729,38.4104],[27.1755,38.4109],[27.1771,38.4102],[27.1773,38.4093],[27.1786,38.4084],[27.1791,38.4096],[27.1793,38.4097],[27.1794,38.4089],[27.1799,38.4085],[27.1823,38.4074],[27.187,38.4076],[27.1867,38.4076]]}},{"type":"Feature","properties":{"id":"bus-441-s12054","kind":"busstop","ref":"441","name":"Çınartepe","lines":["42"]},"geometry":{"type":"Point","coordinates":[27.18671,38.40769]}},{"type":"Feature","properties":{"id":"bus-441-s12052","kind":"busstop","ref":"441","name":"Çınartepe Muhtarlık","lines":["42"]},"geometry":{"type":"Point","coordinates":[27.18296,38.40745]}},{"type":"Feature","properties":{"id":"bus-441-s12050","kind":"busstop","ref":"441","name":"Aydın","lines":["42"]},"geometry":{"type":"Point","coordinates":[27.1808,38.4081]}},{"type":"Feature","properties":{"id":"bus-441-s12042","kind":"busstop","ref":"441","name":"Düğün Salonu","lines":["34","42"]},"geometry":{"type":"Point","coordinates":[27.1792,38.4097]}},{"type":"Feature","properties":{"id":"bus-441-s41148","kind":"busstop","ref":"441","name":"Gültepe Mezarlık","lines":["34","42","475"]},"geometry":{"type":"Point","coordinates":[27.178,38.4087]}},{"type":"Feature","properties":{"id":"bus-441-s41146","kind":"busstop","ref":"441","name":"Manzara","lines":["34","42","475"]},"geometry":{"type":"Point","coordinates":[27.1763,38.4107]}},{"type":"Feature","properties":{"id":"bus-441-s41144","kind":"busstop","ref":"441","name":"Toros Meydan","lines":["34","42","475"]},"geometry":{"type":"Point","coordinates":[27.1731,38.4105]}},{"type":"Feature","properties":{"id":"bus-441-s41106","kind":"busstop","ref":"441","name":"Toros Pazaryeri","lines":["34"]},"geometry":{"type":"Point","coordinates":[27.17073,38.40954]}},{"type":"Feature","properties":{"id":"bus-441-s41104","kind":"busstop","ref":"441","name":"Telsizler","lines":["34"]},"geometry":{"type":"Point","coordinates":[27.168,38.4079]}},{"type":"Feature","properties":{"id":"bus-441-s41103","kind":"busstop","ref":"441","name":"Esentepe Gazi Engin Çiftçioğlu İlkokulu","lines":["34"]},"geometry":{"type":"Point","coordinates":[27.1667,38.4072]}},{"type":"Feature","properties":{"id":"bus-441-s41097","kind":"busstop","ref":"441","name":"Ufuk Cami","lines":["34"]},"geometry":{"type":"Point","coordinates":[27.1661,38.4058]}},{"type":"Feature","properties":{"id":"bus-441-s41094","kind":"busstop","ref":"441","name":"Yıkık Kemer","lines":["34"]},"geometry":{"type":"Point","coordinates":[27.1652,38.404]}},{"type":"Feature","properties":{"id":"bus-441-s40422","kind":"busstop","ref":"441","name":"Yıkıkkemer Meydan","lines":["72","472","871"]},"geometry":{"type":"Point","coordinates":[27.16382,38.4031]}},{"type":"Feature","properties":{"id":"bus-441-s40420","kind":"busstop","ref":"441","name":"Ufuk Karakolu","lines":["72","472","871"]},"geometry":{"type":"Point","coordinates":[27.16236,38.40231]}},{"type":"Feature","properties":{"id":"bus-441-s40418","kind":"busstop","ref":"441","name":"Dirayet Süren İlkokulu","lines":["72","472","871"]},"geometry":{"type":"Point","coordinates":[27.16,38.4012]}},{"type":"Feature","properties":{"id":"bus-441-s40416","kind":"busstop","ref":"441","name":"Manolya","lines":["72","472","871"]},"geometry":{"type":"Point","coordinates":[27.1584,38.3993]}},{"type":"Feature","properties":{"id":"bus-441-s40414","kind":"busstop","ref":"441","name":"Gül","lines":["72","472","871"]},"geometry":{"type":"Point","coordinates":[27.15701,38.39669]}},{"type":"Feature","properties":{"id":"bus-441-s40412","kind":"busstop","ref":"441","name":"Betonyol","lines":["72","472","871"]},"geometry":{"type":"Point","coordinates":[27.1563,38.3952]}},{"type":"Feature","properties":{"id":"bus-441-s40410","kind":"busstop","ref":"441","name":"Redresör","lines":["72","472","871"]},"geometry":{"type":"Point","coordinates":[27.1549,38.3924]}},{"type":"Feature","properties":{"id":"bus-441-s40010","kind":"busstop","ref":"441","name":"Şirinyer PTT","lines":["72","104","206","285","303","304","374","470","472","476","490","515","536","676","805","871","874","875","876","940"]},"geometry":{"type":"Point","coordinates":[27.1534,38.3918]}},{"type":"Feature","properties":{"id":"bus-441-s40153","kind":"busstop","ref":"441","name":"Şirinyer İstasyonu","lines":["36","74","206","418","466","476","536","671","676","805","818","838","866","871","874","875","876","878"]},"geometry":{"type":"Point","coordinates":[27.14743,38.39172]}},{"type":"Feature","properties":{"id":"bus-441-s40198","kind":"busstop","ref":"441","name":"Şirinyer Saha","lines":["36","74","418","465","471","472","476","536","671","676","805","818","838","866","871","874","875","876","878"]},"geometry":{"type":"Point","coordinates":[27.14911,38.3894]}},{"type":"Feature","properties":{"id":"bus-441-s41174","kind":"busstop","ref":"441","name":"Şirinyer Aktarma","lines":["472","838","871"]},"geometry":{"type":"Point","coordinates":[27.14881,38.39055]}},{"type":"Feature","properties":{"id":"bus-441-s40009","kind":"busstop","ref":"441","name":"Şirinyer Pazar Yeri","lines":["72","74","206","285","303","304","374","472","476","485","536","676","805","838","866","871","874","875","876"]},"geometry":{"type":"Point","coordinates":[27.1499,38.3926]}},{"type":"Feature","properties":{"id":"bus-441-s40411","kind":"busstop","ref":"441","name":"Redresör","lines":["72","472","838","871"]},"geometry":{"type":"Point","coordinates":[27.15538,38.39298]}},{"type":"Feature","properties":{"id":"bus-441-s40413","kind":"busstop","ref":"441","name":"Betonyol","lines":["72","472","871"]},"geometry":{"type":"Point","coordinates":[27.1561,38.3947]}},{"type":"Feature","properties":{"id":"bus-441-s40415","kind":"busstop","ref":"441","name":"Gül","lines":["72","472","871"]},"geometry":{"type":"Point","coordinates":[27.15719,38.39675]}},{"type":"Feature","properties":{"id":"bus-441-s40417","kind":"busstop","ref":"441","name":"Manolya","lines":["72","472","871"]},"geometry":{"type":"Point","coordinates":[27.1586,38.3995]}},{"type":"Feature","properties":{"id":"bus-441-s40419","kind":"busstop","ref":"441","name":"Dirayet Süren İlkokulu","lines":["72","472","871"]},"geometry":{"type":"Point","coordinates":[27.1598,38.401]}},{"type":"Feature","properties":{"id":"bus-441-s40421","kind":"busstop","ref":"441","name":"Ufuk Karakolu","lines":["72","472","871"]},"geometry":{"type":"Point","coordinates":[27.16242,38.40226]}},{"type":"Feature","properties":{"id":"bus-441-s40423","kind":"busstop","ref":"441","name":"Yıkıkkemer Meydan","lines":["72","472","871"]},"geometry":{"type":"Point","coordinates":[27.1645,38.4031]}},{"type":"Feature","properties":{"id":"bus-441-s41092","kind":"busstop","ref":"441","name":"Ptt","lines":["34"]},"geometry":{"type":"Point","coordinates":[27.16611,38.4034]}},{"type":"Feature","properties":{"id":"bus-441-s41096","kind":"busstop","ref":"441","name":"Ufuk Cami","lines":["34"]},"geometry":{"type":"Point","coordinates":[27.16623,38.40562]}},{"type":"Feature","properties":{"id":"bus-441-s41102","kind":"busstop","ref":"441","name":"Esentepe Gazi Engin Çiftçioğlu İlkokulu","lines":["34"]},"geometry":{"type":"Point","coordinates":[27.1664,38.4073]}},{"type":"Feature","properties":{"id":"bus-441-s41105","kind":"busstop","ref":"441","name":"Telsizler","lines":["34"]},"geometry":{"type":"Point","coordinates":[27.1685,38.4082]}},{"type":"Feature","properties":{"id":"bus-441-s41107","kind":"busstop","ref":"441","name":"Toros Pazaryeri","lines":["34"]},"geometry":{"type":"Point","coordinates":[27.17073,38.4098]}},{"type":"Feature","properties":{"id":"bus-441-s41145","kind":"busstop","ref":"441","name":"Toros Meydan","lines":["34","42","475"]},"geometry":{"type":"Point","coordinates":[27.173,38.4105]}},{"type":"Feature","properties":{"id":"bus-441-s41147","kind":"busstop","ref":"441","name":"Manzara","lines":["34","42","475"]},"geometry":{"type":"Point","coordinates":[27.1764,38.4106]}},{"type":"Feature","properties":{"id":"bus-441-s41149","kind":"busstop","ref":"441","name":"Gültepe Mezarlık","lines":["34","42","475"]},"geometry":{"type":"Point","coordinates":[27.1778,38.40883]}},{"type":"Feature","properties":{"id":"bus-441-s12043","kind":"busstop","ref":"441","name":"Düğün Salonu","lines":["34","42"]},"geometry":{"type":"Point","coordinates":[27.17897,38.40921]}},{"type":"Feature","properties":{"id":"bus-441-s12049","kind":"busstop","ref":"441","name":"Aydın","lines":["42"]},"geometry":{"type":"Point","coordinates":[27.1802,38.4083]}},{"type":"Feature","properties":{"id":"bus-441-s12051","kind":"busstop","ref":"441","name":"Çınartepe Muhtarlık","lines":["42"]},"geometry":{"type":"Point","coordinates":[27.1831,38.4074]}}]}