{"type":"FeatureCollection","features":[{"type":"Feature","properties":{"id":"bus-45-1","kind":"busline","ref":"45","dir":1},"geometry":{"type":"LineString","coordinates":[[27.1737,38.4163],[27.1709,38.4157],[27.1701,38.416],[27.1692,38.4168],[27.1685,38.417],[27.1684,38.4173],[27.1684,38.4176],[27.1687,38.4179],[27.1711,38.4197],[27.171,38.42],[27.1707,38.4201],[27.1712,38.4225],[27.1709,38.4252],[27.1631,38.4233],[27.1595,38.4234],[27.1521,38.4221],[27.1477,38.4225],[27.1436,38.4221],[27.1433,38.4228],[27.1433,38.424],[27.1431,38.4241],[27.1426,38.4241],[27.1421,38.4237],[27.1329,38.4244],[27.1319,38.4225],[27.1323,38.4232]]}},{"type":"Feature","properties":{"id":"bus-45-2","kind":"busline","ref":"45","dir":2},"geometry":{"type":"LineString","coordinates":[[27.1327,38.424],[27.1319,38.4225],[27.1428,38.4225],[27.1435,38.4221],[27.1474,38.4225],[27.1521,38.422],[27.1594,38.4233],[27.1637,38.4233],[27.1707,38.425],[27.1709,38.4249],[27.1709,38.4241],[27.1712,38.4233],[27.1711,38.4217],[27.1707,38.4201],[27.1703,38.4191],[27.1684,38.4176],[27.1685,38.417],[27.1695,38.4166],[27.1706,38.4154],[27.1712,38.4158],[27.1737,38.4163]]}},{"type":"Feature","properties":{"id":"bus-45-s12000","kind":"busstop","ref":"45","name":"Gültepe","lines":[]},"geometry":{"type":"Point","coordinates":[27.1736,38.4163]}},{"type":"Feature","properties":{"id":"bus-45-s11998","kind":"busstop","ref":"45","name":"Turgut Reis İlköğretim Okulu","lines":[]},"geometry":{"type":"Point","coordinates":[27.17111,38.41574]}},{"type":"Feature","properties":{"id":"bus-45-s11996","kind":"busstop","ref":"45","name":"Gözemel","lines":[]},"geometry":{"type":"Point","coordinates":[27.1685,38.4172]}},{"type":"Feature","properties":{"id":"bus-45-s11994","kind":"busstop","ref":"45","name":"Zafer","lines":[]},"geometry":{"type":"Point","coordinates":[27.16962,38.41851]}},{"type":"Feature","properties":{"id":"bus-45-s11992","kind":"busstop","ref":"45","name":"Kahveler","lines":["44","475"]},"geometry":{"type":"Point","coordinates":[27.1709,38.4206]}},{"type":"Feature","properties":{"id":"bus-45-s11990","kind":"busstop","ref":"45","name":"Sarışın","lines":["44","475"]},"geometry":{"type":"Point","coordinates":[27.17125,38.42269]}},{"type":"Feature","properties":{"id":"bus-45-s10368","kind":"busstop","ref":"45","name":"Yenişehir PTT","lines":["44","54","57","58","59","60","64","117","153","214","249","302","367","418","662","699"]},"geometry":{"type":"Point","coordinates":[27.16915,38.4248]}},{"type":"Feature","properties":{"id":"bus-45-s10366","kind":"busstop","ref":"45","name":"Tepecik Doğum Hastanesi","lines":["44","54","57","58","59","60","64","117","153","214","249","302","367","418","662","699"]},"geometry":{"type":"Point","coordinates":[27.1662,38.424]}},{"type":"Feature","properties":{"id":"bus-45-s10364","kind":"busstop","ref":"45","name":"Ziya Gökalp Ortaokulu","lines":["44","54","57","58","59","60","64","117","153","214","249","302","367","418","662","699"]},"geometry":{"type":"Point","coordinates":[27.1627,38.4233]}},{"type":"Feature","properties":{"id":"bus-45-s10362","kind":"busstop","ref":"45","name":"Eşref Paşa Hastanesi","lines":["44","54","57","58","59","60","64","117","153","214","249","302","367","418","662","699"]},"geometry":{"type":"Point","coordinates":[27.16,38.4234]}},{"type":"Feature","properties":{"id":"bus-45-s10358","kind":"busstop","ref":"45","name":"Kemer","lines":["34","35","36","39","41","42","44","46","49","302","466","838"]},"geometry":{"type":"Point","coordinates":[27.14892,38.42243]}},{"type":"Feature","properties":{"id":"bus-45-s10356","kind":"busstop","ref":"45","name":"Basmane Gar","lines":["34","35","36","39","41","42","44","46","49","302","466","838"]},"geometry":{"type":"Point","coordinates":[27.1448,38.4223]}},{"type":"Feature","properties":{"id":"bus-45-s10124","kind":"busstop","ref":"45","name":"Çardak 2","lines":["34","39","41","42","44","46","234"]},"geometry":{"type":"Point","coordinates":[27.13882,38.42399]}},{"type":"Feature","properties":{"id":"bus-45-s10136","kind":"busstop","ref":"45","name":"Şehit Fethibey","lines":[]},"geometry":{"type":"Point","coordinates":[27.13269,38.42401]}},{"type":"Feature","properties":{"id":"bus-45-s10121","kind":"busstop","ref":"45","name":"Çankaya","lines":["41","42","44","46","234","302","811","951"]},"geometry":{"type":"Point","coordinates":[27.13935,38.42242]}},{"type":"Feature","properties":{"id":"bus-45-s10357","kind":"busstop","ref":"45","name":"Basmane Gar","lines":["34","35","36","39","41","42","44","46","49","302","466","838"]},"geometry":{"type":"Point","coordinates":[27.1455,38.4224]}},{"type":"Feature","properties":{"id":"bus-45-s10361","kind":"busstop","ref":"45","name":"Kemer 2","lines":["34","36","39","41","42","44","46","466","838"]},"geometry":{"type":"Point","coordinates":[27.1506,38.422]}},{"type":"Feature","properties":{"id":"bus-45-s10363","kind":"busstop","ref":"45","name":"Eşref Paşa Hastanesi","lines":["44","49","54","57","58","59","60","64","117","153","214","249","302","367","418","662","699"]},"geometry":{"type":"Point","coordinates":[27.16153,38.42325]}},{"type":"Feature","properties":{"id":"bus-45-s10365","kind":"busstop","ref":"45","name":"Ziya Gökalp Ortaokulu","lines":["44","49","54","57","58","59","60","64","117","153","214","249","302","367","418","662","699"]},"geometry":{"type":"Point","coordinates":[27.16312,38.42325]}},{"type":"Feature","properties":{"id":"bus-45-s10367","kind":"busstop","ref":"45","name":"Tepecik Doğum Hastanesi","lines":["44","54","57","58","59","60","64","117","153","214","249","302","367","418","662","699"]},"geometry":{"type":"Point","coordinates":[27.1663,38.4239]}},{"type":"Feature","properties":{"id":"bus-45-s10369","kind":"busstop","ref":"45","name":"Yenişehir PTT","lines":["44","54","57","58","59","60","64","117","153","214","249","302","367","418","662","699"]},"geometry":{"type":"Point","coordinates":[27.17008,38.42475]}},{"type":"Feature","properties":{"id":"bus-45-s11989","kind":"busstop","ref":"45","name":"Sarışın","lines":["44","475"]},"geometry":{"type":"Point","coordinates":[27.17114,38.42246]}},{"type":"Feature","properties":{"id":"bus-45-s11991","kind":"busstop","ref":"45","name":"Kahveler","lines":["44","475"]},"geometry":{"type":"Point","coordinates":[27.17082,38.42094]}},{"type":"Feature","properties":{"id":"bus-45-s11993","kind":"busstop","ref":"45","name":"Göksel Yaman Parkı","lines":[]},"geometry":{"type":"Point","coordinates":[27.1703,38.4192]}},{"type":"Feature","properties":{"id":"bus-45-s11995","kind":"busstop","ref":"45","name":"Zafer","lines":[]},"geometry":{"type":"Point","coordinates":[27.1692,38.4183]}},{"type":"Feature","properties":{"id":"bus-45-s11997","kind":"busstop","ref":"45","name":"Gözemel","lines":[]},"geometry":{"type":"Point","coordinates":[27.1684,38.4173]}},{"type":"Feature","properties":{"id":"bus-45-s11999","kind":"busstop","ref":"45","name":"Turgut Reis İlköğretim Okulu","lines":[]},"geometry":{"type":"Point","coordinates":[27.17101,38.41559]}}]}