{"type":"FeatureCollection","features":[{"type":"Feature","properties":{"id":"bus-46-1","kind":"busline","ref":"46","dir":1},"geometry":{"type":"LineString","coordinates":[[27.1863,38.4141],[27.1862,38.4135],[27.1864,38.4131],[27.1859,38.4129],[27.1837,38.4126],[27.1822,38.4131],[27.1818,38.4127],[27.1809,38.4124],[27.1806,38.413],[27.1801,38.4134],[27.1783,38.4128],[27.1785,38.412],[27.1779,38.4118],[27.177,38.414],[27.1765,38.4143],[27.1763,38.4147],[27.1764,38.4151],[27.176,38.4151],[27.1734,38.4147],[27.1721,38.414],[27.1696,38.4137],[27.1665,38.4125],[27.1659,38.4138],[27.1659,38.4163],[27.1665,38.4186],[27.1676,38.4205],[27.1656,38.4203],[27.1624,38.4194],[27.1577,38.419],[27.1563,38.4226],[27.1591,38.4233],[27.1521,38.4221],[27.1477,38.4225],[27.1436,38.4221],[27.1433,38.4228],[27.1433,38.424],[27.1431,38.4241],[27.1426,38.4241],[27.1421,38.4237],[27.1329,38.4244],[27.1319,38.4225],[27.1323,38.4232]]}},{"type":"Feature","properties":{"id":"bus-46-2","kind":"busline","ref":"46","dir":2},"geometry":{"type":"LineString","coordinates":[[27.1323,38.4233],[27.1327,38.4239],[27.1319,38.4225],[27.1428,38.4225],[27.1435,38.4221],[27.1474,38.4225],[27.1519,38.422],[27.1582,38.4231],[27.1585,38.4224],[27.1566,38.4221],[27.1564,38.4219],[27.1577,38.419],[27.1624,38.4194],[27.1656,38.4203],[27.1676,38.4205],[27.1662,38.4178],[27.1658,38.4155],[27.1659,38.4138],[27.1661,38.4136],[27.1657,38.4133],[27.1654,38.4124],[27.1665,38.4125],[27.1696,38.4137],[27.1721,38.414],[27.1734,38.4147],[27.176,38.4151],[27.1764,38.4151],[27.1763,38.4147],[27.1765,38.4143],[27.177,38.414],[27.1779,38.4118],[27.1785,38.412],[27.1783,38.4128],[27.1801,38.4134],[27.1806,38.413],[27.1809,38.4124],[27.1819,38.4128],[27.1842,38.4126],[27.1859,38.4129],[27.1864,38.4131],[27.1862,38.4135],[27.1863,38.4141]]}},{"type":"Feature","properties":{"id":"bus-46-s11982","kind":"busstop","ref":"46","name":"Çobançeşme","lines":[]},"geometry":{"type":"Point","coordinates":[27.1862,38.4141]}},{"type":"Feature","properties":{"id":"bus-46-s11980","kind":"busstop","ref":"46","name":"Çobançeşme Eski Son Durak","lines":[]},"geometry":{"type":"Point","coordinates":[27.1861,38.413]}},{"type":"Feature","properties":{"id":"bus-46-s11978","kind":"busstop","ref":"46","name":"Sevgi","lines":[]},"geometry":{"type":"Point","coordinates":[27.1839,38.4126]}},{"type":"Feature","properties":{"id":"bus-46-s11984","kind":"busstop","ref":"46","name":"Millet Mahallesi","lines":[]},"geometry":{"type":"Point","coordinates":[27.1823,38.413]}},{"type":"Feature","properties":{"id":"bus-46-s11976","kind":"busstop","ref":"46","name":" Kıbrıs Şehitleri İlkokulu","lines":[]},"geometry":{"type":"Point","coordinates":[27.1813,38.4126]}},{"type":"Feature","properties":{"id":"bus-46-s11974","kind":"busstop","ref":"46","name":"Çamlık Cami","lines":[]},"geometry":{"type":"Point","coordinates":[27.17963,38.41329]}},{"type":"Feature","properties":{"id":"bus-46-s11964","kind":"busstop","ref":"46","name":"Gültepe Kültür MErkezi","lines":[]},"geometry":{"type":"Point","coordinates":[27.17852,38.41207]}},{"type":"Feature","properties":{"id":"bus-46-s11962","kind":"busstop","ref":"46","name":"Depo","lines":[]},"geometry":{"type":"Point","coordinates":[27.17766,38.41242]}},{"type":"Feature","properties":{"id":"bus-46-s11960","kind":"busstop","ref":"46","name":"Çobançeşme","lines":[]},"geometry":{"type":"Point","coordinates":[27.17689,38.41412]}},{"type":"Feature","properties":{"id":"bus-46-s11958","kind":"busstop","ref":"46","name":"Gültepe Karakol","lines":["475"]},"geometry":{"type":"Point","coordinates":[27.1731,38.4145]}},{"type":"Feature","properties":{"id":"bus-46-s11956","kind":"busstop","ref":"46","name":"Kahveler","lines":["475"]},"geometry":{"type":"Point","coordinates":[27.16984,38.41375]}},{"type":"Feature","properties":{"id":"bus-46-s11954","kind":"busstop","ref":"46","name":"Gazi Caddesi","lines":["475"]},"geometry":{"type":"Point","coordinates":[27.167,38.4126]}},{"type":"Feature","properties":{"id":"bus-46-s11952","kind":"busstop","ref":"46","name":"Levent","lines":["41","42"]},"geometry":{"type":"Point","coordinates":[27.1663,38.4131]}},{"type":"Feature","properties":{"id":"bus-46-s11942","kind":"busstop","ref":"46","name":"Levent Depo","lines":["41","42"]},"geometry":{"type":"Point","coordinates":[27.1659,38.4155]}},{"type":"Feature","properties":{"id":"bus-46-s11940","kind":"busstop","ref":"46","name":"Levent Çeşme","lines":["41","42"]},"geometry":{"type":"Point","coordinates":[27.16656,38.41851]}},{"type":"Feature","properties":{"id":"bus-46-s11938","kind":"busstop","ref":"46","name":"Barbaros Hayrettin İlkokulu","lines":["41","42"]},"geometry":{"type":"Point","coordinates":[27.1672,38.4198]}},{"type":"Feature","properties":{"id":"bus-46-s11932","kind":"busstop","ref":"46","name":"Zeytinlik","lines":["41","42","49"]},"geometry":{"type":"Point","coordinates":[27.16275,38.41957]}},{"type":"Feature","properties":{"id":"bus-46-s11930","kind":"busstop","ref":"46","name":"Hacı Bayram Cami","lines":["41","42","49"]},"geometry":{"type":"Point","coordinates":[27.15969,38.41918]}},{"type":"Feature","properties":{"id":"bus-46-s13352","kind":"busstop","ref":"46","name":"Kemer Aktarma Merkezi","lines":["34","39","41","42","49","418","466","838"]},"geometry":{"type":"Point","coordinates":[27.1567,38.42159]}},{"type":"Feature","properties":{"id":"bus-46-s10358","kind":"busstop","ref":"46","name":"Kemer","lines":["34","35","36","39","41","42","44","45","49","302","466","838"]},"geometry":{"type":"Point","coordinates":[27.14892,38.42243]}},{"type":"Feature","properties":{"id":"bus-46-s10356","kind":"busstop","ref":"46","name":"Basmane Gar","lines":["34","35","36","39","41","42","44","45","49","302","466","838"]},"geometry":{"type":"Point","coordinates":[27.1448,38.4223]}},{"type":"Feature","properties":{"id":"bus-46-s10124","kind":"busstop","ref":"46","name":"Çardak 2","lines":["34","39","41","42","44","45","234"]},"geometry":{"type":"Point","coordinates":[27.13882,38.42399]}},{"type":"Feature","properties":{"id":"bus-46-s10131","kind":"busstop","ref":"46","name":"Şehit Fethibey","lines":[]},"geometry":{"type":"Point","coordinates":[27.13229,38.42332]}},{"type":"Feature","properties":{"id":"bus-46-s10121","kind":"busstop","ref":"46","name":"Çankaya","lines":["41","42","44","45","234","302","811","951"]},"geometry":{"type":"Point","coordinates":[27.13935,38.42242]}},{"type":"Feature","properties":{"id":"bus-46-s10357","kind":"busstop","ref":"46","name":"Basmane Gar","lines":["34","35","36","39","41","42","44","45","49","302","466","838"]},"geometry":{"type":"Point","coordinates":[27.1455,38.4224]}},{"type":"Feature","properties":{"id":"bus-46-s10361","kind":"busstop","ref":"46","name":"Kemer 2","lines":["34","36","39","41","42","44","45","466","838"]},"geometry":{"type":"Point","coordinates":[27.1506,38.422]}},{"type":"Feature","properties":{"id":"bus-46-s13351","kind":"busstop","ref":"46","name":"Kemer Aktarma Merkezi","lines":["34","39","41","42","49","418","466","838"]},"geometry":{"type":"Point","coordinates":[27.15657,38.42134]}},{"type":"Feature","properties":{"id":"bus-46-s11929","kind":"busstop","ref":"46","name":"Hacı Bayram Cami","lines":["41","42"]},"geometry":{"type":"Point","coordinates":[27.16004,38.41913]}},{"type":"Feature","properties":{"id":"bus-46-s11931","kind":"busstop","ref":"46","name":"Zeytinlik","lines":["41","42"]},"geometry":{"type":"Point","coordinates":[27.1632,38.4196]}},{"type":"Feature","properties":{"id":"bus-46-s11937","kind":"busstop","ref":"46","name":"Barbaros Hayrettin İlkokulu","lines":["41","42"]},"geometry":{"type":"Point","coordinates":[27.1675,38.4202]}},{"type":"Feature","properties":{"id":"bus-46-s11939","kind":"busstop","ref":"46","name":"Levent Çeşme","lines":["41","42"]},"geometry":{"type":"Point","coordinates":[27.1665,38.4187]}},{"type":"Feature","properties":{"id":"bus-46-s11941","kind":"busstop","ref":"46","name":"Levent Depo","lines":["41","42"]},"geometry":{"type":"Point","coordinates":[27.1659,38.4158]}},{"type":"Feature","properties":{"id":"bus-46-s11947","kind":"busstop","ref":"46","name":"Dörtyol","lines":["42"]},"geometry":{"type":"Point","coordinates":[27.1656,38.4132]}},{"type":"Feature","properties":{"id":"bus-46-s11953","kind":"busstop","ref":"46","name":"Gazi Caddesi","lines":["475"]},"geometry":{"type":"Point","coordinates":[27.1667,38.4125]}},{"type":"Feature","properties":{"id":"bus-46-s11955","kind":"busstop","ref":"46","name":"Kahveler","lines":["475"]},"geometry":{"type":"Point","coordinates":[27.1699,38.4137]}},{"type":"Feature","properties":{"id":"bus-46-s11957","kind":"busstop","ref":"46","name":"Gültepe Karakol","lines":["475"]},"geometry":{"type":"Point","coordinates":[27.1735,38.4147]}},{"type":"Feature","properties":{"id":"bus-46-s11959","kind":"busstop","ref":"46","name":"Çobançeşme","lines":["475"]},"geometry":{"type":"Point","coordinates":[27.1765,38.4143]}},{"type":"Feature","properties":{"id":"bus-46-s11961","kind":"busstop","ref":"46","name":"Depo","lines":[]},"geometry":{"type":"Point","coordinates":[27.17763,38.41226]}},{"type":"Feature","properties":{"id":"bus-46-s11963","kind":"busstop","ref":"46","name":"Gültepe Kültür Merkezi","lines":[]},"geometry":{"type":"Point","coordinates":[27.17842,38.41208]}},{"type":"Feature","properties":{"id":"bus-46-s11973","kind":"busstop","ref":"46","name":"Çamlık Cami","lines":[]},"geometry":{"type":"Point","coordinates":[27.1791,38.413]}},{"type":"Feature","properties":{"id":"bus-46-s11975","kind":"busstop","ref":"46","name":" Kıbrıs Şehitleri İlkokulu","lines":[]},"geometry":{"type":"Point","coordinates":[27.18167,38.4126]}},{"type":"Feature","properties":{"id":"bus-46-s11977","kind":"busstop","ref":"46","name":"Sevgi","lines":[]},"geometry":{"type":"Point","coordinates":[27.1837,38.4126]}},{"type":"Feature","properties":{"id":"bus-46-s11979","kind":"busstop","ref":"46","name":"Çobançeşme Eski Son Durak","lines":[]},"geometry":{"type":"Point","coordinates":[27.1862,38.413]}}]}