{"type":"FeatureCollection","features":[{"type":"Feature","properties":{"id":"bus-465-1","kind":"busline","ref":"465","dir":1},"geometry":{"type":"LineString","coordinates":[[27.2113,38.3684],[27.2125,38.3681],[27.1971,38.373],[27.1947,38.3721],[27.1944,38.3725],[27.1934,38.3722],[27.1918,38.3721],[27.1908,38.3724],[27.1878,38.3727],[27.186,38.3734],[27.1849,38.3741],[27.1827,38.375],[27.1817,38.3752],[27.1804,38.3759],[27.1785,38.3763],[27.1762,38.3777],[27.1761,38.3783],[27.1764,38.3796],[27.1764,38.3823],[27.1738,38.3826],[27.1693,38.3835],[27.167,38.3847],[27.1655,38.3859],[27.1628,38.3871],[27.1597,38.3881],[27.1577,38.3881],[27.1516,38.3874],[27.1513,38.3884],[27.1514,38.3889],[27.1508,38.3907],[27.1515,38.3922],[27.1495,38.3929],[27.1489,38.3934],[27.1474,38.3931],[27.1429,38.3934],[27.1418,38.3936],[27.1402,38.3942],[27.1365,38.3947],[27.1353,38.3952],[27.1326,38.3969],[27.1318,38.398],[27.1294,38.4041],[27.1287,38.4052],[27.1285,38.4058],[27.1284,38.4077],[27.1289,38.4086],[27.1288,38.4108],[27.1279,38.4115],[27.1275,38.4123],[27.1277,38.4125],[27.1281,38.4121],[27.1284,38.4121],[27.1284,38.4123],[27.1269,38.4134],[27.1262,38.4136],[27.1282,38.4133],[27.1289,38.4137],[27.129,38.4144],[27.1286,38.4151],[27.1275,38.4163],[27.1272,38.4164]]}},{"type":"Feature","properties":{"id":"bus-465-2","kind":"busline","ref":"465","dir":2},"geometry":{"type":"LineString","coordinates":[[27.1272,38.4164],[27.1275,38.4163],[27.1266,38.4168],[27.1265,38.4172],[27.1278,38.419],[27.1283,38.4204],[27.1289,38.4211],[27.1305,38.4219],[27.131,38.4224],[27.1375,38.4225],[27.1369,38.4204],[27.1367,38.4179],[27.1355,38.4166],[27.1342,38.4143],[27.1334,38.4135],[27.132,38.413],[27.1307,38.412],[27.1289,38.4111],[27.1287,38.4107],[27.1288,38.4087],[27.1284,38.4082],[27.1282,38.4075],[27.1284,38.4058],[27.1294,38.4038],[27.1315,38.3983],[27.1322,38.3972],[27.1331,38.3964],[27.1359,38.3948],[27.1371,38.3945],[27.1397,38.3942],[27.1411,38.3936],[27.1423,38.3934],[27.1472,38.3931],[27.1477,38.3906],[27.149,38.3894],[27.1503,38.3889],[27.1512,38.3888],[27.1516,38.3874],[27.1577,38.3881],[27.1597,38.3881],[27.1628,38.3871],[27.1655,38.3859],[27.167,38.3847],[27.1686,38.3838],[27.1682,38.3834],[27.1684,38.3832],[27.1696,38.3835],[27.1761,38.3822],[27.1763,38.3819],[27.1756,38.3809],[27.1746,38.3798],[27.1735,38.3792],[27.1762,38.3785],[27.1762,38.3777],[27.1785,38.3763],[27.1804,38.3759],[27.1817,38.3752],[27.1827,38.375],[27.1849,38.3741],[27.186,38.3734],[27.1878,38.3727],[27.1908,38.3724],[27.1918,38.3721],[27.1944,38.3723],[27.1948,38.3717],[27.195,38.3707],[27.1954,38.3702],[27.1957,38.3704],[27.1948,38.372],[27.1971,38.3729],[27.2052,38.3702],[27.2054,38.37],[27.2057,38.3701],[27.2125,38.3681],[27.2106,38.3686]]}},{"type":"Feature","properties":{"id":"bus-465-s41416","kind":"busstop","ref":"465","name":"Tınaztepe Yerleşke Son Durak","lines":["171","277","476","676"]},"geometry":{"type":"Point","coordinates":[27.21132,38.36843]}},{"type":"Feature","properties":{"id":"bus-465-s40128","kind":"busstop","ref":"465","name":"Mühendislik Fakültesi","lines":["171","213","277","290","304","353","390","412","470","471","472","476","490","515","676","690","878"]},"geometry":{"type":"Point","coordinates":[27.2079,38.3696]}},{"type":"Feature","properties":{"id":"bus-465-s40892","kind":"busstop","ref":"465","name":"Kütüphane","lines":["171","277","304","353","412","470","471","472","476","490","515","676","878"]},"geometry":{"type":"Point","coordinates":[27.2028,38.3712]}},{"type":"Feature","properties":{"id":"bus-465-s40890","kind":"busstop","ref":"465","name":"Spor Salonu","lines":["171","277","304","353","412","470","471","472","476","490","515","676","878"]},"geometry":{"type":"Point","coordinates":[27.19967,38.37223]}},{"type":"Feature","properties":{"id":"bus-465-s40085","kind":"busstop","ref":"465","name":"Beş Selviler","lines":["171","174","175","176","177","206","277","304","353","470","471","472","476","490","515","536","676","878"]},"geometry":{"type":"Point","coordinates":[27.19377,38.37286]}},{"type":"Feature","properties":{"id":"bus-465-s40766","kind":"busstop","ref":"465","name":"Hacı Bektaş Veli Parkı","lines":["476"]},"geometry":{"type":"Point","coordinates":[27.19104,38.3723]}},{"type":"Feature","properties":{"id":"bus-465-s40764","kind":"busstop","ref":"465","name":"Ahmet Yesevi Öğrenci Yurdu","lines":["476"]},"geometry":{"type":"Point","coordinates":[27.18815,38.37272]}},{"type":"Feature","properties":{"id":"bus-465-s40762","kind":"busstop","ref":"465","name":"Yeşilkent","lines":["476"]},"geometry":{"type":"Point","coordinates":[27.18452,38.37422]}},{"type":"Feature","properties":{"id":"bus-465-s40760","kind":"busstop","ref":"465","name":"Buca Doğum Evi","lines":["476"]},"geometry":{"type":"Point","coordinates":[27.18055,38.37577]}},{"type":"Feature","properties":{"id":"bus-465-s40758","kind":"busstop","ref":"465","name":"Ali Rıza Efendi İlkokulu","lines":["476"]},"geometry":{"type":"Point","coordinates":[27.17726,38.37707]}},{"type":"Feature","properties":{"id":"bus-465-s41424","kind":"busstop","ref":"465","name":"Hoca","lines":["476"]},"geometry":{"type":"Point","coordinates":[27.17698,38.37734]}},{"type":"Feature","properties":{"id":"bus-465-s40742","kind":"busstop","ref":"465","name":"Buca Üçkuyular Meydan","lines":["104","304","470","471","476","490","676","805","866","878","940"]},"geometry":{"type":"Point","coordinates":[27.17594,38.38236]}},{"type":"Feature","properties":{"id":"bus-465-s40738","kind":"busstop","ref":"465","name":"Buca Sağlık Ocağı","lines":["104","206","304","353","470","471","472","476","490","515","536","676","805","866","878","940"]},"geometry":{"type":"Point","coordinates":[27.17252,38.38291]}},{"type":"Feature","properties":{"id":"bus-465-s40736","kind":"busstop","ref":"465","name":"Demokrasi Meydanı","lines":["74","471","472","818","866","878"]},"geometry":{"type":"Point","coordinates":[27.1682,38.3841]}},{"type":"Feature","properties":{"id":"bus-465-s40734","kind":"busstop","ref":"465","name":"Buca Devlet Hastanesi","lines":["74","471","472","818","866","878"]},"geometry":{"type":"Point","coordinates":[27.1657,38.3858]}},{"type":"Feature","properties":{"id":"bus-465-s40222","kind":"busstop","ref":"465","name":"Harp İş Sitesi","lines":["74","471"]},"geometry":{"type":"Point","coordinates":[27.1618,38.3874]}},{"type":"Feature","properties":{"id":"bus-465-s40220","kind":"busstop","ref":"465","name":"30 Ağustos İlköğretim Okulu","lines":["74","471"]},"geometry":{"type":"Point","coordinates":[27.1575,38.3881]}},{"type":"Feature","properties":{"id":"bus-465-s40218","kind":"busstop","ref":"465","name":"Ensar Cami","lines":["74","471"]},"geometry":{"type":"Point","coordinates":[27.15459,38.38776]}},{"type":"Feature","properties":{"id":"bus-465-s40216","kind":"busstop","ref":"465","name":"Ata","lines":["74","471"]},"geometry":{"type":"Point","coordinates":[27.1528,38.3875]}},{"type":"Feature","properties":{"id":"bus-465-s40160","kind":"busstop","ref":"465","name":"Şirinyer Parkı","lines":["36","74","418","466","471","485","866"]},"geometry":{"type":"Point","coordinates":[27.15104,38.39019]}},{"type":"Feature","properties":{"id":"bus-465-s40004","kind":"busstop","ref":"465","name":"Şirinyer Merkez","lines":["72","104","206","285","374","470","471","485","490","515","940"]},"geometry":{"type":"Point","coordinates":[27.14808,38.39327]}},{"type":"Feature","properties":{"id":"bus-465-s40002","kind":"busstop","ref":"465","name":"Nato","lines":["72","104","285","374","470","471","485","490","515","940"]},"geometry":{"type":"Point","coordinates":[27.1415,38.3938]}},{"type":"Feature","properties":{"id":"bus-465-s12070","kind":"busstop","ref":"465","name":"Şelale Parkı","lines":["72","104","105","171","233","234","285","374","470","471","484","490","940"]},"geometry":{"type":"Point","coordinates":[27.134,38.396]}},{"type":"Feature","properties":{"id":"bus-465-s12068","kind":"busstop","ref":"465","name":"Konak Anadolu Lisesi","lines":["72","104","105","171","233","234","285","374","470","471","484","485","490","940"]},"geometry":{"type":"Point","coordinates":[27.1321,38.3978]}},{"type":"Feature","properties":{"id":"bus-465-s12064","kind":"busstop","ref":"465","name":"Yağhaneler 2","lines":["72","104","105","171","233","234","285","374","470","471","484","485","490","940"]},"geometry":{"type":"Point","coordinates":[27.1306,38.4011]}},{"type":"Feature","properties":{"id":"bus-465-s12066","kind":"busstop","ref":"465","name":"Arap Cami","lines":["33","72","104","105","171","233","285","374","471","484","485","940"]},"geometry":{"type":"Point","coordinates":[27.12859,38.40571]}},{"type":"Feature","properties":{"id":"bus-465-s12058","kind":"busstop","ref":"465","name":"Eşrefpaşa","lines":["23","29","30","32","33","72","104","105","157","171","193","224","233","285","374","471","484","485","940"]},"geometry":{"type":"Point","coordinates":[27.1288,38.4083]}},{"type":"Feature","properties":{"id":"bus-465-s10240","kind":"busstop","ref":"465","name":"Kız Yurdu","lines":["15","18","19","20","23","29","30","32","33","72","104","105","152","157","171","193","224","233","285","374","471","484","485","508","550","587","588","887"]},"geometry":{"type":"Point","coordinates":[27.12721,38.41322]}},{"type":"Feature","properties":{"id":"bus-465-s10036","kind":"busstop","ref":"465","name":"Konak","lines":["104","171","471"]},"geometry":{"type":"Point","coordinates":[27.12724,38.41647]}},{"type":"Feature","properties":{"id":"bus-465-s10119","kind":"busstop","ref":"465","name":"Kavaflar","lines":["72","104","105","171","285","374","471","484","485","811"]},"geometry":{"type":"Point","coordinates":[27.1365,38.4224]}},{"type":"Feature","properties":{"id":"bus-465-s10231","kind":"busstop","ref":"465","name":"Kestelli","lines":["18","19","20","23","72","104","105","171","234","285","374","470","471","484","485","680","681","691","811","910","940","950"]},"geometry":{"type":"Point","coordinates":[27.1348,38.4156]}},{"type":"Feature","properties":{"id":"bus-465-s10235","kind":"busstop","ref":"465","name":"Koruluk","lines":["23","72","104","105","171","234","285","374","470","471","484","485","680","691","910","940","950"]},"geometry":{"type":"Point","coordinates":[27.1309,38.4123]}},{"type":"Feature","properties":{"id":"bus-465-s12057","kind":"busstop","ref":"465","name":"Eşrefpaşa","lines":["72","104","105","171","233","234","285","374","470","471","484","485","940"]},"geometry":{"type":"Point","coordinates":[27.1285,38.4081]}},{"type":"Feature","properties":{"id":"bus-465-s12065","kind":"busstop","ref":"465","name":"Yağhaneler 2","lines":["72","104","105","171","233","234","285","374","470","471","484","485","940"]},"geometry":{"type":"Point","coordinates":[27.13044,38.40104]}},{"type":"Feature","properties":{"id":"bus-465-s12069","kind":"busstop","ref":"465","name":"Konak Anadolu Lisesi","lines":["72","104","105","171","233","234","285","374","470","471","484","485","940"]},"geometry":{"type":"Point","coordinates":[27.1312,38.399]}},{"type":"Feature","properties":{"id":"bus-465-s12071","kind":"busstop","ref":"465","name":"Şelale Parkı","lines":["72","104","105","171","233","234","285","374","470","471","484","485","940"]},"geometry":{"type":"Point","coordinates":[27.13419,38.39567]}},{"type":"Feature","properties":{"id":"bus-465-s40001","kind":"busstop","ref":"465","name":"Nato","lines":["72","104","285","374","470","471","485","490","515","671","940"]},"geometry":{"type":"Point","coordinates":[27.1434,38.3933]}},{"type":"Feature","properties":{"id":"bus-465-s41310","kind":"busstop","ref":"465","name":"Şirinyer Aktarma","lines":["471","472"]},"geometry":{"type":"Point","coordinates":[27.14763,38.39066]}},{"type":"Feature","properties":{"id":"bus-465-s40198","kind":"busstop","ref":"465","name":"Şirinyer Saha","lines":["36","74","418","441","471","472","476","536","671","676","805","818","838","866","871","874","875","876","878"]},"geometry":{"type":"Point","coordinates":[27.14911,38.3894]}},{"type":"Feature","properties":{"id":"bus-465-s40215","kind":"busstop","ref":"465","name":"Ata","lines":["74","471"]},"geometry":{"type":"Point","coordinates":[27.1525,38.3874]}},{"type":"Feature","properties":{"id":"bus-465-s40217","kind":"busstop","ref":"465","name":"Ensar Cami","lines":["74","471"]},"geometry":{"type":"Point","coordinates":[27.1547,38.3877]}},{"type":"Feature","properties":{"id":"bus-465-s40219","kind":"busstop","ref":"465","name":"30 Ağustos İlköğretim Okulu","lines":["74","471"]},"geometry":{"type":"Point","coordinates":[27.15701,38.38798]}},{"type":"Feature","properties":{"id":"bus-465-s40221","kind":"busstop","ref":"465","name":"Harp İş Sitesi","lines":["74","471"]},"geometry":{"type":"Point","coordinates":[27.1617,38.3873]}},{"type":"Feature","properties":{"id":"bus-465-s40733","kind":"busstop","ref":"465","name":"Buca Devlet Hastanesi","lines":["74","471","472","818","866","878"]},"geometry":{"type":"Point","coordinates":[27.1656,38.3856]}},{"type":"Feature","properties":{"id":"bus-465-s40735","kind":"busstop","ref":"465","name":"Demokrasi Meydanı","lines":["74","471","472","818","866","878"]},"geometry":{"type":"Point","coordinates":[27.16813,38.38394]}},{"type":"Feature","properties":{"id":"bus-465-s40737","kind":"busstop","ref":"465","name":"Buca Sağlık Ocağı","lines":["104","206","304","353","470","471","472","476","490","515","536","676","805","866","878","940"]},"geometry":{"type":"Point","coordinates":[27.1728,38.3828]}},{"type":"Feature","properties":{"id":"bus-465-s40739","kind":"busstop","ref":"465","name":"Buca Üçkuyular Meydan","lines":["104","304","470","471","472","476","490","515","536","676","805","866","878","940"]},"geometry":{"type":"Point","coordinates":[27.1758,38.3823]}},{"type":"Feature","properties":{"id":"bus-465-s40251","kind":"busstop","ref":"465","name":"Eski Sinema 2","lines":["471","476","676","805"]},"geometry":{"type":"Point","coordinates":[27.17499,38.38031]}},{"type":"Feature","properties":{"id":"bus-465-s40252","kind":"busstop","ref":"465","name":"Eski Sinema","lines":["471","476","676","805"]},"geometry":{"type":"Point","coordinates":[27.17467,38.37884]}},{"type":"Feature","properties":{"id":"bus-465-s41425","kind":"busstop","ref":"465","name":"Hoca","lines":["476"]},"geometry":{"type":"Point","coordinates":[27.17701,38.37705]}},{"type":"Feature","properties":{"id":"bus-465-s40757","kind":"busstop","ref":"465","name":"Ali Rıza Efendi İlkokulu","lines":["476"]},"geometry":{"type":"Point","coordinates":[27.1783,38.3763]}},{"type":"Feature","properties":{"id":"bus-465-s40759","kind":"busstop","ref":"465","name":"Buca Doğum Evi","lines":["476"]},"geometry":{"type":"Point","coordinates":[27.1806,38.3757]}},{"type":"Feature","properties":{"id":"bus-465-s40761","kind":"busstop","ref":"465","name":"Yeşilkent","lines":["476"]},"geometry":{"type":"Point","coordinates":[27.18401,38.37438]}},{"type":"Feature","properties":{"id":"bus-465-s40763","kind":"busstop","ref":"465","name":"Fatih","lines":["476"]},"geometry":{"type":"Point","coordinates":[27.18694,38.37309]}},{"type":"Feature","properties":{"id":"bus-465-s40765","kind":"busstop","ref":"465","name":"Ahmet Yesevi Öğrenci Yurdu","lines":["476"]},"geometry":{"type":"Point","coordinates":[27.19028,38.37242]}},{"type":"Feature","properties":{"id":"bus-465-s40889","kind":"busstop","ref":"465","name":"Spor Salonu","lines":["171","277","304","353","412","470","471","472","476","490","515","676","878"]},"geometry":{"type":"Point","coordinates":[27.19977,38.37195]}},{"type":"Feature","properties":{"id":"bus-465-s40891","kind":"busstop","ref":"465","name":"Kütüphane","lines":["171","277","304","353","412","470","471","472","476","490","515","676","878"]},"geometry":{"type":"Point","coordinates":[27.2028,38.371]}},{"type":"Feature","properties":{"id":"bus-465-s40127","kind":"busstop","ref":"465","name":"Mühendislik Fakültesi","lines":["171","277","290","304","353","390","412","470","471","472","476","490","515","676","690","878"]},"geometry":{"type":"Point","coordinates":[27.208,38.3693]}},{"type":"Feature","properties":{"id":"bus-465-s41336","kind":"busstop","ref":"465","name":"Tınaztepe Yerleşke Son Durak","lines":["171","277","290","304","353","390","471","472","476","490","515","676","690"]},"geometry":{"type":"Point","coordinates":[27.21055,38.36849]}}]}