{"type":"FeatureCollection","features":[{"type":"Feature","properties":{"id":"bus-468-1","kind":"busline","ref":"468","dir":1},"geometry":{"type":"LineString","coordinates":[[27.2386,38.4503],[27.2388,38.4503],[27.2378,38.4502],[27.2379,38.4495],[27.2376,38.4494],[27.2346,38.4492],[27.2346,38.448],[27.2331,38.4479],[27.2323,38.4476],[27.2309,38.4476],[27.2301,38.4508],[27.228,38.45],[27.2253,38.4501],[27.2237,38.4504],[27.2217,38.4504],[27.2195,38.45],[27.2183,38.4501],[27.218,38.452],[27.2169,38.4554],[27.2167,38.4558],[27.2157,38.4564],[27.2164,38.4584],[27.2168,38.4589],[27.223,38.4596],[27.2271,38.4615],[27.2274,38.4619],[27.2272,38.4623],[27.2274,38.4642],[27.2304,38.4652],[27.2293,38.466],[27.2287,38.4662],[27.2285,38.4662],[27.2283,38.4656],[27.2284,38.4657]]}},{"type":"Feature","properties":{"id":"bus-468-2","kind":"busline","ref":"468","dir":2},"geometry":{"type":"LineString","coordinates":[[27.2284,38.4657],[27.2283,38.4656],[27.2285,38.4662],[27.2287,38.4662],[27.2293,38.466],[27.2304,38.4652],[27.227,38.4641],[27.2268,38.4631],[27.226,38.462],[27.2239,38.4606],[27.2221,38.4598],[27.2164,38.4592],[27.2165,38.4586],[27.2156,38.4563],[27.2166,38.4558],[27.2177,38.4526],[27.2183,38.4499],[27.2194,38.4499],[27.2218,38.4504],[27.2279,38.4499],[27.2301,38.4508],[27.2309,38.4476],[27.2323,38.4476],[27.2331,38.4479],[27.2346,38.448],[27.2346,38.4492],[27.2376,38.4494],[27.2379,38.4495],[27.2378,38.4502],[27.2387,38.4503]]}},{"type":"Feature","properties":{"id":"bus-468-s30603","kind":"busstop","ref":"468","name":"Mevlana Mahallesi Cami","lines":["268","358","367"]},"geometry":{"type":"Point","coordinates":[27.2385,38.4503]}},{"type":"Feature","properties":{"id":"bus-468-s30602","kind":"busstop","ref":"468","name":"Sarılar","lines":["268","358","367"]},"geometry":{"type":"Point","coordinates":[27.2357,38.4493]}},{"type":"Feature","properties":{"id":"bus-468-s30612","kind":"busstop","ref":"468","name":"Hasanağa Camii","lines":["268","358","367"]},"geometry":{"type":"Point","coordinates":[27.2337,38.448]}},{"type":"Feature","properties":{"id":"bus-468-s30598","kind":"busstop","ref":"468","name":"Çağla","lines":["268","358","367"]},"geometry":{"type":"Point","coordinates":[27.231,38.4482]}},{"type":"Feature","properties":{"id":"bus-468-s30596","kind":"busstop","ref":"468","name":"Adliye Lojmanları","lines":["268","358","367","368"]},"geometry":{"type":"Point","coordinates":[27.22978,38.45076]}},{"type":"Feature","properties":{"id":"bus-468-s30594","kind":"busstop","ref":"468","name":"Okul","lines":["268","358","367","368"]},"geometry":{"type":"Point","coordinates":[27.22717,38.45008]}},{"type":"Feature","properties":{"id":"bus-468-s30586","kind":"busstop","ref":"468","name":"Hasan Tahsin Özel Eğitim Okulu","lines":["268","358","367","368"]},"geometry":{"type":"Point","coordinates":[27.2234,38.4504]}},{"type":"Feature","properties":{"id":"bus-468-s30592","kind":"busstop","ref":"468","name":"Görme Engelliler Okulu","lines":["268","358","367","368"]},"geometry":{"type":"Point","coordinates":[27.2221,38.4505]}},{"type":"Feature","properties":{"id":"bus-468-s30590","kind":"busstop","ref":"468","name":"Okullar","lines":["268","358","367","368"]},"geometry":{"type":"Point","coordinates":[27.21981,38.45008]}},{"type":"Feature","properties":{"id":"bus-468-s30556","kind":"busstop","ref":"468","name":"Öğrenci Köyü","lines":["59","267","268","358","368","505"]},"geometry":{"type":"Point","coordinates":[27.2182,38.4507]}},{"type":"Feature","properties":{"id":"bus-468-s32476","kind":"busstop","ref":"468","name":"Ege Üniversitesi Öğrenci Köyü","lines":["59","267","268","358","368","505"]},"geometry":{"type":"Point","coordinates":[27.21732,38.45416]}},{"type":"Feature","properties":{"id":"bus-468-s30554","kind":"busstop","ref":"468","name":"Yeşil Köşk","lines":["59","267","268","358","368","505"]},"geometry":{"type":"Point","coordinates":[27.21625,38.45769]}},{"type":"Feature","properties":{"id":"bus-468-s30001","kind":"busstop","ref":"468","name":"Bornova Metro","lines":["268"]},"geometry":{"type":"Point","coordinates":[27.21417,38.45839]}},{"type":"Feature","properties":{"id":"bus-468-s30553","kind":"busstop","ref":"468","name":"Yeşil Köşk","lines":["59","267","268","358","368","505"]},"geometry":{"type":"Point","coordinates":[27.2161,38.4579]}},{"type":"Feature","properties":{"id":"bus-468-s32475","kind":"busstop","ref":"468","name":"Ege Üniversitesi Öğrenci Köyü","lines":["59","267","268","358","368","505"]},"geometry":{"type":"Point","coordinates":[27.21715,38.45404]}},{"type":"Feature","properties":{"id":"bus-468-s30555","kind":"busstop","ref":"468","name":"Öğrenci Köyü","lines":["59","267","268","358","368","505"]},"geometry":{"type":"Point","coordinates":[27.2181,38.4504]}},{"type":"Feature","properties":{"id":"bus-468-s30589","kind":"busstop","ref":"468","name":"Okullar","lines":["268","358","367","368"]},"geometry":{"type":"Point","coordinates":[27.2199,38.45]}},{"type":"Feature","properties":{"id":"bus-468-s30588","kind":"busstop","ref":"468","name":"Görme Engelliler Okulu","lines":["268","358","367","368"]},"geometry":{"type":"Point","coordinates":[27.22162,38.45025]}},{"type":"Feature","properties":{"id":"bus-468-s30591","kind":"busstop","ref":"468","name":"Hasan Tahsin Özel Eğitim Okulu","lines":["268","358","367","368"]},"geometry":{"type":"Point","coordinates":[27.22304,38.45037]}},{"type":"Feature","properties":{"id":"bus-468-s30593","kind":"busstop","ref":"468","name":"Okul","lines":["268","358","367","368"]},"geometry":{"type":"Point","coordinates":[27.22736,38.44989]}},{"type":"Feature","properties":{"id":"bus-468-s30595","kind":"busstop","ref":"468","name":"Adliye Lojmanları","lines":["268","358","367","368"]},"geometry":{"type":"Point","coordinates":[27.2299,38.45069]}},{"type":"Feature","properties":{"id":"bus-468-s30597","kind":"busstop","ref":"468","name":"Çağla","lines":["268","358","367"]},"geometry":{"type":"Point","coordinates":[27.2308,38.4481]}},{"type":"Feature","properties":{"id":"bus-468-s30611","kind":"busstop","ref":"468","name":"Hasanağa Camii","lines":["268","358","367"]},"geometry":{"type":"Point","coordinates":[27.2336,38.4479]}},{"type":"Feature","properties":{"id":"bus-468-s30601","kind":"busstop","ref":"468","name":"Sarılar","lines":["268","358","367"]},"geometry":{"type":"Point","coordinates":[27.2357,38.4492]}},{"type":"Feature","properties":{"id":"bus-468-s30604","kind":"busstop","ref":"468","name":"Mevlana Mahallesi Cami","lines":["268","358","367"]},"geometry":{"type":"Point","coordinates":[27.2386,38.4503]}}]}