{"type":"FeatureCollection","features":[{"type":"Feature","properties":{"id":"bus-480-1","kind":"busline","ref":"480","dir":1},"geometry":{"type":"LineString","coordinates":[[27.0282,38.4138],[27.0288,38.4133],[27.0321,38.4127],[27.0327,38.4121],[27.0354,38.4083],[27.0378,38.395],[27.0377,38.3941],[27.038,38.3935],[27.0381,38.3923],[27.0379,38.3892],[27.0377,38.389],[27.0382,38.388],[27.0405,38.3875],[27.046,38.3877],[27.0511,38.3868],[27.0574,38.3849],[27.0582,38.3843],[27.0583,38.3831],[27.0582,38.3828],[27.0575,38.3823],[27.0569,38.3821],[27.0593,38.3812],[27.0595,38.3812],[27.0607,38.3837],[27.0614,38.3842],[27.062,38.3865],[27.062,38.387],[27.0614,38.3869],[27.0603,38.3884],[27.0598,38.391],[27.0595,38.3909],[27.0591,38.3921],[27.0595,38.3928],[27.0597,38.394],[27.0621,38.3957],[27.0623,38.3961],[27.0638,38.3967],[27.0672,38.3972],[27.0703,38.397],[27.0706,38.3975],[27.071,38.3977],[27.0751,38.3985],[27.0788,38.3988],[27.0786,38.4003],[27.0783,38.4006],[27.0773,38.4007],[27.0754,38.4013],[27.0722,38.4033],[27.0696,38.4045],[27.069,38.405],[27.069,38.4053],[27.0696,38.4056],[27.069,38.4051]]}},{"type":"Feature","properties":{"id":"bus-480-2","kind":"busline","ref":"480","dir":2},"geometry":{"type":"LineString","coordinates":[[27.069,38.4051],[27.0693,38.4055],[27.0698,38.4056],[27.0697,38.4058],[27.0685,38.405],[27.0687,38.4049],[27.0686,38.4048],[27.0701,38.4041],[27.0708,38.4032],[27.0714,38.4033],[27.0722,38.4031],[27.0746,38.4015],[27.0775,38.4004],[27.0776,38.3998],[27.0773,38.3987],[27.0752,38.3986],[27.07,38.3976],[27.0653,38.3972],[27.062,38.3967],[27.0606,38.3961],[27.0576,38.3956],[27.0574,38.3953],[27.0576,38.395],[27.0579,38.395],[27.058,38.3943],[27.0581,38.3903],[27.0588,38.3877],[27.0586,38.3856],[27.0583,38.3846],[27.0519,38.3866],[27.046,38.3877],[27.0405,38.3875],[27.0389,38.3878],[27.0383,38.3882],[27.038,38.3889],[27.0382,38.3919],[27.0381,38.3943],[27.0378,38.3947],[27.0356,38.4068],[27.0359,38.4076],[27.0358,38.4085],[27.0362,38.4087],[27.0362,38.4101],[27.0338,38.4112],[27.0328,38.4124],[27.0315,38.4129],[27.0305,38.4129],[27.0288,38.4133],[27.0282,38.4138]]}},{"type":"Feature","properties":{"id":"bus-480-s50219","kind":"busstop","ref":"480","name":"İnciraltı Yeni Son Durak","lines":["311","481","486"]},"geometry":{"type":"Point","coordinates":[27.02821,38.41389]}},{"type":"Feature","properties":{"id":"bus-480-s50212","kind":"busstop","ref":"480","name":"İnciraltı Yurdu","lines":["311","481","486"]},"geometry":{"type":"Point","coordinates":[27.0308,38.4128]}},{"type":"Feature","properties":{"id":"bus-480-s50210","kind":"busstop","ref":"480","name":"Deniz Müzesi","lines":["311","481","486"]},"geometry":{"type":"Point","coordinates":[27.03223,38.41242]}},{"type":"Feature","properties":{"id":"bus-480-s52508","kind":"busstop","ref":"480","name":"İnciraltı 2","lines":["311","481","486"]},"geometry":{"type":"Point","coordinates":[27.0326,38.412]}},{"type":"Feature","properties":{"id":"bus-480-s50208","kind":"busstop","ref":"480","name":"İnciraltı","lines":["311","481","486"]},"geometry":{"type":"Point","coordinates":[27.0341,38.41]}},{"type":"Feature","properties":{"id":"bus-480-s50206","kind":"busstop","ref":"480","name":"Beşyol","lines":["311","481"]},"geometry":{"type":"Point","coordinates":[27.0355,38.4073]}},{"type":"Feature","properties":{"id":"bus-480-s50204","kind":"busstop","ref":"480","name":"Sera","lines":["311"]},"geometry":{"type":"Point","coordinates":[27.0361,38.4039]}},{"type":"Feature","properties":{"id":"bus-480-s50202","kind":"busstop","ref":"480","name":"Ata Durağı","lines":["311"]},"geometry":{"type":"Point","coordinates":[27.0366,38.4012]}},{"type":"Feature","properties":{"id":"bus-480-s50196","kind":"busstop","ref":"480","name":"Korutürk","lines":["510","551","650","950"]},"geometry":{"type":"Point","coordinates":[27.03793,38.39347]}},{"type":"Feature","properties":{"id":"bus-480-s52095","kind":"busstop","ref":"480","name":"Spor Salonu","lines":["510","551","650"]},"geometry":{"type":"Point","coordinates":[27.038,38.39151]}},{"type":"Feature","properties":{"id":"bus-480-s50198","kind":"busstop","ref":"480","name":"Termal","lines":["510","551","650","950"]},"geometry":{"type":"Point","coordinates":[27.03785,38.38955]}},{"type":"Feature","properties":{"id":"bus-480-s52626","kind":"busstop","ref":"480","name":"Ahmet Hakkı Balcıoğlu Mesleki Anadolu Lisesi","lines":["551","969"]},"geometry":{"type":"Point","coordinates":[27.03943,38.38769]}},{"type":"Feature","properties":{"id":"bus-480-s50174","kind":"busstop","ref":"480","name":"Teleferik","lines":["551","950","969"]},"geometry":{"type":"Point","coordinates":[27.0423,38.3874]}},{"type":"Feature","properties":{"id":"bus-480-s50172","kind":"busstop","ref":"480","name":"Ekonomi Üniversitesi","lines":["551","950","969"]},"geometry":{"type":"Point","coordinates":[27.0465,38.3875]}},{"type":"Feature","properties":{"id":"bus-480-s50170","kind":"busstop","ref":"480","name":"Salih Dede Anadolu Lisesi","lines":["551","950","969"]},"geometry":{"type":"Point","coordinates":[27.049,38.387]}},{"type":"Feature","properties":{"id":"bus-480-s50168","kind":"busstop","ref":"480","name":"Çifte Selviler","lines":["551","950","969"]},"geometry":{"type":"Point","coordinates":[27.05222,38.38636]}},{"type":"Feature","properties":{"id":"bus-480-s50166","kind":"busstop","ref":"480","name":"Gümüş","lines":["551","950","969"]},"geometry":{"type":"Point","coordinates":[27.0563,38.3851]}},{"type":"Feature","properties":{"id":"bus-480-s50159","kind":"busstop","ref":"480","name":"Merkez Cami","lines":["167","551","950","969"]},"geometry":{"type":"Point","coordinates":[27.0581,38.3829]}},{"type":"Feature","properties":{"id":"bus-480-s50165","kind":"busstop","ref":"480","name":"Asmaaltı","lines":["167","551","950","969"]},"geometry":{"type":"Point","coordinates":[27.05798,38.38165]}},{"type":"Feature","properties":{"id":"bus-480-s50150","kind":"busstop","ref":"480","name":"Tatbikat Cami","lines":["167","551","950","969"]},"geometry":{"type":"Point","coordinates":[27.06059,38.38323]}},{"type":"Feature","properties":{"id":"bus-480-s50152","kind":"busstop","ref":"480","name":"Duygu","lines":["167","551","950","969"]},"geometry":{"type":"Point","coordinates":[27.06176,38.38559]}},{"type":"Feature","properties":{"id":"bus-480-s50154","kind":"busstop","ref":"480","name":"Kabristan","lines":["167","551","950","969"]},"geometry":{"type":"Point","coordinates":[27.06046,38.38834]}},{"type":"Feature","properties":{"id":"bus-480-s50142","kind":"busstop","ref":"480","name":"Ziya Gökalp","lines":["167","551","950","969"]},"geometry":{"type":"Point","coordinates":[27.05924,38.39197]}},{"type":"Feature","properties":{"id":"bus-480-s50140","kind":"busstop","ref":"480","name":"Barış","lines":["167","551","950","969"]},"geometry":{"type":"Point","coordinates":[27.0604,38.3945]}},{"type":"Feature","properties":{"id":"bus-480-s50138","kind":"busstop","ref":"480","name":"İkiztepe","lines":["167","551","950","969"]},"geometry":{"type":"Point","coordinates":[27.0629,38.3962]}},{"type":"Feature","properties":{"id":"bus-480-s50004","kind":"busstop","ref":"480","name":"Fahrettin Altay Meydan 9 ","lines":["5","6","7","10","24","25","82","167","202","305","311","321","510","551","650","675","684","883","909","945","946","971","975","977","981","982","983","984","985","987"]},"geometry":{"type":"Point","coordinates":[27.0686,38.3971]}},{"type":"Feature","properties":{"id":"bus-480-s10182","kind":"busstop","ref":"480","name":"Fahrettin Altay Meydan 5","lines":["5","6","7","10","24","25","202","486","510","650","945","977"]},"geometry":{"type":"Point","coordinates":[27.07112,38.39764]}},{"type":"Feature","properties":{"id":"bus-480-s10178","kind":"busstop","ref":"480","name":"Adnan Saygun Sanat Merkezi","lines":["5","6","7","10","24","25","202","486","510","650","945","946","977"]},"geometry":{"type":"Point","coordinates":[27.07629,38.39857]}},{"type":"Feature","properties":{"id":"bus-480-s50003","kind":"busstop","ref":"480","name":"Üçkuyular İskele Son Durak","lines":["24","486"]},"geometry":{"type":"Point","coordinates":[27.06905,38.40505]}},{"type":"Feature","properties":{"id":"bus-480-s10199","kind":"busstop","ref":"480","name":"Adnan Saygun Sanat Merkezi","lines":["5","6","7","17","24","25","202","486","510","650","671","690","873","977"]},"geometry":{"type":"Point","coordinates":[27.07748,38.39979]}},{"type":"Feature","properties":{"id":"bus-480-s10177","kind":"busstop","ref":"480","name":"Hava Hastanesi","lines":["5","6","7","10","17","24","25","202","486","510","650","671","690","873","977"]},"geometry":{"type":"Point","coordinates":[27.0732,38.3982]}},{"type":"Feature","properties":{"id":"bus-480-s50007","kind":"busstop","ref":"480","name":"Fahrettin Altay Meydan 2","lines":["5","6","7","24","25","202","311","510","551","650","811","950","977"]},"geometry":{"type":"Point","coordinates":[27.06869,38.39752]}},{"type":"Feature","properties":{"id":"bus-480-s50147","kind":"busstop","ref":"480","name":"Balçova İstasyon","lines":["167","551","950","969"]},"geometry":{"type":"Point","coordinates":[27.05797,38.39349]}},{"type":"Feature","properties":{"id":"bus-480-s50149","kind":"busstop","ref":"480","name":"Balçova Anadolu Lisesi","lines":["167","551","950","969"]},"geometry":{"type":"Point","coordinates":[27.0582,38.3897]}},{"type":"Feature","properties":{"id":"bus-480-s50151","kind":"busstop","ref":"480","name":"Sevgi Yolu","lines":["167","551","950","969"]},"geometry":{"type":"Point","coordinates":[27.0588,38.3875]}},{"type":"Feature","properties":{"id":"bus-480-s50153","kind":"busstop","ref":"480","name":"Balçova Belediyesi","lines":["167","551","950","969"]},"geometry":{"type":"Point","coordinates":[27.0584,38.3854]}},{"type":"Feature","properties":{"id":"bus-480-s50167","kind":"busstop","ref":"480","name":"Aydibi","lines":["551","950","969"]},"geometry":{"type":"Point","coordinates":[27.0575,38.3848]}},{"type":"Feature","properties":{"id":"bus-480-s50169","kind":"busstop","ref":"480","name":"Gümüş","lines":["551","950","969"]},"geometry":{"type":"Point","coordinates":[27.0554,38.3854]}},{"type":"Feature","properties":{"id":"bus-480-s50171","kind":"busstop","ref":"480","name":"Çifte Selviler","lines":["551","950","969"]},"geometry":{"type":"Point","coordinates":[27.0528,38.3863]}},{"type":"Feature","properties":{"id":"bus-480-s50173","kind":"busstop","ref":"480","name":"Salih Dede Anadolu Lisesi","lines":["551","950","969"]},"geometry":{"type":"Point","coordinates":[27.04832,38.38723]}},{"type":"Feature","properties":{"id":"bus-480-s50175","kind":"busstop","ref":"480","name":"Teleferik","lines":["481","483","551","950","969"]},"geometry":{"type":"Point","coordinates":[27.0429,38.38762]}},{"type":"Feature","properties":{"id":"bus-480-s50177","kind":"busstop","ref":"480","name":"Turem","lines":["481","551","950","969"]},"geometry":{"type":"Point","coordinates":[27.0409,38.3875]}},{"type":"Feature","properties":{"id":"bus-480-s52627","kind":"busstop","ref":"480","name":"Ahmet Hakkı Balcıoğlu Mesleki Anadolu Lises","lines":["551","969"]},"geometry":{"type":"Point","coordinates":[27.03961,38.38773]}},{"type":"Feature","properties":{"id":"bus-480-s50197","kind":"busstop","ref":"480","name":"Termal","lines":["481","510","551","650","950"]},"geometry":{"type":"Point","coordinates":[27.038,38.3895]}},{"type":"Feature","properties":{"id":"bus-480-s51968","kind":"busstop","ref":"480","name":"Spor Salonu","lines":["481","510","551","650"]},"geometry":{"type":"Point","coordinates":[27.03814,38.39146]}},{"type":"Feature","properties":{"id":"bus-480-s50199","kind":"busstop","ref":"480","name":"Korutürk","lines":["481","483","510","551","650","950"]},"geometry":{"type":"Point","coordinates":[27.03813,38.39336]}},{"type":"Feature","properties":{"id":"bus-480-s50203","kind":"busstop","ref":"480","name":"Ata Durağı","lines":["311","811"]},"geometry":{"type":"Point","coordinates":[27.0367,38.4011]}},{"type":"Feature","properties":{"id":"bus-480-s50205","kind":"busstop","ref":"480","name":"Sera","lines":["311","811"]},"geometry":{"type":"Point","coordinates":[27.0362,38.4037]}},{"type":"Feature","properties":{"id":"bus-480-s50215","kind":"busstop","ref":"480","name":"Beşyol","lines":["311","811"]},"geometry":{"type":"Point","coordinates":[27.0358,38.4063]}},{"type":"Feature","properties":{"id":"bus-480-s50207","kind":"busstop","ref":"480","name":"Başak","lines":["311","481","486"]},"geometry":{"type":"Point","coordinates":[27.0363,38.4095]}},{"type":"Feature","properties":{"id":"bus-480-s50209","kind":"busstop","ref":"480","name":"İnciraltı","lines":["311","481","486"]},"geometry":{"type":"Point","coordinates":[27.0336,38.4115]}},{"type":"Feature","properties":{"id":"bus-480-s50211","kind":"busstop","ref":"480","name":"İnciraltı Park","lines":["311","481","486"]},"geometry":{"type":"Point","coordinates":[27.03074,38.41291]}}]}