{"type":"FeatureCollection","features":[{"type":"Feature","properties":{"id":"bus-484-1","kind":"busline","ref":"484","dir":1},"geometry":{"type":"LineString","coordinates":[[27.142,38.3694],[27.1416,38.3686],[27.1427,38.3683],[27.1454,38.3686],[27.147,38.3691],[27.1462,38.3702],[27.1459,38.3719],[27.1467,38.3722],[27.1481,38.3723],[27.1486,38.3701],[27.1504,38.3683],[27.151,38.3681],[27.1525,38.367],[27.1528,38.3657],[27.1531,38.3657],[27.1578,38.3692],[27.1563,38.3702],[27.1555,38.3703],[27.1537,38.3716],[27.1527,38.3727],[27.1506,38.3737],[27.1499,38.3743],[27.1502,38.3746],[27.149,38.3759],[27.1487,38.3765],[27.146,38.3784],[27.1466,38.3791],[27.1476,38.3796],[27.148,38.3801],[27.1462,38.3805],[27.1471,38.3827],[27.1474,38.3842],[27.1461,38.3845],[27.1434,38.3863],[27.1425,38.3872],[27.1405,38.3915],[27.1404,38.3923],[27.1408,38.3934],[27.1411,38.3937],[27.141,38.3939],[27.1402,38.3942],[27.1359,38.3949],[27.1326,38.3969],[27.1318,38.398],[27.1294,38.4041],[27.1285,38.4058],[27.1284,38.4077],[27.1289,38.4086],[27.1288,38.4108],[27.1279,38.4115],[27.1275,38.4123],[27.1277,38.4125],[27.1281,38.4121],[27.1284,38.4121],[27.1284,38.4123],[27.1269,38.4134],[27.1262,38.4136],[27.1282,38.4133],[27.129,38.4139],[27.129,38.4144],[27.1286,38.4151],[27.1275,38.4163],[27.127,38.4166]]}},{"type":"Feature","properties":{"id":"bus-484-2","kind":"busline","ref":"484","dir":2},"geometry":{"type":"LineString","coordinates":[[27.127,38.4166],[27.1272,38.4165],[27.1265,38.4169],[27.1265,38.4172],[27.1278,38.419],[27.1283,38.4204],[27.1289,38.4211],[27.1305,38.4219],[27.131,38.4224],[27.1375,38.4225],[27.1369,38.4204],[27.1367,38.4179],[27.1355,38.4166],[27.1342,38.4143],[27.1334,38.4135],[27.132,38.413],[27.1307,38.412],[27.1289,38.4111],[27.1287,38.4107],[27.1288,38.4087],[27.1284,38.4082],[27.1282,38.4075],[27.1283,38.4062],[27.1286,38.4052],[27.1294,38.4038],[27.1314,38.3985],[27.1322,38.3972],[27.1331,38.3964],[27.1359,38.3948],[27.1397,38.3942],[27.141,38.3937],[27.1404,38.3923],[27.1405,38.3915],[27.1426,38.387],[27.1433,38.3862],[27.1439,38.386],[27.1461,38.3845],[27.1473,38.3841],[27.1471,38.3827],[27.1462,38.3805],[27.148,38.3801],[27.1471,38.3793],[27.1457,38.3786],[27.1457,38.3784],[27.1464,38.3781],[27.1487,38.3765],[27.149,38.3759],[27.1502,38.3746],[27.1494,38.374],[27.1496,38.3738],[27.1506,38.3735],[27.1506,38.3737],[27.1524,38.3729],[27.1531,38.3724],[27.1537,38.3716],[27.1555,38.3703],[27.1563,38.3702],[27.1578,38.3693],[27.1531,38.3657],[27.1528,38.3657],[27.1525,38.367],[27.1523,38.3672],[27.151,38.3681],[27.1504,38.3683],[27.1486,38.3701],[27.1481,38.3723],[27.1467,38.3722],[27.1459,38.3719],[27.1448,38.3719],[27.1432,38.3724],[27.1418,38.369]]}},{"type":"Feature","properties":{"id":"bus-484-s40186","kind":"busstop","ref":"484","name":"İrfan Nadir İlkokulu","lines":["74","233"]},"geometry":{"type":"Point","coordinates":[27.1421,38.3694]}},{"type":"Feature","properties":{"id":"bus-484-s40365","kind":"busstop","ref":"484","name":"Osman Bey Anadolu Lisesi","lines":["74","233"]},"geometry":{"type":"Point","coordinates":[27.14411,38.36846]}},{"type":"Feature","properties":{"id":"bus-484-s40366","kind":"busstop","ref":"484","name":"Gökkuşağı","lines":["74"]},"geometry":{"type":"Point","coordinates":[27.14607,38.37121]}},{"type":"Feature","properties":{"id":"bus-484-s40362","kind":"busstop","ref":"484","name":"Göksu Pazaryeri","lines":["74"]},"geometry":{"type":"Point","coordinates":[27.14673,38.37203]}},{"type":"Feature","properties":{"id":"bus-484-s40359","kind":"busstop","ref":"484","name":"Recep Ersayın İlkokulu","lines":["74"]},"geometry":{"type":"Point","coordinates":[27.1487,38.37033]}},{"type":"Feature","properties":{"id":"bus-484-s40358","kind":"busstop","ref":"484","name":"Özel Sağlık","lines":["74"]},"geometry":{"type":"Point","coordinates":[27.1507,38.3682]}},{"type":"Feature","properties":{"id":"bus-484-s40356","kind":"busstop","ref":"484","name":"Göksu","lines":["74","485"]},"geometry":{"type":"Point","coordinates":[27.15261,38.36596]}},{"type":"Feature","properties":{"id":"bus-484-s40266","kind":"busstop","ref":"484","name":"Zencefil","lines":["74","353","818"]},"geometry":{"type":"Point","coordinates":[27.1555,38.3674]}},{"type":"Feature","properties":{"id":"bus-484-s40388","kind":"busstop","ref":"484","name":"Erguvan","lines":["74"]},"geometry":{"type":"Point","coordinates":[27.1564,38.3701]}},{"type":"Feature","properties":{"id":"bus-484-s40330","kind":"busstop","ref":"484","name":"Akasma","lines":["74"]},"geometry":{"type":"Point","coordinates":[27.15482,38.37087]}},{"type":"Feature","properties":{"id":"bus-484-s40328","kind":"busstop","ref":"484","name":"Üçyol","lines":["74","485"]},"geometry":{"type":"Point","coordinates":[27.1517,38.3733]}},{"type":"Feature","properties":{"id":"bus-484-s40340","kind":"busstop","ref":"484","name":"Bloklar","lines":[]},"geometry":{"type":"Point","coordinates":[27.1496,38.3753]}},{"type":"Feature","properties":{"id":"bus-484-s40338","kind":"busstop","ref":"484","name":"Nilüfer","lines":[]},"geometry":{"type":"Point","coordinates":[27.1476,38.3773]}},{"type":"Feature","properties":{"id":"bus-484-s40178","kind":"busstop","ref":"484","name":"Fırın","lines":["233"]},"geometry":{"type":"Point","coordinates":[27.1464,38.3789]}},{"type":"Feature","properties":{"id":"bus-484-s40176","kind":"busstop","ref":"484","name":"İzban Koşu Durağı","lines":["105","171","233","417","671"]},"geometry":{"type":"Point","coordinates":[27.1474,38.3836]}},{"type":"Feature","properties":{"id":"bus-484-s40146","kind":"busstop","ref":"484","name":"Akıncılar Merkez","lines":["105","171","233","417","671"]},"geometry":{"type":"Point","coordinates":[27.1458,38.3847]}},{"type":"Feature","properties":{"id":"bus-484-s40142","kind":"busstop","ref":"484","name":"Akıncılar Cami","lines":["105","171","233","417","671"]},"geometry":{"type":"Point","coordinates":[27.1431,38.3867]}},{"type":"Feature","properties":{"id":"bus-484-s40140","kind":"busstop","ref":"484","name":"Şirinyer Ertuğrul Gazi Anadolu Lisesi","lines":["105","171","233","417","671"]},"geometry":{"type":"Point","coordinates":[27.14192,38.3887]}},{"type":"Feature","properties":{"id":"bus-484-s40138","kind":"busstop","ref":"484","name":"Nato 1","lines":["105","171","233","417","671"]},"geometry":{"type":"Point","coordinates":[27.1406,38.3927]}},{"type":"Feature","properties":{"id":"bus-484-s12070","kind":"busstop","ref":"484","name":"Şelale Parkı","lines":["72","104","105","171","233","234","285","374","465","470","471","490","940"]},"geometry":{"type":"Point","coordinates":[27.134,38.396]}},{"type":"Feature","properties":{"id":"bus-484-s12068","kind":"busstop","ref":"484","name":"Konak Anadolu Lisesi","lines":["72","104","105","171","233","234","285","374","465","470","471","485","490","940"]},"geometry":{"type":"Point","coordinates":[27.1321,38.3978]}},{"type":"Feature","properties":{"id":"bus-484-s12064","kind":"busstop","ref":"484","name":"Yağhaneler 2","lines":["72","104","105","171","233","234","285","374","465","470","471","485","490","940"]},"geometry":{"type":"Point","coordinates":[27.1306,38.4011]}},{"type":"Feature","properties":{"id":"bus-484-s12066","kind":"busstop","ref":"484","name":"Arap Cami","lines":["33","72","104","105","171","233","285","374","465","471","485","940"]},"geometry":{"type":"Point","coordinates":[27.12859,38.40571]}},{"type":"Feature","properties":{"id":"bus-484-s12058","kind":"busstop","ref":"484","name":"Eşrefpaşa","lines":["23","29","30","32","33","72","104","105","157","171","193","224","233","285","374","465","471","485","940"]},"geometry":{"type":"Point","coordinates":[27.1288,38.4083]}},{"type":"Feature","properties":{"id":"bus-484-s10240","kind":"busstop","ref":"484","name":"Kız Yurdu","lines":["15","18","19","20","23","29","30","32","33","72","104","105","152","157","171","193","224","233","285","374","465","471","485","508","550","587","588","887"]},"geometry":{"type":"Point","coordinates":[27.12721,38.41322]}},{"type":"Feature","properties":{"id":"bus-484-s10037","kind":"busstop","ref":"484","name":"Konak","lines":["485"]},"geometry":{"type":"Point","coordinates":[27.12699,38.41663]}},{"type":"Feature","properties":{"id":"bus-484-s10119","kind":"busstop","ref":"484","name":"Kavaflar","lines":["72","104","105","171","285","374","465","471","485","811"]},"geometry":{"type":"Point","coordinates":[27.1365,38.4224]}},{"type":"Feature","properties":{"id":"bus-484-s10231","kind":"busstop","ref":"484","name":"Kestelli","lines":["18","19","20","23","72","104","105","171","234","285","374","465","470","471","485","680","681","691","811","910","940","950"]},"geometry":{"type":"Point","coordinates":[27.1348,38.4156]}},{"type":"Feature","properties":{"id":"bus-484-s10235","kind":"busstop","ref":"484","name":"Koruluk","lines":["23","72","104","105","171","234","285","374","465","470","471","485","680","691","910","940","950"]},"geometry":{"type":"Point","coordinates":[27.1309,38.4123]}},{"type":"Feature","properties":{"id":"bus-484-s12057","kind":"busstop","ref":"484","name":"Eşrefpaşa","lines":["72","104","105","171","233","234","285","374","465","470","471","485","940"]},"geometry":{"type":"Point","coordinates":[27.1285,38.4081]}},{"type":"Feature","properties":{"id":"bus-484-s12065","kind":"busstop","ref":"484","name":"Yağhaneler 2","lines":["72","104","105","171","233","234","285","374","465","470","471","485","940"]},"geometry":{"type":"Point","coordinates":[27.13044,38.40104]}},{"type":"Feature","properties":{"id":"bus-484-s12069","kind":"busstop","ref":"484","name":"Konak Anadolu Lisesi","lines":["72","104","105","171","233","234","285","374","465","470","471","485","940"]},"geometry":{"type":"Point","coordinates":[27.1312,38.399]}},{"type":"Feature","properties":{"id":"bus-484-s12071","kind":"busstop","ref":"484","name":"Şelale Parkı","lines":["72","104","105","171","233","234","285","374","465","470","471","485","940"]},"geometry":{"type":"Point","coordinates":[27.13419,38.39567]}},{"type":"Feature","properties":{"id":"bus-484-s40137","kind":"busstop","ref":"484","name":"Nato 1","lines":["105","171","233","417","671"]},"geometry":{"type":"Point","coordinates":[27.1406,38.3929]}},{"type":"Feature","properties":{"id":"bus-484-s40141","kind":"busstop","ref":"484","name":" Şirinyer Ertuğrul Gazi Anadolu Lisesi","lines":["105","171","233","417","671"]},"geometry":{"type":"Point","coordinates":[27.14174,38.38862]}},{"type":"Feature","properties":{"id":"bus-484-s40143","kind":"busstop","ref":"484","name":"Akıncılar Cami","lines":["105","171","233","417","671"]},"geometry":{"type":"Point","coordinates":[27.1436,38.386]}},{"type":"Feature","properties":{"id":"bus-484-s40145","kind":"busstop","ref":"484","name":"Akıncılar Merkez","lines":["105","171","233","417","671"]},"geometry":{"type":"Point","coordinates":[27.14599,38.38453]}},{"type":"Feature","properties":{"id":"bus-484-s40175","kind":"busstop","ref":"484","name":"İzban Koşu Durağı","lines":["105","171","233","417","671"]},"geometry":{"type":"Point","coordinates":[27.14717,38.38349]}},{"type":"Feature","properties":{"id":"bus-484-s40177","kind":"busstop","ref":"484","name":"Fırın","lines":["233"]},"geometry":{"type":"Point","coordinates":[27.146,38.3788]}},{"type":"Feature","properties":{"id":"bus-484-s40337","kind":"busstop","ref":"484","name":"Nilüfer","lines":[]},"geometry":{"type":"Point","coordinates":[27.1473,38.3773]}},{"type":"Feature","properties":{"id":"bus-484-s40339","kind":"busstop","ref":"484","name":"Bloklar","lines":[]},"geometry":{"type":"Point","coordinates":[27.1493,38.3755]}},{"type":"Feature","properties":{"id":"bus-484-s40329","kind":"busstop","ref":"484","name":"Üçyol","lines":["74","485"]},"geometry":{"type":"Point","coordinates":[27.1516,38.3733]}},{"type":"Feature","properties":{"id":"bus-484-s40331","kind":"busstop","ref":"484","name":"Akasma","lines":["74"]},"geometry":{"type":"Point","coordinates":[27.15474,38.37074]}},{"type":"Feature","properties":{"id":"bus-484-s40387","kind":"busstop","ref":"484","name":"Erguvan","lines":["74"]},"geometry":{"type":"Point","coordinates":[27.1568,38.3697]}},{"type":"Feature","properties":{"id":"bus-484-s40265","kind":"busstop","ref":"484","name":"Zencefil","lines":["74","353","818"]},"geometry":{"type":"Point","coordinates":[27.1553,38.3675]}},{"type":"Feature","properties":{"id":"bus-484-s40355","kind":"busstop","ref":"484","name":"Göksu","lines":["74","485"]},"geometry":{"type":"Point","coordinates":[27.1527,38.3663]}},{"type":"Feature","properties":{"id":"bus-484-s40357","kind":"busstop","ref":"484","name":"Özel Sağlık","lines":["74"]},"geometry":{"type":"Point","coordinates":[27.1509,38.3681]}},{"type":"Feature","properties":{"id":"bus-484-s40360","kind":"busstop","ref":"484","name":"Recep Ersayın İlkokulu","lines":["74"]},"geometry":{"type":"Point","coordinates":[27.14838,38.37061]}},{"type":"Feature","properties":{"id":"bus-484-s40361","kind":"busstop","ref":"484","name":"Göksu Pazaryeri","lines":["74"]},"geometry":{"type":"Point","coordinates":[27.14658,38.37215]}},{"type":"Feature","properties":{"id":"bus-484-s41372","kind":"busstop","ref":"484","name":"Göksu Parkı","lines":["74"]},"geometry":{"type":"Point","coordinates":[27.14404,38.37223]}},{"type":"Feature","properties":{"id":"bus-484-s40183","kind":"busstop","ref":"484","name":"İnkılap","lines":["74","233"]},"geometry":{"type":"Point","coordinates":[27.1428,38.3716]}},{"type":"Feature","properties":{"id":"bus-484-s40363","kind":"busstop","ref":"484","name":"İrfan Nadir İlkokulu","lines":["74","233"]},"geometry":{"type":"Point","coordinates":[27.1416,38.369]}}]}