{"type":"FeatureCollection","features":[{"type":"Feature","properties":{"id":"bus-485-1","kind":"busline","ref":"485","dir":1},"geometry":{"type":"LineString","coordinates":[[27.1357,38.3577],[27.1375,38.3612],[27.1376,38.3622],[27.138,38.362],[27.1382,38.3615],[27.1385,38.3613],[27.138,38.3599],[27.1381,38.3597],[27.1404,38.3592],[27.1422,38.3597],[27.1431,38.3597],[27.1445,38.3592],[27.1462,38.3593],[27.1448,38.3619],[27.1449,38.3623],[27.1447,38.3627],[27.1445,38.3664],[27.1469,38.3666],[27.1487,38.3675],[27.149,38.3673],[27.1499,38.3673],[27.1509,38.3675],[27.1514,38.3678],[27.1525,38.367],[27.1527,38.3659],[27.1528,38.3657],[27.1531,38.3657],[27.1549,38.3671],[27.1535,38.3694],[27.1515,38.3719],[27.1516,38.372],[27.1512,38.3721],[27.1518,38.3726],[27.152,38.3731],[27.1511,38.3734],[27.1499,38.3743],[27.1519,38.3756],[27.1508,38.3775],[27.1507,38.3782],[27.1508,38.3796],[27.151,38.3797],[27.1524,38.3829],[27.1524,38.3839],[27.1513,38.3884],[27.1514,38.3889],[27.1508,38.3907],[27.1515,38.3922],[27.1495,38.3929],[27.1489,38.3934],[27.1474,38.3931],[27.1429,38.3934],[27.1418,38.3936],[27.1402,38.3942],[27.1365,38.3947],[27.1353,38.3952],[27.1326,38.3969],[27.1314,38.3988],[27.1294,38.4041],[27.1285,38.4058],[27.1284,38.4077],[27.1289,38.4086],[27.1288,38.4108],[27.1279,38.4115],[27.1275,38.4123],[27.1277,38.4125],[27.1281,38.4121],[27.1284,38.4121],[27.1284,38.4123],[27.1269,38.4134],[27.1262,38.4136],[27.1282,38.4133],[27.129,38.4139],[27.129,38.4144],[27.1286,38.4151],[27.1275,38.4163],[27.127,38.4166]]}},{"type":"Feature","properties":{"id":"bus-485-2","kind":"busline","ref":"485","dir":2},"geometry":{"type":"LineString","coordinates":[[27.127,38.4166],[27.1272,38.4165],[27.1265,38.4169],[27.1265,38.4172],[27.1278,38.419],[27.1283,38.4204],[27.1289,38.4211],[27.1305,38.4219],[27.131,38.4224],[27.1375,38.4225],[27.1369,38.4204],[27.1367,38.4179],[27.1355,38.4166],[27.1342,38.4143],[27.1334,38.4135],[27.132,38.413],[27.1307,38.412],[27.1289,38.4111],[27.1287,38.4107],[27.1288,38.4087],[27.1284,38.4082],[27.1282,38.4075],[27.1283,38.4062],[27.1286,38.4052],[27.1294,38.4038],[27.1314,38.3985],[27.1322,38.3972],[27.1331,38.3964],[27.1359,38.3948],[27.1397,38.3942],[27.1411,38.3936],[27.1423,38.3934],[27.1485,38.393],[27.1496,38.3928],[27.1514,38.392],[27.1508,38.3907],[27.1512,38.3895],[27.1511,38.3888],[27.1513,38.3886],[27.1516,38.3874],[27.1524,38.3835],[27.1523,38.3829],[27.1513,38.3807],[27.151,38.3801],[27.1506,38.3799],[27.1506,38.3789],[27.1508,38.3775],[27.1519,38.3756],[27.1499,38.3743],[27.1511,38.3734],[27.152,38.3731],[27.1518,38.3726],[27.1512,38.3721],[27.1516,38.372],[27.1515,38.3719],[27.1535,38.3694],[27.1549,38.3671],[27.1531,38.3657],[27.1528,38.3657],[27.1527,38.3659],[27.1525,38.367],[27.1514,38.3678],[27.1509,38.3675],[27.1499,38.3673],[27.149,38.3673],[27.1487,38.3675],[27.1469,38.3666],[27.1445,38.3664],[27.1447,38.3627],[27.1449,38.3623],[27.1448,38.3619],[27.1462,38.3593],[27.1445,38.3592],[27.1431,38.3597],[27.1422,38.3597],[27.1404,38.3592],[27.1381,38.3598],[27.1386,38.3614],[27.1382,38.3616],[27.1378,38.3625],[27.1373,38.3626],[27.137,38.3609],[27.1349,38.3571],[27.1351,38.3568],[27.1357,38.3577]]}},{"type":"Feature","properties":{"id":"bus-485-s10678","kind":"busstop","ref":"485","name":"Gaziemir Aktarma Merkezi","lines":["508","610","823","828","877","879","891"]},"geometry":{"type":"Point","coordinates":[27.13556,38.35726]}},{"type":"Feature","properties":{"id":"bus-485-s10652","kind":"busstop","ref":"485","name":"Sinem","lines":["152","200","508","539","691","887","910"]},"geometry":{"type":"Point","coordinates":[27.1371,38.3603]}},{"type":"Feature","properties":{"id":"bus-485-s40714","kind":"busstop","ref":"485","name":"Adile Naşit Parkı","lines":[]},"geometry":{"type":"Point","coordinates":[27.1408,38.3592]}},{"type":"Feature","properties":{"id":"bus-485-s40712","kind":"busstop","ref":"485","name":"Hüseyin Avni Ateşoğlu İlköğretim Okulu","lines":[]},"geometry":{"type":"Point","coordinates":[27.1437,38.3595]}},{"type":"Feature","properties":{"id":"bus-485-s40380","kind":"busstop","ref":"485","name":"Gediz Meydan","lines":[]},"geometry":{"type":"Point","coordinates":[27.1454,38.361]}},{"type":"Feature","properties":{"id":"bus-485-s41264","kind":"busstop","ref":"485","name":"Öğrenci Yurdu","lines":[]},"geometry":{"type":"Point","coordinates":[27.1448,38.3628]}},{"type":"Feature","properties":{"id":"bus-485-s41262","kind":"busstop","ref":"485","name":"Buca Gazi Ortaokulu","lines":[]},"geometry":{"type":"Point","coordinates":[27.1447,38.3658]}},{"type":"Feature","properties":{"id":"bus-485-s41250","kind":"busstop","ref":"485","name":"Göksu Muhtarlık","lines":[]},"geometry":{"type":"Point","coordinates":[27.1472,38.3667]}},{"type":"Feature","properties":{"id":"bus-485-s41248","kind":"busstop","ref":"485","name":"Kardelen","lines":[]},"geometry":{"type":"Point","coordinates":[27.1495,38.3673]}},{"type":"Feature","properties":{"id":"bus-485-s40356","kind":"busstop","ref":"485","name":"Göksu","lines":["74","484"]},"geometry":{"type":"Point","coordinates":[27.15261,38.36596]}},{"type":"Feature","properties":{"id":"bus-485-s40352","kind":"busstop","ref":"485","name":"Çitlenbik","lines":[]},"geometry":{"type":"Point","coordinates":[27.1546,38.3676]}},{"type":"Feature","properties":{"id":"bus-485-s40344","kind":"busstop","ref":"485","name":"Veysel Karani Cami","lines":[]},"geometry":{"type":"Point","coordinates":[27.1531,38.3699]}},{"type":"Feature","properties":{"id":"bus-485-s40342","kind":"busstop","ref":"485","name":"Fulya","lines":[]},"geometry":{"type":"Point","coordinates":[27.1517,38.3718]}},{"type":"Feature","properties":{"id":"bus-485-s40328","kind":"busstop","ref":"485","name":"Üçyol","lines":["74","484"]},"geometry":{"type":"Point","coordinates":[27.1517,38.3733]}},{"type":"Feature","properties":{"id":"bus-485-s40327","kind":"busstop","ref":"485","name":"Çiçek","lines":["74"]},"geometry":{"type":"Point","coordinates":[27.1506,38.3748]}},{"type":"Feature","properties":{"id":"bus-485-s41370","kind":"busstop","ref":"485","name":"Bahçe","lines":[]},"geometry":{"type":"Point","coordinates":[27.1509,38.3779]}},{"type":"Feature","properties":{"id":"bus-485-s40166","kind":"busstop","ref":"485","name":"Enhoşlar","lines":[]},"geometry":{"type":"Point","coordinates":[27.1524,38.3831]}},{"type":"Feature","properties":{"id":"bus-485-s40162","kind":"busstop","ref":"485","name":"Buca Hipodrom","lines":[]},"geometry":{"type":"Point","coordinates":[27.15171,38.387]}},{"type":"Feature","properties":{"id":"bus-485-s40160","kind":"busstop","ref":"485","name":"Şirinyer Parkı","lines":["36","74","418","465","466","471","866"]},"geometry":{"type":"Point","coordinates":[27.15104,38.39019]}},{"type":"Feature","properties":{"id":"bus-485-s40004","kind":"busstop","ref":"485","name":"Şirinyer Merkez","lines":["72","104","206","285","374","465","470","471","490","515","940"]},"geometry":{"type":"Point","coordinates":[27.14808,38.39327]}},{"type":"Feature","properties":{"id":"bus-485-s40002","kind":"busstop","ref":"485","name":"Nato","lines":["72","104","285","374","465","470","471","490","515","940"]},"geometry":{"type":"Point","coordinates":[27.1415,38.3938]}},{"type":"Feature","properties":{"id":"bus-485-s12068","kind":"busstop","ref":"485","name":"Konak Anadolu Lisesi","lines":["72","104","105","171","233","234","285","374","465","470","471","484","490","940"]},"geometry":{"type":"Point","coordinates":[27.1321,38.3978]}},{"type":"Feature","properties":{"id":"bus-485-s12064","kind":"busstop","ref":"485","name":"Yağhaneler 2","lines":["72","104","105","171","233","234","285","374","465","470","471","484","490","940"]},"geometry":{"type":"Point","coordinates":[27.1306,38.4011]}},{"type":"Feature","properties":{"id":"bus-485-s12066","kind":"busstop","ref":"485","name":"Arap Cami","lines":["33","72","104","105","171","233","285","374","465","471","484","940"]},"geometry":{"type":"Point","coordinates":[27.12859,38.40571]}},{"type":"Feature","properties":{"id":"bus-485-s12058","kind":"busstop","ref":"485","name":"Eşrefpaşa","lines":["23","29","30","32","33","72","104","105","157","171","193","224","233","285","374","465","471","484","940"]},"geometry":{"type":"Point","coordinates":[27.1288,38.4083]}},{"type":"Feature","properties":{"id":"bus-485-s10240","kind":"busstop","ref":"485","name":"Kız Yurdu","lines":["15","18","19","20","23","29","30","32","33","72","104","105","152","157","171","193","224","233","285","374","465","471","484","508","550","587","588","887"]},"geometry":{"type":"Point","coordinates":[27.12721,38.41322]}},{"type":"Feature","properties":{"id":"bus-485-s10037","kind":"busstop","ref":"485","name":"Konak","lines":["484"]},"geometry":{"type":"Point","coordinates":[27.12699,38.41663]}},{"type":"Feature","properties":{"id":"bus-485-s10119","kind":"busstop","ref":"485","name":"Kavaflar","lines":["72","104","105","171","285","374","465","471","484","811"]},"geometry":{"type":"Point","coordinates":[27.1365,38.4224]}},{"type":"Feature","properties":{"id":"bus-485-s10231","kind":"busstop","ref":"485","name":"Kestelli","lines":["18","19","20","23","72","104","105","171","234","285","374","465","470","471","484","680","681","691","811","910","940","950"]},"geometry":{"type":"Point","coordinates":[27.1348,38.4156]}},{"type":"Feature","properties":{"id":"bus-485-s10235","kind":"busstop","ref":"485","name":"Koruluk","lines":["23","72","104","105","171","234","285","374","465","470","471","484","680","691","910","940","950"]},"geometry":{"type":"Point","coordinates":[27.1309,38.4123]}},{"type":"Feature","properties":{"id":"bus-485-s12057","kind":"busstop","ref":"485","name":"Eşrefpaşa","lines":["72","104","105","171","233","234","285","374","465","470","471","484","940"]},"geometry":{"type":"Point","coordinates":[27.1285,38.4081]}},{"type":"Feature","properties":{"id":"bus-485-s12065","kind":"busstop","ref":"485","name":"Yağhaneler 2","lines":["72","104","105","171","233","234","285","374","465","470","471","484","940"]},"geometry":{"type":"Point","coordinates":[27.13044,38.40104]}},{"type":"Feature","properties":{"id":"bus-485-s12069","kind":"busstop","ref":"485","name":"Konak Anadolu Lisesi","lines":["72","104","105","171","233","234","285","374","465","470","471","484","940"]},"geometry":{"type":"Point","coordinates":[27.1312,38.399]}},{"type":"Feature","properties":{"id":"bus-485-s12071","kind":"busstop","ref":"485","name":"Şelale Parkı","lines":["72","104","105","171","233","234","285","374","465","470","471","484","940"]},"geometry":{"type":"Point","coordinates":[27.13419,38.39567]}},{"type":"Feature","properties":{"id":"bus-485-s40001","kind":"busstop","ref":"485","name":"Nato","lines":["72","104","285","374","465","470","471","490","515","671","940"]},"geometry":{"type":"Point","coordinates":[27.1434,38.3933]}},{"type":"Feature","properties":{"id":"bus-485-s40009","kind":"busstop","ref":"485","name":"Şirinyer Pazar Yeri","lines":["72","74","206","285","303","304","374","441","472","476","536","676","805","838","866","871","874","875","876"]},"geometry":{"type":"Point","coordinates":[27.1499,38.3926]}},{"type":"Feature","properties":{"id":"bus-485-s40159","kind":"busstop","ref":"485","name":"Şirinyer Parkı","lines":["74","866"]},"geometry":{"type":"Point","coordinates":[27.1509,38.391]}},{"type":"Feature","properties":{"id":"bus-485-s40163","kind":"busstop","ref":"485","name":"Buca Hipodrom","lines":[]},"geometry":{"type":"Point","coordinates":[27.15162,38.3869]}},{"type":"Feature","properties":{"id":"bus-485-s40167","kind":"busstop","ref":"485","name":"Enhoşlar","lines":[]},"geometry":{"type":"Point","coordinates":[27.1523,38.3834]}},{"type":"Feature","properties":{"id":"bus-485-s41371","kind":"busstop","ref":"485","name":"Bahçe","lines":[]},"geometry":{"type":"Point","coordinates":[27.15076,38.37778]}},{"type":"Feature","properties":{"id":"bus-485-s40326","kind":"busstop","ref":"485","name":"Çiçek","lines":["74"]},"geometry":{"type":"Point","coordinates":[27.1504,38.3747]}},{"type":"Feature","properties":{"id":"bus-485-s40329","kind":"busstop","ref":"485","name":"Üçyol","lines":["74","484"]},"geometry":{"type":"Point","coordinates":[27.1516,38.3733]}},{"type":"Feature","properties":{"id":"bus-485-s40341","kind":"busstop","ref":"485","name":"Fulya","lines":[]},"geometry":{"type":"Point","coordinates":[27.1515,38.3719]}},{"type":"Feature","properties":{"id":"bus-485-s40343","kind":"busstop","ref":"485","name":"Veysel Karani Cami","lines":[]},"geometry":{"type":"Point","coordinates":[27.1528,38.3701]}},{"type":"Feature","properties":{"id":"bus-485-s40351","kind":"busstop","ref":"485","name":"Çitlenbik","lines":[]},"geometry":{"type":"Point","coordinates":[27.1546,38.3674]}},{"type":"Feature","properties":{"id":"bus-485-s40355","kind":"busstop","ref":"485","name":"Göksu","lines":["74","484"]},"geometry":{"type":"Point","coordinates":[27.1527,38.3663]}},{"type":"Feature","properties":{"id":"bus-485-s41247","kind":"busstop","ref":"485","name":"Kardelen","lines":[]},"geometry":{"type":"Point","coordinates":[27.1494,38.3673]}},{"type":"Feature","properties":{"id":"bus-485-s41249","kind":"busstop","ref":"485","name":"Göksu Muhtarlık","lines":[]},"geometry":{"type":"Point","coordinates":[27.1468,38.3666]}},{"type":"Feature","properties":{"id":"bus-485-s41261","kind":"busstop","ref":"485","name":"Buca Gazi Ortaokulu","lines":[]},"geometry":{"type":"Point","coordinates":[27.1446,38.3656]}},{"type":"Feature","properties":{"id":"bus-485-s41263","kind":"busstop","ref":"485","name":"Öğrenci Yurdu","lines":[]},"geometry":{"type":"Point","coordinates":[27.1447,38.3626]}},{"type":"Feature","properties":{"id":"bus-485-s40379","kind":"busstop","ref":"485","name":"Gediz Meydan","lines":[]},"geometry":{"type":"Point","coordinates":[27.1454,38.3607]}},{"type":"Feature","properties":{"id":"bus-485-s40713","kind":"busstop","ref":"485","name":"Hüseyin Avni Ateşoğlu İlköğretim Okulu","lines":[]},"geometry":{"type":"Point","coordinates":[27.144,38.3594]}},{"type":"Feature","properties":{"id":"bus-485-s40715","kind":"busstop","ref":"485","name":"Adile Naşit Parkı","lines":[]},"geometry":{"type":"Point","coordinates":[27.141,38.3593]}},{"type":"Feature","properties":{"id":"bus-485-s10651","kind":"busstop","ref":"485","name":"Sinem","lines":["152","200","508","539","691","887","910"]},"geometry":{"type":"Point","coordinates":[27.1363,38.3596]}}]}