{"type":"FeatureCollection","features":[{"type":"Feature","properties":{"id":"bus-486-1","kind":"busline","ref":"486","dir":1},"geometry":{"type":"LineString","coordinates":[[27.0676,38.3916],[27.0692,38.3911],[27.0696,38.3908],[27.0697,38.3903],[27.0701,38.3901],[27.0704,38.3903],[27.0704,38.3924],[27.0712,38.3927],[27.0715,38.3922],[27.0713,38.3908],[27.0714,38.3895],[27.073,38.3868],[27.0729,38.3873],[27.0717,38.3892],[27.0714,38.3903],[27.0716,38.3922],[27.0696,38.3953],[27.0697,38.3966],[27.071,38.3977],[27.0751,38.3985],[27.0786,38.3987],[27.0788,38.3988],[27.0786,38.4003],[27.0783,38.4006],[27.0773,38.4007],[27.0754,38.4013],[27.0722,38.4033],[27.0696,38.4045],[27.0688,38.4052],[27.0685,38.405],[27.0666,38.4059],[27.0629,38.4055],[27.0528,38.4054],[27.0485,38.4072],[27.0428,38.4085],[27.0362,38.4087],[27.0362,38.4101],[27.0338,38.4112],[27.0328,38.4124],[27.0315,38.4129],[27.0305,38.4129],[27.0288,38.4133],[27.0282,38.4138]]}},{"type":"Feature","properties":{"id":"bus-486-2","kind":"busline","ref":"486","dir":2},"geometry":{"type":"LineString","coordinates":[[27.0282,38.4138],[27.0288,38.4133],[27.0321,38.4127],[27.0352,38.4086],[27.0385,38.4086],[27.0432,38.4083],[27.048,38.4072],[27.0496,38.4067],[27.0523,38.4054],[27.0533,38.4052],[27.0608,38.4053],[27.0665,38.4058],[27.0701,38.4041],[27.0708,38.4032],[27.0714,38.4033],[27.0722,38.4031],[27.0746,38.4015],[27.0775,38.4004],[27.0776,38.3998],[27.0773,38.3987],[27.0752,38.3986],[27.0699,38.3976],[27.0697,38.3974],[27.0695,38.3953],[27.0712,38.3927],[27.0704,38.3924],[27.0704,38.3903],[27.07,38.3901],[27.0697,38.3903],[27.0696,38.3908],[27.0692,38.3911],[27.0676,38.3916]]}},{"type":"Feature","properties":{"id":"bus-486-s10545","kind":"busstop","ref":"486","name":"Oyak Sitesi Son Durak","lines":[]},"geometry":{"type":"Point","coordinates":[27.0676,38.3917]}},{"type":"Feature","properties":{"id":"bus-486-s10544","kind":"busstop","ref":"486","name":"Fevzi Çakmak","lines":[]},"geometry":{"type":"Point","coordinates":[27.0696,38.3907]}},{"type":"Feature","properties":{"id":"bus-486-s10507","kind":"busstop","ref":"486","name":"İkinci Oyak Sitesi","lines":["517","551","681","879"]},"geometry":{"type":"Point","coordinates":[27.0716,38.3899]}},{"type":"Feature","properties":{"id":"bus-486-s10505","kind":"busstop","ref":"486","name":"Ordu Pazarı","lines":["517","551","681","879"]},"geometry":{"type":"Point","coordinates":[27.0714,38.3925]}},{"type":"Feature","properties":{"id":"bus-486-s10506","kind":"busstop","ref":"486","name":"Mehmetçik","lines":["517","681","879"]},"geometry":{"type":"Point","coordinates":[27.0697,38.3952]}},{"type":"Feature","properties":{"id":"bus-486-s10182","kind":"busstop","ref":"486","name":"Fahrettin Altay Meydan 5","lines":["5","6","7","10","24","25","202","480","510","650","945","977"]},"geometry":{"type":"Point","coordinates":[27.07112,38.39764]}},{"type":"Feature","properties":{"id":"bus-486-s10178","kind":"busstop","ref":"486","name":"Adnan Saygun Sanat Merkezi","lines":["5","6","7","10","24","25","202","480","510","650","945","946","977"]},"geometry":{"type":"Point","coordinates":[27.07629,38.39857]}},{"type":"Feature","properties":{"id":"bus-486-s50003","kind":"busstop","ref":"486","name":"Üçkuyular İskele Son Durak","lines":["24","480"]},"geometry":{"type":"Point","coordinates":[27.06905,38.40505]}},{"type":"Feature","properties":{"id":"bus-486-s50185","kind":"busstop","ref":"486","name":"Engelliler Eğitim Merkezi","lines":["811"]},"geometry":{"type":"Point","coordinates":[27.06652,38.40594]}},{"type":"Feature","properties":{"id":"bus-486-s50193","kind":"busstop","ref":"486","name":"İnciraltı Bakü Bulvarı","lines":["811"]},"geometry":{"type":"Point","coordinates":[27.0585,38.4055]}},{"type":"Feature","properties":{"id":"bus-486-s50187","kind":"busstop","ref":"486","name":"Dokuz Eylül Deniz Bilimleri","lines":["483"]},"geometry":{"type":"Point","coordinates":[27.0438,38.4083]}},{"type":"Feature","properties":{"id":"bus-486-s50189","kind":"busstop","ref":"486","name":"İnciraltı Karakolu","lines":[]},"geometry":{"type":"Point","coordinates":[27.0399,38.4087]}},{"type":"Feature","properties":{"id":"bus-486-s50207","kind":"busstop","ref":"486","name":"Başak","lines":["311","480","481"]},"geometry":{"type":"Point","coordinates":[27.0363,38.4095]}},{"type":"Feature","properties":{"id":"bus-486-s50209","kind":"busstop","ref":"486","name":"İnciraltı","lines":["311","480","481"]},"geometry":{"type":"Point","coordinates":[27.0336,38.4115]}},{"type":"Feature","properties":{"id":"bus-486-s50211","kind":"busstop","ref":"486","name":"İnciraltı Park","lines":["311","480","481"]},"geometry":{"type":"Point","coordinates":[27.03074,38.41291]}},{"type":"Feature","properties":{"id":"bus-486-s50219","kind":"busstop","ref":"486","name":"İnciraltı Yeni Son Durak","lines":["311","480","481"]},"geometry":{"type":"Point","coordinates":[27.02821,38.41389]}},{"type":"Feature","properties":{"id":"bus-486-s50212","kind":"busstop","ref":"486","name":"İnciraltı Yurdu","lines":["311","480","481"]},"geometry":{"type":"Point","coordinates":[27.0308,38.4128]}},{"type":"Feature","properties":{"id":"bus-486-s50210","kind":"busstop","ref":"486","name":"Deniz Müzesi","lines":["311","480","481"]},"geometry":{"type":"Point","coordinates":[27.03223,38.41242]}},{"type":"Feature","properties":{"id":"bus-486-s52508","kind":"busstop","ref":"486","name":"İnciraltı 2","lines":["311","480","481"]},"geometry":{"type":"Point","coordinates":[27.0326,38.412]}},{"type":"Feature","properties":{"id":"bus-486-s50208","kind":"busstop","ref":"486","name":"İnciraltı","lines":["311","480","481"]},"geometry":{"type":"Point","coordinates":[27.0341,38.41]}},{"type":"Feature","properties":{"id":"bus-486-s50190","kind":"busstop","ref":"486","name":"Başak","lines":["811"]},"geometry":{"type":"Point","coordinates":[27.03676,38.40848]}},{"type":"Feature","properties":{"id":"bus-486-s50188","kind":"busstop","ref":"486","name":"Karakol","lines":["811"]},"geometry":{"type":"Point","coordinates":[27.039,38.4085]}},{"type":"Feature","properties":{"id":"bus-486-s50186","kind":"busstop","ref":"486","name":"Dokuz Eylül Deniz Bilimleri","lines":["483","811"]},"geometry":{"type":"Point","coordinates":[27.0436,38.4082]}},{"type":"Feature","properties":{"id":"bus-486-s50192","kind":"busstop","ref":"486","name":"İnciraltı Bakü Bulvarı","lines":[]},"geometry":{"type":"Point","coordinates":[27.0586,38.4053]}},{"type":"Feature","properties":{"id":"bus-486-s50184","kind":"busstop","ref":"486","name":"Engelliler Eğitim Merkezi","lines":["811"]},"geometry":{"type":"Point","coordinates":[27.0669,38.4056]}},{"type":"Feature","properties":{"id":"bus-486-s52137","kind":"busstop","ref":"486","name":"Üçkuyular İskele","lines":[]},"geometry":{"type":"Point","coordinates":[27.06808,38.40503]}},{"type":"Feature","properties":{"id":"bus-486-s10199","kind":"busstop","ref":"486","name":"Adnan Saygun Sanat Merkezi","lines":["5","6","7","17","24","25","202","480","510","650","671","690","873","977"]},"geometry":{"type":"Point","coordinates":[27.07748,38.39979]}},{"type":"Feature","properties":{"id":"bus-486-s10177","kind":"busstop","ref":"486","name":"Hava Hastanesi","lines":["5","6","7","10","17","24","25","202","480","510","650","671","690","873","977"]},"geometry":{"type":"Point","coordinates":[27.0732,38.3982]}},{"type":"Feature","properties":{"id":"bus-486-s10503","kind":"busstop","ref":"486","name":"Mehmetçik","lines":["311","517","551","681","879","945","946"]},"geometry":{"type":"Point","coordinates":[27.06941,38.39565]}},{"type":"Feature","properties":{"id":"bus-486-s10512","kind":"busstop","ref":"486","name":"Ordu Pazarı","lines":["517","551","681","879"]},"geometry":{"type":"Point","coordinates":[27.07093,38.39305]}},{"type":"Feature","properties":{"id":"bus-486-s10543","kind":"busstop","ref":"486","name":"Fevzi Çakmak","lines":[]},"geometry":{"type":"Point","coordinates":[27.0696,38.3908]}}]}