{"type":"FeatureCollection","features":[{"type":"Feature","properties":{"id":"bus-504-1","kind":"busline","ref":"504","dir":1},"geometry":{"type":"LineString","coordinates":[[27.1574,38.4704],[27.1572,38.4704],[27.1611,38.4705],[27.1635,38.4688],[27.1646,38.4673],[27.1649,38.4668],[27.1636,38.4663],[27.1635,38.4648],[27.1641,38.4641],[27.1625,38.4658],[27.161,38.467],[27.1594,38.4678],[27.1572,38.4683],[27.1562,38.4682],[27.1564,38.4679],[27.1584,38.4671],[27.1596,38.4671],[27.1619,38.4651],[27.1625,38.4641],[27.1632,38.4635],[27.1641,38.4618],[27.1643,38.4611],[27.164,38.4602],[27.1642,38.4598],[27.1651,38.4596],[27.171,38.4618],[27.172,38.4615],[27.1731,38.4605],[27.1757,38.4572],[27.1768,38.4554],[27.1769,38.4549],[27.1789,38.4514],[27.179,38.4508],[27.1794,38.4505],[27.1805,38.4484],[27.1804,38.4478],[27.1808,38.4476],[27.1809,38.4473],[27.1811,38.4458],[27.1806,38.4449],[27.1799,38.4428],[27.1795,38.4422],[27.1735,38.44],[27.1729,38.4382],[27.1731,38.433],[27.1701,38.4335],[27.1684,38.4341],[27.1683,38.4339],[27.1688,38.4332],[27.1696,38.4332],[27.1691,38.4332]]}},{"type":"Feature","properties":{"id":"bus-504-2","kind":"busline","ref":"504","dir":2},"geometry":{"type":"LineString","coordinates":[[27.1691,38.4332],[27.1688,38.4332],[27.1696,38.4332],[27.1696,38.4335],[27.1734,38.4328],[27.1796,38.4331],[27.1807,38.4329],[27.1806,38.4381],[27.1802,38.4415],[27.1802,38.443],[27.1807,38.4447],[27.1812,38.4455],[27.181,38.4473],[27.1811,38.4482],[27.1806,38.4484],[27.1793,38.4511],[27.1773,38.4545],[27.1774,38.455],[27.1769,38.4554],[27.174,38.4598],[27.1715,38.4622],[27.1709,38.4621],[27.1695,38.4632],[27.1683,38.4648],[27.168,38.4649],[27.1678,38.4654],[27.1672,38.4652],[27.1658,38.4671],[27.1649,38.4668],[27.1635,38.4688],[27.1611,38.4705],[27.1572,38.4704],[27.1574,38.4704]]}},{"type":"Feature","properties":{"id":"bus-504-s31012","kind":"busstop","ref":"504","name":"Fuat Edip Baksı Son Durak","lines":[]},"geometry":{"type":"Point","coordinates":[27.1574,38.4704]}},{"type":"Feature","properties":{"id":"bus-504-s31010","kind":"busstop","ref":"504","name":"Süleyman Eczacıbaşı İlköğretim Okulu","lines":[]},"geometry":{"type":"Point","coordinates":[27.1605,38.4705]}},{"type":"Feature","properties":{"id":"bus-504-s31008","kind":"busstop","ref":"504","name":"Damla","lines":[]},"geometry":{"type":"Point","coordinates":[27.1621,38.4697]}},{"type":"Feature","properties":{"id":"bus-504-s31005","kind":"busstop","ref":"504","name":"Eshot Evleri","lines":[]},"geometry":{"type":"Point","coordinates":[27.1633,38.4689]}},{"type":"Feature","properties":{"id":"bus-504-s31004","kind":"busstop","ref":"504","name":"Okul","lines":[]},"geometry":{"type":"Point","coordinates":[27.16426,38.46759]}},{"type":"Feature","properties":{"id":"bus-504-s30998","kind":"busstop","ref":"504","name":"Köprü","lines":["102","501","502","662"]},"geometry":{"type":"Point","coordinates":[27.1635,38.4658]}},{"type":"Feature","properties":{"id":"bus-504-s20055","kind":"busstop","ref":"504","name":"Bayraklı Çamlık","lines":["77","78","102","125","140","147","148","240","335","426","434","477","501","502","577","662"]},"geometry":{"type":"Point","coordinates":[27.1611,38.4671]}},{"type":"Feature","properties":{"id":"bus-504-s20134","kind":"busstop","ref":"504","name":"Bayraklı Üst Geçit","lines":["102","121","200","213","290","330","501","502","543","602","608","660","662","800","912","920"]},"geometry":{"type":"Point","coordinates":[27.1625,38.4641]}},{"type":"Feature","properties":{"id":"bus-504-s30956","kind":"busstop","ref":"504","name":"Piyale","lines":["102","330","501","502","534","543","662"]},"geometry":{"type":"Point","coordinates":[27.16955,38.46132]}},{"type":"Feature","properties":{"id":"bus-504-s30290","kind":"busstop","ref":"504","name":"Smyrna","lines":["102","330","338","359","498","501","502","503","513","543","599","662","699"]},"geometry":{"type":"Point","coordinates":[27.1732,38.4604]}},{"type":"Feature","properties":{"id":"bus-504-s30286","kind":"busstop","ref":"504","name":"Manas","lines":["102","330","338","359","498","501","502","503","513","543","599","662","699"]},"geometry":{"type":"Point","coordinates":[27.17507,38.4579]}},{"type":"Feature","properties":{"id":"bus-504-s30284","kind":"busstop","ref":"504","name":"Bayraklı Depo","lines":["102","330","338","359","498","501","502","503","513","543","599","662","699"]},"geometry":{"type":"Point","coordinates":[27.1764,38.4559]}},{"type":"Feature","properties":{"id":"bus-504-s30282","kind":"busstop","ref":"504","name":"Halide Edip Adıvar","lines":["102","214","249","359","498","501","502","503","513","515","543","599","662","699","930","963"]},"geometry":{"type":"Point","coordinates":[27.17845,38.45217]}},{"type":"Feature","properties":{"id":"bus-504-s30280","kind":"busstop","ref":"504","name":"Adliye","lines":["102","214","249","501","502","503","513","515","539","543","599","662","699","930","963"]},"geometry":{"type":"Point","coordinates":[27.1796,38.45]}},{"type":"Feature","properties":{"id":"bus-504-s30140","kind":"busstop","ref":"504","name":"Üçüncü Sanayi","lines":["102","168","214","249","501","502","503","513","515","539","543","599","662","699","930"]},"geometry":{"type":"Point","coordinates":[27.181,38.4458]}},{"type":"Feature","properties":{"id":"bus-504-s30138","kind":"busstop","ref":"504","name":"Bölge İdare Mahkemesi","lines":["102","168","501","502","503","513","543","599"]},"geometry":{"type":"Point","coordinates":[27.17996,38.44321]}},{"type":"Feature","properties":{"id":"bus-504-s11892","kind":"busstop","ref":"504","name":"Çınarlı Mesleki ve Teknik Anadolu Lisesi","lines":["102","168","501","502","503","513","599"]},"geometry":{"type":"Point","coordinates":[27.1753,38.4408]}},{"type":"Feature","properties":{"id":"bus-504-s31547","kind":"busstop","ref":"504","name":"Çınarlı Diş Hastanesi","lines":["102","168","498","501","502","503","513","599"]},"geometry":{"type":"Point","coordinates":[27.1734,38.4397]}},{"type":"Feature","properties":{"id":"bus-504-s31545","kind":"busstop","ref":"504","name":"Halkapınar Spor Salonu","lines":["102","168","498","501","502","503","513","599"]},"geometry":{"type":"Point","coordinates":[27.17299,38.43535]}},{"type":"Feature","properties":{"id":"bus-504-s12874","kind":"busstop","ref":"504","name":"Halkapınar Tramvay","lines":["53","55","102","154","168","364","418","475","498","501","502","503","513","515","534","539","543","555","560","564","599","930"]},"geometry":{"type":"Point","coordinates":[27.17041,38.43345]}},{"type":"Feature","properties":{"id":"bus-504-s10459","kind":"busstop","ref":"504","name":"Halkapınar Metro","lines":["102"]},"geometry":{"type":"Point","coordinates":[27.1691,38.43315]}},{"type":"Feature","properties":{"id":"bus-504-s30131","kind":"busstop","ref":"504","name":"Çamdibi Sağlık Ocağı","lines":["54","102","214","249","498","501","502","503","513","515","539","543","555","599","662","699","930"]},"geometry":{"type":"Point","coordinates":[27.1807,38.4352]}},{"type":"Feature","properties":{"id":"bus-504-s30133","kind":"busstop","ref":"504","name":"Mersinli","lines":["102","214","249","498","501","502","503","513","515","539","543","599","662","699","930"]},"geometry":{"type":"Point","coordinates":[27.18073,38.43757]}},{"type":"Feature","properties":{"id":"bus-504-s30135","kind":"busstop","ref":"504","name":"Stadyum İstasyon","lines":["102","214","249","498","501","502","503","513","515","539","543","599","662","699","930"]},"geometry":{"type":"Point","coordinates":[27.1803,38.442]}},{"type":"Feature","properties":{"id":"bus-504-s30137","kind":"busstop","ref":"504","name":"Bölge İdare Mahkemesi","lines":["102","214","249","498","501","502","503","513","515","539","543","599","662","699","930"]},"geometry":{"type":"Point","coordinates":[27.1806,38.4442]}},{"type":"Feature","properties":{"id":"bus-504-s30139","kind":"busstop","ref":"504","name":"Üçüncü Sanayi","lines":["102","214","249","498","501","502","503","513","515","539","543","599","662","699","930"]},"geometry":{"type":"Point","coordinates":[27.1812,38.4464]}},{"type":"Feature","properties":{"id":"bus-504-s30279","kind":"busstop","ref":"504","name":"Adliye","lines":["102","214","249","498","501","502","503","513","515","539","543","599","662","699","930","963"]},"geometry":{"type":"Point","coordinates":[27.1799,38.4498]}},{"type":"Feature","properties":{"id":"bus-504-s30281","kind":"busstop","ref":"504","name":"Halide Edip Adıvar","lines":["102","214","249","338","359","498","501","502","503","513","515","543","599","662","699","930","963"]},"geometry":{"type":"Point","coordinates":[27.17891,38.45184]}},{"type":"Feature","properties":{"id":"bus-504-s30283","kind":"busstop","ref":"504","name":"Bayraklı Depo","lines":["102","330","338","359","498","501","502","503","513","543","599","662","699"]},"geometry":{"type":"Point","coordinates":[27.1766,38.4559]}},{"type":"Feature","properties":{"id":"bus-504-s30285","kind":"busstop","ref":"504","name":"Manas","lines":["102","330","338","359","498","501","502","503","513","543","599","662","699"]},"geometry":{"type":"Point","coordinates":[27.1752,38.4581]}},{"type":"Feature","properties":{"id":"bus-504-s30289","kind":"busstop","ref":"504","name":"Smyrna","lines":["102","330","338","359","498","501","502","503","513","543","599","662","699"]},"geometry":{"type":"Point","coordinates":[27.1728,38.461]}},{"type":"Feature","properties":{"id":"bus-504-s30963","kind":"busstop","ref":"504","name":"Matbaa","lines":["102","359","501","502","503","513","599","662","699"]},"geometry":{"type":"Point","coordinates":[27.16954,38.46342]}},{"type":"Feature","properties":{"id":"bus-504-s30965","kind":"busstop","ref":"504","name":"Yunus Keskin Parkı","lines":["102","501","502","662"]},"geometry":{"type":"Point","coordinates":[27.168,38.4651]}},{"type":"Feature","properties":{"id":"bus-504-s30991","kind":"busstop","ref":"504","name":"Adil Akçamlı","lines":["102","502","662"]},"geometry":{"type":"Point","coordinates":[27.16607,38.46684]}},{"type":"Feature","properties":{"id":"bus-504-s31003","kind":"busstop","ref":"504","name":"Okul","lines":[]},"geometry":{"type":"Point","coordinates":[27.16444,38.46751]}},{"type":"Feature","properties":{"id":"bus-504-s31006","kind":"busstop","ref":"504","name":"Eshot Evleri","lines":[]},"geometry":{"type":"Point","coordinates":[27.16323,38.46902]}},{"type":"Feature","properties":{"id":"bus-504-s31007","kind":"busstop","ref":"504","name":"Damla","lines":[]},"geometry":{"type":"Point","coordinates":[27.1622,38.4697]}},{"type":"Feature","properties":{"id":"bus-504-s31009","kind":"busstop","ref":"504","name":"Süleyman Eczacıbaşı İlköğretim Okulu","lines":[]},"geometry":{"type":"Point","coordinates":[27.16057,38.47056]}}]}