{"type":"FeatureCollection","features":[{"type":"Feature","properties":{"id":"bus-522-1","kind":"busline","ref":"522","dir":1},"geometry":{"type":"LineString","coordinates":[[27.0905,38.3538],[27.0909,38.3537],[27.09,38.3538],[27.0874,38.3528],[27.0868,38.3531],[27.0874,38.3543],[27.0866,38.355],[27.0837,38.3551],[27.0838,38.3548],[27.0849,38.3541],[27.085,38.3538],[27.0847,38.3533],[27.0847,38.3529],[27.0854,38.3524],[27.0843,38.3509],[27.0827,38.3518],[27.0837,38.3524],[27.0821,38.3535],[27.0819,38.3571],[27.0826,38.3578],[27.081,38.3589],[27.08,38.3588],[27.0798,38.3596],[27.0787,38.3595],[27.0785,38.36],[27.0803,38.3612],[27.0834,38.3619],[27.084,38.3622],[27.0854,38.3622],[27.0863,38.3624],[27.087,38.362],[27.0876,38.362],[27.0894,38.3629],[27.0898,38.3635],[27.0908,38.3641],[27.0913,38.3648],[27.0915,38.3659],[27.0918,38.3662],[27.0924,38.3664],[27.0945,38.3678],[27.0952,38.3679],[27.0975,38.371],[27.1021,38.3743],[27.1026,38.375],[27.1026,38.3757],[27.1034,38.3759],[27.1045,38.3781],[27.1049,38.3783],[27.1056,38.378],[27.1067,38.3773],[27.1072,38.3764],[27.1074,38.3764],[27.1079,38.3769],[27.1093,38.3771],[27.1106,38.3777],[27.1121,38.3787],[27.1128,38.3799],[27.1131,38.3801],[27.1199,38.3826],[27.1207,38.3827],[27.1206,38.383],[27.1194,38.3835],[27.1148,38.3841],[27.1142,38.3844],[27.1143,38.3847],[27.1157,38.3861],[27.1162,38.3881],[27.117,38.3892],[27.1189,38.3892],[27.1196,38.3895],[27.1206,38.3896],[27.1227,38.3903],[27.1254,38.3916],[27.1268,38.3937],[27.1272,38.3962],[27.1285,38.3992],[27.1281,38.3992],[27.1277,38.3983],[27.1245,38.3989],[27.1213,38.4003],[27.1192,38.4016],[27.1163,38.4023],[27.1171,38.4032],[27.1181,38.4039],[27.1178,38.4037]]}},{"type":"Feature","properties":{"id":"bus-522-2","kind":"busline","ref":"522","dir":2},"geometry":{"type":"LineString","coordinates":[[27.1178,38.4037],[27.117,38.4031],[27.1204,38.4054],[27.1216,38.4059],[27.1221,38.4058],[27.1225,38.4043],[27.1242,38.4026],[27.1235,38.4017],[27.1234,38.3996],[27.1231,38.3993],[27.1254,38.3986],[27.1275,38.3982],[27.1277,38.398],[27.127,38.3953],[27.1268,38.3937],[27.1254,38.3916],[27.1227,38.3903],[27.1206,38.3896],[27.1196,38.3895],[27.1189,38.3892],[27.117,38.3892],[27.1162,38.3881],[27.1157,38.3861],[27.1142,38.3845],[27.1139,38.3844],[27.1139,38.3842],[27.1193,38.3834],[27.1197,38.3832],[27.1197,38.3827],[27.1153,38.3809],[27.1133,38.3802],[27.1127,38.3802],[27.1125,38.3792],[27.1121,38.3787],[27.1106,38.3777],[27.1093,38.3771],[27.1079,38.3769],[27.1074,38.3766],[27.1067,38.3773],[27.1051,38.3782],[27.105,38.3786],[27.1048,38.3786],[27.1043,38.3779],[27.1034,38.3759],[27.1026,38.3757],[27.1026,38.375],[27.1021,38.3743],[27.0975,38.371],[27.0952,38.3679],[27.0945,38.3678],[27.0924,38.3664],[27.0918,38.3662],[27.0915,38.3659],[27.0913,38.3648],[27.0908,38.3641],[27.0898,38.3635],[27.0894,38.3629],[27.0876,38.362],[27.087,38.362],[27.0863,38.3624],[27.0854,38.3622],[27.0837,38.3622],[27.0829,38.3618],[27.0803,38.3613],[27.0784,38.36],[27.0784,38.3597],[27.0787,38.3594],[27.0795,38.3596],[27.0798,38.3595],[27.0799,38.3587],[27.081,38.3589],[27.0826,38.3578],[27.0819,38.3571],[27.0821,38.3535],[27.0837,38.3524],[27.0827,38.3518],[27.0843,38.3509],[27.0854,38.3524],[27.0847,38.3529],[27.0847,38.3533],[27.085,38.3538],[27.0849,38.3541],[27.0838,38.3548],[27.0837,38.3551],[27.0866,38.355],[27.0874,38.3543],[27.0868,38.3531],[27.0874,38.3528],[27.09,38.3538],[27.0909,38.3537],[27.0905,38.3538]]}},{"type":"Feature","properties":{"id":"bus-522-s13264","kind":"busstop","ref":"522","name":"Toki Evleri Son Durak","lines":["17","517","877"]},"geometry":{"type":"Point","coordinates":[27.0905,38.3538]}},{"type":"Feature","properties":{"id":"bus-522-s13262","kind":"busstop","ref":"522","name":"Lavanta","lines":["17","517","877"]},"geometry":{"type":"Point","coordinates":[27.0875,38.3529]}},{"type":"Feature","properties":{"id":"bus-522-s13260","kind":"busstop","ref":"522","name":"Leylak","lines":["17","517","877"]},"geometry":{"type":"Point","coordinates":[27.0859,38.3551]}},{"type":"Feature","properties":{"id":"bus-522-s13258","kind":"busstop","ref":"522","name":"Nergiz","lines":["17","517","877"]},"geometry":{"type":"Point","coordinates":[27.0848,38.3539]}},{"type":"Feature","properties":{"id":"bus-522-s13248","kind":"busstop","ref":"522","name":"Yavuz Selim İlkokulu","lines":["17","517","877"]},"geometry":{"type":"Point","coordinates":[27.08498,38.35196]}},{"type":"Feature","properties":{"id":"bus-522-s13250","kind":"busstop","ref":"522","name":"Fatih Sultan Mehmet Teknik ve Endüstri Meslek Lisesi","lines":["17","517","877"]},"geometry":{"type":"Point","coordinates":[27.08377,38.35128]}},{"type":"Feature","properties":{"id":"bus-522-s13256","kind":"busstop","ref":"522","name":"Sümbül","lines":["17","24","517","877"]},"geometry":{"type":"Point","coordinates":[27.08268,38.3531]}},{"type":"Feature","properties":{"id":"bus-522-s13268","kind":"busstop","ref":"522","name":"Yaşar Kemal Mahalle Muhtarlığı","lines":["17","24","517","877"]},"geometry":{"type":"Point","coordinates":[27.0821,38.35399]}},{"type":"Feature","properties":{"id":"bus-522-s13254","kind":"busstop","ref":"522","name":"Yasemin","lines":["17","517","877"]},"geometry":{"type":"Point","coordinates":[27.08211,38.35587]}},{"type":"Feature","properties":{"id":"bus-522-s13266","kind":"busstop","ref":"522","name":"Zambak","lines":["17","517","877"]},"geometry":{"type":"Point","coordinates":[27.0815,38.3586]}},{"type":"Feature","properties":{"id":"bus-522-s50712","kind":"busstop","ref":"522","name":"Kavacık Yolu","lines":["17","24","517","877"]},"geometry":{"type":"Point","coordinates":[27.08007,38.36097]}},{"type":"Feature","properties":{"id":"bus-522-s10561","kind":"busstop","ref":"522","name":"Meşale","lines":["25","517","671","873","877"]},"geometry":{"type":"Point","coordinates":[27.08477,38.36214]}},{"type":"Feature","properties":{"id":"bus-522-s12474","kind":"busstop","ref":"522","name":"Toprak","lines":["193","224","517","524","671"]},"geometry":{"type":"Point","coordinates":[27.088,38.3621]}},{"type":"Feature","properties":{"id":"bus-522-s12472","kind":"busstop","ref":"522","name":"Güzel İzmir Cami","lines":["193","224","517","524","671"]},"geometry":{"type":"Point","coordinates":[27.0908,38.3641]}},{"type":"Feature","properties":{"id":"bus-522-s12470","kind":"busstop","ref":"522","name":"Memiş Kahya","lines":["193","517","524","671","877"]},"geometry":{"type":"Point","coordinates":[27.0929,38.3667]}},{"type":"Feature","properties":{"id":"bus-522-s12468","kind":"busstop","ref":"522","name":"Ali Fuat Erden Mahallesi Muhtarlığı","lines":["193","524","671","877"]},"geometry":{"type":"Point","coordinates":[27.09634,38.36929]}},{"type":"Feature","properties":{"id":"bus-522-s12466","kind":"busstop","ref":"522","name":"Çakırtepe","lines":["193","524","671","877"]},"geometry":{"type":"Point","coordinates":[27.0987,38.3718]}},{"type":"Feature","properties":{"id":"bus-522-s12464","kind":"busstop","ref":"522","name":"Küçük Trafo","lines":["193","524","671","877"]},"geometry":{"type":"Point","coordinates":[27.1011,38.3736]}},{"type":"Feature","properties":{"id":"bus-522-s12462","kind":"busstop","ref":"522","name":"Umut Mahallesi Köprü","lines":["193","524","671","877"]},"geometry":{"type":"Point","coordinates":[27.10373,38.37655]}},{"type":"Feature","properties":{"id":"bus-522-s12460","kind":"busstop","ref":"522","name":"Briketçi","lines":["193","524","671","877"]},"geometry":{"type":"Point","coordinates":[27.10474,38.37816]}},{"type":"Feature","properties":{"id":"bus-522-s12508","kind":"busstop","ref":"522","name":"Yıkık Cami 2","lines":["193","523","587","671","680","877"]},"geometry":{"type":"Point","coordinates":[27.1069,38.3769]}},{"type":"Feature","properties":{"id":"bus-522-s12216","kind":"busstop","ref":"522","name":"Kuyu","lines":["23","193","224","587","671","680","823"]},"geometry":{"type":"Point","coordinates":[27.11087,38.3779]}},{"type":"Feature","properties":{"id":"bus-522-s12620","kind":"busstop","ref":"522","name":"Çamlık Yol Ayrımı","lines":["224","588","671","823"]},"geometry":{"type":"Point","coordinates":[27.1139,38.3803]}},{"type":"Feature","properties":{"id":"bus-522-s12618","kind":"busstop","ref":"522","name":"Karanfil","lines":["224","671","823"]},"geometry":{"type":"Point","coordinates":[27.11625,38.38111]}},{"type":"Feature","properties":{"id":"bus-522-s12624","kind":"busstop","ref":"522","name":"Trafo","lines":["671","823"]},"geometry":{"type":"Point","coordinates":[27.1191,38.38214]}},{"type":"Feature","properties":{"id":"bus-522-s12643","kind":"busstop","ref":"522","name":"İsmail Hakkı Tonguç Parkı","lines":["224","823","879"]},"geometry":{"type":"Point","coordinates":[27.11888,38.3836]}},{"type":"Feature","properties":{"id":"bus-522-s16520","kind":"busstop","ref":"522","name":"Sevgi Mahalle Muhtarlığı","lines":["224","823","879"]},"geometry":{"type":"Point","coordinates":[27.11561,38.38404]}},{"type":"Feature","properties":{"id":"bus-522-s12212","kind":"busstop","ref":"522","name":"Karaselvi","lines":["23","124","193","224","587","588","680","823","879"]},"geometry":{"type":"Point","coordinates":[27.1152,38.3854]}},{"type":"Feature","properties":{"id":"bus-522-s12210","kind":"busstop","ref":"522","name":"Karakuyu","lines":["23","124","193","224","587","588","680","823","879"]},"geometry":{"type":"Point","coordinates":[27.11616,38.38757]}},{"type":"Feature","properties":{"id":"bus-522-s12208","kind":"busstop","ref":"522","name":"Bozyaka Cami","lines":["23","193","224","588","680","823"]},"geometry":{"type":"Point","coordinates":[27.12069,38.38956]}},{"type":"Feature","properties":{"id":"bus-522-s12206","kind":"busstop","ref":"522","name":"Kestelli","lines":["23","193","224","588","680","823"]},"geometry":{"type":"Point","coordinates":[27.1224,38.3901]}},{"type":"Feature","properties":{"id":"bus-522-s12204","kind":"busstop","ref":"522","name":"Zincirlikuyu","lines":["23","193","224","550","556","588","680","823"]},"geometry":{"type":"Point","coordinates":[27.1259,38.3922]}},{"type":"Feature","properties":{"id":"bus-522-s12202","kind":"busstop","ref":"522","name":"Narlık","lines":["23","89","193","224","550","556","588","680","823"]},"geometry":{"type":"Point","coordinates":[27.1268,38.3936]}},{"type":"Feature","properties":{"id":"bus-522-s12200","kind":"busstop","ref":"522","name":"Kilimci Tepe","lines":["23","89","193","224","550","556","588","680","823"]},"geometry":{"type":"Point","coordinates":[27.1274,38.3962]}},{"type":"Feature","properties":{"id":"bus-522-s12255","kind":"busstop","ref":"522","name":"Bozyaka Devlet Hastanesi","lines":["89","550","556","588","823"]},"geometry":{"type":"Point","coordinates":[27.12657,38.3985]}},{"type":"Feature","properties":{"id":"bus-522-s12257","kind":"busstop","ref":"522","name":"Çevik Kuvvet","lines":["20","84","89","124","156","556","588","823"]},"geometry":{"type":"Point","coordinates":[27.122,38.4]}},{"type":"Feature","properties":{"id":"bus-522-s12259","kind":"busstop","ref":"522","name":"Bahçelievler","lines":["20","84","89","124","156","556","588","823"]},"geometry":{"type":"Point","coordinates":[27.1181,38.402]}},{"type":"Feature","properties":{"id":"bus-522-s10304","kind":"busstop","ref":"522","name":"Üçyol Aktarma","lines":[]},"geometry":{"type":"Point","coordinates":[27.1178,38.4037]}},{"type":"Feature","properties":{"id":"bus-522-s10252","kind":"busstop","ref":"522","name":"Üçyol Metro","lines":["16","18","19","84","89","92","108","124","156","490","556","588","681","823","950"]},"geometry":{"type":"Point","coordinates":[27.1213,38.4057]}},{"type":"Feature","properties":{"id":"bus-522-s10611","kind":"busstop","ref":"522","name":"Osman Öksüz Parkı","lines":["84","89","92","108","124","156","157","550","556","587","588","823"]},"geometry":{"type":"Point","coordinates":[27.12264,38.40418]}},{"type":"Feature","properties":{"id":"bus-522-s12263","kind":"busstop","ref":"522","name":"Spotçular","lines":["84","89","124","156","550","556","587","588","823"]},"geometry":{"type":"Point","coordinates":[27.12343,38.4006]}},{"type":"Feature","properties":{"id":"bus-522-s12256","kind":"busstop","ref":"522","name":"Bozyaka Devlet Hastanesi","lines":["89","550","556","588","823"]},"geometry":{"type":"Point","coordinates":[27.1263,38.3984]}},{"type":"Feature","properties":{"id":"bus-522-s12199","kind":"busstop","ref":"522","name":"Kilimci Tepe","lines":["23","89","193","224","550","556","588","680","823"]},"geometry":{"type":"Point","coordinates":[27.12713,38.39615]}},{"type":"Feature","properties":{"id":"bus-522-s12201","kind":"busstop","ref":"522","name":"Narlık","lines":["23","89","193","224","550","556","588","680","823"]},"geometry":{"type":"Point","coordinates":[27.12662,38.39351]}},{"type":"Feature","properties":{"id":"bus-522-s12203","kind":"busstop","ref":"522","name":"Zincirlikuyu","lines":["23","193","224","588","680","823"]},"geometry":{"type":"Point","coordinates":[27.1245,38.3912]}},{"type":"Feature","properties":{"id":"bus-522-s12205","kind":"busstop","ref":"522","name":"Kestelli","lines":["23","193","224","588","680","823"]},"geometry":{"type":"Point","coordinates":[27.12187,38.39008]}},{"type":"Feature","properties":{"id":"bus-522-s12207","kind":"busstop","ref":"522","name":"Bozyaka Cami","lines":["23","193","224","588","680","823"]},"geometry":{"type":"Point","coordinates":[27.11989,38.38953]}},{"type":"Feature","properties":{"id":"bus-522-s12209","kind":"busstop","ref":"522","name":"Karakuyu","lines":["23","124","193","224","587","588","680","823","879"]},"geometry":{"type":"Point","coordinates":[27.1159,38.3872]}},{"type":"Feature","properties":{"id":"bus-522-s12211","kind":"busstop","ref":"522","name":"Karaselvi","lines":["23","124","193","224","587","588","680","823","879"]},"geometry":{"type":"Point","coordinates":[27.1147,38.3851]}},{"type":"Feature","properties":{"id":"bus-522-s16521","kind":"busstop","ref":"522","name":"Sevgi Mahalle Muhtarlığı","lines":["224","823","879"]},"geometry":{"type":"Point","coordinates":[27.11559,38.3839]}},{"type":"Feature","properties":{"id":"bus-522-s12644","kind":"busstop","ref":"522","name":"İsmail Hakkı Tonguç Parkı","lines":["224","823","879"]},"geometry":{"type":"Point","coordinates":[27.11788,38.3835]}},{"type":"Feature","properties":{"id":"bus-522-s12625","kind":"busstop","ref":"522","name":"Trafo","lines":["224","671","823"]},"geometry":{"type":"Point","coordinates":[27.118,38.3821]}},{"type":"Feature","properties":{"id":"bus-522-s12617","kind":"busstop","ref":"522","name":"Karanfil","lines":["224","671","823"]},"geometry":{"type":"Point","coordinates":[27.11612,38.38126]}},{"type":"Feature","properties":{"id":"bus-522-s12621","kind":"busstop","ref":"522","name":"Çamlık Yol Ayrımı","lines":["224","671","823"]},"geometry":{"type":"Point","coordinates":[27.11348,38.38033]}},{"type":"Feature","properties":{"id":"bus-522-s12215","kind":"busstop","ref":"522","name":"Kuyu","lines":["23","193","224","587","671","680","823"]},"geometry":{"type":"Point","coordinates":[27.1106,38.3778]}},{"type":"Feature","properties":{"id":"bus-522-s12509","kind":"busstop","ref":"522","name":"Yıkık Cami 2","lines":["193","523","587","671","680","877"]},"geometry":{"type":"Point","coordinates":[27.107,38.377]}},{"type":"Feature","properties":{"id":"bus-522-s12461","kind":"busstop","ref":"522","name":"Briketçi","lines":["193","524","671","877"]},"geometry":{"type":"Point","coordinates":[27.1045,38.3781]}},{"type":"Feature","properties":{"id":"bus-522-s12463","kind":"busstop","ref":"522","name":"Umut Mahallesi Köprü","lines":["193","524","671","877"]},"geometry":{"type":"Point","coordinates":[27.1037,38.3766]}},{"type":"Feature","properties":{"id":"bus-522-s12465","kind":"busstop","ref":"522","name":"Küçük Trafo","lines":["193","524","671","877"]},"geometry":{"type":"Point","coordinates":[27.10115,38.37374]}},{"type":"Feature","properties":{"id":"bus-522-s12467","kind":"busstop","ref":"522","name":"Çakırtepe","lines":["193","524","671","877"]},"geometry":{"type":"Point","coordinates":[27.0987,38.3719]}},{"type":"Feature","properties":{"id":"bus-522-s12469","kind":"busstop","ref":"522","name":"Ali Fuat Erden Mahallesi Muhtarlığı","lines":["193","517","524","671","877"]},"geometry":{"type":"Point","coordinates":[27.0962,38.3693]}},{"type":"Feature","properties":{"id":"bus-522-s12471","kind":"busstop","ref":"522","name":"Memiş Kahya","lines":["193","517","524","671","877"]},"geometry":{"type":"Point","coordinates":[27.0931,38.3669]}},{"type":"Feature","properties":{"id":"bus-522-s12473","kind":"busstop","ref":"522","name":"Güzel İzmir Cami","lines":["193","224","517","524","671"]},"geometry":{"type":"Point","coordinates":[27.0908,38.3642]}},{"type":"Feature","properties":{"id":"bus-522-s12475","kind":"busstop","ref":"522","name":"Toprak","lines":["193","224","517","524","671"]},"geometry":{"type":"Point","coordinates":[27.0879,38.3622]}},{"type":"Feature","properties":{"id":"bus-522-s10562","kind":"busstop","ref":"522","name":"Meşale","lines":["25","517","671","873","877"]},"geometry":{"type":"Point","coordinates":[27.0844,38.3623]}},{"type":"Feature","properties":{"id":"bus-522-s50713","kind":"busstop","ref":"522","name":"Kavacık Yolu","lines":["17","24","517","877"]},"geometry":{"type":"Point","coordinates":[27.0804,38.3613]}},{"type":"Feature","properties":{"id":"bus-522-s13265","kind":"busstop","ref":"522","name":"Zambak","lines":["17","517","877"]},"geometry":{"type":"Point","coordinates":[27.0814,38.3585]}},{"type":"Feature","properties":{"id":"bus-522-s13255","kind":"busstop","ref":"522","name":"Yasemin","lines":["17","517","877"]},"geometry":{"type":"Point","coordinates":[27.0819,38.3562]}},{"type":"Feature","properties":{"id":"bus-522-s13267","kind":"busstop","ref":"522","name":"Yaşar Kemal Mahalle Muhtarlığı","lines":["17","24","517","877"]},"geometry":{"type":"Point","coordinates":[27.08192,38.35392]}},{"type":"Feature","properties":{"id":"bus-522-s13257","kind":"busstop","ref":"522","name":"Sümbül","lines":["17","24","517","877"]},"geometry":{"type":"Point","coordinates":[27.08272,38.35292]}},{"type":"Feature","properties":{"id":"bus-522-s13251","kind":"busstop","ref":"522","name":"Fatih Sultan Mehmet Teknik ve Endüstri Meslek Lisesi","lines":["17","517","877"]},"geometry":{"type":"Point","coordinates":[27.08405,38.35098]}},{"type":"Feature","properties":{"id":"bus-522-s13249","kind":"busstop","ref":"522","name":"Yavuz Selim İlkokulu","lines":["17","517","877"]},"geometry":{"type":"Point","coordinates":[27.0852,38.35203]}},{"type":"Feature","properties":{"id":"bus-522-s13259","kind":"busstop","ref":"522","name":"Nergiz","lines":["17","517","877"]},"geometry":{"type":"Point","coordinates":[27.0849,38.3541]}},{"type":"Feature","properties":{"id":"bus-522-s13261","kind":"busstop","ref":"522","name":"Leylak","lines":["17","517","877"]},"geometry":{"type":"Point","coordinates":[27.086,38.355]}},{"type":"Feature","properties":{"id":"bus-522-s13263","kind":"busstop","ref":"522","name":"Lavanta","lines":["17","517","877"]},"geometry":{"type":"Point","coordinates":[27.08761,38.35282]}}]}