{"type":"FeatureCollection","features":[{"type":"Feature","properties":{"id":"bus-524-1","kind":"busline","ref":"524","dir":1},"geometry":{"type":"LineString","coordinates":[[27.0924,38.3612],[27.0923,38.3609],[27.0924,38.3614],[27.0919,38.361],[27.0922,38.361],[27.0924,38.3607],[27.0942,38.3606],[27.0953,38.3602],[27.0954,38.3607],[27.0948,38.3619],[27.0965,38.3619],[27.0966,38.3621],[27.0962,38.3625],[27.0975,38.362],[27.0978,38.3616],[27.0966,38.3609],[27.0979,38.3607],[27.0977,38.3602],[27.0979,38.3607],[27.0966,38.3609],[27.0976,38.3614],[27.0978,38.3616],[27.0976,38.3619],[27.0956,38.3628],[27.0955,38.3632],[27.0981,38.3637],[27.0991,38.3632],[27.0981,38.3637],[27.096,38.3642],[27.0937,38.3651],[27.0924,38.3644],[27.0912,38.3625],[27.0893,38.3616],[27.0871,38.3612],[27.085,38.3622],[27.0863,38.3624],[27.087,38.362],[27.0876,38.362],[27.0894,38.3629],[27.0898,38.3635],[27.0908,38.3641],[27.0913,38.3648],[27.0915,38.3659],[27.0918,38.3662],[27.0924,38.3664],[27.0945,38.3678],[27.0952,38.3679],[27.0975,38.371],[27.1021,38.3743],[27.1026,38.375],[27.1026,38.3757],[27.1034,38.3759],[27.1043,38.3779],[27.1051,38.3783],[27.1044,38.3793],[27.1044,38.381],[27.1048,38.3824],[27.1045,38.3839],[27.103,38.3853],[27.1008,38.3868],[27.0992,38.3884],[27.0953,38.3891],[27.0965,38.3904],[27.0973,38.392],[27.0982,38.3929],[27.1017,38.3951],[27.1004,38.3966],[27.1,38.3975],[27.101,38.3982],[27.1022,38.3985],[27.1074,38.3983],[27.1093,38.3984],[27.1114,38.3988],[27.1142,38.401],[27.1163,38.4023],[27.1176,38.4035]]}},{"type":"Feature","properties":{"id":"bus-524-2","kind":"busline","ref":"524","dir":2},"geometry":{"type":"LineString","coordinates":[[27.1176,38.4035],[27.1173,38.4033],[27.1204,38.4054],[27.1216,38.4059],[27.1224,38.406],[27.1226,38.4063],[27.1222,38.4064],[27.1212,38.406],[27.1168,38.4034],[27.1169,38.4031],[27.1159,38.4021],[27.1142,38.4011],[27.1112,38.3989],[27.1086,38.3988],[27.1063,38.3983],[27.1017,38.3985],[27.0998,38.3975],[27.1017,38.3951],[27.0982,38.3929],[27.0973,38.392],[27.0965,38.3904],[27.0955,38.3896],[27.0952,38.389],[27.0984,38.3885],[27.0992,38.3882],[27.1007,38.3868],[27.1041,38.3842],[27.1046,38.3833],[27.1046,38.3821],[27.1042,38.3804],[27.1043,38.3792],[27.1048,38.3784],[27.1043,38.3779],[27.1034,38.3759],[27.1026,38.3757],[27.1026,38.375],[27.1021,38.3743],[27.0975,38.371],[27.0952,38.3679],[27.0945,38.3678],[27.0924,38.3664],[27.0918,38.3662],[27.0915,38.3659],[27.0913,38.3648],[27.0908,38.3641],[27.0898,38.3635],[27.0894,38.3629],[27.0876,38.362],[27.087,38.362],[27.0863,38.3624],[27.0854,38.3622],[27.0848,38.3623],[27.0871,38.3612],[27.0893,38.3616],[27.0912,38.3625],[27.0924,38.3644],[27.0937,38.3651],[27.096,38.3642],[27.0981,38.3637],[27.0991,38.3632],[27.0981,38.3637],[27.0955,38.3632],[27.0956,38.3628],[27.0976,38.3619],[27.0978,38.3616],[27.0976,38.3614],[27.0966,38.3609],[27.0979,38.3607],[27.0977,38.3602],[27.0979,38.3607],[27.0966,38.3609],[27.0978,38.3616],[27.0975,38.362],[27.0962,38.3625],[27.0966,38.3621],[27.0965,38.3619],[27.0948,38.3619],[27.0954,38.3607],[27.0953,38.3602],[27.0942,38.3606],[27.0924,38.3607],[27.0924,38.3612]]}},{"type":"Feature","properties":{"id":"bus-524-s12804","kind":"busstop","ref":"524","name":"Şehit Egemen Öztürk Ortaokulu","lines":["193","873"]},"geometry":{"type":"Point","coordinates":[27.0927,38.36067]}},{"type":"Feature","properties":{"id":"bus-524-s12808","kind":"busstop","ref":"524","name":"Destan Aksoy Parkı","lines":["193","873"]},"geometry":{"type":"Point","coordinates":[27.09427,38.36051]}},{"type":"Feature","properties":{"id":"bus-524-s12798","kind":"busstop","ref":"524","name":"Yurtoğlu Pazaryeri","lines":["193","873"]},"geometry":{"type":"Point","coordinates":[27.0949,38.3617]}},{"type":"Feature","properties":{"id":"bus-524-s12787","kind":"busstop","ref":"524","name":"Yurtoğlu Muhtarlık","lines":["193"]},"geometry":{"type":"Point","coordinates":[27.09751,38.36146]}},{"type":"Feature","properties":{"id":"bus-524-s12800","kind":"busstop","ref":"524","name":"Karabaglar Nene Hatun Mesleki Ve Teknik Anadolu Lisesi","lines":["193"]},"geometry":{"type":"Point","coordinates":[27.09797,38.36043]}},{"type":"Feature","properties":{"id":"bus-524-s12788","kind":"busstop","ref":"524","name":"Yurtoğlu Muhtarlık","lines":["193"]},"geometry":{"type":"Point","coordinates":[27.09752,38.36135]}},{"type":"Feature","properties":{"id":"bus-524-s12796","kind":"busstop","ref":"524","name":"Yurtoğlu Son Durak","lines":["193","873"]},"geometry":{"type":"Point","coordinates":[27.096,38.3627]}},{"type":"Feature","properties":{"id":"bus-524-s12767","kind":"busstop","ref":"524","name":"Yüzbaşı Şerafettin Muhtarlık","lines":[]},"geometry":{"type":"Point","coordinates":[27.09845,38.36329]}},{"type":"Feature","properties":{"id":"bus-524-s12794","kind":"busstop","ref":"524","name":"Tekstil","lines":["224"]},"geometry":{"type":"Point","coordinates":[27.09439,38.36487]}},{"type":"Feature","properties":{"id":"bus-524-s12792","kind":"busstop","ref":"524","name":"Muran","lines":["193","873","877"]},"geometry":{"type":"Point","coordinates":[27.0929,38.3647]}},{"type":"Feature","properties":{"id":"bus-524-s16142","kind":"busstop","ref":"524","name":"Kent","lines":["193","873","877"]},"geometry":{"type":"Point","coordinates":[27.09142,38.36289]}},{"type":"Feature","properties":{"id":"bus-524-s12802","kind":"busstop","ref":"524","name":"Yurtoğlu Üçyol","lines":["193","873","877"]},"geometry":{"type":"Point","coordinates":[27.09003,38.36198]}},{"type":"Feature","properties":{"id":"bus-524-s12790","kind":"busstop","ref":"524","name":"Cennetçeşme Beyazıt Cami","lines":["193","224","873","877"]},"geometry":{"type":"Point","coordinates":[27.0872,38.3612]}},{"type":"Feature","properties":{"id":"bus-524-s12542","kind":"busstop","ref":"524","name":"Sacide Ayaz İlk ve Ortaokulu","lines":["193","224","873","877"]},"geometry":{"type":"Point","coordinates":[27.0852,38.3621]}},{"type":"Feature","properties":{"id":"bus-524-s12474","kind":"busstop","ref":"524","name":"Toprak","lines":["193","224","517","522","671"]},"geometry":{"type":"Point","coordinates":[27.088,38.3621]}},{"type":"Feature","properties":{"id":"bus-524-s12472","kind":"busstop","ref":"524","name":"Güzel İzmir Cami","lines":["193","224","517","522","671"]},"geometry":{"type":"Point","coordinates":[27.0908,38.3641]}},{"type":"Feature","properties":{"id":"bus-524-s12470","kind":"busstop","ref":"524","name":"Memiş Kahya","lines":["193","517","522","671","877"]},"geometry":{"type":"Point","coordinates":[27.0929,38.3667]}},{"type":"Feature","properties":{"id":"bus-524-s12468","kind":"busstop","ref":"524","name":"Ali Fuat Erden Mahallesi Muhtarlığı","lines":["193","522","671","877"]},"geometry":{"type":"Point","coordinates":[27.09634,38.36929]}},{"type":"Feature","properties":{"id":"bus-524-s12466","kind":"busstop","ref":"524","name":"Çakırtepe","lines":["193","522","671","877"]},"geometry":{"type":"Point","coordinates":[27.0987,38.3718]}},{"type":"Feature","properties":{"id":"bus-524-s12464","kind":"busstop","ref":"524","name":"Küçük Trafo","lines":["193","522","671","877"]},"geometry":{"type":"Point","coordinates":[27.1011,38.3736]}},{"type":"Feature","properties":{"id":"bus-524-s12462","kind":"busstop","ref":"524","name":"Umut Mahallesi Köprü","lines":["193","522","671","877"]},"geometry":{"type":"Point","coordinates":[27.10373,38.37655]}},{"type":"Feature","properties":{"id":"bus-524-s12460","kind":"busstop","ref":"524","name":"Briketçi","lines":["193","522","671","877"]},"geometry":{"type":"Point","coordinates":[27.10474,38.37816]}},{"type":"Feature","properties":{"id":"bus-524-s12438","kind":"busstop","ref":"524","name":" Limontepe Seniye-Hasan Saray İlkokulu","lines":["16","20","84","517","520","523","680"]},"geometry":{"type":"Point","coordinates":[27.1047,38.379]}},{"type":"Feature","properties":{"id":"bus-524-s12436","kind":"busstop","ref":"524","name":"Ülkü","lines":["16","20","517","523","680"]},"geometry":{"type":"Point","coordinates":[27.10479,38.38225]}},{"type":"Feature","properties":{"id":"bus-524-s12434","kind":"busstop","ref":"524","name":"Egzozcu","lines":["16","20","517","523","680"]},"geometry":{"type":"Point","coordinates":[27.10318,38.38514]}},{"type":"Feature","properties":{"id":"bus-524-s12432","kind":"busstop","ref":"524","name":"Yadigar Cami","lines":["517","523"]},"geometry":{"type":"Point","coordinates":[27.1016,38.3863]}},{"type":"Feature","properties":{"id":"bus-524-s12430","kind":"busstop","ref":"524","name":"Arap Deresi","lines":["18","517","523","579"]},"geometry":{"type":"Point","coordinates":[27.09987,38.38787]}},{"type":"Feature","properties":{"id":"bus-524-s12428","kind":"busstop","ref":"524","name":"Maliyeciler","lines":["18","517","523","579"]},"geometry":{"type":"Point","coordinates":[27.09702,38.38878]}},{"type":"Feature","properties":{"id":"bus-524-s12344","kind":"busstop","ref":"524","name":"Mermerci","lines":["18","19","523","575","579","879"]},"geometry":{"type":"Point","coordinates":[27.09638,38.39022]}},{"type":"Feature","properties":{"id":"bus-524-s12342","kind":"busstop","ref":"524","name":"Karabağlar Halk Eğitim Merkezi","lines":["18","19","523","575","579","879"]},"geometry":{"type":"Point","coordinates":[27.09774,38.39232]}},{"type":"Feature","properties":{"id":"bus-524-s12340","kind":"busstop","ref":"524","name":"Hasan Tahsin","lines":["18","19","523","575","579","879"]},"geometry":{"type":"Point","coordinates":[27.0995,38.3937]}},{"type":"Feature","properties":{"id":"bus-524-s12364","kind":"busstop","ref":"524","name":"Şehit Halit Taş Ortaokulu","lines":["16","19","520","523","879"]},"geometry":{"type":"Point","coordinates":[27.10113,38.39591]}},{"type":"Feature","properties":{"id":"bus-524-s12278","kind":"busstop","ref":"524","name":"Basın Sitesi","lines":["16","19","520","523","879"]},"geometry":{"type":"Point","coordinates":[27.1004,38.3976]}},{"type":"Feature","properties":{"id":"bus-524-s12276","kind":"busstop","ref":"524","name":"Yeşilyurt Huzurevi","lines":["16","19","520","523","879"]},"geometry":{"type":"Point","coordinates":[27.10237,38.39844]}},{"type":"Feature","properties":{"id":"bus-524-s12274","kind":"busstop","ref":"524","name":"Yeşilyurt Devlet Hastanesi","lines":["16","19","520","523","879"]},"geometry":{"type":"Point","coordinates":[27.10504,38.3983]}},{"type":"Feature","properties":{"id":"bus-524-s12272","kind":"busstop","ref":"524","name":"Yeşilyurt Çeşme","lines":["16","19","520","523","879"]},"geometry":{"type":"Point","coordinates":[27.10827,38.39831]}},{"type":"Feature","properties":{"id":"bus-524-s12270","kind":"busstop","ref":"524","name":"Karabağlar Cumhuriyet Mesleki ve Teknik Anadolu Lisesi","lines":["16","18","19","520","523","575","579"]},"geometry":{"type":"Point","coordinates":[27.11216,38.39935]}},{"type":"Feature","properties":{"id":"bus-524-s12268","kind":"busstop","ref":"524","name":"Yeşilyurt İtfaiye","lines":["16","18","19","520","523","575","579"]},"geometry":{"type":"Point","coordinates":[27.1155,38.4016]}},{"type":"Feature","properties":{"id":"bus-524-s10306","kind":"busstop","ref":"524","name":"Üçyol Aktarma","lines":["124"]},"geometry":{"type":"Point","coordinates":[27.1176,38.4035]}},{"type":"Feature","properties":{"id":"bus-524-s10255","kind":"busstop","ref":"524","name":"Üçyol Metro","lines":["18","19","92","108","490","523","575","579","950"]},"geometry":{"type":"Point","coordinates":[27.1209,38.4059]}},{"type":"Feature","properties":{"id":"bus-524-s12267","kind":"busstop","ref":"524","name":"Yeşilyurt İtfaiye","lines":["16","18","19","490","520","523","575","579"]},"geometry":{"type":"Point","coordinates":[27.11552,38.40192]}},{"type":"Feature","properties":{"id":"bus-524-s12269","kind":"busstop","ref":"524","name":"Karabağlar Cumhuriyet Mesleki ve Teknik Anadolu Lisesi","lines":["16","18","19","490","520","523","575","579"]},"geometry":{"type":"Point","coordinates":[27.11266,38.39994]}},{"type":"Feature","properties":{"id":"bus-524-s12271","kind":"busstop","ref":"524","name":"Yeşilyurt Çeşme","lines":["16","19","520","523","879"]},"geometry":{"type":"Point","coordinates":[27.1085,38.3988]}},{"type":"Feature","properties":{"id":"bus-524-s16960","kind":"busstop","ref":"524","name":"Yeşilyurt Devlet Hastanesi","lines":["16","19","520","523","879"]},"geometry":{"type":"Point","coordinates":[27.10512,38.39839]}},{"type":"Feature","properties":{"id":"bus-524-s12273","kind":"busstop","ref":"524","name":"Yeşilyurt Devlet Hastanesi 2","lines":["16","19","520","523","879"]},"geometry":{"type":"Point","coordinates":[27.10352,38.39851]}},{"type":"Feature","properties":{"id":"bus-524-s12275","kind":"busstop","ref":"524","name":"Yeşilyurt Huzurevi","lines":["16","19","520","523","879"]},"geometry":{"type":"Point","coordinates":[27.1024,38.39856]}},{"type":"Feature","properties":{"id":"bus-524-s12277","kind":"busstop","ref":"524","name":"Basın Sitesi","lines":["16","19","520","523","879"]},"geometry":{"type":"Point","coordinates":[27.1001,38.3977]}},{"type":"Feature","properties":{"id":"bus-524-s12363","kind":"busstop","ref":"524","name":"Şehit Halit Taş Ortaokulu","lines":["16","19","520","523","879"]},"geometry":{"type":"Point","coordinates":[27.1012,38.3958]}},{"type":"Feature","properties":{"id":"bus-524-s12337","kind":"busstop","ref":"524","name":"Hasan Tahsin","lines":["18","19","523","575","579","879"]},"geometry":{"type":"Point","coordinates":[27.0998,38.3939]}},{"type":"Feature","properties":{"id":"bus-524-s12339","kind":"busstop","ref":"524","name":"Karabağlar Halk Eğitim Merkezi","lines":["18","19","523","575","579","879"]},"geometry":{"type":"Point","coordinates":[27.09806,38.39287]}},{"type":"Feature","properties":{"id":"bus-524-s12341","kind":"busstop","ref":"524","name":"Mermerci","lines":["18","19","523","575","579","879"]},"geometry":{"type":"Point","coordinates":[27.0962,38.3901]}},{"type":"Feature","properties":{"id":"bus-524-s12427","kind":"busstop","ref":"524","name":"Maliyeciler","lines":["18","517","523","579"]},"geometry":{"type":"Point","coordinates":[27.0965,38.3887]}},{"type":"Feature","properties":{"id":"bus-524-s12429","kind":"busstop","ref":"524","name":"Arap Deresi","lines":["18","517","523","579"]},"geometry":{"type":"Point","coordinates":[27.0997,38.38772]}},{"type":"Feature","properties":{"id":"bus-524-s12431","kind":"busstop","ref":"524","name":"Yadigar Cami","lines":["517","523"]},"geometry":{"type":"Point","coordinates":[27.1013,38.3863]}},{"type":"Feature","properties":{"id":"bus-524-s12433","kind":"busstop","ref":"524","name":"Egzozcu","lines":["16","20","517","523","680"]},"geometry":{"type":"Point","coordinates":[27.1031,38.3849]}},{"type":"Feature","properties":{"id":"bus-524-s12435","kind":"busstop","ref":"524","name":"Ülkü","lines":["16","20","517","523","680"]},"geometry":{"type":"Point","coordinates":[27.10448,38.38236]}},{"type":"Feature","properties":{"id":"bus-524-s12437","kind":"busstop","ref":"524","name":" Limontepe Seniye-Hasan Saray İlkokulu","lines":["16","20","84","520","523","587","680"]},"geometry":{"type":"Point","coordinates":[27.1043,38.379]}},{"type":"Feature","properties":{"id":"bus-524-s12461","kind":"busstop","ref":"524","name":"Briketçi","lines":["193","522","671","877"]},"geometry":{"type":"Point","coordinates":[27.1045,38.3781]}},{"type":"Feature","properties":{"id":"bus-524-s12463","kind":"busstop","ref":"524","name":"Umut Mahallesi Köprü","lines":["193","522","671","877"]},"geometry":{"type":"Point","coordinates":[27.1037,38.3766]}},{"type":"Feature","properties":{"id":"bus-524-s12465","kind":"busstop","ref":"524","name":"Küçük Trafo","lines":["193","522","671","877"]},"geometry":{"type":"Point","coordinates":[27.10115,38.37374]}},{"type":"Feature","properties":{"id":"bus-524-s12467","kind":"busstop","ref":"524","name":"Çakırtepe","lines":["193","522","671","877"]},"geometry":{"type":"Point","coordinates":[27.0987,38.3719]}},{"type":"Feature","properties":{"id":"bus-524-s12469","kind":"busstop","ref":"524","name":"Ali Fuat Erden Mahallesi Muhtarlığı","lines":["193","517","522","671","877"]},"geometry":{"type":"Point","coordinates":[27.0962,38.3693]}},{"type":"Feature","properties":{"id":"bus-524-s12471","kind":"busstop","ref":"524","name":"Memiş Kahya","lines":["193","517","522","671","877"]},"geometry":{"type":"Point","coordinates":[27.0931,38.3669]}},{"type":"Feature","properties":{"id":"bus-524-s12473","kind":"busstop","ref":"524","name":"Güzel İzmir Cami","lines":["193","224","517","522","671"]},"geometry":{"type":"Point","coordinates":[27.0908,38.3642]}},{"type":"Feature","properties":{"id":"bus-524-s12475","kind":"busstop","ref":"524","name":"Toprak","lines":["193","224","517","522","671"]},"geometry":{"type":"Point","coordinates":[27.0879,38.3622]}},{"type":"Feature","properties":{"id":"bus-524-s12541","kind":"busstop","ref":"524","name":"Sacide Ayaz İlk ve Ortaokulu","lines":["193","224","873","877"]},"geometry":{"type":"Point","coordinates":[27.0853,38.362]}},{"type":"Feature","properties":{"id":"bus-524-s12789","kind":"busstop","ref":"524","name":"Cennetçeşme Beyazıt Cami","lines":["193","224","873","877"]},"geometry":{"type":"Point","coordinates":[27.0872,38.36118]}},{"type":"Feature","properties":{"id":"bus-524-s12801","kind":"busstop","ref":"524","name":"Yurtoğlu Üçyol","lines":["193","873","877"]},"geometry":{"type":"Point","coordinates":[27.08955,38.3617]}},{"type":"Feature","properties":{"id":"bus-524-s16178","kind":"busstop","ref":"524","name":"Kent","lines":["193","873"]},"geometry":{"type":"Point","coordinates":[27.0916,38.36293]}},{"type":"Feature","properties":{"id":"bus-524-s12791","kind":"busstop","ref":"524","name":"Muran","lines":["193","873","877"]},"geometry":{"type":"Point","coordinates":[27.0928,38.3645]}},{"type":"Feature","properties":{"id":"bus-524-s12793","kind":"busstop","ref":"524","name":"Tekstil","lines":["224"]},"geometry":{"type":"Point","coordinates":[27.09493,38.36453]}},{"type":"Feature","properties":{"id":"bus-524-s12795","kind":"busstop","ref":"524","name":"Yurtoğlu Son Durak","lines":["873"]},"geometry":{"type":"Point","coordinates":[27.0959,38.3626]}},{"type":"Feature","properties":{"id":"bus-524-s12797","kind":"busstop","ref":"524","name":"Yurtoğlu Pazaryeri","lines":["193","873"]},"geometry":{"type":"Point","coordinates":[27.09474,38.36155]}},{"type":"Feature","properties":{"id":"bus-524-s12811","kind":"busstop","ref":"524","name":"Destan Aksoy Parkı","lines":["193","873"]},"geometry":{"type":"Point","coordinates":[27.09425,38.36065]}}]}