{"type":"FeatureCollection","features":[{"type":"Feature","properties":{"id":"bus-53-1","kind":"busline","ref":"53","dir":1},"geometry":{"type":"LineString","coordinates":[[27.1864,38.4195],[27.1878,38.4193],[27.1884,38.419],[27.189,38.4179],[27.1889,38.4172],[27.1891,38.4167],[27.191,38.4149],[27.191,38.4147],[27.1924,38.4141],[27.1938,38.4144],[27.1945,38.4144],[27.1948,38.4142],[27.1957,38.4154],[27.1975,38.4158],[27.198,38.4163],[27.1996,38.417],[27.2008,38.417],[27.2018,38.4167],[27.2027,38.4173],[27.2029,38.4183],[27.2048,38.4204],[27.2051,38.4211],[27.2051,38.4225],[27.2046,38.4256],[27.1979,38.4257],[27.1959,38.4262],[27.1931,38.4264],[27.1903,38.4255],[27.188,38.425],[27.1853,38.4252],[27.1807,38.4259],[27.1801,38.4262],[27.1807,38.433],[27.1797,38.4332],[27.1732,38.4329],[27.1701,38.4335],[27.1687,38.4341],[27.1683,38.434],[27.1691,38.4329],[27.1695,38.4328],[27.1696,38.4331]]}},{"type":"Feature","properties":{"id":"bus-53-2","kind":"busline","ref":"53","dir":2},"geometry":{"type":"LineString","coordinates":[[27.1696,38.4331],[27.1694,38.4327],[27.1697,38.4325],[27.1702,38.4327],[27.1714,38.4327],[27.1721,38.433],[27.1734,38.4328],[27.1796,38.4331],[27.1805,38.433],[27.1804,38.4306],[27.18,38.4286],[27.1801,38.4273],[27.1797,38.4262],[27.1798,38.426],[27.186,38.425],[27.1886,38.4251],[27.1932,38.4264],[27.1959,38.4262],[27.1979,38.4257],[27.2028,38.4257],[27.2043,38.4256],[27.2046,38.4254],[27.2051,38.4225],[27.2051,38.4211],[27.2048,38.4204],[27.2042,38.4198],[27.2035,38.4203],[27.203,38.4202],[27.2032,38.419],[27.202,38.4181],[27.2009,38.4182],[27.2007,38.4184],[27.2008,38.417],[27.1996,38.417],[27.198,38.4163],[27.1975,38.4158],[27.1959,38.4155],[27.1948,38.4142],[27.1945,38.4144],[27.1938,38.4144],[27.1924,38.4141],[27.191,38.4147],[27.191,38.4149],[27.1891,38.4167],[27.1889,38.4172],[27.1891,38.4179],[27.1883,38.4193],[27.1881,38.4195],[27.1875,38.4194],[27.186,38.4197],[27.1866,38.4194],[27.1864,38.4195]]}},{"type":"Feature","properties":{"id":"bus-53-s30412","kind":"busstop","ref":"53","name":"MTK Çarşısı","lines":["57","119","154"]},"geometry":{"type":"Point","coordinates":[27.1864,38.4194]}},{"type":"Feature","properties":{"id":"bus-53-s30419","kind":"busstop","ref":"53","name":"Levent Kara Sağlık Ocağı","lines":["57","153"]},"geometry":{"type":"Point","coordinates":[27.18893,38.41733]}},{"type":"Feature","properties":{"id":"bus-53-s30421","kind":"busstop","ref":"53","name":"Çamkule","lines":["57","119","153"]},"geometry":{"type":"Point","coordinates":[27.1908,38.4149]}},{"type":"Feature","properties":{"id":"bus-53-s30423","kind":"busstop","ref":"53","name":"Zeytintepe","lines":["57","119","505"]},"geometry":{"type":"Point","coordinates":[27.19487,38.41414]}},{"type":"Feature","properties":{"id":"bus-53-s30425","kind":"busstop","ref":"53","name":"Merkez Cami","lines":["57","119","505"]},"geometry":{"type":"Point","coordinates":[27.19681,38.41568]}},{"type":"Feature","properties":{"id":"bus-53-s30427","kind":"busstop","ref":"53","name":"Çiçek","lines":["57","119","505"]},"geometry":{"type":"Point","coordinates":[27.1987,38.4165]}},{"type":"Feature","properties":{"id":"bus-53-s30475","kind":"busstop","ref":"53","name":"Merkez Mahallesi Muhtarlık","lines":["57","119","505"]},"geometry":{"type":"Point","coordinates":[27.2013,38.4167]}},{"type":"Feature","properties":{"id":"bus-53-s30472","kind":"busstop","ref":"53","name":"Altındağ","lines":["57","119","505"]},"geometry":{"type":"Point","coordinates":[27.2025,38.4171]}},{"type":"Feature","properties":{"id":"bus-53-s30474","kind":"busstop","ref":"53","name":"Tek Yön","lines":["57","119","505"]},"geometry":{"type":"Point","coordinates":[27.20419,38.41968]}},{"type":"Feature","properties":{"id":"bus-53-s30464","kind":"busstop","ref":"53","name":"Zafer Parkı","lines":["57","119","505"]},"geometry":{"type":"Point","coordinates":[27.2051,38.4216]}},{"type":"Feature","properties":{"id":"bus-53-s30462","kind":"busstop","ref":"53","name":"Yener Caddesi","lines":["57","119","505"]},"geometry":{"type":"Point","coordinates":[27.2049,38.4236]}},{"type":"Feature","properties":{"id":"bus-53-s30032","kind":"busstop","ref":"53","name":"Şehitler Ortaokulu","lines":["57","60","64","117","302","367"]},"geometry":{"type":"Point","coordinates":[27.2038,38.4257]}},{"type":"Feature","properties":{"id":"bus-53-s30030","kind":"busstop","ref":"53","name":"Altındağ Belediyesi","lines":["57","60","64","117","302","367"]},"geometry":{"type":"Point","coordinates":[27.2007,38.4257]}},{"type":"Feature","properties":{"id":"bus-53-s30029","kind":"busstop","ref":"53","name":"Havuzlu Kahve","lines":["57","60","64","117","302"]},"geometry":{"type":"Point","coordinates":[27.1984,38.4257]}},{"type":"Feature","properties":{"id":"bus-53-s30026","kind":"busstop","ref":"53","name":"Şehitler","lines":["57","60","64","117","302","367"]},"geometry":{"type":"Point","coordinates":[27.1944,38.4264]}},{"type":"Feature","properties":{"id":"bus-53-s30024","kind":"busstop","ref":"53","name":"Kokluca Mezarlığı","lines":["57","60","64","117","302","367"]},"geometry":{"type":"Point","coordinates":[27.1908,38.4257]}},{"type":"Feature","properties":{"id":"bus-53-s30022","kind":"busstop","ref":"53","name":"Evrenesoğlu Ortaokulu","lines":["57","58","60","64","117","302","367"]},"geometry":{"type":"Point","coordinates":[27.1881,38.4251]}},{"type":"Feature","properties":{"id":"bus-53-s30020","kind":"busstop","ref":"53","name":"Meriç Mahallesi Çeşme","lines":["57","58","60","64","117","302","367"]},"geometry":{"type":"Point","coordinates":[27.185,38.4252]}},{"type":"Feature","properties":{"id":"bus-53-s30018","kind":"busstop","ref":"53","name":"MTK Birinci Giriş","lines":["57","58","60","64","117","302","367"]},"geometry":{"type":"Point","coordinates":[27.1821,38.4257]}},{"type":"Feature","properties":{"id":"bus-53-s30123","kind":"busstop","ref":"53","name":"Miralay Fethi Bey","lines":["54","59","214","249","662","699"]},"geometry":{"type":"Point","coordinates":[27.18036,38.42772]}},{"type":"Feature","properties":{"id":"bus-53-s30127","kind":"busstop","ref":"53","name":"Birinci Sanayi Sitesi","lines":["54","59","214","249","662","699"]},"geometry":{"type":"Point","coordinates":[27.1805,38.4301]}},{"type":"Feature","properties":{"id":"bus-53-s30129","kind":"busstop","ref":"53","name":"Taç Sanayi","lines":["54","59","214","249","662","699"]},"geometry":{"type":"Point","coordinates":[27.18064,38.4317]}},{"type":"Feature","properties":{"id":"bus-53-s11878","kind":"busstop","ref":"53","name":"Atatürk Stadı","lines":["55","364","515","539","543","555","560","564","930"]},"geometry":{"type":"Point","coordinates":[27.1794,38.4332]}},{"type":"Feature","properties":{"id":"bus-53-s12874","kind":"busstop","ref":"53","name":"Halkapınar Tramvay","lines":["55","102","154","168","364","418","475","498","501","502","503","504","513","515","534","539","543","555","560","564","599","930"]},"geometry":{"type":"Point","coordinates":[27.17041,38.43345]}},{"type":"Feature","properties":{"id":"bus-53-s10469","kind":"busstop","ref":"53","name":"Halkapınar Metro","lines":[]},"geometry":{"type":"Point","coordinates":[27.16976,38.43309]}},{"type":"Feature","properties":{"id":"bus-53-s30130","kind":"busstop","ref":"53","name":"Taç Sanayi","lines":["54","59","214","249","662","699"]},"geometry":{"type":"Point","coordinates":[27.1805,38.432]}},{"type":"Feature","properties":{"id":"bus-53-s30128","kind":"busstop","ref":"53","name":"Birinci Sanayi Sitesi","lines":["54","59","214","249","662","699"]},"geometry":{"type":"Point","coordinates":[27.1802,38.4301]}},{"type":"Feature","properties":{"id":"bus-53-s30124","kind":"busstop","ref":"53","name":"Miralay Fethi Bey","lines":["54","59","214","249","662","699"]},"geometry":{"type":"Point","coordinates":[27.17995,38.42777]}},{"type":"Feature","properties":{"id":"bus-53-s30019","kind":"busstop","ref":"53","name":"MTK Birinci Giriş","lines":["57","58","60","64","117","302","367"]},"geometry":{"type":"Point","coordinates":[27.1818,38.4256]}},{"type":"Feature","properties":{"id":"bus-53-s30021","kind":"busstop","ref":"53","name":"MTK İkinci Giriş","lines":["57","58","60","64","117","302","367"]},"geometry":{"type":"Point","coordinates":[27.1853,38.4251]}},{"type":"Feature","properties":{"id":"bus-53-s30023","kind":"busstop","ref":"53","name":"Evrenesoğlu Ortaokulu","lines":["57","58","60","64","117","302","367"]},"geometry":{"type":"Point","coordinates":[27.1879,38.425]}},{"type":"Feature","properties":{"id":"bus-53-s30025","kind":"busstop","ref":"53","name":"Kokluca Mezarlığı","lines":["57","60","64","117","302","367"]},"geometry":{"type":"Point","coordinates":[27.19234,38.42607]}},{"type":"Feature","properties":{"id":"bus-53-s30027","kind":"busstop","ref":"53","name":"Şehitler","lines":["57","60","64","117","302","367"]},"geometry":{"type":"Point","coordinates":[27.1957,38.4261]}},{"type":"Feature","properties":{"id":"bus-53-s30028","kind":"busstop","ref":"53","name":"Havuzlu Kahve","lines":["57","60","64","117","302","367"]},"geometry":{"type":"Point","coordinates":[27.1978,38.4257]}},{"type":"Feature","properties":{"id":"bus-53-s30031","kind":"busstop","ref":"53","name":"Altındağ Belediyesi","lines":["57","60","64","117","302","367"]},"geometry":{"type":"Point","coordinates":[27.20138,38.42563]}},{"type":"Feature","properties":{"id":"bus-53-s30035","kind":"busstop","ref":"53","name":"Şehitler Ortaokulu","lines":["57","60","64","117","302","367"]},"geometry":{"type":"Point","coordinates":[27.2038,38.4256]}},{"type":"Feature","properties":{"id":"bus-53-s30461","kind":"busstop","ref":"53","name":"Yener Caddesi","lines":["57","119","505"]},"geometry":{"type":"Point","coordinates":[27.2049,38.4234]}},{"type":"Feature","properties":{"id":"bus-53-s30463","kind":"busstop","ref":"53","name":"Zafer Parkı","lines":["57","119","505"]},"geometry":{"type":"Point","coordinates":[27.205,38.4218]}},{"type":"Feature","properties":{"id":"bus-53-s30471","kind":"busstop","ref":"53","name":"Yener","lines":["57","119","505"]},"geometry":{"type":"Point","coordinates":[27.203,38.4202]}},{"type":"Feature","properties":{"id":"bus-53-s30473","kind":"busstop","ref":"53","name":"Kızılcık","lines":["57","119","505"]},"geometry":{"type":"Point","coordinates":[27.2012,38.4182]}},{"type":"Feature","properties":{"id":"bus-53-s30477","kind":"busstop","ref":"53","name":"Altındağ İlkokulu ","lines":["57","119","505"]},"geometry":{"type":"Point","coordinates":[27.20068,38.41719]}},{"type":"Feature","properties":{"id":"bus-53-s30428","kind":"busstop","ref":"53","name":"Çiçek","lines":["57","119","505"]},"geometry":{"type":"Point","coordinates":[27.1988,38.4166]}},{"type":"Feature","properties":{"id":"bus-53-s30426","kind":"busstop","ref":"53","name":"Merkez Cami","lines":["57","119","505"]},"geometry":{"type":"Point","coordinates":[27.197,38.4157]}},{"type":"Feature","properties":{"id":"bus-53-s30424","kind":"busstop","ref":"53","name":"Zeytintepe","lines":["57","119","505"]},"geometry":{"type":"Point","coordinates":[27.1946,38.4143]}},{"type":"Feature","properties":{"id":"bus-53-s30422","kind":"busstop","ref":"53","name":"Çamkule","lines":["57","119","153"]},"geometry":{"type":"Point","coordinates":[27.1909,38.4149]}},{"type":"Feature","properties":{"id":"bus-53-s30420","kind":"busstop","ref":"53","name":"Levent Kara Sağlık Ocağı","lines":["57","153"]},"geometry":{"type":"Point","coordinates":[27.1895,38.4164]}},{"type":"Feature","properties":{"id":"bus-53-s30416","kind":"busstop","ref":"53","name":"Çamkule Pazar Yeri","lines":["57","153"]},"geometry":{"type":"Point","coordinates":[27.18899,38.41817]}}]}