{"type":"FeatureCollection","features":[{"type":"Feature","properties":{"id":"bus-532-1","kind":"busline","ref":"532","dir":1},"geometry":{"type":"LineString","coordinates":[[27.1737,38.4842],[27.1716,38.4838],[27.1765,38.4848],[27.1778,38.4854],[27.1788,38.4855],[27.1804,38.486],[27.1808,38.486],[27.181,38.4858],[27.1815,38.4843],[27.1812,38.4841],[27.1763,38.483],[27.1758,38.4833],[27.1751,38.4833],[27.1743,38.4829],[27.1725,38.4825],[27.1688,38.4827],[27.1662,38.4839],[27.1649,38.4834],[27.1646,38.483],[27.1646,38.4825],[27.1652,38.4812],[27.1659,38.4806],[27.1665,38.4804],[27.1669,38.4805],[27.1669,38.4809],[27.1666,38.4811],[27.1669,38.4818],[27.1676,38.4822],[27.1698,38.482],[27.1758,38.4821],[27.1783,38.482],[27.1801,38.4817],[27.1821,38.4818],[27.1823,38.4817],[27.1823,38.4813],[27.1778,38.4814],[27.1635,38.4811],[27.1571,38.4814],[27.1499,38.4822],[27.1466,38.4828],[27.1403,38.4851],[27.1325,38.4867],[27.1323,38.4867],[27.1317,38.4855],[27.1309,38.4831],[27.1293,38.482],[27.1284,38.4819],[27.1279,38.4816],[27.1258,38.4816],[27.1199,38.4822],[27.1192,38.4823],[27.1177,38.483],[27.1173,38.4815],[27.1173,38.4805],[27.1179,38.4776],[27.1178,38.4772],[27.1154,38.4769],[27.1153,38.4754],[27.1149,38.4739],[27.1141,38.4725],[27.1108,38.4692],[27.1098,38.4678],[27.1085,38.4639],[27.1066,38.4552],[27.106,38.4539],[27.1041,38.4517],[27.0971,38.455],[27.0971,38.4547],[27.0975,38.4541],[27.0972,38.4536]]}},{"type":"Feature","properties":{"id":"bus-532-2","kind":"busline","ref":"532","dir":2},"geometry":{"type":"LineString","coordinates":[[27.0973,38.4538],[27.0972,38.4536],[27.0975,38.4528],[27.0978,38.4528],[27.0975,38.4535],[27.0976,38.4541],[27.098,38.4542],[27.1001,38.4532],[27.1004,38.4533],[27.1041,38.4514],[27.1063,38.4541],[27.1067,38.4552],[27.1086,38.4639],[27.1099,38.4677],[27.1105,38.4687],[27.1142,38.4724],[27.1151,38.4739],[27.1156,38.4766],[27.116,38.4769],[27.118,38.4771],[27.1173,38.4805],[27.1173,38.4815],[27.1177,38.483],[27.1192,38.4823],[27.1199,38.4822],[27.1258,38.4816],[27.1279,38.4816],[27.1284,38.4819],[27.1293,38.482],[27.1305,38.4827],[27.1313,38.4835],[27.1314,38.4838],[27.1312,38.4839],[27.1319,38.4858],[27.1353,38.4857],[27.1376,38.4854],[27.1401,38.4848],[27.1466,38.4826],[27.1549,38.4813],[27.1633,38.4808],[27.1748,38.4811],[27.1766,38.481],[27.1767,38.4806],[27.1741,38.481],[27.168,38.4803],[27.1669,38.4807],[27.1666,38.4811],[27.1652,38.4813],[27.1647,38.4826],[27.1651,38.4834],[27.1683,38.4843],[27.1708,38.4838],[27.172,38.4838],[27.1739,38.4842],[27.1737,38.4842]]}},{"type":"Feature","properties":{"id":"bus-532-s32347","kind":"busstop","ref":"532","name":"Teknik Servis","lines":["533","534","535","536","537"]},"geometry":{"type":"Point","coordinates":[27.17371,38.48414]}},{"type":"Feature","properties":{"id":"bus-532-s32348","kind":"busstop","ref":"532","name":"Acil","lines":["535","536","537"]},"geometry":{"type":"Point","coordinates":[27.1765,38.48476]}},{"type":"Feature","properties":{"id":"bus-532-s32349","kind":"busstop","ref":"532","name":"Onkoloji","lines":["535","536","537"]},"geometry":{"type":"Point","coordinates":[27.18118,38.48491]}},{"type":"Feature","properties":{"id":"bus-532-s32350","kind":"busstop","ref":"532","name":"Poliklinik 1","lines":["535","536","537"]},"geometry":{"type":"Point","coordinates":[27.17969,38.48386]}},{"type":"Feature","properties":{"id":"bus-532-s32351","kind":"busstop","ref":"532","name":"Poliklinik 2","lines":["535","536","537"]},"geometry":{"type":"Point","coordinates":[27.17814,38.48353]}},{"type":"Feature","properties":{"id":"bus-532-s32346","kind":"busstop","ref":"532","name":"Fizik Tedavi ve Rehabilitasyon","lines":["535","536","537"]},"geometry":{"type":"Point","coordinates":[27.17257,38.48259]}},{"type":"Feature","properties":{"id":"bus-532-s24257","kind":"busstop","ref":"532","name":"Günhan Cami","lines":[]},"geometry":{"type":"Point","coordinates":[27.13151,38.48495]}},{"type":"Feature","properties":{"id":"bus-532-s20594","kind":"busstop","ref":"532","name":"Milli İrade Orta Okulu","lines":["148","258"]},"geometry":{"type":"Point","coordinates":[27.13065,38.48286]}},{"type":"Feature","properties":{"id":"bus-532-s20582","kind":"busstop","ref":"532","name":"Halit Özpirinç Lisesi","lines":["148","258"]},"geometry":{"type":"Point","coordinates":[27.1272,38.4817]}},{"type":"Feature","properties":{"id":"bus-532-s23945","kind":"busstop","ref":"532","name":"Aşık Veysel Şatıroğlu Parkı","lines":[]},"geometry":{"type":"Point","coordinates":[27.12537,38.48175]}},{"type":"Feature","properties":{"id":"bus-532-s20578","kind":"busstop","ref":"532","name":"İnönü Kültür Merkezi","lines":["147","847"]},"geometry":{"type":"Point","coordinates":[27.12307,38.48197]}},{"type":"Feature","properties":{"id":"bus-532-s20576","kind":"busstop","ref":"532","name":"Postacılar Trafo","lines":["147","847"]},"geometry":{"type":"Point","coordinates":[27.1204,38.4822]}},{"type":"Feature","properties":{"id":"bus-532-s20574","kind":"busstop","ref":"532","name":"Postacılar Muhtarlık","lines":["147","847"]},"geometry":{"type":"Point","coordinates":[27.1185,38.4826]}},{"type":"Feature","properties":{"id":"bus-532-s20572","kind":"busstop","ref":"532","name":"Okul","lines":["147","847"]},"geometry":{"type":"Point","coordinates":[27.11729,38.48041]}},{"type":"Feature","properties":{"id":"bus-532-s20570","kind":"busstop","ref":"532","name":"Mutlu Parkı","lines":["147","847"]},"geometry":{"type":"Point","coordinates":[27.1178,38.4778]}},{"type":"Feature","properties":{"id":"bus-532-s20484","kind":"busstop","ref":"532","name":"Yeni Girne","lines":["147","148","240","258","426","430","434","435","535","537","741","847"]},"geometry":{"type":"Point","coordinates":[27.1152,38.4758]}},{"type":"Feature","properties":{"id":"bus-532-s20482","kind":"busstop","ref":"532","name":"Girne Konutları","lines":["136","140","147","148","240","258","426","430","434","435","535","741","847"]},"geometry":{"type":"Point","coordinates":[27.1148,38.4737]}},{"type":"Feature","properties":{"id":"bus-532-s20214","kind":"busstop","ref":"532","name":"Zafer Takı","lines":["126","135","136","137","197","222","258","326","430","435","487","741","742","847","853","920"]},"geometry":{"type":"Point","coordinates":[27.1096,38.4671]}},{"type":"Feature","properties":{"id":"bus-532-s20212","kind":"busstop","ref":"532","name":"Çayırcı","lines":["126","135","136","137","197","222","258","326","430","435","487","741","742","847","853","920"]},"geometry":{"type":"Point","coordinates":[27.1088,38.4649]}},{"type":"Feature","properties":{"id":"bus-532-s20208","kind":"busstop","ref":"532","name":"Girne Bulvarı","lines":["126","135","136","137","197","222","258","326","361","430","435","487","741","742","847","853","920"]},"geometry":{"type":"Point","coordinates":[27.10778,38.46089]}},{"type":"Feature","properties":{"id":"bus-532-s20206","kind":"busstop","ref":"532","name":"Geçit 1","lines":["126","135","136","137","197","222","258","326","361","430","435","487","741","742","847","853","920"]},"geometry":{"type":"Point","coordinates":[27.10724,38.4585]}},{"type":"Feature","properties":{"id":"bus-532-s20204","kind":"busstop","ref":"532","name":"Geçit 2","lines":["126","135","136","137","197","222","258","326","361","430","435","487","741","742","847","853","920"]},"geometry":{"type":"Point","coordinates":[27.107,38.4574]}},{"type":"Feature","properties":{"id":"bus-532-s20202","kind":"busstop","ref":"532","name":"Metin Aşıkoğlu Ortaokulu","lines":["126","135","136","137","197","222","258","326","361","430","435","487","741","742","847","853","920"]},"geometry":{"type":"Point","coordinates":[27.10626,38.45443]}},{"type":"Feature","properties":{"id":"bus-532-s20200","kind":"busstop","ref":"532","name":"Şehit Diplomat Erdoğan Özen","lines":["126","135","136","137","197","222","258","326","361","430","435","487","741","742","847","853","920"]},"geometry":{"type":"Point","coordinates":[27.1047,38.4525]}},{"type":"Feature","properties":{"id":"bus-532-s20185","kind":"busstop","ref":"532","name":"Yıllar","lines":["121","200","290","330","430","435","543","777"]},"geometry":{"type":"Point","coordinates":[27.1022,38.4526]}},{"type":"Feature","properties":{"id":"bus-532-s23685","kind":"busstop","ref":"532","name":"Bostanlı İskele","lines":["430","435"]},"geometry":{"type":"Point","coordinates":[27.09723,38.45378]}},{"type":"Feature","properties":{"id":"bus-532-s20199","kind":"busstop","ref":"532","name":"Şehit Diplomat Erdoğan Özen","lines":["126","135","136","137","197","222","258","326","361","430","435","487","741","742","847","853","920"]},"geometry":{"type":"Point","coordinates":[27.10526,38.45267]}},{"type":"Feature","properties":{"id":"bus-532-s20201","kind":"busstop","ref":"532","name":"Metin Aşıkoğlu Ortaokulu","lines":["126","135","136","137","197","222","258","326","361","430","435","487","741","742","847","853","920"]},"geometry":{"type":"Point","coordinates":[27.10643,38.4544]}},{"type":"Feature","properties":{"id":"bus-532-s20203","kind":"busstop","ref":"532","name":"Geçit 2","lines":["126","135","136","137","197","222","258","326","361","430","435","487","741","742","847","853","920"]},"geometry":{"type":"Point","coordinates":[27.10738,38.45759]}},{"type":"Feature","properties":{"id":"bus-532-s20205","kind":"busstop","ref":"532","name":"Geçit 1","lines":["126","135","136","137","197","222","258","326","361","430","435","487","741","742","847","853","920"]},"geometry":{"type":"Point","coordinates":[27.1076,38.4589]}},{"type":"Feature","properties":{"id":"bus-532-s20207","kind":"busstop","ref":"532","name":"Girne Bulvarı","lines":["126","135","136","137","197","222","258","326","361","430","435","487","741","742","847","853","920"]},"geometry":{"type":"Point","coordinates":[27.1081,38.461]}},{"type":"Feature","properties":{"id":"bus-532-s20209","kind":"busstop","ref":"532","name":"Çayırcı","lines":["126","135","136","137","197","222","258","326","430","435","487","741","742","847","853","920"]},"geometry":{"type":"Point","coordinates":[27.109,38.4647]}},{"type":"Feature","properties":{"id":"bus-532-s20211","kind":"busstop","ref":"532","name":"Zafer Takı","lines":["126","135","136","137","197","222","258","326","430","435","487","741","742","847","853","920"]},"geometry":{"type":"Point","coordinates":[27.10977,38.46706]}},{"type":"Feature","properties":{"id":"bus-532-s20483","kind":"busstop","ref":"532","name":"Girne Konutları","lines":["77","78","135","137","147","148","197","240","258","426","430","434","435","535","537","577","741","742","847"]},"geometry":{"type":"Point","coordinates":[27.1151,38.4737]}},{"type":"Feature","properties":{"id":"bus-532-s20485","kind":"busstop","ref":"532","name":"Yeni Girne","lines":["147","148","240","258","426","430","434","435","535","537","741","847"]},"geometry":{"type":"Point","coordinates":[27.1155,38.4754]}},{"type":"Feature","properties":{"id":"bus-532-s20571","kind":"busstop","ref":"532","name":"Mutlu Parkı","lines":["147","847"]},"geometry":{"type":"Point","coordinates":[27.11785,38.47842]}},{"type":"Feature","properties":{"id":"bus-532-s20573","kind":"busstop","ref":"532","name":"Okul","lines":["147","847"]},"geometry":{"type":"Point","coordinates":[27.1174,38.4805]}},{"type":"Feature","properties":{"id":"bus-532-s20575","kind":"busstop","ref":"532","name":"Postacılar Muhtarlık","lines":["147","847"]},"geometry":{"type":"Point","coordinates":[27.1181,38.4827]}},{"type":"Feature","properties":{"id":"bus-532-s20577","kind":"busstop","ref":"532","name":"Postacılar Trafo","lines":["147","847"]},"geometry":{"type":"Point","coordinates":[27.12132,38.48202]}},{"type":"Feature","properties":{"id":"bus-532-s20579","kind":"busstop","ref":"532","name":"İnönü Kültür Merkezi","lines":["147","847"]},"geometry":{"type":"Point","coordinates":[27.12308,38.48182]}},{"type":"Feature","properties":{"id":"bus-532-s23946","kind":"busstop","ref":"532","name":"Aşık Veysel Şatıroğlu Parkı","lines":[]},"geometry":{"type":"Point","coordinates":[27.1253,38.48165]}},{"type":"Feature","properties":{"id":"bus-532-s20581","kind":"busstop","ref":"532","name":"Halit Özpirinç Lisesi","lines":["148","258"]},"geometry":{"type":"Point","coordinates":[27.127,38.4816]}},{"type":"Feature","properties":{"id":"bus-532-s20593","kind":"busstop","ref":"532","name":"Milli İrade Orta Okulu","lines":["148","258"]},"geometry":{"type":"Point","coordinates":[27.1308,38.4829]}},{"type":"Feature","properties":{"id":"bus-532-s24256","kind":"busstop","ref":"532","name":"Günhan Cami","lines":[]},"geometry":{"type":"Point","coordinates":[27.13161,38.48496]}}]}