{"type":"FeatureCollection","features":[{"type":"Feature","properties":{"id":"bus-534-1","kind":"busline","ref":"534","dir":1},"geometry":{"type":"LineString","coordinates":[[27.1737,38.4842],[27.1716,38.4838],[27.1765,38.4848],[27.1778,38.4854],[27.1788,38.4855],[27.1804,38.486],[27.1808,38.486],[27.181,38.4858],[27.1815,38.4843],[27.1812,38.4841],[27.1763,38.483],[27.1758,38.4833],[27.1751,38.4833],[27.1743,38.4829],[27.1725,38.4825],[27.1688,38.4827],[27.1662,38.4839],[27.1649,38.4834],[27.1646,38.483],[27.1646,38.4825],[27.165,38.4815],[27.1656,38.4808],[27.1665,38.4804],[27.1671,38.4805],[27.1679,38.4802],[27.169,38.4802],[27.1734,38.4809],[27.1751,38.4809],[27.1764,38.4805],[27.1773,38.4805],[27.1779,38.4806],[27.1781,38.481],[27.1784,38.4811],[27.1796,38.4811],[27.1819,38.4808],[27.1845,38.48],[27.187,38.4784],[27.1926,38.4736],[27.1942,38.4727],[27.1975,38.4714],[27.1999,38.47],[27.2011,38.4688],[27.2015,38.4671],[27.2021,38.4662],[27.2021,38.4659],[27.2005,38.4663],[27.1949,38.4663],[27.1899,38.4648],[27.1849,38.4637],[27.1801,38.4635],[27.178,38.4635],[27.1775,38.4637],[27.1772,38.4635],[27.1744,38.4633],[27.1712,38.4622],[27.1651,38.4597],[27.1645,38.4597],[27.1642,38.4599],[27.1642,38.4605],[27.1647,38.4605],[27.165,38.4601],[27.1701,38.4504],[27.171,38.4486],[27.1715,38.4464],[27.1706,38.4422],[27.1692,38.4403],[27.1684,38.4396],[27.1664,38.4384],[27.1652,38.4379],[27.1632,38.4376],[27.1628,38.4372],[27.1626,38.4365],[27.1662,38.4351],[27.1696,38.4335],[27.1697,38.4333],[27.1694,38.4332],[27.169,38.4335]]}},{"type":"Feature","properties":{"id":"bus-534-2","kind":"busline","ref":"534","dir":2},"geometry":{"type":"LineString","coordinates":[[27.169,38.4335],[27.1692,38.4334],[27.1684,38.4338],[27.1691,38.4329],[27.1697,38.4325],[27.1715,38.4329],[27.1715,38.4332],[27.1688,38.4339],[27.1657,38.4354],[27.1654,38.4356],[27.1653,38.436],[27.1668,38.4379],[27.1697,38.4406],[27.1711,38.4427],[27.1725,38.4442],[27.1727,38.4452],[27.1725,38.4457],[27.1719,38.4463],[27.1712,38.4484],[27.1663,38.4578],[27.1663,38.4583],[27.1657,38.4595],[27.1659,38.4599],[27.1705,38.4617],[27.1714,38.4617],[27.1718,38.4622],[27.1726,38.4626],[27.1749,38.4633],[27.1843,38.4635],[27.1875,38.464],[27.1877,38.4642],[27.1957,38.4662],[27.2001,38.4662],[27.2014,38.466],[27.2025,38.4654],[27.2059,38.4654],[27.2061,38.4655],[27.2062,38.4662],[27.2062,38.4668],[27.2059,38.4675],[27.205,38.4672],[27.2037,38.4673],[27.2001,38.4703],[27.1966,38.472],[27.1942,38.4729],[27.1925,38.4739],[27.1862,38.4794],[27.1846,38.4803],[27.1826,38.481],[27.1824,38.4817],[27.1821,38.4819],[27.1804,38.4818],[27.1784,38.4821],[27.1699,38.4821],[27.1675,38.4823],[27.1669,38.4819],[27.1664,38.4812],[27.1654,38.4812],[27.1652,38.4813],[27.1647,38.4826],[27.1651,38.4834],[27.1683,38.4843],[27.1708,38.4838],[27.172,38.4838],[27.1739,38.4842],[27.1737,38.4842]]}},{"type":"Feature","properties":{"id":"bus-534-s10454","kind":"busstop","ref":"534","name":"Halkapınar Metro","lines":["515"]},"geometry":{"type":"Point","coordinates":[27.16904,38.4335]}},{"type":"Feature","properties":{"id":"bus-534-s12874","kind":"busstop","ref":"534","name":"Halkapınar Tramvay","lines":["53","55","102","154","168","364","418","475","498","501","502","503","504","513","515","539","543","555","560","564","599","930"]},"geometry":{"type":"Point","coordinates":[27.17041,38.43345]}},{"type":"Feature","properties":{"id":"bus-534-s30956","kind":"busstop","ref":"534","name":"Piyale","lines":["102","330","501","502","504","543","662"]},"geometry":{"type":"Point","coordinates":[27.16955,38.46132]}},{"type":"Feature","properties":{"id":"bus-534-s31851","kind":"busstop","ref":"534","name":"Sağlık Müdürlüğü","lines":["338","498"]},"geometry":{"type":"Point","coordinates":[27.1754,38.4632]}},{"type":"Feature","properties":{"id":"bus-534-s31014","kind":"busstop","ref":"534","name":"Bayraklı Siteler","lines":["338","498"]},"geometry":{"type":"Point","coordinates":[27.17979,38.46337]}},{"type":"Feature","properties":{"id":"bus-534-s31016","kind":"busstop","ref":"534","name":"Fatih Cami","lines":["338","498"]},"geometry":{"type":"Point","coordinates":[27.1831,38.4634]}},{"type":"Feature","properties":{"id":"bus-534-s31853","kind":"busstop","ref":"534","name":"Çamkıran Parkı","lines":["338","498","559"]},"geometry":{"type":"Point","coordinates":[27.1885,38.4642]}},{"type":"Feature","properties":{"id":"bus-534-s31855","kind":"busstop","ref":"534","name":"Ay","lines":["338","498","559"]},"geometry":{"type":"Point","coordinates":[27.1923,38.4653]}},{"type":"Feature","properties":{"id":"bus-534-s31857","kind":"busstop","ref":"534","name":"Taşkent","lines":["338","559","568"]},"geometry":{"type":"Point","coordinates":[27.19781,38.46622]}},{"type":"Feature","properties":{"id":"bus-534-s31859","kind":"busstop","ref":"534","name":"Başak","lines":["338","559"]},"geometry":{"type":"Point","coordinates":[27.20028,38.46597]}},{"type":"Feature","properties":{"id":"bus-534-s32502","kind":"busstop","ref":"534","name":"Manzara","lines":["536","559"]},"geometry":{"type":"Point","coordinates":[27.18428,38.48052]}},{"type":"Feature","properties":{"id":"bus-534-s32347","kind":"busstop","ref":"534","name":"Teknik Servis","lines":["532","533","535","536","537"]},"geometry":{"type":"Point","coordinates":[27.17371,38.48414]}}]}