{"type":"FeatureCollection","features":[{"type":"Feature","properties":{"id":"bus-54-1","kind":"busline","ref":"54","dir":1},"geometry":{"type":"LineString","coordinates":[[27.2129,38.429],[27.2123,38.4293],[27.2123,38.4298],[27.2129,38.4298],[27.213,38.4318],[27.2122,38.4319],[27.2121,38.4335],[27.2117,38.4345],[27.2112,38.4353],[27.2098,38.4366],[27.2094,38.4366],[27.2094,38.4364],[27.2101,38.4361],[27.2109,38.4354],[27.2117,38.4341],[27.2121,38.4296],[27.212,38.4285],[27.2115,38.4282],[27.2096,38.428],[27.2034,38.4295],[27.203,38.431],[27.203,38.4345],[27.2024,38.4364],[27.2018,38.4393],[27.2015,38.4401],[27.2009,38.4407],[27.1994,38.443],[27.1989,38.4427],[27.197,38.4422],[27.1939,38.4399],[27.1928,38.4397],[27.1849,38.4394],[27.1836,38.4397],[27.1804,38.4399],[27.1804,38.4404],[27.1801,38.4405],[27.1805,38.4382],[27.1806,38.4339],[27.1804,38.4332],[27.1806,38.4328],[27.18,38.4286],[27.1801,38.4273],[27.1797,38.4263],[27.1781,38.426],[27.175,38.426],[27.1739,38.4256],[27.1705,38.4252],[27.1671,38.4242],[27.1631,38.4233],[27.1595,38.4234],[27.1563,38.4229],[27.1562,38.4223],[27.1566,38.4213],[27.1569,38.421],[27.1568,38.4212],[27.157,38.4214],[27.1568,38.4219]]}},{"type":"Feature","properties":{"id":"bus-54-2","kind":"busline","ref":"54","dir":2},"geometry":{"type":"LineString","coordinates":[[27.1568,38.4219],[27.1567,38.4221],[27.1565,38.422],[27.1563,38.4225],[27.1564,38.4227],[27.159,38.423],[27.1594,38.4231],[27.1594,38.4233],[27.1629,38.4232],[27.1643,38.4234],[27.1711,38.4252],[27.1739,38.4255],[27.1749,38.4259],[27.1779,38.4259],[27.1789,38.4261],[27.1801,38.426],[27.1803,38.4273],[27.1803,38.4298],[27.1807,38.4321],[27.1806,38.4372],[27.1826,38.4371],[27.1847,38.4376],[27.1923,38.4376],[27.195,38.4387],[27.1956,38.4392],[27.1969,38.4397],[27.1987,38.4408],[27.2005,38.4414],[27.2015,38.4401],[27.202,38.4386],[27.2025,38.436],[27.2029,38.4351],[27.2029,38.4314],[27.2032,38.4295],[27.2043,38.4291],[27.2121,38.4273],[27.2134,38.4278],[27.2129,38.429],[27.2127,38.4291],[27.2129,38.429]]}},{"type":"Feature","properties":{"id":"bus-54-s31554","kind":"busstop","ref":"54","name":"Otogar Yeni","lines":[]},"geometry":{"type":"Point","coordinates":[27.2129,38.429]}},{"type":"Feature","properties":{"id":"bus-54-s30511","kind":"busstop","ref":"54","name":"Otogar","lines":["204","277","302","505","555"]},"geometry":{"type":"Point","coordinates":[27.213,38.4309]}},{"type":"Feature","properties":{"id":"bus-54-s32462","kind":"busstop","ref":"54","name":"Eylül","lines":["277","302","505","555"]},"geometry":{"type":"Point","coordinates":[27.21022,38.43581]}},{"type":"Feature","properties":{"id":"bus-54-s31556","kind":"busstop","ref":"54","name":"Otogar Benzinlik","lines":["204","277","302","505","555","602","608","660","697","806","858"]},"geometry":{"type":"Point","coordinates":[27.21187,38.43064]}},{"type":"Feature","properties":{"id":"bus-54-s30166","kind":"busstop","ref":"54","name":"Bulvar","lines":["364","555","560","564"]},"geometry":{"type":"Point","coordinates":[27.21015,38.42806]}},{"type":"Feature","properties":{"id":"bus-54-s30164","kind":"busstop","ref":"54","name":"Altındağ Atatürk Kültür Merkezi STK Yerleşke","lines":["364","555","560","564"]},"geometry":{"type":"Point","coordinates":[27.2067,38.4287]}},{"type":"Feature","properties":{"id":"bus-54-s30228","kind":"busstop","ref":"54","name":"Çimentaş Lisesi","lines":["55","59","119","555"]},"geometry":{"type":"Point","coordinates":[27.203,38.4317]}},{"type":"Feature","properties":{"id":"bus-54-s30226","kind":"busstop","ref":"54","name":"Birlik","lines":["55","59","119","555"]},"geometry":{"type":"Point","coordinates":[27.203,38.4332]}},{"type":"Feature","properties":{"id":"bus-54-s30224","kind":"busstop","ref":"54","name":"Sevgi","lines":["55","119","555"]},"geometry":{"type":"Point","coordinates":[27.2027,38.4357]}},{"type":"Feature","properties":{"id":"bus-54-s30222","kind":"busstop","ref":"54","name":"Yeşilova","lines":["55","119","555"]},"geometry":{"type":"Point","coordinates":[27.2019,38.4389]}},{"type":"Feature","properties":{"id":"bus-54-s30220","kind":"busstop","ref":"54","name":"Rafet Paşa","lines":["55","59","119","555"]},"geometry":{"type":"Point","coordinates":[27.2002,38.4419]}},{"type":"Feature","properties":{"id":"bus-54-s30212","kind":"busstop","ref":"54","name":"Sanayi Sitesi","lines":["55","119","555"]},"geometry":{"type":"Point","coordinates":[27.197,38.4422]}},{"type":"Feature","properties":{"id":"bus-54-s30210","kind":"busstop","ref":"54","name":"Birlik Cami","lines":["55","119","555"]},"geometry":{"type":"Point","coordinates":[27.195,38.4407]}},{"type":"Feature","properties":{"id":"bus-54-s30208","kind":"busstop","ref":"54","name":"Şehit Piyade Ferhat Altın","lines":["55","119","555"]},"geometry":{"type":"Point","coordinates":[27.1921,38.4397]}},{"type":"Feature","properties":{"id":"bus-54-s30206","kind":"busstop","ref":"54","name":"Yıldırım Beyazıt Cami","lines":["55","119","555"]},"geometry":{"type":"Point","coordinates":[27.1902,38.4397]}},{"type":"Feature","properties":{"id":"bus-54-s30214","kind":"busstop","ref":"54","name":"Yıldırım","lines":["55","119","555"]},"geometry":{"type":"Point","coordinates":[27.18827,38.43948]}},{"type":"Feature","properties":{"id":"bus-54-s30204","kind":"busstop","ref":"54","name":"Dispanser","lines":["55","119","555"]},"geometry":{"type":"Point","coordinates":[27.18653,38.43944]}},{"type":"Feature","properties":{"id":"bus-54-s30202","kind":"busstop","ref":"54","name":"Havuzlu Kahve","lines":["55","119","555"]},"geometry":{"type":"Point","coordinates":[27.18431,38.43955]}},{"type":"Feature","properties":{"id":"bus-54-s30200","kind":"busstop","ref":"54","name":"Mersinli Cami","lines":["55","119","555"]},"geometry":{"type":"Point","coordinates":[27.18141,38.43987]}},{"type":"Feature","properties":{"id":"bus-54-s30134","kind":"busstop","ref":"54","name":"Mersinli","lines":["55","119","214","249","515","539","543","555","662","699","930"]},"geometry":{"type":"Point","coordinates":[27.1804,38.438]}},{"type":"Feature","properties":{"id":"bus-54-s30132","kind":"busstop","ref":"54","name":"Çamdibi Sağlık Ocağı","lines":["55","214","249","515","539","543","555","662","699","930"]},"geometry":{"type":"Point","coordinates":[27.1805,38.4349]}},{"type":"Feature","properties":{"id":"bus-54-s30130","kind":"busstop","ref":"54","name":"Taç Sanayi","lines":["53","59","214","249","662","699"]},"geometry":{"type":"Point","coordinates":[27.1805,38.432]}},{"type":"Feature","properties":{"id":"bus-54-s30128","kind":"busstop","ref":"54","name":"Birinci Sanayi Sitesi","lines":["53","59","214","249","662","699"]},"geometry":{"type":"Point","coordinates":[27.1802,38.4301]}},{"type":"Feature","properties":{"id":"bus-54-s30124","kind":"busstop","ref":"54","name":"Miralay Fethi Bey","lines":["53","59","214","249","662","699"]},"geometry":{"type":"Point","coordinates":[27.17995,38.42777]}},{"type":"Feature","properties":{"id":"bus-54-s32243","kind":"busstop","ref":"54","name":"Ağır Bakım","lines":["57","58","59","60","64","117","153","154","214","249","302","367","662","699"]},"geometry":{"type":"Point","coordinates":[27.17642,38.42606]}},{"type":"Feature","properties":{"id":"bus-54-s10370","kind":"busstop","ref":"54","name":"Halkapınar İZSU","lines":["57","58","59","60","64","117","153","154","214","249","302","367","662","699"]},"geometry":{"type":"Point","coordinates":[27.1734,38.4256]}},{"type":"Feature","properties":{"id":"bus-54-s10368","kind":"busstop","ref":"54","name":"Yenişehir PTT","lines":["44","45","57","58","59","60","64","117","153","214","249","302","367","418","662","699"]},"geometry":{"type":"Point","coordinates":[27.16915,38.4248]}},{"type":"Feature","properties":{"id":"bus-54-s10366","kind":"busstop","ref":"54","name":"Tepecik Doğum Hastanesi","lines":["44","45","57","58","59","60","64","117","153","214","249","302","367","418","662","699"]},"geometry":{"type":"Point","coordinates":[27.1662,38.424]}},{"type":"Feature","properties":{"id":"bus-54-s10364","kind":"busstop","ref":"54","name":"Ziya Gökalp Ortaokulu","lines":["44","45","57","58","59","60","64","117","153","214","249","302","367","418","662","699"]},"geometry":{"type":"Point","coordinates":[27.1627,38.4233]}},{"type":"Feature","properties":{"id":"bus-54-s10362","kind":"busstop","ref":"54","name":"Eşref Paşa Hastanesi","lines":["44","45","57","58","59","60","64","117","153","214","249","302","367","418","662","699"]},"geometry":{"type":"Point","coordinates":[27.16,38.4234]}},{"type":"Feature","properties":{"id":"bus-54-s13344","kind":"busstop","ref":"54","name":"Kemer Aktarma Merkezi","lines":[]},"geometry":{"type":"Point","coordinates":[27.15681,38.42192]}},{"type":"Feature","properties":{"id":"bus-54-s10363","kind":"busstop","ref":"54","name":"Eşref Paşa Hastanesi","lines":["44","45","49","57","58","59","60","64","117","153","214","249","302","367","418","662","699"]},"geometry":{"type":"Point","coordinates":[27.16153,38.42325]}},{"type":"Feature","properties":{"id":"bus-54-s10365","kind":"busstop","ref":"54","name":"Ziya Gökalp Ortaokulu","lines":["44","45","49","57","58","59","60","64","117","153","214","249","302","367","418","662","699"]},"geometry":{"type":"Point","coordinates":[27.16312,38.42325]}},{"type":"Feature","properties":{"id":"bus-54-s10367","kind":"busstop","ref":"54","name":"Tepecik Doğum Hastanesi","lines":["44","45","57","58","59","60","64","117","153","214","249","302","367","418","662","699"]},"geometry":{"type":"Point","coordinates":[27.1663,38.4239]}},{"type":"Feature","properties":{"id":"bus-54-s10369","kind":"busstop","ref":"54","name":"Yenişehir PTT","lines":["44","45","57","58","59","60","64","117","153","214","249","302","367","418","662","699"]},"geometry":{"type":"Point","coordinates":[27.17008,38.42475]}},{"type":"Feature","properties":{"id":"bus-54-s10371","kind":"busstop","ref":"54","name":"Halkapınar İZSU","lines":["57","58","59","60","64","117","153","154","214","249","302","367","662","699"]},"geometry":{"type":"Point","coordinates":[27.1742,38.4256]}},{"type":"Feature","properties":{"id":"bus-54-s32244","kind":"busstop","ref":"54","name":"Ağır Bakım","lines":["57","58","59","60","64","117","153","154","214","249","302","367","662","699"]},"geometry":{"type":"Point","coordinates":[27.17645,38.42588]}},{"type":"Feature","properties":{"id":"bus-54-s30123","kind":"busstop","ref":"54","name":"Miralay Fethi Bey","lines":["53","59","214","249","662","699"]},"geometry":{"type":"Point","coordinates":[27.18036,38.42772]}},{"type":"Feature","properties":{"id":"bus-54-s30127","kind":"busstop","ref":"54","name":"Birinci Sanayi Sitesi","lines":["53","59","214","249","662","699"]},"geometry":{"type":"Point","coordinates":[27.1805,38.4301]}},{"type":"Feature","properties":{"id":"bus-54-s30129","kind":"busstop","ref":"54","name":"Taç Sanayi","lines":["53","59","214","249","662","699"]},"geometry":{"type":"Point","coordinates":[27.18064,38.4317]}},{"type":"Feature","properties":{"id":"bus-54-s30131","kind":"busstop","ref":"54","name":"Çamdibi Sağlık Ocağı","lines":["102","214","249","498","501","502","503","504","513","515","539","543","555","599","662","699","930"]},"geometry":{"type":"Point","coordinates":[27.1807,38.4352]}},{"type":"Feature","properties":{"id":"bus-54-s30179","kind":"busstop","ref":"54","name":"Burak Reis","lines":["119","555"]},"geometry":{"type":"Point","coordinates":[27.1835,38.4373]}},{"type":"Feature","properties":{"id":"bus-54-s30181","kind":"busstop","ref":"54","name":"Havuzlu Kahve","lines":["119","555"]},"geometry":{"type":"Point","coordinates":[27.1864,38.4375]}},{"type":"Feature","properties":{"id":"bus-54-s30183","kind":"busstop","ref":"54","name":"Sıdıka Rodop Lisesi","lines":["119","555"]},"geometry":{"type":"Point","coordinates":[27.1884,38.4374]}},{"type":"Feature","properties":{"id":"bus-54-s30185","kind":"busstop","ref":"54","name":"Pazar Yeri","lines":["119","555"]},"geometry":{"type":"Point","coordinates":[27.1913,38.4375]}},{"type":"Feature","properties":{"id":"bus-54-s30187","kind":"busstop","ref":"54","name":"Dispanser","lines":["119","555"]},"geometry":{"type":"Point","coordinates":[27.1943,38.4384]}},{"type":"Feature","properties":{"id":"bus-54-s30189","kind":"busstop","ref":"54","name":"PTT","lines":["119","555"]},"geometry":{"type":"Point","coordinates":[27.1961,38.4393]}},{"type":"Feature","properties":{"id":"bus-54-s30219","kind":"busstop","ref":"54","name":"Rafet Paşa","lines":["119","555"]},"geometry":{"type":"Point","coordinates":[27.19951,38.44105]}},{"type":"Feature","properties":{"id":"bus-54-s30221","kind":"busstop","ref":"54","name":"Yeşilova","lines":["119","555"]},"geometry":{"type":"Point","coordinates":[27.2018,38.439]}},{"type":"Feature","properties":{"id":"bus-54-s30223","kind":"busstop","ref":"54","name":"Sevgi","lines":["119","555"]},"geometry":{"type":"Point","coordinates":[27.2026,38.4358]}},{"type":"Feature","properties":{"id":"bus-54-s30225","kind":"busstop","ref":"54","name":"Birlik","lines":["59","119","555"]},"geometry":{"type":"Point","coordinates":[27.2028,38.4324]}},{"type":"Feature","properties":{"id":"bus-54-s30227","kind":"busstop","ref":"54","name":"Çimentaş Lisesi","lines":["59","119","555"]},"geometry":{"type":"Point","coordinates":[27.2031,38.43]}},{"type":"Feature","properties":{"id":"bus-54-s30163","kind":"busstop","ref":"54","name":"Altındağ Atatürk Kültür Merkezi STK Yerleşke","lines":["364","555","560","564"]},"geometry":{"type":"Point","coordinates":[27.2066,38.42855]}},{"type":"Feature","properties":{"id":"bus-54-s30165","kind":"busstop","ref":"54","name":"Bulvar","lines":["364","555","560","564"]},"geometry":{"type":"Point","coordinates":[27.211,38.4276]}}]}