{"type":"FeatureCollection","features":[{"type":"Feature","properties":{"id":"bus-547-1","kind":"busline","ref":"547","dir":1},"geometry":{"type":"LineString","coordinates":[[27.0616,38.492],[27.0619,38.4919],[27.0618,38.4917],[27.0601,38.4898],[27.0611,38.4894],[27.0615,38.4895],[27.065,38.4885],[27.065,38.4867],[27.0674,38.4862],[27.0665,38.4844],[27.0671,38.4844],[27.0684,38.4851],[27.0692,38.4865],[27.0724,38.4846],[27.0724,38.4842],[27.0703,38.4832],[27.0628,38.4821],[27.0623,38.4822],[27.0621,38.4826],[27.0626,38.4829],[27.0632,38.4825],[27.0659,38.4773],[27.0679,38.4751],[27.0721,38.4752],[27.0733,38.475],[27.0761,38.475],[27.0767,38.4752],[27.0806,38.4752],[27.0814,38.4749],[27.0853,38.471],[27.0876,38.4682],[27.0878,38.4673],[27.088,38.4671],[27.0887,38.467],[27.0905,38.4648],[27.0912,38.4642],[27.0924,38.4637],[27.0935,38.4637],[27.0954,38.4642],[27.0961,38.4629],[27.0962,38.4618],[27.0957,38.4607],[27.096,38.4605],[27.0978,38.4629],[27.0996,38.4644],[27.1028,38.4611],[27.0996,38.4587],[27.0983,38.4571],[27.0983,38.4568],[27.0971,38.455],[27.0971,38.4547],[27.0975,38.4541],[27.0972,38.4537],[27.0973,38.4533]]}},{"type":"Feature","properties":{"id":"bus-547-2","kind":"busline","ref":"547","dir":2},"geometry":{"type":"LineString","coordinates":[[27.0973,38.4533],[27.0975,38.4528],[27.0978,38.4528],[27.0975,38.4535],[27.0976,38.4541],[27.0971,38.4547],[27.0971,38.455],[27.0983,38.457],[27.0996,38.4586],[27.1029,38.461],[27.0996,38.4644],[27.0978,38.4629],[27.096,38.4605],[27.0957,38.4607],[27.0963,38.462],[27.0963,38.4625],[27.0956,38.4646],[27.0948,38.4641],[27.0935,38.4638],[27.0924,38.4638],[27.0913,38.4642],[27.09,38.4655],[27.0837,38.473],[27.0822,38.4745],[27.0811,38.4752],[27.0774,38.4753],[27.0759,38.4757],[27.0736,38.4757],[27.0721,38.4753],[27.0681,38.4753],[27.0666,38.4768],[27.065,38.4793],[27.0648,38.4798],[27.0648,38.4807],[27.0654,38.4816],[27.0663,38.482],[27.0675,38.4822],[27.0739,38.4822],[27.0748,38.4827],[27.0749,38.4833],[27.0746,38.4836],[27.0718,38.4833],[27.0714,38.4834],[27.0715,38.4837],[27.0728,38.4846],[27.0692,38.4865],[27.0684,38.4852],[27.0671,38.4845],[27.0667,38.4845],[27.0673,38.4861],[27.0679,38.487],[27.0651,38.4876],[27.065,38.4885],[27.0615,38.4895],[27.0611,38.4894],[27.0601,38.4898],[27.0618,38.4917],[27.0619,38.4919],[27.0616,38.492]]}},{"type":"Feature","properties":{"id":"bus-547-s22146","kind":"busstop","ref":"547","name":"Çiğli Aktarma Merkezi","lines":["247","344"]},"geometry":{"type":"Point","coordinates":[27.0616,38.49207]}},{"type":"Feature","properties":{"id":"bus-547-s21993","kind":"busstop","ref":"547","name":"İsmail Rahmi Karadavut İlkokulu","lines":["816","817"]},"geometry":{"type":"Point","coordinates":[27.06187,38.48926]}},{"type":"Feature","properties":{"id":"bus-547-s21991","kind":"busstop","ref":"547","name":"İstasyon Altı 1","lines":[]},"geometry":{"type":"Point","coordinates":[27.0649,38.48708]}},{"type":"Feature","properties":{"id":"bus-547-s21996","kind":"busstop","ref":"547","name":"Park","lines":[]},"geometry":{"type":"Point","coordinates":[27.0671,38.4859]}},{"type":"Feature","properties":{"id":"bus-547-s21998","kind":"busstop","ref":"547","name":"Elit","lines":[]},"geometry":{"type":"Point","coordinates":[27.0677,38.4847]}},{"type":"Feature","properties":{"id":"bus-547-s22152","kind":"busstop","ref":"547","name":"Çağlayan","lines":[]},"geometry":{"type":"Point","coordinates":[27.0695,38.4862]}},{"type":"Feature","properties":{"id":"bus-547-s21988","kind":"busstop","ref":"547","name":"Yetmiş Beşinci Yıl Lisesi","lines":[]},"geometry":{"type":"Point","coordinates":[27.07194,38.48488]}},{"type":"Feature","properties":{"id":"bus-547-s21986","kind":"busstop","ref":"547","name":"Sarı Evler","lines":[]},"geometry":{"type":"Point","coordinates":[27.0717,38.4839]}},{"type":"Feature","properties":{"id":"bus-547-s20340","kind":"busstop","ref":"547","name":"Karya","lines":["229","322","423","428","429","442","443","445","446","447","595","777","820","827"]},"geometry":{"type":"Point","coordinates":[27.06672,38.47626]}},{"type":"Feature","properties":{"id":"bus-547-s20338","kind":"busstop","ref":"547","name":"Mavişehir","lines":["229","322","423","428","429","442","443","445","446","447","595","820","827"]},"geometry":{"type":"Point","coordinates":[27.0745,38.4749]}},{"type":"Feature","properties":{"id":"bus-547-s20336","kind":"busstop","ref":"547","name":"Haydar Aliyev Parkı","lines":["229","423","428","429","442","443","445","446","447","595","820","827"]},"geometry":{"type":"Point","coordinates":[27.0836,38.4727]}},{"type":"Feature","properties":{"id":"bus-547-s20334","kind":"busstop","ref":"547","name":"Efes Sitesi","lines":[]},"geometry":{"type":"Point","coordinates":[27.0868,38.4692]}},{"type":"Feature","properties":{"id":"bus-547-s20330","kind":"busstop","ref":"547","name":"Spor Kompleksi","lines":[]},"geometry":{"type":"Point","coordinates":[27.0888,38.4667]}},{"type":"Feature","properties":{"id":"bus-547-s20332","kind":"busstop","ref":"547","name":"Zübeyde Hanım Sağlık Merkezi","lines":[]},"geometry":{"type":"Point","coordinates":[27.09347,38.46366]}},{"type":"Feature","properties":{"id":"bus-547-s20298","kind":"busstop","ref":"547","name":"Kanalboyu","lines":["221"]},"geometry":{"type":"Point","coordinates":[27.09575,38.46351]}},{"type":"Feature","properties":{"id":"bus-547-s20296","kind":"busstop","ref":"547","name":"Sadi Hoşses Parkı","lines":["221"]},"geometry":{"type":"Point","coordinates":[27.096,38.4614]}},{"type":"Feature","properties":{"id":"bus-547-s20289","kind":"busstop","ref":"547","name":"İl Özel İdare Lojmanları","lines":["221"]},"geometry":{"type":"Point","coordinates":[27.09657,38.46119]}},{"type":"Feature","properties":{"id":"bus-547-s20291","kind":"busstop","ref":"547","name":"Arya","lines":[]},"geometry":{"type":"Point","coordinates":[27.09899,38.46378]}},{"type":"Feature","properties":{"id":"bus-547-s20284","kind":"busstop","ref":"547","name":"Tren Yolu 1","lines":[]},"geometry":{"type":"Point","coordinates":[27.1009,38.4629]}},{"type":"Feature","properties":{"id":"bus-547-s20282","kind":"busstop","ref":"547","name":"Tren Yolu 2","lines":[]},"geometry":{"type":"Point","coordinates":[27.1025,38.4614]}},{"type":"Feature","properties":{"id":"bus-547-s20266","kind":"busstop","ref":"547","name":"Ümit","lines":["221"]},"geometry":{"type":"Point","coordinates":[27.1011,38.4598]}},{"type":"Feature","properties":{"id":"bus-547-s20264","kind":"busstop","ref":"547","name":"Onur","lines":["221"]},"geometry":{"type":"Point","coordinates":[27.0992,38.4582]}},{"type":"Feature","properties":{"id":"bus-547-s20260","kind":"busstop","ref":"547","name":"Velidedeoğlu","lines":["221"]},"geometry":{"type":"Point","coordinates":[27.0976,38.4558]}},{"type":"Feature","properties":{"id":"bus-547-s20031","kind":"busstop","ref":"547","name":"Bostanlı İskele","lines":[]},"geometry":{"type":"Point","coordinates":[27.09724,38.45333]}},{"type":"Feature","properties":{"id":"bus-547-s20263","kind":"busstop","ref":"547","name":"Onur","lines":["221"]},"geometry":{"type":"Point","coordinates":[27.0994,38.4583]}},{"type":"Feature","properties":{"id":"bus-547-s20265","kind":"busstop","ref":"547","name":"Ümit","lines":["221"]},"geometry":{"type":"Point","coordinates":[27.10113,38.45966]}},{"type":"Feature","properties":{"id":"bus-547-s20281","kind":"busstop","ref":"547","name":"Tren Yolu 2","lines":[]},"geometry":{"type":"Point","coordinates":[27.1025,38.4615]}},{"type":"Feature","properties":{"id":"bus-547-s20283","kind":"busstop","ref":"547","name":"Tren Yolu 1","lines":[]},"geometry":{"type":"Point","coordinates":[27.10122,38.46275]}},{"type":"Feature","properties":{"id":"bus-547-s20292","kind":"busstop","ref":"547","name":"Arya","lines":[]},"geometry":{"type":"Point","coordinates":[27.0985,38.4635]}},{"type":"Feature","properties":{"id":"bus-547-s20290","kind":"busstop","ref":"547","name":"İl Özel İdare Lojmanları","lines":["221"]},"geometry":{"type":"Point","coordinates":[27.0967,38.4615]}},{"type":"Feature","properties":{"id":"bus-547-s20295","kind":"busstop","ref":"547","name":"Sadi Hoşses Parkı","lines":["221"]},"geometry":{"type":"Point","coordinates":[27.0963,38.46169]}},{"type":"Feature","properties":{"id":"bus-547-s20297","kind":"busstop","ref":"547","name":"Kanalboyu","lines":["221"]},"geometry":{"type":"Point","coordinates":[27.09605,38.46353]}},{"type":"Feature","properties":{"id":"bus-547-s20333","kind":"busstop","ref":"547","name":"Zübeyde Hanım Sağlık Merkezi","lines":[]},"geometry":{"type":"Point","coordinates":[27.09309,38.46384]}},{"type":"Feature","properties":{"id":"bus-547-s20331","kind":"busstop","ref":"547","name":"Spor Kompleksi","lines":[]},"geometry":{"type":"Point","coordinates":[27.08908,38.46683]}},{"type":"Feature","properties":{"id":"bus-547-s20335","kind":"busstop","ref":"547","name":"Efes Sitesi","lines":[]},"geometry":{"type":"Point","coordinates":[27.0866,38.4696]}},{"type":"Feature","properties":{"id":"bus-547-s20337","kind":"busstop","ref":"547","name":"Haydar Aliyev Parkı","lines":["229","322","423","428","429","442","443","445","446","447","595","820","827"]},"geometry":{"type":"Point","coordinates":[27.08404,38.47269]}},{"type":"Feature","properties":{"id":"bus-547-s20339","kind":"busstop","ref":"547","name":"Mavişehir","lines":["121","229","322","423","428","429","442","443","445","446","447","595","777","820","821","827"]},"geometry":{"type":"Point","coordinates":[27.07491,38.47576]}},{"type":"Feature","properties":{"id":"bus-547-s20341","kind":"busstop","ref":"547","name":"Karya","lines":["229","322","423","428","429","442","443","445","446","447","595","777","820","827"]},"geometry":{"type":"Point","coordinates":[27.06558,38.47846]}},{"type":"Feature","properties":{"id":"bus-547-s21985","kind":"busstop","ref":"547","name":"Sarı Evler","lines":[]},"geometry":{"type":"Point","coordinates":[27.0719,38.4838]}},{"type":"Feature","properties":{"id":"bus-547-s21987","kind":"busstop","ref":"547","name":"Yetmiş Beşinci Yıl Lisesi","lines":[]},"geometry":{"type":"Point","coordinates":[27.0721,38.48502]}},{"type":"Feature","properties":{"id":"bus-547-s22153","kind":"busstop","ref":"547","name":"Çağlayan","lines":[]},"geometry":{"type":"Point","coordinates":[27.0695,38.4864]}},{"type":"Feature","properties":{"id":"bus-547-s21997","kind":"busstop","ref":"547","name":"Elit","lines":[]},"geometry":{"type":"Point","coordinates":[27.0676,38.4848]}},{"type":"Feature","properties":{"id":"bus-547-s21995","kind":"busstop","ref":"547","name":"Park","lines":[]},"geometry":{"type":"Point","coordinates":[27.06727,38.48577]}},{"type":"Feature","properties":{"id":"bus-547-s21992","kind":"busstop","ref":"547","name":"İstasyon Altı 1","lines":[]},"geometry":{"type":"Point","coordinates":[27.06504,38.48833]}},{"type":"Feature","properties":{"id":"bus-547-s21994","kind":"busstop","ref":"547","name":"İsmail Rahmi Karadavut İlkokulu","lines":["816","817"]},"geometry":{"type":"Point","coordinates":[27.06174,38.48944]}}]}