{"type":"FeatureCollection","features":[{"type":"Feature","properties":{"id":"bus-556-1","kind":"busline","ref":"556","dir":1},"geometry":{"type":"LineString","coordinates":[[27.1205,38.3634],[27.1205,38.3628],[27.1214,38.3626],[27.1219,38.3638],[27.1211,38.3641],[27.1176,38.3639],[27.1174,38.3642],[27.118,38.3645],[27.1188,38.3645],[27.1198,38.3648],[27.1198,38.3652],[27.1207,38.3673],[27.1228,38.3692],[27.124,38.3695],[27.1247,38.3694],[27.1257,38.3689],[27.1275,38.3687],[27.1288,38.3677],[27.1296,38.3683],[27.1297,38.3742],[27.1309,38.376],[27.1323,38.3775],[27.128,38.3786],[27.1257,38.3795],[27.1207,38.3828],[27.1233,38.3843],[27.1249,38.387],[27.1248,38.3871],[27.1263,38.3899],[27.1259,38.39],[27.1256,38.391],[27.1251,38.3914],[27.1254,38.3916],[27.1268,38.3937],[27.1272,38.3962],[27.1285,38.3992],[27.1281,38.3992],[27.1277,38.3983],[27.1238,38.3991],[27.1213,38.4003],[27.1192,38.4016],[27.1163,38.4023],[27.1173,38.4033]]}},{"type":"Feature","properties":{"id":"bus-556-2","kind":"busline","ref":"556","dir":2},"geometry":{"type":"LineString","coordinates":[[27.1173,38.4033],[27.1171,38.4032],[27.1204,38.4054],[27.1216,38.4059],[27.1221,38.4058],[27.1225,38.4043],[27.1242,38.4026],[27.1235,38.4017],[27.1234,38.3996],[27.1231,38.3993],[27.1254,38.3986],[27.1275,38.3982],[27.1277,38.398],[27.127,38.3953],[27.1268,38.3937],[27.1254,38.3916],[27.1251,38.3914],[27.1256,38.391],[27.1259,38.39],[27.1263,38.3899],[27.1234,38.3845],[27.1215,38.3834],[27.1203,38.383],[27.1202,38.3828],[27.1213,38.3824],[27.1251,38.3796],[27.1292,38.3782],[27.1322,38.3775],[27.1309,38.376],[27.1295,38.3739],[27.1297,38.3732],[27.1296,38.3683],[27.1288,38.3677],[27.1275,38.3687],[27.1257,38.3689],[27.1247,38.3694],[27.124,38.3695],[27.1228,38.3692],[27.1207,38.3673],[27.1198,38.3652],[27.1198,38.3648],[27.1188,38.3645],[27.118,38.3645],[27.1174,38.3642],[27.1176,38.3639],[27.1194,38.3639],[27.12,38.3641],[27.1215,38.364],[27.1212,38.3633],[27.1205,38.3634]]}},{"type":"Feature","properties":{"id":"bus-556-s12833","kind":"busstop","ref":"556","name":"Çamlık","lines":["156","539","873"]},"geometry":{"type":"Point","coordinates":[27.1202,38.3634]}},{"type":"Feature","properties":{"id":"bus-556-s12830","kind":"busstop","ref":"556","name":"Zambak","lines":[]},"geometry":{"type":"Point","coordinates":[27.12147,38.3629]}},{"type":"Feature","properties":{"id":"bus-556-s12828","kind":"busstop","ref":"556","name":"Tepe","lines":[]},"geometry":{"type":"Point","coordinates":[27.1204,38.3641]}},{"type":"Feature","properties":{"id":"bus-556-s12846","kind":"busstop","ref":"556","name":"Tulumba","lines":[]},"geometry":{"type":"Point","coordinates":[27.1178,38.3642]}},{"type":"Feature","properties":{"id":"bus-556-s12826","kind":"busstop","ref":"556","name":"Konut","lines":[]},"geometry":{"type":"Point","coordinates":[27.1197,38.36468]}},{"type":"Feature","properties":{"id":"bus-556-s12824","kind":"busstop","ref":"556","name":"Zeytin","lines":[]},"geometry":{"type":"Point","coordinates":[27.1204,38.3665]}},{"type":"Feature","properties":{"id":"bus-556-s12822","kind":"busstop","ref":"556","name":"Çamlık Cami","lines":[]},"geometry":{"type":"Point","coordinates":[27.1218,38.36824]}},{"type":"Feature","properties":{"id":"bus-556-s12820","kind":"busstop","ref":"556","name":"Mevlana Cami","lines":["828"]},"geometry":{"type":"Point","coordinates":[27.1243,38.3694]}},{"type":"Feature","properties":{"id":"bus-556-s12818","kind":"busstop","ref":"556","name":"Ana Sağlığı","lines":["156","828"]},"geometry":{"type":"Point","coordinates":[27.1262,38.3687]}},{"type":"Feature","properties":{"id":"bus-556-s12604","kind":"busstop","ref":"556","name":"Karabağlar Atatürk Mesleki ve Teknik Anadolu Lisesi","lines":["156","157","879"]},"geometry":{"type":"Point","coordinates":[27.1294,38.3681]}},{"type":"Feature","properties":{"id":"bus-556-s12602","kind":"busstop","ref":"556","name":"Sinan Cami","lines":["156","157","879"]},"geometry":{"type":"Point","coordinates":[27.1297,38.3699]}},{"type":"Feature","properties":{"id":"bus-556-s12600","kind":"busstop","ref":"556","name":"Bademlik","lines":["156","157","879"]},"geometry":{"type":"Point","coordinates":[27.12963,38.3725]}},{"type":"Feature","properties":{"id":"bus-556-s12598","kind":"busstop","ref":"556","name":"Karabağlar Briketçi","lines":["156","157","879"]},"geometry":{"type":"Point","coordinates":[27.1297,38.374]}},{"type":"Feature","properties":{"id":"bus-556-s12596","kind":"busstop","ref":"556","name":"Kasap","lines":["156","157","879"]},"geometry":{"type":"Point","coordinates":[27.13077,38.37568]}},{"type":"Feature","properties":{"id":"bus-556-s12629","kind":"busstop","ref":"556","name":"Bahar Yıldırım İlkokulu","lines":["671","879"]},"geometry":{"type":"Point","coordinates":[27.1295,38.3783]}},{"type":"Feature","properties":{"id":"bus-556-s12633","kind":"busstop","ref":"556","name":"2 Nolu Çağdaş Kahraman Sağlık Ocağı","lines":["671","879"]},"geometry":{"type":"Point","coordinates":[27.1273,38.379]}},{"type":"Feature","properties":{"id":"bus-556-s12639","kind":"busstop","ref":"556","name":"Hasan Ali Yücel Parkı","lines":["550","671","879"]},"geometry":{"type":"Point","coordinates":[27.1242,38.3805]}},{"type":"Feature","properties":{"id":"bus-556-s12641","kind":"busstop","ref":"556","name":"İlkkurşun Anadolu Lisesi","lines":["550","671","879"]},"geometry":{"type":"Point","coordinates":[27.1221,38.382]}},{"type":"Feature","properties":{"id":"bus-556-s16891","kind":"busstop","ref":"556","name":"Dostluk Bulvarı","lines":["550"]},"geometry":{"type":"Point","coordinates":[27.12262,38.38388]}},{"type":"Feature","properties":{"id":"bus-556-s12568","kind":"busstop","ref":"556","name":"Seniha Mayda Ortaokulu","lines":["550"]},"geometry":{"type":"Point","coordinates":[27.12394,38.38519]}},{"type":"Feature","properties":{"id":"bus-556-s12566","kind":"busstop","ref":"556","name":"Zincirlikuyu Trafo","lines":["550"]},"geometry":{"type":"Point","coordinates":[27.1249,38.3871]}},{"type":"Feature","properties":{"id":"bus-556-s12564","kind":"busstop","ref":"556","name":"Serdar","lines":["550"]},"geometry":{"type":"Point","coordinates":[27.12599,38.38883]}},{"type":"Feature","properties":{"id":"bus-556-s12563","kind":"busstop","ref":"556","name":"Zincirlikuyu 2","lines":["89","550"]},"geometry":{"type":"Point","coordinates":[27.126,38.3901]}},{"type":"Feature","properties":{"id":"bus-556-s12204","kind":"busstop","ref":"556","name":"Zincirlikuyu","lines":["23","193","224","522","550","588","680","823"]},"geometry":{"type":"Point","coordinates":[27.1259,38.3922]}},{"type":"Feature","properties":{"id":"bus-556-s12202","kind":"busstop","ref":"556","name":"Narlık","lines":["23","89","193","224","522","550","588","680","823"]},"geometry":{"type":"Point","coordinates":[27.1268,38.3936]}},{"type":"Feature","properties":{"id":"bus-556-s12200","kind":"busstop","ref":"556","name":"Kilimci Tepe","lines":["23","89","193","224","522","550","588","680","823"]},"geometry":{"type":"Point","coordinates":[27.1274,38.3962]}},{"type":"Feature","properties":{"id":"bus-556-s12255","kind":"busstop","ref":"556","name":"Bozyaka Devlet Hastanesi","lines":["89","522","550","588","823"]},"geometry":{"type":"Point","coordinates":[27.12657,38.3985]}},{"type":"Feature","properties":{"id":"bus-556-s12257","kind":"busstop","ref":"556","name":"Çevik Kuvvet","lines":["20","84","89","124","156","522","588","823"]},"geometry":{"type":"Point","coordinates":[27.122,38.4]}},{"type":"Feature","properties":{"id":"bus-556-s12259","kind":"busstop","ref":"556","name":"Bahçelievler","lines":["20","84","89","124","156","522","588","823"]},"geometry":{"type":"Point","coordinates":[27.1181,38.402]}},{"type":"Feature","properties":{"id":"bus-556-s10308","kind":"busstop","ref":"556","name":"Üçyol Aktarma","lines":["156"]},"geometry":{"type":"Point","coordinates":[27.1173,38.4033]}},{"type":"Feature","properties":{"id":"bus-556-s10252","kind":"busstop","ref":"556","name":"Üçyol Metro","lines":["16","18","19","84","89","92","108","124","156","490","522","588","681","823","950"]},"geometry":{"type":"Point","coordinates":[27.1213,38.4057]}},{"type":"Feature","properties":{"id":"bus-556-s10611","kind":"busstop","ref":"556","name":"Osman Öksüz Parkı","lines":["84","89","92","108","124","156","157","522","550","587","588","823"]},"geometry":{"type":"Point","coordinates":[27.12264,38.40418]}},{"type":"Feature","properties":{"id":"bus-556-s12263","kind":"busstop","ref":"556","name":"Spotçular","lines":["84","89","124","156","522","550","587","588","823"]},"geometry":{"type":"Point","coordinates":[27.12343,38.4006]}},{"type":"Feature","properties":{"id":"bus-556-s12256","kind":"busstop","ref":"556","name":"Bozyaka Devlet Hastanesi","lines":["89","522","550","588","823"]},"geometry":{"type":"Point","coordinates":[27.1263,38.3984]}},{"type":"Feature","properties":{"id":"bus-556-s12199","kind":"busstop","ref":"556","name":"Kilimci Tepe","lines":["23","89","193","224","522","550","588","680","823"]},"geometry":{"type":"Point","coordinates":[27.12713,38.39615]}},{"type":"Feature","properties":{"id":"bus-556-s12201","kind":"busstop","ref":"556","name":"Narlık","lines":["23","89","193","224","522","550","588","680","823"]},"geometry":{"type":"Point","coordinates":[27.12662,38.39351]}},{"type":"Feature","properties":{"id":"bus-556-s12562","kind":"busstop","ref":"556","name":"Zincirlikuyu 2","lines":["89","550"]},"geometry":{"type":"Point","coordinates":[27.126,38.39]}},{"type":"Feature","properties":{"id":"bus-556-s16865","kind":"busstop","ref":"556","name":"Serdar","lines":["550"]},"geometry":{"type":"Point","coordinates":[27.12556,38.38866]}},{"type":"Feature","properties":{"id":"bus-556-s12565","kind":"busstop","ref":"556","name":"Zincirlikuyu Trafo","lines":["550"]},"geometry":{"type":"Point","coordinates":[27.12456,38.38686]}},{"type":"Feature","properties":{"id":"bus-556-s12567","kind":"busstop","ref":"556","name":"Seniha Mayda Ortaokulu","lines":["550"]},"geometry":{"type":"Point","coordinates":[27.124,38.3856]}},{"type":"Feature","properties":{"id":"bus-556-s16890","kind":"busstop","ref":"556","name":"Dostluk Bulvarı","lines":["550"]},"geometry":{"type":"Point","coordinates":[27.12252,38.38403]}},{"type":"Feature","properties":{"id":"bus-556-s12642","kind":"busstop","ref":"556","name":"İlkkurşun Anadolu Lisesi","lines":["550","671","879"]},"geometry":{"type":"Point","coordinates":[27.1218,38.3819]}},{"type":"Feature","properties":{"id":"bus-556-s12638","kind":"busstop","ref":"556","name":"Hasan Ali Yücel Parkı","lines":["550","671","879"]},"geometry":{"type":"Point","coordinates":[27.12417,38.38028]}},{"type":"Feature","properties":{"id":"bus-556-s12634","kind":"busstop","ref":"556","name":"2 Nolu Çağdaş Kahraman Sağlık Ocağı","lines":["671","879"]},"geometry":{"type":"Point","coordinates":[27.12753,38.37862]}},{"type":"Feature","properties":{"id":"bus-556-s12630","kind":"busstop","ref":"556","name":"Bahar Yıldırım İlkokulu","lines":["671","879"]},"geometry":{"type":"Point","coordinates":[27.1301,38.3779]}},{"type":"Feature","properties":{"id":"bus-556-s12599","kind":"busstop","ref":"556","name":"Kasap","lines":["156","157","879"]},"geometry":{"type":"Point","coordinates":[27.1308,38.3759]}},{"type":"Feature","properties":{"id":"bus-556-s12601","kind":"busstop","ref":"556","name":"Karabağlar Briketçi","lines":["156","157","879"]},"geometry":{"type":"Point","coordinates":[27.1297,38.3744]}},{"type":"Feature","properties":{"id":"bus-556-s12603","kind":"busstop","ref":"556","name":"Bademlik","lines":["156","157","879"]},"geometry":{"type":"Point","coordinates":[27.12947,38.37264]}},{"type":"Feature","properties":{"id":"bus-556-s12605","kind":"busstop","ref":"556","name":"Cevdet Güçlüer İlkokulu","lines":["156","157","879"]},"geometry":{"type":"Point","coordinates":[27.12955,38.37074]}},{"type":"Feature","properties":{"id":"bus-556-s12607","kind":"busstop","ref":"556","name":"Karabağlar Atatürk Mesleki ve Teknik Anadolu Lisesi","lines":["156","157","879"]},"geometry":{"type":"Point","coordinates":[27.1294,38.3683]}},{"type":"Feature","properties":{"id":"bus-556-s12819","kind":"busstop","ref":"556","name":"Ana Sağlığı","lines":["156","828"]},"geometry":{"type":"Point","coordinates":[27.12727,38.36879]}},{"type":"Feature","properties":{"id":"bus-556-s12821","kind":"busstop","ref":"556","name":"Mevlana Cami","lines":["828"]},"geometry":{"type":"Point","coordinates":[27.12492,38.36929]}},{"type":"Feature","properties":{"id":"bus-556-s12823","kind":"busstop","ref":"556","name":"Çamlık Cami","lines":[]},"geometry":{"type":"Point","coordinates":[27.12159,38.36821]}},{"type":"Feature","properties":{"id":"bus-556-s12825","kind":"busstop","ref":"556","name":"Zeytin","lines":[]},"geometry":{"type":"Point","coordinates":[27.1203,38.3663]}},{"type":"Feature","properties":{"id":"bus-556-s12827","kind":"busstop","ref":"556","name":"Konut","lines":[]},"geometry":{"type":"Point","coordinates":[27.1194,38.3647]}},{"type":"Feature","properties":{"id":"bus-556-s12847","kind":"busstop","ref":"556","name":"Tulumba","lines":[]},"geometry":{"type":"Point","coordinates":[27.11765,38.36434]}},{"type":"Feature","properties":{"id":"bus-556-s12829","kind":"busstop","ref":"556","name":"Tepe","lines":[]},"geometry":{"type":"Point","coordinates":[27.1203,38.3641]}},{"type":"Feature","properties":{"id":"bus-556-s12831","kind":"busstop","ref":"556","name":"Zambak","lines":[]},"geometry":{"type":"Point","coordinates":[27.1213,38.3635]}}]}