{"type":"FeatureCollection","features":[{"type":"Feature","properties":{"id":"bus-564-1","kind":"busline","ref":"564","dir":1},"geometry":{"type":"LineString","coordinates":[[27.238,38.4302],[27.2385,38.4303],[27.2357,38.43],[27.236,38.4282],[27.2366,38.4279],[27.2372,38.4286],[27.239,38.4288],[27.2394,38.4267],[27.2406,38.4268],[27.2408,38.4256],[27.2392,38.4254],[27.2393,38.4245],[27.2357,38.4242],[27.2354,38.4243],[27.2338,38.426],[27.2338,38.4262],[27.232,38.4261],[27.2302,38.4257],[27.2295,38.4265],[27.2296,38.4271],[27.2293,38.4283],[27.2275,38.4306],[27.2272,38.4317],[27.227,38.4318],[27.2238,38.4309],[27.22,38.4305],[27.2143,38.4283],[27.2122,38.4283],[27.2096,38.428],[27.1879,38.433],[27.1806,38.433],[27.1797,38.4332],[27.1732,38.4329],[27.1701,38.4335],[27.1684,38.4341],[27.1684,38.4337],[27.1692,38.4328]]}},{"type":"Feature","properties":{"id":"bus-564-2","kind":"busline","ref":"564","dir":2},"geometry":{"type":"LineString","coordinates":[[27.1692,38.4328],[27.1691,38.4329],[27.1695,38.4328],[27.1697,38.4333],[27.1696,38.4335],[27.1734,38.4328],[27.1796,38.4331],[27.1807,38.4329],[27.1873,38.433],[27.2121,38.4273],[27.2132,38.4276],[27.2203,38.4305],[27.2225,38.4304],[27.2234,38.4307],[27.2241,38.4307],[27.2285,38.4294],[27.2294,38.4281],[27.2296,38.4271],[27.2295,38.4265],[27.2302,38.4257],[27.2313,38.426],[27.2336,38.4262],[27.2354,38.4242],[27.2358,38.424],[27.2394,38.4244],[27.2392,38.4254],[27.2408,38.4256],[27.2406,38.4268],[27.2394,38.4267],[27.239,38.4288],[27.2393,38.429],[27.2391,38.4303],[27.2379,38.4302]]}},{"type":"Feature","properties":{"id":"bus-564-s30510","kind":"busstop","ref":"564","name":"Ayakkabıcılar Sitesi Son Durak","lines":["64"]},"geometry":{"type":"Point","coordinates":[27.23802,38.43017]}},{"type":"Feature","properties":{"id":"bus-564-s30504","kind":"busstop","ref":"564","name":"Caner","lines":["64"]},"geometry":{"type":"Point","coordinates":[27.2362,38.43]}},{"type":"Feature","properties":{"id":"bus-564-s30536","kind":"busstop","ref":"564","name":"Egemenlik","lines":["64"]},"geometry":{"type":"Point","coordinates":[27.2359,38.4281]}},{"type":"Feature","properties":{"id":"bus-564-s30534","kind":"busstop","ref":"564","name":"Meltem","lines":["64","267"]},"geometry":{"type":"Point","coordinates":[27.2392,38.428]}},{"type":"Feature","properties":{"id":"bus-564-s32490","kind":"busstop","ref":"564","name":"Güney","lines":["267"]},"geometry":{"type":"Point","coordinates":[27.24062,38.42611]}},{"type":"Feature","properties":{"id":"bus-564-s30532","kind":"busstop","ref":"564","name":"Duyar","lines":[]},"geometry":{"type":"Point","coordinates":[27.23922,38.42518]}},{"type":"Feature","properties":{"id":"bus-564-s30520","kind":"busstop","ref":"564","name":"Yener","lines":["64","267","277"]},"geometry":{"type":"Point","coordinates":[27.2351,38.4247]}},{"type":"Feature","properties":{"id":"bus-564-s30518","kind":"busstop","ref":"564","name":"Hatice Güzelcan Anadolu Lisesi","lines":["64","267","277"]},"geometry":{"type":"Point","coordinates":[27.2332,38.4262]}},{"type":"Feature","properties":{"id":"bus-564-s30516","kind":"busstop","ref":"564","name":"Işıkkent","lines":["64","267","277"]},"geometry":{"type":"Point","coordinates":[27.23058,38.42584]}},{"type":"Feature","properties":{"id":"bus-564-s30514","kind":"busstop","ref":"564","name":"Yıldız","lines":["64","267","277"]},"geometry":{"type":"Point","coordinates":[27.22968,38.42699]}},{"type":"Feature","properties":{"id":"bus-564-s30512","kind":"busstop","ref":"564","name":"Işıkkent Mezarlık","lines":["64","267","277"]},"geometry":{"type":"Point","coordinates":[27.2279,38.4301]}},{"type":"Feature","properties":{"id":"bus-564-s30040","kind":"busstop","ref":"564","name":"Işıkkent Benzinlik","lines":["60","64","117","277","364","367","505","560"]},"geometry":{"type":"Point","coordinates":[27.2263,38.4316]}},{"type":"Feature","properties":{"id":"bus-564-s30038","kind":"busstop","ref":"564","name":"Koyuncu","lines":["60","64","117","277","364","367","505","560"]},"geometry":{"type":"Point","coordinates":[27.22131,38.43079]}},{"type":"Feature","properties":{"id":"bus-564-s30036","kind":"busstop","ref":"564","name":"Egemenlik","lines":["60","64","117","364","367","505","560"]},"geometry":{"type":"Point","coordinates":[27.21384,38.42834]}},{"type":"Feature","properties":{"id":"bus-564-s30166","kind":"busstop","ref":"564","name":"Bulvar","lines":["54","364","555","560"]},"geometry":{"type":"Point","coordinates":[27.21015,38.42806]}},{"type":"Feature","properties":{"id":"bus-564-s30164","kind":"busstop","ref":"564","name":"Altındağ Atatürk Kültür Merkezi STK Yerleşke","lines":["54","364","555","560"]},"geometry":{"type":"Point","coordinates":[27.2067,38.4287]}},{"type":"Feature","properties":{"id":"bus-564-s30162","kind":"busstop","ref":"564","name":"Park","lines":["59","364","560"]},"geometry":{"type":"Point","coordinates":[27.20111,38.43001]}},{"type":"Feature","properties":{"id":"bus-564-s30160","kind":"busstop","ref":"564","name":"Kahveler","lines":["59","364","560"]},"geometry":{"type":"Point","coordinates":[27.1994,38.4304]}},{"type":"Feature","properties":{"id":"bus-564-s30158","kind":"busstop","ref":"564","name":"Umut","lines":["59","364","560"]},"geometry":{"type":"Point","coordinates":[27.1967,38.431]}},{"type":"Feature","properties":{"id":"bus-564-s30156","kind":"busstop","ref":"564","name":"Çamdibi Esnaf Odası","lines":["59","364","560"]},"geometry":{"type":"Point","coordinates":[27.1936,38.4317]}},{"type":"Feature","properties":{"id":"bus-564-s30154","kind":"busstop","ref":"564","name":"Kartal","lines":["59","364","560"]},"geometry":{"type":"Point","coordinates":[27.1907,38.4324]}},{"type":"Feature","properties":{"id":"bus-564-s30152","kind":"busstop","ref":"564","name":"Gürbüz","lines":["59","364","560"]},"geometry":{"type":"Point","coordinates":[27.1865,38.4331]}},{"type":"Feature","properties":{"id":"bus-564-s30150","kind":"busstop","ref":"564","name":"Kamil Tunca Bulvarı","lines":["59","364","560"]},"geometry":{"type":"Point","coordinates":[27.18256,38.4331]}},{"type":"Feature","properties":{"id":"bus-564-s11878","kind":"busstop","ref":"564","name":"Atatürk Stadı","lines":["53","55","364","515","539","543","555","560","930"]},"geometry":{"type":"Point","coordinates":[27.1794,38.4332]}},{"type":"Feature","properties":{"id":"bus-564-s12874","kind":"busstop","ref":"564","name":"Halkapınar Tramvay","lines":["53","55","102","154","168","364","418","475","498","501","502","503","504","513","515","534","539","543","555","560","599","930"]},"geometry":{"type":"Point","coordinates":[27.17041,38.43345]}},{"type":"Feature","properties":{"id":"bus-564-s10471","kind":"busstop","ref":"564","name":"Halkapınar Metro","lines":[]},"geometry":{"type":"Point","coordinates":[27.16915,38.43277]}},{"type":"Feature","properties":{"id":"bus-564-s30149","kind":"busstop","ref":"564","name":"Kamil Tunca Bulvarı","lines":["55","59","364","560"]},"geometry":{"type":"Point","coordinates":[27.1817,38.433]}},{"type":"Feature","properties":{"id":"bus-564-s30151","kind":"busstop","ref":"564","name":"Gürbüz","lines":["55","59","364","560"]},"geometry":{"type":"Point","coordinates":[27.1865,38.433]}},{"type":"Feature","properties":{"id":"bus-564-s30153","kind":"busstop","ref":"564","name":"Kartal","lines":["55","59","364","560"]},"geometry":{"type":"Point","coordinates":[27.1913,38.4321]}},{"type":"Feature","properties":{"id":"bus-564-s30155","kind":"busstop","ref":"564","name":"Çamdibi Esnaf Odası","lines":["55","59","364","560"]},"geometry":{"type":"Point","coordinates":[27.194,38.4315]}},{"type":"Feature","properties":{"id":"bus-564-s30157","kind":"busstop","ref":"564","name":"Umut","lines":["55","59","364","560"]},"geometry":{"type":"Point","coordinates":[27.1969,38.43081]}},{"type":"Feature","properties":{"id":"bus-564-s30159","kind":"busstop","ref":"564","name":"Kahveler","lines":["55","59","364","560"]},"geometry":{"type":"Point","coordinates":[27.19924,38.43026]}},{"type":"Feature","properties":{"id":"bus-564-s30161","kind":"busstop","ref":"564","name":"Park","lines":["55","59","364","560"]},"geometry":{"type":"Point","coordinates":[27.2029,38.4295]}},{"type":"Feature","properties":{"id":"bus-564-s30163","kind":"busstop","ref":"564","name":"Altındağ Atatürk Kültür Merkezi STK Yerleşke","lines":["54","364","555","560"]},"geometry":{"type":"Point","coordinates":[27.2066,38.42855]}},{"type":"Feature","properties":{"id":"bus-564-s30165","kind":"busstop","ref":"564","name":"Bulvar","lines":["54","364","555","560"]},"geometry":{"type":"Point","coordinates":[27.211,38.4276]}},{"type":"Feature","properties":{"id":"bus-564-s30041","kind":"busstop","ref":"564","name":"Egemenlik","lines":["60","64","117","277","364","367","505","560"]},"geometry":{"type":"Point","coordinates":[27.2141,38.42784]}},{"type":"Feature","properties":{"id":"bus-564-s30043","kind":"busstop","ref":"564","name":"Işıkkent Benzinlik","lines":["60","64","117","277","364","367","505","560"]},"geometry":{"type":"Point","coordinates":[27.2192,38.43]}},{"type":"Feature","properties":{"id":"bus-564-s30513","kind":"busstop","ref":"564","name":"Turanlar","lines":["64","267","277"]},"geometry":{"type":"Point","coordinates":[27.2245,38.4305]}},{"type":"Feature","properties":{"id":"bus-564-s30515","kind":"busstop","ref":"564","name":"Işıkkent Mezarlık","lines":["64","267","277"]},"geometry":{"type":"Point","coordinates":[27.2279,38.4295]}},{"type":"Feature","properties":{"id":"bus-564-s30517","kind":"busstop","ref":"564","name":"Yıldız","lines":["64","267","277"]},"geometry":{"type":"Point","coordinates":[27.22956,38.42696]}},{"type":"Feature","properties":{"id":"bus-564-s30519","kind":"busstop","ref":"564","name":"Işıkkent","lines":["64","267","277"]},"geometry":{"type":"Point","coordinates":[27.2307,38.4258]}},{"type":"Feature","properties":{"id":"bus-564-s30521","kind":"busstop","ref":"564","name":"Hatice Güzelcan Anadolu Lisesi","lines":["64","267","277"]},"geometry":{"type":"Point","coordinates":[27.233,38.4261]}},{"type":"Feature","properties":{"id":"bus-564-s30523","kind":"busstop","ref":"564","name":"Yener","lines":["64","267","277"]},"geometry":{"type":"Point","coordinates":[27.2351,38.4246]}},{"type":"Feature","properties":{"id":"bus-564-s30531","kind":"busstop","ref":"564","name":"Duyar","lines":[]},"geometry":{"type":"Point","coordinates":[27.23929,38.42517]}},{"type":"Feature","properties":{"id":"bus-564-s30509","kind":"busstop","ref":"564","name":"Kuzey","lines":["64","267"]},"geometry":{"type":"Point","coordinates":[27.2407,38.4264]}},{"type":"Feature","properties":{"id":"bus-564-s30533","kind":"busstop","ref":"564","name":"Meltem","lines":["64","267"]},"geometry":{"type":"Point","coordinates":[27.2393,38.4277]}}]}