{"type":"FeatureCollection","features":[{"type":"Feature","properties":{"id":"bus-568-1","kind":"busline","ref":"568","dir":1},"geometry":{"type":"LineString","coordinates":[[27.214,38.495],[27.2128,38.4942],[27.2127,38.4926],[27.2145,38.4914],[27.2152,38.4907],[27.2142,38.4879],[27.2145,38.4877],[27.2172,38.4877],[27.2179,38.4852],[27.2185,38.4838],[27.2158,38.483],[27.2145,38.4828],[27.2126,38.4828],[27.2072,38.4845],[27.2046,38.4837],[27.2038,38.4825],[27.2044,38.4813],[27.2044,38.4807],[27.2042,38.4805],[27.2049,38.4794],[27.2027,38.4784],[27.2027,38.4762],[27.2029,38.4756],[27.2067,38.4731],[27.2066,38.4728],[27.204,38.472],[27.1995,38.4731],[27.1956,38.4749],[27.194,38.4759],[27.1912,38.4768],[27.1904,38.4768],[27.1877,38.4757],[27.186,38.4746],[27.1855,38.4738],[27.1858,38.4717],[27.1873,38.4712],[27.1896,38.4709],[27.1913,38.4713],[27.1929,38.4721],[27.1948,38.4713],[27.1965,38.4709],[27.1987,38.4695],[27.2,38.4675],[27.2002,38.4664],[27.2005,38.4661],[27.1951,38.4663],[27.1949,38.466],[27.1962,38.4662],[27.1987,38.4662],[27.2012,38.466],[27.2022,38.4656],[27.2022,38.4653],[27.201,38.463],[27.1991,38.4623],[27.1995,38.4605],[27.205,38.4614],[27.2103,38.463],[27.2131,38.4636],[27.2189,38.466],[27.2189,38.4652],[27.2179,38.4634],[27.2179,38.4632],[27.2183,38.4629],[27.217,38.461],[27.2162,38.4605],[27.2163,38.4592],[27.2147,38.459],[27.2147,38.4587],[27.2142,38.4586]]}},{"type":"Feature","properties":{"id":"bus-568-2","kind":"busline","ref":"568","dir":2},"geometry":{"type":"LineString","coordinates":[[27.2142,38.4586],[27.2137,38.4586],[27.2137,38.4583],[27.2164,38.4583],[27.2163,38.4605],[27.2168,38.4607],[27.2178,38.4618],[27.2204,38.4628],[27.2239,38.4626],[27.2241,38.4628],[27.224,38.4641],[27.2223,38.4647],[27.2203,38.466],[27.2192,38.4664],[27.2131,38.4637],[27.2073,38.4623],[27.2055,38.4616],[27.1997,38.4607],[27.1992,38.4624],[27.201,38.4628],[27.2025,38.4656],[27.2007,38.4661],[27.2003,38.4664],[27.1999,38.4677],[27.1987,38.4696],[27.1967,38.4709],[27.1928,38.4722],[27.1911,38.4713],[27.1898,38.471],[27.1871,38.4713],[27.186,38.4717],[27.1856,38.4737],[27.1858,38.4742],[27.1865,38.4749],[27.1876,38.4756],[27.1897,38.4765],[27.1912,38.4767],[27.1932,38.4762],[27.1984,38.4734],[27.1998,38.4729],[27.204,38.4719],[27.2067,38.4728],[27.2068,38.4731],[27.2029,38.4757],[27.2027,38.4781],[27.2032,38.4787],[27.205,38.4793],[27.2045,38.4802],[27.2045,38.4812],[27.2041,38.4822],[27.2043,38.4833],[27.2049,38.4838],[27.207,38.4844],[27.2083,38.4841],[27.2112,38.483],[27.214,38.4827],[27.2187,38.4838],[27.2181,38.4849],[27.2173,38.4878],[27.2169,38.488],[27.2149,38.4878],[27.2143,38.4879],[27.2153,38.4909],[27.2128,38.4926],[27.213,38.4943],[27.2143,38.4949],[27.2142,38.4951],[27.214,38.495]]}},{"type":"Feature","properties":{"id":"bus-568-s31370","kind":"busstop","ref":"568","name":"Evka 4 Son Durak","lines":["168","249","565","566","585"]},"geometry":{"type":"Point","coordinates":[27.21397,38.49504]}},{"type":"Feature","properties":{"id":"bus-568-s31368","kind":"busstop","ref":"568","name":"Evka-4 Anaokulu","lines":["168","249","565","566","585"]},"geometry":{"type":"Point","coordinates":[27.2128,38.4936]}},{"type":"Feature","properties":{"id":"bus-568-s31366","kind":"busstop","ref":"568","name":"Mehmet Akif Cami","lines":["168","249","565","566","585"]},"geometry":{"type":"Point","coordinates":[27.2137,38.4919]}},{"type":"Feature","properties":{"id":"bus-568-s31364","kind":"busstop","ref":"568","name":"Evka 4 Muhtarlık","lines":["168","249","365","565","566","585"]},"geometry":{"type":"Point","coordinates":[27.2149,38.4903]}},{"type":"Feature","properties":{"id":"bus-568-s31362","kind":"busstop","ref":"568","name":"Yeditepe İtfaiye","lines":["168","249","365","565","566"]},"geometry":{"type":"Point","coordinates":[27.21429,38.48832]}},{"type":"Feature","properties":{"id":"bus-568-s31360","kind":"busstop","ref":"568","name":"Depo","lines":["168","249","365","565","566"]},"geometry":{"type":"Point","coordinates":[27.21643,38.48784]}},{"type":"Feature","properties":{"id":"bus-568-s31358","kind":"busstop","ref":"568","name":"Nedim Dağtaş","lines":["168","249","365","565","566"]},"geometry":{"type":"Point","coordinates":[27.21793,38.48517]}},{"type":"Feature","properties":{"id":"bus-568-s31392","kind":"busstop","ref":"568","name":"Turgut Reis","lines":["168","249"]},"geometry":{"type":"Point","coordinates":[27.21577,38.48306]}},{"type":"Feature","properties":{"id":"bus-568-s31390","kind":"busstop","ref":"568","name":"Gazi","lines":["168","249"]},"geometry":{"type":"Point","coordinates":[27.21257,38.48286]}},{"type":"Feature","properties":{"id":"bus-568-s31388","kind":"busstop","ref":"568","name":"Akdemir Parkı","lines":["168","249"]},"geometry":{"type":"Point","coordinates":[27.20853,38.48437]}},{"type":"Feature","properties":{"id":"bus-568-s31386","kind":"busstop","ref":"568","name":"Sevgi","lines":["168","249"]},"geometry":{"type":"Point","coordinates":[27.2049,38.484]}},{"type":"Feature","properties":{"id":"bus-568-s32423","kind":"busstop","ref":"568","name":"Seyit Şanlı Anadolu Lisesi","lines":["168","249","584","585"]},"geometry":{"type":"Point","coordinates":[27.2041,38.48185]}},{"type":"Feature","properties":{"id":"bus-568-s31246","kind":"busstop","ref":"568","name":"Bülbül","lines":["168","249","585"]},"geometry":{"type":"Point","coordinates":[27.2042,38.4791]}},{"type":"Feature","properties":{"id":"bus-568-s31244","kind":"busstop","ref":"568","name":"Zehra Hoca İlköğretim Okulu","lines":["168","249"]},"geometry":{"type":"Point","coordinates":[27.2026,38.4779]}},{"type":"Feature","properties":{"id":"bus-568-s31242","kind":"busstop","ref":"568","name":"Ali İhsan Bey","lines":["168","249"]},"geometry":{"type":"Point","coordinates":[27.20297,38.4756]}},{"type":"Feature","properties":{"id":"bus-568-s31240","kind":"busstop","ref":"568","name":"Dörtyol","lines":["168","249"]},"geometry":{"type":"Point","coordinates":[27.2062,38.47339]}},{"type":"Feature","properties":{"id":"bus-568-s31228","kind":"busstop","ref":"568","name":"Şehit Kara Pilot Yüzbaşı Mehmet İlker Karaman","lines":["168","249"]},"geometry":{"type":"Point","coordinates":[27.20295,38.47239]}},{"type":"Feature","properties":{"id":"bus-568-s31224","kind":"busstop","ref":"568","name":"İsmet Sezgin İlköğretim Okulu","lines":["168","249"]},"geometry":{"type":"Point","coordinates":[27.19821,38.47366]}},{"type":"Feature","properties":{"id":"bus-568-s31222","kind":"busstop","ref":"568","name":"Şehit Harun Bağlam","lines":["168","249","570"]},"geometry":{"type":"Point","coordinates":[27.19467,38.47554]}},{"type":"Feature","properties":{"id":"bus-568-s31218","kind":"busstop","ref":"568","name":"Aydın","lines":["168","249","570"]},"geometry":{"type":"Point","coordinates":[27.18984,38.47664]}},{"type":"Feature","properties":{"id":"bus-568-s31216","kind":"busstop","ref":"568","name":"Öğretmen","lines":["168","249","570"]},"geometry":{"type":"Point","coordinates":[27.18772,38.47569]}},{"type":"Feature","properties":{"id":"bus-568-s31214","kind":"busstop","ref":"568","name":"Osman Gazi","lines":["168","249","570"]},"geometry":{"type":"Point","coordinates":[27.18591,38.47449]}},{"type":"Feature","properties":{"id":"bus-568-s31206","kind":"busstop","ref":"568","name":"Şehit Asteğmen Ergin KAYA","lines":["249","570"]},"geometry":{"type":"Point","coordinates":[27.18728,38.47118]}},{"type":"Feature","properties":{"id":"bus-568-s31204","kind":"busstop","ref":"568","name":"İbrahim Ethem","lines":["249","570"]},"geometry":{"type":"Point","coordinates":[27.18974,38.47095]}},{"type":"Feature","properties":{"id":"bus-568-s31202","kind":"busstop","ref":"568","name":"Çukurbahçe Cami","lines":["249","570"]},"geometry":{"type":"Point","coordinates":[27.19306,38.47197]}},{"type":"Feature","properties":{"id":"bus-568-s31200","kind":"busstop","ref":"568","name":"Birlik Sitesi","lines":[]},"geometry":{"type":"Point","coordinates":[27.19615,38.47095]}},{"type":"Feature","properties":{"id":"bus-568-s31198","kind":"busstop","ref":"568","name":"Yonca","lines":[]},"geometry":{"type":"Point","coordinates":[27.19814,38.46984]}},{"type":"Feature","properties":{"id":"bus-568-s31196","kind":"busstop","ref":"568","name":"Osmangazi Köprü","lines":[]},"geometry":{"type":"Point","coordinates":[27.20004,38.46723]}},{"type":"Feature","properties":{"id":"bus-568-s31856","kind":"busstop","ref":"568","name":"Taşkent","lines":["338","559"]},"geometry":{"type":"Point","coordinates":[27.19781,38.46648]}},{"type":"Feature","properties":{"id":"bus-568-s31857","kind":"busstop","ref":"568","name":"Taşkent","lines":["338","534","559"]},"geometry":{"type":"Point","coordinates":[27.19781,38.46622]}},{"type":"Feature","properties":{"id":"bus-568-s31154","kind":"busstop","ref":"568","name":"Sayra&Çınar Parkı","lines":["498"]},"geometry":{"type":"Point","coordinates":[27.20213,38.46536]}},{"type":"Feature","properties":{"id":"bus-568-s31152","kind":"busstop","ref":"568","name":"Umut Parkı","lines":["498"]},"geometry":{"type":"Point","coordinates":[27.19939,38.46118]}},{"type":"Feature","properties":{"id":"bus-568-s30319","kind":"busstop","ref":"568","name":"Çağdaş","lines":["214","328","330","498","515","559","570","930","963"]},"geometry":{"type":"Point","coordinates":[27.2015,38.4609]}},{"type":"Feature","properties":{"id":"bus-568-s30321","kind":"busstop","ref":"568","name":"Bornova Stadı","lines":["214","328","330","498","515","559","570","930","963"]},"geometry":{"type":"Point","coordinates":[27.2054,38.4614]}},{"type":"Feature","properties":{"id":"bus-568-s30323","kind":"busstop","ref":"568","name":"Bornova Kültür Merkezi","lines":["214","328","330","498","515","559","570","930","963"]},"geometry":{"type":"Point","coordinates":[27.21034,38.46296]}},{"type":"Feature","properties":{"id":"bus-568-s30325","kind":"busstop","ref":"568","name":"Bornova İzsu","lines":["214","328","330","498","515","559","570","930","963"]},"geometry":{"type":"Point","coordinates":[27.2139,38.4639]}},{"type":"Feature","properties":{"id":"bus-568-s31274","kind":"busstop","ref":"568","name":"Hükümet Konağı","lines":["214","328","330","515","559","570","930","963"]},"geometry":{"type":"Point","coordinates":[27.2187,38.4655]}},{"type":"Feature","properties":{"id":"bus-568-s31276","kind":"busstop","ref":"568","name":"Büyük Park","lines":["314","338","565","566","570","584","585"]},"geometry":{"type":"Point","coordinates":[27.21758,38.4619]}},{"type":"Feature","properties":{"id":"bus-568-s31272","kind":"busstop","ref":"568","name":"Mahfel","lines":["313","314","338","565","566","570","584","585"]},"geometry":{"type":"Point","coordinates":[27.21619,38.46019]}},{"type":"Feature","properties":{"id":"bus-568-s30003","kind":"busstop","ref":"568","name":"Bornova Metro","lines":["570"]},"geometry":{"type":"Point","coordinates":[27.21448,38.45858]}},{"type":"Feature","properties":{"id":"bus-568-s31271","kind":"busstop","ref":"568","name":"Mahfel","lines":["313","314","338","565","566","570","584","585"]},"geometry":{"type":"Point","coordinates":[27.21628,38.46011]}},{"type":"Feature","properties":{"id":"bus-568-s31280","kind":"busstop","ref":"568","name":"Rektörlük","lines":["214","313","314","328","330","338","365","515","559","565","566","570","584","585","930","963"]},"geometry":{"type":"Point","coordinates":[27.2193,38.4624]}},{"type":"Feature","properties":{"id":"bus-568-s31285","kind":"busstop","ref":"568","name":"Suphi Koyuncu","lines":["214","328","330","365","515","559","565","566","570","584","585","930","963"]},"geometry":{"type":"Point","coordinates":[27.2241,38.4632]}},{"type":"Feature","properties":{"id":"bus-568-s31289","kind":"busstop","ref":"568","name":"Ata","lines":["214","314","328","330","365","515","559","565","566","570","584","585","930","963"]},"geometry":{"type":"Point","coordinates":[27.2232,38.4646]}},{"type":"Feature","properties":{"id":"bus-568-s31291","kind":"busstop","ref":"568","name":"Hükümet Konağı","lines":["214","314","328","330","515","559","570","584","930","963"]},"geometry":{"type":"Point","coordinates":[27.2203,38.466]}},{"type":"Feature","properties":{"id":"bus-568-s30326","kind":"busstop","ref":"568","name":"Bornova İzsu","lines":["214","328","330","515","559","570","930","963"]},"geometry":{"type":"Point","coordinates":[27.2139,38.4641]}},{"type":"Feature","properties":{"id":"bus-568-s30324","kind":"busstop","ref":"568","name":"Bornova Kültür Merkezi","lines":["214","328","330","515","559","570","930","963"]},"geometry":{"type":"Point","coordinates":[27.21174,38.46346]}},{"type":"Feature","properties":{"id":"bus-568-s30322","kind":"busstop","ref":"568","name":"Bornova Stadı","lines":["214","328","330","515","559","570","930","963"]},"geometry":{"type":"Point","coordinates":[27.2055,38.4617]}},{"type":"Feature","properties":{"id":"bus-568-s31151","kind":"busstop","ref":"568","name":"Umut parkı","lines":[]},"geometry":{"type":"Point","coordinates":[27.19959,38.46119]}},{"type":"Feature","properties":{"id":"bus-568-s31153","kind":"busstop","ref":"568","name":"Sayra&Çınar Parkı","lines":[]},"geometry":{"type":"Point","coordinates":[27.20189,38.46468]}},{"type":"Feature","properties":{"id":"bus-568-s31195","kind":"busstop","ref":"568","name":"Osmangazi Köprü","lines":[]},"geometry":{"type":"Point","coordinates":[27.20016,38.46724]}},{"type":"Feature","properties":{"id":"bus-568-s31197","kind":"busstop","ref":"568","name":"Yonca","lines":[]},"geometry":{"type":"Point","coordinates":[27.19822,38.47]}},{"type":"Feature","properties":{"id":"bus-568-s31199","kind":"busstop","ref":"568","name":"Birlik Sitesi","lines":[]},"geometry":{"type":"Point","coordinates":[27.19538,38.47133]}},{"type":"Feature","properties":{"id":"bus-568-s31201","kind":"busstop","ref":"568","name":"Çukurbahçe Cami","lines":["249","570"]},"geometry":{"type":"Point","coordinates":[27.19322,38.47207]}},{"type":"Feature","properties":{"id":"bus-568-s31203","kind":"busstop","ref":"568","name":"İbrahim Ethem","lines":["249","570"]},"geometry":{"type":"Point","coordinates":[27.19021,38.47109]}},{"type":"Feature","properties":{"id":"bus-568-s31205","kind":"busstop","ref":"568","name":"Şehit Asteğmen Ergin KAYA","lines":["249","570"]},"geometry":{"type":"Point","coordinates":[27.18715,38.47132]}},{"type":"Feature","properties":{"id":"bus-568-s31213","kind":"busstop","ref":"568","name":"Osman Gazi","lines":["168","249","570"]},"geometry":{"type":"Point","coordinates":[27.18611,38.47448]}},{"type":"Feature","properties":{"id":"bus-568-s31215","kind":"busstop","ref":"568","name":"Öğretmen","lines":["168","249","570"]},"geometry":{"type":"Point","coordinates":[27.18783,38.47559]}},{"type":"Feature","properties":{"id":"bus-568-s31217","kind":"busstop","ref":"568","name":"Aydın","lines":["168","249","570"]},"geometry":{"type":"Point","coordinates":[27.19089,38.47672]}},{"type":"Feature","properties":{"id":"bus-568-s31221","kind":"busstop","ref":"568","name":"Şehit Harun Bağlam","lines":["168","249","570"]},"geometry":{"type":"Point","coordinates":[27.19434,38.47562]}},{"type":"Feature","properties":{"id":"bus-568-s31223","kind":"busstop","ref":"568","name":"İsmet Sezgin İlköğretim Okulu","lines":["168","249"]},"geometry":{"type":"Point","coordinates":[27.19843,38.47343]}},{"type":"Feature","properties":{"id":"bus-568-s31227","kind":"busstop","ref":"568","name":"Şehit Kara Pilot Yüzbaşı Mehmet İlker Karaman","lines":["168","249"]},"geometry":{"type":"Point","coordinates":[27.20375,38.472]}},{"type":"Feature","properties":{"id":"bus-568-s31239","kind":"busstop","ref":"568","name":"Dörtyol","lines":["168","249"]},"geometry":{"type":"Point","coordinates":[27.20627,38.47341]}},{"type":"Feature","properties":{"id":"bus-568-s31241","kind":"busstop","ref":"568","name":"Ali İhsan Bey","lines":["168","249"]},"geometry":{"type":"Point","coordinates":[27.20285,38.47618]}},{"type":"Feature","properties":{"id":"bus-568-s31243","kind":"busstop","ref":"568","name":"Zehra Hoca İlköğretim Okulu","lines":["168","249"]},"geometry":{"type":"Point","coordinates":[27.2027,38.4781]}},{"type":"Feature","properties":{"id":"bus-568-s31245","kind":"busstop","ref":"568","name":"Bülbül","lines":["168","249","585"]},"geometry":{"type":"Point","coordinates":[27.2044,38.479]}},{"type":"Feature","properties":{"id":"bus-568-s31319","kind":"busstop","ref":"568","name":"Seyit Şanlı Anadolu Lisesi","lines":["168","249","584","585"]},"geometry":{"type":"Point","coordinates":[27.20428,38.48189]}},{"type":"Feature","properties":{"id":"bus-568-s31385","kind":"busstop","ref":"568","name":"Sevgi","lines":["168","249"]},"geometry":{"type":"Point","coordinates":[27.2056,38.48402]}},{"type":"Feature","properties":{"id":"bus-568-s31387","kind":"busstop","ref":"568","name":"Akdemir Parkı","lines":["168","249"]},"geometry":{"type":"Point","coordinates":[27.20829,38.48414]}},{"type":"Feature","properties":{"id":"bus-568-s31389","kind":"busstop","ref":"568","name":"Gazi","lines":["168","249"]},"geometry":{"type":"Point","coordinates":[27.21226,38.4828]}},{"type":"Feature","properties":{"id":"bus-568-s31391","kind":"busstop","ref":"568","name":"Turgut Reis","lines":["168","249"]},"geometry":{"type":"Point","coordinates":[27.21581,38.48298]}},{"type":"Feature","properties":{"id":"bus-568-s31359","kind":"busstop","ref":"568","name":"Nedim Dağtaş","lines":["168","249","365","565","566"]},"geometry":{"type":"Point","coordinates":[27.21813,38.48489]}},{"type":"Feature","properties":{"id":"bus-568-s31361","kind":"busstop","ref":"568","name":"Evka 4 Depo","lines":["168","249","365","565","566"]},"geometry":{"type":"Point","coordinates":[27.21622,38.48796]}},{"type":"Feature","properties":{"id":"bus-568-s31365","kind":"busstop","ref":"568","name":"Evka 4 Muhtarlık","lines":["168","249","365","565","566"]},"geometry":{"type":"Point","coordinates":[27.2148,38.4892]}},{"type":"Feature","properties":{"id":"bus-568-s31367","kind":"busstop","ref":"568","name":"Mehmet Akif Cami","lines":["168","249","565","566","585"]},"geometry":{"type":"Point","coordinates":[27.21507,38.49113]}},{"type":"Feature","properties":{"id":"bus-568-s32372","kind":"busstop","ref":"568","name":"Evka 4 İş Merkezi","lines":["168","249","565","566","585"]},"geometry":{"type":"Point","coordinates":[27.21338,38.4922]}},{"type":"Feature","properties":{"id":"bus-568-s31369","kind":"busstop","ref":"568","name":"Evka-4 Anaokulu","lines":["168","249","565","566","585"]},"geometry":{"type":"Point","coordinates":[27.21301,38.49359]}}]}