{"type":"FeatureCollection","features":[{"type":"Feature","properties":{"id":"bus-57-1","kind":"busline","ref":"57","dir":1},"geometry":{"type":"LineString","coordinates":[[27.1862,38.4195],[27.186,38.4196],[27.1879,38.4192],[27.1884,38.4189],[27.189,38.4179],[27.189,38.4168],[27.1906,38.4152],[27.1911,38.4141],[27.1923,38.4139],[27.194,38.4144],[27.1947,38.4142],[27.1956,38.415],[27.1958,38.4154],[27.1973,38.4157],[27.1994,38.4169],[27.2008,38.4169],[27.2019,38.4166],[27.2027,38.4173],[27.203,38.4185],[27.2048,38.4204],[27.2051,38.421],[27.2046,38.4256],[27.1982,38.4257],[27.1947,38.4264],[27.1932,38.4264],[27.1881,38.425],[27.185,38.4252],[27.1838,38.4255],[27.1823,38.4256],[27.18,38.4262],[27.1752,38.426],[27.1739,38.4256],[27.1708,38.4252],[27.1633,38.4233],[27.1621,38.4232],[27.1596,38.4234],[27.1562,38.4228],[27.1564,38.422]]}},{"type":"Feature","properties":{"id":"bus-57-2","kind":"busline","ref":"57","dir":2},"geometry":{"type":"LineString","coordinates":[[27.1564,38.422],[27.1568,38.4212],[27.1569,38.4213],[27.1563,38.4227],[27.1576,38.423],[27.1588,38.4229],[27.1596,38.4233],[27.1631,38.4232],[27.1688,38.4246],[27.1694,38.4246],[27.1713,38.4252],[27.1738,38.4255],[27.175,38.4259],[27.1778,38.4259],[27.1795,38.4261],[27.1859,38.425],[27.1883,38.425],[27.1937,38.4264],[27.195,38.4263],[27.1983,38.4256],[27.2042,38.4256],[27.2046,38.4252],[27.2051,38.4219],[27.2048,38.4204],[27.2041,38.4198],[27.2034,38.4203],[27.203,38.4201],[27.2032,38.419],[27.2025,38.4183],[27.202,38.4181],[27.2012,38.4181],[27.2007,38.4183],[27.2007,38.417],[27.1994,38.4169],[27.1981,38.4163],[27.1974,38.4157],[27.1958,38.4155],[27.1947,38.4142],[27.194,38.4144],[27.1921,38.4139],[27.1912,38.4141],[27.191,38.4148],[27.1891,38.4168],[27.189,38.418],[27.1881,38.4194],[27.1859,38.4196],[27.1863,38.4194],[27.1862,38.4195]]}},{"type":"Feature","properties":{"id":"bus-57-s30412","kind":"busstop","ref":"57","name":"MTK Çarşısı","lines":["53","119","154"]},"geometry":{"type":"Point","coordinates":[27.1864,38.4194]}},{"type":"Feature","properties":{"id":"bus-57-s30419","kind":"busstop","ref":"57","name":"Levent Kara Sağlık Ocağı","lines":["53","153"]},"geometry":{"type":"Point","coordinates":[27.18893,38.41733]}},{"type":"Feature","properties":{"id":"bus-57-s30421","kind":"busstop","ref":"57","name":"Çamkule","lines":["53","119","153"]},"geometry":{"type":"Point","coordinates":[27.1908,38.4149]}},{"type":"Feature","properties":{"id":"bus-57-s30423","kind":"busstop","ref":"57","name":"Zeytintepe","lines":["53","119","505"]},"geometry":{"type":"Point","coordinates":[27.19487,38.41414]}},{"type":"Feature","properties":{"id":"bus-57-s30425","kind":"busstop","ref":"57","name":"Merkez Cami","lines":["53","119","505"]},"geometry":{"type":"Point","coordinates":[27.19681,38.41568]}},{"type":"Feature","properties":{"id":"bus-57-s30427","kind":"busstop","ref":"57","name":"Çiçek","lines":["53","119","505"]},"geometry":{"type":"Point","coordinates":[27.1987,38.4165]}},{"type":"Feature","properties":{"id":"bus-57-s30475","kind":"busstop","ref":"57","name":"Merkez Mahallesi Muhtarlık","lines":["53","119","505"]},"geometry":{"type":"Point","coordinates":[27.2013,38.4167]}},{"type":"Feature","properties":{"id":"bus-57-s30472","kind":"busstop","ref":"57","name":"Altındağ","lines":["53","119","505"]},"geometry":{"type":"Point","coordinates":[27.2025,38.4171]}},{"type":"Feature","properties":{"id":"bus-57-s30474","kind":"busstop","ref":"57","name":"Tek Yön","lines":["53","119","505"]},"geometry":{"type":"Point","coordinates":[27.20419,38.41968]}},{"type":"Feature","properties":{"id":"bus-57-s30464","kind":"busstop","ref":"57","name":"Zafer Parkı","lines":["53","119","505"]},"geometry":{"type":"Point","coordinates":[27.2051,38.4216]}},{"type":"Feature","properties":{"id":"bus-57-s30462","kind":"busstop","ref":"57","name":"Yener Caddesi","lines":["53","119","505"]},"geometry":{"type":"Point","coordinates":[27.2049,38.4236]}},{"type":"Feature","properties":{"id":"bus-57-s30032","kind":"busstop","ref":"57","name":"Şehitler Ortaokulu","lines":["53","60","64","117","302","367"]},"geometry":{"type":"Point","coordinates":[27.2038,38.4257]}},{"type":"Feature","properties":{"id":"bus-57-s30030","kind":"busstop","ref":"57","name":"Altındağ Belediyesi","lines":["53","60","64","117","302","367"]},"geometry":{"type":"Point","coordinates":[27.2007,38.4257]}},{"type":"Feature","properties":{"id":"bus-57-s30029","kind":"busstop","ref":"57","name":"Havuzlu Kahve","lines":["53","60","64","117","302"]},"geometry":{"type":"Point","coordinates":[27.1984,38.4257]}},{"type":"Feature","properties":{"id":"bus-57-s30026","kind":"busstop","ref":"57","name":"Şehitler","lines":["53","60","64","117","302","367"]},"geometry":{"type":"Point","coordinates":[27.1944,38.4264]}},{"type":"Feature","properties":{"id":"bus-57-s30024","kind":"busstop","ref":"57","name":"Kokluca Mezarlığı","lines":["53","60","64","117","302","367"]},"geometry":{"type":"Point","coordinates":[27.1908,38.4257]}},{"type":"Feature","properties":{"id":"bus-57-s30022","kind":"busstop","ref":"57","name":"Evrenesoğlu Ortaokulu","lines":["53","58","60","64","117","302","367"]},"geometry":{"type":"Point","coordinates":[27.1881,38.4251]}},{"type":"Feature","properties":{"id":"bus-57-s30020","kind":"busstop","ref":"57","name":"Meriç Mahallesi Çeşme","lines":["53","58","60","64","117","302","367"]},"geometry":{"type":"Point","coordinates":[27.185,38.4252]}},{"type":"Feature","properties":{"id":"bus-57-s30018","kind":"busstop","ref":"57","name":"MTK Birinci Giriş","lines":["53","58","60","64","117","302","367"]},"geometry":{"type":"Point","coordinates":[27.1821,38.4257]}},{"type":"Feature","properties":{"id":"bus-57-s32243","kind":"busstop","ref":"57","name":"Ağır Bakım","lines":["54","58","59","60","64","117","153","154","214","249","302","367","662","699"]},"geometry":{"type":"Point","coordinates":[27.17642,38.42606]}},{"type":"Feature","properties":{"id":"bus-57-s10370","kind":"busstop","ref":"57","name":"Halkapınar İZSU","lines":["54","58","59","60","64","117","153","154","214","249","302","367","662","699"]},"geometry":{"type":"Point","coordinates":[27.1734,38.4256]}},{"type":"Feature","properties":{"id":"bus-57-s10368","kind":"busstop","ref":"57","name":"Yenişehir PTT","lines":["44","45","54","58","59","60","64","117","153","214","249","302","367","418","662","699"]},"geometry":{"type":"Point","coordinates":[27.16915,38.4248]}},{"type":"Feature","properties":{"id":"bus-57-s10366","kind":"busstop","ref":"57","name":"Tepecik Doğum Hastanesi","lines":["44","45","54","58","59","60","64","117","153","214","249","302","367","418","662","699"]},"geometry":{"type":"Point","coordinates":[27.1662,38.424]}},{"type":"Feature","properties":{"id":"bus-57-s10364","kind":"busstop","ref":"57","name":"Ziya Gökalp Ortaokulu","lines":["44","45","54","58","59","60","64","117","153","214","249","302","367","418","662","699"]},"geometry":{"type":"Point","coordinates":[27.1627,38.4233]}},{"type":"Feature","properties":{"id":"bus-57-s10362","kind":"busstop","ref":"57","name":"Eşref Paşa Hastanesi","lines":["44","45","54","58","59","60","64","117","153","214","249","302","367","418","662","699"]},"geometry":{"type":"Point","coordinates":[27.16,38.4234]}},{"type":"Feature","properties":{"id":"bus-57-s13349","kind":"busstop","ref":"57","name":"Kemer Aktarma Merkezi","lines":["367"]},"geometry":{"type":"Point","coordinates":[27.15637,38.42196]}},{"type":"Feature","properties":{"id":"bus-57-s10363","kind":"busstop","ref":"57","name":"Eşref Paşa Hastanesi","lines":["44","45","49","54","58","59","60","64","117","153","214","249","302","367","418","662","699"]},"geometry":{"type":"Point","coordinates":[27.16153,38.42325]}},{"type":"Feature","properties":{"id":"bus-57-s10365","kind":"busstop","ref":"57","name":"Ziya Gökalp Ortaokulu","lines":["44","45","49","54","58","59","60","64","117","153","214","249","302","367","418","662","699"]},"geometry":{"type":"Point","coordinates":[27.16312,38.42325]}},{"type":"Feature","properties":{"id":"bus-57-s10367","kind":"busstop","ref":"57","name":"Tepecik Doğum Hastanesi","lines":["44","45","54","58","59","60","64","117","153","214","249","302","367","418","662","699"]},"geometry":{"type":"Point","coordinates":[27.1663,38.4239]}},{"type":"Feature","properties":{"id":"bus-57-s10369","kind":"busstop","ref":"57","name":"Yenişehir PTT","lines":["44","45","54","58","59","60","64","117","153","214","249","302","367","418","662","699"]},"geometry":{"type":"Point","coordinates":[27.17008,38.42475]}},{"type":"Feature","properties":{"id":"bus-57-s10371","kind":"busstop","ref":"57","name":"Halkapınar İZSU","lines":["54","58","59","60","64","117","153","154","214","249","302","367","662","699"]},"geometry":{"type":"Point","coordinates":[27.1742,38.4256]}},{"type":"Feature","properties":{"id":"bus-57-s32244","kind":"busstop","ref":"57","name":"Ağır Bakım","lines":["54","58","59","60","64","117","153","154","214","249","302","367","662","699"]},"geometry":{"type":"Point","coordinates":[27.17645,38.42588]}},{"type":"Feature","properties":{"id":"bus-57-s30019","kind":"busstop","ref":"57","name":"MTK Birinci Giriş","lines":["53","58","60","64","117","302","367"]},"geometry":{"type":"Point","coordinates":[27.1818,38.4256]}},{"type":"Feature","properties":{"id":"bus-57-s30021","kind":"busstop","ref":"57","name":"MTK İkinci Giriş","lines":["53","58","60","64","117","302","367"]},"geometry":{"type":"Point","coordinates":[27.1853,38.4251]}},{"type":"Feature","properties":{"id":"bus-57-s30023","kind":"busstop","ref":"57","name":"Evrenesoğlu Ortaokulu","lines":["53","58","60","64","117","302","367"]},"geometry":{"type":"Point","coordinates":[27.1879,38.425]}},{"type":"Feature","properties":{"id":"bus-57-s30025","kind":"busstop","ref":"57","name":"Kokluca Mezarlığı","lines":["53","60","64","117","302","367"]},"geometry":{"type":"Point","coordinates":[27.19234,38.42607]}},{"type":"Feature","properties":{"id":"bus-57-s30027","kind":"busstop","ref":"57","name":"Şehitler","lines":["53","60","64","117","302","367"]},"geometry":{"type":"Point","coordinates":[27.1957,38.4261]}},{"type":"Feature","properties":{"id":"bus-57-s30028","kind":"busstop","ref":"57","name":"Havuzlu Kahve","lines":["53","60","64","117","302","367"]},"geometry":{"type":"Point","coordinates":[27.1978,38.4257]}},{"type":"Feature","properties":{"id":"bus-57-s30031","kind":"busstop","ref":"57","name":"Altındağ Belediyesi","lines":["53","60","64","117","302","367"]},"geometry":{"type":"Point","coordinates":[27.20138,38.42563]}},{"type":"Feature","properties":{"id":"bus-57-s30035","kind":"busstop","ref":"57","name":"Şehitler Ortaokulu","lines":["53","60","64","117","302","367"]},"geometry":{"type":"Point","coordinates":[27.2038,38.4256]}},{"type":"Feature","properties":{"id":"bus-57-s30461","kind":"busstop","ref":"57","name":"Yener Caddesi","lines":["53","119","505"]},"geometry":{"type":"Point","coordinates":[27.2049,38.4234]}},{"type":"Feature","properties":{"id":"bus-57-s30463","kind":"busstop","ref":"57","name":"Zafer Parkı","lines":["53","119","505"]},"geometry":{"type":"Point","coordinates":[27.205,38.4218]}},{"type":"Feature","properties":{"id":"bus-57-s30471","kind":"busstop","ref":"57","name":"Yener","lines":["53","119","505"]},"geometry":{"type":"Point","coordinates":[27.203,38.4202]}},{"type":"Feature","properties":{"id":"bus-57-s30473","kind":"busstop","ref":"57","name":"Kızılcık","lines":["53","119","505"]},"geometry":{"type":"Point","coordinates":[27.2012,38.4182]}},{"type":"Feature","properties":{"id":"bus-57-s30477","kind":"busstop","ref":"57","name":"Altındağ İlkokulu ","lines":["53","119","505"]},"geometry":{"type":"Point","coordinates":[27.20068,38.41719]}},{"type":"Feature","properties":{"id":"bus-57-s30428","kind":"busstop","ref":"57","name":"Çiçek","lines":["53","119","505"]},"geometry":{"type":"Point","coordinates":[27.1988,38.4166]}},{"type":"Feature","properties":{"id":"bus-57-s30426","kind":"busstop","ref":"57","name":"Merkez Cami","lines":["53","119","505"]},"geometry":{"type":"Point","coordinates":[27.197,38.4157]}},{"type":"Feature","properties":{"id":"bus-57-s30424","kind":"busstop","ref":"57","name":"Zeytintepe","lines":["53","119","505"]},"geometry":{"type":"Point","coordinates":[27.1946,38.4143]}},{"type":"Feature","properties":{"id":"bus-57-s30422","kind":"busstop","ref":"57","name":"Çamkule","lines":["53","119","153"]},"geometry":{"type":"Point","coordinates":[27.1909,38.4149]}},{"type":"Feature","properties":{"id":"bus-57-s30420","kind":"busstop","ref":"57","name":"Levent Kara Sağlık Ocağı","lines":["53","153"]},"geometry":{"type":"Point","coordinates":[27.1895,38.4164]}},{"type":"Feature","properties":{"id":"bus-57-s30416","kind":"busstop","ref":"57","name":"Çamkule Pazar Yeri","lines":["53","153"]},"geometry":{"type":"Point","coordinates":[27.18899,38.41817]}}]}