{"type":"FeatureCollection","features":[{"type":"Feature","properties":{"id":"bus-575-1","kind":"busline","ref":"575","dir":1},"geometry":{"type":"LineString","coordinates":[[27.0919,38.3842],[27.0949,38.3851],[27.0951,38.3853],[27.0943,38.386],[27.0947,38.3868],[27.0958,38.3875],[27.0956,38.3878],[27.0963,38.3885],[27.0959,38.3887],[27.0961,38.3889],[27.0953,38.3891],[27.0965,38.3904],[27.0973,38.392],[27.0986,38.3932],[27.1017,38.3951],[27.1025,38.3959],[27.1032,38.3962],[27.1066,38.3969],[27.1088,38.3967],[27.1102,38.3964],[27.1104,38.3958],[27.1104,38.3951],[27.1102,38.3947],[27.1128,38.3947],[27.1135,38.3939],[27.1145,38.3933],[27.1153,38.3931],[27.1167,38.3931],[27.1187,38.3936],[27.1168,38.395],[27.1158,38.3954],[27.1141,38.3967],[27.1129,38.3972],[27.1128,38.3984],[27.1115,38.3986],[27.1115,38.399],[27.1142,38.401],[27.1159,38.402],[27.1171,38.4032],[27.1191,38.4046],[27.1208,38.4056],[27.1224,38.406],[27.1226,38.4063],[27.1222,38.4064],[27.1207,38.4057],[27.1209,38.4059]]}},{"type":"Feature","properties":{"id":"bus-575-2","kind":"busline","ref":"575","dir":2},"geometry":{"type":"LineString","coordinates":[[27.1172,38.4033],[27.1171,38.4032],[27.1204,38.4054],[27.1216,38.4059],[27.1224,38.406],[27.1226,38.4063],[27.1222,38.4064],[27.1212,38.406],[27.1168,38.4034],[27.1169,38.4031],[27.1159,38.4021],[27.1142,38.4011],[27.1112,38.3988],[27.1119,38.3985],[27.1128,38.3984],[27.1129,38.3972],[27.1141,38.3967],[27.1158,38.3954],[27.1168,38.395],[27.1187,38.3936],[27.1167,38.3931],[27.1153,38.3931],[27.1145,38.3933],[27.1135,38.3939],[27.1128,38.3947],[27.1102,38.3947],[27.1104,38.3951],[27.1102,38.3964],[27.1088,38.3967],[27.1066,38.3969],[27.1032,38.3962],[27.1025,38.3959],[27.1017,38.3951],[27.0982,38.3929],[27.0973,38.392],[27.0965,38.3904],[27.0955,38.3896],[27.0952,38.389],[27.096,38.3888],[27.0952,38.3882],[27.0947,38.3874],[27.0953,38.3872],[27.0947,38.3868],[27.0943,38.386],[27.0951,38.3853],[27.0949,38.3851],[27.0919,38.3842]]}},{"type":"Feature","properties":{"id":"bus-575-s16009","kind":"busstop","ref":"575","name":"Maliyeciler Son Durak","lines":[]},"geometry":{"type":"Point","coordinates":[27.09213,38.38418]}},{"type":"Feature","properties":{"id":"bus-575-s15859","kind":"busstop","ref":"575","name":"Maliyeciler Park","lines":[]},"geometry":{"type":"Point","coordinates":[27.09475,38.38503]}},{"type":"Feature","properties":{"id":"bus-575-s15857","kind":"busstop","ref":"575","name":"Yakamoz","lines":[]},"geometry":{"type":"Point","coordinates":[27.09465,38.3867]}},{"type":"Feature","properties":{"id":"bus-575-s15861","kind":"busstop","ref":"575","name":"Siteler","lines":[]},"geometry":{"type":"Point","coordinates":[27.09557,38.38733]}},{"type":"Feature","properties":{"id":"bus-575-s15863","kind":"busstop","ref":"575","name":"Cemal Süreya Parkı","lines":[]},"geometry":{"type":"Point","coordinates":[27.09602,38.38822]}},{"type":"Feature","properties":{"id":"bus-575-s12344","kind":"busstop","ref":"575","name":"Mermerci","lines":["18","19","523","524","579","879"]},"geometry":{"type":"Point","coordinates":[27.09638,38.39022]}},{"type":"Feature","properties":{"id":"bus-575-s12342","kind":"busstop","ref":"575","name":"Karabağlar Halk Eğitim Merkezi","lines":["18","19","523","524","579","879"]},"geometry":{"type":"Point","coordinates":[27.09774,38.39232]}},{"type":"Feature","properties":{"id":"bus-575-s12340","kind":"busstop","ref":"575","name":"Hasan Tahsin","lines":["18","19","523","524","579","879"]},"geometry":{"type":"Point","coordinates":[27.0995,38.3937]}},{"type":"Feature","properties":{"id":"bus-575-s12338","kind":"busstop","ref":"575","name":"Şehit Erkan Özcan Anadolu Lisesi","lines":["16","18","520","579"]},"geometry":{"type":"Point","coordinates":[27.102,38.3953]}},{"type":"Feature","properties":{"id":"bus-575-s12336","kind":"busstop","ref":"575","name":"Yeşilyurt Devlet Hastanesi","lines":["16","18","520","579"]},"geometry":{"type":"Point","coordinates":[27.10399,38.39634]}},{"type":"Feature","properties":{"id":"bus-575-s12334","kind":"busstop","ref":"575","name":"Fidan","lines":["18","520","579"]},"geometry":{"type":"Point","coordinates":[27.1076,38.3967]}},{"type":"Feature","properties":{"id":"bus-575-s12332","kind":"busstop","ref":"575","name":"Mızraklı","lines":["18","520","579"]},"geometry":{"type":"Point","coordinates":[27.11018,38.39616]}},{"type":"Feature","properties":{"id":"bus-575-s12326","kind":"busstop","ref":"575","name":"Şehit Muzaffer Erdönmez İlkokulu","lines":["18","579"]},"geometry":{"type":"Point","coordinates":[27.1108,38.3947]}},{"type":"Feature","properties":{"id":"bus-575-s12324","kind":"busstop","ref":"575","name":"Yeşilyurt Merkez Cami","lines":["18","579"]},"geometry":{"type":"Point","coordinates":[27.1137,38.3937]}},{"type":"Feature","properties":{"id":"bus-575-s12316","kind":"busstop","ref":"575","name":"Ahmet Ragıp Üzümcü İlkokulu","lines":["18","20","579"]},"geometry":{"type":"Point","coordinates":[27.11723,38.39312]}},{"type":"Feature","properties":{"id":"bus-575-s12308","kind":"busstop","ref":"575","name":"Öztepe","lines":["18","579","879"]},"geometry":{"type":"Point","coordinates":[27.1168,38.395]}},{"type":"Feature","properties":{"id":"bus-575-s12306","kind":"busstop","ref":"575","name":"Defne","lines":["18","579","879"]},"geometry":{"type":"Point","coordinates":[27.1149,38.3962]}},{"type":"Feature","properties":{"id":"bus-575-s12304","kind":"busstop","ref":"575","name":"İzsu","lines":["18","579","879"]},"geometry":{"type":"Point","coordinates":[27.11296,38.39728]}},{"type":"Feature","properties":{"id":"bus-575-s12270","kind":"busstop","ref":"575","name":"Karabağlar Cumhuriyet Mesleki ve Teknik Anadolu Lisesi","lines":["16","18","19","520","523","524","579"]},"geometry":{"type":"Point","coordinates":[27.11216,38.39935]}},{"type":"Feature","properties":{"id":"bus-575-s12268","kind":"busstop","ref":"575","name":"Yeşilyurt İtfaiye","lines":["16","18","19","520","523","524","579"]},"geometry":{"type":"Point","coordinates":[27.1155,38.4016]}},{"type":"Feature","properties":{"id":"bus-575-s10312","kind":"busstop","ref":"575","name":"Üçyol Aktarma","lines":["16","84","520"]},"geometry":{"type":"Point","coordinates":[27.11712,38.40337]}},{"type":"Feature","properties":{"id":"bus-575-s10255","kind":"busstop","ref":"575","name":"Üçyol Metro","lines":["18","19","92","108","490","523","524","579","950"]},"geometry":{"type":"Point","coordinates":[27.1209,38.4059]}},{"type":"Feature","properties":{"id":"bus-575-s10257","kind":"busstop","ref":"575","name":"İzmir Spor","lines":["15","20","520","681","811","950"]},"geometry":{"type":"Point","coordinates":[27.1194,38.4049]}},{"type":"Feature","properties":{"id":"bus-575-s12267","kind":"busstop","ref":"575","name":"Yeşilyurt İtfaiye","lines":["16","18","19","490","520","523","524","579"]},"geometry":{"type":"Point","coordinates":[27.11552,38.40192]}},{"type":"Feature","properties":{"id":"bus-575-s12269","kind":"busstop","ref":"575","name":"Karabağlar Cumhuriyet Mesleki ve Teknik Anadolu Lisesi","lines":["16","18","19","490","520","523","524","579"]},"geometry":{"type":"Point","coordinates":[27.11266,38.39994]}},{"type":"Feature","properties":{"id":"bus-575-s12303","kind":"busstop","ref":"575","name":"İzsu","lines":["18","579","879"]},"geometry":{"type":"Point","coordinates":[27.11369,38.39689]}},{"type":"Feature","properties":{"id":"bus-575-s12305","kind":"busstop","ref":"575","name":"Defne","lines":["18","579","879"]},"geometry":{"type":"Point","coordinates":[27.1151,38.3959]}},{"type":"Feature","properties":{"id":"bus-575-s12307","kind":"busstop","ref":"575","name":"Öztepe","lines":["18","579","879"]},"geometry":{"type":"Point","coordinates":[27.11755,38.39443]}},{"type":"Feature","properties":{"id":"bus-575-s12315","kind":"busstop","ref":"575","name":"Ahmet Ragıp Üzümcü İlkokulu","lines":["18","20","579"]},"geometry":{"type":"Point","coordinates":[27.1172,38.3932]}},{"type":"Feature","properties":{"id":"bus-575-s12323","kind":"busstop","ref":"575","name":"Yeşilyurt Merkez Cami","lines":["18","579"]},"geometry":{"type":"Point","coordinates":[27.11331,38.39435]}},{"type":"Feature","properties":{"id":"bus-575-s12325","kind":"busstop","ref":"575","name":"Şehit Muzaffer Erdönmez İlkokulu","lines":["18","579"]},"geometry":{"type":"Point","coordinates":[27.11103,38.39477]}},{"type":"Feature","properties":{"id":"bus-575-s12367","kind":"busstop","ref":"575","name":"Mızraklı","lines":["18","520","579"]},"geometry":{"type":"Point","coordinates":[27.11036,38.39582]}},{"type":"Feature","properties":{"id":"bus-575-s12331","kind":"busstop","ref":"575","name":"Fidan","lines":["18","520","579"]},"geometry":{"type":"Point","coordinates":[27.1074,38.3968]}},{"type":"Feature","properties":{"id":"bus-575-s12333","kind":"busstop","ref":"575","name":"Yeşilyurt Devlet Hastanesi","lines":["16","18","520","579"]},"geometry":{"type":"Point","coordinates":[27.104,38.3964]}},{"type":"Feature","properties":{"id":"bus-575-s12335","kind":"busstop","ref":"575","name":"Şehit Erkan Özcan Anadolu Lisesi","lines":["16","18","520","579"]},"geometry":{"type":"Point","coordinates":[27.10221,38.39571]}},{"type":"Feature","properties":{"id":"bus-575-s12337","kind":"busstop","ref":"575","name":"Hasan Tahsin","lines":["18","19","523","524","579","879"]},"geometry":{"type":"Point","coordinates":[27.0998,38.3939]}},{"type":"Feature","properties":{"id":"bus-575-s12339","kind":"busstop","ref":"575","name":"Karabağlar Halk Eğitim Merkezi","lines":["18","19","523","524","579","879"]},"geometry":{"type":"Point","coordinates":[27.09806,38.39287]}},{"type":"Feature","properties":{"id":"bus-575-s12341","kind":"busstop","ref":"575","name":"Mermerci","lines":["18","19","523","524","579","879"]},"geometry":{"type":"Point","coordinates":[27.0962,38.3901]}},{"type":"Feature","properties":{"id":"bus-575-s15860","kind":"busstop","ref":"575","name":"Cemal Süreya Parkı","lines":[]},"geometry":{"type":"Point","coordinates":[27.09551,38.38834]}},{"type":"Feature","properties":{"id":"bus-575-s15862","kind":"busstop","ref":"575","name":"Siteler","lines":[]},"geometry":{"type":"Point","coordinates":[27.09484,38.38758]}},{"type":"Feature","properties":{"id":"bus-575-s15858","kind":"busstop","ref":"575","name":"Yakamoz","lines":[]},"geometry":{"type":"Point","coordinates":[27.0945,38.38667]}},{"type":"Feature","properties":{"id":"bus-575-s16010","kind":"busstop","ref":"575","name":"Maliyeciler Park","lines":[]},"geometry":{"type":"Point","coordinates":[27.09468,38.38514]}}]}