{"type":"FeatureCollection","features":[{"type":"Feature","properties":{"id":"bus-579-1","kind":"busline","ref":"579","dir":1},"geometry":{"type":"LineString","coordinates":[[27.1045,38.3862],[27.1037,38.3869],[27.101,38.3867],[27.0993,38.3883],[27.0954,38.3891],[27.0966,38.3906],[27.0973,38.3919],[27.0987,38.3933],[27.1003,38.3941],[27.102,38.3953],[27.1026,38.396],[27.1054,38.3967],[27.1067,38.3968],[27.11,38.3964],[27.1102,38.3963],[27.1104,38.3956],[27.1102,38.3947],[27.1124,38.3947],[27.1131,38.3945],[27.1137,38.3937],[27.1154,38.393],[27.117,38.3931],[27.1186,38.3935],[27.1186,38.3937],[27.1172,38.3948],[27.1154,38.3957],[27.1129,38.3973],[27.1128,38.3985],[27.1116,38.3987],[27.1115,38.399],[27.116,38.402],[27.117,38.4031],[27.117,38.4034],[27.1181,38.4039],[27.1206,38.4055],[27.1216,38.4059],[27.1226,38.406],[27.1227,38.4062],[27.1226,38.4064],[27.1222,38.4064],[27.1211,38.4059]]}},{"type":"Feature","properties":{"id":"bus-579-2","kind":"busline","ref":"579","dir":2},"geometry":{"type":"LineString","coordinates":[[27.1211,38.4059],[27.1181,38.404],[27.117,38.4035],[27.1155,38.4018],[27.1112,38.3989],[27.1113,38.3987],[27.1127,38.3985],[27.1129,38.3972],[27.1173,38.3946],[27.1186,38.3936],[27.1166,38.3931],[27.1149,38.3932],[27.1137,38.3938],[27.1134,38.3943],[27.1128,38.3947],[27.1104,38.3948],[27.1105,38.3957],[27.1102,38.3964],[27.1079,38.3968],[27.1055,38.3968],[27.1027,38.396],[27.1003,38.3942],[27.0987,38.3934],[27.0972,38.3919],[27.0966,38.3906],[27.0954,38.3895],[27.0952,38.3891],[27.0953,38.3889],[27.0989,38.3883],[27.0996,38.3879],[27.101,38.3866],[27.1036,38.3868],[27.1042,38.3864],[27.1042,38.3861],[27.1045,38.3862]]}},{"type":"Feature","properties":{"id":"bus-579-s12441","kind":"busstop","ref":"579","name":"Yeşilyurt","lines":["16","18","20","680"]},"geometry":{"type":"Point","coordinates":[27.10458,38.386]}},{"type":"Feature","properties":{"id":"bus-579-s12439","kind":"busstop","ref":"579","name":"Yadigar Sitesi","lines":["16","18","20","680"]},"geometry":{"type":"Point","coordinates":[27.10241,38.38681]}},{"type":"Feature","properties":{"id":"bus-579-s12430","kind":"busstop","ref":"579","name":"Arap Deresi","lines":["18","517","523","524"]},"geometry":{"type":"Point","coordinates":[27.09987,38.38787]}},{"type":"Feature","properties":{"id":"bus-579-s12428","kind":"busstop","ref":"579","name":"Maliyeciler","lines":["18","517","523","524"]},"geometry":{"type":"Point","coordinates":[27.09702,38.38878]}},{"type":"Feature","properties":{"id":"bus-579-s12344","kind":"busstop","ref":"579","name":"Mermerci","lines":["18","19","523","524","575","879"]},"geometry":{"type":"Point","coordinates":[27.09638,38.39022]}},{"type":"Feature","properties":{"id":"bus-579-s12342","kind":"busstop","ref":"579","name":"Karabağlar Halk Eğitim Merkezi","lines":["18","19","523","524","575","879"]},"geometry":{"type":"Point","coordinates":[27.09774,38.39232]}},{"type":"Feature","properties":{"id":"bus-579-s12340","kind":"busstop","ref":"579","name":"Hasan Tahsin","lines":["18","19","523","524","575","879"]},"geometry":{"type":"Point","coordinates":[27.0995,38.3937]}},{"type":"Feature","properties":{"id":"bus-579-s12338","kind":"busstop","ref":"579","name":"Şehit Erkan Özcan Anadolu Lisesi","lines":["16","18","520","575"]},"geometry":{"type":"Point","coordinates":[27.102,38.3953]}},{"type":"Feature","properties":{"id":"bus-579-s12336","kind":"busstop","ref":"579","name":"Yeşilyurt Devlet Hastanesi","lines":["16","18","520","575"]},"geometry":{"type":"Point","coordinates":[27.10399,38.39634]}},{"type":"Feature","properties":{"id":"bus-579-s12334","kind":"busstop","ref":"579","name":"Fidan","lines":["18","520","575"]},"geometry":{"type":"Point","coordinates":[27.1076,38.3967]}},{"type":"Feature","properties":{"id":"bus-579-s12332","kind":"busstop","ref":"579","name":"Mızraklı","lines":["18","520","575"]},"geometry":{"type":"Point","coordinates":[27.11018,38.39616]}},{"type":"Feature","properties":{"id":"bus-579-s12326","kind":"busstop","ref":"579","name":"Şehit Muzaffer Erdönmez İlkokulu","lines":["18","575"]},"geometry":{"type":"Point","coordinates":[27.1108,38.3947]}},{"type":"Feature","properties":{"id":"bus-579-s12324","kind":"busstop","ref":"579","name":"Yeşilyurt Merkez Cami","lines":["18","575"]},"geometry":{"type":"Point","coordinates":[27.1137,38.3937]}},{"type":"Feature","properties":{"id":"bus-579-s12316","kind":"busstop","ref":"579","name":"Ahmet Ragıp Üzümcü İlkokulu","lines":["18","20","575"]},"geometry":{"type":"Point","coordinates":[27.11723,38.39312]}},{"type":"Feature","properties":{"id":"bus-579-s12308","kind":"busstop","ref":"579","name":"Öztepe","lines":["18","575","879"]},"geometry":{"type":"Point","coordinates":[27.1168,38.395]}},{"type":"Feature","properties":{"id":"bus-579-s12306","kind":"busstop","ref":"579","name":"Defne","lines":["18","575","879"]},"geometry":{"type":"Point","coordinates":[27.1149,38.3962]}},{"type":"Feature","properties":{"id":"bus-579-s12304","kind":"busstop","ref":"579","name":"İzsu","lines":["18","575","879"]},"geometry":{"type":"Point","coordinates":[27.11296,38.39728]}},{"type":"Feature","properties":{"id":"bus-579-s12270","kind":"busstop","ref":"579","name":"Karabağlar Cumhuriyet Mesleki ve Teknik Anadolu Lisesi","lines":["16","18","19","520","523","524","575"]},"geometry":{"type":"Point","coordinates":[27.11216,38.39935]}},{"type":"Feature","properties":{"id":"bus-579-s12268","kind":"busstop","ref":"579","name":"Yeşilyurt İtfaiye","lines":["16","18","19","520","523","524","575"]},"geometry":{"type":"Point","coordinates":[27.1155,38.4016]}},{"type":"Feature","properties":{"id":"bus-579-s10255","kind":"busstop","ref":"579","name":"Üçyol Metro","lines":["18","19","92","108","490","523","524","575","950"]},"geometry":{"type":"Point","coordinates":[27.1209,38.4059]}},{"type":"Feature","properties":{"id":"bus-579-s12267","kind":"busstop","ref":"579","name":"Yeşilyurt İtfaiye","lines":["16","18","19","490","520","523","524","575"]},"geometry":{"type":"Point","coordinates":[27.11552,38.40192]}},{"type":"Feature","properties":{"id":"bus-579-s12269","kind":"busstop","ref":"579","name":"Karabağlar Cumhuriyet Mesleki ve Teknik Anadolu Lisesi","lines":["16","18","19","490","520","523","524","575"]},"geometry":{"type":"Point","coordinates":[27.11266,38.39994]}},{"type":"Feature","properties":{"id":"bus-579-s12303","kind":"busstop","ref":"579","name":"İzsu","lines":["18","575","879"]},"geometry":{"type":"Point","coordinates":[27.11369,38.39689]}},{"type":"Feature","properties":{"id":"bus-579-s12305","kind":"busstop","ref":"579","name":"Defne","lines":["18","575","879"]},"geometry":{"type":"Point","coordinates":[27.1151,38.3959]}},{"type":"Feature","properties":{"id":"bus-579-s12307","kind":"busstop","ref":"579","name":"Öztepe","lines":["18","575","879"]},"geometry":{"type":"Point","coordinates":[27.11755,38.39443]}},{"type":"Feature","properties":{"id":"bus-579-s12315","kind":"busstop","ref":"579","name":"Ahmet Ragıp Üzümcü İlkokulu","lines":["18","20","575"]},"geometry":{"type":"Point","coordinates":[27.1172,38.3932]}},{"type":"Feature","properties":{"id":"bus-579-s12323","kind":"busstop","ref":"579","name":"Yeşilyurt Merkez Cami","lines":["18","575"]},"geometry":{"type":"Point","coordinates":[27.11331,38.39435]}},{"type":"Feature","properties":{"id":"bus-579-s12325","kind":"busstop","ref":"579","name":"Şehit Muzaffer Erdönmez İlkokulu","lines":["18","575"]},"geometry":{"type":"Point","coordinates":[27.11103,38.39477]}},{"type":"Feature","properties":{"id":"bus-579-s12367","kind":"busstop","ref":"579","name":"Mızraklı","lines":["18","520","575"]},"geometry":{"type":"Point","coordinates":[27.11036,38.39582]}},{"type":"Feature","properties":{"id":"bus-579-s12331","kind":"busstop","ref":"579","name":"Fidan","lines":["18","520","575"]},"geometry":{"type":"Point","coordinates":[27.1074,38.3968]}},{"type":"Feature","properties":{"id":"bus-579-s12333","kind":"busstop","ref":"579","name":"Yeşilyurt Devlet Hastanesi","lines":["16","18","520","575"]},"geometry":{"type":"Point","coordinates":[27.104,38.3964]}},{"type":"Feature","properties":{"id":"bus-579-s12335","kind":"busstop","ref":"579","name":"Şehit Erkan Özcan Anadolu Lisesi","lines":["16","18","520","575"]},"geometry":{"type":"Point","coordinates":[27.10221,38.39571]}},{"type":"Feature","properties":{"id":"bus-579-s12337","kind":"busstop","ref":"579","name":"Hasan Tahsin","lines":["18","19","523","524","575","879"]},"geometry":{"type":"Point","coordinates":[27.0998,38.3939]}},{"type":"Feature","properties":{"id":"bus-579-s12339","kind":"busstop","ref":"579","name":"Karabağlar Halk Eğitim Merkezi","lines":["18","19","523","524","575","879"]},"geometry":{"type":"Point","coordinates":[27.09806,38.39287]}},{"type":"Feature","properties":{"id":"bus-579-s12341","kind":"busstop","ref":"579","name":"Mermerci","lines":["18","19","523","524","575","879"]},"geometry":{"type":"Point","coordinates":[27.0962,38.3901]}},{"type":"Feature","properties":{"id":"bus-579-s12427","kind":"busstop","ref":"579","name":"Maliyeciler","lines":["18","517","523","524"]},"geometry":{"type":"Point","coordinates":[27.0965,38.3887]}},{"type":"Feature","properties":{"id":"bus-579-s12429","kind":"busstop","ref":"579","name":"Arap Deresi","lines":["18","517","523","524"]},"geometry":{"type":"Point","coordinates":[27.0997,38.38772]}},{"type":"Feature","properties":{"id":"bus-579-s12440","kind":"busstop","ref":"579","name":"Yadigar Sitesi","lines":["16","18","20","680"]},"geometry":{"type":"Point","coordinates":[27.1025,38.3867]}}]}