{"type":"FeatureCollection","features":[{"type":"Feature","properties":{"id":"bus-585-1","kind":"busline","ref":"585","dir":1},"geometry":{"type":"LineString","coordinates":[[27.2144,38.495],[27.2129,38.4943],[27.2127,38.4928],[27.213,38.4923],[27.2144,38.4916],[27.2153,38.4907],[27.2148,38.4896],[27.2126,38.4898],[27.2125,38.4888],[27.208,38.4895],[27.2078,38.4885],[27.2044,38.4885],[27.2012,38.4876],[27.2011,38.4874],[27.2013,38.4873],[27.2014,38.4869],[27.1987,38.4865],[27.1963,38.484],[27.1972,38.4837],[27.2034,38.4834],[27.2043,38.4816],[27.2045,38.481],[27.2044,38.4806],[27.2033,38.481],[27.1996,38.4815],[27.1958,38.4815],[27.1943,38.4819],[27.1933,38.4826],[27.1931,38.4825],[27.1932,38.482],[27.194,38.4812],[27.1948,38.4809],[27.2016,38.4796],[27.2032,38.4787],[27.205,38.4794],[27.2081,38.4764],[27.2082,38.4753],[27.2097,38.4742],[27.2111,38.475],[27.2132,38.4757],[27.2143,38.476],[27.2166,38.4759],[27.2185,38.4768],[27.2181,38.4746],[27.2182,38.4735],[27.219,38.4724],[27.2186,38.472],[27.2187,38.4717],[27.2192,38.4711],[27.2218,38.4698],[27.2234,38.4699],[27.2235,38.4697],[27.2233,38.4696],[27.2231,38.469],[27.2219,38.4682],[27.2207,38.4679],[27.2199,38.4674],[27.219,38.4663],[27.219,38.4654],[27.2184,38.4641],[27.2179,38.4635],[27.2179,38.4633],[27.2184,38.4629],[27.2179,38.4621],[27.218,38.4619],[27.2195,38.4626],[27.221,38.4629],[27.2255,38.4623],[27.2262,38.4624],[27.226,38.4622],[27.2261,38.4616],[27.2264,38.4614],[27.2271,38.4615],[27.2274,38.4619],[27.2272,38.4623],[27.2274,38.4642],[27.2304,38.4652],[27.2293,38.466],[27.2287,38.4662],[27.2283,38.4662],[27.2282,38.4657]]}},{"type":"Feature","properties":{"id":"bus-585-2","kind":"busline","ref":"585","dir":2},"geometry":{"type":"LineString","coordinates":[[27.2282,38.4657],[27.2286,38.4655],[27.2288,38.4661],[27.2291,38.4661],[27.2304,38.4652],[27.227,38.4641],[27.2266,38.4627],[27.2261,38.4623],[27.2255,38.4623],[27.224,38.4626],[27.2241,38.4632],[27.2239,38.4642],[27.2222,38.4648],[27.2212,38.4653],[27.2205,38.4659],[27.2194,38.4663],[27.2197,38.4673],[27.2182,38.4687],[27.2194,38.469],[27.2201,38.4695],[27.2207,38.4703],[27.2204,38.4706],[27.2192,38.4711],[27.2186,38.4719],[27.219,38.4724],[27.2182,38.4735],[27.2182,38.4748],[27.2187,38.4769],[27.2166,38.4759],[27.2143,38.476],[27.2096,38.4744],[27.2082,38.4756],[27.2082,38.4764],[27.2051,38.4794],[27.2032,38.4787],[27.2016,38.4796],[27.1948,38.4809],[27.194,38.4812],[27.1932,38.482],[27.1931,38.4824],[27.1933,38.4825],[27.1943,38.4819],[27.1958,38.4815],[27.1996,38.4815],[27.2033,38.481],[27.2044,38.4803],[27.2045,38.4813],[27.2041,38.4821],[27.2041,38.4828],[27.2038,38.4828],[27.2034,38.4834],[27.1972,38.4837],[27.1963,38.484],[27.1987,38.4865],[27.2014,38.4869],[27.2014,38.4875],[27.2043,38.4884],[27.2082,38.4884],[27.2078,38.4891],[27.208,38.4895],[27.2125,38.4888],[27.2126,38.4898],[27.2148,38.4896],[27.2153,38.4904],[27.2153,38.4909],[27.2144,38.4917],[27.2129,38.4925],[27.213,38.4943],[27.2144,38.495]]}},{"type":"Feature","properties":{"id":"bus-585-s31370","kind":"busstop","ref":"585","name":"Evka 4 Son Durak","lines":["168","249","565","566","568"]},"geometry":{"type":"Point","coordinates":[27.21397,38.49504]}},{"type":"Feature","properties":{"id":"bus-585-s31368","kind":"busstop","ref":"585","name":"Evka-4 Anaokulu","lines":["168","249","565","566","568"]},"geometry":{"type":"Point","coordinates":[27.2128,38.4936]}},{"type":"Feature","properties":{"id":"bus-585-s31366","kind":"busstop","ref":"585","name":"Mehmet Akif Cami","lines":["168","249","565","566","568"]},"geometry":{"type":"Point","coordinates":[27.2137,38.4919]}},{"type":"Feature","properties":{"id":"bus-585-s31364","kind":"busstop","ref":"585","name":"Evka 4 Muhtarlık","lines":["168","249","365","565","566","568"]},"geometry":{"type":"Point","coordinates":[27.2149,38.4903]}},{"type":"Feature","properties":{"id":"bus-585-s31420","kind":"busstop","ref":"585","name":"Spor Kompleksi","lines":[]},"geometry":{"type":"Point","coordinates":[27.21387,38.48977]}},{"type":"Feature","properties":{"id":"bus-585-s31418","kind":"busstop","ref":"585","name":"Belediye Evleri","lines":["584"]},"geometry":{"type":"Point","coordinates":[27.21075,38.48911]}},{"type":"Feature","properties":{"id":"bus-585-s31416","kind":"busstop","ref":"585","name":"Emek Sitesi","lines":["584"]},"geometry":{"type":"Point","coordinates":[27.2077,38.4889]}},{"type":"Feature","properties":{"id":"bus-585-s31932","kind":"busstop","ref":"585","name":"Doğa","lines":["584"]},"geometry":{"type":"Point","coordinates":[27.20423,38.48847]}},{"type":"Feature","properties":{"id":"bus-585-s31930","kind":"busstop","ref":"585","name":"Kardelen Sitesi","lines":["584"]},"geometry":{"type":"Point","coordinates":[27.2021,38.4877]}},{"type":"Feature","properties":{"id":"bus-585-s31928","kind":"busstop","ref":"585","name":"Pınar","lines":[]},"geometry":{"type":"Point","coordinates":[27.20025,38.48678]}},{"type":"Feature","properties":{"id":"bus-585-s31934","kind":"busstop","ref":"585","name":"Eren","lines":[]},"geometry":{"type":"Point","coordinates":[27.1976,38.4855]}},{"type":"Feature","properties":{"id":"bus-585-s31926","kind":"busstop","ref":"585","name":"Ezgi","lines":[]},"geometry":{"type":"Point","coordinates":[27.1964,38.4842]}},{"type":"Feature","properties":{"id":"bus-585-s31402","kind":"busstop","ref":"585","name":"Piriştina","lines":[]},"geometry":{"type":"Point","coordinates":[27.1989,38.4836]}},{"type":"Feature","properties":{"id":"bus-585-s31400","kind":"busstop","ref":"585","name":"Barbaros Cami","lines":[]},"geometry":{"type":"Point","coordinates":[27.2018,38.4835]}},{"type":"Feature","properties":{"id":"bus-585-s32423","kind":"busstop","ref":"585","name":"Seyit Şanlı Anadolu Lisesi","lines":["168","249","568","584"]},"geometry":{"type":"Point","coordinates":[27.2041,38.48185]}},{"type":"Feature","properties":{"id":"bus-585-s31342","kind":"busstop","ref":"585","name":"Teksif","lines":[]},"geometry":{"type":"Point","coordinates":[27.2019,38.4812]}},{"type":"Feature","properties":{"id":"bus-585-s31338","kind":"busstop","ref":"585","name":"Barış","lines":[]},"geometry":{"type":"Point","coordinates":[27.19842,38.48154]}},{"type":"Feature","properties":{"id":"bus-585-s31336","kind":"busstop","ref":"585","name":"Sevgi","lines":[]},"geometry":{"type":"Point","coordinates":[27.19443,38.48196]}},{"type":"Feature","properties":{"id":"bus-585-s31334","kind":"busstop","ref":"585","name":"Manzara","lines":[]},"geometry":{"type":"Point","coordinates":[27.1934,38.4817]}},{"type":"Feature","properties":{"id":"bus-585-s31332","kind":"busstop","ref":"585","name":"Soylu","lines":[]},"geometry":{"type":"Point","coordinates":[27.19728,38.48042]}},{"type":"Feature","properties":{"id":"bus-585-s31330","kind":"busstop","ref":"585","name":"Süleymaniye","lines":[]},"geometry":{"type":"Point","coordinates":[27.19961,38.47998]}},{"type":"Feature","properties":{"id":"bus-585-s31328","kind":"busstop","ref":"585","name":"Köşe","lines":[]},"geometry":{"type":"Point","coordinates":[27.20297,38.47891]}},{"type":"Feature","properties":{"id":"bus-585-s31245","kind":"busstop","ref":"585","name":"Bülbül","lines":["168","249","568"]},"geometry":{"type":"Point","coordinates":[27.2044,38.479]}},{"type":"Feature","properties":{"id":"bus-585-s31316","kind":"busstop","ref":"585","name":"Mavi Köşe","lines":["584"]},"geometry":{"type":"Point","coordinates":[27.20611,38.47842]}},{"type":"Feature","properties":{"id":"bus-585-s31314","kind":"busstop","ref":"585","name":"Yüzüncü Yıl Karakolu","lines":["584"]},"geometry":{"type":"Point","coordinates":[27.20789,38.47657]}},{"type":"Feature","properties":{"id":"bus-585-s31312","kind":"busstop","ref":"585","name":"Ufuk","lines":["584"]},"geometry":{"type":"Point","coordinates":[27.20947,38.47442]}},{"type":"Feature","properties":{"id":"bus-585-s31310","kind":"busstop","ref":"585","name":"Emniyet Lojmanları","lines":["584"]},"geometry":{"type":"Point","coordinates":[27.21225,38.47532]}},{"type":"Feature","properties":{"id":"bus-585-s31308","kind":"busstop","ref":"585","name":"Çiçekli","lines":["565","584"]},"geometry":{"type":"Point","coordinates":[27.21698,38.47598]}},{"type":"Feature","properties":{"id":"bus-585-s31302","kind":"busstop","ref":"585","name":"Toprak Yol","lines":["365","565","566","584"]},"geometry":{"type":"Point","coordinates":[27.2181,38.47449]}},{"type":"Feature","properties":{"id":"bus-585-s31300","kind":"busstop","ref":"585","name":"Lale Tepe Cami","lines":["365","565","566","584"]},"geometry":{"type":"Point","coordinates":[27.21876,38.47272]}},{"type":"Feature","properties":{"id":"bus-585-s31298","kind":"busstop","ref":"585","name":"Malazgirt İlköğretim Okulu","lines":["365","565","566","584"]},"geometry":{"type":"Point","coordinates":[27.2199,38.47074]}},{"type":"Feature","properties":{"id":"bus-585-s32268","kind":"busstop","ref":"585","name":"Yıkık Minare Cami","lines":["365","565","566","584"]},"geometry":{"type":"Point","coordinates":[27.22252,38.46969]}},{"type":"Feature","properties":{"id":"bus-585-s31292","kind":"busstop","ref":"585","name":"Erzene Muhtarlık","lines":["365","565","566","584"]},"geometry":{"type":"Point","coordinates":[27.21935,38.46672]}},{"type":"Feature","properties":{"id":"bus-585-s31276","kind":"busstop","ref":"585","name":"Büyük Park","lines":["314","338","565","566","568","570","584"]},"geometry":{"type":"Point","coordinates":[27.21758,38.4619]}},{"type":"Feature","properties":{"id":"bus-585-s31272","kind":"busstop","ref":"585","name":"Mahfel","lines":["313","314","338","565","566","568","570","584"]},"geometry":{"type":"Point","coordinates":[27.21619,38.46019]}},{"type":"Feature","properties":{"id":"bus-585-s30004","kind":"busstop","ref":"585","name":"Bornova Metro","lines":["584"]},"geometry":{"type":"Point","coordinates":[27.21417,38.45854]}},{"type":"Feature","properties":{"id":"bus-585-s31271","kind":"busstop","ref":"585","name":"Mahfel","lines":["313","314","338","565","566","568","570","584"]},"geometry":{"type":"Point","coordinates":[27.21628,38.46011]}},{"type":"Feature","properties":{"id":"bus-585-s31280","kind":"busstop","ref":"585","name":"Rektörlük","lines":["214","313","314","328","330","338","365","515","559","565","566","568","570","584","930","963"]},"geometry":{"type":"Point","coordinates":[27.2193,38.4624]}},{"type":"Feature","properties":{"id":"bus-585-s31285","kind":"busstop","ref":"585","name":"Suphi Koyuncu","lines":["214","328","330","365","515","559","565","566","568","570","584","930","963"]},"geometry":{"type":"Point","coordinates":[27.2241,38.4632]}},{"type":"Feature","properties":{"id":"bus-585-s31289","kind":"busstop","ref":"585","name":"Ata","lines":["214","314","328","330","365","515","559","565","566","568","570","584","930","963"]},"geometry":{"type":"Point","coordinates":[27.2232,38.4646]}},{"type":"Feature","properties":{"id":"bus-585-s31295","kind":"busstop","ref":"585","name":"Hükümet Konağı","lines":["365","498","565","566","584"]},"geometry":{"type":"Point","coordinates":[27.21963,38.46679]}},{"type":"Feature","properties":{"id":"bus-585-s32428","kind":"busstop","ref":"585","name":"Dumlupınar","lines":["365","498","565","566","584"]},"geometry":{"type":"Point","coordinates":[27.21964,38.46908]}},{"type":"Feature","properties":{"id":"bus-585-s31299","kind":"busstop","ref":"585","name":"Malazgirt İlköğretim Okulu","lines":["365","565","566","584"]},"geometry":{"type":"Point","coordinates":[27.22008,38.47074]}},{"type":"Feature","properties":{"id":"bus-585-s31301","kind":"busstop","ref":"585","name":"Lale Tepe Cami","lines":["365","565","566","584"]},"geometry":{"type":"Point","coordinates":[27.2187,38.4729]}},{"type":"Feature","properties":{"id":"bus-585-s31303","kind":"busstop","ref":"585","name":"Toprak Yol","lines":["365","565","566","584"]},"geometry":{"type":"Point","coordinates":[27.21824,38.47447]}},{"type":"Feature","properties":{"id":"bus-585-s31309","kind":"busstop","ref":"585","name":"Çiçekli","lines":["565","584"]},"geometry":{"type":"Point","coordinates":[27.21695,38.47608]}},{"type":"Feature","properties":{"id":"bus-585-s31311","kind":"busstop","ref":"585","name":"Emniyet Lojmanları","lines":["584"]},"geometry":{"type":"Point","coordinates":[27.21276,38.47554]}},{"type":"Feature","properties":{"id":"bus-585-s31313","kind":"busstop","ref":"585","name":"Ufuk","lines":["584"]},"geometry":{"type":"Point","coordinates":[27.21038,38.47469]}},{"type":"Feature","properties":{"id":"bus-585-s31315","kind":"busstop","ref":"585","name":"Yüzüncü Yıl Karakolu","lines":["584"]},"geometry":{"type":"Point","coordinates":[27.2081,38.47657]}},{"type":"Feature","properties":{"id":"bus-585-s31317","kind":"busstop","ref":"585","name":"Mavi Köşe","lines":["584"]},"geometry":{"type":"Point","coordinates":[27.20625,38.47835]}},{"type":"Feature","properties":{"id":"bus-585-s31246","kind":"busstop","ref":"585","name":"Bülbül","lines":["168","249","568"]},"geometry":{"type":"Point","coordinates":[27.2042,38.4791]}},{"type":"Feature","properties":{"id":"bus-585-s31329","kind":"busstop","ref":"585","name":"Köşe","lines":[]},"geometry":{"type":"Point","coordinates":[27.20279,38.47904]}},{"type":"Feature","properties":{"id":"bus-585-s31331","kind":"busstop","ref":"585","name":"Süleymaniye","lines":[]},"geometry":{"type":"Point","coordinates":[27.19973,38.47997]}},{"type":"Feature","properties":{"id":"bus-585-s31333","kind":"busstop","ref":"585","name":"Soylu","lines":[]},"geometry":{"type":"Point","coordinates":[27.1973,38.4805]}},{"type":"Feature","properties":{"id":"bus-585-s31335","kind":"busstop","ref":"585","name":"Manzara","lines":[]},"geometry":{"type":"Point","coordinates":[27.19333,38.48195]}},{"type":"Feature","properties":{"id":"bus-585-s31337","kind":"busstop","ref":"585","name":"Sevgi","lines":[]},"geometry":{"type":"Point","coordinates":[27.1947,38.4818]}},{"type":"Feature","properties":{"id":"bus-585-s31339","kind":"busstop","ref":"585","name":"Barış","lines":[]},"geometry":{"type":"Point","coordinates":[27.19838,38.48135]}},{"type":"Feature","properties":{"id":"bus-585-s31343","kind":"busstop","ref":"585","name":"Teksif","lines":[]},"geometry":{"type":"Point","coordinates":[27.202,38.4811]}},{"type":"Feature","properties":{"id":"bus-585-s31319","kind":"busstop","ref":"585","name":"Seyit Şanlı Anadolu Lisesi","lines":["168","249","568","584"]},"geometry":{"type":"Point","coordinates":[27.20428,38.48189]}},{"type":"Feature","properties":{"id":"bus-585-s31399","kind":"busstop","ref":"585","name":"Barbaros Cami","lines":[]},"geometry":{"type":"Point","coordinates":[27.2021,38.4835]}},{"type":"Feature","properties":{"id":"bus-585-s31401","kind":"busstop","ref":"585","name":"Piriştina","lines":[]},"geometry":{"type":"Point","coordinates":[27.199,38.4837]}},{"type":"Feature","properties":{"id":"bus-585-s31927","kind":"busstop","ref":"585","name":"Ezgi","lines":[]},"geometry":{"type":"Point","coordinates":[27.1966,38.4843]}},{"type":"Feature","properties":{"id":"bus-585-s31935","kind":"busstop","ref":"585","name":"Eren","lines":[]},"geometry":{"type":"Point","coordinates":[27.1978,38.4855]}},{"type":"Feature","properties":{"id":"bus-585-s31929","kind":"busstop","ref":"585","name":"Pınar","lines":[]},"geometry":{"type":"Point","coordinates":[27.20019,38.48667]}},{"type":"Feature","properties":{"id":"bus-585-s31931","kind":"busstop","ref":"585","name":"Kardelen Sitesi","lines":["584"]},"geometry":{"type":"Point","coordinates":[27.2019,38.4876]}},{"type":"Feature","properties":{"id":"bus-585-s31933","kind":"busstop","ref":"585","name":"Doğa","lines":["584"]},"geometry":{"type":"Point","coordinates":[27.2043,38.48832]}},{"type":"Feature","properties":{"id":"bus-585-s31415","kind":"busstop","ref":"585","name":"Emek Sitesi","lines":["584"]},"geometry":{"type":"Point","coordinates":[27.2079,38.4889]}},{"type":"Feature","properties":{"id":"bus-585-s31419","kind":"busstop","ref":"585","name":"Belediye Evleri","lines":["584"]},"geometry":{"type":"Point","coordinates":[27.21053,38.489]}},{"type":"Feature","properties":{"id":"bus-585-s31421","kind":"busstop","ref":"585","name":"Spor Kompleksi","lines":[]},"geometry":{"type":"Point","coordinates":[27.21382,38.48961]}},{"type":"Feature","properties":{"id":"bus-585-s31367","kind":"busstop","ref":"585","name":"Mehmet Akif Cami","lines":["168","249","565","566","568"]},"geometry":{"type":"Point","coordinates":[27.21507,38.49113]}},{"type":"Feature","properties":{"id":"bus-585-s32372","kind":"busstop","ref":"585","name":"Evka 4 İş Merkezi","lines":["168","249","565","566","568"]},"geometry":{"type":"Point","coordinates":[27.21338,38.4922]}},{"type":"Feature","properties":{"id":"bus-585-s31369","kind":"busstop","ref":"585","name":"Evka-4 Anaokulu","lines":["168","249","565","566","568"]},"geometry":{"type":"Point","coordinates":[27.21301,38.49359]}}]}