{"type":"FeatureCollection","features":[{"type":"Feature","properties":{"id":"bus-588-1","kind":"busline","ref":"588","dir":1},"geometry":{"type":"LineString","coordinates":[[27.1109,38.3676],[27.111,38.3671],[27.1108,38.3684],[27.1116,38.3693],[27.112,38.371],[27.1127,38.372],[27.1137,38.3715],[27.1155,38.3712],[27.1184,38.3713],[27.1191,38.3718],[27.1196,38.3718],[27.1202,38.3721],[27.1207,38.3736],[27.1217,38.3747],[27.1266,38.3747],[27.1262,38.3758],[27.1264,38.3764],[27.1233,38.3773],[27.1219,38.3775],[27.1208,38.3781],[27.1201,38.3782],[27.1186,38.3791],[27.117,38.3811],[27.1137,38.3795],[27.1126,38.3795],[27.113,38.38],[27.1129,38.3807],[27.1133,38.3831],[27.1139,38.3843],[27.1142,38.3842],[27.1143,38.3847],[27.1157,38.3861],[27.1162,38.3881],[27.1166,38.3888],[27.117,38.3892],[27.1189,38.3892],[27.1196,38.3895],[27.1206,38.3896],[27.1227,38.3903],[27.1249,38.3913],[27.1254,38.3916],[27.1268,38.3937],[27.1272,38.3962],[27.1285,38.3992],[27.1281,38.3992],[27.1277,38.3983],[27.1245,38.3989],[27.1213,38.4003],[27.1192,38.4016],[27.1176,38.4021],[27.1165,38.4022],[27.1163,38.4024],[27.1171,38.4032],[27.1204,38.4054],[27.1216,38.4059],[27.1224,38.406],[27.1235,38.4069],[27.1265,38.4084],[27.1287,38.4107],[27.1286,38.411],[27.1279,38.4115],[27.1275,38.4123],[27.1277,38.4125],[27.1281,38.4121],[27.1284,38.4121],[27.1284,38.4123],[27.1269,38.4134],[27.1262,38.4136],[27.1282,38.4133],[27.1289,38.4137],[27.129,38.4144],[27.1286,38.4151],[27.1276,38.4161],[27.1263,38.4169],[27.1259,38.4168],[27.126,38.4164],[27.1276,38.4157],[27.1275,38.4153],[27.1273,38.4152],[27.1274,38.4151]]}},{"type":"Feature","properties":{"id":"bus-588-2","kind":"busline","ref":"588","dir":2},"geometry":{"type":"LineString","coordinates":[[27.1274,38.4151],[27.1275,38.4149],[27.1281,38.4149],[27.1282,38.4147],[27.1276,38.4143],[27.1265,38.4145],[27.126,38.4145],[27.1257,38.4143],[27.128,38.4136],[27.1279,38.4134],[27.1265,38.4138],[27.1262,38.4136],[27.1269,38.4134],[27.1284,38.4123],[27.1284,38.4121],[27.1281,38.4121],[27.1278,38.4125],[27.1275,38.4123],[27.1279,38.4115],[27.1285,38.4109],[27.1278,38.4103],[27.1269,38.4088],[27.1243,38.4073],[27.1222,38.4064],[27.1222,38.4053],[27.1225,38.4043],[27.1242,38.4026],[27.1235,38.4017],[27.1234,38.3996],[27.1231,38.3993],[27.1254,38.3986],[27.1275,38.3982],[27.1277,38.398],[27.127,38.3953],[27.1268,38.3937],[27.1254,38.3916],[27.1236,38.3907],[27.1206,38.3896],[27.1196,38.3895],[27.1189,38.3892],[27.117,38.3892],[27.1162,38.3881],[27.1157,38.3861],[27.1142,38.3845],[27.1139,38.3844],[27.1132,38.3828],[27.1131,38.3812],[27.1126,38.3801],[27.1128,38.3799],[27.1157,38.381],[27.116,38.3806],[27.117,38.3811],[27.1186,38.3791],[27.1201,38.3782],[27.1208,38.3781],[27.1219,38.3775],[27.1233,38.3773],[27.1264,38.3764],[27.1262,38.3758],[27.1266,38.3747],[27.1217,38.3747],[27.1207,38.3736],[27.1202,38.3721],[27.1196,38.3718],[27.1191,38.3718],[27.1184,38.3713],[27.1155,38.3712],[27.1137,38.3715],[27.1127,38.372],[27.112,38.371],[27.1116,38.3693],[27.1108,38.3684],[27.111,38.3671],[27.1109,38.3676]]}},{"type":"Feature","properties":{"id":"bus-588-s12742","kind":"busstop","ref":"588","name":"Yeni Çamlık","lines":["828"]},"geometry":{"type":"Point","coordinates":[27.11088,38.36777]}},{"type":"Feature","properties":{"id":"bus-588-s12740","kind":"busstop","ref":"588","name":"Tahir Merzeci Ortaokulu","lines":["828"]},"geometry":{"type":"Point","coordinates":[27.11199,38.37022]}},{"type":"Feature","properties":{"id":"bus-588-s12738","kind":"busstop","ref":"588","name":"Palmiyeler","lines":["828"]},"geometry":{"type":"Point","coordinates":[27.1124,38.3715]}},{"type":"Feature","properties":{"id":"bus-588-s12676","kind":"busstop","ref":"588","name":"Durallar İlkokulu","lines":["828"]},"geometry":{"type":"Point","coordinates":[27.1139,38.3714]}},{"type":"Feature","properties":{"id":"bus-588-s12674","kind":"busstop","ref":"588","name":"Dere","lines":["828"]},"geometry":{"type":"Point","coordinates":[27.11741,38.37127]}},{"type":"Feature","properties":{"id":"bus-588-s12672","kind":"busstop","ref":"588","name":"Eda","lines":[]},"geometry":{"type":"Point","coordinates":[27.1204,38.3724]}},{"type":"Feature","properties":{"id":"bus-588-s12670","kind":"busstop","ref":"588","name":"İyiburnaz Ortaokulu","lines":[]},"geometry":{"type":"Point","coordinates":[27.1213,38.3741]}},{"type":"Feature","properties":{"id":"bus-588-s12656","kind":"busstop","ref":"588","name":"Karabağlar Trafo Merkezi","lines":[]},"geometry":{"type":"Point","coordinates":[27.1241,38.3746]}},{"type":"Feature","properties":{"id":"bus-588-s12654","kind":"busstop","ref":"588","name":"Selvili Cami","lines":[]},"geometry":{"type":"Point","coordinates":[27.1265,38.3752]}},{"type":"Feature","properties":{"id":"bus-588-s12652","kind":"busstop","ref":"588","name":"Barış","lines":[]},"geometry":{"type":"Point","coordinates":[27.1235,38.3772]}},{"type":"Feature","properties":{"id":"bus-588-s12650","kind":"busstop","ref":"588","name":"Günaltay Meydan","lines":[]},"geometry":{"type":"Point","coordinates":[27.1214,38.3778]}},{"type":"Feature","properties":{"id":"bus-588-s12648","kind":"busstop","ref":"588","name":"Aktaş Cami","lines":[]},"geometry":{"type":"Point","coordinates":[27.1195,38.3786]}},{"type":"Feature","properties":{"id":"bus-588-s12646","kind":"busstop","ref":"588","name":"Emniyet","lines":[]},"geometry":{"type":"Point","coordinates":[27.1182,38.3795]}},{"type":"Feature","properties":{"id":"bus-588-s14337","kind":"busstop","ref":"588","name":"Dede","lines":[]},"geometry":{"type":"Point","coordinates":[27.1163,38.3807]}},{"type":"Feature","properties":{"id":"bus-588-s14333","kind":"busstop","ref":"588","name":"Şehit Jandarma Uzman Çavuş Süleyman Güneri","lines":[]},"geometry":{"type":"Point","coordinates":[27.11373,38.37957]}},{"type":"Feature","properties":{"id":"bus-588-s12214","kind":"busstop","ref":"588","name":"Bayram Kahya","lines":["23","124","193","587","680"]},"geometry":{"type":"Point","coordinates":[27.1131,38.3814]}},{"type":"Feature","properties":{"id":"bus-588-s12212","kind":"busstop","ref":"588","name":"Karaselvi","lines":["23","124","193","224","522","587","680","823","879"]},"geometry":{"type":"Point","coordinates":[27.1152,38.3854]}},{"type":"Feature","properties":{"id":"bus-588-s12210","kind":"busstop","ref":"588","name":"Karakuyu","lines":["23","124","193","224","522","587","680","823","879"]},"geometry":{"type":"Point","coordinates":[27.11616,38.38757]}},{"type":"Feature","properties":{"id":"bus-588-s12208","kind":"busstop","ref":"588","name":"Bozyaka Cami","lines":["23","193","224","522","680","823"]},"geometry":{"type":"Point","coordinates":[27.12069,38.38956]}},{"type":"Feature","properties":{"id":"bus-588-s12206","kind":"busstop","ref":"588","name":"Kestelli","lines":["23","193","224","522","680","823"]},"geometry":{"type":"Point","coordinates":[27.1224,38.3901]}},{"type":"Feature","properties":{"id":"bus-588-s12204","kind":"busstop","ref":"588","name":"Zincirlikuyu","lines":["23","193","224","522","550","556","680","823"]},"geometry":{"type":"Point","coordinates":[27.1259,38.3922]}},{"type":"Feature","properties":{"id":"bus-588-s12202","kind":"busstop","ref":"588","name":"Narlık","lines":["23","89","193","224","522","550","556","680","823"]},"geometry":{"type":"Point","coordinates":[27.1268,38.3936]}},{"type":"Feature","properties":{"id":"bus-588-s12200","kind":"busstop","ref":"588","name":"Kilimci Tepe","lines":["23","89","193","224","522","550","556","680","823"]},"geometry":{"type":"Point","coordinates":[27.1274,38.3962]}},{"type":"Feature","properties":{"id":"bus-588-s12255","kind":"busstop","ref":"588","name":"Bozyaka Devlet Hastanesi","lines":["89","522","550","556","823"]},"geometry":{"type":"Point","coordinates":[27.12657,38.3985]}},{"type":"Feature","properties":{"id":"bus-588-s12257","kind":"busstop","ref":"588","name":"Çevik Kuvvet","lines":["20","84","89","124","156","522","556","823"]},"geometry":{"type":"Point","coordinates":[27.122,38.4]}},{"type":"Feature","properties":{"id":"bus-588-s12259","kind":"busstop","ref":"588","name":"Bahçelievler","lines":["20","84","89","124","156","522","556","823"]},"geometry":{"type":"Point","coordinates":[27.1181,38.402]}},{"type":"Feature","properties":{"id":"bus-588-s10252","kind":"busstop","ref":"588","name":"Üçyol Metro","lines":["16","18","19","84","89","92","108","124","156","490","522","556","681","823","950"]},"geometry":{"type":"Point","coordinates":[27.1213,38.4057]}},{"type":"Feature","properties":{"id":"bus-588-s10248","kind":"busstop","ref":"588","name":"Altıntaş","lines":["15","18","19","20","152","508","550","587","681","887","910","950"]},"geometry":{"type":"Point","coordinates":[27.124,38.407]}},{"type":"Feature","properties":{"id":"bus-588-s10246","kind":"busstop","ref":"588","name":"Bayramyeri","lines":["15","18","19","20","152","508","550","587","681","887","910","950"]},"geometry":{"type":"Point","coordinates":[27.1267,38.4085]}},{"type":"Feature","properties":{"id":"bus-588-s10240","kind":"busstop","ref":"588","name":"Kız Yurdu","lines":["15","18","19","20","23","29","30","32","33","72","104","105","152","157","171","193","224","233","285","374","465","471","484","485","508","550","587","887"]},"geometry":{"type":"Point","coordinates":[27.12721,38.41322]}},{"type":"Feature","properties":{"id":"bus-588-s10013","kind":"busstop","ref":"588","name":"Bahribaba","lines":[]},"geometry":{"type":"Point","coordinates":[27.12741,38.41505]}},{"type":"Feature","properties":{"id":"bus-588-s10241","kind":"busstop","ref":"588","name":"Kız Yurdu","lines":["15","29","30","32","33","152","157","193","224","233","508","550","587","887"]},"geometry":{"type":"Point","coordinates":[27.12728,38.41293]}},{"type":"Feature","properties":{"id":"bus-588-s10247","kind":"busstop","ref":"588","name":"Bayramyeri","lines":["15","18","19","20","152","157","508","550","587","681","811","887","910","950"]},"geometry":{"type":"Point","coordinates":[27.1267,38.4088]}},{"type":"Feature","properties":{"id":"bus-588-s10251","kind":"busstop","ref":"588","name":"Altıntaş","lines":["15","18","19","20","152","157","508","550","587","681","811","887","910","950"]},"geometry":{"type":"Point","coordinates":[27.1241,38.4073]}},{"type":"Feature","properties":{"id":"bus-588-s10611","kind":"busstop","ref":"588","name":"Osman Öksüz Parkı","lines":["84","89","92","108","124","156","157","522","550","556","587","823"]},"geometry":{"type":"Point","coordinates":[27.12264,38.40418]}},{"type":"Feature","properties":{"id":"bus-588-s12263","kind":"busstop","ref":"588","name":"Spotçular","lines":["84","89","124","156","522","550","556","587","823"]},"geometry":{"type":"Point","coordinates":[27.12343,38.4006]}},{"type":"Feature","properties":{"id":"bus-588-s12256","kind":"busstop","ref":"588","name":"Bozyaka Devlet Hastanesi","lines":["89","522","550","556","823"]},"geometry":{"type":"Point","coordinates":[27.1263,38.3984]}},{"type":"Feature","properties":{"id":"bus-588-s12199","kind":"busstop","ref":"588","name":"Kilimci Tepe","lines":["23","89","193","224","522","550","556","680","823"]},"geometry":{"type":"Point","coordinates":[27.12713,38.39615]}},{"type":"Feature","properties":{"id":"bus-588-s12201","kind":"busstop","ref":"588","name":"Narlık","lines":["23","89","193","224","522","550","556","680","823"]},"geometry":{"type":"Point","coordinates":[27.12662,38.39351]}},{"type":"Feature","properties":{"id":"bus-588-s12203","kind":"busstop","ref":"588","name":"Zincirlikuyu","lines":["23","193","224","522","680","823"]},"geometry":{"type":"Point","coordinates":[27.1245,38.3912]}},{"type":"Feature","properties":{"id":"bus-588-s12205","kind":"busstop","ref":"588","name":"Kestelli","lines":["23","193","224","522","680","823"]},"geometry":{"type":"Point","coordinates":[27.12187,38.39008]}},{"type":"Feature","properties":{"id":"bus-588-s12207","kind":"busstop","ref":"588","name":"Bozyaka Cami","lines":["23","193","224","522","680","823"]},"geometry":{"type":"Point","coordinates":[27.11989,38.38953]}},{"type":"Feature","properties":{"id":"bus-588-s12209","kind":"busstop","ref":"588","name":"Karakuyu","lines":["23","124","193","224","522","587","680","823","879"]},"geometry":{"type":"Point","coordinates":[27.1159,38.3872]}},{"type":"Feature","properties":{"id":"bus-588-s12211","kind":"busstop","ref":"588","name":"Karaselvi","lines":["23","124","193","224","522","587","680","823","879"]},"geometry":{"type":"Point","coordinates":[27.1147,38.3851]}},{"type":"Feature","properties":{"id":"bus-588-s12213","kind":"busstop","ref":"588","name":"Bayram Kahya","lines":["23","124","193","587","680"]},"geometry":{"type":"Point","coordinates":[27.11289,38.38077]}},{"type":"Feature","properties":{"id":"bus-588-s12620","kind":"busstop","ref":"588","name":"Çamlık Yol Ayrımı","lines":["224","522","671","823"]},"geometry":{"type":"Point","coordinates":[27.1139,38.3803]}},{"type":"Feature","properties":{"id":"bus-588-s14336","kind":"busstop","ref":"588","name":"Dede","lines":[]},"geometry":{"type":"Point","coordinates":[27.1161,38.3806]}},{"type":"Feature","properties":{"id":"bus-588-s12647","kind":"busstop","ref":"588","name":"Emniyet","lines":[]},"geometry":{"type":"Point","coordinates":[27.1182,38.3794]}},{"type":"Feature","properties":{"id":"bus-588-s12649","kind":"busstop","ref":"588","name":"Aktaş Cami","lines":[]},"geometry":{"type":"Point","coordinates":[27.1196,38.3784]}},{"type":"Feature","properties":{"id":"bus-588-s12651","kind":"busstop","ref":"588","name":"Günaltay Meydan","lines":[]},"geometry":{"type":"Point","coordinates":[27.1216,38.3776]}},{"type":"Feature","properties":{"id":"bus-588-s12653","kind":"busstop","ref":"588","name":"Barış","lines":[]},"geometry":{"type":"Point","coordinates":[27.1237,38.3771]}},{"type":"Feature","properties":{"id":"bus-588-s12655","kind":"busstop","ref":"588","name":"Selvili Cami","lines":[]},"geometry":{"type":"Point","coordinates":[27.1264,38.3751]}},{"type":"Feature","properties":{"id":"bus-588-s12657","kind":"busstop","ref":"588","name":"Karabağlar Trafo Merkezi","lines":[]},"geometry":{"type":"Point","coordinates":[27.124,38.3747]}},{"type":"Feature","properties":{"id":"bus-588-s12673","kind":"busstop","ref":"588","name":"İyiburnaz Ortaokulu","lines":[]},"geometry":{"type":"Point","coordinates":[27.12138,38.37426]}},{"type":"Feature","properties":{"id":"bus-588-s12675","kind":"busstop","ref":"588","name":"Eda","lines":[]},"geometry":{"type":"Point","coordinates":[27.1205,38.3728]}},{"type":"Feature","properties":{"id":"bus-588-s12677","kind":"busstop","ref":"588","name":"Dere","lines":["828"]},"geometry":{"type":"Point","coordinates":[27.1175,38.3714]}},{"type":"Feature","properties":{"id":"bus-588-s12679","kind":"busstop","ref":"588","name":"Durallar İlkokulu","lines":["828"]},"geometry":{"type":"Point","coordinates":[27.11391,38.37154]}},{"type":"Feature","properties":{"id":"bus-588-s12739","kind":"busstop","ref":"588","name":"Palmiyeler","lines":["828"]},"geometry":{"type":"Point","coordinates":[27.1124,38.3718]}},{"type":"Feature","properties":{"id":"bus-588-s12741","kind":"busstop","ref":"588","name":"Tahir Merzeci Ortaokulu","lines":["828"]},"geometry":{"type":"Point","coordinates":[27.11167,38.36962]}}]}