{"type":"FeatureCollection","features":[{"type":"Feature","properties":{"id":"bus-59-1","kind":"busline","ref":"59","dir":1},"geometry":{"type":"LineString","coordinates":[[27.2142,38.4588],[27.2136,38.4587],[27.2136,38.4584],[27.2164,38.4584],[27.2156,38.4563],[27.2166,38.4558],[27.2179,38.4519],[27.2182,38.4502],[27.2181,38.4499],[27.2174,38.4499],[27.2154,38.4494],[27.2129,38.4494],[27.2104,38.4488],[27.2092,38.4489],[27.209,38.4484],[27.208,38.4478],[27.2065,38.4506],[27.2049,38.4505],[27.2049,38.4502],[27.2051,38.4501],[27.206,38.4482],[27.206,38.4475],[27.2062,38.4471],[27.2034,38.4455],[27.2,38.4454],[27.2001,38.4442],[27.1998,38.4434],[27.1994,38.443],[27.2009,38.4407],[27.2027,38.441],[27.2043,38.4417],[27.205,38.4418],[27.2059,38.4423],[27.2065,38.4422],[27.2076,38.4424],[27.2076,38.4431],[27.2095,38.4434],[27.2106,38.4381],[27.2114,38.4376],[27.2105,38.4368],[27.2094,38.4366],[27.2073,38.4358],[27.2029,38.4351],[27.2029,38.4314],[27.2032,38.4295],[27.1879,38.433],[27.1805,38.4331],[27.1804,38.4306],[27.18,38.4286],[27.1801,38.4273],[27.1797,38.4263],[27.1781,38.426],[27.175,38.426],[27.1739,38.4256],[27.1705,38.4252],[27.1671,38.4242],[27.1631,38.4233],[27.1595,38.4234],[27.1563,38.4229],[27.1562,38.4223],[27.1566,38.4213],[27.1569,38.421],[27.1569,38.4218]]}},{"type":"Feature","properties":{"id":"bus-59-2","kind":"busline","ref":"59","dir":2},"geometry":{"type":"LineString","coordinates":[[27.1569,38.4218],[27.1567,38.4221],[27.1565,38.422],[27.1563,38.4225],[27.1564,38.4227],[27.1594,38.4233],[27.1629,38.4232],[27.1643,38.4234],[27.1711,38.4252],[27.1739,38.4255],[27.1749,38.4259],[27.1779,38.4259],[27.1789,38.4261],[27.1801,38.426],[27.1803,38.4273],[27.1803,38.4298],[27.1807,38.4329],[27.1873,38.433],[27.2038,38.4293],[27.2034,38.4295],[27.2031,38.4303],[27.2029,38.4351],[27.2074,38.4358],[27.209,38.4363],[27.2098,38.4363],[27.2114,38.4376],[27.2106,38.4381],[27.2095,38.4434],[27.2076,38.4431],[27.2076,38.4424],[27.2065,38.4422],[27.2059,38.4423],[27.205,38.4418],[27.2014,38.4407],[27.2009,38.4407],[27.1996,38.4427],[27.1996,38.443],[27.1999,38.4433],[27.2002,38.4443],[27.2011,38.4443],[27.2019,38.4446],[27.2067,38.4473],[27.2088,38.4456],[27.2095,38.4453],[27.2103,38.4454],[27.2105,38.4458],[27.2097,38.4465],[27.2096,38.4476],[27.2093,38.4481],[27.2094,38.4487],[27.2129,38.4494],[27.2154,38.4494],[27.2171,38.4498],[27.2189,38.4499],[27.2189,38.4501],[27.2183,38.4501],[27.218,38.452],[27.2169,38.4554],[27.2167,38.4558],[27.2157,38.4564],[27.2165,38.4586],[27.2164,38.4592],[27.2136,38.4589],[27.2136,38.4587],[27.2142,38.4588]]}},{"type":"Feature","properties":{"id":"bus-59-s30009","kind":"busstop","ref":"59","name":"Bornova Metro","lines":[]},"geometry":{"type":"Point","coordinates":[27.21433,38.4588]}},{"type":"Feature","properties":{"id":"bus-59-s30553","kind":"busstop","ref":"59","name":"Yeşil Köşk","lines":["267","268","358","368","468","505"]},"geometry":{"type":"Point","coordinates":[27.2161,38.4579]}},{"type":"Feature","properties":{"id":"bus-59-s32475","kind":"busstop","ref":"59","name":"Ege Üniversitesi Öğrenci Köyü","lines":["267","268","358","368","468","505"]},"geometry":{"type":"Point","coordinates":[27.21715,38.45404]}},{"type":"Feature","properties":{"id":"bus-59-s30555","kind":"busstop","ref":"59","name":"Öğrenci Köyü","lines":["267","268","358","368","468","505"]},"geometry":{"type":"Point","coordinates":[27.2181,38.4504]}},{"type":"Feature","properties":{"id":"bus-59-s31840","kind":"busstop","ref":"59","name":"Alışveriş Merkezi","lines":[]},"geometry":{"type":"Point","coordinates":[27.2137,38.4495]}},{"type":"Feature","properties":{"id":"bus-59-s31844","kind":"busstop","ref":"59","name":"Yassıtepe Höyüğü","lines":[]},"geometry":{"type":"Point","coordinates":[27.20981,38.44884]}},{"type":"Feature","properties":{"id":"bus-59-s31867","kind":"busstop","ref":"59","name":"Bornova Viyadüğü","lines":[]},"geometry":{"type":"Point","coordinates":[27.20538,38.44905]}},{"type":"Feature","properties":{"id":"bus-59-s31838","kind":"busstop","ref":"59","name":"Stad","lines":[]},"geometry":{"type":"Point","coordinates":[27.2048,38.4463]}},{"type":"Feature","properties":{"id":"bus-59-s31842","kind":"busstop","ref":"59","name":"Bahçeşehir Koleji","lines":[]},"geometry":{"type":"Point","coordinates":[27.20088,38.44548]}},{"type":"Feature","properties":{"id":"bus-59-s32234","kind":"busstop","ref":"59","name":"Rafet Paşa","lines":[]},"geometry":{"type":"Point","coordinates":[27.19993,38.44214]}},{"type":"Feature","properties":{"id":"bus-59-s31834","kind":"busstop","ref":"59","name":"Zeybek","lines":[]},"geometry":{"type":"Point","coordinates":[27.2036,38.4413]}},{"type":"Feature","properties":{"id":"bus-59-s31832","kind":"busstop","ref":"59","name":"Üçgen Park","lines":[]},"geometry":{"type":"Point","coordinates":[27.2062,38.4422]}},{"type":"Feature","properties":{"id":"bus-59-s31830","kind":"busstop","ref":"59","name":"Çocuk Parkı","lines":[]},"geometry":{"type":"Point","coordinates":[27.2091,38.4433]}},{"type":"Feature","properties":{"id":"bus-59-s30502","kind":"busstop","ref":"59","name":"Karacaoğlan","lines":[]},"geometry":{"type":"Point","coordinates":[27.2097,38.4421]}},{"type":"Feature","properties":{"id":"bus-59-s30500","kind":"busstop","ref":"59","name":"Yeşilova Höyüğü","lines":[]},"geometry":{"type":"Point","coordinates":[27.2099,38.44109]}},{"type":"Feature","properties":{"id":"bus-59-s32247","kind":"busstop","ref":"59","name":"Okul","lines":[]},"geometry":{"type":"Point","coordinates":[27.21037,38.43887]}},{"type":"Feature","properties":{"id":"bus-59-s32245","kind":"busstop","ref":"59","name":"Narova","lines":[]},"geometry":{"type":"Point","coordinates":[27.21054,38.43702]}},{"type":"Feature","properties":{"id":"bus-59-s30492","kind":"busstop","ref":"59","name":"Egemenlik","lines":[]},"geometry":{"type":"Point","coordinates":[27.20812,38.43614]}},{"type":"Feature","properties":{"id":"bus-59-s30490","kind":"busstop","ref":"59","name":"Okçu","lines":[]},"geometry":{"type":"Point","coordinates":[27.2048,38.4355]}},{"type":"Feature","properties":{"id":"bus-59-s30225","kind":"busstop","ref":"59","name":"Birlik","lines":["54","119","555"]},"geometry":{"type":"Point","coordinates":[27.2028,38.4324]}},{"type":"Feature","properties":{"id":"bus-59-s30227","kind":"busstop","ref":"59","name":"Çimentaş Lisesi","lines":["54","119","555"]},"geometry":{"type":"Point","coordinates":[27.2031,38.43]}},{"type":"Feature","properties":{"id":"bus-59-s30162","kind":"busstop","ref":"59","name":"Park","lines":["364","560","564"]},"geometry":{"type":"Point","coordinates":[27.20111,38.43001]}},{"type":"Feature","properties":{"id":"bus-59-s30160","kind":"busstop","ref":"59","name":"Kahveler","lines":["364","560","564"]},"geometry":{"type":"Point","coordinates":[27.1994,38.4304]}},{"type":"Feature","properties":{"id":"bus-59-s30158","kind":"busstop","ref":"59","name":"Umut","lines":["364","560","564"]},"geometry":{"type":"Point","coordinates":[27.1967,38.431]}},{"type":"Feature","properties":{"id":"bus-59-s30156","kind":"busstop","ref":"59","name":"Çamdibi Esnaf Odası","lines":["364","560","564"]},"geometry":{"type":"Point","coordinates":[27.1936,38.4317]}},{"type":"Feature","properties":{"id":"bus-59-s30154","kind":"busstop","ref":"59","name":"Kartal","lines":["364","560","564"]},"geometry":{"type":"Point","coordinates":[27.1907,38.4324]}},{"type":"Feature","properties":{"id":"bus-59-s30152","kind":"busstop","ref":"59","name":"Gürbüz","lines":["364","560","564"]},"geometry":{"type":"Point","coordinates":[27.1865,38.4331]}},{"type":"Feature","properties":{"id":"bus-59-s30150","kind":"busstop","ref":"59","name":"Kamil Tunca Bulvarı","lines":["364","560","564"]},"geometry":{"type":"Point","coordinates":[27.18256,38.4331]}},{"type":"Feature","properties":{"id":"bus-59-s30130","kind":"busstop","ref":"59","name":"Taç Sanayi","lines":["53","54","214","249","662","699"]},"geometry":{"type":"Point","coordinates":[27.1805,38.432]}},{"type":"Feature","properties":{"id":"bus-59-s30128","kind":"busstop","ref":"59","name":"Birinci Sanayi Sitesi","lines":["53","54","214","249","662","699"]},"geometry":{"type":"Point","coordinates":[27.1802,38.4301]}},{"type":"Feature","properties":{"id":"bus-59-s30124","kind":"busstop","ref":"59","name":"Miralay Fethi Bey","lines":["53","54","214","249","662","699"]},"geometry":{"type":"Point","coordinates":[27.17995,38.42777]}},{"type":"Feature","properties":{"id":"bus-59-s32243","kind":"busstop","ref":"59","name":"Ağır Bakım","lines":["54","57","58","60","64","117","153","154","214","249","302","367","662","699"]},"geometry":{"type":"Point","coordinates":[27.17642,38.42606]}},{"type":"Feature","properties":{"id":"bus-59-s10370","kind":"busstop","ref":"59","name":"Halkapınar İZSU","lines":["54","57","58","60","64","117","153","154","214","249","302","367","662","699"]},"geometry":{"type":"Point","coordinates":[27.1734,38.4256]}},{"type":"Feature","properties":{"id":"bus-59-s10368","kind":"busstop","ref":"59","name":"Yenişehir PTT","lines":["44","45","54","57","58","60","64","117","153","214","249","302","367","418","662","699"]},"geometry":{"type":"Point","coordinates":[27.16915,38.4248]}},{"type":"Feature","properties":{"id":"bus-59-s10366","kind":"busstop","ref":"59","name":"Tepecik Doğum Hastanesi","lines":["44","45","54","57","58","60","64","117","153","214","249","302","367","418","662","699"]},"geometry":{"type":"Point","coordinates":[27.1662,38.424]}},{"type":"Feature","properties":{"id":"bus-59-s10364","kind":"busstop","ref":"59","name":"Ziya Gökalp Ortaokulu","lines":["44","45","54","57","58","60","64","117","153","214","249","302","367","418","662","699"]},"geometry":{"type":"Point","coordinates":[27.1627,38.4233]}},{"type":"Feature","properties":{"id":"bus-59-s10362","kind":"busstop","ref":"59","name":"Eşref Paşa Hastanesi","lines":["44","45","54","57","58","60","64","117","153","214","249","302","367","418","662","699"]},"geometry":{"type":"Point","coordinates":[27.16,38.4234]}},{"type":"Feature","properties":{"id":"bus-59-s13346","kind":"busstop","ref":"59","name":"Kemer Aktarma Merkezi","lines":[]},"geometry":{"type":"Point","coordinates":[27.1569,38.42178]}},{"type":"Feature","properties":{"id":"bus-59-s10363","kind":"busstop","ref":"59","name":"Eşref Paşa Hastanesi","lines":["44","45","49","54","57","58","60","64","117","153","214","249","302","367","418","662","699"]},"geometry":{"type":"Point","coordinates":[27.16153,38.42325]}},{"type":"Feature","properties":{"id":"bus-59-s10365","kind":"busstop","ref":"59","name":"Ziya Gökalp Ortaokulu","lines":["44","45","49","54","57","58","60","64","117","153","214","249","302","367","418","662","699"]},"geometry":{"type":"Point","coordinates":[27.16312,38.42325]}},{"type":"Feature","properties":{"id":"bus-59-s10367","kind":"busstop","ref":"59","name":"Tepecik Doğum Hastanesi","lines":["44","45","54","57","58","60","64","117","153","214","249","302","367","418","662","699"]},"geometry":{"type":"Point","coordinates":[27.1663,38.4239]}},{"type":"Feature","properties":{"id":"bus-59-s10369","kind":"busstop","ref":"59","name":"Yenişehir PTT","lines":["44","45","54","57","58","60","64","117","153","214","249","302","367","418","662","699"]},"geometry":{"type":"Point","coordinates":[27.17008,38.42475]}},{"type":"Feature","properties":{"id":"bus-59-s10371","kind":"busstop","ref":"59","name":"Halkapınar İZSU","lines":["54","57","58","60","64","117","153","154","214","249","302","367","662","699"]},"geometry":{"type":"Point","coordinates":[27.1742,38.4256]}},{"type":"Feature","properties":{"id":"bus-59-s32244","kind":"busstop","ref":"59","name":"Ağır Bakım","lines":["54","57","58","60","64","117","153","154","214","249","302","367","662","699"]},"geometry":{"type":"Point","coordinates":[27.17645,38.42588]}},{"type":"Feature","properties":{"id":"bus-59-s30123","kind":"busstop","ref":"59","name":"Miralay Fethi Bey","lines":["53","54","214","249","662","699"]},"geometry":{"type":"Point","coordinates":[27.18036,38.42772]}},{"type":"Feature","properties":{"id":"bus-59-s30127","kind":"busstop","ref":"59","name":"Birinci Sanayi Sitesi","lines":["53","54","214","249","662","699"]},"geometry":{"type":"Point","coordinates":[27.1805,38.4301]}},{"type":"Feature","properties":{"id":"bus-59-s30129","kind":"busstop","ref":"59","name":"Taç Sanayi","lines":["53","54","214","249","662","699"]},"geometry":{"type":"Point","coordinates":[27.18064,38.4317]}},{"type":"Feature","properties":{"id":"bus-59-s30149","kind":"busstop","ref":"59","name":"Kamil Tunca Bulvarı","lines":["55","364","560","564"]},"geometry":{"type":"Point","coordinates":[27.1817,38.433]}},{"type":"Feature","properties":{"id":"bus-59-s30151","kind":"busstop","ref":"59","name":"Gürbüz","lines":["55","364","560","564"]},"geometry":{"type":"Point","coordinates":[27.1865,38.433]}},{"type":"Feature","properties":{"id":"bus-59-s30153","kind":"busstop","ref":"59","name":"Kartal","lines":["55","364","560","564"]},"geometry":{"type":"Point","coordinates":[27.1913,38.4321]}},{"type":"Feature","properties":{"id":"bus-59-s30155","kind":"busstop","ref":"59","name":"Çamdibi Esnaf Odası","lines":["55","364","560","564"]},"geometry":{"type":"Point","coordinates":[27.194,38.4315]}},{"type":"Feature","properties":{"id":"bus-59-s30157","kind":"busstop","ref":"59","name":"Umut","lines":["55","364","560","564"]},"geometry":{"type":"Point","coordinates":[27.1969,38.43081]}},{"type":"Feature","properties":{"id":"bus-59-s30159","kind":"busstop","ref":"59","name":"Kahveler","lines":["55","364","560","564"]},"geometry":{"type":"Point","coordinates":[27.19924,38.43026]}},{"type":"Feature","properties":{"id":"bus-59-s30161","kind":"busstop","ref":"59","name":"Park","lines":["55","364","560","564"]},"geometry":{"type":"Point","coordinates":[27.2029,38.4295]}},{"type":"Feature","properties":{"id":"bus-59-s30228","kind":"busstop","ref":"59","name":"Çimentaş Lisesi","lines":["54","55","119","555"]},"geometry":{"type":"Point","coordinates":[27.203,38.4317]}},{"type":"Feature","properties":{"id":"bus-59-s30226","kind":"busstop","ref":"59","name":"Birlik","lines":["54","55","119","555"]},"geometry":{"type":"Point","coordinates":[27.203,38.4332]}},{"type":"Feature","properties":{"id":"bus-59-s30489","kind":"busstop","ref":"59","name":"Okçu","lines":[]},"geometry":{"type":"Point","coordinates":[27.2045,38.4353]}},{"type":"Feature","properties":{"id":"bus-59-s30491","kind":"busstop","ref":"59","name":"Market","lines":[]},"geometry":{"type":"Point","coordinates":[27.20826,38.436]}},{"type":"Feature","properties":{"id":"bus-59-s32246","kind":"busstop","ref":"59","name":"Narova","lines":[]},"geometry":{"type":"Point","coordinates":[27.21063,38.43688]}},{"type":"Feature","properties":{"id":"bus-59-s32248","kind":"busstop","ref":"59","name":"Okul","lines":[]},"geometry":{"type":"Point","coordinates":[27.2105,38.4389]}},{"type":"Feature","properties":{"id":"bus-59-s30499","kind":"busstop","ref":"59","name":"Yeşilova Höyüğü","lines":[]},"geometry":{"type":"Point","coordinates":[27.20999,38.44118]}},{"type":"Feature","properties":{"id":"bus-59-s30501","kind":"busstop","ref":"59","name":"Karacaoğlan","lines":[]},"geometry":{"type":"Point","coordinates":[27.2098,38.4421]}},{"type":"Feature","properties":{"id":"bus-59-s31831","kind":"busstop","ref":"59","name":"Çocuk Parkı","lines":[]},"geometry":{"type":"Point","coordinates":[27.209,38.4435]}},{"type":"Feature","properties":{"id":"bus-59-s31833","kind":"busstop","ref":"59","name":"Üçgen Park","lines":[]},"geometry":{"type":"Point","coordinates":[27.2062,38.4423]}},{"type":"Feature","properties":{"id":"bus-59-s31835","kind":"busstop","ref":"59","name":"Zeybek","lines":[]},"geometry":{"type":"Point","coordinates":[27.2034,38.4413]}},{"type":"Feature","properties":{"id":"bus-59-s30220","kind":"busstop","ref":"59","name":"Rafet Paşa","lines":["54","55","119","555"]},"geometry":{"type":"Point","coordinates":[27.2002,38.4419]}},{"type":"Feature","properties":{"id":"bus-59-s31841","kind":"busstop","ref":"59","name":"Bahçeşehir Koleji","lines":[]},"geometry":{"type":"Point","coordinates":[27.2019,38.4446]}},{"type":"Feature","properties":{"id":"bus-59-s31837","kind":"busstop","ref":"59","name":"Stad","lines":[]},"geometry":{"type":"Point","coordinates":[27.2051,38.4463]}},{"type":"Feature","properties":{"id":"bus-59-s32440","kind":"busstop","ref":"59","name":"Viyadük Köprüaltı","lines":[]},"geometry":{"type":"Point","coordinates":[27.20903,38.44537]}},{"type":"Feature","properties":{"id":"bus-59-s31843","kind":"busstop","ref":"59","name":"Yassıtepe Höyüğü","lines":[]},"geometry":{"type":"Point","coordinates":[27.21077,38.44877]}},{"type":"Feature","properties":{"id":"bus-59-s31839","kind":"busstop","ref":"59","name":"Alışveriş Merkezi","lines":[]},"geometry":{"type":"Point","coordinates":[27.2137,38.4493]}},{"type":"Feature","properties":{"id":"bus-59-s30556","kind":"busstop","ref":"59","name":"Öğrenci Köyü","lines":["267","268","358","368","468","505"]},"geometry":{"type":"Point","coordinates":[27.2182,38.4507]}},{"type":"Feature","properties":{"id":"bus-59-s32476","kind":"busstop","ref":"59","name":"Ege Üniversitesi Öğrenci Köyü","lines":["267","268","358","368","468","505"]},"geometry":{"type":"Point","coordinates":[27.21732,38.45416]}},{"type":"Feature","properties":{"id":"bus-59-s30554","kind":"busstop","ref":"59","name":"Yeşil Köşk","lines":["267","268","358","368","468","505"]},"geometry":{"type":"Point","coordinates":[27.21625,38.45769]}}]}