{"type":"FeatureCollection","features":[{"type":"Feature","properties":{"id":"bus-595-1","kind":"busline","ref":"595","dir":1},"geometry":{"type":"LineString","coordinates":[[27.0345,38.5348],[27.0337,38.5354],[27.0371,38.5325],[27.0376,38.5314],[27.0376,38.5308],[27.0368,38.5306],[27.036,38.5294],[27.0348,38.5255],[27.0336,38.5251],[27.0329,38.5245],[27.0393,38.5192],[27.0381,38.5189],[27.0319,38.5183],[27.0289,38.5174],[27.0266,38.5173],[27.0263,38.5169],[27.027,38.5133],[27.0264,38.5131],[27.027,38.5133],[27.0269,38.5147],[27.0264,38.517],[27.0267,38.5173],[27.0286,38.5172],[27.0316,38.518],[27.0322,38.5179],[27.033,38.5183],[27.0385,38.5188],[27.0395,38.5191],[27.0415,38.5171],[27.0449,38.5125],[27.0459,38.5111],[27.0473,38.5084],[27.0485,38.5069],[27.0515,38.5042],[27.0533,38.5016],[27.0596,38.4962],[27.0614,38.4944],[27.0586,38.4931],[27.0575,38.4931],[27.0574,38.4924],[27.057,38.4917],[27.0547,38.489],[27.0533,38.4888],[27.0533,38.4859],[27.0578,38.4859],[27.0598,38.4862],[27.0612,38.4862],[27.0615,38.4859],[27.0659,38.4773],[27.0679,38.4751],[27.0721,38.4752],[27.0733,38.475],[27.0761,38.475],[27.0767,38.4752],[27.0806,38.4752],[27.0816,38.4748],[27.0853,38.471],[27.0845,38.4701],[27.0829,38.4674],[27.0821,38.4664],[27.082,38.4658],[27.0822,38.4653],[27.0884,38.4592],[27.0904,38.4576],[27.0937,38.456],[27.0971,38.4547],[27.0975,38.4541],[27.0972,38.4537],[27.0973,38.4531],[27.0972,38.4532]]}},{"type":"Feature","properties":{"id":"bus-595-2","kind":"busline","ref":"595","dir":2},"geometry":{"type":"LineString","coordinates":[[27.0972,38.4532],[27.0975,38.4528],[27.0978,38.4528],[27.0975,38.4535],[27.0976,38.4541],[27.0971,38.4547],[27.0974,38.4548],[27.0921,38.4569],[27.0902,38.458],[27.0885,38.4593],[27.0823,38.4655],[27.0825,38.4667],[27.0848,38.4703],[27.0855,38.471],[27.0822,38.4745],[27.0808,38.4753],[27.0774,38.4753],[27.0759,38.4757],[27.0736,38.4757],[27.0721,38.4753],[27.0681,38.4753],[27.0666,38.4768],[27.0651,38.4791],[27.0615,38.4861],[27.0615,38.4865],[27.0576,38.486],[27.0536,38.4861],[27.0534,38.4888],[27.0547,38.489],[27.057,38.4917],[27.0576,38.493],[27.0589,38.493],[27.0591,38.4933],[27.0615,38.4943],[27.0617,38.4942],[27.0618,38.4945],[27.0592,38.4969],[27.0541,38.501],[27.0514,38.5045],[27.0502,38.5057],[27.0484,38.5071],[27.0476,38.5081],[27.0458,38.5116],[27.0442,38.5135],[27.0408,38.5183],[27.0397,38.5193],[27.0389,38.519],[27.0319,38.5183],[27.0289,38.5174],[27.0266,38.5173],[27.0263,38.5169],[27.027,38.5133],[27.0264,38.5131],[27.027,38.5133],[27.0269,38.5147],[27.0264,38.517],[27.0267,38.5173],[27.0286,38.5172],[27.0316,38.518],[27.0322,38.5179],[27.033,38.5183],[27.0385,38.5188],[27.0397,38.5191],[27.0397,38.5193],[27.0378,38.5209],[27.0332,38.5245],[27.0336,38.5251],[27.0348,38.5255],[27.036,38.5294],[27.0368,38.5306],[27.0376,38.5308],[27.0376,38.5314],[27.0371,38.5325],[27.0337,38.5354],[27.0345,38.5348]]}},{"type":"Feature","properties":{"id":"bus-595-s21504","kind":"busstop","ref":"595","name":"Hava Üssü Lojmanları Son Durak","lines":[]},"geometry":{"type":"Point","coordinates":[27.0345,38.5348]}},{"type":"Feature","properties":{"id":"bus-595-s21502","kind":"busstop","ref":"595","name":"Subay Lojmanları 1","lines":[]},"geometry":{"type":"Point","coordinates":[27.03666,38.53289]}},{"type":"Feature","properties":{"id":"bus-595-s21500","kind":"busstop","ref":"595","name":"Subay Lojmanları 2","lines":[]},"geometry":{"type":"Point","coordinates":[27.0366,38.5305]}},{"type":"Feature","properties":{"id":"bus-595-s21498","kind":"busstop","ref":"595","name":"Subay Lojmanları 3","lines":[]},"geometry":{"type":"Point","coordinates":[27.0354,38.5277]}},{"type":"Feature","properties":{"id":"bus-595-s21496","kind":"busstop","ref":"595","name":"Subay Lojmanları 4","lines":[]},"geometry":{"type":"Point","coordinates":[27.0343,38.5254]}},{"type":"Feature","properties":{"id":"bus-595-s21321","kind":"busstop","ref":"595","name":"Tekel Lojmanlar","lines":["596","817","920"]},"geometry":{"type":"Point","coordinates":[27.0336,38.5184]}},{"type":"Feature","properties":{"id":"bus-595-s24238","kind":"busstop","ref":"595","name":"Katip Çelebi Üniversitesi","lines":["596","817"]},"geometry":{"type":"Point","coordinates":[27.03069,38.51793]}},{"type":"Feature","properties":{"id":"bus-595-s21348","kind":"busstop","ref":"595","name":"Askeri Havaalanı","lines":[]},"geometry":{"type":"Point","coordinates":[27.02664,38.51348]}},{"type":"Feature","properties":{"id":"bus-595-s21328","kind":"busstop","ref":"595","name":"Katip Çelebi Üniversitesi","lines":["207","596","817","920"]},"geometry":{"type":"Point","coordinates":[27.03117,38.51781]}},{"type":"Feature","properties":{"id":"bus-595-s21322","kind":"busstop","ref":"595","name":"Tekel Lojmanlar","lines":["596","817","920"]},"geometry":{"type":"Point","coordinates":[27.0332,38.5183]}},{"type":"Feature","properties":{"id":"bus-595-s21344","kind":"busstop","ref":"595","name":"Jandarma","lines":["128","295","428","596","602","608","660","695","800","817","820","827","920"]},"geometry":{"type":"Point","coordinates":[27.0399,38.5187]}},{"type":"Feature","properties":{"id":"bus-595-s20098","kind":"busstop","ref":"595","name":"Eski Sinema","lines":["128","295","428","596","602","608","660","695","800","817","820","827","920"]},"geometry":{"type":"Point","coordinates":[27.0421,38.5161]}},{"type":"Feature","properties":{"id":"bus-595-s20096","kind":"busstop","ref":"595","name":"Balatçık Kahveler","lines":["128","295","346","428","596","602","608","660","695","800","810","816","817","820","827","853","912","920"]},"geometry":{"type":"Point","coordinates":[27.0452,38.5119]}},{"type":"Feature","properties":{"id":"bus-595-s20094","kind":"busstop","ref":"595","name":"Ata","lines":["428","446","535","602","608","660","800","820","827","912","920"]},"geometry":{"type":"Point","coordinates":[27.0495,38.5059]}},{"type":"Feature","properties":{"id":"bus-595-s20092","kind":"busstop","ref":"595","name":"Küçük Çiğli","lines":["428","446","535","602","608","660","800","820","827","912","920"]},"geometry":{"type":"Point","coordinates":[27.05217,38.50313]}},{"type":"Feature","properties":{"id":"bus-595-s20090","kind":"busstop","ref":"595","name":"Çiğli Santral","lines":["428","446","535","602","608","660","800","820","827","912","920"]},"geometry":{"type":"Point","coordinates":[27.05444,38.50045]}},{"type":"Feature","properties":{"id":"bus-595-s20088","kind":"busstop","ref":"595","name":"Çiğli Şaraphane","lines":["428","446","535","602","608","660","800","820","827","912","920"]},"geometry":{"type":"Point","coordinates":[27.05666,38.49866]}},{"type":"Feature","properties":{"id":"bus-595-s21129","kind":"busstop","ref":"595","name":"Eshotçular Sitesi","lines":["123","149","247","329","342","344","529","751","816"]},"geometry":{"type":"Point","coordinates":[27.05683,38.4917]}},{"type":"Feature","properties":{"id":"bus-595-s21122","kind":"busstop","ref":"595","name":"Büyük Çiğli Mezarlık","lines":["123","149","247","329","342","344","529","751","816"]},"geometry":{"type":"Point","coordinates":[27.05498,38.48947]}},{"type":"Feature","properties":{"id":"bus-595-s21114","kind":"busstop","ref":"595","name":"Tenis Kulübü","lines":["423","442","816","817"]},"geometry":{"type":"Point","coordinates":[27.0533,38.4871]}},{"type":"Feature","properties":{"id":"bus-595-s21096","kind":"busstop","ref":"595","name":"Bayraktar Sitesi","lines":["423","442","816","817"]},"geometry":{"type":"Point","coordinates":[27.05635,38.48586]}},{"type":"Feature","properties":{"id":"bus-595-s21094","kind":"busstop","ref":"595","name":"Söğüt","lines":["423","442","816","817"]},"geometry":{"type":"Point","coordinates":[27.06005,38.48616]}},{"type":"Feature","properties":{"id":"bus-595-s20340","kind":"busstop","ref":"595","name":"Karya","lines":["229","322","423","428","429","442","443","445","446","447","547","777","820","827"]},"geometry":{"type":"Point","coordinates":[27.06672,38.47626]}},{"type":"Feature","properties":{"id":"bus-595-s20338","kind":"busstop","ref":"595","name":"Mavişehir","lines":["229","322","423","428","429","442","443","445","446","447","547","820","827"]},"geometry":{"type":"Point","coordinates":[27.0745,38.4749]}},{"type":"Feature","properties":{"id":"bus-595-s20336","kind":"busstop","ref":"595","name":"Haydar Aliyev Parkı","lines":["229","423","428","429","442","443","445","446","447","547","820","827"]},"geometry":{"type":"Point","coordinates":[27.0836,38.4727]}},{"type":"Feature","properties":{"id":"bus-595-s20396","kind":"busstop","ref":"595","name":"Atakent Anadolu Lisesi","lines":["229","322","423","428","429","442","443","445","446","447","820","827"]},"geometry":{"type":"Point","coordinates":[27.084,38.4692]}},{"type":"Feature","properties":{"id":"bus-595-s20196","kind":"busstop","ref":"595","name":"Beşikçioğlu Cami","lines":["121","200","229","322","423","428","429","442","443","445","446","447","777","820","821","827"]},"geometry":{"type":"Point","coordinates":[27.0844,38.4631]}},{"type":"Feature","properties":{"id":"bus-595-s20194","kind":"busstop","ref":"595","name":"Bostanlı Pazaryeri","lines":["121","200","229","322","423","428","429","442","443","445","446","447","777","820","821","827"]},"geometry":{"type":"Point","coordinates":[27.0869,38.4606]}},{"type":"Feature","properties":{"id":"bus-595-s20198","kind":"busstop","ref":"595","name":"Bostanlı Market","lines":["121","200","229","322","423","428","429","442","443","445","446","447","777","820","821","827"]},"geometry":{"type":"Point","coordinates":[27.0913,38.4571]}},{"type":"Feature","properties":{"id":"bus-595-s20028","kind":"busstop","ref":"595","name":"Bostanlı İskele","lines":[]},"geometry":{"type":"Point","coordinates":[27.09716,38.45319]}},{"type":"Feature","properties":{"id":"bus-595-s20197","kind":"busstop","ref":"595","name":"Bostanlı Market","lines":["121","200","229","322","423","428","429","442","443","445","446","447","777","820","821","827"]},"geometry":{"type":"Point","coordinates":[27.0914,38.4573]}},{"type":"Feature","properties":{"id":"bus-595-s20189","kind":"busstop","ref":"595","name":"Bostanlı Pazaryeri","lines":["121","200","229","322","423","428","429","442","443","445","446","447","777","820","821","827"]},"geometry":{"type":"Point","coordinates":[27.0869,38.4609]}},{"type":"Feature","properties":{"id":"bus-595-s20191","kind":"busstop","ref":"595","name":"Beşikçioğlu Cami","lines":["121","200","229","322","423","428","429","442","443","445","446","447","777","820","821","827"]},"geometry":{"type":"Point","coordinates":[27.08431,38.4636]}},{"type":"Feature","properties":{"id":"bus-595-s20395","kind":"busstop","ref":"595","name":"Atakent Anadolu Lisesi","lines":["229","322","423","428","429","442","443","445","446","447","820","827"]},"geometry":{"type":"Point","coordinates":[27.0845,38.4697]}},{"type":"Feature","properties":{"id":"bus-595-s20337","kind":"busstop","ref":"595","name":"Haydar Aliyev Parkı","lines":["229","322","423","428","429","442","443","445","446","447","547","820","827"]},"geometry":{"type":"Point","coordinates":[27.08404,38.47269]}},{"type":"Feature","properties":{"id":"bus-595-s20339","kind":"busstop","ref":"595","name":"Mavişehir","lines":["121","229","322","423","428","429","442","443","445","446","447","547","777","820","821","827"]},"geometry":{"type":"Point","coordinates":[27.07491,38.47576]}},{"type":"Feature","properties":{"id":"bus-595-s20341","kind":"busstop","ref":"595","name":"Karya","lines":["229","322","423","428","429","442","443","445","446","447","547","777","820","827"]},"geometry":{"type":"Point","coordinates":[27.06558,38.47846]}},{"type":"Feature","properties":{"id":"bus-595-s21095","kind":"busstop","ref":"595","name":"Söğüt","lines":["423","442","816","817"]},"geometry":{"type":"Point","coordinates":[27.05886,38.48622]}},{"type":"Feature","properties":{"id":"bus-595-s21097","kind":"busstop","ref":"595","name":"Bayraktar Sitesi","lines":["423","442","816","817"]},"geometry":{"type":"Point","coordinates":[27.0561,38.486]}},{"type":"Feature","properties":{"id":"bus-595-s21115","kind":"busstop","ref":"595","name":"Tenis Kulübü","lines":["423","442","816","817"]},"geometry":{"type":"Point","coordinates":[27.0535,38.487]}},{"type":"Feature","properties":{"id":"bus-595-s21123","kind":"busstop","ref":"595","name":"Büyük Çiğli Mezarlık","lines":["123","149","247","329","342","344","529","751","816"]},"geometry":{"type":"Point","coordinates":[27.0551,38.4894]}},{"type":"Feature","properties":{"id":"bus-595-s21130","kind":"busstop","ref":"595","name":"Eshotçular Sitesi","lines":["123","149","247","329","342","344","529","751","816"]},"geometry":{"type":"Point","coordinates":[27.05734,38.49217]}},{"type":"Feature","properties":{"id":"bus-595-s20087","kind":"busstop","ref":"595","name":"Çiğli Şaraphane","lines":["428","446","535","602","608","660","800","820","827","912","920"]},"geometry":{"type":"Point","coordinates":[27.0573,38.4985]}},{"type":"Feature","properties":{"id":"bus-595-s20089","kind":"busstop","ref":"595","name":"Çiğli Santral","lines":["428","446","535","602","608","660","800","820","827","912","920"]},"geometry":{"type":"Point","coordinates":[27.05436,38.50091]}},{"type":"Feature","properties":{"id":"bus-595-s20091","kind":"busstop","ref":"595","name":"Küçük Çiğli","lines":["428","446","535","602","608","660","800","820","827","912","920"]},"geometry":{"type":"Point","coordinates":[27.05166,38.50436]}},{"type":"Feature","properties":{"id":"bus-595-s20093","kind":"busstop","ref":"595","name":"Ata","lines":["428","446","535","602","608","660","800","820","827","912","920"]},"geometry":{"type":"Point","coordinates":[27.05035,38.5056]}},{"type":"Feature","properties":{"id":"bus-595-s20095","kind":"busstop","ref":"595","name":"Balatçık Kahveler","lines":["128","295","428","596","602","608","660","695","800","820","827","920"]},"geometry":{"type":"Point","coordinates":[27.04487,38.51283]}},{"type":"Feature","properties":{"id":"bus-595-s20097","kind":"busstop","ref":"595","name":"Eski Sinema","lines":["128","295","428","596","602","608","660","695","800","817","820","827","920"]},"geometry":{"type":"Point","coordinates":[27.04262,38.51586]}},{"type":"Feature","properties":{"id":"bus-595-s21343","kind":"busstop","ref":"595","name":"Jandarma","lines":["128","295","428","596","602","608","660","695","800","817","820","827","920"]},"geometry":{"type":"Point","coordinates":[27.04059,38.51858]}},{"type":"Feature","properties":{"id":"bus-595-s21497","kind":"busstop","ref":"595","name":"Subay Lojmanları 4","lines":[]},"geometry":{"type":"Point","coordinates":[27.0344,38.5252]}},{"type":"Feature","properties":{"id":"bus-595-s21499","kind":"busstop","ref":"595","name":"Subay Lojmanları 3","lines":[]},"geometry":{"type":"Point","coordinates":[27.0356,38.5277]}},{"type":"Feature","properties":{"id":"bus-595-s21501","kind":"busstop","ref":"595","name":"Subay Lojmanları 2","lines":[]},"geometry":{"type":"Point","coordinates":[27.0367,38.5305]}},{"type":"Feature","properties":{"id":"bus-595-s21503","kind":"busstop","ref":"595","name":"Subay Lojmanları 1","lines":[]},"geometry":{"type":"Point","coordinates":[27.0367,38.5329]}}]}