{"type":"FeatureCollection","features":[{"type":"Feature","properties":{"id":"bus-599-1","kind":"busline","ref":"599","dir":1},"geometry":{"type":"LineString","coordinates":[[27.169,38.4771],[27.1701,38.4773],[27.1688,38.4771],[27.1701,38.4772],[27.1709,38.4776],[27.1713,38.4782],[27.1712,38.4789],[27.1687,38.4799],[27.1662,38.48],[27.166,38.4804],[27.1669,38.4805],[27.1669,38.4809],[27.1663,38.4812],[27.1652,38.4813],[27.1647,38.4826],[27.1651,38.4834],[27.1683,38.4843],[27.1708,38.4838],[27.172,38.4838],[27.1769,38.4849],[27.1778,38.4854],[27.1788,38.4855],[27.1804,38.486],[27.1808,38.486],[27.181,38.4858],[27.1815,38.4843],[27.1814,38.4842],[27.1763,38.483],[27.1758,38.4833],[27.1751,38.4833],[27.1732,38.4826],[27.1707,38.4825],[27.1681,38.4829],[27.1663,38.4839],[27.1649,38.4834],[27.1646,38.483],[27.1647,38.4821],[27.165,38.4815],[27.1659,38.4806],[27.1659,38.4802],[27.1661,38.48],[27.1692,38.4797],[27.17,38.479],[27.1709,38.479],[27.1712,38.4788],[27.1711,38.478],[27.1701,38.4774],[27.1701,38.4772],[27.1709,38.4775],[27.1714,38.4782],[27.1714,38.4785],[27.1726,38.4792],[27.173,38.479],[27.175,38.4788],[27.1742,38.4776],[27.1753,38.4773],[27.1746,38.4761],[27.1731,38.4744],[27.1732,38.4741],[27.1726,38.4733],[27.1726,38.4726],[27.1729,38.4719],[27.1743,38.4721],[27.1762,38.4737],[27.1772,38.474],[27.1792,38.4752],[27.1805,38.4756],[27.1816,38.4766],[27.1818,38.4766],[27.1823,38.4758],[27.1823,38.4748],[27.1827,38.4742],[27.1808,38.4736],[27.1803,38.4732],[27.181,38.4717],[27.1811,38.4711],[27.1788,38.4708],[27.1787,38.4706],[27.1773,38.47],[27.1747,38.4684],[27.17,38.4667],[27.1688,38.4665],[27.1682,38.4654],[27.1681,38.4647],[27.1689,38.4638],[27.1711,38.4618],[27.172,38.4615],[27.1731,38.4605],[27.1757,38.4572],[27.1788,38.4516],[27.1791,38.4509],[27.179,38.4508],[27.1794,38.4505],[27.1805,38.4484],[27.1804,38.4478],[27.1808,38.4476],[27.1811,38.446],[27.1799,38.4428],[27.1795,38.4422],[27.1735,38.44],[27.1729,38.4382],[27.1731,38.433],[27.1701,38.4335],[27.1684,38.4341],[27.1683,38.4339],[27.1687,38.4333],[27.1691,38.4333]]}},{"type":"Feature","properties":{"id":"bus-599-2","kind":"busline","ref":"599","dir":2},"geometry":{"type":"LineString","coordinates":[[27.1691,38.4333],[27.1696,38.4332],[27.1696,38.4335],[27.1734,38.4328],[27.1796,38.4331],[27.1807,38.4329],[27.1806,38.4381],[27.1802,38.4415],[27.1802,38.443],[27.1807,38.4447],[27.1812,38.4455],[27.181,38.4473],[27.1811,38.4482],[27.1806,38.4484],[27.1793,38.4511],[27.1773,38.4545],[27.1774,38.455],[27.1769,38.4554],[27.174,38.4598],[27.1715,38.4622],[27.1709,38.4621],[27.1695,38.4632],[27.1682,38.4649],[27.1682,38.4654],[27.1688,38.4665],[27.17,38.4667],[27.1747,38.4684],[27.1787,38.4707],[27.1795,38.4706],[27.1811,38.4709],[27.181,38.4717],[27.1803,38.4732],[27.1808,38.4736],[27.1827,38.4742],[27.1823,38.4748],[27.1823,38.4758],[27.1818,38.4766],[27.1816,38.4766],[27.1805,38.4756],[27.1792,38.4752],[27.1772,38.474],[27.1762,38.4737],[27.1743,38.4721],[27.1729,38.4719],[27.1726,38.4726],[27.1726,38.4733],[27.1732,38.4741],[27.1731,38.4744],[27.1746,38.4761],[27.1753,38.4773],[27.1742,38.4776],[27.175,38.4788],[27.173,38.479],[27.1726,38.4792],[27.1717,38.4787],[27.1687,38.4799],[27.1662,38.48],[27.166,38.4804],[27.1669,38.4805],[27.1669,38.4809],[27.1663,38.4812],[27.1652,38.4813],[27.1647,38.4828],[27.1651,38.4834],[27.1683,38.4843],[27.1708,38.4838],[27.172,38.4838],[27.1769,38.4849],[27.1778,38.4854],[27.1788,38.4855],[27.1804,38.486],[27.1808,38.486],[27.181,38.4858],[27.1815,38.4843],[27.1814,38.4842],[27.1763,38.483],[27.1758,38.4833],[27.1751,38.4833],[27.1732,38.4826],[27.1707,38.4825],[27.1681,38.4829],[27.1663,38.4839],[27.1649,38.4834],[27.1646,38.483],[27.1647,38.4821],[27.1652,38.4812],[27.1659,38.4806],[27.1659,38.4802],[27.1661,38.48],[27.1692,38.4797],[27.17,38.479],[27.1709,38.479],[27.1712,38.4788],[27.1712,38.4782],[27.1709,38.4778],[27.1701,38.4773],[27.1688,38.4771],[27.169,38.4771]]}},{"type":"Feature","properties":{"id":"bus-599-s31082","kind":"busstop","ref":"599","name":"Cengizhan Son Durak","lines":["359","502","559","597","662","699"]},"geometry":{"type":"Point","coordinates":[27.169,38.4772]}},{"type":"Feature","properties":{"id":"bus-599-s31132","kind":"busstop","ref":"599","name":"Tepe","lines":["359","699"]},"geometry":{"type":"Point","coordinates":[27.1714,38.4781]}},{"type":"Feature","properties":{"id":"bus-599-s31130","kind":"busstop","ref":"599","name":"Ticaret Borsası İlköğretim Okulu","lines":["359","597","699"]},"geometry":{"type":"Point","coordinates":[27.1724,38.479]}},{"type":"Feature","properties":{"id":"bus-599-s31128","kind":"busstop","ref":"599","name":"Kahveler","lines":["597","699"]},"geometry":{"type":"Point","coordinates":[27.17477,38.47861]}},{"type":"Feature","properties":{"id":"bus-599-s31126","kind":"busstop","ref":"599","name":"Cami","lines":["597","699"]},"geometry":{"type":"Point","coordinates":[27.1752,38.4772]}},{"type":"Feature","properties":{"id":"bus-599-s32412","kind":"busstop","ref":"599","name":"Avcı","lines":["597","699"]},"geometry":{"type":"Point","coordinates":[27.17436,38.4759]}},{"type":"Feature","properties":{"id":"bus-599-s31124","kind":"busstop","ref":"599","name":"Başaran","lines":["597","699"]},"geometry":{"type":"Point","coordinates":[27.17313,38.47444]}},{"type":"Feature","properties":{"id":"bus-599-s31122","kind":"busstop","ref":"599","name":"Sevgi","lines":["597","699"]},"geometry":{"type":"Point","coordinates":[27.17257,38.4728]}},{"type":"Feature","properties":{"id":"bus-599-s31104","kind":"busstop","ref":"599","name":"Çardak","lines":["503","513","597","699"]},"geometry":{"type":"Point","coordinates":[27.1746,38.4724]}},{"type":"Feature","properties":{"id":"bus-599-s31102","kind":"busstop","ref":"599","name":"Dümbüllü","lines":["503","513","597","699"]},"geometry":{"type":"Point","coordinates":[27.1767,38.4739]}},{"type":"Feature","properties":{"id":"bus-599-s31100","kind":"busstop","ref":"599","name":"Kasap","lines":["503","513","597","699"]},"geometry":{"type":"Point","coordinates":[27.17869,38.47478]}},{"type":"Feature","properties":{"id":"bus-599-s31098","kind":"busstop","ref":"599","name":"Metaş İlköğretim Okulu","lines":["503","513","597","699"]},"geometry":{"type":"Point","coordinates":[27.1807,38.4756]}},{"type":"Feature","properties":{"id":"bus-599-s31096","kind":"busstop","ref":"599","name":"Köşe","lines":["503","513","597","699"]},"geometry":{"type":"Point","coordinates":[27.1814,38.4763]}},{"type":"Feature","properties":{"id":"bus-599-s31094","kind":"busstop","ref":"599","name":"Çeşme","lines":["359","503","513","597","699"]},"geometry":{"type":"Point","coordinates":[27.1822,38.4754]}},{"type":"Feature","properties":{"id":"bus-599-s31092","kind":"busstop","ref":"599","name":"Park","lines":["359","503","513","597","699"]},"geometry":{"type":"Point","coordinates":[27.18051,38.47337]}},{"type":"Feature","properties":{"id":"bus-599-s30982","kind":"busstop","ref":"599","name":"Çay Mahallesi Son Durak","lines":["359","503","513","597","699"]},"geometry":{"type":"Point","coordinates":[27.1806,38.4711]}},{"type":"Feature","properties":{"id":"bus-599-s30980","kind":"busstop","ref":"599","name":"Heykel","lines":["359","503","513","597","699"]},"geometry":{"type":"Point","coordinates":[27.1785,38.4706]}},{"type":"Feature","properties":{"id":"bus-599-s30978","kind":"busstop","ref":"599","name":"Şehit Hakan Uysal","lines":["359","503","513","597","699"]},"geometry":{"type":"Point","coordinates":[27.1761,38.4692]}},{"type":"Feature","properties":{"id":"bus-599-s30976","kind":"busstop","ref":"599","name":"Çorapçı","lines":["359","503","513","597","699"]},"geometry":{"type":"Point","coordinates":[27.17362,38.46811]}},{"type":"Feature","properties":{"id":"bus-599-s30974","kind":"busstop","ref":"599","name":"Dede Fırını","lines":["359","503","513","597","699"]},"geometry":{"type":"Point","coordinates":[27.1711,38.4671]}},{"type":"Feature","properties":{"id":"bus-599-s30970","kind":"busstop","ref":"599","name":"Bayraklı Çocuk Parkı","lines":["359","503","513","699"]},"geometry":{"type":"Point","coordinates":[27.1682,38.4654]}},{"type":"Feature","properties":{"id":"bus-599-s30962","kind":"busstop","ref":"599","name":"Matbaa","lines":["359","503","513","699"]},"geometry":{"type":"Point","coordinates":[27.1696,38.4631]}},{"type":"Feature","properties":{"id":"bus-599-s30290","kind":"busstop","ref":"599","name":"Smyrna","lines":["102","330","338","359","498","501","502","503","504","513","543","662","699"]},"geometry":{"type":"Point","coordinates":[27.1732,38.4604]}},{"type":"Feature","properties":{"id":"bus-599-s30286","kind":"busstop","ref":"599","name":"Manas","lines":["102","330","338","359","498","501","502","503","504","513","543","662","699"]},"geometry":{"type":"Point","coordinates":[27.17507,38.4579]}},{"type":"Feature","properties":{"id":"bus-599-s30284","kind":"busstop","ref":"599","name":"Bayraklı Depo","lines":["102","330","338","359","498","501","502","503","504","513","543","662","699"]},"geometry":{"type":"Point","coordinates":[27.1764,38.4559]}},{"type":"Feature","properties":{"id":"bus-599-s30282","kind":"busstop","ref":"599","name":"Halide Edip Adıvar","lines":["102","214","249","359","498","501","502","503","504","513","515","543","662","699","930","963"]},"geometry":{"type":"Point","coordinates":[27.17845,38.45217]}},{"type":"Feature","properties":{"id":"bus-599-s30280","kind":"busstop","ref":"599","name":"Adliye","lines":["102","214","249","501","502","503","504","513","515","539","543","662","699","930","963"]},"geometry":{"type":"Point","coordinates":[27.1796,38.45]}},{"type":"Feature","properties":{"id":"bus-599-s30140","kind":"busstop","ref":"599","name":"Üçüncü Sanayi","lines":["102","168","214","249","501","502","503","504","513","515","539","543","662","699","930"]},"geometry":{"type":"Point","coordinates":[27.181,38.4458]}},{"type":"Feature","properties":{"id":"bus-599-s30138","kind":"busstop","ref":"599","name":"Bölge İdare Mahkemesi","lines":["102","168","501","502","503","504","513","543"]},"geometry":{"type":"Point","coordinates":[27.17996,38.44321]}},{"type":"Feature","properties":{"id":"bus-599-s11892","kind":"busstop","ref":"599","name":"Çınarlı Mesleki ve Teknik Anadolu Lisesi","lines":["102","168","501","502","503","504","513"]},"geometry":{"type":"Point","coordinates":[27.1753,38.4408]}},{"type":"Feature","properties":{"id":"bus-599-s31547","kind":"busstop","ref":"599","name":"Çınarlı Diş Hastanesi","lines":["102","168","498","501","502","503","504","513"]},"geometry":{"type":"Point","coordinates":[27.1734,38.4397]}},{"type":"Feature","properties":{"id":"bus-599-s31545","kind":"busstop","ref":"599","name":"Halkapınar Spor Salonu","lines":["102","168","498","501","502","503","504","513"]},"geometry":{"type":"Point","coordinates":[27.17299,38.43535]}},{"type":"Feature","properties":{"id":"bus-599-s12874","kind":"busstop","ref":"599","name":"Halkapınar Tramvay","lines":["53","55","102","154","168","364","418","475","498","501","502","503","504","513","515","534","539","543","555","560","564","930"]},"geometry":{"type":"Point","coordinates":[27.17041,38.43345]}},{"type":"Feature","properties":{"id":"bus-599-s10460","kind":"busstop","ref":"599","name":"Halkapınar Metro","lines":["55","503","513"]},"geometry":{"type":"Point","coordinates":[27.16908,38.43325]}},{"type":"Feature","properties":{"id":"bus-599-s30131","kind":"busstop","ref":"599","name":"Çamdibi Sağlık Ocağı","lines":["54","102","214","249","498","501","502","503","504","513","515","539","543","555","662","699","930"]},"geometry":{"type":"Point","coordinates":[27.1807,38.4352]}},{"type":"Feature","properties":{"id":"bus-599-s30133","kind":"busstop","ref":"599","name":"Mersinli","lines":["102","214","249","498","501","502","503","504","513","515","539","543","662","699","930"]},"geometry":{"type":"Point","coordinates":[27.18073,38.43757]}},{"type":"Feature","properties":{"id":"bus-599-s30135","kind":"busstop","ref":"599","name":"Stadyum İstasyon","lines":["102","214","249","498","501","502","503","504","513","515","539","543","662","699","930"]},"geometry":{"type":"Point","coordinates":[27.1803,38.442]}},{"type":"Feature","properties":{"id":"bus-599-s30137","kind":"busstop","ref":"599","name":"Bölge İdare Mahkemesi","lines":["102","214","249","498","501","502","503","504","513","515","539","543","662","699","930"]},"geometry":{"type":"Point","coordinates":[27.1806,38.4442]}},{"type":"Feature","properties":{"id":"bus-599-s30139","kind":"busstop","ref":"599","name":"Üçüncü Sanayi","lines":["102","214","249","498","501","502","503","504","513","515","539","543","662","699","930"]},"geometry":{"type":"Point","coordinates":[27.1812,38.4464]}},{"type":"Feature","properties":{"id":"bus-599-s30279","kind":"busstop","ref":"599","name":"Adliye","lines":["102","214","249","498","501","502","503","504","513","515","539","543","662","699","930","963"]},"geometry":{"type":"Point","coordinates":[27.1799,38.4498]}},{"type":"Feature","properties":{"id":"bus-599-s30281","kind":"busstop","ref":"599","name":"Halide Edip Adıvar","lines":["102","214","249","338","359","498","501","502","503","504","513","515","543","662","699","930","963"]},"geometry":{"type":"Point","coordinates":[27.17891,38.45184]}},{"type":"Feature","properties":{"id":"bus-599-s30283","kind":"busstop","ref":"599","name":"Bayraklı Depo","lines":["102","330","338","359","498","501","502","503","504","513","543","662","699"]},"geometry":{"type":"Point","coordinates":[27.1766,38.4559]}},{"type":"Feature","properties":{"id":"bus-599-s30285","kind":"busstop","ref":"599","name":"Manas","lines":["102","330","338","359","498","501","502","503","504","513","543","662","699"]},"geometry":{"type":"Point","coordinates":[27.1752,38.4581]}},{"type":"Feature","properties":{"id":"bus-599-s30289","kind":"busstop","ref":"599","name":"Smyrna","lines":["102","330","338","359","498","501","502","503","504","513","543","662","699"]},"geometry":{"type":"Point","coordinates":[27.1728,38.461]}},{"type":"Feature","properties":{"id":"bus-599-s30963","kind":"busstop","ref":"599","name":"Matbaa","lines":["102","359","501","502","503","504","513","662","699"]},"geometry":{"type":"Point","coordinates":[27.16954,38.46342]}},{"type":"Feature","properties":{"id":"bus-599-s30971","kind":"busstop","ref":"599","name":"Bayraklı Çocuk Parkı","lines":["359","503","513","597","699"]},"geometry":{"type":"Point","coordinates":[27.1683,38.4655]}},{"type":"Feature","properties":{"id":"bus-599-s30983","kind":"busstop","ref":"599","name":"Dede Fırını","lines":["359","503","513","597","699"]},"geometry":{"type":"Point","coordinates":[27.1712,38.4671]}},{"type":"Feature","properties":{"id":"bus-599-s30975","kind":"busstop","ref":"599","name":"Çorapçı","lines":["359","503","513","597","699"]},"geometry":{"type":"Point","coordinates":[27.1737,38.468]}},{"type":"Feature","properties":{"id":"bus-599-s30977","kind":"busstop","ref":"599","name":"Şehit Hakan Uysal","lines":["359","503","513","597","699"]},"geometry":{"type":"Point","coordinates":[27.176,38.469]}},{"type":"Feature","properties":{"id":"bus-599-s30979","kind":"busstop","ref":"599","name":"Heykel","lines":["359","503","513","597","699"]},"geometry":{"type":"Point","coordinates":[27.1783,38.4704]}},{"type":"Feature","properties":{"id":"bus-599-s30981","kind":"busstop","ref":"599","name":"Çay Mahallesi","lines":["359","503","513","597","699"]},"geometry":{"type":"Point","coordinates":[27.1799,38.4707]}},{"type":"Feature","properties":{"id":"bus-599-s31091","kind":"busstop","ref":"599","name":"Park","lines":["359","503","513","597","699"]},"geometry":{"type":"Point","coordinates":[27.1805,38.4733]}},{"type":"Feature","properties":{"id":"bus-599-s31093","kind":"busstop","ref":"599","name":"Çeşme","lines":["359","503","513","597","699"]},"geometry":{"type":"Point","coordinates":[27.1823,38.4753]}},{"type":"Feature","properties":{"id":"bus-599-s31095","kind":"busstop","ref":"599","name":"Köşe","lines":["503","513","597","699"]},"geometry":{"type":"Point","coordinates":[27.1815,38.4764]}},{"type":"Feature","properties":{"id":"bus-599-s31097","kind":"busstop","ref":"599","name":"Metaş İlköğretim Okulu","lines":["503","513","597","699"]},"geometry":{"type":"Point","coordinates":[27.1805,38.4757]}},{"type":"Feature","properties":{"id":"bus-599-s31099","kind":"busstop","ref":"599","name":"Kasap","lines":["503","513","597","699"]},"geometry":{"type":"Point","coordinates":[27.1785,38.4748]}},{"type":"Feature","properties":{"id":"bus-599-s31101","kind":"busstop","ref":"599","name":"Dümbüllü","lines":["503","513","597","699"]},"geometry":{"type":"Point","coordinates":[27.1762,38.4737]}},{"type":"Feature","properties":{"id":"bus-599-s31103","kind":"busstop","ref":"599","name":"Çardak","lines":["503","513","597","699"]},"geometry":{"type":"Point","coordinates":[27.17517,38.47303]}},{"type":"Feature","properties":{"id":"bus-599-s31121","kind":"busstop","ref":"599","name":"Sevgi","lines":["597","699"]},"geometry":{"type":"Point","coordinates":[27.17263,38.4726]}},{"type":"Feature","properties":{"id":"bus-599-s31123","kind":"busstop","ref":"599","name":"Başaran","lines":["597","699"]},"geometry":{"type":"Point","coordinates":[27.17321,38.47416]}},{"type":"Feature","properties":{"id":"bus-599-s32411","kind":"busstop","ref":"599","name":"Avcı","lines":["597","699"]},"geometry":{"type":"Point","coordinates":[27.1745,38.47596]}},{"type":"Feature","properties":{"id":"bus-599-s31125","kind":"busstop","ref":"599","name":"Cami","lines":["597","699"]},"geometry":{"type":"Point","coordinates":[27.17514,38.47699]}},{"type":"Feature","properties":{"id":"bus-599-s31127","kind":"busstop","ref":"599","name":"Kahveler","lines":["597","699"]},"geometry":{"type":"Point","coordinates":[27.17496,38.47855]}},{"type":"Feature","properties":{"id":"bus-599-s31129","kind":"busstop","ref":"599","name":"Ticaret Borsası İlköğretim Okulu","lines":["359","597","699"]},"geometry":{"type":"Point","coordinates":[27.17222,38.47882]}},{"type":"Feature","properties":{"id":"bus-599-s31131","kind":"busstop","ref":"599","name":"Tepe","lines":["359","597","699"]},"geometry":{"type":"Point","coordinates":[27.1711,38.4781]}}]}