{"type":"FeatureCollection","features":[{"type":"Feature","properties":{"id":"bus-610-1","kind":"busline","ref":"610","dir":1},"geometry":{"type":"LineString","coordinates":[[27.1228,38.3475],[27.1228,38.3473],[27.123,38.3483],[27.1242,38.3496],[27.1248,38.3499],[27.1266,38.3501],[27.1282,38.3512],[27.1292,38.3522],[27.1309,38.3531],[27.1317,38.3532],[27.1327,38.3514],[27.1335,38.3511],[27.1335,38.3502],[27.1324,38.3471],[27.1323,38.3452],[27.1318,38.3449],[27.1313,38.3449],[27.1309,38.3454],[27.1311,38.3458],[27.1318,38.3461],[27.1334,38.346],[27.134,38.3457],[27.1341,38.3453],[27.1339,38.345],[27.1331,38.3449],[27.1328,38.3452],[27.1326,38.3455],[27.1325,38.3465],[27.1338,38.3506],[27.1339,38.3535],[27.1342,38.355],[27.1344,38.3556],[27.1357,38.3576],[27.1352,38.3568]]}},{"type":"Feature","properties":{"id":"bus-610-2","kind":"busline","ref":"610","dir":2},"geometry":{"type":"LineString","coordinates":[[27.1352,38.3568],[27.136,38.3582],[27.1359,38.3584],[27.1357,38.3584],[27.134,38.3555],[27.1335,38.3536],[27.1334,38.3513],[27.1329,38.3514],[27.1318,38.3533],[27.1309,38.3531],[27.1283,38.3516],[27.1268,38.3503],[27.1243,38.3498],[27.1223,38.3477]]}},{"type":"Feature","properties":{"id":"bus-610-s14602","kind":"busstop","ref":"610","name":"Fuar İzmir","lines":["92","650"]},"geometry":{"type":"Point","coordinates":[27.12293,38.34762]}},{"type":"Feature","properties":{"id":"bus-610-s14604","kind":"busstop","ref":"610","name":"Aktepe Meşe","lines":["92"]},"geometry":{"type":"Point","coordinates":[27.1244,38.3499]}},{"type":"Feature","properties":{"id":"bus-610-s12736","kind":"busstop","ref":"610","name":"Şehit Süleyman Ergin","lines":["92"]},"geometry":{"type":"Point","coordinates":[27.1274,38.3506]}},{"type":"Feature","properties":{"id":"bus-610-s12724","kind":"busstop","ref":"610","name":"Peker Mahallesi Eski Son Durak","lines":["92","157"]},"geometry":{"type":"Point","coordinates":[27.1288,38.3517]}},{"type":"Feature","properties":{"id":"bus-610-s12722","kind":"busstop","ref":"610","name":"Aktepe Polis Lojmanları","lines":["92","157"]},"geometry":{"type":"Point","coordinates":[27.13119,38.35309]}},{"type":"Feature","properties":{"id":"bus-610-s13338","kind":"busstop","ref":"610","name":"Aktepe Giriş","lines":["828","879"]},"geometry":{"type":"Point","coordinates":[27.1323,38.352]}},{"type":"Feature","properties":{"id":"bus-610-s10656","kind":"busstop","ref":"610","name":"Aktepe","lines":["152","200","508","539","691","823","828","877","879","887","891","910"]},"geometry":{"type":"Point","coordinates":[27.134,38.3526]}},{"type":"Feature","properties":{"id":"bus-610-s10678","kind":"busstop","ref":"610","name":"Gaziemir Aktarma Merkezi","lines":["485","508","823","828","877","879","891"]},"geometry":{"type":"Point","coordinates":[27.13556,38.35726]}},{"type":"Feature","properties":{"id":"bus-610-s10653","kind":"busstop","ref":"610","name":"Gaziemir Semt Garajı","lines":["152","200","508","539","691","823","828","877","879","887","891","910"]},"geometry":{"type":"Point","coordinates":[27.13479,38.35704]}},{"type":"Feature","properties":{"id":"bus-610-s10655","kind":"busstop","ref":"610","name":"Emrez","lines":["152","200","508","539","691","823","828","877","879","887","891","910"]},"geometry":{"type":"Point","coordinates":[27.134,38.3555]}},{"type":"Feature","properties":{"id":"bus-610-s10657","kind":"busstop","ref":"610","name":"Aktepe","lines":["152","200","508","539","691","823","828","877","879","887","891","910"]},"geometry":{"type":"Point","coordinates":[27.1334,38.3518]}},{"type":"Feature","properties":{"id":"bus-610-s13339","kind":"busstop","ref":"610","name":"Aktepe Giriş","lines":["828","879"]},"geometry":{"type":"Point","coordinates":[27.1324,38.3522]}},{"type":"Feature","properties":{"id":"bus-610-s12725","kind":"busstop","ref":"610","name":"Aktepe Polis Lojmanları","lines":["92","157"]},"geometry":{"type":"Point","coordinates":[27.1306,38.3529]}},{"type":"Feature","properties":{"id":"bus-610-s12727","kind":"busstop","ref":"610","name":"Peker Mahallesi Eski Son Durak","lines":["92","157"]},"geometry":{"type":"Point","coordinates":[27.1288,38.3518]}},{"type":"Feature","properties":{"id":"bus-610-s12737","kind":"busstop","ref":"610","name":"Şehit Süleyman Ergin","lines":["92"]},"geometry":{"type":"Point","coordinates":[27.1272,38.3505]}},{"type":"Feature","properties":{"id":"bus-610-s14603","kind":"busstop","ref":"610","name":"Aktepe Meşe","lines":["92"]},"geometry":{"type":"Point","coordinates":[27.1243,38.35]}},{"type":"Feature","properties":{"id":"bus-610-s14601","kind":"busstop","ref":"610","name":"Fuar İzmir","lines":["92"]},"geometry":{"type":"Point","coordinates":[27.1222,38.3477]}}]}