{"type":"FeatureCollection","features":[{"type":"Feature","properties":{"id":"bus-650-1","kind":"busline","ref":"650","dir":1},"geometry":{"type":"LineString","coordinates":[[27.1225,38.3469],[27.1213,38.3456],[27.1222,38.3463],[27.1228,38.3473],[27.123,38.3483],[27.1238,38.3493],[27.1243,38.3496],[27.1227,38.3503],[27.122,38.3513],[27.1214,38.3512],[27.1206,38.3514],[27.1176,38.3525],[27.115,38.3531],[27.109,38.3537],[27.1017,38.3553],[27.0984,38.3554],[27.0969,38.3552],[27.0937,38.3552],[27.0907,38.3557],[27.0867,38.3573],[27.0845,38.3588],[27.0832,38.36],[27.0816,38.3621],[27.081,38.3633],[27.08,38.3672],[27.0794,38.3688],[27.0783,38.3708],[27.0765,38.3736],[27.0736,38.377],[27.0732,38.3778],[27.0723,38.3817],[27.0718,38.3829],[27.0705,38.3844],[27.0658,38.3876],[27.0646,38.3889],[27.0634,38.3913],[27.063,38.3941],[27.063,38.3963],[27.0632,38.3971],[27.0639,38.3982],[27.0659,38.3996],[27.0693,38.4025],[27.0704,38.4032],[27.0712,38.4034],[27.069,38.405],[27.0693,38.4054],[27.0698,38.4056],[27.0697,38.4058],[27.0685,38.405],[27.0687,38.4049],[27.0686,38.4048],[27.0701,38.4041],[27.0707,38.4032],[27.0714,38.4033],[27.0722,38.4031],[27.0746,38.4015],[27.0775,38.4004],[27.0776,38.3998],[27.0773,38.3987],[27.0752,38.3986],[27.07,38.3976],[27.062,38.3967],[27.0606,38.3961],[27.0576,38.3956],[27.0571,38.3952],[27.0537,38.3942],[27.0476,38.3944],[27.0432,38.3942],[27.041,38.3944],[27.0377,38.3943],[27.0381,38.3925],[27.0379,38.3892],[27.0377,38.389],[27.0381,38.3889],[27.0381,38.3891],[27.0389,38.3892],[27.0386,38.3891]]}},{"type":"Feature","properties":{"id":"bus-650-2","kind":"busline","ref":"650","dir":2},"geometry":{"type":"LineString","coordinates":[[27.0386,38.3891],[27.0389,38.3892],[27.038,38.3892],[27.0382,38.3919],[27.0381,38.3938],[27.0385,38.3941],[27.0418,38.3942],[27.0433,38.394],[27.0459,38.394],[27.0481,38.3942],[27.0533,38.3939],[27.0581,38.395],[27.0618,38.3964],[27.0671,38.3972],[27.0703,38.397],[27.0706,38.3975],[27.071,38.3977],[27.0751,38.3985],[27.0788,38.3988],[27.0786,38.4003],[27.0771,38.4005],[27.075,38.4013],[27.0722,38.4031],[27.0714,38.4033],[27.0707,38.4032],[27.0701,38.4041],[27.0686,38.4048],[27.0687,38.4049],[27.0685,38.405],[27.0697,38.4058],[27.0698,38.4056],[27.0693,38.4054],[27.069,38.405],[27.0711,38.4036],[27.0698,38.4031],[27.065,38.3993],[27.0625,38.3981],[27.0589,38.3971],[27.0583,38.3971],[27.0577,38.3974],[27.0574,38.398],[27.0576,38.3987],[27.058,38.3991],[27.059,38.3995],[27.0605,38.3993],[27.0618,38.3985],[27.0624,38.3976],[27.0628,38.3963],[27.0629,38.3928],[27.0631,38.3916],[27.064,38.3896],[27.0645,38.3888],[27.066,38.3872],[27.07,38.3845],[27.0715,38.3831],[27.0718,38.3826],[27.0731,38.3776],[27.074,38.376],[27.0768,38.3726],[27.0787,38.3697],[27.0799,38.3667],[27.0806,38.3638],[27.0815,38.3619],[27.0823,38.3607],[27.0842,38.3588],[27.086,38.3575],[27.0886,38.3562],[27.0906,38.3556],[27.0924,38.3552],[27.0945,38.355],[27.0994,38.3553],[27.1017,38.3552],[27.1097,38.3534],[27.1161,38.3527],[27.1194,38.3515],[27.1221,38.35],[27.1228,38.3492],[27.1228,38.3486],[27.1221,38.3471],[27.1224,38.3469],[27.1226,38.3469],[27.1228,38.3473],[27.123,38.3483],[27.1238,38.3493],[27.1227,38.3472]]}},{"type":"Feature","properties":{"id":"bus-650-s14602","kind":"busstop","ref":"650","name":"Fuar İzmir","lines":["92","610"]},"geometry":{"type":"Point","coordinates":[27.12293,38.34762]}},{"type":"Feature","properties":{"id":"bus-650-s14500","kind":"busstop","ref":"650","name":"Moda","lines":["17","24","25","202","510","671","690","873","977"]},"geometry":{"type":"Point","coordinates":[27.07448,38.37604]}},{"type":"Feature","properties":{"id":"bus-650-s50130","kind":"busstop","ref":"650","name":"Üçkuyular iskele Son Durak","lines":["10","25","977"]},"geometry":{"type":"Point","coordinates":[27.06915,38.40496]}},{"type":"Feature","properties":{"id":"bus-650-s10199","kind":"busstop","ref":"650","name":"Adnan Saygun Sanat Merkezi","lines":["5","6","7","17","24","25","202","480","486","510","671","690","873","977"]},"geometry":{"type":"Point","coordinates":[27.07748,38.39979]}},{"type":"Feature","properties":{"id":"bus-650-s10177","kind":"busstop","ref":"650","name":"Hava Hastanesi","lines":["5","6","7","10","17","24","25","202","480","486","510","671","690","873","977"]},"geometry":{"type":"Point","coordinates":[27.0732,38.3982]}},{"type":"Feature","properties":{"id":"bus-650-s50007","kind":"busstop","ref":"650","name":"Fahrettin Altay Meydan 2","lines":["5","6","7","24","25","202","311","480","510","551","811","950","977"]},"geometry":{"type":"Point","coordinates":[27.06869,38.39752]}},{"type":"Feature","properties":{"id":"bus-650-s50011","kind":"busstop","ref":"650","name":"Balçova İstasyon","lines":["5","6","7","8","82","305","311","321","481","510","811","909","971","975","981","982","983","984","985","987"]},"geometry":{"type":"Point","coordinates":[27.05601,38.39495]}},{"type":"Feature","properties":{"id":"bus-650-s50013","kind":"busstop","ref":"650","name":"Molla Kuyusu","lines":["5","6","7","8","82","305","311","321","510","811","909","971","975","981","982","983","984","985","987"]},"geometry":{"type":"Point","coordinates":[27.0515,38.3942]}},{"type":"Feature","properties":{"id":"bus-650-s50017","kind":"busstop","ref":"650","name":"Çağdaş İstasyon","lines":["5","6","7","8","82","305","311","321","510","811","909","971","975","981","982","983","984","985","987"]},"geometry":{"type":"Point","coordinates":[27.04563,38.39437]}},{"type":"Feature","properties":{"id":"bus-650-s50019","kind":"busstop","ref":"650","name":"Hoca","lines":["5","6","7","8","82","305","311","321","510","811","909","971","975","981","982","983","984","985","987"]},"geometry":{"type":"Point","coordinates":[27.0424,38.3943]}},{"type":"Feature","properties":{"id":"bus-650-s50021","kind":"busstop","ref":"650","name":"Dokuz Eylül Hastanesi İstasyon","lines":["5","6","7","8","82","305","311","321","811","909","971","975","981","982","983","984","985","987"]},"geometry":{"type":"Point","coordinates":[27.0388,38.3944]}},{"type":"Feature","properties":{"id":"bus-650-s50196","kind":"busstop","ref":"650","name":"Korutürk","lines":["480","510","551","950"]},"geometry":{"type":"Point","coordinates":[27.03793,38.39347]}},{"type":"Feature","properties":{"id":"bus-650-s52095","kind":"busstop","ref":"650","name":"Spor Salonu","lines":["480","510","551"]},"geometry":{"type":"Point","coordinates":[27.038,38.39151]}},{"type":"Feature","properties":{"id":"bus-650-s50198","kind":"busstop","ref":"650","name":"Termal","lines":["480","510","551","950"]},"geometry":{"type":"Point","coordinates":[27.03785,38.38955]}},{"type":"Feature","properties":{"id":"bus-650-s50176","kind":"busstop","ref":"650","name":"Balçova Son Durak","lines":["481","510","969"]},"geometry":{"type":"Point","coordinates":[27.03869,38.38883]}},{"type":"Feature","properties":{"id":"bus-650-s50197","kind":"busstop","ref":"650","name":"Termal","lines":["480","481","510","551","950"]},"geometry":{"type":"Point","coordinates":[27.038,38.3895]}},{"type":"Feature","properties":{"id":"bus-650-s51968","kind":"busstop","ref":"650","name":"Spor Salonu","lines":["480","481","510","551"]},"geometry":{"type":"Point","coordinates":[27.03814,38.39146]}},{"type":"Feature","properties":{"id":"bus-650-s50199","kind":"busstop","ref":"650","name":"Korutürk","lines":["480","481","483","510","551","950"]},"geometry":{"type":"Point","coordinates":[27.03813,38.39336]}},{"type":"Feature","properties":{"id":"bus-650-s50020","kind":"busstop","ref":"650","name":"Dokuz Eylül Hastanesi İstasyon","lines":["5","6","7","8","82","305","311","321","481","483","510","909","971","975","981","982","983","984","985","987"]},"geometry":{"type":"Point","coordinates":[27.0394,38.39413]}},{"type":"Feature","properties":{"id":"bus-650-s50018","kind":"busstop","ref":"650","name":"Hoca","lines":["5","6","7","8","82","305","311","321","481","510","909","971","975","981","982","983","984","985","987"]},"geometry":{"type":"Point","coordinates":[27.04249,38.39406]}},{"type":"Feature","properties":{"id":"bus-650-s50016","kind":"busstop","ref":"650","name":"Çağdaş İstasyon","lines":["5","6","7","8","82","305","311","321","510","909","971","975","981","982","983","984","985","987"]},"geometry":{"type":"Point","coordinates":[27.04672,38.39407]}},{"type":"Feature","properties":{"id":"bus-650-s50014","kind":"busstop","ref":"650","name":"İş Bankası Evleri","lines":["5","6","7","8","82","305","311","321","510","909","971","975","981","982","983","984","985","987"]},"geometry":{"type":"Point","coordinates":[27.0493,38.394]}},{"type":"Feature","properties":{"id":"bus-650-s50012","kind":"busstop","ref":"650","name":"Molla Kuyusu","lines":["5","6","7","8","82","305","311","321","481","510","909","971","975","981","982","983","984","985","987"]},"geometry":{"type":"Point","coordinates":[27.0532,38.39388]}},{"type":"Feature","properties":{"id":"bus-650-s50010","kind":"busstop","ref":"650","name":"Balçova İstasyon","lines":["5","6","7","8","82","305","311","321","481","510","909","971","975","981","982","983","984","985","987"]},"geometry":{"type":"Point","coordinates":[27.0569,38.3947]}},{"type":"Feature","properties":{"id":"bus-650-s50008","kind":"busstop","ref":"650","name":"Beyaz","lines":["5","6","7","8","24","25","82","202","305","311","321","481","510","909","971","975","977","981","982","983","984","985","987"]},"geometry":{"type":"Point","coordinates":[27.06161,38.39621]}},{"type":"Feature","properties":{"id":"bus-650-s50004","kind":"busstop","ref":"650","name":"Fahrettin Altay Meydan 9 ","lines":["5","6","7","10","24","25","82","167","202","305","311","321","480","510","551","675","684","883","909","945","946","971","975","977","981","982","983","984","985","987"]},"geometry":{"type":"Point","coordinates":[27.0686,38.3971]}},{"type":"Feature","properties":{"id":"bus-650-s10182","kind":"busstop","ref":"650","name":"Fahrettin Altay Meydan 5","lines":["5","6","7","10","24","25","202","480","486","510","945","977"]},"geometry":{"type":"Point","coordinates":[27.07112,38.39764]}},{"type":"Feature","properties":{"id":"bus-650-s10178","kind":"busstop","ref":"650","name":"Adnan Saygun Sanat Merkezi","lines":["5","6","7","10","24","25","202","480","486","510","945","946","977"]},"geometry":{"type":"Point","coordinates":[27.07629,38.39857]}},{"type":"Feature","properties":{"id":"bus-650-s14501","kind":"busstop","ref":"650","name":"Moda","lines":["17","24","25","202","510","671","690","873","977"]},"geometry":{"type":"Point","coordinates":[27.0731,38.3769]}}]}