{"type":"FeatureCollection","features":[{"type":"Feature","properties":{"id":"bus-657-1","kind":"busline","ref":"657","dir":1},"geometry":{"type":"LineString","coordinates":[[26.9159,38.6312],[26.9161,38.6312],[26.913,38.6299],[26.9093,38.6299],[26.9093,38.6285],[26.9074,38.6251],[26.9071,38.6241],[26.9071,38.6222],[26.9081,38.6205],[26.9092,38.6198],[26.9113,38.6192],[26.9127,38.617],[26.9133,38.6166],[26.9145,38.6162],[26.9139,38.6088],[26.9125,38.6087],[26.9118,38.6081],[26.9129,38.6073],[26.9139,38.6057],[26.9159,38.6065],[26.9173,38.6045],[26.9192,38.605],[26.9194,38.6045],[26.9199,38.604],[26.9254,38.6004],[26.9362,38.5982],[26.938,38.6072],[26.9384,38.6086],[26.9392,38.6103],[26.9417,38.6139],[26.9429,38.6147],[26.9465,38.6162],[26.9477,38.6173],[26.9508,38.6209],[26.9515,38.6205],[26.9551,38.6213],[26.9612,38.6206],[26.9632,38.6202],[26.9638,38.6203],[26.9706,38.6199],[26.9821,38.618],[26.9829,38.6181],[26.9848,38.6175],[26.9865,38.6172],[26.9892,38.6174],[26.99,38.6171],[26.9906,38.6173],[26.9916,38.6173],[26.9934,38.6168],[26.9951,38.6166],[26.9959,38.6167],[26.996,38.6176],[26.9952,38.6189],[27.0139,38.6244],[27.0129,38.6337],[27.0092,38.6342],[27.0082,38.6365],[27.0091,38.6369],[27.0171,38.6363],[27.0198,38.6363],[27.0214,38.6368],[27.0248,38.6369],[27.0248,38.6364],[27.0251,38.6358],[27.0259,38.6349],[27.027,38.6342],[27.0298,38.6329],[27.0314,38.6312],[27.0348,38.6297],[27.0366,38.6293],[27.0396,38.6279],[27.041,38.6261],[27.0521,38.6257],[27.0552,38.6254],[27.056,38.625],[27.0571,38.624],[27.0581,38.6239],[27.0597,38.621],[27.0606,38.6197],[27.0617,38.6186],[27.064,38.6172],[27.0699,38.6147],[27.0712,38.614],[27.0728,38.6128],[27.0731,38.6123],[27.0729,38.612],[27.0718,38.6114],[27.0716,38.6105],[27.071,38.6094],[27.0721,38.6088],[27.0733,38.6077],[27.0757,38.6062],[27.0773,38.6046],[27.0776,38.6045],[27.0774,38.6041],[27.0769,38.6038],[27.0757,38.6036],[27.076,38.6037]]}},{"type":"Feature","properties":{"id":"bus-657-2","kind":"busline","ref":"657","dir":2},"geometry":{"type":"LineString","coordinates":[[27.076,38.6037],[27.0769,38.6038],[27.0757,38.6036],[27.0759,38.6032],[27.0777,38.6044],[27.0757,38.6062],[27.0733,38.6077],[27.0721,38.6088],[27.071,38.6094],[27.0716,38.6105],[27.0718,38.6114],[27.0734,38.6124],[27.0707,38.6144],[27.0661,38.6164],[27.0626,38.6182],[27.0602,38.6205],[27.0582,38.624],[27.0573,38.6239],[27.056,38.625],[27.0549,38.6255],[27.041,38.6261],[27.0396,38.6279],[27.0366,38.6293],[27.0348,38.6297],[27.0314,38.6312],[27.0298,38.6329],[27.027,38.6342],[27.0259,38.6349],[27.0251,38.6358],[27.0248,38.6364],[27.0248,38.6369],[27.0214,38.6368],[27.0198,38.6363],[27.0153,38.6364],[27.0107,38.6369],[27.0091,38.6369],[27.0082,38.6365],[27.0092,38.6342],[27.0129,38.6337],[27.0139,38.6244],[26.9952,38.6189],[26.996,38.6176],[26.9959,38.6167],[26.9951,38.6166],[26.9934,38.6168],[26.9916,38.6173],[26.9906,38.6173],[26.99,38.6171],[26.9892,38.6174],[26.9865,38.6172],[26.9848,38.6175],[26.9829,38.6181],[26.9821,38.618],[26.9706,38.6199],[26.9638,38.6203],[26.9632,38.6202],[26.9612,38.6206],[26.9551,38.6213],[26.9515,38.6205],[26.9508,38.6209],[26.9477,38.6173],[26.9465,38.6162],[26.9429,38.6147],[26.9417,38.6139],[26.9409,38.6129],[26.9392,38.6103],[26.9384,38.6086],[26.9362,38.5984],[26.9359,38.5984],[26.9255,38.6005],[26.9198,38.6043],[26.9194,38.605],[26.9173,38.6045],[26.9159,38.6065],[26.9139,38.6057],[26.9129,38.6073],[26.9118,38.6081],[26.9125,38.6087],[26.9139,38.6088],[26.9145,38.6162],[26.9133,38.6166],[26.9127,38.617],[26.9113,38.6192],[26.9092,38.6198],[26.9081,38.6205],[26.9071,38.6222],[26.9071,38.6241],[26.9074,38.6251],[26.9093,38.6285],[26.9093,38.6299],[26.913,38.6299],[26.9161,38.6312],[26.9159,38.6311]]}},{"type":"Feature","properties":{"id":"bus-657-s21792","kind":"busstop","ref":"657","name":"Maltepe Son Durak","lines":["750","756","757"]},"geometry":{"type":"Point","coordinates":[26.91588,38.63122]}},{"type":"Feature","properties":{"id":"bus-657-s21808","kind":"busstop","ref":"657","name":"Maltepe Köşe","lines":["750","756","757"]},"geometry":{"type":"Point","coordinates":[26.91267,38.62993]}},{"type":"Feature","properties":{"id":"bus-657-s21790","kind":"busstop","ref":"657","name":"Maltepe Kubilay","lines":["750","756","757"]},"geometry":{"type":"Point","coordinates":[26.91083,38.62988]}},{"type":"Feature","properties":{"id":"bus-657-s21624","kind":"busstop","ref":"657","name":"Maltepe Ortaokulu","lines":["750","757"]},"geometry":{"type":"Point","coordinates":[26.90928,38.6292]}},{"type":"Feature","properties":{"id":"bus-657-s21614","kind":"busstop","ref":"657","name":"Maltepe Giriş","lines":["750","757"]},"geometry":{"type":"Point","coordinates":[26.90865,38.6275]}},{"type":"Feature","properties":{"id":"bus-657-s22566","kind":"busstop","ref":"657","name":"Maltepe Üçyol","lines":["750","757"]},"geometry":{"type":"Point","coordinates":[26.9072,38.62205]}},{"type":"Feature","properties":{"id":"bus-657-s22562","kind":"busstop","ref":"657","name":"Maltepe Arıtma Tesisi","lines":["750","757"]},"geometry":{"type":"Point","coordinates":[26.91441,38.61594]}},{"type":"Feature","properties":{"id":"bus-657-s22564","kind":"busstop","ref":"657","name":"Maltepe Çiftlik","lines":["750","757"]},"geometry":{"type":"Point","coordinates":[26.91407,38.61165]}},{"type":"Feature","properties":{"id":"bus-657-s21620","kind":"busstop","ref":"657","name":"Şahin","lines":["750","757"]},"geometry":{"type":"Point","coordinates":[26.91301,38.60883]}},{"type":"Feature","properties":{"id":"bus-657-s24241","kind":"busstop","ref":"657","name":"Kırlangıç","lines":["750","757"]},"geometry":{"type":"Point","coordinates":[26.91223,38.60775]}},{"type":"Feature","properties":{"id":"bus-657-s21618","kind":"busstop","ref":"657","name":"Florya","lines":["750","757"]},"geometry":{"type":"Point","coordinates":[26.91354,38.60619]}},{"type":"Feature","properties":{"id":"bus-657-s21612","kind":"busstop","ref":"657","name":"Şehit Astsubay Ümit İnce","lines":["750","757"]},"geometry":{"type":"Point","coordinates":[26.91609,38.60609]}},{"type":"Feature","properties":{"id":"bus-657-s21610","kind":"busstop","ref":"657","name":"Villakent Merkez","lines":["750","757"]},"geometry":{"type":"Point","coordinates":[26.91801,38.60465]}},{"type":"Feature","properties":{"id":"bus-657-s21606","kind":"busstop","ref":"657","name":"Merdivenli Park","lines":["750","757"]},"geometry":{"type":"Point","coordinates":[26.92132,38.60306]}},{"type":"Feature","properties":{"id":"bus-657-s21602","kind":"busstop","ref":"657","name":"Hüseyin Baradan Parkı","lines":["750","757"]},"geometry":{"type":"Point","coordinates":[26.92448,38.60093]}},{"type":"Feature","properties":{"id":"bus-657-s21600","kind":"busstop","ref":"657","name":"Spor Sahası","lines":["750","757"]},"geometry":{"type":"Point","coordinates":[26.92719,38.59993]}},{"type":"Feature","properties":{"id":"bus-657-s21598","kind":"busstop","ref":"657","name":"Teraslı Park","lines":["750","757"]},"geometry":{"type":"Point","coordinates":[26.93019,38.59934]}},{"type":"Feature","properties":{"id":"bus-657-s24668","kind":"busstop","ref":"657","name":"Flamingo Caddesi","lines":["750","757"]},"geometry":{"type":"Point","coordinates":[26.93284,38.59882]}},{"type":"Feature","properties":{"id":"bus-657-s21596","kind":"busstop","ref":"657","name":"Villakent Giriş","lines":["750","757"]},"geometry":{"type":"Point","coordinates":[26.93544,38.5983]}},{"type":"Feature","properties":{"id":"bus-657-s21615","kind":"busstop","ref":"657","name":"Villakent Anadolu Lisesi","lines":["750","757"]},"geometry":{"type":"Point","coordinates":[26.93718,38.60258]}},{"type":"Feature","properties":{"id":"bus-657-s24542","kind":"busstop","ref":"657","name":"Trafolar","lines":[]},"geometry":{"type":"Point","coordinates":[26.95033,38.62029]}},{"type":"Feature","properties":{"id":"bus-657-s24175","kind":"busstop","ref":"657","name":"Kesik Ova","lines":["756"]},"geometry":{"type":"Point","coordinates":[26.96249,38.62032]}},{"type":"Feature","properties":{"id":"bus-657-s23207","kind":"busstop","ref":"657","name":"Kesik Tarla","lines":["756"]},"geometry":{"type":"Point","coordinates":[26.97784,38.61865]}},{"type":"Feature","properties":{"id":"bus-657-s24419","kind":"busstop","ref":"657","name":"Kesik Fabrika","lines":["756"]},"geometry":{"type":"Point","coordinates":[26.98052,38.61822]}},{"type":"Feature","properties":{"id":"bus-657-s23209","kind":"busstop","ref":"657","name":"Kesik Kanal","lines":["756"]},"geometry":{"type":"Point","coordinates":[26.98342,38.61783]}},{"type":"Feature","properties":{"id":"bus-657-s23219","kind":"busstop","ref":"657","name":"Kesik Saha","lines":["756"]},"geometry":{"type":"Point","coordinates":[26.98704,38.61711]}},{"type":"Feature","properties":{"id":"bus-657-s23211","kind":"busstop","ref":"657","name":"Kesik Mavi","lines":["756"]},"geometry":{"type":"Point","coordinates":[26.99086,38.61723]}},{"type":"Feature","properties":{"id":"bus-657-s23213","kind":"busstop","ref":"657","name":"Kesik Çocuk Bahçesi","lines":["756"]},"geometry":{"type":"Point","coordinates":[26.99317,38.61684]}},{"type":"Feature","properties":{"id":"bus-657-s23215","kind":"busstop","ref":"657","name":"Kesik Meydan","lines":["756"]},"geometry":{"type":"Point","coordinates":[26.99597,38.61693]}},{"type":"Feature","properties":{"id":"bus-657-s23217","kind":"busstop","ref":"657","name":"Kesik Fabrikalar","lines":["756"]},"geometry":{"type":"Point","coordinates":[26.9954,38.61886]}},{"type":"Feature","properties":{"id":"bus-657-s23248","kind":"busstop","ref":"657","name":"Musabey Yol Ayrımı","lines":["756"]},"geometry":{"type":"Point","coordinates":[27.01382,38.62592]}},{"type":"Feature","properties":{"id":"bus-657-s23680","kind":"busstop","ref":"657","name":"Kantar","lines":["756"]},"geometry":{"type":"Point","coordinates":[27.01013,38.63408]}},{"type":"Feature","properties":{"id":"bus-657-s23237","kind":"busstop","ref":"657","name":"Musabey Meydan","lines":["756"]},"geometry":{"type":"Point","coordinates":[27.00861,38.63667]}},{"type":"Feature","properties":{"id":"bus-657-s23239","kind":"busstop","ref":"657","name":"Musabey Çamlar","lines":["756"]},"geometry":{"type":"Point","coordinates":[27.0105,38.6368]}},{"type":"Feature","properties":{"id":"bus-657-s23958","kind":"busstop","ref":"657","name":"Musabey Ova","lines":["756"]},"geometry":{"type":"Point","coordinates":[27.01749,38.63624]}},{"type":"Feature","properties":{"id":"bus-657-s23241","kind":"busstop","ref":"657","name":"Çavuş Köy Cami","lines":["756"]},"geometry":{"type":"Point","coordinates":[27.02401,38.63683]}},{"type":"Feature","properties":{"id":"bus-657-s23243","kind":"busstop","ref":"657","name":"Çavuş Köy Üçyol","lines":["756"]},"geometry":{"type":"Point","coordinates":[27.02611,38.63473]}},{"type":"Feature","properties":{"id":"bus-657-s21720","kind":"busstop","ref":"657","name":"Çiftlik","lines":["756"]},"geometry":{"type":"Point","coordinates":[27.03099,38.63153]}},{"type":"Feature","properties":{"id":"bus-657-s23938","kind":"busstop","ref":"657","name":"Fabrika","lines":["756"]},"geometry":{"type":"Point","coordinates":[27.0384,38.62844]}},{"type":"Feature","properties":{"id":"bus-657-s23245","kind":"busstop","ref":"657","name":"Tarımsal Araştırma ve Eğitim Merkezi","lines":["756"]},"geometry":{"type":"Point","coordinates":[27.04495,38.6259]}},{"type":"Feature","properties":{"id":"bus-657-s22456","kind":"busstop","ref":"657","name":"Yıldız Mandıra","lines":["660","756","758"]},"geometry":{"type":"Point","coordinates":[27.05823,38.62357]}},{"type":"Feature","properties":{"id":"bus-657-s22454","kind":"busstop","ref":"657","name":"Menemen Karakol","lines":["660","756","758"]},"geometry":{"type":"Point","coordinates":[27.06675,38.61599]}},{"type":"Feature","properties":{"id":"bus-657-s24288","kind":"busstop","ref":"657","name":"Menemen Eski Sanayi","lines":["660","756","758"]},"geometry":{"type":"Point","coordinates":[27.07063,38.61424]}},{"type":"Feature","properties":{"id":"bus-657-s22371","kind":"busstop","ref":"657","name":"Menemen Garaj Karşısı","lines":["602","648","658","747","748","749","753","755","756","758","759","800","868"]},"geometry":{"type":"Point","coordinates":[27.07161,38.6109]}},{"type":"Feature","properties":{"id":"bus-657-s22365","kind":"busstop","ref":"657","name":"Menemen Toplum Sağlığı Merkezi","lines":["602","648","658","747","748","749","753","755","756","758","759","800","868"]},"geometry":{"type":"Point","coordinates":[27.07096,38.60949]}},{"type":"Feature","properties":{"id":"bus-657-s22391","kind":"busstop","ref":"657","name":"Menemen Şehir Parkı","lines":["602","648","658","747","748","749","753","755","756","758","759","800","868"]},"geometry":{"type":"Point","coordinates":[27.07391,38.60724]}},{"type":"Feature","properties":{"id":"bus-657-s22257","kind":"busstop","ref":"657","name":"Menemen Aktarma Merkezi","lines":["753","755","756"]},"geometry":{"type":"Point","coordinates":[27.07604,38.60366]}},{"type":"Feature","properties":{"id":"bus-657-s22390","kind":"busstop","ref":"657","name":"Menemen Şehir Parkı","lines":["602","648","658","747","748","749","753","755","756","758","759","800","868"]},"geometry":{"type":"Point","coordinates":[27.07398,38.60731]}},{"type":"Feature","properties":{"id":"bus-657-s22364","kind":"busstop","ref":"657","name":"Menemen Toplum Sağlığı Merkezi","lines":["602","648","658","747","748","749","753","755","756","758","759","800","868"]},"geometry":{"type":"Point","coordinates":[27.07127,38.60966]}},{"type":"Feature","properties":{"id":"bus-657-s22370","kind":"busstop","ref":"657","name":"Menemen Garaj Karşısı","lines":["602","648","658","747","748","749","753","755","756","758","759","800","868"]},"geometry":{"type":"Point","coordinates":[27.07181,38.6112]}},{"type":"Feature","properties":{"id":"bus-657-s24289","kind":"busstop","ref":"657","name":"Menemen Eski Sanayi","lines":["660","756","758"]},"geometry":{"type":"Point","coordinates":[27.07181,38.61392]}},{"type":"Feature","properties":{"id":"bus-657-s22455","kind":"busstop","ref":"657","name":"Menemen Karakol","lines":["660","756","758"]},"geometry":{"type":"Point","coordinates":[27.06701,38.61617]}},{"type":"Feature","properties":{"id":"bus-657-s22457","kind":"busstop","ref":"657","name":"Yıldız Mandıra","lines":["660","756","758"]},"geometry":{"type":"Point","coordinates":[27.05934,38.62212]}},{"type":"Feature","properties":{"id":"bus-657-s23246","kind":"busstop","ref":"657","name":"Tarımsal Araştırma ve Eğitim Merkezi","lines":["756"]},"geometry":{"type":"Point","coordinates":[27.04493,38.626]}},{"type":"Feature","properties":{"id":"bus-657-s23937","kind":"busstop","ref":"657","name":"Fabrika","lines":["756"]},"geometry":{"type":"Point","coordinates":[27.03851,38.62848]}},{"type":"Feature","properties":{"id":"bus-657-s21719","kind":"busstop","ref":"657","name":"Çiftlik","lines":["756"]},"geometry":{"type":"Point","coordinates":[27.03222,38.63077]}},{"type":"Feature","properties":{"id":"bus-657-s23244","kind":"busstop","ref":"657","name":"Çavuş Köy Üçyol","lines":["756"]},"geometry":{"type":"Point","coordinates":[27.0262,38.6348]}},{"type":"Feature","properties":{"id":"bus-657-s23242","kind":"busstop","ref":"657","name":"Çavuş Köy Cami","lines":["756"]},"geometry":{"type":"Point","coordinates":[27.02395,38.6369]}},{"type":"Feature","properties":{"id":"bus-657-s23957","kind":"busstop","ref":"657","name":"Musabey Ova","lines":["756"]},"geometry":{"type":"Point","coordinates":[27.01718,38.63635]}},{"type":"Feature","properties":{"id":"bus-657-s23240","kind":"busstop","ref":"657","name":"Musabey Çamlar","lines":["756"]},"geometry":{"type":"Point","coordinates":[27.0106,38.6369]}},{"type":"Feature","properties":{"id":"bus-657-s23238","kind":"busstop","ref":"657","name":"Musabey Meydan","lines":["756"]},"geometry":{"type":"Point","coordinates":[27.0085,38.6367]}},{"type":"Feature","properties":{"id":"bus-657-s23679","kind":"busstop","ref":"657","name":"Kantar","lines":["756"]},"geometry":{"type":"Point","coordinates":[27.00992,38.63401]}},{"type":"Feature","properties":{"id":"bus-657-s23247","kind":"busstop","ref":"657","name":"Musabey Yol Ayrımı","lines":["756"]},"geometry":{"type":"Point","coordinates":[27.01363,38.62572]}},{"type":"Feature","properties":{"id":"bus-657-s23218","kind":"busstop","ref":"657","name":"Kesik Fabrikalar","lines":["756"]},"geometry":{"type":"Point","coordinates":[26.99532,38.61841]}},{"type":"Feature","properties":{"id":"bus-657-s23216","kind":"busstop","ref":"657","name":"Kesik Meydan","lines":["756"]},"geometry":{"type":"Point","coordinates":[26.99588,38.61684]}},{"type":"Feature","properties":{"id":"bus-657-s23214","kind":"busstop","ref":"657","name":"Kesik Çocuk Bahçesi","lines":["756"]},"geometry":{"type":"Point","coordinates":[26.99304,38.61696]}},{"type":"Feature","properties":{"id":"bus-657-s23212","kind":"busstop","ref":"657","name":"Kesik Mavi","lines":["756"]},"geometry":{"type":"Point","coordinates":[26.99073,38.61732]}},{"type":"Feature","properties":{"id":"bus-657-s23220","kind":"busstop","ref":"657","name":"Kesik Saha","lines":["756"]},"geometry":{"type":"Point","coordinates":[26.98685,38.61727]}},{"type":"Feature","properties":{"id":"bus-657-s23210","kind":"busstop","ref":"657","name":"Kesik Kanal","lines":["756"]},"geometry":{"type":"Point","coordinates":[26.98343,38.61796]}},{"type":"Feature","properties":{"id":"bus-657-s24420","kind":"busstop","ref":"657","name":"Kesik Fabrika","lines":["756"]},"geometry":{"type":"Point","coordinates":[26.98019,38.61837]}},{"type":"Feature","properties":{"id":"bus-657-s23208","kind":"busstop","ref":"657","name":"Kesik Tarla","lines":["756"]},"geometry":{"type":"Point","coordinates":[26.97836,38.61871]}},{"type":"Feature","properties":{"id":"bus-657-s24176","kind":"busstop","ref":"657","name":"Kesik Ova","lines":["756"]},"geometry":{"type":"Point","coordinates":[26.96217,38.62045]}},{"type":"Feature","properties":{"id":"bus-657-s24543","kind":"busstop","ref":"657","name":"Trafolar","lines":[]},"geometry":{"type":"Point","coordinates":[26.95016,38.62024]}},{"type":"Feature","properties":{"id":"bus-657-s21616","kind":"busstop","ref":"657","name":"Villakent Anadolu Lisesi","lines":["750","757"]},"geometry":{"type":"Point","coordinates":[26.93696,38.60241]}},{"type":"Feature","properties":{"id":"bus-657-s21595","kind":"busstop","ref":"657","name":"Villakent Giriş","lines":["750","757"]},"geometry":{"type":"Point","coordinates":[26.9359,38.59842]}},{"type":"Feature","properties":{"id":"bus-657-s24667","kind":"busstop","ref":"657","name":"Flamingo Caddesi","lines":["750","757"]},"geometry":{"type":"Point","coordinates":[26.93299,38.599]}},{"type":"Feature","properties":{"id":"bus-657-s21597","kind":"busstop","ref":"657","name":"Teraslı Park","lines":["750","757"]},"geometry":{"type":"Point","coordinates":[26.93009,38.59955]}},{"type":"Feature","properties":{"id":"bus-657-s21601","kind":"busstop","ref":"657","name":"Spor Sahası","lines":["750","757"]},"geometry":{"type":"Point","coordinates":[26.92687,38.60019]}},{"type":"Feature","properties":{"id":"bus-657-s21599","kind":"busstop","ref":"657","name":"Hüseyin Baradan Parkı","lines":["750","757"]},"geometry":{"type":"Point","coordinates":[26.92457,38.60115]}},{"type":"Feature","properties":{"id":"bus-657-s21603","kind":"busstop","ref":"657","name":"Merdivenli Park","lines":["750","757"]},"geometry":{"type":"Point","coordinates":[26.92188,38.60311]}},{"type":"Feature","properties":{"id":"bus-657-s21607","kind":"busstop","ref":"657","name":"Villakent Merkez","lines":["750","757"]},"geometry":{"type":"Point","coordinates":[26.91796,38.60475]}},{"type":"Feature","properties":{"id":"bus-657-s21609","kind":"busstop","ref":"657","name":"Şehit Astsubay Ümit İnce","lines":["750","757"]},"geometry":{"type":"Point","coordinates":[26.91624,38.60618]}},{"type":"Feature","properties":{"id":"bus-657-s21617","kind":"busstop","ref":"657","name":"Florya","lines":["750","757"]},"geometry":{"type":"Point","coordinates":[26.91363,38.60628]}},{"type":"Feature","properties":{"id":"bus-657-s24242","kind":"busstop","ref":"657","name":"Kırlangıç","lines":["750","757"]},"geometry":{"type":"Point","coordinates":[26.9123,38.60783]}},{"type":"Feature","properties":{"id":"bus-657-s21619","kind":"busstop","ref":"657","name":"Şahin","lines":["750","757"]},"geometry":{"type":"Point","coordinates":[26.91296,38.60873]}},{"type":"Feature","properties":{"id":"bus-657-s22565","kind":"busstop","ref":"657","name":"Maltepe Çiftlik","lines":["750","757"]},"geometry":{"type":"Point","coordinates":[26.91415,38.61162]}},{"type":"Feature","properties":{"id":"bus-657-s22563","kind":"busstop","ref":"657","name":"Maltepe Arıtma Tesisi","lines":["750","757"]},"geometry":{"type":"Point","coordinates":[26.91456,38.61599]}},{"type":"Feature","properties":{"id":"bus-657-s22567","kind":"busstop","ref":"657","name":"Maltepe Üçyol","lines":["750","757"]},"geometry":{"type":"Point","coordinates":[26.90728,38.62205]}},{"type":"Feature","properties":{"id":"bus-657-s21611","kind":"busstop","ref":"657","name":"Maltepe Giriş","lines":["750","757"]},"geometry":{"type":"Point","coordinates":[26.90792,38.62597]}},{"type":"Feature","properties":{"id":"bus-657-s21613","kind":"busstop","ref":"657","name":"Maltepe Ortaokulu","lines":["750","757"]},"geometry":{"type":"Point","coordinates":[26.9094,38.62949]}},{"type":"Feature","properties":{"id":"bus-657-s21789","kind":"busstop","ref":"657","name":"Maltepe Kubilay","lines":["750","756","757"]},"geometry":{"type":"Point","coordinates":[26.91075,38.6298]}},{"type":"Feature","properties":{"id":"bus-657-s21807","kind":"busstop","ref":"657","name":"Maltepe Köşe","lines":["750","756","757"]},"geometry":{"type":"Point","coordinates":[26.91273,38.62988]}},{"type":"Feature","properties":{"id":"bus-657-s21791","kind":"busstop","ref":"657","name":"Maltepe Son Durak","lines":["750","756","757"]},"geometry":{"type":"Point","coordinates":[26.9159,38.6311]}}]}