{"type":"FeatureCollection","features":[{"type":"Feature","properties":{"id":"bus-671-1","kind":"busline","ref":"671","dir":1},"geometry":{"type":"LineString","coordinates":[[27.1488,38.3906],[27.1488,38.3904],[27.1488,38.3908],[27.1485,38.3912],[27.1485,38.3916],[27.1487,38.3918],[27.1485,38.393],[27.1429,38.3934],[27.1414,38.3938],[27.141,38.3937],[27.1406,38.393],[27.1404,38.3921],[27.1407,38.3908],[27.1412,38.3901],[27.1426,38.387],[27.1433,38.3862],[27.1439,38.386],[27.1461,38.3845],[27.1473,38.3841],[27.1473,38.3834],[27.1467,38.3816],[27.1445,38.3764],[27.144,38.3766],[27.1416,38.3763],[27.1409,38.3772],[27.1407,38.3772],[27.1407,38.3774],[27.1372,38.3768],[27.1353,38.3768],[27.135,38.377],[27.135,38.3787],[27.1347,38.3787],[27.1347,38.377],[27.1341,38.3769],[27.1324,38.3775],[27.128,38.3786],[27.1257,38.3795],[27.1208,38.3827],[27.1206,38.383],[27.1203,38.383],[27.1185,38.3821],[27.1153,38.3809],[27.1133,38.3802],[27.1127,38.3802],[27.1125,38.3792],[27.1121,38.3787],[27.1106,38.3777],[27.1093,38.3771],[27.1079,38.3769],[27.1074,38.3766],[27.1067,38.3773],[27.1051,38.3782],[27.105,38.3786],[27.1048,38.3786],[27.1043,38.3779],[27.1034,38.3759],[27.1026,38.3757],[27.1026,38.375],[27.1021,38.3743],[27.0975,38.371],[27.0952,38.3679],[27.0945,38.3678],[27.0924,38.3664],[27.0918,38.3662],[27.0915,38.3659],[27.0913,38.3648],[27.0908,38.3641],[27.0898,38.3635],[27.0894,38.3629],[27.0876,38.362],[27.087,38.362],[27.0863,38.3624],[27.0854,38.3622],[27.0837,38.3622],[27.0829,38.3618],[27.0828,38.3612],[27.0825,38.3611],[27.0816,38.3621],[27.081,38.3633],[27.08,38.3672],[27.0794,38.3688],[27.0783,38.3708],[27.0765,38.3736],[27.0736,38.377],[27.0732,38.3778],[27.0723,38.3817],[27.0718,38.3829],[27.0705,38.3844],[27.0664,38.3871],[27.0646,38.3889],[27.0635,38.391],[27.0631,38.3928],[27.063,38.3963],[27.0635,38.3977],[27.0639,38.3982],[27.0659,38.3996],[27.07,38.403],[27.0709,38.4033],[27.0722,38.4031],[27.0746,38.4015],[27.0773,38.4005],[27.0776,38.4002],[27.0773,38.3987],[27.0752,38.3986],[27.0693,38.3975],[27.0653,38.3973],[27.0651,38.3977],[27.0663,38.3988],[27.067,38.3983],[27.0663,38.3978],[27.066,38.398],[27.0661,38.3981]]}},{"type":"Feature","properties":{"id":"bus-671-2","kind":"busline","ref":"671","dir":2},"geometry":{"type":"LineString","coordinates":[[27.0661,38.3981],[27.0667,38.3985],[27.067,38.3983],[27.0662,38.3978],[27.0657,38.3983],[27.0663,38.3988],[27.0658,38.399],[27.0657,38.3986],[27.065,38.398],[27.0643,38.397],[27.0597,38.3964],[27.0591,38.3964],[27.0577,38.397],[27.0572,38.3976],[27.0573,38.3986],[27.0577,38.399],[27.059,38.3995],[27.0605,38.3993],[27.0618,38.3985],[27.0624,38.3976],[27.0628,38.3963],[27.0629,38.3928],[27.0631,38.3916],[27.064,38.3896],[27.0645,38.3888],[27.066,38.3872],[27.07,38.3845],[27.0715,38.3831],[27.0718,38.3826],[27.0731,38.3776],[27.074,38.376],[27.0779,38.371],[27.0793,38.3684],[27.0806,38.3638],[27.082,38.3611],[27.0819,38.3608],[27.0816,38.3608],[27.0809,38.3613],[27.0834,38.3619],[27.084,38.3622],[27.0854,38.3622],[27.0863,38.3624],[27.087,38.362],[27.0876,38.362],[27.0894,38.3629],[27.0898,38.3635],[27.0908,38.3641],[27.0913,38.3648],[27.0915,38.3659],[27.0918,38.3662],[27.0924,38.3664],[27.0945,38.3678],[27.0952,38.3679],[27.0975,38.371],[27.1021,38.3743],[27.1026,38.375],[27.1026,38.3757],[27.1034,38.3759],[27.1045,38.3781],[27.1049,38.3783],[27.1056,38.378],[27.1067,38.3773],[27.1072,38.3764],[27.1074,38.3764],[27.1079,38.3769],[27.1093,38.3771],[27.1106,38.3777],[27.1121,38.3787],[27.1128,38.3799],[27.1131,38.3801],[27.1199,38.3826],[27.1205,38.3827],[27.1213,38.3824],[27.1251,38.3796],[27.1263,38.3791],[27.1305,38.3778],[27.1322,38.3775],[27.1344,38.3767],[27.1371,38.3767],[27.1391,38.3771],[27.1409,38.3772],[27.1416,38.3763],[27.144,38.3766],[27.1445,38.3764],[27.1467,38.3816],[27.1474,38.3842],[27.1461,38.3845],[27.1434,38.3863],[27.1425,38.3872],[27.1412,38.3901],[27.1407,38.3908],[27.1404,38.3921],[27.1406,38.393],[27.141,38.3937],[27.1423,38.3934],[27.1472,38.3931],[27.1477,38.3906],[27.1484,38.3898],[27.1496,38.3891]]}},{"type":"Feature","properties":{"id":"bus-671-s41175","kind":"busstop","ref":"671","name":"Şirinyer Aktarma","lines":["74"]},"geometry":{"type":"Point","coordinates":[27.1488,38.3907]}},{"type":"Feature","properties":{"id":"bus-671-s40137","kind":"busstop","ref":"671","name":"Nato 1","lines":["105","171","233","417","484"]},"geometry":{"type":"Point","coordinates":[27.1406,38.3929]}},{"type":"Feature","properties":{"id":"bus-671-s40141","kind":"busstop","ref":"671","name":" Şirinyer Ertuğrul Gazi Anadolu Lisesi","lines":["105","171","233","417","484"]},"geometry":{"type":"Point","coordinates":[27.14174,38.38862]}},{"type":"Feature","properties":{"id":"bus-671-s40143","kind":"busstop","ref":"671","name":"Akıncılar Cami","lines":["105","171","233","417","484"]},"geometry":{"type":"Point","coordinates":[27.1436,38.386]}},{"type":"Feature","properties":{"id":"bus-671-s40145","kind":"busstop","ref":"671","name":"Akıncılar Merkez","lines":["105","171","233","417","484"]},"geometry":{"type":"Point","coordinates":[27.14599,38.38453]}},{"type":"Feature","properties":{"id":"bus-671-s40175","kind":"busstop","ref":"671","name":"İzban Koşu Durağı","lines":["105","171","233","417","484"]},"geometry":{"type":"Point","coordinates":[27.14717,38.38349]}},{"type":"Feature","properties":{"id":"bus-671-s40711","kind":"busstop","ref":"671","name":"Hat Boyu","lines":[]},"geometry":{"type":"Point","coordinates":[27.14544,38.37881]}},{"type":"Feature","properties":{"id":"bus-671-s40703","kind":"busstop","ref":"671","name":"Hat Boyu 2","lines":[]},"geometry":{"type":"Point","coordinates":[27.14355,38.37659]}},{"type":"Feature","properties":{"id":"bus-671-s40707","kind":"busstop","ref":"671","name":"Mobilyacılar","lines":[]},"geometry":{"type":"Point","coordinates":[27.13979,38.37729]}},{"type":"Feature","properties":{"id":"bus-671-s40705","kind":"busstop","ref":"671","name":"Ptt Karabağlar Dağıtım Toplama Merkezi","lines":[]},"geometry":{"type":"Point","coordinates":[27.13667,38.37682]}},{"type":"Feature","properties":{"id":"bus-671-s12623","kind":"busstop","ref":"671","name":"Kaymakkuyu 2","lines":[]},"geometry":{"type":"Point","coordinates":[27.1333,38.3773]}},{"type":"Feature","properties":{"id":"bus-671-s12629","kind":"busstop","ref":"671","name":"Bahar Yıldırım İlkokulu","lines":["556","879"]},"geometry":{"type":"Point","coordinates":[27.1295,38.3783]}},{"type":"Feature","properties":{"id":"bus-671-s12633","kind":"busstop","ref":"671","name":"2 Nolu Çağdaş Kahraman Sağlık Ocağı","lines":["556","879"]},"geometry":{"type":"Point","coordinates":[27.1273,38.379]}},{"type":"Feature","properties":{"id":"bus-671-s12639","kind":"busstop","ref":"671","name":"Hasan Ali Yücel Parkı","lines":["550","556","879"]},"geometry":{"type":"Point","coordinates":[27.1242,38.3805]}},{"type":"Feature","properties":{"id":"bus-671-s12641","kind":"busstop","ref":"671","name":"İlkkurşun Anadolu Lisesi","lines":["550","556","879"]},"geometry":{"type":"Point","coordinates":[27.1221,38.382]}},{"type":"Feature","properties":{"id":"bus-671-s12625","kind":"busstop","ref":"671","name":"Trafo","lines":["224","522","823"]},"geometry":{"type":"Point","coordinates":[27.118,38.3821]}},{"type":"Feature","properties":{"id":"bus-671-s12617","kind":"busstop","ref":"671","name":"Karanfil","lines":["224","522","823"]},"geometry":{"type":"Point","coordinates":[27.11612,38.38126]}},{"type":"Feature","properties":{"id":"bus-671-s12621","kind":"busstop","ref":"671","name":"Çamlık Yol Ayrımı","lines":["224","522","823"]},"geometry":{"type":"Point","coordinates":[27.11348,38.38033]}},{"type":"Feature","properties":{"id":"bus-671-s12215","kind":"busstop","ref":"671","name":"Kuyu","lines":["23","193","224","522","587","680","823"]},"geometry":{"type":"Point","coordinates":[27.1106,38.3778]}},{"type":"Feature","properties":{"id":"bus-671-s12509","kind":"busstop","ref":"671","name":"Yıkık Cami 2","lines":["193","522","523","587","680","877"]},"geometry":{"type":"Point","coordinates":[27.107,38.377]}},{"type":"Feature","properties":{"id":"bus-671-s12461","kind":"busstop","ref":"671","name":"Briketçi","lines":["193","522","524","877"]},"geometry":{"type":"Point","coordinates":[27.1045,38.3781]}},{"type":"Feature","properties":{"id":"bus-671-s12463","kind":"busstop","ref":"671","name":"Umut Mahallesi Köprü","lines":["193","522","524","877"]},"geometry":{"type":"Point","coordinates":[27.1037,38.3766]}},{"type":"Feature","properties":{"id":"bus-671-s12465","kind":"busstop","ref":"671","name":"Küçük Trafo","lines":["193","522","524","877"]},"geometry":{"type":"Point","coordinates":[27.10115,38.37374]}},{"type":"Feature","properties":{"id":"bus-671-s12467","kind":"busstop","ref":"671","name":"Çakırtepe","lines":["193","522","524","877"]},"geometry":{"type":"Point","coordinates":[27.0987,38.3719]}},{"type":"Feature","properties":{"id":"bus-671-s12469","kind":"busstop","ref":"671","name":"Ali Fuat Erden Mahallesi Muhtarlığı","lines":["193","517","522","524","877"]},"geometry":{"type":"Point","coordinates":[27.0962,38.3693]}},{"type":"Feature","properties":{"id":"bus-671-s12471","kind":"busstop","ref":"671","name":"Memiş Kahya","lines":["193","517","522","524","877"]},"geometry":{"type":"Point","coordinates":[27.0931,38.3669]}},{"type":"Feature","properties":{"id":"bus-671-s12473","kind":"busstop","ref":"671","name":"Güzel İzmir Cami","lines":["193","224","517","522","524"]},"geometry":{"type":"Point","coordinates":[27.0908,38.3642]}},{"type":"Feature","properties":{"id":"bus-671-s12475","kind":"busstop","ref":"671","name":"Toprak","lines":["193","224","517","522","524"]},"geometry":{"type":"Point","coordinates":[27.0879,38.3622]}},{"type":"Feature","properties":{"id":"bus-671-s10562","kind":"busstop","ref":"671","name":"Meşale","lines":["25","517","522","873","877"]},"geometry":{"type":"Point","coordinates":[27.0844,38.3623]}},{"type":"Feature","properties":{"id":"bus-671-s14500","kind":"busstop","ref":"671","name":"Moda","lines":["17","24","25","202","510","650","690","873","977"]},"geometry":{"type":"Point","coordinates":[27.07448,38.37604]}},{"type":"Feature","properties":{"id":"bus-671-s10199","kind":"busstop","ref":"671","name":"Adnan Saygun Sanat Merkezi","lines":["5","6","7","17","24","25","202","480","486","510","650","690","873","977"]},"geometry":{"type":"Point","coordinates":[27.07748,38.39979]}},{"type":"Feature","properties":{"id":"bus-671-s10177","kind":"busstop","ref":"671","name":"Hava Hastanesi","lines":["5","6","7","10","17","24","25","202","480","486","510","650","690","873","977"]},"geometry":{"type":"Point","coordinates":[27.0732,38.3982]}},{"type":"Feature","properties":{"id":"bus-671-s51826","kind":"busstop","ref":"671","name":"Fahrettin Altay Meydan 3","lines":["8","10","17","690","873","969"]},"geometry":{"type":"Point","coordinates":[27.06956,38.39767]}},{"type":"Feature","properties":{"id":"bus-671-s51921","kind":"busstop","ref":"671","name":"Fahrettin Altay Aktarma Merkezi","lines":[]},"geometry":{"type":"Point","coordinates":[27.06655,38.39849]}},{"type":"Feature","properties":{"id":"bus-671-s14501","kind":"busstop","ref":"671","name":"Moda","lines":["17","24","25","202","510","650","690","873","977"]},"geometry":{"type":"Point","coordinates":[27.0731,38.3769]}},{"type":"Feature","properties":{"id":"bus-671-s10561","kind":"busstop","ref":"671","name":"Meşale","lines":["25","517","522","873","877"]},"geometry":{"type":"Point","coordinates":[27.08477,38.36214]}},{"type":"Feature","properties":{"id":"bus-671-s12474","kind":"busstop","ref":"671","name":"Toprak","lines":["193","224","517","522","524"]},"geometry":{"type":"Point","coordinates":[27.088,38.3621]}},{"type":"Feature","properties":{"id":"bus-671-s12472","kind":"busstop","ref":"671","name":"Güzel İzmir Cami","lines":["193","224","517","522","524"]},"geometry":{"type":"Point","coordinates":[27.0908,38.3641]}},{"type":"Feature","properties":{"id":"bus-671-s12470","kind":"busstop","ref":"671","name":"Memiş Kahya","lines":["193","517","522","524","877"]},"geometry":{"type":"Point","coordinates":[27.0929,38.3667]}},{"type":"Feature","properties":{"id":"bus-671-s12468","kind":"busstop","ref":"671","name":"Ali Fuat Erden Mahallesi Muhtarlığı","lines":["193","522","524","877"]},"geometry":{"type":"Point","coordinates":[27.09634,38.36929]}},{"type":"Feature","properties":{"id":"bus-671-s12466","kind":"busstop","ref":"671","name":"Çakırtepe","lines":["193","522","524","877"]},"geometry":{"type":"Point","coordinates":[27.0987,38.3718]}},{"type":"Feature","properties":{"id":"bus-671-s12464","kind":"busstop","ref":"671","name":"Küçük Trafo","lines":["193","522","524","877"]},"geometry":{"type":"Point","coordinates":[27.1011,38.3736]}},{"type":"Feature","properties":{"id":"bus-671-s12462","kind":"busstop","ref":"671","name":"Umut Mahallesi Köprü","lines":["193","522","524","877"]},"geometry":{"type":"Point","coordinates":[27.10373,38.37655]}},{"type":"Feature","properties":{"id":"bus-671-s12460","kind":"busstop","ref":"671","name":"Briketçi","lines":["193","522","524","877"]},"geometry":{"type":"Point","coordinates":[27.10474,38.37816]}},{"type":"Feature","properties":{"id":"bus-671-s12508","kind":"busstop","ref":"671","name":"Yıkık Cami 2","lines":["193","522","523","587","680","877"]},"geometry":{"type":"Point","coordinates":[27.1069,38.3769]}},{"type":"Feature","properties":{"id":"bus-671-s12216","kind":"busstop","ref":"671","name":"Kuyu","lines":["23","193","224","522","587","680","823"]},"geometry":{"type":"Point","coordinates":[27.11087,38.3779]}},{"type":"Feature","properties":{"id":"bus-671-s12620","kind":"busstop","ref":"671","name":"Çamlık Yol Ayrımı","lines":["224","522","588","823"]},"geometry":{"type":"Point","coordinates":[27.1139,38.3803]}},{"type":"Feature","properties":{"id":"bus-671-s12618","kind":"busstop","ref":"671","name":"Karanfil","lines":["224","522","823"]},"geometry":{"type":"Point","coordinates":[27.11625,38.38111]}},{"type":"Feature","properties":{"id":"bus-671-s12624","kind":"busstop","ref":"671","name":"Trafo","lines":["522","823"]},"geometry":{"type":"Point","coordinates":[27.1191,38.38214]}},{"type":"Feature","properties":{"id":"bus-671-s12642","kind":"busstop","ref":"671","name":"İlkkurşun Anadolu Lisesi","lines":["550","556","879"]},"geometry":{"type":"Point","coordinates":[27.1218,38.3819]}},{"type":"Feature","properties":{"id":"bus-671-s12638","kind":"busstop","ref":"671","name":"Hasan Ali Yücel Parkı","lines":["550","556","879"]},"geometry":{"type":"Point","coordinates":[27.12417,38.38028]}},{"type":"Feature","properties":{"id":"bus-671-s12634","kind":"busstop","ref":"671","name":"2 Nolu Çağdaş Kahraman Sağlık Ocağı","lines":["556","879"]},"geometry":{"type":"Point","coordinates":[27.12753,38.37862]}},{"type":"Feature","properties":{"id":"bus-671-s12630","kind":"busstop","ref":"671","name":"Bahar Yıldırım İlkokulu","lines":["556","879"]},"geometry":{"type":"Point","coordinates":[27.1301,38.3779]}},{"type":"Feature","properties":{"id":"bus-671-s12622","kind":"busstop","ref":"671","name":"Kaymakkuyu 2","lines":["156","157"]},"geometry":{"type":"Point","coordinates":[27.1334,38.377]}},{"type":"Feature","properties":{"id":"bus-671-s40702","kind":"busstop","ref":"671","name":"Ptt Karabağlar Dağıtım Toplama Merkezi","lines":[]},"geometry":{"type":"Point","coordinates":[27.13626,38.37667]}},{"type":"Feature","properties":{"id":"bus-671-s40706","kind":"busstop","ref":"671","name":"Mobilyacılar","lines":[]},"geometry":{"type":"Point","coordinates":[27.1393,38.3771]}},{"type":"Feature","properties":{"id":"bus-671-s40704","kind":"busstop","ref":"671","name":"Hat Boyu 2","lines":[]},"geometry":{"type":"Point","coordinates":[27.14384,38.3765]}},{"type":"Feature","properties":{"id":"bus-671-s40710","kind":"busstop","ref":"671","name":"Hat Boyu","lines":[]},"geometry":{"type":"Point","coordinates":[27.14544,38.37857]}},{"type":"Feature","properties":{"id":"bus-671-s40176","kind":"busstop","ref":"671","name":"İzban Koşu Durağı","lines":["105","171","233","417","484"]},"geometry":{"type":"Point","coordinates":[27.1474,38.3836]}},{"type":"Feature","properties":{"id":"bus-671-s40146","kind":"busstop","ref":"671","name":"Akıncılar Merkez","lines":["105","171","233","417","484"]},"geometry":{"type":"Point","coordinates":[27.1458,38.3847]}},{"type":"Feature","properties":{"id":"bus-671-s40142","kind":"busstop","ref":"671","name":"Akıncılar Cami","lines":["105","171","233","417","484"]},"geometry":{"type":"Point","coordinates":[27.1431,38.3867]}},{"type":"Feature","properties":{"id":"bus-671-s40140","kind":"busstop","ref":"671","name":"Şirinyer Ertuğrul Gazi Anadolu Lisesi","lines":["105","171","233","417","484"]},"geometry":{"type":"Point","coordinates":[27.14192,38.3887]}},{"type":"Feature","properties":{"id":"bus-671-s40138","kind":"busstop","ref":"671","name":"Nato 1","lines":["105","171","233","417","484"]},"geometry":{"type":"Point","coordinates":[27.1406,38.3927]}},{"type":"Feature","properties":{"id":"bus-671-s40001","kind":"busstop","ref":"671","name":"Nato","lines":["72","104","285","374","465","470","471","485","490","515","940"]},"geometry":{"type":"Point","coordinates":[27.1434,38.3933]}},{"type":"Feature","properties":{"id":"bus-671-s40153","kind":"busstop","ref":"671","name":"Şirinyer İstasyonu","lines":["36","74","206","418","441","466","476","536","676","805","818","838","866","871","874","875","876","878"]},"geometry":{"type":"Point","coordinates":[27.14743,38.39172]}},{"type":"Feature","properties":{"id":"bus-671-s40198","kind":"busstop","ref":"671","name":"Şirinyer Saha","lines":["36","74","418","441","465","471","472","476","536","676","805","818","838","866","871","874","875","876","878"]},"geometry":{"type":"Point","coordinates":[27.14911,38.3894]}}]}