{"type":"FeatureCollection","features":[{"type":"Feature","properties":{"id":"bus-675-1","kind":"busline","ref":"675","dir":1},"geometry":{"type":"LineString","coordinates":[[26.8501,38.2904],[26.8508,38.2915],[26.8514,38.293],[26.8548,38.3058],[26.8561,38.3098],[26.862,38.3206],[26.8627,38.3223],[26.8631,38.3304],[26.8633,38.3314],[26.8635,38.3384],[26.864,38.3431],[26.8689,38.3542],[26.8719,38.3588],[26.8725,38.36],[26.8732,38.3633],[26.8731,38.3641],[26.8735,38.3648],[26.8733,38.3651],[26.8719,38.365],[26.871,38.3656],[26.8702,38.3667],[26.8701,38.3672],[26.8706,38.3681],[26.8717,38.3687],[26.8737,38.3695],[26.8756,38.37],[26.8792,38.3704],[26.9057,38.3705],[26.9089,38.3707],[26.9122,38.3715],[26.914,38.3717],[26.9158,38.3716],[26.9205,38.3706],[26.9223,38.3706],[26.9246,38.3711],[26.9269,38.3723],[26.9277,38.373],[26.9286,38.3739],[26.9302,38.3763],[26.9317,38.3775],[26.933,38.3782],[26.9378,38.3796],[26.9404,38.3809],[26.9423,38.3826],[26.9434,38.3841],[26.9453,38.3861],[26.9475,38.3876],[26.9558,38.3909],[26.9644,38.393],[26.9728,38.3948],[26.9786,38.3955],[26.987,38.3962],[26.9969,38.3975],[26.9996,38.3977],[27.0051,38.3976],[27.0216,38.3958],[27.0266,38.3959],[27.0343,38.3965],[27.0437,38.3963],[27.0533,38.3958],[27.0621,38.3965],[27.0671,38.3972],[27.0693,38.3972],[27.0693,38.3975],[27.069,38.3975],[27.0643,38.397],[27.065,38.398],[27.0657,38.3986],[27.0658,38.399],[27.0661,38.399],[27.0666,38.3986],[27.0664,38.3984]]}},{"type":"Feature","properties":{"id":"bus-675-2","kind":"busline","ref":"675","dir":2},"geometry":{"type":"LineString","coordinates":[[27.0664,38.3984],[27.0666,38.3986],[27.0661,38.399],[27.0658,38.399],[27.0657,38.3986],[27.065,38.398],[27.0643,38.397],[27.0632,38.3968],[27.0591,38.3964],[27.0571,38.3972],[27.0565,38.3972],[27.0545,38.3964],[27.0524,38.3962],[27.0487,38.3962],[27.0381,38.3967],[27.0334,38.3967],[27.0254,38.396],[27.022,38.396],[27.0038,38.3979],[26.9994,38.3979],[26.9836,38.3961],[26.9772,38.3956],[26.9722,38.3949],[26.9672,38.3939],[26.9551,38.3909],[26.948,38.3881],[26.9463,38.3871],[26.9445,38.3857],[26.9416,38.3822],[26.9399,38.3808],[26.9374,38.3796],[26.9334,38.3786],[26.9321,38.378],[26.9301,38.3765],[26.9272,38.3728],[26.9251,38.3715],[26.9234,38.371],[26.9224,38.3708],[26.9202,38.3708],[26.9159,38.3718],[26.9132,38.3719],[26.9079,38.3708],[26.8795,38.3706],[26.8762,38.3703],[26.8727,38.3695],[26.8713,38.369],[26.8705,38.369],[26.8691,38.3694],[26.8686,38.3693],[26.8681,38.3687],[26.8683,38.3682],[26.8709,38.3656],[26.8718,38.3649],[26.8723,38.3648],[26.873,38.364],[26.873,38.3629],[26.8725,38.3607],[26.8718,38.3588],[26.8695,38.3555],[26.8683,38.3533],[26.8644,38.3447],[26.8635,38.3415],[26.8629,38.3273],[26.8625,38.3221],[26.8612,38.3194],[26.8568,38.3115],[26.8554,38.3084],[26.851,38.2922],[26.8497,38.2902]]}},{"type":"Feature","properties":{"id":"bus-675-s50414","kind":"busstop","ref":"675","name":"Çamtepe Eskicioğlu","lines":["975","983","985","987"]},"geometry":{"type":"Point","coordinates":[26.85001,38.29026]}},{"type":"Feature","properties":{"id":"bus-675-s50412","kind":"busstop","ref":"675","name":"Çamtepe Besicilik","lines":["975","983","985","987"]},"geometry":{"type":"Point","coordinates":[26.85221,38.29571]}},{"type":"Feature","properties":{"id":"bus-675-s50410","kind":"busstop","ref":"675","name":"Çamlı Solakoğlu","lines":["975","983","985","987"]},"geometry":{"type":"Point","coordinates":[26.8557,38.3084]}},{"type":"Feature","properties":{"id":"bus-675-s50408","kind":"busstop","ref":"675","name":"Çamlı Merkez","lines":["762","975","983","985","987"]},"geometry":{"type":"Point","coordinates":[26.85891,38.31484]}},{"type":"Feature","properties":{"id":"bus-675-s50406","kind":"busstop","ref":"675","name":"Çamlı Papatya","lines":["321","762","975","983","985","987"]},"geometry":{"type":"Point","coordinates":[26.8604,38.31747]}},{"type":"Feature","properties":{"id":"bus-675-s50404","kind":"busstop","ref":"675","name":"Çamlı Villaları","lines":["321","762","975","983","985","987"]},"geometry":{"type":"Point","coordinates":[26.8628,38.3231]}},{"type":"Feature","properties":{"id":"bus-675-s51941","kind":"busstop","ref":"675","name":"Mermerci","lines":["321","762","975","983","985","987"]},"geometry":{"type":"Point","coordinates":[26.863,38.32614]}},{"type":"Feature","properties":{"id":"bus-675-s50402","kind":"busstop","ref":"675","name":"Yelki Villakent","lines":["321","762","975","983","985","987"]},"geometry":{"type":"Point","coordinates":[26.86338,38.33126]}},{"type":"Feature","properties":{"id":"bus-675-s50400","kind":"busstop","ref":"675","name":"Kent Koleji","lines":["975","983","985","987"]},"geometry":{"type":"Point","coordinates":[26.8634,38.3336]}},{"type":"Feature","properties":{"id":"bus-675-s50398","kind":"busstop","ref":"675","name":"Market","lines":["975","985","987"]},"geometry":{"type":"Point","coordinates":[26.8635,38.33647]}},{"type":"Feature","properties":{"id":"bus-675-s50396","kind":"busstop","ref":"675","name":"Yelki","lines":["975","985","987"]},"geometry":{"type":"Point","coordinates":[26.8639,38.3419]}},{"type":"Feature","properties":{"id":"bus-675-s50378","kind":"busstop","ref":"675","name":"Necdet Tokatlıoğlu","lines":["9","321","962","975","983","985","987"]},"geometry":{"type":"Point","coordinates":[26.86538,38.34623]}},{"type":"Feature","properties":{"id":"bus-675-s50394","kind":"busstop","ref":"675","name":"Çardak Kahve","lines":["9","321","962","975","983","985","987"]},"geometry":{"type":"Point","coordinates":[26.8669,38.3496]}},{"type":"Feature","properties":{"id":"bus-675-s52439","kind":"busstop","ref":"675","name":"Florya ","lines":["9","321","962","975","983","985","987"]},"geometry":{"type":"Point","coordinates":[26.86807,38.35222]}},{"type":"Feature","properties":{"id":"bus-675-s50390","kind":"busstop","ref":"675","name":"Karaoğlu","lines":["9","321","962","975","983","985","987"]},"geometry":{"type":"Point","coordinates":[26.8689,38.3539]}},{"type":"Feature","properties":{"id":"bus-675-s50388","kind":"busstop","ref":"675","name":"Çiçek Mezatı","lines":["8","975","983","985","987"]},"geometry":{"type":"Point","coordinates":[26.87037,38.35635]}},{"type":"Feature","properties":{"id":"bus-675-s50386","kind":"busstop","ref":"675","name":"Benzin İstasyonu","lines":["8","975","983","985","987"]},"geometry":{"type":"Point","coordinates":[26.87272,38.36055]}},{"type":"Feature","properties":{"id":"bus-675-s50004","kind":"busstop","ref":"675","name":"Fahrettin Altay Meydan 9 ","lines":["5","6","7","10","24","25","82","167","202","305","311","321","480","510","551","650","684","883","909","945","946","971","975","977","981","982","983","984","985","987"]},"geometry":{"type":"Point","coordinates":[27.0686,38.3971]}},{"type":"Feature","properties":{"id":"bus-675-s51934","kind":"busstop","ref":"675","name":"Fahrettin Altay Aktarma Merkezi","lines":[]},"geometry":{"type":"Point","coordinates":[27.06618,38.39808]}},{"type":"Feature","properties":{"id":"bus-675-s50387","kind":"busstop","ref":"675","name":"Benzin İstasyonu","lines":["8","975","983","985","987"]},"geometry":{"type":"Point","coordinates":[26.8724,38.3608]}},{"type":"Feature","properties":{"id":"bus-675-s50389","kind":"busstop","ref":"675","name":"Çiçek Mezatı","lines":["975","983","985","987"]},"geometry":{"type":"Point","coordinates":[26.8697,38.3559]}},{"type":"Feature","properties":{"id":"bus-675-s50391","kind":"busstop","ref":"675","name":"Karaoğlu","lines":["9","321","962","975","983","985","987"]},"geometry":{"type":"Point","coordinates":[26.86857,38.35392]}},{"type":"Feature","properties":{"id":"bus-675-s52440","kind":"busstop","ref":"675","name":"Florya ","lines":["9","321","962","975","983","985","987"]},"geometry":{"type":"Point","coordinates":[26.86768,38.35203]}},{"type":"Feature","properties":{"id":"bus-675-s50393","kind":"busstop","ref":"675","name":"Çardak Kahve","lines":["9","321","962","975","983","985","987"]},"geometry":{"type":"Point","coordinates":[26.8665,38.34941]}},{"type":"Feature","properties":{"id":"bus-675-s50377","kind":"busstop","ref":"675","name":"Necdet Tokatlıoğlu","lines":["975","985","987"]},"geometry":{"type":"Point","coordinates":[26.86445,38.34493]}},{"type":"Feature","properties":{"id":"bus-675-s50395","kind":"busstop","ref":"675","name":"Yelki","lines":["975","985","987"]},"geometry":{"type":"Point","coordinates":[26.86352,38.34201]}},{"type":"Feature","properties":{"id":"bus-675-s50397","kind":"busstop","ref":"675","name":"Market","lines":["975","985","987"]},"geometry":{"type":"Point","coordinates":[26.86324,38.33639]}},{"type":"Feature","properties":{"id":"bus-675-s50399","kind":"busstop","ref":"675","name":"Kent Koleji","lines":["975","985","987"]},"geometry":{"type":"Point","coordinates":[26.86302,38.33268]}},{"type":"Feature","properties":{"id":"bus-675-s51942","kind":"busstop","ref":"675","name":"Mermerci","lines":["321","762","975","983","985","987"]},"geometry":{"type":"Point","coordinates":[26.86272,38.32631]}},{"type":"Feature","properties":{"id":"bus-675-s50403","kind":"busstop","ref":"675","name":"Çamlı Villaları","lines":["321","762","975","983","985","987"]},"geometry":{"type":"Point","coordinates":[26.8626,38.3234]}},{"type":"Feature","properties":{"id":"bus-675-s50405","kind":"busstop","ref":"675","name":"Çamlı Papatya","lines":["321","762","975","983","985","987"]},"geometry":{"type":"Point","coordinates":[26.8599,38.3173]}},{"type":"Feature","properties":{"id":"bus-675-s50407","kind":"busstop","ref":"675","name":"Çamlı Merkez","lines":["321","762","975","983","985","987"]},"geometry":{"type":"Point","coordinates":[26.8584,38.3145]}},{"type":"Feature","properties":{"id":"bus-675-s50409","kind":"busstop","ref":"675","name":"Çamlı Solakoğlu","lines":["975","983","985","987"]},"geometry":{"type":"Point","coordinates":[26.8549,38.3067]}},{"type":"Feature","properties":{"id":"bus-675-s50411","kind":"busstop","ref":"675","name":"Çamtepe Besicilik","lines":["975","983","985","987"]},"geometry":{"type":"Point","coordinates":[26.8519,38.2957]}}]}