{"type":"FeatureCollection","features":[{"type":"Feature","properties":{"id":"bus-676-1","kind":"busline","ref":"676","dir":1},"geometry":{"type":"LineString","coordinates":[[27.2108,38.3686],[27.2125,38.3681],[27.1971,38.373],[27.1947,38.3721],[27.1944,38.3725],[27.1942,38.3724],[27.1948,38.3717],[27.195,38.3707],[27.1957,38.3695],[27.1968,38.3683],[27.1965,38.3681],[27.1965,38.3675],[27.1959,38.3667],[27.1943,38.3667],[27.1933,38.3672],[27.1926,38.3678],[27.192,38.3677],[27.1907,38.3668],[27.189,38.3677],[27.1875,38.3679],[27.1825,38.3676],[27.1817,38.3682],[27.1746,38.3682],[27.1733,38.368],[27.1735,38.3693],[27.1734,38.3706],[27.176,38.3706],[27.1786,38.3702],[27.1782,38.3721],[27.1782,38.3745],[27.1779,38.3752],[27.1765,38.3769],[27.1761,38.3778],[27.1764,38.3796],[27.1763,38.382],[27.1765,38.382],[27.1765,38.3822],[27.1717,38.383],[27.1688,38.3837],[27.1688,38.384],[27.1711,38.3863],[27.1722,38.3872],[27.1736,38.388],[27.1735,38.3881],[27.1714,38.3888],[27.1695,38.3891],[27.1664,38.39],[27.1524,38.3919],[27.1495,38.3929],[27.1489,38.3934],[27.1472,38.3931],[27.1477,38.3906],[27.1484,38.3898],[27.1496,38.3891]]}},{"type":"Feature","properties":{"id":"bus-676-2","kind":"busline","ref":"676","dir":2},"geometry":{"type":"LineString","coordinates":[[27.1488,38.3904],[27.1488,38.3902],[27.1488,38.3908],[27.1485,38.3912],[27.1485,38.3916],[27.1487,38.3918],[27.1485,38.393],[27.1523,38.3919],[27.1669,38.3899],[27.1695,38.3891],[27.1714,38.3888],[27.1732,38.388],[27.1733,38.3879],[27.1711,38.3863],[27.1682,38.3833],[27.1684,38.3832],[27.1696,38.3835],[27.1738,38.3826],[27.1756,38.3824],[27.1763,38.382],[27.1746,38.3798],[27.1735,38.3792],[27.1762,38.3785],[27.1761,38.3778],[27.1763,38.3773],[27.1779,38.3752],[27.1782,38.3745],[27.1781,38.3728],[27.1786,38.3702],[27.176,38.3706],[27.1734,38.3706],[27.1735,38.3693],[27.1733,38.368],[27.1746,38.3682],[27.1817,38.3682],[27.1825,38.3676],[27.1862,38.3678],[27.1871,38.3678],[27.1874,38.3676],[27.1875,38.3678],[27.1887,38.3678],[27.1907,38.3668],[27.192,38.3677],[27.1926,38.3678],[27.1933,38.3672],[27.1943,38.3667],[27.1959,38.3667],[27.1965,38.3675],[27.1965,38.3681],[27.1958,38.3679],[27.1939,38.3681],[27.1927,38.3716],[27.1932,38.3722],[27.1944,38.3723],[27.1948,38.3717],[27.195,38.3707],[27.1954,38.3702],[27.1957,38.3704],[27.1948,38.372],[27.1971,38.3729],[27.2052,38.3702],[27.2054,38.37],[27.2057,38.3701],[27.2125,38.3681],[27.2113,38.3684]]}},{"type":"Feature","properties":{"id":"bus-676-s40894","kind":"busstop","ref":"676","name":"Tınaztepe Yerleşke Son Durak","lines":["213","290","304","353","390","412","470","471","472","490","515","690","878"]},"geometry":{"type":"Point","coordinates":[27.21081,38.36865]}},{"type":"Feature","properties":{"id":"bus-676-s40128","kind":"busstop","ref":"676","name":"Mühendislik Fakültesi","lines":["171","213","277","290","304","353","390","412","465","470","471","472","476","490","515","690","878"]},"geometry":{"type":"Point","coordinates":[27.2079,38.3696]}},{"type":"Feature","properties":{"id":"bus-676-s40892","kind":"busstop","ref":"676","name":"Kütüphane","lines":["171","277","304","353","412","465","470","471","472","476","490","515","878"]},"geometry":{"type":"Point","coordinates":[27.2028,38.3712]}},{"type":"Feature","properties":{"id":"bus-676-s40890","kind":"busstop","ref":"676","name":"Spor Salonu","lines":["171","277","304","353","412","465","470","471","472","476","490","515","878"]},"geometry":{"type":"Point","coordinates":[27.19967,38.37223]}},{"type":"Feature","properties":{"id":"bus-676-s40085","kind":"busstop","ref":"676","name":"Beş Selviler","lines":["171","174","175","176","177","206","277","304","353","465","470","471","472","476","490","515","536","878"]},"geometry":{"type":"Point","coordinates":[27.19377,38.37286]}},{"type":"Feature","properties":{"id":"bus-676-s40087","kind":"busstop","ref":"676","name":"Buca Belediye Şantiye","lines":["171","174","175","176","177","206","277","536"]},"geometry":{"type":"Point","coordinates":[27.19621,38.36889]}},{"type":"Feature","properties":{"id":"bus-676-s40877","kind":"busstop","ref":"676","name":"Eski Son Durak","lines":["171","476"]},"geometry":{"type":"Point","coordinates":[27.1964,38.3677]}},{"type":"Feature","properties":{"id":"bus-676-s40879","kind":"busstop","ref":"676","name":"Kahve","lines":["171","476"]},"geometry":{"type":"Point","coordinates":[27.1941,38.3668]}},{"type":"Feature","properties":{"id":"bus-676-s40867","kind":"busstop","ref":"676","name":"Şafak","lines":["171","476"]},"geometry":{"type":"Point","coordinates":[27.19241,38.36787]}},{"type":"Feature","properties":{"id":"bus-676-s40854","kind":"busstop","ref":"676","name":"Emek","lines":["171","476"]},"geometry":{"type":"Point","coordinates":[27.19,38.3672]}},{"type":"Feature","properties":{"id":"bus-676-s40852","kind":"busstop","ref":"676","name":"Buca Kooperatif Meydan","lines":["171","417","476"]},"geometry":{"type":"Point","coordinates":[27.1875,38.3678]}},{"type":"Feature","properties":{"id":"bus-676-s40850","kind":"busstop","ref":"676","name":"Şehit Astsubay Ümit Başaran İlkokulu","lines":["171","417","476"]},"geometry":{"type":"Point","coordinates":[27.18516,38.36776]}},{"type":"Feature","properties":{"id":"bus-676-s40838","kind":"busstop","ref":"676","name":"Zeytinlik","lines":["171","417","476"]},"geometry":{"type":"Point","coordinates":[27.1817,38.3682]}},{"type":"Feature","properties":{"id":"bus-676-s40836","kind":"busstop","ref":"676","name":"Sıraevler","lines":["171","417","476"]},"geometry":{"type":"Point","coordinates":[27.18048,38.36825]}},{"type":"Feature","properties":{"id":"bus-676-s40825","kind":"busstop","ref":"676","name":"Akmeşe","lines":["171","417","476"]},"geometry":{"type":"Point","coordinates":[27.1773,38.3682]}},{"type":"Feature","properties":{"id":"bus-676-s40822","kind":"busstop","ref":"676","name":"Cumhuriyet Sitesi","lines":["171","417","476"]},"geometry":{"type":"Point","coordinates":[27.1745,38.3682]}},{"type":"Feature","properties":{"id":"bus-676-s41154","kind":"busstop","ref":"676","name":"Dilek","lines":["171","417","476"]},"geometry":{"type":"Point","coordinates":[27.17356,38.37001]}},{"type":"Feature","properties":{"id":"bus-676-s41152","kind":"busstop","ref":"676","name":"Ömer Bilmen Cami","lines":["476"]},"geometry":{"type":"Point","coordinates":[27.17482,38.37062]}},{"type":"Feature","properties":{"id":"bus-676-s41150","kind":"busstop","ref":"676","name":"Sevgi Ferit Akın İlköğretim Okulu","lines":["476"]},"geometry":{"type":"Point","coordinates":[27.1772,38.3703]}},{"type":"Feature","properties":{"id":"bus-676-s40782","kind":"busstop","ref":"676","name":"Yıldız","lines":["471"]},"geometry":{"type":"Point","coordinates":[27.1783,38.3725]}},{"type":"Feature","properties":{"id":"bus-676-s40780","kind":"busstop","ref":"676","name":"Eylül","lines":["471"]},"geometry":{"type":"Point","coordinates":[27.1783,38.3742]}},{"type":"Feature","properties":{"id":"bus-676-s40778","kind":"busstop","ref":"676","name":"Köşe","lines":["471"]},"geometry":{"type":"Point","coordinates":[27.1768,38.3765]}},{"type":"Feature","properties":{"id":"bus-676-s40742","kind":"busstop","ref":"676","name":"Buca Üçkuyular Meydan","lines":["104","304","465","470","471","476","490","805","866","878","940"]},"geometry":{"type":"Point","coordinates":[27.17594,38.38236]}},{"type":"Feature","properties":{"id":"bus-676-s40738","kind":"busstop","ref":"676","name":"Buca Sağlık Ocağı","lines":["104","206","304","353","465","470","471","472","476","490","515","536","805","866","878","940"]},"geometry":{"type":"Point","coordinates":[27.17252,38.38291]}},{"type":"Feature","properties":{"id":"bus-676-s40040","kind":"busstop","ref":"676","name":"Buca Devlet Hastanesi","lines":["206","515","805"]},"geometry":{"type":"Point","coordinates":[27.1691,38.3842]}},{"type":"Feature","properties":{"id":"bus-676-s40036","kind":"busstop","ref":"676","name":"Dokuz Eylül Eğitim Fakültesi","lines":["104","206","304","476","490","515","536","805","940"]},"geometry":{"type":"Point","coordinates":[27.1704,38.3856]}},{"type":"Feature","properties":{"id":"bus-676-s40022","kind":"busstop","ref":"676","name":"Buca Sosyal Güvenlik Kurumu","lines":["104","303","304","470","476","490","515","805","940"]},"geometry":{"type":"Point","coordinates":[27.1712,38.3889]}},{"type":"Feature","properties":{"id":"bus-676-s40018","kind":"busstop","ref":"676","name":"Öğretmen Evleri","lines":["104","206","303","304","470","476","490","515","536","805","940"]},"geometry":{"type":"Point","coordinates":[27.1661,38.39006]}},{"type":"Feature","properties":{"id":"bus-676-s40016","kind":"busstop","ref":"676","name":"Buca Belediye Sarayı","lines":["104","206","285","303","304","374","470","476","490","515","536","805","874","875","876","940"]},"geometry":{"type":"Point","coordinates":[27.1634,38.3905]}},{"type":"Feature","properties":{"id":"bus-676-s40014","kind":"busstop","ref":"676","name":"Buca Vergi Dairesi","lines":["104","206","285","303","304","374","470","476","490","515","536","805","874","875","876","940"]},"geometry":{"type":"Point","coordinates":[27.1604,38.3909]}},{"type":"Feature","properties":{"id":"bus-676-s40012","kind":"busstop","ref":"676","name":"Yeni Mahalle","lines":["104","206","285","303","304","374","470","476","490","515","536","805","874","875","876","940"]},"geometry":{"type":"Point","coordinates":[27.1571,38.3913]}},{"type":"Feature","properties":{"id":"bus-676-s40010","kind":"busstop","ref":"676","name":"Şirinyer PTT","lines":["72","104","206","285","303","304","374","441","470","472","476","490","515","536","805","871","874","875","876","940"]},"geometry":{"type":"Point","coordinates":[27.1534,38.3918]}},{"type":"Feature","properties":{"id":"bus-676-s40153","kind":"busstop","ref":"676","name":"Şirinyer İstasyonu","lines":["36","74","206","418","441","466","476","536","671","805","818","838","866","871","874","875","876","878"]},"geometry":{"type":"Point","coordinates":[27.14743,38.39172]}},{"type":"Feature","properties":{"id":"bus-676-s40198","kind":"busstop","ref":"676","name":"Şirinyer Saha","lines":["36","74","418","441","465","471","472","476","536","671","805","818","838","866","871","874","875","876","878"]},"geometry":{"type":"Point","coordinates":[27.14911,38.3894]}},{"type":"Feature","properties":{"id":"bus-676-s41173","kind":"busstop","ref":"676","name":"Şirinyer Aktarma","lines":["476","805","866"]},"geometry":{"type":"Point","coordinates":[27.14883,38.39038]}},{"type":"Feature","properties":{"id":"bus-676-s40009","kind":"busstop","ref":"676","name":"Şirinyer Pazar Yeri","lines":["72","74","206","285","303","304","374","441","472","476","485","536","805","838","866","871","874","875","876"]},"geometry":{"type":"Point","coordinates":[27.1499,38.3926]}},{"type":"Feature","properties":{"id":"bus-676-s40011","kind":"busstop","ref":"676","name":"Yeni Mahalle","lines":["104","206","285","303","304","374","470","476","490","515","536","805","874","875","876","940"]},"geometry":{"type":"Point","coordinates":[27.1564,38.3913]}},{"type":"Feature","properties":{"id":"bus-676-s40013","kind":"busstop","ref":"676","name":"Buca Vergi Dairesi","lines":["104","206","285","303","304","374","470","476","490","515","536","805","874","875","876","940"]},"geometry":{"type":"Point","coordinates":[27.1594,38.3909]}},{"type":"Feature","properties":{"id":"bus-676-s40015","kind":"busstop","ref":"676","name":"Buca Belediye Sarayı","lines":["104","206","285","303","304","374","470","476","490","515","536","805","874","875","876","940"]},"geometry":{"type":"Point","coordinates":[27.163,38.3904]}},{"type":"Feature","properties":{"id":"bus-676-s40019","kind":"busstop","ref":"676","name":"İzmir Meslek Yüksek Okulu","lines":["104","206","303","304","470","476","490","515","536","805","940"]},"geometry":{"type":"Point","coordinates":[27.1684,38.3893]}},{"type":"Feature","properties":{"id":"bus-676-s40025","kind":"busstop","ref":"676","name":"Buca Heykel","lines":["104","206","303","304","470","476","490","515","536","805","940"]},"geometry":{"type":"Point","coordinates":[27.1727,38.3882]}},{"type":"Feature","properties":{"id":"bus-676-s40035","kind":"busstop","ref":"676","name":"Dokuz Eylül Eğitim Fakültesi","lines":["104","206","304","470","476","515","536","805","940"]},"geometry":{"type":"Point","coordinates":[27.1708,38.3861]}},{"type":"Feature","properties":{"id":"bus-676-s40037","kind":"busstop","ref":"676","name":"Buca Devlet Hastanesi","lines":["104","206","304","470","476","490","515","536","805","940"]},"geometry":{"type":"Point","coordinates":[27.169,38.3843]}},{"type":"Feature","properties":{"id":"bus-676-s40737","kind":"busstop","ref":"676","name":"Buca Sağlık Ocağı","lines":["104","206","304","353","465","470","471","472","476","490","515","536","805","866","878","940"]},"geometry":{"type":"Point","coordinates":[27.1728,38.3828]}},{"type":"Feature","properties":{"id":"bus-676-s40739","kind":"busstop","ref":"676","name":"Buca Üçkuyular Meydan","lines":["104","304","465","470","471","472","476","490","515","536","805","866","878","940"]},"geometry":{"type":"Point","coordinates":[27.1758,38.3823]}},{"type":"Feature","properties":{"id":"bus-676-s40251","kind":"busstop","ref":"676","name":"Eski Sinema 2","lines":["465","471","476","805"]},"geometry":{"type":"Point","coordinates":[27.17499,38.38031]}},{"type":"Feature","properties":{"id":"bus-676-s40252","kind":"busstop","ref":"676","name":"Eski Sinema","lines":["465","471","476","805"]},"geometry":{"type":"Point","coordinates":[27.17467,38.37884]}},{"type":"Feature","properties":{"id":"bus-676-s40779","kind":"busstop","ref":"676","name":"Köşe","lines":["471"]},"geometry":{"type":"Point","coordinates":[27.1769,38.3762]}},{"type":"Feature","properties":{"id":"bus-676-s40781","kind":"busstop","ref":"676","name":"Eylül","lines":["471"]},"geometry":{"type":"Point","coordinates":[27.1781,38.3738]}},{"type":"Feature","properties":{"id":"bus-676-s40783","kind":"busstop","ref":"676","name":"Yıldız","lines":["471"]},"geometry":{"type":"Point","coordinates":[27.1781,38.3725]}},{"type":"Feature","properties":{"id":"bus-676-s41151","kind":"busstop","ref":"676","name":"Sevgi Ferit Akın İlköğretim Okulu","lines":["476"]},"geometry":{"type":"Point","coordinates":[27.17778,38.37039]}},{"type":"Feature","properties":{"id":"bus-676-s41153","kind":"busstop","ref":"676","name":"Ömer Bilmen Cami","lines":["476"]},"geometry":{"type":"Point","coordinates":[27.1749,38.3708]}},{"type":"Feature","properties":{"id":"bus-676-s41155","kind":"busstop","ref":"676","name":"Dilek","lines":["171","417","476"]},"geometry":{"type":"Point","coordinates":[27.1734,38.36956]}},{"type":"Feature","properties":{"id":"bus-676-s40827","kind":"busstop","ref":"676","name":"Cumhuriyet Sitesi","lines":["171","417","476"]},"geometry":{"type":"Point","coordinates":[27.17493,38.36812]}},{"type":"Feature","properties":{"id":"bus-676-s40824","kind":"busstop","ref":"676","name":"Akmeşe","lines":["171","417","476"]},"geometry":{"type":"Point","coordinates":[27.1784,38.36805]}},{"type":"Feature","properties":{"id":"bus-676-s40839","kind":"busstop","ref":"676","name":"Zeytinlik","lines":["171","417","476"]},"geometry":{"type":"Point","coordinates":[27.18178,38.36816]}},{"type":"Feature","properties":{"id":"bus-676-s40849","kind":"busstop","ref":"676","name":"Şehit Astsubay Ümit Başaran İlkokulu","lines":["171","417","476"]},"geometry":{"type":"Point","coordinates":[27.1853,38.3677]}},{"type":"Feature","properties":{"id":"bus-676-s40851","kind":"busstop","ref":"676","name":"Buca Kooperatif Meydan","lines":["171","417","476"]},"geometry":{"type":"Point","coordinates":[27.1876,38.3678]}},{"type":"Feature","properties":{"id":"bus-676-s40853","kind":"busstop","ref":"676","name":"Emek","lines":["171","476"]},"geometry":{"type":"Point","coordinates":[27.18996,38.36717]}},{"type":"Feature","properties":{"id":"bus-676-s40870","kind":"busstop","ref":"676","name":"Şafak","lines":["171","476"]},"geometry":{"type":"Point","coordinates":[27.19263,38.36766]}},{"type":"Feature","properties":{"id":"bus-676-s40880","kind":"busstop","ref":"676","name":"Kahve","lines":["171","476"]},"geometry":{"type":"Point","coordinates":[27.1942,38.3667]}},{"type":"Feature","properties":{"id":"bus-676-s40878","kind":"busstop","ref":"676","name":"Eski Son Durak","lines":["171","476"]},"geometry":{"type":"Point","coordinates":[27.1965,38.368]}},{"type":"Feature","properties":{"id":"bus-676-s40881","kind":"busstop","ref":"676","name":"Aybers Hikmet Karabacak Anadolu Lisesi","lines":["171","476"]},"geometry":{"type":"Point","coordinates":[27.1939,38.3683]}},{"type":"Feature","properties":{"id":"bus-676-s40866","kind":"busstop","ref":"676","name":"Kuruçeşme","lines":["171","476"]},"geometry":{"type":"Point","coordinates":[27.1931,38.3721]}},{"type":"Feature","properties":{"id":"bus-676-s40889","kind":"busstop","ref":"676","name":"Spor Salonu","lines":["171","277","304","353","412","465","470","471","472","476","490","515","878"]},"geometry":{"type":"Point","coordinates":[27.19977,38.37195]}},{"type":"Feature","properties":{"id":"bus-676-s40891","kind":"busstop","ref":"676","name":"Kütüphane","lines":["171","277","304","353","412","465","470","471","472","476","490","515","878"]},"geometry":{"type":"Point","coordinates":[27.2028,38.371]}},{"type":"Feature","properties":{"id":"bus-676-s40127","kind":"busstop","ref":"676","name":"Mühendislik Fakültesi","lines":["171","277","290","304","353","390","412","465","470","471","472","476","490","515","690","878"]},"geometry":{"type":"Point","coordinates":[27.208,38.3693]}},{"type":"Feature","properties":{"id":"bus-676-s41336","kind":"busstop","ref":"676","name":"Tınaztepe Yerleşke Son Durak","lines":["171","277","290","304","353","390","465","471","472","476","490","515","690"]},"geometry":{"type":"Point","coordinates":[27.21055,38.36849]}},{"type":"Feature","properties":{"id":"bus-676-s41416","kind":"busstop","ref":"676","name":"Tınaztepe Yerleşke Son Durak","lines":["171","277","465","476"]},"geometry":{"type":"Point","coordinates":[27.21132,38.36843]}}]}