{"type":"FeatureCollection","features":[{"type":"Feature","properties":{"id":"bus-680-1","kind":"busline","ref":"680","dir":1},"geometry":{"type":"LineString","coordinates":[[27.104,38.3863],[27.1039,38.3862],[27.1043,38.3863],[27.1037,38.3869],[27.1012,38.3866],[27.1012,38.3864],[27.1029,38.3852],[27.1044,38.3838],[27.1046,38.3833],[27.1046,38.3821],[27.1042,38.3804],[27.1043,38.3792],[27.1048,38.3783],[27.1067,38.3773],[27.1072,38.3764],[27.1074,38.3764],[27.1079,38.3769],[27.1093,38.3771],[27.1106,38.3777],[27.1123,38.3789],[27.113,38.38],[27.1129,38.3807],[27.1133,38.3831],[27.1138,38.3841],[27.1143,38.3843],[27.1143,38.3847],[27.1157,38.3861],[27.1162,38.3881],[27.117,38.3892],[27.1189,38.3892],[27.1196,38.3895],[27.1206,38.3896],[27.1227,38.3903],[27.1254,38.3916],[27.1268,38.3937],[27.1272,38.3962],[27.1279,38.3979],[27.1281,38.399],[27.1289,38.3998],[27.1294,38.4019],[27.1301,38.4022],[27.1294,38.4041],[27.1285,38.4058],[27.1284,38.4077],[27.1289,38.4086],[27.1288,38.4105],[27.129,38.4108],[27.1307,38.4118],[27.132,38.413],[27.1337,38.4137],[27.1355,38.4166],[27.1366,38.4177],[27.137,38.4204],[27.1377,38.4225],[27.1377,38.424],[27.1403,38.4269],[27.1414,38.4278],[27.1417,38.4296],[27.1415,38.4286]]}},{"type":"Feature","properties":{"id":"bus-680-2","kind":"busline","ref":"680","dir":2},"geometry":{"type":"LineString","coordinates":[[27.1415,38.4286],[27.1414,38.4281],[27.1416,38.4294],[27.1419,38.4299],[27.1417,38.4301],[27.1415,38.43],[27.1415,38.4294],[27.141,38.4278],[27.1376,38.4242],[27.1376,38.4226],[27.1369,38.4204],[27.1367,38.4179],[27.1355,38.4166],[27.1342,38.4143],[27.1334,38.4135],[27.132,38.413],[27.1307,38.412],[27.1289,38.4111],[27.1287,38.4107],[27.1288,38.4087],[27.1284,38.4082],[27.1282,38.4069],[27.1286,38.4052],[27.1295,38.4035],[27.1295,38.4024],[27.1288,38.3998],[27.1278,38.3985],[27.127,38.3953],[27.1268,38.3937],[27.1254,38.3916],[27.1227,38.3903],[27.1206,38.3896],[27.1196,38.3895],[27.1189,38.3892],[27.117,38.3892],[27.1162,38.3881],[27.1157,38.3861],[27.1142,38.3845],[27.1139,38.3844],[27.1133,38.3831],[27.1131,38.3812],[27.1123,38.3789],[27.11,38.3774],[27.1089,38.377],[27.1079,38.3769],[27.1074,38.3766],[27.1067,38.3773],[27.1051,38.3782],[27.105,38.3786],[27.1044,38.3793],[27.1044,38.381],[27.1048,38.3824],[27.1045,38.3839],[27.1014,38.3866],[27.1037,38.3869],[27.1043,38.3863],[27.1039,38.3862],[27.104,38.3863]]}},{"type":"Feature","properties":{"id":"bus-680-s12441","kind":"busstop","ref":"680","name":"Yeşilyurt","lines":["16","18","20","579"]},"geometry":{"type":"Point","coordinates":[27.10458,38.386]}},{"type":"Feature","properties":{"id":"bus-680-s12439","kind":"busstop","ref":"680","name":"Yadigar Sitesi","lines":["16","18","20","579"]},"geometry":{"type":"Point","coordinates":[27.10241,38.38681]}},{"type":"Feature","properties":{"id":"bus-680-s12433","kind":"busstop","ref":"680","name":"Egzozcu","lines":["16","20","517","523","524"]},"geometry":{"type":"Point","coordinates":[27.1031,38.3849]}},{"type":"Feature","properties":{"id":"bus-680-s12435","kind":"busstop","ref":"680","name":"Ülkü","lines":["16","20","517","523","524"]},"geometry":{"type":"Point","coordinates":[27.10448,38.38236]}},{"type":"Feature","properties":{"id":"bus-680-s12437","kind":"busstop","ref":"680","name":" Limontepe Seniye-Hasan Saray İlkokulu","lines":["16","20","84","520","523","524","587"]},"geometry":{"type":"Point","coordinates":[27.1043,38.379]}},{"type":"Feature","properties":{"id":"bus-680-s12508","kind":"busstop","ref":"680","name":"Yıkık Cami 2","lines":["193","522","523","587","671","877"]},"geometry":{"type":"Point","coordinates":[27.1069,38.3769]}},{"type":"Feature","properties":{"id":"bus-680-s12216","kind":"busstop","ref":"680","name":"Kuyu","lines":["23","193","224","522","587","671","823"]},"geometry":{"type":"Point","coordinates":[27.11087,38.3779]}},{"type":"Feature","properties":{"id":"bus-680-s12214","kind":"busstop","ref":"680","name":"Bayram Kahya","lines":["23","124","193","587","588"]},"geometry":{"type":"Point","coordinates":[27.1131,38.3814]}},{"type":"Feature","properties":{"id":"bus-680-s12212","kind":"busstop","ref":"680","name":"Karaselvi","lines":["23","124","193","224","522","587","588","823","879"]},"geometry":{"type":"Point","coordinates":[27.1152,38.3854]}},{"type":"Feature","properties":{"id":"bus-680-s12210","kind":"busstop","ref":"680","name":"Karakuyu","lines":["23","124","193","224","522","587","588","823","879"]},"geometry":{"type":"Point","coordinates":[27.11616,38.38757]}},{"type":"Feature","properties":{"id":"bus-680-s12208","kind":"busstop","ref":"680","name":"Bozyaka Cami","lines":["23","193","224","522","588","823"]},"geometry":{"type":"Point","coordinates":[27.12069,38.38956]}},{"type":"Feature","properties":{"id":"bus-680-s12206","kind":"busstop","ref":"680","name":"Kestelli","lines":["23","193","224","522","588","823"]},"geometry":{"type":"Point","coordinates":[27.1224,38.3901]}},{"type":"Feature","properties":{"id":"bus-680-s12204","kind":"busstop","ref":"680","name":"Zincirlikuyu","lines":["23","193","224","522","550","556","588","823"]},"geometry":{"type":"Point","coordinates":[27.1259,38.3922]}},{"type":"Feature","properties":{"id":"bus-680-s12202","kind":"busstop","ref":"680","name":"Narlık","lines":["23","89","193","224","522","550","556","588","823"]},"geometry":{"type":"Point","coordinates":[27.1268,38.3936]}},{"type":"Feature","properties":{"id":"bus-680-s12200","kind":"busstop","ref":"680","name":"Kilimci Tepe","lines":["23","89","193","224","522","550","556","588","823"]},"geometry":{"type":"Point","coordinates":[27.1274,38.3962]}},{"type":"Feature","properties":{"id":"bus-680-s12198","kind":"busstop","ref":"680","name":"Yağhaneler 3","lines":["23","157","193","224","691"]},"geometry":{"type":"Point","coordinates":[27.1293,38.4013]}},{"type":"Feature","properties":{"id":"bus-680-s12062","kind":"busstop","ref":"680","name":"Yağhaneler","lines":["23","157","193","224","234","470","691"]},"geometry":{"type":"Point","coordinates":[27.12912,38.40463]}},{"type":"Feature","properties":{"id":"bus-680-s12060","kind":"busstop","ref":"680","name":"Eşrefpaşa","lines":["234","470","691"]},"geometry":{"type":"Point","coordinates":[27.12843,38.40772]}},{"type":"Feature","properties":{"id":"bus-680-s10228","kind":"busstop","ref":"680","name":"Koruluk","lines":["234","470","681","691","910","940","950"]},"geometry":{"type":"Point","coordinates":[27.13178,38.41269]}},{"type":"Feature","properties":{"id":"bus-680-s10226","kind":"busstop","ref":"680","name":"Kestelli","lines":["234","470","681","691","910","940","950"]},"geometry":{"type":"Point","coordinates":[27.13483,38.41529]}},{"type":"Feature","properties":{"id":"bus-680-s10224","kind":"busstop","ref":"680","name":"Mezarlıkbaşı","lines":["234","470","681","691","910","940","950"]},"geometry":{"type":"Point","coordinates":[27.1372,38.4207]}},{"type":"Feature","properties":{"id":"bus-680-s10321","kind":"busstop","ref":"680","name":"Kent Müzesi","lines":["470","681","691","910","930","940","950"]},"geometry":{"type":"Point","coordinates":[27.1385,38.4248]}},{"type":"Feature","properties":{"id":"bus-680-s10324","kind":"busstop","ref":"680","name":"Montrö","lines":["811","951"]},"geometry":{"type":"Point","coordinates":[27.14165,38.42926]}},{"type":"Feature","properties":{"id":"bus-680-s10322","kind":"busstop","ref":"680","name":"Kent Müzesi","lines":["470","681","691","910","930","940","950"]},"geometry":{"type":"Point","coordinates":[27.13955,38.42628]}},{"type":"Feature","properties":{"id":"bus-680-s10213","kind":"busstop","ref":"680","name":"Çankaya","lines":["681"]},"geometry":{"type":"Point","coordinates":[27.1375,38.4235]}},{"type":"Feature","properties":{"id":"bus-680-s10229","kind":"busstop","ref":"680","name":"Mezarlıkbaşı","lines":["23","234"]},"geometry":{"type":"Point","coordinates":[27.13695,38.4206]}},{"type":"Feature","properties":{"id":"bus-680-s10231","kind":"busstop","ref":"680","name":"Kestelli","lines":["18","19","20","23","72","104","105","171","234","285","374","465","470","471","484","485","681","691","811","910","940","950"]},"geometry":{"type":"Point","coordinates":[27.1348,38.4156]}},{"type":"Feature","properties":{"id":"bus-680-s10235","kind":"busstop","ref":"680","name":"Koruluk","lines":["23","72","104","105","171","234","285","374","465","470","471","484","485","691","910","940","950"]},"geometry":{"type":"Point","coordinates":[27.1309,38.4123]}},{"type":"Feature","properties":{"id":"bus-680-s12061","kind":"busstop","ref":"680","name":"Eşrefpaşa","lines":["23","193","224","691"]},"geometry":{"type":"Point","coordinates":[27.1283,38.4076]}},{"type":"Feature","properties":{"id":"bus-680-s12063","kind":"busstop","ref":"680","name":"Yağhaneler","lines":["23","193","224","234","691"]},"geometry":{"type":"Point","coordinates":[27.12935,38.40331]}},{"type":"Feature","properties":{"id":"bus-680-s12199","kind":"busstop","ref":"680","name":"Kilimci Tepe","lines":["23","89","193","224","522","550","556","588","823"]},"geometry":{"type":"Point","coordinates":[27.12713,38.39615]}},{"type":"Feature","properties":{"id":"bus-680-s12201","kind":"busstop","ref":"680","name":"Narlık","lines":["23","89","193","224","522","550","556","588","823"]},"geometry":{"type":"Point","coordinates":[27.12662,38.39351]}},{"type":"Feature","properties":{"id":"bus-680-s12203","kind":"busstop","ref":"680","name":"Zincirlikuyu","lines":["23","193","224","522","588","823"]},"geometry":{"type":"Point","coordinates":[27.1245,38.3912]}},{"type":"Feature","properties":{"id":"bus-680-s12205","kind":"busstop","ref":"680","name":"Kestelli","lines":["23","193","224","522","588","823"]},"geometry":{"type":"Point","coordinates":[27.12187,38.39008]}},{"type":"Feature","properties":{"id":"bus-680-s12207","kind":"busstop","ref":"680","name":"Bozyaka Cami","lines":["23","193","224","522","588","823"]},"geometry":{"type":"Point","coordinates":[27.11989,38.38953]}},{"type":"Feature","properties":{"id":"bus-680-s12209","kind":"busstop","ref":"680","name":"Karakuyu","lines":["23","124","193","224","522","587","588","823","879"]},"geometry":{"type":"Point","coordinates":[27.1159,38.3872]}},{"type":"Feature","properties":{"id":"bus-680-s12211","kind":"busstop","ref":"680","name":"Karaselvi","lines":["23","124","193","224","522","587","588","823","879"]},"geometry":{"type":"Point","coordinates":[27.1147,38.3851]}},{"type":"Feature","properties":{"id":"bus-680-s12213","kind":"busstop","ref":"680","name":"Bayram Kahya","lines":["23","124","193","587","588"]},"geometry":{"type":"Point","coordinates":[27.11289,38.38077]}},{"type":"Feature","properties":{"id":"bus-680-s12215","kind":"busstop","ref":"680","name":"Kuyu","lines":["23","193","224","522","587","671","823"]},"geometry":{"type":"Point","coordinates":[27.1106,38.3778]}},{"type":"Feature","properties":{"id":"bus-680-s12509","kind":"busstop","ref":"680","name":"Yıkık Cami 2","lines":["193","522","523","587","671","877"]},"geometry":{"type":"Point","coordinates":[27.107,38.377]}},{"type":"Feature","properties":{"id":"bus-680-s12438","kind":"busstop","ref":"680","name":" Limontepe Seniye-Hasan Saray İlkokulu","lines":["16","20","84","517","520","523","524"]},"geometry":{"type":"Point","coordinates":[27.1047,38.379]}},{"type":"Feature","properties":{"id":"bus-680-s12436","kind":"busstop","ref":"680","name":"Ülkü","lines":["16","20","517","523","524"]},"geometry":{"type":"Point","coordinates":[27.10479,38.38225]}},{"type":"Feature","properties":{"id":"bus-680-s12434","kind":"busstop","ref":"680","name":"Egzozcu","lines":["16","20","517","523","524"]},"geometry":{"type":"Point","coordinates":[27.10318,38.38514]}},{"type":"Feature","properties":{"id":"bus-680-s12440","kind":"busstop","ref":"680","name":"Yadigar Sitesi","lines":["16","18","20","579"]},"geometry":{"type":"Point","coordinates":[27.1025,38.3867]}}]}