{"type":"FeatureCollection","features":[{"type":"Feature","properties":{"id":"bus-681-1","kind":"busline","ref":"681","dir":1},"geometry":{"type":"LineString","coordinates":[[27.0729,38.3872],[27.073,38.387],[27.0717,38.3892],[27.0714,38.3903],[27.0716,38.3922],[27.0696,38.3953],[27.0697,38.3966],[27.07,38.397],[27.0742,38.3957],[27.0787,38.3939],[27.0854,38.3931],[27.0876,38.393],[27.088,38.3931],[27.0889,38.3941],[27.0937,38.3958],[27.0943,38.3967],[27.0944,38.3976],[27.0952,38.3986],[27.0977,38.3998],[27.0994,38.4014],[27.1005,38.4017],[27.1036,38.4015],[27.1094,38.4016],[27.1154,38.4027],[27.1169,38.4033],[27.1188,38.4043],[27.1204,38.4054],[27.1216,38.4059],[27.1224,38.406],[27.1235,38.4069],[27.1265,38.4084],[27.1273,38.4091],[27.1282,38.4104],[27.1308,38.4119],[27.132,38.413],[27.1338,38.4138],[27.1355,38.4166],[27.1367,38.4179],[27.137,38.4204],[27.1377,38.4225],[27.1378,38.4242],[27.1405,38.4271],[27.1414,38.4278],[27.1417,38.4296],[27.1415,38.4286]]}},{"type":"Feature","properties":{"id":"bus-681-2","kind":"busline","ref":"681","dir":2},"geometry":{"type":"LineString","coordinates":[[27.1415,38.4286],[27.1414,38.4281],[27.1416,38.4294],[27.1419,38.4299],[27.1417,38.4301],[27.1415,38.43],[27.1415,38.4294],[27.141,38.4278],[27.1376,38.4242],[27.1376,38.4226],[27.1369,38.4204],[27.1367,38.4179],[27.1355,38.4166],[27.1338,38.4138],[27.132,38.413],[27.1305,38.4118],[27.1281,38.4105],[27.127,38.4089],[27.1261,38.4083],[27.1235,38.4069],[27.1212,38.406],[27.1167,38.4033],[27.1139,38.4024],[27.1094,38.4016],[27.1036,38.4015],[27.1005,38.4017],[27.0994,38.4014],[27.0977,38.3998],[27.0952,38.3986],[27.0944,38.3976],[27.0943,38.3967],[27.0937,38.3958],[27.0888,38.3941],[27.088,38.3934],[27.0871,38.3931],[27.0786,38.394],[27.0737,38.396],[27.0708,38.3968],[27.0705,38.397],[27.0703,38.3976],[27.0699,38.3976],[27.0697,38.3974],[27.0695,38.3953],[27.0715,38.3922],[27.0713,38.3908],[27.0714,38.3895],[27.073,38.3868],[27.0729,38.3872]]}},{"type":"Feature","properties":{"id":"bus-681-s10504","kind":"busstop","ref":"681","name":"Fahrettin Altay","lines":["311","517","551","879","945","946"]},"geometry":{"type":"Point","coordinates":[27.073,38.3872]}},{"type":"Feature","properties":{"id":"bus-681-s10507","kind":"busstop","ref":"681","name":"İkinci Oyak Sitesi","lines":["486","517","551","879"]},"geometry":{"type":"Point","coordinates":[27.0716,38.3899]}},{"type":"Feature","properties":{"id":"bus-681-s10505","kind":"busstop","ref":"681","name":"Ordu Pazarı","lines":["486","517","551","879"]},"geometry":{"type":"Point","coordinates":[27.0714,38.3925]}},{"type":"Feature","properties":{"id":"bus-681-s10506","kind":"busstop","ref":"681","name":"Mehmetçik","lines":["486","517","879"]},"geometry":{"type":"Point","coordinates":[27.0697,38.3952]}},{"type":"Feature","properties":{"id":"bus-681-s10134","kind":"busstop","ref":"681","name":"Fahrettin Altay Meydan 7","lines":["517","879","950"]},"geometry":{"type":"Point","coordinates":[27.07026,38.39677]}},{"type":"Feature","properties":{"id":"bus-681-s10292","kind":"busstop","ref":"681","name":"Göztepe Stadı","lines":["517","879","950"]},"geometry":{"type":"Point","coordinates":[27.0759,38.3949]}},{"type":"Feature","properties":{"id":"bus-681-s10290","kind":"busstop","ref":"681","name":"Denizmen","lines":["517","879","950"]},"geometry":{"type":"Point","coordinates":[27.0806,38.3936]}},{"type":"Feature","properties":{"id":"bus-681-s10280","kind":"busstop","ref":"681","name":"Hıfzıssıhha","lines":["517","879","950"]},"geometry":{"type":"Point","coordinates":[27.0862,38.3929]}},{"type":"Feature","properties":{"id":"bus-681-s10274","kind":"busstop","ref":"681","name":"Amerikan Koleji","lines":["950"]},"geometry":{"type":"Point","coordinates":[27.0922,38.3951]}},{"type":"Feature","properties":{"id":"bus-681-s10272","kind":"busstop","ref":"681","name":"Susuzdede","lines":["950"]},"geometry":{"type":"Point","coordinates":[27.0951,38.3984]}},{"type":"Feature","properties":{"id":"bus-681-s10270","kind":"busstop","ref":"681","name":"Hakimevleri","lines":["950"]},"geometry":{"type":"Point","coordinates":[27.0989,38.4008]}},{"type":"Feature","properties":{"id":"bus-681-s10286","kind":"busstop","ref":"681","name":"Nokta","lines":["950"]},"geometry":{"type":"Point","coordinates":[27.1054,38.4014]}},{"type":"Feature","properties":{"id":"bus-681-s10282","kind":"busstop","ref":"681","name":"Çeşme","lines":["15","950"]},"geometry":{"type":"Point","coordinates":[27.1095,38.4015]}},{"type":"Feature","properties":{"id":"bus-681-s10262","kind":"busstop","ref":"681","name":"Şoförler Lokali","lines":["15","950"]},"geometry":{"type":"Point","coordinates":[27.1144,38.4024]}},{"type":"Feature","properties":{"id":"bus-681-s10254","kind":"busstop","ref":"681","name":"İzmir Spor","lines":["15","20"]},"geometry":{"type":"Point","coordinates":[27.11911,38.40452]}},{"type":"Feature","properties":{"id":"bus-681-s10252","kind":"busstop","ref":"681","name":"Üçyol Metro","lines":["16","18","19","84","89","92","108","124","156","490","522","556","588","823","950"]},"geometry":{"type":"Point","coordinates":[27.1213,38.4057]}},{"type":"Feature","properties":{"id":"bus-681-s10248","kind":"busstop","ref":"681","name":"Altıntaş","lines":["15","18","19","20","152","508","550","587","588","887","910","950"]},"geometry":{"type":"Point","coordinates":[27.124,38.407]}},{"type":"Feature","properties":{"id":"bus-681-s10246","kind":"busstop","ref":"681","name":"Bayramyeri","lines":["15","18","19","20","152","508","550","587","588","887","910","950"]},"geometry":{"type":"Point","coordinates":[27.1267,38.4085]}},{"type":"Feature","properties":{"id":"bus-681-s10228","kind":"busstop","ref":"681","name":"Koruluk","lines":["234","470","680","691","910","940","950"]},"geometry":{"type":"Point","coordinates":[27.13178,38.41269]}},{"type":"Feature","properties":{"id":"bus-681-s10226","kind":"busstop","ref":"681","name":"Kestelli","lines":["234","470","680","691","910","940","950"]},"geometry":{"type":"Point","coordinates":[27.13483,38.41529]}},{"type":"Feature","properties":{"id":"bus-681-s10224","kind":"busstop","ref":"681","name":"Mezarlıkbaşı","lines":["234","470","680","691","910","940","950"]},"geometry":{"type":"Point","coordinates":[27.1372,38.4207]}},{"type":"Feature","properties":{"id":"bus-681-s10321","kind":"busstop","ref":"681","name":"Kent Müzesi","lines":["470","680","691","910","930","940","950"]},"geometry":{"type":"Point","coordinates":[27.1385,38.4248]}},{"type":"Feature","properties":{"id":"bus-681-s10323","kind":"busstop","ref":"681","name":"Montrö","lines":["49","940"]},"geometry":{"type":"Point","coordinates":[27.1417,38.4286]}},{"type":"Feature","properties":{"id":"bus-681-s10322","kind":"busstop","ref":"681","name":"Kent Müzesi","lines":["470","680","691","910","930","940","950"]},"geometry":{"type":"Point","coordinates":[27.13955,38.42628]}},{"type":"Feature","properties":{"id":"bus-681-s10213","kind":"busstop","ref":"681","name":"Çankaya","lines":["680"]},"geometry":{"type":"Point","coordinates":[27.1375,38.4235]}},{"type":"Feature","properties":{"id":"bus-681-s10227","kind":"busstop","ref":"681","name":"Mezarlıkbaşı","lines":["470","691","910","940","950"]},"geometry":{"type":"Point","coordinates":[27.13699,38.4209]}},{"type":"Feature","properties":{"id":"bus-681-s10231","kind":"busstop","ref":"681","name":"Kestelli","lines":["18","19","20","23","72","104","105","171","234","285","374","465","470","471","484","485","680","691","811","910","940","950"]},"geometry":{"type":"Point","coordinates":[27.1348,38.4156]}},{"type":"Feature","properties":{"id":"bus-681-s10233","kind":"busstop","ref":"681","name":"Koruluk","lines":["18","19","20","811"]},"geometry":{"type":"Point","coordinates":[27.1313,38.4125]}},{"type":"Feature","properties":{"id":"bus-681-s10247","kind":"busstop","ref":"681","name":"Bayramyeri","lines":["15","18","19","20","152","157","508","550","587","588","811","887","910","950"]},"geometry":{"type":"Point","coordinates":[27.1267,38.4088]}},{"type":"Feature","properties":{"id":"bus-681-s10251","kind":"busstop","ref":"681","name":"Altıntaş","lines":["15","18","19","20","152","157","508","550","587","588","811","887","910","950"]},"geometry":{"type":"Point","coordinates":[27.1241,38.4073]}},{"type":"Feature","properties":{"id":"bus-681-s10257","kind":"busstop","ref":"681","name":"İzmir Spor","lines":["15","20","520","575","811","950"]},"geometry":{"type":"Point","coordinates":[27.1194,38.4049]}},{"type":"Feature","properties":{"id":"bus-681-s10259","kind":"busstop","ref":"681","name":"Şoförler Lokali","lines":["15","811","950"]},"geometry":{"type":"Point","coordinates":[27.11432,38.40254]}},{"type":"Feature","properties":{"id":"bus-681-s10285","kind":"busstop","ref":"681","name":"Hatay Çeşme","lines":["15","811","950"]},"geometry":{"type":"Point","coordinates":[27.1094,38.4017]}},{"type":"Feature","properties":{"id":"bus-681-s10287","kind":"busstop","ref":"681","name":"Nokta","lines":["811","950"]},"geometry":{"type":"Point","coordinates":[27.1049,38.4015]}},{"type":"Feature","properties":{"id":"bus-681-s10271","kind":"busstop","ref":"681","name":"Hakimevleri","lines":["811","950"]},"geometry":{"type":"Point","coordinates":[27.0988,38.4012]}},{"type":"Feature","properties":{"id":"bus-681-s10273","kind":"busstop","ref":"681","name":"Susuz Dede","lines":["811","950"]},"geometry":{"type":"Point","coordinates":[27.0948,38.3982]}},{"type":"Feature","properties":{"id":"bus-681-s10275","kind":"busstop","ref":"681","name":"Amerikan Koleji","lines":["811","950"]},"geometry":{"type":"Point","coordinates":[27.0912,38.3949]}},{"type":"Feature","properties":{"id":"bus-681-s10289","kind":"busstop","ref":"681","name":"Hıfzıssıhha","lines":["517","811","879","950"]},"geometry":{"type":"Point","coordinates":[27.08585,38.39319]}},{"type":"Feature","properties":{"id":"bus-681-s10281","kind":"busstop","ref":"681","name":"Denizmen","lines":["517","811","879","950"]},"geometry":{"type":"Point","coordinates":[27.08065,38.39378]}},{"type":"Feature","properties":{"id":"bus-681-s10283","kind":"busstop","ref":"681","name":"Göztepe Stadı","lines":["517","811","879","950"]},"geometry":{"type":"Point","coordinates":[27.0761,38.3951]}},{"type":"Feature","properties":{"id":"bus-681-s10135","kind":"busstop","ref":"681","name":"Fahrettin Altay Meydan 6","lines":["517","811","879","950"]},"geometry":{"type":"Point","coordinates":[27.07153,38.39665]}},{"type":"Feature","properties":{"id":"bus-681-s10503","kind":"busstop","ref":"681","name":"Mehmetçik","lines":["311","486","517","551","879","945","946"]},"geometry":{"type":"Point","coordinates":[27.06941,38.39565]}},{"type":"Feature","properties":{"id":"bus-681-s10512","kind":"busstop","ref":"681","name":"Ordu Pazarı","lines":["486","517","551","879"]},"geometry":{"type":"Point","coordinates":[27.07093,38.39305]}},{"type":"Feature","properties":{"id":"bus-681-s10514","kind":"busstop","ref":"681","name":"İkinci Oyak Sitesi","lines":["517","551","879"]},"geometry":{"type":"Point","coordinates":[27.07133,38.38957]}}]}