{"type":"FeatureCollection","features":[{"type":"Feature","properties":{"id":"bus-697-1","kind":"busline","ref":"697","dir":1},"geometry":{"type":"LineString","coordinates":[[27.3413,38.2006],[27.3349,38.2104],[27.3335,38.2122],[27.3328,38.2128],[27.33,38.2146],[27.2965,38.2311],[27.2886,38.2364],[27.2834,38.2378],[27.2784,38.2387],[27.2771,38.2393],[27.2742,38.2416],[27.2709,38.2453],[27.2665,38.2487],[27.2476,38.2611],[27.2466,38.2619],[27.2452,38.2635],[27.2452,38.2638],[27.2449,38.2638],[27.241,38.2679],[27.2393,38.269],[27.2342,38.2713],[27.2288,38.2731],[27.2161,38.2768],[27.2088,38.2806],[27.2073,38.281],[27.2026,38.2811],[27.2007,38.2808],[27.1964,38.2796],[27.1916,38.2788],[27.1828,38.2759],[27.1809,38.275],[27.1709,38.2674],[27.169,38.2668],[27.1669,38.2666],[27.1586,38.2684],[27.1575,38.2688],[27.1563,38.2696],[27.1556,38.2702],[27.152,38.2748],[27.146,38.2828],[27.1448,38.285],[27.1416,38.2936],[27.1409,38.2961],[27.14,38.3019],[27.1403,38.3038],[27.1416,38.3058],[27.1422,38.3071],[27.1426,38.3086],[27.1425,38.313],[27.1415,38.3157],[27.139,38.3188],[27.1377,38.3211],[27.1373,38.3222],[27.1361,38.329],[27.1346,38.3333],[27.134,38.3366],[27.1341,38.337],[27.1334,38.3396],[27.1334,38.3432],[27.1325,38.3461],[27.1326,38.3468],[27.1332,38.3474],[27.1337,38.3473],[27.134,38.347],[27.134,38.3466],[27.1336,38.3463],[27.1316,38.3463],[27.1309,38.3466],[27.1308,38.347],[27.1311,38.3474],[27.1319,38.3475],[27.1323,38.347],[27.1324,38.3455],[27.1321,38.345],[27.1318,38.3449],[27.1313,38.3449],[27.1309,38.3454],[27.1311,38.3458],[27.1318,38.3461],[27.1335,38.346],[27.1413,38.3464],[27.1444,38.3471],[27.1474,38.3484],[27.15,38.3504],[27.1511,38.3516],[27.1521,38.3531],[27.1543,38.3576],[27.1567,38.3606],[27.1577,38.3614],[27.1598,38.3626],[27.1638,38.364],[27.1742,38.3651],[27.1795,38.3654],[27.1828,38.3651],[27.1895,38.3641],[27.196,38.3638],[27.2016,38.3631],[27.2038,38.3631],[27.2065,38.3636],[27.2119,38.3654],[27.2166,38.3664],[27.2294,38.3675],[27.2315,38.3674],[27.2326,38.3671],[27.2337,38.3664],[27.2342,38.3656],[27.2342,38.3644],[27.2337,38.3637],[27.233,38.3634],[27.232,38.3635],[27.2315,38.3638],[27.2312,38.3643],[27.2301,38.3679],[27.2299,38.3709],[27.2309,38.3878],[27.2305,38.3905],[27.2294,38.3949],[27.2293,38.3963],[27.2294,38.3979],[27.2299,38.4004],[27.231,38.4029],[27.2322,38.4048],[27.237,38.4101],[27.238,38.4124],[27.2385,38.4146],[27.2382,38.4193],[27.2375,38.4235],[27.2364,38.4261],[27.2307,38.4358],[27.2289,38.4385],[27.2277,38.4396],[27.2251,38.4412],[27.2235,38.4418],[27.2209,38.4424],[27.2196,38.4431],[27.2196,38.4436],[27.22,38.4441],[27.2211,38.4442],[27.2217,38.4435],[27.2214,38.4429],[27.2182,38.4406],[27.2125,38.4354],[27.2105,38.4343],[27.2104,38.4341],[27.2106,38.4337],[27.2115,38.433],[27.2119,38.4323],[27.212,38.4298],[27.2123,38.4285],[27.2123,38.4279],[27.2119,38.4274],[27.2124,38.4273],[27.2134,38.4278],[27.2129,38.429],[27.2127,38.4291],[27.2129,38.429]]}},{"type":"Feature","properties":{"id":"bus-697-2","kind":"busline","ref":"697","dir":2},"geometry":{"type":"LineString","coordinates":[[27.2129,38.429],[27.2123,38.4293],[27.2121,38.4339],[27.2123,38.4347],[27.2134,38.4359],[27.2163,38.4384],[27.218,38.4395],[27.2243,38.4408],[27.2252,38.4407],[27.2265,38.4402],[27.2276,38.4394],[27.2292,38.4378],[27.2365,38.4254],[27.2373,38.4231],[27.2378,38.4209],[27.2382,38.4162],[27.2382,38.4142],[27.2377,38.412],[27.2362,38.4094],[27.2315,38.4042],[27.2297,38.4006],[27.2293,38.3988],[27.2291,38.3972],[27.2292,38.3949],[27.2305,38.3893],[27.2306,38.3859],[27.2298,38.3726],[27.2291,38.3692],[27.2283,38.3683],[27.2266,38.3676],[27.2142,38.3662],[27.2066,38.3638],[27.2039,38.3633],[27.2016,38.3633],[27.197,38.3639],[27.1884,38.3644],[27.1824,38.3654],[27.1795,38.3656],[27.1723,38.3651],[27.1639,38.3642],[27.16,38.363],[27.1577,38.3616],[27.1561,38.3603],[27.1546,38.3585],[27.1523,38.3539],[27.1511,38.3519],[27.1493,38.35],[27.1466,38.3482],[27.1432,38.347],[27.1407,38.3465],[27.1324,38.3462],[27.1312,38.3464],[27.1309,38.3466],[27.1309,38.3472],[27.1313,38.3475],[27.1319,38.3475],[27.1322,38.3473],[27.1324,38.3466],[27.1324,38.3455],[27.1333,38.3428],[27.1333,38.3395],[27.134,38.3349],[27.1347,38.3323],[27.1357,38.3298],[27.1369,38.323],[27.1384,38.3194],[27.1414,38.3155],[27.1418,38.3142],[27.1424,38.3089],[27.142,38.3071],[27.1402,38.3039],[27.1399,38.3029],[27.1399,38.3018],[27.1411,38.2947],[27.1441,38.2864],[27.1453,38.2838],[27.1464,38.282],[27.154,38.2719],[27.1558,38.2698],[27.1582,38.2684],[27.1658,38.2666],[27.1689,38.2666],[27.1712,38.2674],[27.1782,38.2728],[27.1807,38.2746],[27.1823,38.2755],[27.1868,38.277],[27.188,38.2772],[27.1913,38.2785],[27.1948,38.279],[27.1982,38.28],[27.2028,38.281],[27.2073,38.2809],[27.2081,38.2807],[27.2161,38.2767],[27.2308,38.2724],[27.2343,38.2711],[27.24,38.2684],[27.2417,38.267],[27.2439,38.2647],[27.2447,38.2635],[27.245,38.2634],[27.247,38.2613],[27.2672,38.248],[27.2702,38.2457],[27.2703,38.2454],[27.2714,38.2445],[27.2728,38.2426],[27.2742,38.2411],[27.2774,38.2388],[27.2788,38.2383],[27.285,38.2372],[27.2888,38.2362],[27.2958,38.2312],[27.3306,38.2141],[27.3327,38.2127],[27.3341,38.2112],[27.3415,38.1999]]}},{"type":"Feature","properties":{"id":"bus-697-s10840","kind":"busstop","ref":"697","name":"Reysaş","lines":["701","712","722","806","858"]},"geometry":{"type":"Point","coordinates":[27.33871,38.20467]}},{"type":"Feature","properties":{"id":"bus-697-s10838","kind":"busstop","ref":"697","name":"Beşevler Çeşme","lines":["701","712","722","806","858"]},"geometry":{"type":"Point","coordinates":[27.33533,38.20982]}},{"type":"Feature","properties":{"id":"bus-697-s10834","kind":"busstop","ref":"697","name":"Yüksek Kahve","lines":["701","712","722","806","858"]},"geometry":{"type":"Point","coordinates":[27.33064,38.21426]}},{"type":"Feature","properties":{"id":"bus-697-s10832","kind":"busstop","ref":"697","name":"Kuşcuburun Barbaros Ortaokulu","lines":["701","712","722","806","858"]},"geometry":{"type":"Point","coordinates":[27.32877,38.21519]}},{"type":"Feature","properties":{"id":"bus-697-s10830","kind":"busstop","ref":"697","name":"Kuşçuburun Karayolları","lines":["701","712","722","806","858"]},"geometry":{"type":"Point","coordinates":[27.3273,38.21592]}},{"type":"Feature","properties":{"id":"bus-697-s10828","kind":"busstop","ref":"697","name":"Beşyol","lines":["701","712","722","806","858"]},"geometry":{"type":"Point","coordinates":[27.32408,38.21746]}},{"type":"Feature","properties":{"id":"bus-697-s10908","kind":"busstop","ref":"697","name":"Bayraktar","lines":["701","712","722","806","858"]},"geometry":{"type":"Point","coordinates":[27.32213,38.21847]}},{"type":"Feature","properties":{"id":"bus-697-s10826","kind":"busstop","ref":"697","name":"Namet","lines":["701","712","722","806","858"]},"geometry":{"type":"Point","coordinates":[27.3191,38.22]}},{"type":"Feature","properties":{"id":"bus-697-s16476","kind":"busstop","ref":"697","name":"Yeni Kent","lines":["701","712","722","806","858"]},"geometry":{"type":"Point","coordinates":[27.31565,38.22167]}},{"type":"Feature","properties":{"id":"bus-697-s10822","kind":"busstop","ref":"697","name":"Aksan","lines":["701","712","722","806","858"]},"geometry":{"type":"Point","coordinates":[27.3144,38.2223]}},{"type":"Feature","properties":{"id":"bus-697-s10820","kind":"busstop","ref":"697","name":"Yazıbaşı","lines":["701","712","806","858"]},"geometry":{"type":"Point","coordinates":[27.3111,38.224]}},{"type":"Feature","properties":{"id":"bus-697-s10818","kind":"busstop","ref":"697","name":"Ventola","lines":["701","712","806","858"]},"geometry":{"type":"Point","coordinates":[27.3056,38.2266]}},{"type":"Feature","properties":{"id":"bus-697-s10816","kind":"busstop","ref":"697","name":"Selviler","lines":["701","712","806","858"]},"geometry":{"type":"Point","coordinates":[27.3025,38.2282]}},{"type":"Feature","properties":{"id":"bus-697-s10814","kind":"busstop","ref":"697","name":"Ayrancılar Un Fabrikası","lines":["701","712","806","858"]},"geometry":{"type":"Point","coordinates":[27.2982,38.2304]}},{"type":"Feature","properties":{"id":"bus-697-s10812","kind":"busstop","ref":"697","name":"Bahçelievler","lines":["701","705","712","806","858"]},"geometry":{"type":"Point","coordinates":[27.29261,38.23381]}},{"type":"Feature","properties":{"id":"bus-697-s10810","kind":"busstop","ref":"697","name":"Tevfik Fikret","lines":["701","705","712","806","858"]},"geometry":{"type":"Point","coordinates":[27.2909,38.235]}},{"type":"Feature","properties":{"id":"bus-697-s10804","kind":"busstop","ref":"697","name":"Havuzlu","lines":["701","705","712","806","858"]},"geometry":{"type":"Point","coordinates":[27.2889,38.2363]}},{"type":"Feature","properties":{"id":"bus-697-s10808","kind":"busstop","ref":"697","name":"Ayrancılar Petrol Ofisi","lines":["701","705","712","806","858"]},"geometry":{"type":"Point","coordinates":[27.2831,38.2378]}},{"type":"Feature","properties":{"id":"bus-697-s10806","kind":"busstop","ref":"697","name":"Sekseninci Yıl Cumhuriyet Parkı","lines":["701","705","709","806","858"]},"geometry":{"type":"Point","coordinates":[27.2792,38.2385]}},{"type":"Feature","properties":{"id":"bus-697-s10802","kind":"busstop","ref":"697","name":"Ayrancılar Mezarlık","lines":["701","705","709","806","858"]},"geometry":{"type":"Point","coordinates":[27.2759,38.2403]}},{"type":"Feature","properties":{"id":"bus-697-s10800","kind":"busstop","ref":"697","name":"Egekent 4 Kavşak","lines":["705","709","806","858"]},"geometry":{"type":"Point","coordinates":[27.2736,38.2422]}},{"type":"Feature","properties":{"id":"bus-697-s10798","kind":"busstop","ref":"697","name":"Emlakçılar","lines":["705","709","712","806","858"]},"geometry":{"type":"Point","coordinates":[27.2703,38.2459]}},{"type":"Feature","properties":{"id":"bus-697-s10796","kind":"busstop","ref":"697","name":"Üç Pınarlar","lines":["705","709","712","806","858"]},"geometry":{"type":"Point","coordinates":[27.26764,38.24784]}},{"type":"Feature","properties":{"id":"bus-697-s10794","kind":"busstop","ref":"697","name":"Türkmenköy Jandarma","lines":["705","709","712","806","858"]},"geometry":{"type":"Point","coordinates":[27.26468,38.25]}},{"type":"Feature","properties":{"id":"bus-697-s10644","kind":"busstop","ref":"697","name":"TRT","lines":["705","806","858"]},"geometry":{"type":"Point","coordinates":[27.25786,38.2544]}},{"type":"Feature","properties":{"id":"bus-697-s10792","kind":"busstop","ref":"697","name":"Ayrancılar Gölet","lines":["705","806","858"]},"geometry":{"type":"Point","coordinates":[27.2544,38.2567]}},{"type":"Feature","properties":{"id":"bus-697-s10824","kind":"busstop","ref":"697","name":"Oğlananası","lines":["705","806","858"]},"geometry":{"type":"Point","coordinates":[27.24549,38.26314]}},{"type":"Feature","properties":{"id":"bus-697-s10788","kind":"busstop","ref":"697","name":"Mersinli Kahve Cami","lines":["705","707","806","858"]},"geometry":{"type":"Point","coordinates":[27.24297,38.26595]}},{"type":"Feature","properties":{"id":"bus-697-s10786","kind":"busstop","ref":"697","name":"Yeşilköy","lines":["705","707","806","858"]},"geometry":{"type":"Point","coordinates":[27.23801,38.26959]}},{"type":"Feature","properties":{"id":"bus-697-s10780","kind":"busstop","ref":"697","name":"Ayçiçeği","lines":["705","707","806","858"]},"geometry":{"type":"Point","coordinates":[27.23017,38.27271]}},{"type":"Feature","properties":{"id":"bus-697-s10784","kind":"busstop","ref":"697","name":"Gişeler","lines":["705","707","806","858"]},"geometry":{"type":"Point","coordinates":[27.2165,38.2768]}},{"type":"Feature","properties":{"id":"bus-697-s10776","kind":"busstop","ref":"697","name":"Dizdarlar","lines":["705","707","806","858"]},"geometry":{"type":"Point","coordinates":[27.2083,38.2808]}},{"type":"Feature","properties":{"id":"bus-697-s15947","kind":"busstop","ref":"697","name":"Soğutma Fabrikası","lines":["705","707","806","858"]},"geometry":{"type":"Point","coordinates":[27.20306,38.28115]}},{"type":"Feature","properties":{"id":"bus-697-s15948","kind":"busstop","ref":"697","name":"Çamlık","lines":["707","806","858"]},"geometry":{"type":"Point","coordinates":[27.19918,38.28041]}},{"type":"Feature","properties":{"id":"bus-697-s15949","kind":"busstop","ref":"697","name":"Kısıkköy Sanayi Estim","lines":["806","858"]},"geometry":{"type":"Point","coordinates":[27.1938,38.27919]}},{"type":"Feature","properties":{"id":"bus-697-s15950","kind":"busstop","ref":"697","name":"Kısıkköy Giriş Alt Yol","lines":["806","858"]},"geometry":{"type":"Point","coordinates":[27.18704,38.27737]}},{"type":"Feature","properties":{"id":"bus-697-s15951","kind":"busstop","ref":"697","name":"Ormancı Alt Yol","lines":["806","858"]},"geometry":{"type":"Point","coordinates":[27.18083,38.27502]}},{"type":"Feature","properties":{"id":"bus-697-s15952","kind":"busstop","ref":"697","name":"Yeni Mahalle Alt Yol","lines":["806","858"]},"geometry":{"type":"Point","coordinates":[27.17782,38.27269]}},{"type":"Feature","properties":{"id":"bus-697-s15928","kind":"busstop","ref":"697","name":"Gölcükler Yol Ayrımı","lines":["806","858"]},"geometry":{"type":"Point","coordinates":[27.16728,38.26664]}},{"type":"Feature","properties":{"id":"bus-697-s15926","kind":"busstop","ref":"697","name":"Aydın","lines":["806","858"]},"geometry":{"type":"Point","coordinates":[27.15312,38.27346]}},{"type":"Feature","properties":{"id":"bus-697-s15953","kind":"busstop","ref":"697","name":"Benzinlik","lines":["806","858"]},"geometry":{"type":"Point","coordinates":[27.15189,38.2751]}},{"type":"Feature","properties":{"id":"bus-697-s15924","kind":"busstop","ref":"697","name":"Mobilyacılar","lines":["806","858"]},"geometry":{"type":"Point","coordinates":[27.14606,38.28279]}},{"type":"Feature","properties":{"id":"bus-697-s15922","kind":"busstop","ref":"697","name":"Keresteciler Sitesi","lines":["806","858"]},"geometry":{"type":"Point","coordinates":[27.14355,38.28863]}},{"type":"Feature","properties":{"id":"bus-697-s10762","kind":"busstop","ref":"697","name":"Havalimanı","lines":["508","806","808","858"]},"geometry":{"type":"Point","coordinates":[27.1414,38.29481]}},{"type":"Feature","properties":{"id":"bus-697-s10676","kind":"busstop","ref":"697","name":"Seçkinler Sitesi","lines":["200","202","204","206","508","806","808","858"]},"geometry":{"type":"Point","coordinates":[27.1418,38.3061]}},{"type":"Feature","properties":{"id":"bus-697-s10674","kind":"busstop","ref":"697","name":"Emlak Bankası Evleri","lines":["200","202","204","206","508","806","808","858"]},"geometry":{"type":"Point","coordinates":[27.1426,38.3087]}},{"type":"Feature","properties":{"id":"bus-697-s10679","kind":"busstop","ref":"697","name":"Akçay","lines":["200","202","204","206","508","806","808","858"]},"geometry":{"type":"Point","coordinates":[27.14259,38.31087]}},{"type":"Feature","properties":{"id":"bus-697-s10672","kind":"busstop","ref":"697","name":"Sarnıç Alt Geçidi","lines":["806","858","887"]},"geometry":{"type":"Point","coordinates":[27.1426,38.3128]}},{"type":"Feature","properties":{"id":"bus-697-s10670","kind":"busstop","ref":"697","name":"Gaziemir İlçe Emniyet","lines":["200","202","204","206","508","806","808","858","887"]},"geometry":{"type":"Point","coordinates":[27.1406,38.3169]}},{"type":"Feature","properties":{"id":"bus-697-s10668","kind":"busstop","ref":"697","name":"Kolej","lines":["200","202","204","206","508","806","808","858","887"]},"geometry":{"type":"Point","coordinates":[27.1379,38.3209]}},{"type":"Feature","properties":{"id":"bus-697-s10666","kind":"busstop","ref":"697","name":"Askeri Lojmanlar","lines":["200","202","204","206","508","806","808","858","887"]},"geometry":{"type":"Point","coordinates":[27.1371,38.3237]}},{"type":"Feature","properties":{"id":"bus-697-s10664","kind":"busstop","ref":"697","name":"Ulaştırma","lines":["152","200","202","204","206","353","508","510","691","806","808","858","887","891","910"]},"geometry":{"type":"Point","coordinates":[27.13592,38.32971]}},{"type":"Feature","properties":{"id":"bus-697-s10662","kind":"busstop","ref":"697","name":"Leylak","lines":["152","200","202","204","206","353","508","510","691","806","808","858","887","891","910"]},"geometry":{"type":"Point","coordinates":[27.1348,38.3331]}},{"type":"Feature","properties":{"id":"bus-697-s10660","kind":"busstop","ref":"697","name":"Ege Serbest Bölge","lines":["152","200","202","204","206","353","508","510","691","806","808","828","858","887","891","910"]},"geometry":{"type":"Point","coordinates":[27.134,38.3372]}},{"type":"Feature","properties":{"id":"bus-697-s31556","kind":"busstop","ref":"697","name":"Otogar Benzinlik","lines":["54","204","277","302","505","555","602","608","660","806","858"]},"geometry":{"type":"Point","coordinates":[27.21187,38.43064]}},{"type":"Feature","properties":{"id":"bus-697-s32402","kind":"busstop","ref":"697","name":"Otogar Yeni","lines":["277","806","858"]},"geometry":{"type":"Point","coordinates":[27.21308,38.4287]}},{"type":"Feature","properties":{"id":"bus-697-s10659","kind":"busstop","ref":"697","name":"Altıncı Sanayi Kavşağı","lines":["200","202","204","206","510","806","858","910"]},"geometry":{"type":"Point","coordinates":[27.1331,38.3408]}},{"type":"Feature","properties":{"id":"bus-697-s10661","kind":"busstop","ref":"697","name":"Ege Serbest Bölge","lines":["152","200","202","204","206","353","508","510","691","806","808","858","887","891","910"]},"geometry":{"type":"Point","coordinates":[27.13378,38.33572]}},{"type":"Feature","properties":{"id":"bus-697-s10663","kind":"busstop","ref":"697","name":"Leylak","lines":["152","200","202","204","206","353","508","510","691","806","808","858","887","891","910"]},"geometry":{"type":"Point","coordinates":[27.1352,38.3309]}},{"type":"Feature","properties":{"id":"bus-697-s10665","kind":"busstop","ref":"697","name":"Ulaştırma","lines":["152","200","202","204","206","353","508","510","691","806","808","858","887","891","910"]},"geometry":{"type":"Point","coordinates":[27.136,38.3282]}},{"type":"Feature","properties":{"id":"bus-697-s10667","kind":"busstop","ref":"697","name":"Gaziemir Alt Geçidi","lines":["200","202","204","206","508","806","808","858","887"]},"geometry":{"type":"Point","coordinates":[27.1366,38.3247]}},{"type":"Feature","properties":{"id":"bus-697-s10669","kind":"busstop","ref":"697","name":"Kolej","lines":["200","202","204","206","508","806","808","858","887"]},"geometry":{"type":"Point","coordinates":[27.1376,38.3209]}},{"type":"Feature","properties":{"id":"bus-697-s10671","kind":"busstop","ref":"697","name":"Gaziemir İlçe Emniyet","lines":["200","202","204","206","508","806","808","858","887"]},"geometry":{"type":"Point","coordinates":[27.1404,38.3167]}},{"type":"Feature","properties":{"id":"bus-697-s10673","kind":"busstop","ref":"697","name":"Sarnıç Alt Geçidi","lines":["202","204","206","806","858"]},"geometry":{"type":"Point","coordinates":[27.14213,38.31139]}},{"type":"Feature","properties":{"id":"bus-697-s10675","kind":"busstop","ref":"697","name":"Emlak Bankası Evleri","lines":["200","202","204","206","508","806","808","858"]},"geometry":{"type":"Point","coordinates":[27.14233,38.30909]}},{"type":"Feature","properties":{"id":"bus-697-s10677","kind":"busstop","ref":"697","name":"Seçkinler Sitesi","lines":["200","202","204","206","508","806","808","858"]},"geometry":{"type":"Point","coordinates":[27.1415,38.3061]}},{"type":"Feature","properties":{"id":"bus-697-s15919","kind":"busstop","ref":"697","name":"Havalimanı","lines":["806","858"]},"geometry":{"type":"Point","coordinates":[27.14109,38.29458]}},{"type":"Feature","properties":{"id":"bus-697-s15921","kind":"busstop","ref":"697","name":"Keresteciler Sitesi","lines":["806","858"]},"geometry":{"type":"Point","coordinates":[27.14327,38.28854]}},{"type":"Feature","properties":{"id":"bus-697-s15923","kind":"busstop","ref":"697","name":"Mobilyacılar","lines":["806","858"]},"geometry":{"type":"Point","coordinates":[27.14586,38.28262]}},{"type":"Feature","properties":{"id":"bus-697-s15954","kind":"busstop","ref":"697","name":"Benzinlik","lines":["806","858"]},"geometry":{"type":"Point","coordinates":[27.1515,38.27517]}},{"type":"Feature","properties":{"id":"bus-697-s15925","kind":"busstop","ref":"697","name":"Aydın","lines":["806","858"]},"geometry":{"type":"Point","coordinates":[27.15288,38.27333]}},{"type":"Feature","properties":{"id":"bus-697-s15927","kind":"busstop","ref":"697","name":"Gölcükler Yol Ayrımı","lines":["806","858"]},"geometry":{"type":"Point","coordinates":[27.16739,38.26644]}},{"type":"Feature","properties":{"id":"bus-697-s15427","kind":"busstop","ref":"697","name":"Yeni Mahalle Altyol","lines":["707","806","858"]},"geometry":{"type":"Point","coordinates":[27.17854,38.27286]}},{"type":"Feature","properties":{"id":"bus-697-s15429","kind":"busstop","ref":"697","name":"Ormancı Altyol","lines":["707","806","858"]},"geometry":{"type":"Point","coordinates":[27.1812,38.2748]}},{"type":"Feature","properties":{"id":"bus-697-s15431","kind":"busstop","ref":"697","name":"Kısıkköy Altyol","lines":["707","806","858"]},"geometry":{"type":"Point","coordinates":[27.18773,38.27711]}},{"type":"Feature","properties":{"id":"bus-697-s10775","kind":"busstop","ref":"697","name":"Kısık Sanayi Estim","lines":["705","707","806","858"]},"geometry":{"type":"Point","coordinates":[27.1953,38.279]}},{"type":"Feature","properties":{"id":"bus-697-s10759","kind":"busstop","ref":"697","name":"Çamlık","lines":["705","707","806","858"]},"geometry":{"type":"Point","coordinates":[27.2,38.28018]}},{"type":"Feature","properties":{"id":"bus-697-s10785","kind":"busstop","ref":"697","name":"Soğutma Fabrikası","lines":["705","707","806","858"]},"geometry":{"type":"Point","coordinates":[27.2039,38.2809]}},{"type":"Feature","properties":{"id":"bus-697-s10777","kind":"busstop","ref":"697","name":"Dizdarlar","lines":["705","707","806","858"]},"geometry":{"type":"Point","coordinates":[27.2092,38.2801]}},{"type":"Feature","properties":{"id":"bus-697-s10779","kind":"busstop","ref":"697","name":"Gişeler","lines":["705","707","806","858"]},"geometry":{"type":"Point","coordinates":[27.2156,38.2768]}},{"type":"Feature","properties":{"id":"bus-697-s10783","kind":"busstop","ref":"697","name":"Ayçiçeği","lines":["705","707","806","858"]},"geometry":{"type":"Point","coordinates":[27.23187,38.27195]}},{"type":"Feature","properties":{"id":"bus-697-s10787","kind":"busstop","ref":"697","name":"Yeşilköy","lines":["705","707","806","858"]},"geometry":{"type":"Point","coordinates":[27.23794,38.26934]}},{"type":"Feature","properties":{"id":"bus-697-s10789","kind":"busstop","ref":"697","name":"Mersinli Kahve Cami","lines":["705","707","806","858"]},"geometry":{"type":"Point","coordinates":[27.2423,38.2661]}},{"type":"Feature","properties":{"id":"bus-697-s10791","kind":"busstop","ref":"697","name":"Oğlananası","lines":["705","806","858"]},"geometry":{"type":"Point","coordinates":[27.245,38.2633]}},{"type":"Feature","properties":{"id":"bus-697-s10793","kind":"busstop","ref":"697","name":"Ayrancılar Gölet","lines":["705","806","858"]},"geometry":{"type":"Point","coordinates":[27.25427,38.25643]}},{"type":"Feature","properties":{"id":"bus-697-s10645","kind":"busstop","ref":"697","name":"TRT","lines":["705","806","858"]},"geometry":{"type":"Point","coordinates":[27.2579,38.254]}},{"type":"Feature","properties":{"id":"bus-697-s10795","kind":"busstop","ref":"697","name":"Türkmenköy Jandarma","lines":["705","709","712","806","858"]},"geometry":{"type":"Point","coordinates":[27.264,38.25004]}},{"type":"Feature","properties":{"id":"bus-697-s10797","kind":"busstop","ref":"697","name":"Üç Pınarlar","lines":["705","709","712","806","858"]},"geometry":{"type":"Point","coordinates":[27.2675,38.24772]}},{"type":"Feature","properties":{"id":"bus-697-s10799","kind":"busstop","ref":"697","name":"Emlakçılar","lines":["705","709","712","806","858"]},"geometry":{"type":"Point","coordinates":[27.2695,38.24599]}},{"type":"Feature","properties":{"id":"bus-697-s10801","kind":"busstop","ref":"697","name":"Egekent 4 Kavşak","lines":["701","705","709","806","858"]},"geometry":{"type":"Point","coordinates":[27.2728,38.2427]}},{"type":"Feature","properties":{"id":"bus-697-s10905","kind":"busstop","ref":"697","name":"Ayrancılar Hastane","lines":["701","705","806","858"]},"geometry":{"type":"Point","coordinates":[27.27468,38.24082]}},{"type":"Feature","properties":{"id":"bus-697-s10803","kind":"busstop","ref":"697","name":"Ayrancılar Mezarlık","lines":["701","705","709","806","858"]},"geometry":{"type":"Point","coordinates":[27.2763,38.2396]}},{"type":"Feature","properties":{"id":"bus-697-s10807","kind":"busstop","ref":"697","name":"Sekseninci Yıl Cumhuriyet Parkı","lines":["701","705","709","806","858"]},"geometry":{"type":"Point","coordinates":[27.2804,38.238]}},{"type":"Feature","properties":{"id":"bus-697-s10809","kind":"busstop","ref":"697","name":"Ayrancılar Petrol Ofisi","lines":["701","705","712","806","858"]},"geometry":{"type":"Point","coordinates":[27.28418,38.23733]}},{"type":"Feature","properties":{"id":"bus-697-s10825","kind":"busstop","ref":"697","name":"Havuzlu","lines":["701","705","712","806","858"]},"geometry":{"type":"Point","coordinates":[27.28993,38.23539]}},{"type":"Feature","properties":{"id":"bus-697-s10813","kind":"busstop","ref":"697","name":"Bahçelievler","lines":["701","806","858"]},"geometry":{"type":"Point","coordinates":[27.294,38.2325]}},{"type":"Feature","properties":{"id":"bus-697-s10815","kind":"busstop","ref":"697","name":"Ayrancılar Un Fabrikası","lines":["701","712","806","858"]},"geometry":{"type":"Point","coordinates":[27.2981,38.2301]}},{"type":"Feature","properties":{"id":"bus-697-s10817","kind":"busstop","ref":"697","name":"Selviler","lines":["701","712","806","858"]},"geometry":{"type":"Point","coordinates":[27.3028,38.2278]}},{"type":"Feature","properties":{"id":"bus-697-s10819","kind":"busstop","ref":"697","name":"Ventola","lines":["701","712","806","858"]},"geometry":{"type":"Point","coordinates":[27.30516,38.22666]}},{"type":"Feature","properties":{"id":"bus-697-s10821","kind":"busstop","ref":"697","name":"Yazıbaşı","lines":["701","712","806","858"]},"geometry":{"type":"Point","coordinates":[27.3109,38.2238]}},{"type":"Feature","properties":{"id":"bus-697-s10823","kind":"busstop","ref":"697","name":"Aksan","lines":["701","712","722","806","858"]},"geometry":{"type":"Point","coordinates":[27.3145,38.222]}},{"type":"Feature","properties":{"id":"bus-697-s10827","kind":"busstop","ref":"697","name":"Namet","lines":["701","712","722","806","858"]},"geometry":{"type":"Point","coordinates":[27.31955,38.21945]}},{"type":"Feature","properties":{"id":"bus-697-s10907","kind":"busstop","ref":"697","name":"Bayraktar","lines":["701","712","722","806","858"]},"geometry":{"type":"Point","coordinates":[27.32211,38.21826]}},{"type":"Feature","properties":{"id":"bus-697-s10829","kind":"busstop","ref":"697","name":"Beşyol","lines":["701","712","722","806","858"]},"geometry":{"type":"Point","coordinates":[27.32501,38.21679]}},{"type":"Feature","properties":{"id":"bus-697-s10831","kind":"busstop","ref":"697","name":"Kuşçuburun Karayolları","lines":["701","712","722","806","858"]},"geometry":{"type":"Point","coordinates":[27.32732,38.21565]}},{"type":"Feature","properties":{"id":"bus-697-s10833","kind":"busstop","ref":"697","name":"Kuşcuburun Barbaros Ortaokulu.","lines":["701","712","722","806","858"]},"geometry":{"type":"Point","coordinates":[27.3295,38.2146]}},{"type":"Feature","properties":{"id":"bus-697-s10835","kind":"busstop","ref":"697","name":"Yüksek Kahve","lines":["701","712","722","806","858"]},"geometry":{"type":"Point","coordinates":[27.3315,38.2134]}},{"type":"Feature","properties":{"id":"bus-697-s10839","kind":"busstop","ref":"697","name":"Beşevler Çeşme","lines":["701","712","722","806","858"]},"geometry":{"type":"Point","coordinates":[27.33506,38.20966]}},{"type":"Feature","properties":{"id":"bus-697-s10841","kind":"busstop","ref":"697","name":"Reysaş","lines":["701","712","722","806","858"]},"geometry":{"type":"Point","coordinates":[27.3376,38.20574]}}]}