{"type":"FeatureCollection","features":[{"type":"Feature","properties":{"id":"bus-709-1","kind":"busline","ref":"709","dir":1},"geometry":{"type":"LineString","coordinates":[[27.2874,38.2817],[27.2875,38.2816],[27.2872,38.2813],[27.287,38.2804],[27.2857,38.2795],[27.2843,38.2791],[27.2831,38.2784],[27.282,38.2763],[27.2823,38.2754],[27.282,38.2721],[27.2827,38.2707],[27.2827,38.2698],[27.283,38.2691],[27.2829,38.2682],[27.2812,38.2656],[27.28,38.2646],[27.279,38.2634],[27.277,38.2623],[27.276,38.2612],[27.2746,38.2604],[27.2745,38.2598],[27.2728,38.2571],[27.2716,38.2558],[27.2704,38.255],[27.2693,38.2549],[27.2682,38.2541],[27.2672,38.2538],[27.2666,38.2534],[27.266,38.2525],[27.2634,38.2508],[27.2631,38.2508],[27.2633,38.2505],[27.2645,38.2499],[27.2702,38.2457],[27.2703,38.2454],[27.2714,38.2445],[27.2728,38.2426],[27.2742,38.2411],[27.2774,38.2388],[27.2788,38.2383],[27.2784,38.2374],[27.2726,38.2294],[27.2696,38.2307],[27.2667,38.2268],[27.2635,38.223],[27.2627,38.2206],[27.255,38.212],[27.2496,38.2052],[27.2488,38.2045],[27.2442,38.2019],[27.2401,38.1999]]}},{"type":"Feature","properties":{"id":"bus-709-2","kind":"busline","ref":"709","dir":2},"geometry":{"type":"LineString","coordinates":[[27.2406,38.2001],[27.2488,38.2045],[27.2496,38.2052],[27.255,38.212],[27.2627,38.2206],[27.2635,38.223],[27.2667,38.2268],[27.2696,38.2307],[27.2726,38.2294],[27.2781,38.2369],[27.2788,38.2383],[27.2811,38.2379],[27.2811,38.2382],[27.2809,38.2383],[27.2784,38.2387],[27.2768,38.2395],[27.2742,38.2416],[27.2709,38.2453],[27.2665,38.2487],[27.2634,38.2508],[27.266,38.2525],[27.2666,38.2534],[27.2672,38.2538],[27.2682,38.2541],[27.2693,38.2549],[27.2704,38.255],[27.2716,38.2558],[27.2728,38.2571],[27.2745,38.2598],[27.2746,38.2604],[27.276,38.2612],[27.277,38.2623],[27.279,38.2634],[27.28,38.2646],[27.2812,38.2656],[27.2829,38.2682],[27.283,38.2691],[27.2827,38.2698],[27.2827,38.2707],[27.282,38.2721],[27.2823,38.2744],[27.2823,38.2754],[27.282,38.2763],[27.2831,38.2784],[27.2843,38.2791],[27.2857,38.2795],[27.287,38.2804],[27.2872,38.2813],[27.2875,38.2816],[27.2874,38.2817]]}},{"type":"Feature","properties":{"id":"bus-709-s41073","kind":"busstop","ref":"709","name":"Demirci Köy","lines":["176"]},"geometry":{"type":"Point","coordinates":[27.2874,38.2817]}},{"type":"Feature","properties":{"id":"bus-709-s41075","kind":"busstop","ref":"709","name":"Demirci Zambak","lines":[]},"geometry":{"type":"Point","coordinates":[27.28342,38.27862]}},{"type":"Feature","properties":{"id":"bus-709-s41077","kind":"busstop","ref":"709","name":"Lavanta","lines":[]},"geometry":{"type":"Point","coordinates":[27.28202,38.27639]}},{"type":"Feature","properties":{"id":"bus-709-s16455","kind":"busstop","ref":"709","name":"Yoğurtçular Çıkış","lines":[]},"geometry":{"type":"Point","coordinates":[27.28268,38.27072]}},{"type":"Feature","properties":{"id":"bus-709-s41079","kind":"busstop","ref":"709","name":"Yoğurtçular Meydan","lines":[]},"geometry":{"type":"Point","coordinates":[27.28285,38.26863]}},{"type":"Feature","properties":{"id":"bus-709-s16240","kind":"busstop","ref":"709","name":"Yoğurtçular Giriş","lines":[]},"geometry":{"type":"Point","coordinates":[27.2818,38.26679]}},{"type":"Feature","properties":{"id":"bus-709-s41081","kind":"busstop","ref":"709","name":"Yoğurtçular Papatya","lines":[]},"geometry":{"type":"Point","coordinates":[27.27858,38.26329]}},{"type":"Feature","properties":{"id":"bus-709-s41083","kind":"busstop","ref":"709","name":"Yoğurtçular Yol Ayrımı","lines":[]},"geometry":{"type":"Point","coordinates":[27.26383,38.25118]}},{"type":"Feature","properties":{"id":"bus-709-s10795","kind":"busstop","ref":"709","name":"Türkmenköy Jandarma","lines":["697","705","712","806","858"]},"geometry":{"type":"Point","coordinates":[27.264,38.25004]}},{"type":"Feature","properties":{"id":"bus-709-s10797","kind":"busstop","ref":"709","name":"Üç Pınarlar","lines":["697","705","712","806","858"]},"geometry":{"type":"Point","coordinates":[27.2675,38.24772]}},{"type":"Feature","properties":{"id":"bus-709-s10799","kind":"busstop","ref":"709","name":"Emlakçılar","lines":["697","705","712","806","858"]},"geometry":{"type":"Point","coordinates":[27.2695,38.24599]}},{"type":"Feature","properties":{"id":"bus-709-s10801","kind":"busstop","ref":"709","name":"Egekent 4 Kavşak","lines":["697","701","705","806","858"]},"geometry":{"type":"Point","coordinates":[27.2728,38.2427]}},{"type":"Feature","properties":{"id":"bus-709-s10803","kind":"busstop","ref":"709","name":"Ayrancılar Mezarlık","lines":["697","701","705","806","858"]},"geometry":{"type":"Point","coordinates":[27.2763,38.2396]}},{"type":"Feature","properties":{"id":"bus-709-s11230","kind":"busstop","ref":"709","name":"Yıldız","lines":["701"]},"geometry":{"type":"Point","coordinates":[27.2784,38.2375]}},{"type":"Feature","properties":{"id":"bus-709-s11228","kind":"busstop","ref":"709","name":"Ayrancılar Çıkış","lines":["701"]},"geometry":{"type":"Point","coordinates":[27.277,38.2353]}},{"type":"Feature","properties":{"id":"bus-709-s11364","kind":"busstop","ref":"709","name":"Fesleğen","lines":["701"]},"geometry":{"type":"Point","coordinates":[27.27541,38.23315]}},{"type":"Feature","properties":{"id":"bus-709-s11362","kind":"busstop","ref":"709","name":"Kamelya","lines":["701"]},"geometry":{"type":"Point","coordinates":[27.2741,38.2317]}},{"type":"Feature","properties":{"id":"bus-709-s11226","kind":"busstop","ref":"709","name":"Pancar Viraj","lines":["701"]},"geometry":{"type":"Point","coordinates":[27.27024,38.23053]}},{"type":"Feature","properties":{"id":"bus-709-s10692","kind":"busstop","ref":"709","name":"Şehit Jandarma Uzman Çavuş Hüseyin Tosun","lines":["701"]},"geometry":{"type":"Point","coordinates":[27.2676,38.2283]}},{"type":"Feature","properties":{"id":"bus-709-s11224","kind":"busstop","ref":"709","name":"Bahçeler","lines":["701"]},"geometry":{"type":"Point","coordinates":[27.2666,38.2269]}},{"type":"Feature","properties":{"id":"bus-709-s11346","kind":"busstop","ref":"709","name":"Plastik Fabrikası","lines":["701"]},"geometry":{"type":"Point","coordinates":[27.2644,38.2242]}},{"type":"Feature","properties":{"id":"bus-709-s11222","kind":"busstop","ref":"709","name":"Sanayi Sitesi","lines":["701","712"]},"geometry":{"type":"Point","coordinates":[27.26253,38.22061]}},{"type":"Feature","properties":{"id":"bus-709-s11220","kind":"busstop","ref":"709","name":"Otoyol","lines":["701","712"]},"geometry":{"type":"Point","coordinates":[27.25956,38.21732]}},{"type":"Feature","properties":{"id":"bus-709-s11218","kind":"busstop","ref":"709","name":"Çiftlik","lines":["701","712"]},"geometry":{"type":"Point","coordinates":[27.2569,38.2144]}},{"type":"Feature","properties":{"id":"bus-709-s11216","kind":"busstop","ref":"709","name":"Organize","lines":["712"]},"geometry":{"type":"Point","coordinates":[27.25467,38.21186]}},{"type":"Feature","properties":{"id":"bus-709-s15608","kind":"busstop","ref":"709","name":"Pancar Prefabrik","lines":["701","712"]},"geometry":{"type":"Point","coordinates":[27.25221,38.20879]}},{"type":"Feature","properties":{"id":"bus-709-s15611","kind":"busstop","ref":"709","name":"Pancar Zeytin","lines":["701","712"]},"geometry":{"type":"Point","coordinates":[27.2497,38.2056]}},{"type":"Feature","properties":{"id":"bus-709-s11214","kind":"busstop","ref":"709","name":"Gurbet Tepe","lines":["701","712"]},"geometry":{"type":"Point","coordinates":[27.2471,38.20373]}},{"type":"Feature","properties":{"id":"bus-709-s11528","kind":"busstop","ref":"709","name":"Süt Fabrikası","lines":["701","712"]},"geometry":{"type":"Point","coordinates":[27.2448,38.2022]}},{"type":"Feature","properties":{"id":"bus-709-s11212","kind":"busstop","ref":"709","name":"Pancar Giriş","lines":["701","712"]},"geometry":{"type":"Point","coordinates":[27.24175,38.20076]}},{"type":"Feature","properties":{"id":"bus-709-s11213","kind":"busstop","ref":"709","name":"Pancar Giriş","lines":["701","712"]},"geometry":{"type":"Point","coordinates":[27.2422,38.2008]}},{"type":"Feature","properties":{"id":"bus-709-s11527","kind":"busstop","ref":"709","name":"Süt Fabrikası","lines":["701","712"]},"geometry":{"type":"Point","coordinates":[27.2448,38.20199]}},{"type":"Feature","properties":{"id":"bus-709-s11215","kind":"busstop","ref":"709","name":"Gurbet Tepe","lines":["701","712"]},"geometry":{"type":"Point","coordinates":[27.24754,38.20379]}},{"type":"Feature","properties":{"id":"bus-709-s15610","kind":"busstop","ref":"709","name":"Pancar Zeytin","lines":["701","712"]},"geometry":{"type":"Point","coordinates":[27.25006,38.20582]}},{"type":"Feature","properties":{"id":"bus-709-s15609","kind":"busstop","ref":"709","name":"Pancar Prefabrik","lines":["701","712"]},"geometry":{"type":"Point","coordinates":[27.25262,38.20907]}},{"type":"Feature","properties":{"id":"bus-709-s11217","kind":"busstop","ref":"709","name":"Organize","lines":["712"]},"geometry":{"type":"Point","coordinates":[27.25441,38.21118]}},{"type":"Feature","properties":{"id":"bus-709-s11219","kind":"busstop","ref":"709","name":"Çiftlik","lines":["701","712"]},"geometry":{"type":"Point","coordinates":[27.25663,38.21383]}},{"type":"Feature","properties":{"id":"bus-709-s11221","kind":"busstop","ref":"709","name":"Otoyol","lines":["701","712"]},"geometry":{"type":"Point","coordinates":[27.25978,38.21735]}},{"type":"Feature","properties":{"id":"bus-709-s11223","kind":"busstop","ref":"709","name":"Sanayi Sitesi","lines":["701","712"]},"geometry":{"type":"Point","coordinates":[27.2629,38.22122]}},{"type":"Feature","properties":{"id":"bus-709-s11345","kind":"busstop","ref":"709","name":"Plastik Fabrikası","lines":["701"]},"geometry":{"type":"Point","coordinates":[27.2648,38.2244]}},{"type":"Feature","properties":{"id":"bus-709-s11225","kind":"busstop","ref":"709","name":"Bahçeler","lines":["701"]},"geometry":{"type":"Point","coordinates":[27.2666,38.2268]}},{"type":"Feature","properties":{"id":"bus-709-s10691","kind":"busstop","ref":"709","name":"Şehit Jandarma Uzman Çavuş Hüseyin Tosun","lines":["701"]},"geometry":{"type":"Point","coordinates":[27.26816,38.22877]}},{"type":"Feature","properties":{"id":"bus-709-s11227","kind":"busstop","ref":"709","name":"Pancar Viraj","lines":["701"]},"geometry":{"type":"Point","coordinates":[27.27107,38.23]}},{"type":"Feature","properties":{"id":"bus-709-s11363","kind":"busstop","ref":"709","name":"Kamelya","lines":["701"]},"geometry":{"type":"Point","coordinates":[27.2745,38.232]}},{"type":"Feature","properties":{"id":"bus-709-s11365","kind":"busstop","ref":"709","name":"Fesleğen","lines":["701"]},"geometry":{"type":"Point","coordinates":[27.2758,38.2337]}},{"type":"Feature","properties":{"id":"bus-709-s11229","kind":"busstop","ref":"709","name":"Ayrancılar Çıkış","lines":["701"]},"geometry":{"type":"Point","coordinates":[27.2771,38.2354]}},{"type":"Feature","properties":{"id":"bus-709-s11231","kind":"busstop","ref":"709","name":"Yıldız","lines":["701"]},"geometry":{"type":"Point","coordinates":[27.2786,38.2379]}},{"type":"Feature","properties":{"id":"bus-709-s10807","kind":"busstop","ref":"709","name":"Sekseninci Yıl Cumhuriyet Parkı","lines":["697","701","705","806","858"]},"geometry":{"type":"Point","coordinates":[27.2804,38.238]}},{"type":"Feature","properties":{"id":"bus-709-s10806","kind":"busstop","ref":"709","name":"Sekseninci Yıl Cumhuriyet Parkı","lines":["697","701","705","806","858"]},"geometry":{"type":"Point","coordinates":[27.2792,38.2385]}},{"type":"Feature","properties":{"id":"bus-709-s10802","kind":"busstop","ref":"709","name":"Ayrancılar Mezarlık","lines":["697","701","705","806","858"]},"geometry":{"type":"Point","coordinates":[27.2759,38.2403]}},{"type":"Feature","properties":{"id":"bus-709-s10800","kind":"busstop","ref":"709","name":"Egekent 4 Kavşak","lines":["697","705","806","858"]},"geometry":{"type":"Point","coordinates":[27.2736,38.2422]}},{"type":"Feature","properties":{"id":"bus-709-s10798","kind":"busstop","ref":"709","name":"Emlakçılar","lines":["697","705","712","806","858"]},"geometry":{"type":"Point","coordinates":[27.2703,38.2459]}},{"type":"Feature","properties":{"id":"bus-709-s10796","kind":"busstop","ref":"709","name":"Üç Pınarlar","lines":["697","705","712","806","858"]},"geometry":{"type":"Point","coordinates":[27.26764,38.24784]}},{"type":"Feature","properties":{"id":"bus-709-s10794","kind":"busstop","ref":"709","name":"Türkmenköy Jandarma","lines":["697","705","712","806","858"]},"geometry":{"type":"Point","coordinates":[27.26468,38.25]}},{"type":"Feature","properties":{"id":"bus-709-s41080","kind":"busstop","ref":"709","name":"Yoğurtçular Papatya","lines":[]},"geometry":{"type":"Point","coordinates":[27.27873,38.26331]}},{"type":"Feature","properties":{"id":"bus-709-s16239","kind":"busstop","ref":"709","name":"Yoğurtçular Giriş","lines":[]},"geometry":{"type":"Point","coordinates":[27.28213,38.26708]}},{"type":"Feature","properties":{"id":"bus-709-s41078","kind":"busstop","ref":"709","name":"Yoğurtçular Meydan","lines":[]},"geometry":{"type":"Point","coordinates":[27.28297,38.26873]}},{"type":"Feature","properties":{"id":"bus-709-s16454","kind":"busstop","ref":"709","name":"Yoğurtçular Çıkış","lines":[]},"geometry":{"type":"Point","coordinates":[27.28279,38.27064]}},{"type":"Feature","properties":{"id":"bus-709-s41076","kind":"busstop","ref":"709","name":"Lavanta","lines":[]},"geometry":{"type":"Point","coordinates":[27.28219,38.27591]}},{"type":"Feature","properties":{"id":"bus-709-s41074","kind":"busstop","ref":"709","name":"Demirci Zambak","lines":[]},"geometry":{"type":"Point","coordinates":[27.2836,38.27863]}}]}