{"type":"FeatureCollection","features":[{"type":"Feature","properties":{"id":"bus-721-1","kind":"busline","ref":"721","dir":1},"geometry":{"type":"LineString","coordinates":[[27.3947,38.236],[27.3947,38.2358],[27.3947,38.2367],[27.3949,38.2372],[27.3948,38.2383],[27.3942,38.2387],[27.3914,38.2392],[27.3911,38.2398],[27.3903,38.2401],[27.3902,38.2403],[27.3905,38.2409],[27.3907,38.2409],[27.3906,38.241],[27.3902,38.2409],[27.3901,38.2406],[27.3897,38.2406],[27.3891,38.2401],[27.3885,38.2401],[27.3881,38.2404],[27.3866,38.2407],[27.3853,38.2413],[27.3838,38.2415],[27.3827,38.2389],[27.3817,38.2353],[27.3793,38.2308],[27.3786,38.2289],[27.3778,38.2228],[27.3756,38.2157],[27.3754,38.2154],[27.3748,38.2153],[27.3726,38.2157],[27.3701,38.2147],[27.3688,38.2148],[27.3649,38.1999]]}},{"type":"Feature","properties":{"id":"bus-721-2","kind":"busline","ref":"721","dir":2},"geometry":{"type":"LineString","coordinates":[[27.3654,38.2005],[27.3655,38.2015],[27.369,38.2148],[27.3701,38.2147],[27.3726,38.2157],[27.3744,38.2153],[27.3754,38.2154],[27.3756,38.2157],[27.3778,38.2228],[27.3786,38.2289],[27.3793,38.2308],[27.3817,38.2353],[27.3827,38.2389],[27.3838,38.2415],[27.3853,38.2413],[27.3866,38.2407],[27.3881,38.2404],[27.3885,38.2401],[27.3891,38.2401],[27.3897,38.2406],[27.3901,38.2406],[27.3902,38.2409],[27.3905,38.2409],[27.3902,38.2403],[27.3903,38.2401],[27.3911,38.2398],[27.3914,38.2392],[27.3942,38.2387],[27.3948,38.2383],[27.3949,38.2372],[27.3947,38.2367],[27.3947,38.2359]]}},{"type":"Feature","properties":{"id":"bus-721-s11444","kind":"busstop","ref":"721","name":"Karakuyu Son Durak","lines":["763"]},"geometry":{"type":"Point","coordinates":[27.3948,38.236]}},{"type":"Feature","properties":{"id":"bus-721-s11442","kind":"busstop","ref":"721","name":"Asmalı","lines":[]},"geometry":{"type":"Point","coordinates":[27.39495,38.23732]}},{"type":"Feature","properties":{"id":"bus-721-s11440","kind":"busstop","ref":"721","name":"Karakuyu Cami","lines":["763"]},"geometry":{"type":"Point","coordinates":[27.39478,38.2382]}},{"type":"Feature","properties":{"id":"bus-721-s11438","kind":"busstop","ref":"721","name":"Bardakçılar","lines":["763","785"]},"geometry":{"type":"Point","coordinates":[27.3921,38.2391]}},{"type":"Feature","properties":{"id":"bus-721-s11436","kind":"busstop","ref":"721","name":"Hacı Tahsin Irmak İlkokulu","lines":["763","785"]},"geometry":{"type":"Point","coordinates":[27.3912,38.2397]}},{"type":"Feature","properties":{"id":"bus-721-s11434","kind":"busstop","ref":"721","name":"Karakuyu Meydan","lines":["763","786"]},"geometry":{"type":"Point","coordinates":[27.39014,38.24064]}},{"type":"Feature","properties":{"id":"bus-721-s11432","kind":"busstop","ref":"721","name":"Karakuyu Pazar Yeri","lines":["763","785","786"]},"geometry":{"type":"Point","coordinates":[27.38909,38.24012]}},{"type":"Feature","properties":{"id":"bus-721-s11430","kind":"busstop","ref":"721","name":"Karakuyu Gülfidan","lines":["763","785","786"]},"geometry":{"type":"Point","coordinates":[27.3878,38.2405]}},{"type":"Feature","properties":{"id":"bus-721-s11526","kind":"busstop","ref":"721","name":"Yaren Dede","lines":["763","785","786"]},"geometry":{"type":"Point","coordinates":[27.38564,38.24104]}},{"type":"Feature","properties":{"id":"bus-721-s11428","kind":"busstop","ref":"721","name":"Karakuyu Spor Tesisleri","lines":["763","785","786"]},"geometry":{"type":"Point","coordinates":[27.3838,38.2415]}},{"type":"Feature","properties":{"id":"bus-721-s11426","kind":"busstop","ref":"721","name":"Karakuyu Mezarlık","lines":["763","785","786"]},"geometry":{"type":"Point","coordinates":[27.3824,38.23879]}},{"type":"Feature","properties":{"id":"bus-721-s11424","kind":"busstop","ref":"721","name":"Kocatepe Zeytinlik","lines":["763","785","786"]},"geometry":{"type":"Point","coordinates":[27.3814,38.235]}},{"type":"Feature","properties":{"id":"bus-721-s11562","kind":"busstop","ref":"721","name":"Karakuyu Birlik Sitesi","lines":["763","785","786"]},"geometry":{"type":"Point","coordinates":[27.37951,38.23152]}},{"type":"Feature","properties":{"id":"bus-721-s11422","kind":"busstop","ref":"721","name":"Verde","lines":["763","785","786"]},"geometry":{"type":"Point","coordinates":[27.3787,38.2291]}},{"type":"Feature","properties":{"id":"bus-721-s11420","kind":"busstop","ref":"721","name":"Palmiye","lines":["763","785","786"]},"geometry":{"type":"Point","coordinates":[27.3781,38.2253]}},{"type":"Feature","properties":{"id":"bus-721-s11418","kind":"busstop","ref":"721","name":"Punteks","lines":["763","785","786"]},"geometry":{"type":"Point","coordinates":[27.3772,38.2207]}},{"type":"Feature","properties":{"id":"bus-721-s11414","kind":"busstop","ref":"721","name":"Zümrüt","lines":["763","785","786"]},"geometry":{"type":"Point","coordinates":[27.37603,38.2174]}},{"type":"Feature","properties":{"id":"bus-721-s11412","kind":"busstop","ref":"721","name":"Çamlıca Kavşağı","lines":["763","785","786"]},"geometry":{"type":"Point","coordinates":[27.37559,38.21603]}},{"type":"Feature","properties":{"id":"bus-721-s11396","kind":"busstop","ref":"721","name":"Ortaköy Kavşak","lines":["763","785","786"]},"geometry":{"type":"Point","coordinates":[27.3696,38.2147]}},{"type":"Feature","properties":{"id":"bus-721-s11410","kind":"busstop","ref":"721","name":"Ortaköy","lines":["763","784","785","786"]},"geometry":{"type":"Point","coordinates":[27.3683,38.2124]}},{"type":"Feature","properties":{"id":"bus-721-s11408","kind":"busstop","ref":"721","name":"İl Özel İdare Asfalt Şantiye","lines":["763","784","785","786"]},"geometry":{"type":"Point","coordinates":[27.3665,38.2055]}},{"type":"Feature","properties":{"id":"bus-721-s11406","kind":"busstop","ref":"721","name":"Mimteks","lines":["763","784","785","786"]},"geometry":{"type":"Point","coordinates":[27.36494,38.20038]}},{"type":"Feature","properties":{"id":"bus-721-s11405","kind":"busstop","ref":"721","name":"Mimteks","lines":["763","784","785","786"]},"geometry":{"type":"Point","coordinates":[27.36539,38.20029]}},{"type":"Feature","properties":{"id":"bus-721-s11407","kind":"busstop","ref":"721","name":"İl Özel İdare Asfalt Şantiye","lines":["763","784","785","786"]},"geometry":{"type":"Point","coordinates":[27.3666,38.2055]}},{"type":"Feature","properties":{"id":"bus-721-s11409","kind":"busstop","ref":"721","name":"Ortaköy","lines":["763","784","785","786"]},"geometry":{"type":"Point","coordinates":[27.3684,38.2124]}},{"type":"Feature","properties":{"id":"bus-721-s11397","kind":"busstop","ref":"721","name":"Ortaköy Kavşak","lines":["763","785","786"]},"geometry":{"type":"Point","coordinates":[27.3695,38.2146]}},{"type":"Feature","properties":{"id":"bus-721-s11413","kind":"busstop","ref":"721","name":"Çamlıca Kavşağı","lines":["785","786"]},"geometry":{"type":"Point","coordinates":[27.3757,38.2157]}},{"type":"Feature","properties":{"id":"bus-721-s11415","kind":"busstop","ref":"721","name":"Zümrüt","lines":["763","785","786"]},"geometry":{"type":"Point","coordinates":[27.3762,38.21751]}},{"type":"Feature","properties":{"id":"bus-721-s11419","kind":"busstop","ref":"721","name":"Punteks","lines":["763","785","786"]},"geometry":{"type":"Point","coordinates":[27.37718,38.22033]}},{"type":"Feature","properties":{"id":"bus-721-s11421","kind":"busstop","ref":"721","name":"Palmiye","lines":["763","785","786"]},"geometry":{"type":"Point","coordinates":[27.3782,38.2253]}},{"type":"Feature","properties":{"id":"bus-721-s11423","kind":"busstop","ref":"721","name":"Verde","lines":["763","785","786"]},"geometry":{"type":"Point","coordinates":[27.37895,38.22948]}},{"type":"Feature","properties":{"id":"bus-721-s11563","kind":"busstop","ref":"721","name":"Karakuyu Birlik Sitesi","lines":["763","785","786"]},"geometry":{"type":"Point","coordinates":[27.37958,38.23123]}},{"type":"Feature","properties":{"id":"bus-721-s11425","kind":"busstop","ref":"721","name":"Kocatepe Zeytinlik","lines":["763","785","786"]},"geometry":{"type":"Point","coordinates":[27.3816,38.235]}},{"type":"Feature","properties":{"id":"bus-721-s11427","kind":"busstop","ref":"721","name":"Karakuyu Mezarlık","lines":["763","785","786"]},"geometry":{"type":"Point","coordinates":[27.3824,38.2378]}},{"type":"Feature","properties":{"id":"bus-721-s11429","kind":"busstop","ref":"721","name":"Karakuyu Spor Tesisleri","lines":["763","785","786"]},"geometry":{"type":"Point","coordinates":[27.384,38.2414]}},{"type":"Feature","properties":{"id":"bus-721-s11525","kind":"busstop","ref":"721","name":"Yaren Dede","lines":["763","786"]},"geometry":{"type":"Point","coordinates":[27.38569,38.24113]}},{"type":"Feature","properties":{"id":"bus-721-s11431","kind":"busstop","ref":"721","name":"Karakuyu Gülfidan","lines":["763","785","786"]},"geometry":{"type":"Point","coordinates":[27.3878,38.2404]}},{"type":"Feature","properties":{"id":"bus-721-s11433","kind":"busstop","ref":"721","name":"Karakuyu Pazar Yeri","lines":["763","785","786"]},"geometry":{"type":"Point","coordinates":[27.3891,38.2401]}},{"type":"Feature","properties":{"id":"bus-721-s11435","kind":"busstop","ref":"721","name":"Karakuyu Meydan","lines":["763","786"]},"geometry":{"type":"Point","coordinates":[27.39041,38.24073]}},{"type":"Feature","properties":{"id":"bus-721-s11437","kind":"busstop","ref":"721","name":"Hacı Tahsin Irmak İlkokulu","lines":["763","785"]},"geometry":{"type":"Point","coordinates":[27.39116,38.23969]}},{"type":"Feature","properties":{"id":"bus-721-s11439","kind":"busstop","ref":"721","name":"Bardakçılar","lines":["763","785"]},"geometry":{"type":"Point","coordinates":[27.3921,38.239]}},{"type":"Feature","properties":{"id":"bus-721-s11441","kind":"busstop","ref":"721","name":"Karakuyu Cami","lines":["763"]},"geometry":{"type":"Point","coordinates":[27.39484,38.2382]}},{"type":"Feature","properties":{"id":"bus-721-s11443","kind":"busstop","ref":"721","name":"Asmalı","lines":["763"]},"geometry":{"type":"Point","coordinates":[27.3949,38.2373]}},{"type":"Feature","properties":{"id":"bus-721-s11445","kind":"busstop","ref":"721","name":"Karakuyu Son Durak","lines":["763"]},"geometry":{"type":"Point","coordinates":[27.3947,38.2359]}}]}