{"type":"FeatureCollection","features":[{"type":"Feature","properties":{"id":"bus-742-1","kind":"busline","ref":"742","dir":1},"geometry":{"type":"LineString","coordinates":[[27.153,38.518],[27.1529,38.5181],[27.1536,38.5172],[27.1543,38.5168],[27.155,38.5169],[27.1547,38.5166],[27.1539,38.5167],[27.1538,38.5165],[27.1546,38.5159],[27.1544,38.5151],[27.1549,38.5153],[27.1556,38.5143],[27.1555,38.514],[27.1561,38.5122],[27.1558,38.5112],[27.1559,38.5107],[27.1551,38.5095],[27.1553,38.5091],[27.1541,38.5072],[27.1538,38.507],[27.1535,38.5063],[27.1538,38.5035],[27.1536,38.5026],[27.1531,38.5018],[27.1531,38.5013],[27.1534,38.501],[27.1551,38.5012],[27.1554,38.5008],[27.1556,38.4999],[27.1564,38.4992],[27.1563,38.4986],[27.1559,38.4985],[27.1559,38.4982],[27.1557,38.4981],[27.1558,38.4978],[27.1556,38.4977],[27.1553,38.4961],[27.1549,38.4953],[27.1547,38.4951],[27.1543,38.4951],[27.154,38.4956],[27.1533,38.4959],[27.1524,38.4954],[27.1515,38.4955],[27.1508,38.495],[27.1505,38.4935],[27.1495,38.4917],[27.1481,38.4904],[27.147,38.489],[27.142,38.4803],[27.1405,38.4774],[27.1405,38.4761],[27.1375,38.4751],[27.1335,38.4748],[27.1289,38.474],[27.127,38.474],[27.1259,38.4742],[27.1234,38.4741],[27.1226,38.474],[27.1222,38.4734],[27.1217,38.4732],[27.1202,38.4736],[27.1194,38.4736],[27.1189,38.4714],[27.1182,38.4712],[27.1173,38.4704],[27.1165,38.4681],[27.116,38.4676],[27.114,38.4684],[27.111,38.4703],[27.1111,38.4709],[27.1118,38.4709],[27.112,38.4705],[27.1098,38.4678],[27.1085,38.4639],[27.1064,38.4546],[27.1056,38.4534],[27.1039,38.4515],[27.1053,38.4509],[27.1078,38.4503],[27.1115,38.4497],[27.1162,38.4522],[27.1175,38.4536],[27.1198,38.4553],[27.1205,38.4556],[27.1217,38.4557],[27.1215,38.4557]]}},{"type":"Feature","properties":{"id":"bus-742-2","kind":"busline","ref":"742","dir":2},"geometry":{"type":"LineString","coordinates":[[27.1215,38.4557],[27.1234,38.4557],[27.1235,38.456],[27.1209,38.4559],[27.1201,38.4556],[27.1176,38.4539],[27.1155,38.4519],[27.1116,38.4498],[27.1059,38.4508],[27.1043,38.4516],[27.1043,38.4518],[27.1063,38.4541],[27.1067,38.4552],[27.1086,38.4639],[27.1099,38.4677],[27.1105,38.4687],[27.114,38.4721],[27.1152,38.4743],[27.1194,38.4732],[27.1197,38.4736],[27.1217,38.4732],[27.1222,38.4734],[27.1226,38.474],[27.1248,38.4742],[27.1289,38.474],[27.1335,38.4748],[27.1375,38.4751],[27.1405,38.4761],[27.1405,38.4774],[27.142,38.4803],[27.147,38.489],[27.1481,38.4904],[27.1495,38.4917],[27.1505,38.4935],[27.1506,38.4944],[27.1509,38.495],[27.1515,38.4955],[27.1524,38.4954],[27.1533,38.4959],[27.154,38.4956],[27.1543,38.4951],[27.1547,38.4951],[27.1549,38.4953],[27.1553,38.4961],[27.1556,38.4977],[27.1558,38.4978],[27.1557,38.4981],[27.1559,38.4982],[27.1559,38.4985],[27.1563,38.4986],[27.1564,38.4992],[27.1556,38.4999],[27.1554,38.5008],[27.1551,38.5012],[27.1534,38.501],[27.1531,38.5013],[27.1531,38.5018],[27.1536,38.5026],[27.1538,38.5035],[27.1535,38.5063],[27.1538,38.507],[27.1541,38.5072],[27.1553,38.5091],[27.1551,38.5095],[27.1559,38.5107],[27.1558,38.5112],[27.1561,38.5122],[27.1555,38.514],[27.1556,38.5143],[27.1549,38.5153],[27.1544,38.5151],[27.1546,38.5159],[27.1538,38.5165],[27.1539,38.5167],[27.1547,38.5166],[27.155,38.5169],[27.1543,38.5168],[27.1536,38.5172],[27.1529,38.5181],[27.153,38.518]]}},{"type":"Feature","properties":{"id":"bus-742-s22313","kind":"busstop","ref":"742","name":"Sancaklı Meydan","lines":[]},"geometry":{"type":"Point","coordinates":[27.1528,38.5183]}},{"type":"Feature","properties":{"id":"bus-742-s22312","kind":"busstop","ref":"742","name":"Sancaklı Giriş","lines":[]},"geometry":{"type":"Point","coordinates":[27.1533,38.5174]}},{"type":"Feature","properties":{"id":"bus-742-s24551","kind":"busstop","ref":"742","name":"Sancaklı Çeşme","lines":[]},"geometry":{"type":"Point","coordinates":[27.15494,38.51512]}},{"type":"Feature","properties":{"id":"bus-742-s24187","kind":"busstop","ref":"742","name":"Kovankayası","lines":[]},"geometry":{"type":"Point","coordinates":[27.15575,38.511]}},{"type":"Feature","properties":{"id":"bus-742-s24189","kind":"busstop","ref":"742","name":"Doğançay Yeni Mezarlığı","lines":[]},"geometry":{"type":"Point","coordinates":[27.15356,38.5066]}},{"type":"Feature","properties":{"id":"bus-742-s22298","kind":"busstop","ref":"742","name":"Doğançay Mezarlık Üstü","lines":[]},"geometry":{"type":"Point","coordinates":[27.1532,38.502]}},{"type":"Feature","properties":{"id":"bus-742-s24276","kind":"busstop","ref":"742","name":"Zeytin Çiçeği","lines":[]},"geometry":{"type":"Point","coordinates":[27.15584,38.49962]}},{"type":"Feature","properties":{"id":"bus-742-s20470","kind":"busstop","ref":"742","name":"Doğançay","lines":["335","537"]},"geometry":{"type":"Point","coordinates":[27.15575,38.49782]}},{"type":"Feature","properties":{"id":"bus-742-s20468","kind":"busstop","ref":"742","name":"Doğançay Meydan","lines":["135","335","537"]},"geometry":{"type":"Point","coordinates":[27.155,38.4956]}},{"type":"Feature","properties":{"id":"bus-742-s20466","kind":"busstop","ref":"742","name":"Çolakoğlu","lines":["135","335","537"]},"geometry":{"type":"Point","coordinates":[27.1541,38.4956]}},{"type":"Feature","properties":{"id":"bus-742-s24648","kind":"busstop","ref":"742","name":"Doğançay Köprü","lines":["135","335","537"]},"geometry":{"type":"Point","coordinates":[27.15248,38.49548]}},{"type":"Feature","properties":{"id":"bus-742-s20464","kind":"busstop","ref":"742","name":"Doğançay Mezarlık","lines":["135","335"]},"geometry":{"type":"Point","coordinates":[27.1505,38.4945]}},{"type":"Feature","properties":{"id":"bus-742-s20462","kind":"busstop","ref":"742","name":"Kentaş","lines":["135","335"]},"geometry":{"type":"Point","coordinates":[27.1469,38.489]}},{"type":"Feature","properties":{"id":"bus-742-s20460","kind":"busstop","ref":"742","name":"Doğançay Viyadüğü","lines":["135","335"]},"geometry":{"type":"Point","coordinates":[27.1439,38.4836]}},{"type":"Feature","properties":{"id":"bus-742-s20458","kind":"busstop","ref":"742","name":"Cemil Atlas İlköğretim Okulu","lines":["135","335"]},"geometry":{"type":"Point","coordinates":[27.1413,38.4789]}},{"type":"Feature","properties":{"id":"bus-742-s23618","kind":"busstop","ref":"742","name":"Doğançay Aile Sağlığı Merkezi","lines":["135","335"]},"geometry":{"type":"Point","coordinates":[27.14071,38.47796]}},{"type":"Feature","properties":{"id":"bus-742-s20456","kind":"busstop","ref":"742","name":"Gümüşpala Su Deposu","lines":["77","135","196","197","335","477","577"]},"geometry":{"type":"Point","coordinates":[27.1405,38.4766]}},{"type":"Feature","properties":{"id":"bus-742-s20504","kind":"busstop","ref":"742","name":"Yunus","lines":["135","537","577"]},"geometry":{"type":"Point","coordinates":[27.1398,38.4758]}},{"type":"Feature","properties":{"id":"bus-742-s20502","kind":"busstop","ref":"742","name":"Anadolu Cami","lines":["135","537","577"]},"geometry":{"type":"Point","coordinates":[27.1366,38.4751]}},{"type":"Feature","properties":{"id":"bus-742-s20500","kind":"busstop","ref":"742","name":"Kubilay","lines":["135","537","577"]},"geometry":{"type":"Point","coordinates":[27.1337,38.4748]}},{"type":"Feature","properties":{"id":"bus-742-s20498","kind":"busstop","ref":"742","name":"Pazaryeri","lines":["135","537","577"]},"geometry":{"type":"Point","coordinates":[27.13129,38.47444]}},{"type":"Feature","properties":{"id":"bus-742-s20496","kind":"busstop","ref":"742","name":"Kadızade Zühtü Işıl","lines":["78","135","137","577"]},"geometry":{"type":"Point","coordinates":[27.1274,38.474]}},{"type":"Feature","properties":{"id":"bus-742-s20494","kind":"busstop","ref":"742","name":"Dostluk","lines":["78","135","137","577"]},"geometry":{"type":"Point","coordinates":[27.12428,38.47415]}},{"type":"Feature","properties":{"id":"bus-742-s20492","kind":"busstop","ref":"742","name":"Soğukkuyu Atölye","lines":["78","135","137","577"]},"geometry":{"type":"Point","coordinates":[27.1214,38.4733]}},{"type":"Feature","properties":{"id":"bus-742-s20481","kind":"busstop","ref":"742","name":"Kuyumcu Abdullah Altınçubuk İlkokulu","lines":["77","78","135","137","197","577"]},"geometry":{"type":"Point","coordinates":[27.11902,38.47221]}},{"type":"Feature","properties":{"id":"bus-742-s20428","kind":"busstop","ref":"742","name":"Demirci","lines":["77","78","135","137","197","577"]},"geometry":{"type":"Point","coordinates":[27.11816,38.47121]}},{"type":"Feature","properties":{"id":"bus-742-s20426","kind":"busstop","ref":"742","name":"Soğukkuyu","lines":["77","78","135","137","197","577"]},"geometry":{"type":"Point","coordinates":[27.1167,38.469]}},{"type":"Feature","properties":{"id":"bus-742-s20214","kind":"busstop","ref":"742","name":"Zafer Takı","lines":["126","135","136","137","197","222","258","326","430","435","487","532","741","847","853","920"]},"geometry":{"type":"Point","coordinates":[27.1096,38.4671]}},{"type":"Feature","properties":{"id":"bus-742-s20212","kind":"busstop","ref":"742","name":"Çayırcı","lines":["126","135","136","137","197","222","258","326","430","435","487","532","741","847","853","920"]},"geometry":{"type":"Point","coordinates":[27.1088,38.4649]}},{"type":"Feature","properties":{"id":"bus-742-s20208","kind":"busstop","ref":"742","name":"Girne Bulvarı","lines":["126","135","136","137","197","222","258","326","361","430","435","487","532","741","847","853","920"]},"geometry":{"type":"Point","coordinates":[27.10778,38.46089]}},{"type":"Feature","properties":{"id":"bus-742-s20206","kind":"busstop","ref":"742","name":"Geçit 1","lines":["126","135","136","137","197","222","258","326","361","430","435","487","532","741","847","853","920"]},"geometry":{"type":"Point","coordinates":[27.10724,38.4585]}},{"type":"Feature","properties":{"id":"bus-742-s20204","kind":"busstop","ref":"742","name":"Geçit 2","lines":["126","135","136","137","197","222","258","326","361","430","435","487","532","741","847","853","920"]},"geometry":{"type":"Point","coordinates":[27.107,38.4574]}},{"type":"Feature","properties":{"id":"bus-742-s20202","kind":"busstop","ref":"742","name":"Metin Aşıkoğlu Ortaokulu","lines":["126","135","136","137","197","222","258","326","361","430","435","487","532","741","847","853","920"]},"geometry":{"type":"Point","coordinates":[27.10626,38.45443]}},{"type":"Feature","properties":{"id":"bus-742-s20200","kind":"busstop","ref":"742","name":"Şehit Diplomat Erdoğan Özen","lines":["126","135","136","137","197","222","258","326","361","430","435","487","532","741","847","853","920"]},"geometry":{"type":"Point","coordinates":[27.1047,38.4525]}},{"type":"Feature","properties":{"id":"bus-742-s20154","kind":"busstop","ref":"742","name":"Osman Bey Parkı","lines":["121","126","135","136","137","197","200","222","258","290","326","330","361","487","543","741","777","847","853","920"]},"geometry":{"type":"Point","coordinates":[27.1187,38.4545]}},{"type":"Feature","properties":{"id":"bus-742-s20001","kind":"busstop","ref":"742","name":"Karşıyaka İskele","lines":["135","137"]},"geometry":{"type":"Point","coordinates":[27.12155,38.45559]}},{"type":"Feature","properties":{"id":"bus-742-s20151","kind":"busstop","ref":"742","name":"Karşıyaka İskele","lines":["121","126","135","136","137","197","200","222","258","290","326","330","361","487","543","741","777","847","853","920"]},"geometry":{"type":"Point","coordinates":[27.1223,38.456]}},{"type":"Feature","properties":{"id":"bus-742-s20153","kind":"busstop","ref":"742","name":"Osman Bey Parkı","lines":["121","126","135","136","137","197","200","222","258","290","326","330","361","487","543","741","777","847","853","920"]},"geometry":{"type":"Point","coordinates":[27.1178,38.4541]}},{"type":"Feature","properties":{"id":"bus-742-s20155","kind":"busstop","ref":"742","name":"Tarık Dursun Kakınç","lines":["121","126","135","136","137","197","200","222","258","290","326","330","361","487","543","741","777","847","853","920"]},"geometry":{"type":"Point","coordinates":[27.1155,38.452]}},{"type":"Feature","properties":{"id":"bus-742-s20157","kind":"busstop","ref":"742","name":"Dokuz Eylül Dispanser","lines":["121","126","135","136","137","197","200","222","258","290","326","330","361","487","543","741","777","847","853","920"]},"geometry":{"type":"Point","coordinates":[27.1126,38.4504]}},{"type":"Feature","properties":{"id":"bus-742-s20159","kind":"busstop","ref":"742","name":"Karşıyaka Yelken Kulübü","lines":["121","126","135","136","137","197","200","222","258","290","326","330","361","487","543","741","777","847","853","920"]},"geometry":{"type":"Point","coordinates":[27.1085,38.4503]}},{"type":"Feature","properties":{"id":"bus-742-s20161","kind":"busstop","ref":"742","name":"Yunuslar","lines":["121","126","135","136","137","197","200","222","258","290","326","330","361","487","543","741","777","847","853","920"]},"geometry":{"type":"Point","coordinates":[27.106,38.4509]}},{"type":"Feature","properties":{"id":"bus-742-s20199","kind":"busstop","ref":"742","name":"Şehit Diplomat Erdoğan Özen","lines":["126","135","136","137","197","222","258","326","361","430","435","487","532","741","847","853","920"]},"geometry":{"type":"Point","coordinates":[27.10526,38.45267]}},{"type":"Feature","properties":{"id":"bus-742-s20201","kind":"busstop","ref":"742","name":"Metin Aşıkoğlu Ortaokulu","lines":["126","135","136","137","197","222","258","326","361","430","435","487","532","741","847","853","920"]},"geometry":{"type":"Point","coordinates":[27.10643,38.4544]}},{"type":"Feature","properties":{"id":"bus-742-s20203","kind":"busstop","ref":"742","name":"Geçit 2","lines":["126","135","136","137","197","222","258","326","361","430","435","487","532","741","847","853","920"]},"geometry":{"type":"Point","coordinates":[27.10738,38.45759]}},{"type":"Feature","properties":{"id":"bus-742-s20205","kind":"busstop","ref":"742","name":"Geçit 1","lines":["126","135","136","137","197","222","258","326","361","430","435","487","532","741","847","853","920"]},"geometry":{"type":"Point","coordinates":[27.1076,38.4589]}},{"type":"Feature","properties":{"id":"bus-742-s20207","kind":"busstop","ref":"742","name":"Girne Bulvarı","lines":["126","135","136","137","197","222","258","326","361","430","435","487","532","741","847","853","920"]},"geometry":{"type":"Point","coordinates":[27.1081,38.461]}},{"type":"Feature","properties":{"id":"bus-742-s20209","kind":"busstop","ref":"742","name":"Çayırcı","lines":["126","135","136","137","197","222","258","326","430","435","487","532","741","847","853","920"]},"geometry":{"type":"Point","coordinates":[27.109,38.4647]}},{"type":"Feature","properties":{"id":"bus-742-s20211","kind":"busstop","ref":"742","name":"Zafer Takı","lines":["126","135","136","137","197","222","258","326","430","435","487","532","741","847","853","920"]},"geometry":{"type":"Point","coordinates":[27.10977,38.46706]}},{"type":"Feature","properties":{"id":"bus-742-s20483","kind":"busstop","ref":"742","name":"Girne Konutları","lines":["77","78","135","137","147","148","197","240","258","426","430","434","435","532","535","537","577","741","847"]},"geometry":{"type":"Point","coordinates":[27.1151,38.4737]}},{"type":"Feature","properties":{"id":"bus-742-s22230","kind":"busstop","ref":"742","name":"Gazeteci Çetin Altan Anadolu Ticaret Lisesi","lines":["77","78","135","137","197","577"]},"geometry":{"type":"Point","coordinates":[27.1172,38.4737]}},{"type":"Feature","properties":{"id":"bus-742-s20493","kind":"busstop","ref":"742","name":"Soğukkuyu Atölye","lines":["78","135","137","577"]},"geometry":{"type":"Point","coordinates":[27.1214,38.4732]}},{"type":"Feature","properties":{"id":"bus-742-s20495","kind":"busstop","ref":"742","name":"Dostluk","lines":["78","135","137","577"]},"geometry":{"type":"Point","coordinates":[27.1244,38.4741]}},{"type":"Feature","properties":{"id":"bus-742-s20497","kind":"busstop","ref":"742","name":"Kadızade Zühtü Işıl","lines":["78","135","137","577"]},"geometry":{"type":"Point","coordinates":[27.1277,38.4739]}},{"type":"Feature","properties":{"id":"bus-742-s20499","kind":"busstop","ref":"742","name":"Bakkal","lines":["135","537","577"]},"geometry":{"type":"Point","coordinates":[27.1289,38.474]}},{"type":"Feature","properties":{"id":"bus-742-s24231","kind":"busstop","ref":"742","name":"Kubilay","lines":["135","537","577"]},"geometry":{"type":"Point","coordinates":[27.13365,38.47474]}},{"type":"Feature","properties":{"id":"bus-742-s20501","kind":"busstop","ref":"742","name":"Anadolu Cami","lines":["135","537","577"]},"geometry":{"type":"Point","coordinates":[27.137,38.475]}},{"type":"Feature","properties":{"id":"bus-742-s20503","kind":"busstop","ref":"742","name":"Yunus","lines":["135","537","577"]},"geometry":{"type":"Point","coordinates":[27.1395,38.4757]}},{"type":"Feature","properties":{"id":"bus-742-s20455","kind":"busstop","ref":"742","name":"Gümüşpala Su Deposu","lines":["77","135","196","197","335","477","577"]},"geometry":{"type":"Point","coordinates":[27.14055,38.47654]}},{"type":"Feature","properties":{"id":"bus-742-s23619","kind":"busstop","ref":"742","name":"Doğançay Aile Sağlığı Merkezi","lines":["135","335"]},"geometry":{"type":"Point","coordinates":[27.14089,38.47802]}},{"type":"Feature","properties":{"id":"bus-742-s20457","kind":"busstop","ref":"742","name":"Cemil Atlas İlköğretim Okulu","lines":["135","335"]},"geometry":{"type":"Point","coordinates":[27.1415,38.4791]}},{"type":"Feature","properties":{"id":"bus-742-s20459","kind":"busstop","ref":"742","name":"Doğançay Viyadüğü","lines":["135","335"]},"geometry":{"type":"Point","coordinates":[27.1441,38.4838]}},{"type":"Feature","properties":{"id":"bus-742-s20461","kind":"busstop","ref":"742","name":"Kentaş","lines":["135","335"]},"geometry":{"type":"Point","coordinates":[27.1468,38.4887]}},{"type":"Feature","properties":{"id":"bus-742-s20463","kind":"busstop","ref":"742","name":"Doğançay Mezarlık","lines":["135","335"]},"geometry":{"type":"Point","coordinates":[27.15066,38.49454]}},{"type":"Feature","properties":{"id":"bus-742-s24647","kind":"busstop","ref":"742","name":"Doğançay Köprü","lines":["135","335","537"]},"geometry":{"type":"Point","coordinates":[27.15221,38.49531]}},{"type":"Feature","properties":{"id":"bus-742-s20465","kind":"busstop","ref":"742","name":"Çolakoğlu ","lines":["135","335","537"]},"geometry":{"type":"Point","coordinates":[27.15406,38.49549]}},{"type":"Feature","properties":{"id":"bus-742-s20467","kind":"busstop","ref":"742","name":"Doğançay Meydan","lines":["135","335","537"]},"geometry":{"type":"Point","coordinates":[27.155,38.4955]}},{"type":"Feature","properties":{"id":"bus-742-s20469","kind":"busstop","ref":"742","name":"Doğançay","lines":["135","537"]},"geometry":{"type":"Point","coordinates":[27.1559,38.4978]}},{"type":"Feature","properties":{"id":"bus-742-s24275","kind":"busstop","ref":"742","name":"Zeytin Çiçeği","lines":[]},"geometry":{"type":"Point","coordinates":[27.15603,38.49956]}},{"type":"Feature","properties":{"id":"bus-742-s22299","kind":"busstop","ref":"742","name":"Doğançay Mezarlık Üstü","lines":[]},"geometry":{"type":"Point","coordinates":[27.1533,38.5019]}},{"type":"Feature","properties":{"id":"bus-742-s24190","kind":"busstop","ref":"742","name":"Doğançay Yeni Mezarlığı","lines":[]},"geometry":{"type":"Point","coordinates":[27.15387,38.50687]}},{"type":"Feature","properties":{"id":"bus-742-s24188","kind":"busstop","ref":"742","name":"Kovankayası","lines":[]},"geometry":{"type":"Point","coordinates":[27.15586,38.51068]}},{"type":"Feature","properties":{"id":"bus-742-s24550","kind":"busstop","ref":"742","name":"Sancaklı Çeşme","lines":[]},"geometry":{"type":"Point","coordinates":[27.15512,38.51501]}},{"type":"Feature","properties":{"id":"bus-742-s22311","kind":"busstop","ref":"742","name":"Sancaklı Giriş","lines":[]},"geometry":{"type":"Point","coordinates":[27.1535,38.5174]}}]}