{"type":"FeatureCollection","features":[{"type":"Feature","properties":{"id":"bus-744-1","kind":"busline","ref":"744","dir":1},"geometry":{"type":"LineString","coordinates":[[26.8501,38.6595],[26.853,38.6592],[26.8568,38.6582],[26.857,38.6584],[26.8583,38.6587],[26.8616,38.6602],[26.8654,38.6613],[26.8677,38.6626],[26.8777,38.6672],[26.882,38.6687],[26.887,38.6709],[26.9047,38.6764],[26.9089,38.6784],[26.9121,38.6792],[26.9142,38.6804],[26.9174,38.6844],[26.9184,38.6852],[26.9214,38.6861],[26.9263,38.6871],[26.9296,38.6874],[26.932,38.6874],[26.9359,38.687],[26.9426,38.6873],[26.9458,38.6867],[26.9497,38.6846],[26.9512,38.6843],[26.952,38.6843],[26.9584,38.6862],[26.9622,38.6866],[26.9635,38.6864],[26.9653,38.6858],[26.9691,38.6824],[26.972,38.6807],[26.974,38.6803],[26.9793,38.6794],[26.9901,38.6787],[26.9926,38.6781],[26.9964,38.6776],[26.9997,38.6777],[27.0027,38.6775],[27.0095,38.6775],[27.0109,38.6776],[27.012,38.6779],[27.014,38.6788],[27.0032,38.6911],[27.0064,38.6934],[27.0091,38.6946],[27.0142,38.6977],[27.0152,38.6954],[27.0143,38.6948],[27.0153,38.6933],[27.0171,38.6913],[27.0177,38.6903],[27.0176,38.6904]]}},{"type":"Feature","properties":{"id":"bus-744-2","kind":"busline","ref":"744","dir":2},"geometry":{"type":"LineString","coordinates":[[27.0176,38.6904],[27.0177,38.6903],[27.0171,38.6913],[27.0153,38.6933],[27.0143,38.6948],[27.0152,38.6954],[27.0142,38.6977],[27.0091,38.6946],[27.0064,38.6934],[27.0029,38.6912],[27.0067,38.6867],[27.0139,38.6787],[27.0109,38.6776],[27.0095,38.6775],[27.0027,38.6775],[26.9997,38.6777],[26.9964,38.6776],[26.9926,38.6781],[26.9901,38.6787],[26.9793,38.6794],[26.974,38.6803],[26.972,38.6807],[26.9691,38.6824],[26.9653,38.6858],[26.9635,38.6864],[26.9622,38.6866],[26.9584,38.6862],[26.952,38.6843],[26.9512,38.6843],[26.9497,38.6846],[26.9458,38.6867],[26.9426,38.6873],[26.9359,38.687],[26.932,38.6874],[26.9296,38.6874],[26.9263,38.6871],[26.9214,38.6861],[26.9184,38.6852],[26.9174,38.6844],[26.9142,38.6804],[26.9121,38.6792],[26.9089,38.6784],[26.9047,38.6764],[26.887,38.6709],[26.882,38.6687],[26.8777,38.6672],[26.8677,38.6626],[26.8654,38.6613],[26.8616,38.6602],[26.8583,38.6587],[26.857,38.6584],[26.8568,38.6582],[26.853,38.6592],[26.8511,38.6593],[26.8498,38.6596]]}},{"type":"Feature","properties":{"id":"bus-744-s21854","kind":"busstop","ref":"744","name":"Bağarası İlköğretim Okulu","lines":["750"]},"geometry":{"type":"Point","coordinates":[26.85121,38.65923]}},{"type":"Feature","properties":{"id":"bus-744-s24622","kind":"busstop","ref":"744","name":"Bağarası Çarşı","lines":["750"]},"geometry":{"type":"Point","coordinates":[26.85385,38.65885]}},{"type":"Feature","properties":{"id":"bus-744-s21852","kind":"busstop","ref":"744","name":"Halim Foçalı Spor Salonu","lines":["750"]},"geometry":{"type":"Point","coordinates":[26.85634,38.65823]}},{"type":"Feature","properties":{"id":"bus-744-s21850","kind":"busstop","ref":"744","name":"Bağarası Mavi","lines":["750"]},"geometry":{"type":"Point","coordinates":[26.86146,38.66]}},{"type":"Feature","properties":{"id":"bus-744-s21848","kind":"busstop","ref":"744","name":"Malaçay","lines":["750"]},"geometry":{"type":"Point","coordinates":[26.86635,38.66181]}},{"type":"Feature","properties":{"id":"bus-744-s21870","kind":"busstop","ref":"744","name":"Mehmetçik Parkı","lines":["750"]},"geometry":{"type":"Point","coordinates":[26.8686,38.66297]}},{"type":"Feature","properties":{"id":"bus-744-s24393","kind":"busstop","ref":"744","name":"Bağarası Atölye","lines":["750"]},"geometry":{"type":"Point","coordinates":[26.87313,38.665]}},{"type":"Feature","properties":{"id":"bus-744-s21846","kind":"busstop","ref":"744","name":"Bağarası Küçük Sanayi","lines":["750"]},"geometry":{"type":"Point","coordinates":[26.87771,38.66712]}},{"type":"Feature","properties":{"id":"bus-744-s21844","kind":"busstop","ref":"744","name":"Bağarası Buz","lines":["750"]},"geometry":{"type":"Point","coordinates":[26.8826,38.66893]}},{"type":"Feature","properties":{"id":"bus-744-s21724","kind":"busstop","ref":"744","name":"Yumurtacı","lines":["750"]},"geometry":{"type":"Point","coordinates":[26.89666,38.67392]}},{"type":"Feature","properties":{"id":"bus-744-s23664","kind":"busstop","ref":"744","name":"Güneş Panelleri","lines":["750"]},"geometry":{"type":"Point","coordinates":[26.89436,38.6732]}},{"type":"Feature","properties":{"id":"bus-744-s21842","kind":"busstop","ref":"744","name":"Bağarası Giriş","lines":["750"]},"geometry":{"type":"Point","coordinates":[26.8872,38.6709]}},{"type":"Feature","properties":{"id":"bus-744-s21840","kind":"busstop","ref":"744","name":"Gerenköy Dörtyol","lines":[]},"geometry":{"type":"Point","coordinates":[26.90503,38.67639]}},{"type":"Feature","properties":{"id":"bus-744-s21836","kind":"busstop","ref":"744","name":"Ilıpınar Meydan","lines":[]},"geometry":{"type":"Point","coordinates":[26.9184,38.68509]}},{"type":"Feature","properties":{"id":"bus-744-s23993","kind":"busstop","ref":"744","name":"Ilıpınar Zeytinlik","lines":[]},"geometry":{"type":"Point","coordinates":[26.91632,38.68289]}},{"type":"Feature","properties":{"id":"bus-744-s21968","kind":"busstop","ref":"744","name":"Ilıpınar Benzinlik","lines":[]},"geometry":{"type":"Point","coordinates":[26.92196,38.6862]}},{"type":"Feature","properties":{"id":"bus-744-s21488","kind":"busstop","ref":"744","name":"Kule","lines":[]},"geometry":{"type":"Point","coordinates":[26.92787,38.68727]}},{"type":"Feature","properties":{"id":"bus-744-s21832","kind":"busstop","ref":"744","name":"Güven","lines":[]},"geometry":{"type":"Point","coordinates":[26.93348,38.68722]}},{"type":"Feature","properties":{"id":"bus-744-s21822","kind":"busstop","ref":"744","name":"Alan Çiftliği","lines":[]},"geometry":{"type":"Point","coordinates":[26.93786,38.68706]}},{"type":"Feature","properties":{"id":"bus-744-s21868","kind":"busstop","ref":"744","name":"Ekiz","lines":[]},"geometry":{"type":"Point","coordinates":[26.94331,38.68709]}},{"type":"Feature","properties":{"id":"bus-744-s21864","kind":"busstop","ref":"744","name":"Hilal","lines":[]},"geometry":{"type":"Point","coordinates":[26.94728,38.68585]}},{"type":"Feature","properties":{"id":"bus-744-s21862","kind":"busstop","ref":"744","name":"Selvi","lines":[]},"geometry":{"type":"Point","coordinates":[26.95328,38.68462]}},{"type":"Feature","properties":{"id":"bus-744-s21492","kind":"busstop","ref":"744","name":"Eski Foça Çiftlik","lines":[]},"geometry":{"type":"Point","coordinates":[26.96026,38.68633]}},{"type":"Feature","properties":{"id":"bus-744-s21830","kind":"busstop","ref":"744","name":"Foça Bahçelievler","lines":[]},"geometry":{"type":"Point","coordinates":[26.96965,38.68205]}},{"type":"Feature","properties":{"id":"bus-744-s21812","kind":"busstop","ref":"744","name":"Fatih","lines":[]},"geometry":{"type":"Point","coordinates":[26.97524,38.68007]}},{"type":"Feature","properties":{"id":"bus-744-s23354","kind":"busstop","ref":"744","name":"Kanal","lines":[]},"geometry":{"type":"Point","coordinates":[26.97899,38.67929]}},{"type":"Feature","properties":{"id":"bus-744-s21810","kind":"busstop","ref":"744","name":"Yıldırım","lines":[]},"geometry":{"type":"Point","coordinates":[26.9989,38.67752]}},{"type":"Feature","properties":{"id":"bus-744-s21828","kind":"busstop","ref":"744","name":"Helvacı Ovası","lines":[]},"geometry":{"type":"Point","coordinates":[27.00332,38.67741]}},{"type":"Feature","properties":{"id":"bus-744-s21776","kind":"busstop","ref":"744","name":"Bahçe","lines":[]},"geometry":{"type":"Point","coordinates":[27.00727,38.6775]}},{"type":"Feature","properties":{"id":"bus-744-s23517","kind":"busstop","ref":"744","name":"Yayla Mevkii","lines":[]},"geometry":{"type":"Point","coordinates":[27.00996,38.67744]}},{"type":"Feature","properties":{"id":"bus-744-s21826","kind":"busstop","ref":"744","name":"Türkelli Karakol","lines":[]},"geometry":{"type":"Point","coordinates":[27.01322,38.67831]}},{"type":"Feature","properties":{"id":"bus-744-s21824","kind":"busstop","ref":"744","name":"Cemalettin Asku","lines":["660"]},"geometry":{"type":"Point","coordinates":[27.00611,38.68782]}},{"type":"Feature","properties":{"id":"bus-744-s21920","kind":"busstop","ref":"744","name":"Helvacı Çıkış","lines":[]},"geometry":{"type":"Point","coordinates":[27.0036,38.69139]}},{"type":"Feature","properties":{"id":"bus-744-s21918","kind":"busstop","ref":"744","name":"Helvacı Hayratı","lines":[]},"geometry":{"type":"Point","coordinates":[27.00917,38.69463]}},{"type":"Feature","properties":{"id":"bus-744-s22237","kind":"busstop","ref":"744","name":"Hatundere İstasyon","lines":["752"]},"geometry":{"type":"Point","coordinates":[27.01764,38.69037]}},{"type":"Feature","properties":{"id":"bus-744-s21917","kind":"busstop","ref":"744","name":"Helvacı Hayratı","lines":[]},"geometry":{"type":"Point","coordinates":[27.00925,38.69539]}},{"type":"Feature","properties":{"id":"bus-744-s21919","kind":"busstop","ref":"744","name":"Helvacı Çıkış","lines":[]},"geometry":{"type":"Point","coordinates":[27.00372,38.69164]}},{"type":"Feature","properties":{"id":"bus-744-s21825","kind":"busstop","ref":"744","name":"Türkelli Karakol","lines":[]},"geometry":{"type":"Point","coordinates":[27.01327,38.67842]}},{"type":"Feature","properties":{"id":"bus-744-s23516","kind":"busstop","ref":"744","name":"Yayla Mevkii","lines":[]},"geometry":{"type":"Point","coordinates":[27.00988,38.6776]}},{"type":"Feature","properties":{"id":"bus-744-s21775","kind":"busstop","ref":"744","name":"Bahçe","lines":[]},"geometry":{"type":"Point","coordinates":[27.00641,38.6777]}},{"type":"Feature","properties":{"id":"bus-744-s21827","kind":"busstop","ref":"744","name":"Helvacı Ovası","lines":[]},"geometry":{"type":"Point","coordinates":[27.00305,38.67763]}},{"type":"Feature","properties":{"id":"bus-744-s21809","kind":"busstop","ref":"744","name":"Yıldırım","lines":[]},"geometry":{"type":"Point","coordinates":[26.99878,38.67771]}},{"type":"Feature","properties":{"id":"bus-744-s23353","kind":"busstop","ref":"744","name":"Kanal","lines":[]},"geometry":{"type":"Point","coordinates":[26.97918,38.67941]}},{"type":"Feature","properties":{"id":"bus-744-s21811","kind":"busstop","ref":"744","name":"Fatih","lines":[]},"geometry":{"type":"Point","coordinates":[26.97496,38.68021]}},{"type":"Feature","properties":{"id":"bus-744-s21829","kind":"busstop","ref":"744","name":"Foça Bahçelievler","lines":[]},"geometry":{"type":"Point","coordinates":[26.96976,38.68215]}},{"type":"Feature","properties":{"id":"bus-744-s21491","kind":"busstop","ref":"744","name":"Eski Foça Çiftlik","lines":[]},"geometry":{"type":"Point","coordinates":[26.95991,38.68645]}},{"type":"Feature","properties":{"id":"bus-744-s21861","kind":"busstop","ref":"744","name":"Selvi","lines":[]},"geometry":{"type":"Point","coordinates":[26.95331,38.68474]}},{"type":"Feature","properties":{"id":"bus-744-s21863","kind":"busstop","ref":"744","name":"Hilal","lines":[]},"geometry":{"type":"Point","coordinates":[26.94751,38.68593]}},{"type":"Feature","properties":{"id":"bus-744-s21867","kind":"busstop","ref":"744","name":"Ekiz","lines":[]},"geometry":{"type":"Point","coordinates":[26.94378,38.68715]}},{"type":"Feature","properties":{"id":"bus-744-s21821","kind":"busstop","ref":"744","name":"Alan Çiftliği","lines":[]},"geometry":{"type":"Point","coordinates":[26.93786,38.68719]}},{"type":"Feature","properties":{"id":"bus-744-s21831","kind":"busstop","ref":"744","name":"Güven","lines":[]},"geometry":{"type":"Point","coordinates":[26.93346,38.6873]}},{"type":"Feature","properties":{"id":"bus-744-s21487","kind":"busstop","ref":"744","name":"Kule","lines":[]},"geometry":{"type":"Point","coordinates":[26.92723,38.68735]}},{"type":"Feature","properties":{"id":"bus-744-s21837","kind":"busstop","ref":"744","name":"Ilıpınar Benzinlik","lines":[]},"geometry":{"type":"Point","coordinates":[26.92044,38.68592]}},{"type":"Feature","properties":{"id":"bus-744-s21835","kind":"busstop","ref":"744","name":"Ilıpınar Meydan","lines":[]},"geometry":{"type":"Point","coordinates":[26.91801,38.68517]}},{"type":"Feature","properties":{"id":"bus-744-s23992","kind":"busstop","ref":"744","name":"Ilıpınar Zeytinlik","lines":[]},"geometry":{"type":"Point","coordinates":[26.91617,38.68286]}},{"type":"Feature","properties":{"id":"bus-744-s21839","kind":"busstop","ref":"744","name":"Gerenköy Dörtyol","lines":[]},"geometry":{"type":"Point","coordinates":[26.90461,38.67638]}},{"type":"Feature","properties":{"id":"bus-744-s21723","kind":"busstop","ref":"744","name":"Yumurtacı","lines":["750"]},"geometry":{"type":"Point","coordinates":[26.89788,38.67441]}},{"type":"Feature","properties":{"id":"bus-744-s23663","kind":"busstop","ref":"744","name":"Güneş Panelleri","lines":["750"]},"geometry":{"type":"Point","coordinates":[26.89388,38.6732]}},{"type":"Feature","properties":{"id":"bus-744-s21841","kind":"busstop","ref":"744","name":"Bağarası Giriş","lines":["750"]},"geometry":{"type":"Point","coordinates":[26.88699,38.671]}},{"type":"Feature","properties":{"id":"bus-744-s21843","kind":"busstop","ref":"744","name":"Bağarası Buz","lines":["750"]},"geometry":{"type":"Point","coordinates":[26.88104,38.66848]}},{"type":"Feature","properties":{"id":"bus-744-s21845","kind":"busstop","ref":"744","name":"Bağarası Küçük Sanayi","lines":["750"]},"geometry":{"type":"Point","coordinates":[26.87641,38.66663]}},{"type":"Feature","properties":{"id":"bus-744-s24392","kind":"busstop","ref":"744","name":"Bağarası Atölye","lines":["750"]},"geometry":{"type":"Point","coordinates":[26.87255,38.66487]}},{"type":"Feature","properties":{"id":"bus-744-s21869","kind":"busstop","ref":"744","name":"Mehmetçik Parkı","lines":["750"]},"geometry":{"type":"Point","coordinates":[26.86829,38.66297]}},{"type":"Feature","properties":{"id":"bus-744-s21847","kind":"busstop","ref":"744","name":"Malaçay","lines":["750"]},"geometry":{"type":"Point","coordinates":[26.86578,38.66163]}},{"type":"Feature","properties":{"id":"bus-744-s21849","kind":"busstop","ref":"744","name":"Bağarası Mavi","lines":["750"]},"geometry":{"type":"Point","coordinates":[26.86152,38.66012]}},{"type":"Feature","properties":{"id":"bus-744-s21851","kind":"busstop","ref":"744","name":"Halim Foçalı Spor Salonu","lines":["750"]},"geometry":{"type":"Point","coordinates":[26.8561,38.6584]}},{"type":"Feature","properties":{"id":"bus-744-s24623","kind":"busstop","ref":"744","name":"Bağarası Çarşı","lines":["750"]},"geometry":{"type":"Point","coordinates":[26.85423,38.65885]}},{"type":"Feature","properties":{"id":"bus-744-s21853","kind":"busstop","ref":"744","name":"Bağarası İlkokulu","lines":["750"]},"geometry":{"type":"Point","coordinates":[26.85138,38.65935]}}]}