{"type":"FeatureCollection","features":[{"type":"Feature","properties":{"id":"bus-748-1","kind":"busline","ref":"748","dir":1},"geometry":{"type":"LineString","coordinates":[[27.0383,38.5495],[27.0376,38.5495],[27.0375,38.5498],[27.0386,38.5518],[27.0418,38.5569],[27.0451,38.5608],[27.0593,38.5728],[27.0635,38.577],[27.0663,38.575],[27.0687,38.5736],[27.069,38.5727],[27.0701,38.5729],[27.0701,38.5771],[27.0709,38.5771],[27.0719,38.5766],[27.0725,38.5777],[27.074,38.577],[27.0748,38.5779],[27.0735,38.5784],[27.0738,38.579],[27.0801,38.585],[27.0808,38.5838],[27.0817,38.5831],[27.0824,38.5816],[27.0845,38.5819],[27.0886,38.584],[27.0899,38.5841],[27.0908,38.5839],[27.092,38.5831],[27.0938,38.5833],[27.0929,38.5845],[27.0916,38.5847],[27.0886,38.5862],[27.0881,38.5861],[27.0853,38.5866],[27.0836,38.5867],[27.0829,38.5864],[27.0817,38.5866],[27.0849,38.5896],[27.0844,38.5907],[27.0847,38.5919],[27.0838,38.5922],[27.0821,38.5935],[27.081,38.5941],[27.08,38.5948],[27.0797,38.5953],[27.0854,38.5966],[27.0864,38.5972],[27.0876,38.5991],[27.0877,38.6011],[27.0874,38.604],[27.0865,38.6071],[27.0863,38.6073],[27.0862,38.6083],[27.0849,38.608],[27.0796,38.6045],[27.078,38.6037],[27.0771,38.6027],[27.0767,38.6025],[27.0768,38.6022],[27.0783,38.6038],[27.0788,38.6038],[27.0791,38.6034],[27.0791,38.6025],[27.0788,38.6022],[27.0785,38.6022],[27.0784,38.6036],[27.0778,38.6051],[27.0747,38.6107],[27.0734,38.6124],[27.0718,38.6114],[27.0716,38.6105],[27.071,38.6094],[27.0721,38.6088],[27.0733,38.6077],[27.0757,38.6062],[27.0773,38.6046],[27.0776,38.6045],[27.0774,38.6041],[27.0769,38.6038],[27.0757,38.6036],[27.0762,38.6037]]}},{"type":"Feature","properties":{"id":"bus-748-2","kind":"busline","ref":"748","dir":2},"geometry":{"type":"LineString","coordinates":[[27.0762,38.6037],[27.0757,38.6036],[27.0769,38.6038],[27.0777,38.6044],[27.0757,38.6062],[27.0733,38.6077],[27.0721,38.6088],[27.071,38.6094],[27.0716,38.6105],[27.0718,38.6114],[27.0727,38.612],[27.0734,38.6121],[27.0744,38.6109],[27.0779,38.6044],[27.0782,38.6037],[27.0782,38.6027],[27.0781,38.6022],[27.0778,38.6019],[27.0775,38.602],[27.0772,38.6025],[27.078,38.6036],[27.0791,38.604],[27.083,38.6067],[27.0846,38.6076],[27.0853,38.6079],[27.0857,38.6079],[27.0862,38.6076],[27.0863,38.6069],[27.0872,38.6046],[27.0876,38.6012],[27.0875,38.5991],[27.0868,38.5978],[27.086,38.597],[27.0846,38.5964],[27.0796,38.5954],[27.08,38.5948],[27.081,38.5941],[27.0821,38.5935],[27.0838,38.5922],[27.0847,38.5919],[27.0844,38.5907],[27.0849,38.5897],[27.0816,38.5866],[27.0829,38.5864],[27.0836,38.5867],[27.0853,38.5866],[27.0881,38.5861],[27.0886,38.5862],[27.0916,38.5847],[27.0929,38.5845],[27.0938,38.5833],[27.092,38.5831],[27.0908,38.5839],[27.0899,38.5841],[27.0886,38.584],[27.0845,38.5819],[27.0824,38.5816],[27.0817,38.5831],[27.0808,38.5838],[27.0804,38.5847],[27.08,38.585],[27.0739,38.5792],[27.0735,38.5784],[27.0748,38.5779],[27.074,38.577],[27.0725,38.5777],[27.0719,38.5766],[27.0709,38.5771],[27.0701,38.5771],[27.0701,38.5729],[27.069,38.5727],[27.0687,38.5736],[27.0663,38.575],[27.0634,38.5771],[27.0575,38.5714],[27.0453,38.5613],[27.0418,38.5572],[27.037,38.5493],[27.0365,38.5488],[27.0362,38.549],[27.037,38.5498],[27.038,38.5498],[27.0387,38.5501],[27.0389,38.5508],[27.0386,38.5512],[27.0386,38.5518],[27.0394,38.553],[27.0412,38.5521],[27.0403,38.549],[27.0394,38.5491],[27.0393,38.5494],[27.0383,38.5495]]}},{"type":"Feature","properties":{"id":"bus-748-s21545","kind":"busstop","ref":"748","name":"Ulukent Aktarma","lines":["428","695","698","749","826","827","848"]},"geometry":{"type":"Point","coordinates":[27.0381,38.5494]}},{"type":"Feature","properties":{"id":"bus-748-s21393","kind":"busstop","ref":"748","name":"Jandarma Ormanı","lines":["128","602","660","698","800","848"]},"geometry":{"type":"Point","coordinates":[27.0394,38.5529]}},{"type":"Feature","properties":{"id":"bus-748-s21395","kind":"busstop","ref":"748","name":"Ulukent Trafo","lines":["128","602","660","698","800","848"]},"geometry":{"type":"Point","coordinates":[27.0413,38.5559]}},{"type":"Feature","properties":{"id":"bus-748-s21397","kind":"busstop","ref":"748","name":"Üst Geçit","lines":["128","602","660","698","800","848"]},"geometry":{"type":"Point","coordinates":[27.0428,38.558]}},{"type":"Feature","properties":{"id":"bus-748-s21399","kind":"busstop","ref":"748","name":"Egekent 2","lines":["128","602","660","698","800","848"]},"geometry":{"type":"Point","coordinates":[27.04443,38.55991]}},{"type":"Feature","properties":{"id":"bus-748-s21401","kind":"busstop","ref":"748","name":"Tarımsal Araştırma","lines":["602","660","698","749","800"]},"geometry":{"type":"Point","coordinates":[27.05219,38.56674]}},{"type":"Feature","properties":{"id":"bus-748-s21403","kind":"busstop","ref":"748","name":"Koyundere","lines":["602","660","698","749","800"]},"geometry":{"type":"Point","coordinates":[27.06011,38.57355]}},{"type":"Feature","properties":{"id":"bus-748-s21627","kind":"busstop","ref":"748","name":"Koyundere Eski Son Durak","lines":["648","698"]},"geometry":{"type":"Point","coordinates":[27.06401,38.57657]}},{"type":"Feature","properties":{"id":"bus-748-s24282","kind":"busstop","ref":"748","name":"Koyundere Fatih Cami","lines":["648","698"]},"geometry":{"type":"Point","coordinates":[27.06538,38.57566]}},{"type":"Feature","properties":{"id":"bus-748-s21629","kind":"busstop","ref":"748","name":"Koyundere Kahveler","lines":["648","698","848"]},"geometry":{"type":"Point","coordinates":[27.06729,38.57441]}},{"type":"Feature","properties":{"id":"bus-748-s21631","kind":"busstop","ref":"748","name":"İstiklal","lines":["648","698","848"]},"geometry":{"type":"Point","coordinates":[27.06886,38.57296]}},{"type":"Feature","properties":{"id":"bus-748-s21633","kind":"busstop","ref":"748","name":"Ege","lines":["698"]},"geometry":{"type":"Point","coordinates":[27.07003,38.57496]}},{"type":"Feature","properties":{"id":"bus-748-s21635","kind":"busstop","ref":"748","name":"Çocuk Parkı","lines":["698"]},"geometry":{"type":"Point","coordinates":[27.07051,38.57701]}},{"type":"Feature","properties":{"id":"bus-748-s21637","kind":"busstop","ref":"748","name":"Kılıçkent","lines":["698"]},"geometry":{"type":"Point","coordinates":[27.07212,38.5769]}},{"type":"Feature","properties":{"id":"bus-748-s23276","kind":"busstop","ref":"748","name":"Kemal Atatürk Parkı","lines":["698"]},"geometry":{"type":"Point","coordinates":[27.07429,38.57717]}},{"type":"Feature","properties":{"id":"bus-748-s21639","kind":"busstop","ref":"748","name":"Güvenel","lines":["698"]},"geometry":{"type":"Point","coordinates":[27.07402,38.57892]}},{"type":"Feature","properties":{"id":"bus-748-s21641","kind":"busstop","ref":"748","name":"Aksu","lines":["698"]},"geometry":{"type":"Point","coordinates":[27.07625,38.58126]}},{"type":"Feature","properties":{"id":"bus-748-s21643","kind":"busstop","ref":"748","name":"Şehit Er Serdar Amak Ortaokulu","lines":["698"]},"geometry":{"type":"Point","coordinates":[27.07902,38.58395]}},{"type":"Feature","properties":{"id":"bus-748-s21645","kind":"busstop","ref":"748","name":"Mutlu","lines":["648","698"]},"geometry":{"type":"Point","coordinates":[27.08052,38.5843]}},{"type":"Feature","properties":{"id":"bus-748-s21647","kind":"busstop","ref":"748","name":"Vali Kutlu Aktaş","lines":["648","698"]},"geometry":{"type":"Point","coordinates":[27.08232,38.58162]}},{"type":"Feature","properties":{"id":"bus-748-s21649","kind":"busstop","ref":"748","name":"Koyundereli Hacı Mehmet Camii","lines":["648","698"]},"geometry":{"type":"Point","coordinates":[27.08518,38.58229]}},{"type":"Feature","properties":{"id":"bus-748-s21651","kind":"busstop","ref":"748","name":"Fatma Koşay İlköğretim Okulu","lines":["648","698"]},"geometry":{"type":"Point","coordinates":[27.08871,38.58401]}},{"type":"Feature","properties":{"id":"bus-748-s21653","kind":"busstop","ref":"748","name":"Asarlık Toki Evleri","lines":["648","658","698"]},"geometry":{"type":"Point","coordinates":[27.09164,38.58331]}},{"type":"Feature","properties":{"id":"bus-748-s23971","kind":"busstop","ref":"748","name":"Yeşilpınar Muhtarlık","lines":[]},"geometry":{"type":"Point","coordinates":[27.09352,38.58395]}},{"type":"Feature","properties":{"id":"bus-748-s21659","kind":"busstop","ref":"748","name":"Aktaşlar","lines":["648","658"]},"geometry":{"type":"Point","coordinates":[27.09,38.5855]}},{"type":"Feature","properties":{"id":"bus-748-s21661","kind":"busstop","ref":"748","name":"Beyaz Ev","lines":["648","658"]},"geometry":{"type":"Point","coordinates":[27.08613,38.58655]}},{"type":"Feature","properties":{"id":"bus-748-s21663","kind":"busstop","ref":"748","name":"Duman","lines":["648","658"]},"geometry":{"type":"Point","coordinates":[27.08322,38.58654]}},{"type":"Feature","properties":{"id":"bus-748-s21665","kind":"busstop","ref":"748","name":"Asarlık Pazar Yeri","lines":["648","658"]},"geometry":{"type":"Point","coordinates":[27.08396,38.58863]}},{"type":"Feature","properties":{"id":"bus-748-s22017","kind":"busstop","ref":"748","name":"Asarlık Köprü","lines":["648","658"]},"geometry":{"type":"Point","coordinates":[27.08422,38.59072]}},{"type":"Feature","properties":{"id":"bus-748-s21667","kind":"busstop","ref":"748","name":"Asarlık Park","lines":["648","658"]},"geometry":{"type":"Point","coordinates":[27.08214,38.5935]}},{"type":"Feature","properties":{"id":"bus-748-s21669","kind":"busstop","ref":"748","name":"Fırın","lines":["658","749"]},"geometry":{"type":"Point","coordinates":[27.08008,38.59534]}},{"type":"Feature","properties":{"id":"bus-748-s21671","kind":"busstop","ref":"748","name":"Zerdeçal","lines":["658","749"]},"geometry":{"type":"Point","coordinates":[27.08304,38.59599]}},{"type":"Feature","properties":{"id":"bus-748-s21695","kind":"busstop","ref":"748","name":"Papatya","lines":["658","749"]},"geometry":{"type":"Point","coordinates":[27.08696,38.59781]}},{"type":"Feature","properties":{"id":"bus-748-s21691","kind":"busstop","ref":"748","name":"Nergis","lines":["658","749"]},"geometry":{"type":"Point","coordinates":[27.08761,38.59967]}},{"type":"Feature","properties":{"id":"bus-748-s21673","kind":"busstop","ref":"748","name":"Miyase İnceer İlkokulu-Ortaokulu","lines":["648","658","749"]},"geometry":{"type":"Point","coordinates":[27.08755,38.60263]}},{"type":"Feature","properties":{"id":"bus-748-s21675","kind":"busstop","ref":"748","name":"Menemen Devlet Hastanesi","lines":["648","658","749"]},"geometry":{"type":"Point","coordinates":[27.08659,38.60674]}},{"type":"Feature","properties":{"id":"bus-748-s23604","kind":"busstop","ref":"748","name":"Menemen Devlet Hastanesi Kavşak","lines":["648","658","747","749","753","759","868"]},"geometry":{"type":"Point","coordinates":[27.08518,38.6081]}},{"type":"Feature","properties":{"id":"bus-748-s21698","kind":"busstop","ref":"748","name":"İstasyon Köprü","lines":["648","658","747","749","753","759","868"]},"geometry":{"type":"Point","coordinates":[27.08056,38.60522]}},{"type":"Feature","properties":{"id":"bus-748-s23536","kind":"busstop","ref":"748","name":"Menemen İzban","lines":["648","658","747","749","753","759","868"]},"geometry":{"type":"Point","coordinates":[27.0778,38.60325]}},{"type":"Feature","properties":{"id":"bus-748-s21417","kind":"busstop","ref":"748","name":"Menemen Jandarma","lines":["602","648","658","660","747","749","753","759","800","868"]},"geometry":{"type":"Point","coordinates":[27.0767,38.6069]}},{"type":"Feature","properties":{"id":"bus-748-s21419","kind":"busstop","ref":"748","name":"Menemen Üst Geçit","lines":["602","648","658","660","747","749","753","759","800","868"]},"geometry":{"type":"Point","coordinates":[27.07585,38.6085]}},{"type":"Feature","properties":{"id":"bus-748-s23976","kind":"busstop","ref":"748","name":"Menemen Garaj","lines":["602","648","658","660","747","749","753","759","800","868"]},"geometry":{"type":"Point","coordinates":[27.07405,38.61176]}},{"type":"Feature","properties":{"id":"bus-748-s22371","kind":"busstop","ref":"748","name":"Menemen Garaj Karşısı","lines":["602","648","657","658","747","749","753","755","756","758","759","800","868"]},"geometry":{"type":"Point","coordinates":[27.07161,38.6109]}},{"type":"Feature","properties":{"id":"bus-748-s22365","kind":"busstop","ref":"748","name":"Menemen Toplum Sağlığı Merkezi","lines":["602","648","657","658","747","749","753","755","756","758","759","800","868"]},"geometry":{"type":"Point","coordinates":[27.07096,38.60949]}},{"type":"Feature","properties":{"id":"bus-748-s22391","kind":"busstop","ref":"748","name":"Menemen Şehir Parkı","lines":["602","648","657","658","747","749","753","755","756","758","759","800","868"]},"geometry":{"type":"Point","coordinates":[27.07391,38.60724]}},{"type":"Feature","properties":{"id":"bus-748-s22255","kind":"busstop","ref":"748","name":"Menemen Aktarma Merkezi","lines":["749"]},"geometry":{"type":"Point","coordinates":[27.07637,38.60374]}},{"type":"Feature","properties":{"id":"bus-748-s22390","kind":"busstop","ref":"748","name":"Menemen Şehir Parkı","lines":["602","648","657","658","747","749","753","755","756","758","759","800","868"]},"geometry":{"type":"Point","coordinates":[27.07398,38.60731]}},{"type":"Feature","properties":{"id":"bus-748-s22364","kind":"busstop","ref":"748","name":"Menemen Toplum Sağlığı Merkezi","lines":["602","648","657","658","747","749","753","755","756","758","759","800","868"]},"geometry":{"type":"Point","coordinates":[27.07127,38.60966]}},{"type":"Feature","properties":{"id":"bus-748-s22370","kind":"busstop","ref":"748","name":"Menemen Garaj Karşısı","lines":["602","648","657","658","747","749","753","755","756","758","759","800","868"]},"geometry":{"type":"Point","coordinates":[27.07181,38.6112]}},{"type":"Feature","properties":{"id":"bus-748-s24192","kind":"busstop","ref":"748","name":"Menemen Garaj","lines":["602","648","658","660","747","749","753","759","800","868"]},"geometry":{"type":"Point","coordinates":[27.07367,38.61168]}},{"type":"Feature","properties":{"id":"bus-748-s21418","kind":"busstop","ref":"748","name":"Menemen Üst Geçit","lines":["602","648","658","660","747","749","753","759","800","868"]},"geometry":{"type":"Point","coordinates":[27.07534,38.60892]}},{"type":"Feature","properties":{"id":"bus-748-s21416","kind":"busstop","ref":"748","name":"Menemen Jandarma","lines":["602","648","658","660","747","749","753","759","800","868"]},"geometry":{"type":"Point","coordinates":[27.0764,38.6069]}},{"type":"Feature","properties":{"id":"bus-748-s21697","kind":"busstop","ref":"748","name":"İstasyon Köprü","lines":["648","658","747","749","753","759","868"]},"geometry":{"type":"Point","coordinates":[27.07948,38.60428]}},{"type":"Feature","properties":{"id":"bus-748-s21713","kind":"busstop","ref":"748","name":"Menemen Devlet Hastanesi Kavşak","lines":["648","658","747","749","753","759","868"]},"geometry":{"type":"Point","coordinates":[27.08514,38.60771]}},{"type":"Feature","properties":{"id":"bus-748-s21674","kind":"busstop","ref":"748","name":"Menemen Devlet Hastanesi","lines":["648","658","749"]},"geometry":{"type":"Point","coordinates":[27.08665,38.60621]}},{"type":"Feature","properties":{"id":"bus-748-s21672","kind":"busstop","ref":"748","name":"Miyase İnceer İlkokulu-Ortaokulu","lines":["648","658","749"]},"geometry":{"type":"Point","coordinates":[27.08736,38.60263]}},{"type":"Feature","properties":{"id":"bus-748-s21692","kind":"busstop","ref":"748","name":"Nergis","lines":["658","749"]},"geometry":{"type":"Point","coordinates":[27.08748,38.59979]}},{"type":"Feature","properties":{"id":"bus-748-s21696","kind":"busstop","ref":"748","name":"Papatya","lines":["658","749"]},"geometry":{"type":"Point","coordinates":[27.0867,38.59778]}},{"type":"Feature","properties":{"id":"bus-748-s21670","kind":"busstop","ref":"748","name":"Zerdeçal","lines":["658","749"]},"geometry":{"type":"Point","coordinates":[27.08306,38.59609]}},{"type":"Feature","properties":{"id":"bus-748-s21668","kind":"busstop","ref":"748","name":"Fırın","lines":["658","749"]},"geometry":{"type":"Point","coordinates":[27.07992,38.59551]}},{"type":"Feature","properties":{"id":"bus-748-s21666","kind":"busstop","ref":"748","name":"Asarlık Park","lines":["648","658","749"]},"geometry":{"type":"Point","coordinates":[27.0821,38.59342]}},{"type":"Feature","properties":{"id":"bus-748-s21568","kind":"busstop","ref":"748","name":"Asarlık Köprü","lines":["648","658","749"]},"geometry":{"type":"Point","coordinates":[27.08448,38.59053]}},{"type":"Feature","properties":{"id":"bus-748-s21664","kind":"busstop","ref":"748","name":"Asarlık Pazar Yeri","lines":["648","658","749"]},"geometry":{"type":"Point","coordinates":[27.08377,38.58868]}},{"type":"Feature","properties":{"id":"bus-748-s21662","kind":"busstop","ref":"748","name":"Duman","lines":["648","658"]},"geometry":{"type":"Point","coordinates":[27.0833,38.58645]}},{"type":"Feature","properties":{"id":"bus-748-s21660","kind":"busstop","ref":"748","name":"Beyaz Ev","lines":["648","658"]},"geometry":{"type":"Point","coordinates":[27.08605,38.58653]}},{"type":"Feature","properties":{"id":"bus-748-s21658","kind":"busstop","ref":"748","name":"Aktaşlar","lines":["648","658"]},"geometry":{"type":"Point","coordinates":[27.08989,38.58545]}},{"type":"Feature","properties":{"id":"bus-748-s23970","kind":"busstop","ref":"748","name":"Yeşilpınar Muhtarlık","lines":[]},"geometry":{"type":"Point","coordinates":[27.09343,38.58386]}},{"type":"Feature","properties":{"id":"bus-748-s21652","kind":"busstop","ref":"748","name":"Asarlık Toki Evleri","lines":["648","658","698"]},"geometry":{"type":"Point","coordinates":[27.09174,38.58335]}},{"type":"Feature","properties":{"id":"bus-748-s21650","kind":"busstop","ref":"748","name":"Fatma Koşay İlköğretim Okulu","lines":["648","698"]},"geometry":{"type":"Point","coordinates":[27.08883,38.58406]}},{"type":"Feature","properties":{"id":"bus-748-s21648","kind":"busstop","ref":"748","name":"Koyundereli Hacı Mehmet Camii","lines":["648","698"]},"geometry":{"type":"Point","coordinates":[27.08528,38.58244]}},{"type":"Feature","properties":{"id":"bus-748-s21646","kind":"busstop","ref":"748","name":"Vali Kutlu Aktaş","lines":["648","698"]},"geometry":{"type":"Point","coordinates":[27.08242,38.58165]}},{"type":"Feature","properties":{"id":"bus-748-s21644","kind":"busstop","ref":"748","name":"Mutlu","lines":["648","698"]},"geometry":{"type":"Point","coordinates":[27.08056,38.58426]}},{"type":"Feature","properties":{"id":"bus-748-s21642","kind":"busstop","ref":"748","name":"Şehit Er Serdar Amak Ortaokulu","lines":["698"]},"geometry":{"type":"Point","coordinates":[27.07821,38.58338]}},{"type":"Feature","properties":{"id":"bus-748-s21640","kind":"busstop","ref":"748","name":"Aksu","lines":["698"]},"geometry":{"type":"Point","coordinates":[27.0762,38.58144]}},{"type":"Feature","properties":{"id":"bus-748-s21638","kind":"busstop","ref":"748","name":"Güvenel","lines":["698"]},"geometry":{"type":"Point","coordinates":[27.07383,38.57912]}},{"type":"Feature","properties":{"id":"bus-748-s23277","kind":"busstop","ref":"748","name":"Kemal Atatürk Parkı","lines":["698"]},"geometry":{"type":"Point","coordinates":[27.07406,38.57717]}},{"type":"Feature","properties":{"id":"bus-748-s21636","kind":"busstop","ref":"748","name":"Kılıçkent","lines":["698"]},"geometry":{"type":"Point","coordinates":[27.07239,38.5776]}},{"type":"Feature","properties":{"id":"bus-748-s21634","kind":"busstop","ref":"748","name":"Çocuk Parkı","lines":["698"]},"geometry":{"type":"Point","coordinates":[27.07045,38.57711]}},{"type":"Feature","properties":{"id":"bus-748-s21632","kind":"busstop","ref":"748","name":"Ege","lines":["698"]},"geometry":{"type":"Point","coordinates":[27.0699,38.57491]}},{"type":"Feature","properties":{"id":"bus-748-s21630","kind":"busstop","ref":"748","name":"İstiklal","lines":["648","698","848"]},"geometry":{"type":"Point","coordinates":[27.069,38.5729]}},{"type":"Feature","properties":{"id":"bus-748-s21628","kind":"busstop","ref":"748","name":"Koyundere Kahveler","lines":["648","698","848"]},"geometry":{"type":"Point","coordinates":[27.06745,38.57454]}},{"type":"Feature","properties":{"id":"bus-748-s24281","kind":"busstop","ref":"748","name":"Koyundere Fatih Cami","lines":["648","698"]},"geometry":{"type":"Point","coordinates":[27.06541,38.57573]}},{"type":"Feature","properties":{"id":"bus-748-s21626","kind":"busstop","ref":"748","name":"Koyundere Eski Son Durak","lines":["648","698"]},"geometry":{"type":"Point","coordinates":[27.0641,38.57665]}},{"type":"Feature","properties":{"id":"bus-748-s21402","kind":"busstop","ref":"748","name":"Koyundere","lines":["602","660","698","749","800"]},"geometry":{"type":"Point","coordinates":[27.0603,38.5741]}},{"type":"Feature","properties":{"id":"bus-748-s21400","kind":"busstop","ref":"748","name":"Tarımsal Araştırma","lines":["602","660","698","749","800"]},"geometry":{"type":"Point","coordinates":[27.0515,38.5665]}},{"type":"Feature","properties":{"id":"bus-748-s21398","kind":"busstop","ref":"748","name":"Bakım Merkezi","lines":["602","660","698","749","800"]},"geometry":{"type":"Point","coordinates":[27.04766,38.56336]}},{"type":"Feature","properties":{"id":"bus-748-s21396","kind":"busstop","ref":"748","name":"Üst Geçit","lines":["128","602","660","698","800","848"]},"geometry":{"type":"Point","coordinates":[27.04342,38.55949]}},{"type":"Feature","properties":{"id":"bus-748-s21394","kind":"busstop","ref":"748","name":"Ulukent Trafo","lines":["128","602","660","698","800","848"]},"geometry":{"type":"Point","coordinates":[27.0408,38.5558]}},{"type":"Feature","properties":{"id":"bus-748-s21562","kind":"busstop","ref":"748","name":"Top Sahası","lines":["428","698","848"]},"geometry":{"type":"Point","coordinates":[27.0408,38.5511]}}]}