{"type":"FeatureCollection","features":[{"type":"Feature","properties":{"id":"bus-749-1","kind":"busline","ref":"749","dir":1},"geometry":{"type":"LineString","coordinates":[[27.0383,38.5495],[27.0376,38.5495],[27.0375,38.5498],[27.0381,38.5509],[27.0385,38.5509],[27.0388,38.5505],[27.0381,38.5499],[27.0372,38.5498],[27.0369,38.55],[27.0374,38.5511],[27.0376,38.5512],[27.0379,38.5512],[27.038,38.5509],[27.0357,38.5472],[27.0349,38.5455],[27.0333,38.5387],[27.0396,38.5385],[27.0408,38.5399],[27.0424,38.5407],[27.0438,38.54],[27.0444,38.5409],[27.0426,38.5419],[27.043,38.5428],[27.0435,38.543],[27.0449,38.5429],[27.0458,38.5431],[27.0458,38.5433],[27.0447,38.544],[27.0432,38.5446],[27.0427,38.5451],[27.0422,38.5453],[27.0422,38.5456],[27.0437,38.548],[27.044,38.5492],[27.045,38.5513],[27.0466,38.5533],[27.0489,38.5567],[27.05,38.5563],[27.0498,38.554],[27.049,38.5512],[27.0485,38.5474],[27.0516,38.547],[27.0519,38.5481],[27.0538,38.5495],[27.0524,38.5498],[27.0559,38.554],[27.0562,38.554],[27.0539,38.5561],[27.0545,38.5579],[27.0563,38.5592],[27.0533,38.56],[27.0521,38.559],[27.0505,38.5589],[27.0487,38.5568],[27.046,38.5572],[27.0445,38.5587],[27.0442,38.5587],[27.0457,38.5605],[27.0453,38.5608],[27.0455,38.5612],[27.0593,38.5728],[27.0654,38.579],[27.0702,38.5826],[27.071,38.5834],[27.0716,38.5841],[27.0742,38.5897],[27.0751,38.5927],[27.0758,38.5942],[27.0779,38.5949],[27.0854,38.5966],[27.0864,38.5972],[27.0876,38.5991],[27.0877,38.6011],[27.0874,38.604],[27.0865,38.6071],[27.0863,38.6073],[27.0862,38.6083],[27.0849,38.608],[27.0796,38.6045],[27.078,38.6037],[27.0771,38.6027],[27.0767,38.6025],[27.0768,38.6022],[27.0783,38.6038],[27.0788,38.6038],[27.0791,38.6034],[27.0791,38.6025],[27.0788,38.6022],[27.0785,38.6022],[27.0784,38.6036],[27.0778,38.6051],[27.0747,38.6107],[27.0734,38.6124],[27.0718,38.6114],[27.0716,38.6105],[27.071,38.6094],[27.0721,38.6088],[27.0733,38.6077],[27.0757,38.6062],[27.0773,38.6046],[27.0776,38.6045],[27.0774,38.6041],[27.0769,38.6038],[27.0757,38.6036],[27.0762,38.6037]]}},{"type":"Feature","properties":{"id":"bus-749-2","kind":"busline","ref":"749","dir":2},"geometry":{"type":"LineString","coordinates":[[27.0762,38.6037],[27.0757,38.6036],[27.0769,38.6038],[27.0774,38.6041],[27.0776,38.6045],[27.0757,38.6062],[27.0733,38.6077],[27.0721,38.6088],[27.071,38.6094],[27.0716,38.6105],[27.0718,38.6114],[27.0727,38.612],[27.0734,38.6121],[27.0744,38.6109],[27.0779,38.6044],[27.0782,38.6037],[27.0782,38.6027],[27.0781,38.6022],[27.0778,38.6019],[27.0775,38.602],[27.0772,38.6025],[27.078,38.6036],[27.0791,38.604],[27.084,38.6073],[27.0853,38.6079],[27.0861,38.6079],[27.0873,38.604],[27.0876,38.6012],[27.0875,38.5991],[27.0863,38.5972],[27.0854,38.5967],[27.0839,38.5962],[27.0795,38.5954],[27.08,38.5948],[27.0838,38.5922],[27.0847,38.5919],[27.0844,38.5907],[27.0849,38.5897],[27.08,38.585],[27.0793,38.5857],[27.0785,38.5874],[27.074,38.5896],[27.0724,38.586],[27.0709,38.5834],[27.0653,38.5791],[27.0575,38.5714],[27.0453,38.5613],[27.0449,38.5608],[27.0454,38.5608],[27.0457,38.5605],[27.0442,38.5587],[27.0446,38.5585],[27.0459,38.5571],[27.0487,38.5568],[27.0505,38.5589],[27.0521,38.559],[27.0533,38.56],[27.0563,38.5592],[27.0545,38.5579],[27.0539,38.5561],[27.0562,38.554],[27.0559,38.554],[27.0523,38.5498],[27.0538,38.5495],[27.0519,38.5481],[27.0516,38.547],[27.0485,38.5474],[27.049,38.5512],[27.0498,38.554],[27.05,38.5563],[27.0487,38.5568],[27.0464,38.5533],[27.0453,38.552],[27.0443,38.5502],[27.0436,38.548],[27.0421,38.5459],[27.0422,38.5453],[27.0427,38.5451],[27.0432,38.5446],[27.0447,38.544],[27.0458,38.5433],[27.0458,38.5431],[27.0449,38.5429],[27.0435,38.543],[27.043,38.5428],[27.0426,38.5419],[27.0444,38.5409],[27.0438,38.54],[27.0424,38.5407],[27.0408,38.5399],[27.0396,38.5385],[27.0344,38.5386],[27.0337,38.5388],[27.0338,38.5401],[27.0346,38.5437],[27.0355,38.5466],[27.037,38.5491],[27.0374,38.5494],[27.0394,38.5491],[27.0393,38.5494],[27.0383,38.5495]]}},{"type":"Feature","properties":{"id":"bus-749-s21545","kind":"busstop","ref":"749","name":"Ulukent Aktarma","lines":["428","695","698","748","826","827","848"]},"geometry":{"type":"Point","coordinates":[27.0381,38.5494]}},{"type":"Feature","properties":{"id":"bus-749-s21392","kind":"busstop","ref":"749","name":"Ulukent Gar","lines":["128","428","602","660","695","800","826","827"]},"geometry":{"type":"Point","coordinates":[27.0351,38.5465]}},{"type":"Feature","properties":{"id":"bus-749-s21390","kind":"busstop","ref":"749","name":"Kargılar","lines":["128","428","602","660","695","800","826","827"]},"geometry":{"type":"Point","coordinates":[27.0346,38.5445]}},{"type":"Feature","properties":{"id":"bus-749-s21388","kind":"busstop","ref":"749","name":"Eski Yol","lines":["128","428","602","660","695","800","826","827"]},"geometry":{"type":"Point","coordinates":[27.03375,38.54088]}},{"type":"Feature","properties":{"id":"bus-749-s21519","kind":"busstop","ref":"749","name":"9 Eylül Muhtarlık","lines":["695","826","827"]},"geometry":{"type":"Point","coordinates":[27.0356,38.5383]}},{"type":"Feature","properties":{"id":"bus-749-s21509","kind":"busstop","ref":"749","name":"Ulukent Ortaokulu","lines":["826","827"]},"geometry":{"type":"Point","coordinates":[27.03881,38.53837]}},{"type":"Feature","properties":{"id":"bus-749-s21521","kind":"busstop","ref":"749","name":"Zirve","lines":["826","827"]},"geometry":{"type":"Point","coordinates":[27.0419,38.5402]}},{"type":"Feature","properties":{"id":"bus-749-s21539","kind":"busstop","ref":"749","name":"Ulu-Koop","lines":["695","826","827"]},"geometry":{"type":"Point","coordinates":[27.04429,38.54053]}},{"type":"Feature","properties":{"id":"bus-749-s21365","kind":"busstop","ref":"749","name":"Simge Sitesi","lines":["695","826","827"]},"geometry":{"type":"Point","coordinates":[27.0426,38.542]}},{"type":"Feature","properties":{"id":"bus-749-s22533","kind":"busstop","ref":"749","name":"Ulukent Üçyol","lines":["695","826","827"]},"geometry":{"type":"Point","coordinates":[27.04551,38.54299]}},{"type":"Feature","properties":{"id":"bus-749-s22521","kind":"busstop","ref":"749","name":"Ulukent Mezarlık","lines":["826"]},"geometry":{"type":"Point","coordinates":[27.04453,38.54411]}},{"type":"Feature","properties":{"id":"bus-749-s23975","kind":"busstop","ref":"749","name":"4. Cadde","lines":["826"]},"geometry":{"type":"Point","coordinates":[27.04276,38.54656]}},{"type":"Feature","properties":{"id":"bus-749-s22523","kind":"busstop","ref":"749","name":"Çocuk Bahçesi","lines":["826"]},"geometry":{"type":"Point","coordinates":[27.04418,38.54935]}},{"type":"Feature","properties":{"id":"bus-749-s22525","kind":"busstop","ref":"749","name":"Egekent 2 Sağlık Ocağı","lines":["826"]},"geometry":{"type":"Point","coordinates":[27.0464,38.5531]}},{"type":"Feature","properties":{"id":"bus-749-s22537","kind":"busstop","ref":"749","name":"Egekent 2 Pazaryeri","lines":["608","826"]},"geometry":{"type":"Point","coordinates":[27.04784,38.55522]}},{"type":"Feature","properties":{"id":"bus-749-s21552","kind":"busstop","ref":"749","name":"EGEKENT-2-SON DURAK","lines":["128","428","826"]},"geometry":{"type":"Point","coordinates":[27.0498,38.5548]}},{"type":"Feature","properties":{"id":"bus-749-s21550","kind":"busstop","ref":"749","name":"Kent 2","lines":["128","428","608","826"]},"geometry":{"type":"Point","coordinates":[27.04899,38.55165]}},{"type":"Feature","properties":{"id":"bus-749-s21548","kind":"busstop","ref":"749","name":"Şelale","lines":["128","428","608","826"]},"geometry":{"type":"Point","coordinates":[27.04874,38.54944]}},{"type":"Feature","properties":{"id":"bus-749-s21566","kind":"busstop","ref":"749","name":"Umut","lines":["128","428","826"]},"geometry":{"type":"Point","coordinates":[27.05101,38.54693]}},{"type":"Feature","properties":{"id":"bus-749-s23725","kind":"busstop","ref":"749","name":"Menemen İmam-Hatip Ortaokulu","lines":["128","428","826"]},"geometry":{"type":"Point","coordinates":[27.0531,38.54891]}},{"type":"Feature","properties":{"id":"bus-749-s21546","kind":"busstop","ref":"749","name":"Santral","lines":["128","428","826"]},"geometry":{"type":"Point","coordinates":[27.05278,38.55015]}},{"type":"Feature","properties":{"id":"bus-749-s21542","kind":"busstop","ref":"749","name":"Metrokent","lines":["128","428","826"]},"geometry":{"type":"Point","coordinates":[27.0542,38.5519]}},{"type":"Feature","properties":{"id":"bus-749-s21540","kind":"busstop","ref":"749","name":"Manzara","lines":["128","428","826"]},"geometry":{"type":"Point","coordinates":[27.05592,38.55439]}},{"type":"Feature","properties":{"id":"bus-749-s21536","kind":"busstop","ref":"749","name":"Taş Duvar","lines":["128","428","848"]},"geometry":{"type":"Point","coordinates":[27.0544,38.5555]}},{"type":"Feature","properties":{"id":"bus-749-s24254","kind":"busstop","ref":"749","name":"Basketbol Sahası","lines":["128","428","848"]},"geometry":{"type":"Point","coordinates":[27.05426,38.55693]}},{"type":"Feature","properties":{"id":"bus-749-s21534","kind":"busstop","ref":"749","name":"Centaş 2 Sitesi","lines":["128","428","848"]},"geometry":{"type":"Point","coordinates":[27.05543,38.55848]}},{"type":"Feature","properties":{"id":"bus-749-s21564","kind":"busstop","ref":"749","name":"Yamaç","lines":["128","428","848"]},"geometry":{"type":"Point","coordinates":[27.0554,38.5595]}},{"type":"Feature","properties":{"id":"bus-749-s21532","kind":"busstop","ref":"749","name":"Centaş","lines":["128","428","848"]},"geometry":{"type":"Point","coordinates":[27.0528,38.5596]}},{"type":"Feature","properties":{"id":"bus-749-s21530","kind":"busstop","ref":"749","name":"Cansu Sitesi","lines":["128","428","608","848"]},"geometry":{"type":"Point","coordinates":[27.0499,38.5581]}},{"type":"Feature","properties":{"id":"bus-749-s21528","kind":"busstop","ref":"749","name":"Ege","lines":["128","428","848"]},"geometry":{"type":"Point","coordinates":[27.0483,38.5569]}},{"type":"Feature","properties":{"id":"bus-749-s21526","kind":"busstop","ref":"749","name":"İrem Sitesi","lines":["128","848"]},"geometry":{"type":"Point","coordinates":[27.04555,38.55766]}},{"type":"Feature","properties":{"id":"bus-749-s21524","kind":"busstop","ref":"749","name":"Market","lines":["128","848"]},"geometry":{"type":"Point","coordinates":[27.04522,38.55977]}},{"type":"Feature","properties":{"id":"bus-749-s21401","kind":"busstop","ref":"749","name":"Tarımsal Araştırma","lines":["602","660","698","748","800"]},"geometry":{"type":"Point","coordinates":[27.05219,38.56674]}},{"type":"Feature","properties":{"id":"bus-749-s21403","kind":"busstop","ref":"749","name":"Koyundere","lines":["602","660","698","748","800"]},"geometry":{"type":"Point","coordinates":[27.06011,38.57355]}},{"type":"Feature","properties":{"id":"bus-749-s21405","kind":"busstop","ref":"749","name":"Koyundere İlkokulu","lines":["602","660","800"]},"geometry":{"type":"Point","coordinates":[27.06367,38.5771]}},{"type":"Feature","properties":{"id":"bus-749-s23917","kind":"busstop","ref":"749","name":"Sedir","lines":["602","648","660","800"]},"geometry":{"type":"Point","coordinates":[27.06555,38.57901]}},{"type":"Feature","properties":{"id":"bus-749-s23988","kind":"busstop","ref":"749","name":"Havacılık Lisesi","lines":["602","648","660","800"]},"geometry":{"type":"Point","coordinates":[27.06742,38.58041]}},{"type":"Feature","properties":{"id":"bus-749-s21407","kind":"busstop","ref":"749","name":"Asarlık Giriş","lines":["602","648","660","800"]},"geometry":{"type":"Point","coordinates":[27.07049,38.58273]}},{"type":"Feature","properties":{"id":"bus-749-s21409","kind":"busstop","ref":"749","name":"Haldun Koşay Lisesi","lines":["602","648","660","800"]},"geometry":{"type":"Point","coordinates":[27.07308,38.58698]}},{"type":"Feature","properties":{"id":"bus-749-s21411","kind":"busstop","ref":"749","name":"Asarlık Mezarlık","lines":["602","660","800"]},"geometry":{"type":"Point","coordinates":[27.07479,38.591]}},{"type":"Feature","properties":{"id":"bus-749-s24191","kind":"busstop","ref":"749","name":"Can","lines":[]},"geometry":{"type":"Point","coordinates":[27.07691,38.5945]}},{"type":"Feature","properties":{"id":"bus-749-s21669","kind":"busstop","ref":"749","name":"Fırın","lines":["658","748"]},"geometry":{"type":"Point","coordinates":[27.08008,38.59534]}},{"type":"Feature","properties":{"id":"bus-749-s21671","kind":"busstop","ref":"749","name":"Zerdeçal","lines":["658","748"]},"geometry":{"type":"Point","coordinates":[27.08304,38.59599]}},{"type":"Feature","properties":{"id":"bus-749-s21695","kind":"busstop","ref":"749","name":"Papatya","lines":["658","748"]},"geometry":{"type":"Point","coordinates":[27.08696,38.59781]}},{"type":"Feature","properties":{"id":"bus-749-s21691","kind":"busstop","ref":"749","name":"Nergis","lines":["658","748"]},"geometry":{"type":"Point","coordinates":[27.08761,38.59967]}},{"type":"Feature","properties":{"id":"bus-749-s21673","kind":"busstop","ref":"749","name":"Miyase İnceer İlkokulu-Ortaokulu","lines":["648","658","748"]},"geometry":{"type":"Point","coordinates":[27.08755,38.60263]}},{"type":"Feature","properties":{"id":"bus-749-s21675","kind":"busstop","ref":"749","name":"Menemen Devlet Hastanesi","lines":["648","658","748"]},"geometry":{"type":"Point","coordinates":[27.08659,38.60674]}},{"type":"Feature","properties":{"id":"bus-749-s23604","kind":"busstop","ref":"749","name":"Menemen Devlet Hastanesi Kavşak","lines":["648","658","747","748","753","759","868"]},"geometry":{"type":"Point","coordinates":[27.08518,38.6081]}},{"type":"Feature","properties":{"id":"bus-749-s21698","kind":"busstop","ref":"749","name":"İstasyon Köprü","lines":["648","658","747","748","753","759","868"]},"geometry":{"type":"Point","coordinates":[27.08056,38.60522]}},{"type":"Feature","properties":{"id":"bus-749-s23536","kind":"busstop","ref":"749","name":"Menemen İzban","lines":["648","658","747","748","753","759","868"]},"geometry":{"type":"Point","coordinates":[27.0778,38.60325]}},{"type":"Feature","properties":{"id":"bus-749-s21417","kind":"busstop","ref":"749","name":"Menemen Jandarma","lines":["602","648","658","660","747","748","753","759","800","868"]},"geometry":{"type":"Point","coordinates":[27.0767,38.6069]}},{"type":"Feature","properties":{"id":"bus-749-s21419","kind":"busstop","ref":"749","name":"Menemen Üst Geçit","lines":["602","648","658","660","747","748","753","759","800","868"]},"geometry":{"type":"Point","coordinates":[27.07585,38.6085]}},{"type":"Feature","properties":{"id":"bus-749-s23976","kind":"busstop","ref":"749","name":"Menemen Garaj","lines":["602","648","658","660","747","748","753","759","800","868"]},"geometry":{"type":"Point","coordinates":[27.07405,38.61176]}},{"type":"Feature","properties":{"id":"bus-749-s22371","kind":"busstop","ref":"749","name":"Menemen Garaj Karşısı","lines":["602","648","657","658","747","748","753","755","756","758","759","800","868"]},"geometry":{"type":"Point","coordinates":[27.07161,38.6109]}},{"type":"Feature","properties":{"id":"bus-749-s22365","kind":"busstop","ref":"749","name":"Menemen Toplum Sağlığı Merkezi","lines":["602","648","657","658","747","748","753","755","756","758","759","800","868"]},"geometry":{"type":"Point","coordinates":[27.07096,38.60949]}},{"type":"Feature","properties":{"id":"bus-749-s22391","kind":"busstop","ref":"749","name":"Menemen Şehir Parkı","lines":["602","648","657","658","747","748","753","755","756","758","759","800","868"]},"geometry":{"type":"Point","coordinates":[27.07391,38.60724]}},{"type":"Feature","properties":{"id":"bus-749-s22255","kind":"busstop","ref":"749","name":"Menemen Aktarma Merkezi","lines":["748"]},"geometry":{"type":"Point","coordinates":[27.07637,38.60374]}},{"type":"Feature","properties":{"id":"bus-749-s22390","kind":"busstop","ref":"749","name":"Menemen Şehir Parkı","lines":["602","648","657","658","747","748","753","755","756","758","759","800","868"]},"geometry":{"type":"Point","coordinates":[27.07398,38.60731]}},{"type":"Feature","properties":{"id":"bus-749-s22364","kind":"busstop","ref":"749","name":"Menemen Toplum Sağlığı Merkezi","lines":["602","648","657","658","747","748","753","755","756","758","759","800","868"]},"geometry":{"type":"Point","coordinates":[27.07127,38.60966]}},{"type":"Feature","properties":{"id":"bus-749-s22370","kind":"busstop","ref":"749","name":"Menemen Garaj Karşısı","lines":["602","648","657","658","747","748","753","755","756","758","759","800","868"]},"geometry":{"type":"Point","coordinates":[27.07181,38.6112]}},{"type":"Feature","properties":{"id":"bus-749-s24192","kind":"busstop","ref":"749","name":"Menemen Garaj","lines":["602","648","658","660","747","748","753","759","800","868"]},"geometry":{"type":"Point","coordinates":[27.07367,38.61168]}},{"type":"Feature","properties":{"id":"bus-749-s21418","kind":"busstop","ref":"749","name":"Menemen Üst Geçit","lines":["602","648","658","660","747","748","753","759","800","868"]},"geometry":{"type":"Point","coordinates":[27.07534,38.60892]}},{"type":"Feature","properties":{"id":"bus-749-s21416","kind":"busstop","ref":"749","name":"Menemen Jandarma","lines":["602","648","658","660","747","748","753","759","800","868"]},"geometry":{"type":"Point","coordinates":[27.0764,38.6069]}},{"type":"Feature","properties":{"id":"bus-749-s21697","kind":"busstop","ref":"749","name":"İstasyon Köprü","lines":["648","658","747","748","753","759","868"]},"geometry":{"type":"Point","coordinates":[27.07948,38.60428]}},{"type":"Feature","properties":{"id":"bus-749-s21713","kind":"busstop","ref":"749","name":"Menemen Devlet Hastanesi Kavşak","lines":["648","658","747","748","753","759","868"]},"geometry":{"type":"Point","coordinates":[27.08514,38.60771]}},{"type":"Feature","properties":{"id":"bus-749-s21674","kind":"busstop","ref":"749","name":"Menemen Devlet Hastanesi","lines":["648","658","748"]},"geometry":{"type":"Point","coordinates":[27.08665,38.60621]}},{"type":"Feature","properties":{"id":"bus-749-s21672","kind":"busstop","ref":"749","name":"Miyase İnceer İlkokulu-Ortaokulu","lines":["648","658","748"]},"geometry":{"type":"Point","coordinates":[27.08736,38.60263]}},{"type":"Feature","properties":{"id":"bus-749-s21692","kind":"busstop","ref":"749","name":"Nergis","lines":["658","748"]},"geometry":{"type":"Point","coordinates":[27.08748,38.59979]}},{"type":"Feature","properties":{"id":"bus-749-s21696","kind":"busstop","ref":"749","name":"Papatya","lines":["658","748"]},"geometry":{"type":"Point","coordinates":[27.0867,38.59778]}},{"type":"Feature","properties":{"id":"bus-749-s21670","kind":"busstop","ref":"749","name":"Zerdeçal","lines":["658","748"]},"geometry":{"type":"Point","coordinates":[27.08306,38.59609]}},{"type":"Feature","properties":{"id":"bus-749-s21668","kind":"busstop","ref":"749","name":"Fırın","lines":["658","748"]},"geometry":{"type":"Point","coordinates":[27.07992,38.59551]}},{"type":"Feature","properties":{"id":"bus-749-s21666","kind":"busstop","ref":"749","name":"Asarlık Park","lines":["648","658","748"]},"geometry":{"type":"Point","coordinates":[27.0821,38.59342]}},{"type":"Feature","properties":{"id":"bus-749-s21568","kind":"busstop","ref":"749","name":"Asarlık Köprü","lines":["648","658","748"]},"geometry":{"type":"Point","coordinates":[27.08448,38.59053]}},{"type":"Feature","properties":{"id":"bus-749-s21664","kind":"busstop","ref":"749","name":"Asarlık Pazar Yeri","lines":["648","658","748"]},"geometry":{"type":"Point","coordinates":[27.08377,38.58868]}},{"type":"Feature","properties":{"id":"bus-749-s23686","kind":"busstop","ref":"749","name":"Asarlık Su","lines":[]},"geometry":{"type":"Point","coordinates":[27.08067,38.5857]}},{"type":"Feature","properties":{"id":"bus-749-s23541","kind":"busstop","ref":"749","name":"Asarlık Polis Merkezi","lines":["648"]},"geometry":{"type":"Point","coordinates":[27.07686,38.58823]}},{"type":"Feature","properties":{"id":"bus-749-s21408","kind":"busstop","ref":"749","name":"Haldun Koşay Lisesi","lines":["602","648","660","800"]},"geometry":{"type":"Point","coordinates":[27.07251,38.58642]}},{"type":"Feature","properties":{"id":"bus-749-s21406","kind":"busstop","ref":"749","name":"Asarlık Giriş","lines":["602","648","660","800"]},"geometry":{"type":"Point","coordinates":[27.0693,38.58218]}},{"type":"Feature","properties":{"id":"bus-749-s23989","kind":"busstop","ref":"749","name":"Havacılık Lisesi","lines":["602","648","660","800"]},"geometry":{"type":"Point","coordinates":[27.06704,38.5805]}},{"type":"Feature","properties":{"id":"bus-749-s21404","kind":"busstop","ref":"749","name":"Koyundere İlkokulu","lines":["602","648","660","800"]},"geometry":{"type":"Point","coordinates":[27.06351,38.57735]}},{"type":"Feature","properties":{"id":"bus-749-s21402","kind":"busstop","ref":"749","name":"Koyundere","lines":["602","660","698","748","800"]},"geometry":{"type":"Point","coordinates":[27.0603,38.5741]}},{"type":"Feature","properties":{"id":"bus-749-s21400","kind":"busstop","ref":"749","name":"Tarımsal Araştırma","lines":["602","660","698","748","800"]},"geometry":{"type":"Point","coordinates":[27.0515,38.5665]}},{"type":"Feature","properties":{"id":"bus-749-s21398","kind":"busstop","ref":"749","name":"Bakım Merkezi","lines":["602","660","698","748","800"]},"geometry":{"type":"Point","coordinates":[27.04766,38.56336]}},{"type":"Feature","properties":{"id":"bus-749-s21523","kind":"busstop","ref":"749","name":"Market","lines":["128","848"]},"geometry":{"type":"Point","coordinates":[27.0453,38.5601]}},{"type":"Feature","properties":{"id":"bus-749-s21527","kind":"busstop","ref":"749","name":"İrem Sitesi","lines":["128","848"]},"geometry":{"type":"Point","coordinates":[27.0458,38.5573]}},{"type":"Feature","properties":{"id":"bus-749-s21529","kind":"busstop","ref":"749","name":"Ege","lines":["128","428","848"]},"geometry":{"type":"Point","coordinates":[27.0483,38.5568]}},{"type":"Feature","properties":{"id":"bus-749-s21531","kind":"busstop","ref":"749","name":"Cansu Sitesi","lines":["128","428","608","848"]},"geometry":{"type":"Point","coordinates":[27.05,38.5581]}},{"type":"Feature","properties":{"id":"bus-749-s21533","kind":"busstop","ref":"749","name":"Centaş Sitesi","lines":["128","428","848"]},"geometry":{"type":"Point","coordinates":[27.05314,38.55979]}},{"type":"Feature","properties":{"id":"bus-749-s21563","kind":"busstop","ref":"749","name":"Yamaç","lines":["128","428","848"]},"geometry":{"type":"Point","coordinates":[27.05492,38.55954]}},{"type":"Feature","properties":{"id":"bus-749-s21535","kind":"busstop","ref":"749","name":"Centaş 2 Sitesi","lines":["128","428","848"]},"geometry":{"type":"Point","coordinates":[27.0551,38.5584]}},{"type":"Feature","properties":{"id":"bus-749-s24255","kind":"busstop","ref":"749","name":"Basketbol Sahası","lines":["128","428","848"]},"geometry":{"type":"Point","coordinates":[27.05414,38.5569]}},{"type":"Feature","properties":{"id":"bus-749-s21537","kind":"busstop","ref":"749","name":"Taş Duvar","lines":["128","428","848"]},"geometry":{"type":"Point","coordinates":[27.05464,38.55521]}},{"type":"Feature","properties":{"id":"bus-749-s21541","kind":"busstop","ref":"749","name":"Manzara","lines":["128","428","826"]},"geometry":{"type":"Point","coordinates":[27.05558,38.55376]}},{"type":"Feature","properties":{"id":"bus-749-s21543","kind":"busstop","ref":"749","name":"Metrokent","lines":["128","428","826"]},"geometry":{"type":"Point","coordinates":[27.0542,38.552]}},{"type":"Feature","properties":{"id":"bus-749-s21547","kind":"busstop","ref":"749","name":"Santral","lines":["128","428","826"]},"geometry":{"type":"Point","coordinates":[27.05242,38.55004]}},{"type":"Feature","properties":{"id":"bus-749-s23724","kind":"busstop","ref":"749","name":"Menemen İmam-Hatip Ortaokulu","lines":["128","428","826"]},"geometry":{"type":"Point","coordinates":[27.05268,38.54877]}},{"type":"Feature","properties":{"id":"bus-749-s21567","kind":"busstop","ref":"749","name":"Umut","lines":["128","428","826"]},"geometry":{"type":"Point","coordinates":[27.05093,38.54714]}},{"type":"Feature","properties":{"id":"bus-749-s21549","kind":"busstop","ref":"749","name":"Şelale","lines":["128","428","608","826"]},"geometry":{"type":"Point","coordinates":[27.04876,38.54921]}},{"type":"Feature","properties":{"id":"bus-749-s21551","kind":"busstop","ref":"749","name":"Kent 2","lines":["128","428","608","826"]},"geometry":{"type":"Point","coordinates":[27.04923,38.55183]}},{"type":"Feature","properties":{"id":"bus-749-s22538","kind":"busstop","ref":"749","name":"Egekent 2 Pazaryeri ","lines":["608","826"]},"geometry":{"type":"Point","coordinates":[27.04761,38.55528]}},{"type":"Feature","properties":{"id":"bus-749-s22524","kind":"busstop","ref":"749","name":"Egekent 2 Sağlık Ocağı","lines":["826"]},"geometry":{"type":"Point","coordinates":[27.04548,38.55239]}},{"type":"Feature","properties":{"id":"bus-749-s22522","kind":"busstop","ref":"749","name":"Çocuk Bahçesi","lines":["826"]},"geometry":{"type":"Point","coordinates":[27.04393,38.54944]}},{"type":"Feature","properties":{"id":"bus-749-s23974","kind":"busstop","ref":"749","name":"4. Cadde","lines":["826"]},"geometry":{"type":"Point","coordinates":[27.04261,38.54671]}},{"type":"Feature","properties":{"id":"bus-749-s22520","kind":"busstop","ref":"749","name":"Ulukent Mezarlık","lines":["826"]},"geometry":{"type":"Point","coordinates":[27.0444,38.54404]}},{"type":"Feature","properties":{"id":"bus-749-s22534","kind":"busstop","ref":"749","name":"Ulukent Üçyol","lines":["695","826","827"]},"geometry":{"type":"Point","coordinates":[27.04503,38.54301]}},{"type":"Feature","properties":{"id":"bus-749-s21362","kind":"busstop","ref":"749","name":"Simge Sitesi","lines":["695","826","827"]},"geometry":{"type":"Point","coordinates":[27.0427,38.5421]}},{"type":"Feature","properties":{"id":"bus-749-s21538","kind":"busstop","ref":"749","name":"Ulu-Koop","lines":["826","827"]},"geometry":{"type":"Point","coordinates":[27.04409,38.54052]}},{"type":"Feature","properties":{"id":"bus-749-s21522","kind":"busstop","ref":"749","name":"Zirve","lines":["826","827"]},"geometry":{"type":"Point","coordinates":[27.0418,38.5405]}},{"type":"Feature","properties":{"id":"bus-749-s21510","kind":"busstop","ref":"749","name":"Ulukent Ortaokulu","lines":["826","827"]},"geometry":{"type":"Point","coordinates":[27.03899,38.53851]}},{"type":"Feature","properties":{"id":"bus-749-s21520","kind":"busstop","ref":"749","name":"9 Eylül Muhtarlık","lines":["695","826","827"]},"geometry":{"type":"Point","coordinates":[27.0356,38.5386]}},{"type":"Feature","properties":{"id":"bus-749-s21389","kind":"busstop","ref":"749","name":"Eski Yol","lines":["128","428","602","660","695","800","826","827"]},"geometry":{"type":"Point","coordinates":[27.034,38.5405]}},{"type":"Feature","properties":{"id":"bus-749-s21391","kind":"busstop","ref":"749","name":"Kargılar","lines":["128","428","602","660","695","800","826","827"]},"geometry":{"type":"Point","coordinates":[27.03475,38.54394]}},{"type":"Feature","properties":{"id":"bus-749-s21459","kind":"busstop","ref":"749","name":"Ulukent Gar","lines":["128","602","660","695","800","826","827"]},"geometry":{"type":"Point","coordinates":[27.03587,38.54695]}},{"type":"Feature","properties":{"id":"bus-749-s23309","kind":"busstop","ref":"749","name":"Ulukent Aktarma Merkezi","lines":["695"]},"geometry":{"type":"Point","coordinates":[27.03898,38.54912]}}]}