{"type":"FeatureCollection","features":[{"type":"Feature","properties":{"id":"bus-751-1","kind":"busline","ref":"751","dir":1},"geometry":{"type":"LineString","coordinates":[[26.9145,38.4775],[26.9202,38.4797],[26.9284,38.4803],[26.9457,38.481],[26.9446,38.4887],[26.9443,38.4889],[26.9434,38.489],[26.9432,38.4902],[26.9447,38.4904],[26.9434,38.4942],[26.9448,38.4947],[26.9453,38.4952],[26.9454,38.4957],[26.9453,38.4952],[26.9448,38.4947],[26.9434,38.4942],[26.9443,38.4914],[26.9463,38.4917],[26.9461,38.493],[26.9498,38.4922],[26.9508,38.4935],[26.9518,38.4943],[26.9518,38.4945],[26.9554,38.4943],[26.9567,38.4946],[26.9586,38.4939],[26.9605,38.4929],[26.9598,38.502],[26.958,38.5079],[26.9598,38.5009],[26.9604,38.4925],[26.9577,38.4921],[26.9571,38.4922],[26.9569,38.4918],[26.9573,38.4916],[26.9577,38.4904],[26.9583,38.4897],[26.958,38.4891],[26.9587,38.4879],[26.959,38.4877],[26.9591,38.4878],[26.958,38.4891],[26.9584,38.4897],[26.9576,38.4907],[26.9574,38.4916],[26.9576,38.492],[26.9803,38.495],[27.0365,38.4937],[27.048,38.4936],[27.0574,38.493],[27.0574,38.4924],[27.057,38.4917],[27.0547,38.489],[27.058,38.487],[27.0595,38.4892],[27.0618,38.4917],[27.0614,38.4919]]}},{"type":"Feature","properties":{"id":"bus-751-2","kind":"busline","ref":"751","dir":2},"geometry":{"type":"LineString","coordinates":[[27.0614,38.4919],[27.0618,38.4917],[27.0595,38.4892],[27.058,38.487],[27.0547,38.489],[27.057,38.4917],[27.0576,38.493],[27.0525,38.4935],[27.0484,38.4935],[27.0468,38.4938],[27.0139,38.4943],[26.9798,38.4951],[26.9608,38.4926],[26.9605,38.4929],[26.9604,38.4937],[26.9598,38.502],[26.958,38.5079],[26.9598,38.5009],[26.9604,38.4925],[26.9577,38.4921],[26.9571,38.4922],[26.9569,38.4918],[26.9573,38.4916],[26.9577,38.4904],[26.9583,38.4897],[26.958,38.4892],[26.9581,38.4889],[26.9587,38.4879],[26.9591,38.4877],[26.958,38.4891],[26.9584,38.4897],[26.9576,38.4907],[26.9574,38.4916],[26.9576,38.492],[26.9571,38.4922],[26.9569,38.492],[26.9535,38.4916],[26.9528,38.4944],[26.9518,38.4945],[26.9518,38.4943],[26.9508,38.4935],[26.9498,38.4922],[26.9461,38.493],[26.9463,38.4917],[26.9443,38.4914],[26.9434,38.4942],[26.9448,38.4947],[26.9453,38.4952],[26.9454,38.4957],[26.9453,38.4952],[26.9448,38.4947],[26.9434,38.4942],[26.9447,38.4904],[26.9432,38.4902],[26.9434,38.489],[26.9443,38.4889],[26.9446,38.4887],[26.9457,38.481],[26.9284,38.4803],[26.9202,38.4797],[26.9147,38.4776]]}},{"type":"Feature","properties":{"id":"bus-751-s21153","kind":"busstop","ref":"751","name":"Çiğli Fen Lisesi","lines":["777"]},"geometry":{"type":"Point","coordinates":[26.94545,38.49525]}},{"type":"Feature","properties":{"id":"bus-751-s21152","kind":"busstop","ref":"751","name":"Hanımeli","lines":["777"]},"geometry":{"type":"Point","coordinates":[26.9452,38.49153]}},{"type":"Feature","properties":{"id":"bus-751-s21154","kind":"busstop","ref":"751","name":"Neşeli","lines":["777"]},"geometry":{"type":"Point","coordinates":[26.9464,38.49295]}},{"type":"Feature","properties":{"id":"bus-751-s21281","kind":"busstop","ref":"751","name":"Portakal","lines":["777"]},"geometry":{"type":"Point","coordinates":[26.94963,38.49216]}},{"type":"Feature","properties":{"id":"bus-751-s21278","kind":"busstop","ref":"751","name":"Manolya","lines":["777"]},"geometry":{"type":"Point","coordinates":[26.95053,38.4931]}},{"type":"Feature","properties":{"id":"bus-751-s21276","kind":"busstop","ref":"751","name":"Çiçek","lines":["777"]},"geometry":{"type":"Point","coordinates":[26.95146,38.49398]}},{"type":"Feature","properties":{"id":"bus-751-s21274","kind":"busstop","ref":"751","name":"Sasalı Meydan","lines":["777"]},"geometry":{"type":"Point","coordinates":[26.95243,38.49444]}},{"type":"Feature","properties":{"id":"bus-751-s21269","kind":"busstop","ref":"751","name":"Gazi Çiçek","lines":[]},"geometry":{"type":"Point","coordinates":[26.9579,38.5075]}},{"type":"Feature","properties":{"id":"bus-751-s21266","kind":"busstop","ref":"751","name":"Flamingo Sitesi","lines":[]},"geometry":{"type":"Point","coordinates":[26.9587,38.50515]}},{"type":"Feature","properties":{"id":"bus-751-s21264","kind":"busstop","ref":"751","name":"Koza Sitesi","lines":[]},"geometry":{"type":"Point","coordinates":[26.95927,38.50314]}},{"type":"Feature","properties":{"id":"bus-751-s21263","kind":"busstop","ref":"751","name":"Doğal Yaşam Sitesi","lines":[]},"geometry":{"type":"Point","coordinates":[26.95992,38.49921]}},{"type":"Feature","properties":{"id":"bus-751-s24666","kind":"busstop","ref":"751","name":"Sasalı Villalar","lines":[]},"geometry":{"type":"Point","coordinates":[26.96004,38.49647]}},{"type":"Feature","properties":{"id":"bus-751-s21271","kind":"busstop","ref":"751","name":"Sasalı Doğal Yaşam Parkı","lines":["777"]},"geometry":{"type":"Point","coordinates":[26.9589,38.4878]}},{"type":"Feature","properties":{"id":"bus-751-s21150","kind":"busstop","ref":"751","name":"Çakabey","lines":["777"]},"geometry":{"type":"Point","coordinates":[26.9584,38.492]}},{"type":"Feature","properties":{"id":"bus-751-s23607","kind":"busstop","ref":"751","name":"Tarım Geliştirme Merkezi","lines":["777"]},"geometry":{"type":"Point","coordinates":[26.96893,38.49347]}},{"type":"Feature","properties":{"id":"bus-751-s21148","kind":"busstop","ref":"751","name":"Ana Jet Üssü","lines":["777"]},"geometry":{"type":"Point","coordinates":[26.9804,38.495]}},{"type":"Feature","properties":{"id":"bus-751-s21146","kind":"busstop","ref":"751","name":"Sasalı Piknik Alanı","lines":["777"]},"geometry":{"type":"Point","coordinates":[26.9843,38.4949]}},{"type":"Feature","properties":{"id":"bus-751-s21158","kind":"busstop","ref":"751","name":"Kaklıç Kavşağı","lines":["149","777"]},"geometry":{"type":"Point","coordinates":[26.9942,38.4946]}},{"type":"Feature","properties":{"id":"bus-751-s21156","kind":"busstop","ref":"751","name":"Kutup Yıldızı","lines":["149","777"]},"geometry":{"type":"Point","coordinates":[27.0022,38.4944]}},{"type":"Feature","properties":{"id":"bus-751-s21140","kind":"busstop","ref":"751","name":"Organize Sanayi Cami","lines":["149"]},"geometry":{"type":"Point","coordinates":[27.0381,38.4937]}},{"type":"Feature","properties":{"id":"bus-751-s21138","kind":"busstop","ref":"751","name":"Tariş İpek","lines":["149"]},"geometry":{"type":"Point","coordinates":[27.0434,38.4936]}},{"type":"Feature","properties":{"id":"bus-751-s21136","kind":"busstop","ref":"751","name":"Tariş depoları","lines":[]},"geometry":{"type":"Point","coordinates":[27.0493,38.4935]}},{"type":"Feature","properties":{"id":"bus-751-s21132","kind":"busstop","ref":"751","name":"Şehit Ali Karaoğlan Lisesi","lines":["149","423","442","853"]},"geometry":{"type":"Point","coordinates":[27.0545,38.4932]}},{"type":"Feature","properties":{"id":"bus-751-s21129","kind":"busstop","ref":"751","name":"Eshotçular Sitesi","lines":["123","149","247","329","342","344","529","595","816"]},"geometry":{"type":"Point","coordinates":[27.05683,38.4917]}},{"type":"Feature","properties":{"id":"bus-751-s21122","kind":"busstop","ref":"751","name":"Büyük Çiğli Mezarlık","lines":["123","149","247","329","342","344","529","595","816"]},"geometry":{"type":"Point","coordinates":[27.05498,38.48947]}},{"type":"Feature","properties":{"id":"bus-751-s24151","kind":"busstop","ref":"751","name":"Ataşehir Köprü","lines":["123","149","247","329","342","344","529","816"]},"geometry":{"type":"Point","coordinates":[27.05666,38.48776]}},{"type":"Feature","properties":{"id":"bus-751-s24153","kind":"busstop","ref":"751","name":"Ataşehir Mahallesi Parkı","lines":["123","149","247","329","342","344","529","816"]},"geometry":{"type":"Point","coordinates":[27.05948,38.48888]}},{"type":"Feature","properties":{"id":"bus-751-s22143","kind":"busstop","ref":"751","name":"Çiğli Aktarma Merkezi","lines":["149","816","817"]},"geometry":{"type":"Point","coordinates":[27.06139,38.49183]}},{"type":"Feature","properties":{"id":"bus-751-s24152","kind":"busstop","ref":"751","name":"Ataşehir Mahallesi Parkı","lines":["123","149","247","329","342","344","529","816"]},"geometry":{"type":"Point","coordinates":[27.0589,38.48838]}},{"type":"Feature","properties":{"id":"bus-751-s24150","kind":"busstop","ref":"751","name":"Ataşehir Köprü","lines":["123","149","247","329","342","344","529","816"]},"geometry":{"type":"Point","coordinates":[27.05624,38.48817]}},{"type":"Feature","properties":{"id":"bus-751-s21123","kind":"busstop","ref":"751","name":"Büyük Çiğli Mezarlık","lines":["123","149","247","329","342","344","529","595","816"]},"geometry":{"type":"Point","coordinates":[27.0551,38.4894]}},{"type":"Feature","properties":{"id":"bus-751-s21130","kind":"busstop","ref":"751","name":"Eshotçular Sitesi","lines":["123","149","247","329","342","344","529","595","816"]},"geometry":{"type":"Point","coordinates":[27.05734,38.49217]}},{"type":"Feature","properties":{"id":"bus-751-s21133","kind":"busstop","ref":"751","name":"Şehit Ali Karaoğlan Lisesi","lines":["149","423","442","853"]},"geometry":{"type":"Point","coordinates":[27.053,38.4935]}},{"type":"Feature","properties":{"id":"bus-751-s21135","kind":"busstop","ref":"751","name":"Tariş depoları","lines":[]},"geometry":{"type":"Point","coordinates":[27.0498,38.4936]}},{"type":"Feature","properties":{"id":"bus-751-s21137","kind":"busstop","ref":"751","name":"Tariş İpek","lines":["149"]},"geometry":{"type":"Point","coordinates":[27.0431,38.4939]}},{"type":"Feature","properties":{"id":"bus-751-s21139","kind":"busstop","ref":"751","name":"Organize Sanayi Cami","lines":["149"]},"geometry":{"type":"Point","coordinates":[27.0381,38.4939]}},{"type":"Feature","properties":{"id":"bus-751-s21155","kind":"busstop","ref":"751","name":"Kutup Yıldızı","lines":["149","777"]},"geometry":{"type":"Point","coordinates":[27.002,38.4947]}},{"type":"Feature","properties":{"id":"bus-751-s21157","kind":"busstop","ref":"751","name":"Kaklıç Kavşağı","lines":["149","777"]},"geometry":{"type":"Point","coordinates":[26.9936,38.4949]}},{"type":"Feature","properties":{"id":"bus-751-s21145","kind":"busstop","ref":"751","name":"Sasalı Piknik Alanı","lines":["777"]},"geometry":{"type":"Point","coordinates":[26.9845,38.4951]}},{"type":"Feature","properties":{"id":"bus-751-s21147","kind":"busstop","ref":"751","name":"Ana Jet Üssü","lines":["777"]},"geometry":{"type":"Point","coordinates":[26.9804,38.4952]}},{"type":"Feature","properties":{"id":"bus-751-s23608","kind":"busstop","ref":"751","name":"Tarım Geliştirme Merkezi","lines":["777"]},"geometry":{"type":"Point","coordinates":[26.96869,38.4936]}},{"type":"Feature","properties":{"id":"bus-751-s21149","kind":"busstop","ref":"751","name":"Çakabey","lines":["777"]},"geometry":{"type":"Point","coordinates":[26.9588,38.4923]}},{"type":"Feature","properties":{"id":"bus-751-s21273","kind":"busstop","ref":"751","name":"Sasalı Giriş","lines":["777"]},"geometry":{"type":"Point","coordinates":[26.95347,38.4919]}},{"type":"Feature","properties":{"id":"bus-751-s21275","kind":"busstop","ref":"751","name":"Sasalı Meydan","lines":["777"]},"geometry":{"type":"Point","coordinates":[26.95287,38.49423]}},{"type":"Feature","properties":{"id":"bus-751-s21277","kind":"busstop","ref":"751","name":"Çiçek","lines":["777"]},"geometry":{"type":"Point","coordinates":[26.95138,38.494]}},{"type":"Feature","properties":{"id":"bus-751-s21279","kind":"busstop","ref":"751","name":"Manolya","lines":["777"]},"geometry":{"type":"Point","coordinates":[26.95053,38.49308]}},{"type":"Feature","properties":{"id":"bus-751-s21280","kind":"busstop","ref":"751","name":"Portakal","lines":["777"]},"geometry":{"type":"Point","coordinates":[26.94939,38.49227]}},{"type":"Feature","properties":{"id":"bus-751-s21161","kind":"busstop","ref":"751","name":"Neşeli","lines":["777"]},"geometry":{"type":"Point","coordinates":[26.9468,38.49289]}},{"type":"Feature","properties":{"id":"bus-751-s21151","kind":"busstop","ref":"751","name":"Hanımeli","lines":["777"]},"geometry":{"type":"Point","coordinates":[26.94507,38.49155]}}]}