{"type":"FeatureCollection","features":[{"type":"Feature","properties":{"id":"bus-757-1","kind":"busline","ref":"757","dir":1},"geometry":{"type":"LineString","coordinates":[[26.9159,38.6312],[26.9161,38.6312],[26.913,38.6299],[26.9093,38.6299],[26.9093,38.6285],[26.9074,38.6251],[26.9071,38.6241],[26.9071,38.6222],[26.9081,38.6205],[26.9092,38.6198],[26.9113,38.6192],[26.9127,38.617],[26.9133,38.6166],[26.9145,38.6162],[26.9139,38.6088],[26.9125,38.6087],[26.9118,38.6081],[26.9129,38.6073],[26.9139,38.6057],[26.9159,38.6065],[26.9173,38.6045],[26.9192,38.605],[26.9194,38.6045],[26.9199,38.604],[26.9254,38.6004],[26.9362,38.5982],[26.9374,38.6039],[26.9351,38.5931],[26.9353,38.5921],[26.9362,38.5908],[26.9407,38.5872],[26.9425,38.5854],[26.943,38.5846],[26.9431,38.5834],[26.9433,38.5832],[26.9441,38.583],[26.9476,38.5833],[26.9542,38.5826],[26.9569,38.5832],[26.9586,38.5838],[26.9601,38.5838],[26.962,38.5829],[26.9646,38.5821],[26.9677,38.5821],[26.9689,38.5817],[26.9714,38.5818],[26.9741,38.5816],[26.9742,38.5805],[26.974,38.5798],[26.9735,38.5786],[26.973,38.578],[26.9739,38.5784],[26.9757,38.5785],[26.9753,38.5803],[26.976,38.5803],[26.9794,38.5776],[26.9915,38.5727],[26.9934,38.5714],[26.9953,38.5708],[26.9975,38.5707],[26.9978,38.5697],[26.9973,38.5685],[26.9981,38.5683],[26.9994,38.567],[27.0012,38.5663],[27.0018,38.5664],[27.0027,38.5662],[27.0033,38.5657],[27.0051,38.5627],[27.0077,38.5617],[27.0108,38.5602],[27.0112,38.5597],[27.0122,38.5574],[27.0146,38.5555],[27.0359,38.5493],[27.0351,38.5472],[27.0353,38.5478]]}},{"type":"Feature","properties":{"id":"bus-757-2","kind":"busline","ref":"757","dir":2},"geometry":{"type":"LineString","coordinates":[[27.0353,38.5478],[27.0351,38.5472],[27.0363,38.55],[27.0361,38.5502],[27.0356,38.55],[27.0339,38.5499],[27.0146,38.5555],[27.0122,38.5574],[27.0112,38.5597],[27.0108,38.5602],[27.0077,38.5617],[27.0051,38.5627],[27.0033,38.5657],[27.0027,38.5662],[27.0018,38.5664],[27.0012,38.5663],[26.9994,38.567],[26.9981,38.5683],[26.9973,38.5685],[26.9978,38.5697],[26.9975,38.5707],[26.9953,38.5708],[26.9934,38.5714],[26.9915,38.5727],[26.9794,38.5776],[26.976,38.5803],[26.9753,38.5803],[26.9746,38.581],[26.9745,38.5814],[26.9742,38.5814],[26.9741,38.5816],[26.9714,38.5818],[26.9689,38.5817],[26.9677,38.5821],[26.9646,38.5821],[26.962,38.5829],[26.9601,38.5838],[26.9586,38.5838],[26.9569,38.5832],[26.9542,38.5826],[26.9476,38.5833],[26.9441,38.583],[26.9433,38.5832],[26.9431,38.5834],[26.943,38.5846],[26.9425,38.5854],[26.9407,38.5872],[26.9362,38.5908],[26.9353,38.5921],[26.9351,38.5931],[26.9374,38.6039],[26.9362,38.5984],[26.9359,38.5984],[26.9255,38.6005],[26.9198,38.6043],[26.9194,38.605],[26.9173,38.6045],[26.9159,38.6065],[26.9139,38.6057],[26.9129,38.6073],[26.9118,38.6081],[26.9125,38.6087],[26.9139,38.6088],[26.9145,38.6162],[26.9133,38.6166],[26.9127,38.617],[26.9113,38.6192],[26.9092,38.6198],[26.9081,38.6205],[26.9071,38.6222],[26.9071,38.6241],[26.9074,38.6251],[26.9093,38.6285],[26.9093,38.6299],[26.913,38.6299],[26.9161,38.6312],[26.9159,38.6311]]}},{"type":"Feature","properties":{"id":"bus-757-s21792","kind":"busstop","ref":"757","name":"Maltepe Son Durak","lines":["657","750","756"]},"geometry":{"type":"Point","coordinates":[26.91588,38.63122]}},{"type":"Feature","properties":{"id":"bus-757-s21808","kind":"busstop","ref":"757","name":"Maltepe Köşe","lines":["657","750","756"]},"geometry":{"type":"Point","coordinates":[26.91267,38.62993]}},{"type":"Feature","properties":{"id":"bus-757-s21790","kind":"busstop","ref":"757","name":"Maltepe Kubilay","lines":["657","750","756"]},"geometry":{"type":"Point","coordinates":[26.91083,38.62988]}},{"type":"Feature","properties":{"id":"bus-757-s21624","kind":"busstop","ref":"757","name":"Maltepe Ortaokulu","lines":["657","750"]},"geometry":{"type":"Point","coordinates":[26.90928,38.6292]}},{"type":"Feature","properties":{"id":"bus-757-s21614","kind":"busstop","ref":"757","name":"Maltepe Giriş","lines":["657","750"]},"geometry":{"type":"Point","coordinates":[26.90865,38.6275]}},{"type":"Feature","properties":{"id":"bus-757-s22566","kind":"busstop","ref":"757","name":"Maltepe Üçyol","lines":["657","750"]},"geometry":{"type":"Point","coordinates":[26.9072,38.62205]}},{"type":"Feature","properties":{"id":"bus-757-s22562","kind":"busstop","ref":"757","name":"Maltepe Arıtma Tesisi","lines":["657","750"]},"geometry":{"type":"Point","coordinates":[26.91441,38.61594]}},{"type":"Feature","properties":{"id":"bus-757-s22564","kind":"busstop","ref":"757","name":"Maltepe Çiftlik","lines":["657","750"]},"geometry":{"type":"Point","coordinates":[26.91407,38.61165]}},{"type":"Feature","properties":{"id":"bus-757-s21620","kind":"busstop","ref":"757","name":"Şahin","lines":["657","750"]},"geometry":{"type":"Point","coordinates":[26.91301,38.60883]}},{"type":"Feature","properties":{"id":"bus-757-s24241","kind":"busstop","ref":"757","name":"Kırlangıç","lines":["657","750"]},"geometry":{"type":"Point","coordinates":[26.91223,38.60775]}},{"type":"Feature","properties":{"id":"bus-757-s21618","kind":"busstop","ref":"757","name":"Florya","lines":["657","750"]},"geometry":{"type":"Point","coordinates":[26.91354,38.60619]}},{"type":"Feature","properties":{"id":"bus-757-s21612","kind":"busstop","ref":"757","name":"Şehit Astsubay Ümit İnce","lines":["657","750"]},"geometry":{"type":"Point","coordinates":[26.91609,38.60609]}},{"type":"Feature","properties":{"id":"bus-757-s21610","kind":"busstop","ref":"757","name":"Villakent Merkez","lines":["657","750"]},"geometry":{"type":"Point","coordinates":[26.91801,38.60465]}},{"type":"Feature","properties":{"id":"bus-757-s21606","kind":"busstop","ref":"757","name":"Merdivenli Park","lines":["657","750"]},"geometry":{"type":"Point","coordinates":[26.92132,38.60306]}},{"type":"Feature","properties":{"id":"bus-757-s21602","kind":"busstop","ref":"757","name":"Hüseyin Baradan Parkı","lines":["657","750"]},"geometry":{"type":"Point","coordinates":[26.92448,38.60093]}},{"type":"Feature","properties":{"id":"bus-757-s21600","kind":"busstop","ref":"757","name":"Spor Sahası","lines":["657","750"]},"geometry":{"type":"Point","coordinates":[26.92719,38.59993]}},{"type":"Feature","properties":{"id":"bus-757-s21598","kind":"busstop","ref":"757","name":"Teraslı Park","lines":["657","750"]},"geometry":{"type":"Point","coordinates":[26.93019,38.59934]}},{"type":"Feature","properties":{"id":"bus-757-s24668","kind":"busstop","ref":"757","name":"Flamingo Caddesi","lines":["657","750"]},"geometry":{"type":"Point","coordinates":[26.93284,38.59882]}},{"type":"Feature","properties":{"id":"bus-757-s21596","kind":"busstop","ref":"757","name":"Villakent Giriş","lines":["657","750"]},"geometry":{"type":"Point","coordinates":[26.93544,38.5983]}},{"type":"Feature","properties":{"id":"bus-757-s21616","kind":"busstop","ref":"757","name":"Villakent Anadolu Lisesi","lines":["657","750"]},"geometry":{"type":"Point","coordinates":[26.93696,38.60241]}},{"type":"Feature","properties":{"id":"bus-757-s21570","kind":"busstop","ref":"757","name":"Keyifli Yaşam Evleri","lines":["750"]},"geometry":{"type":"Point","coordinates":[26.93538,38.59495]}},{"type":"Feature","properties":{"id":"bus-757-s24223","kind":"busstop","ref":"757","name":"Çınar","lines":["750"]},"geometry":{"type":"Point","coordinates":[26.95483,38.58271]}},{"type":"Feature","properties":{"id":"bus-757-s21594","kind":"busstop","ref":"757","name":"Bakırçay  Üniversitesi","lines":["750"]},"geometry":{"type":"Point","coordinates":[26.96322,38.58241]}},{"type":"Feature","properties":{"id":"bus-757-s21592","kind":"busstop","ref":"757","name":"Aşağı Çeşme","lines":["619","750","812","850"]},"geometry":{"type":"Point","coordinates":[26.96744,38.58209]}},{"type":"Feature","properties":{"id":"bus-757-s23262","kind":"busstop","ref":"757","name":"Akkoç","lines":["619","750","850"]},"geometry":{"type":"Point","coordinates":[26.97141,38.58172]}},{"type":"Feature","properties":{"id":"bus-757-s21590","kind":"busstop","ref":"757","name":"Seyrek Meydan","lines":["619","750","850"]},"geometry":{"type":"Point","coordinates":[26.97347,38.58161]}},{"type":"Feature","properties":{"id":"bus-757-s24168","kind":"busstop","ref":"757","name":"Kavaklı","lines":["619","750","850"]},"geometry":{"type":"Point","coordinates":[26.97399,38.58017]}},{"type":"Feature","properties":{"id":"bus-757-s24169","kind":"busstop","ref":"757","name":"Kavaklı Üçyol","lines":["619","750","850"]},"geometry":{"type":"Point","coordinates":[26.97324,38.57844]}},{"type":"Feature","properties":{"id":"bus-757-s24170","kind":"busstop","ref":"757","name":"Şehit Ali Arslan","lines":["619","750","850"]},"geometry":{"type":"Point","coordinates":[26.97512,38.57848]}},{"type":"Feature","properties":{"id":"bus-757-s21588","kind":"busstop","ref":"757","name":"Seyrek İlköğretim Okulu","lines":["619","750","850"]},"geometry":{"type":"Point","coordinates":[26.97553,38.5803]}},{"type":"Feature","properties":{"id":"bus-757-s21586","kind":"busstop","ref":"757","name":"Kumtepe","lines":["619","750","850"]},"geometry":{"type":"Point","coordinates":[26.97724,38.57924]}},{"type":"Feature","properties":{"id":"bus-757-s21584","kind":"busstop","ref":"757","name":"Seyrek Belediyesi","lines":["619","750","850"]},"geometry":{"type":"Point","coordinates":[26.97884,38.57802]}},{"type":"Feature","properties":{"id":"bus-757-s21582","kind":"busstop","ref":"757","name":"Ekin Koleji","lines":["619","750","812","850"]},"geometry":{"type":"Point","coordinates":[26.98521,38.57521]}},{"type":"Feature","properties":{"id":"bus-757-s21580","kind":"busstop","ref":"757","name":"Günerli Dörtyol","lines":["619","750","812","850"]},"geometry":{"type":"Point","coordinates":[26.99626,38.5707]}},{"type":"Feature","properties":{"id":"bus-757-s23644","kind":"busstop","ref":"757","name":"Günerli Cami","lines":["750","850"]},"geometry":{"type":"Point","coordinates":[26.99798,38.56828]}},{"type":"Feature","properties":{"id":"bus-757-s23641","kind":"busstop","ref":"757","name":"Günerli Çeşme","lines":["750","850"]},"geometry":{"type":"Point","coordinates":[26.99962,38.56681]}},{"type":"Feature","properties":{"id":"bus-757-s21578","kind":"busstop","ref":"757","name":"Günerli Üçyol","lines":["619","750","812","850"]},"geometry":{"type":"Point","coordinates":[27.00246,38.56623]}},{"type":"Feature","properties":{"id":"bus-757-s21576","kind":"busstop","ref":"757","name":"Hobi Park","lines":["619","750","812","850"]},"geometry":{"type":"Point","coordinates":[27.00477,38.56308]}},{"type":"Feature","properties":{"id":"bus-757-s21572","kind":"busstop","ref":"757","name":"Çitlenbik","lines":["619","750","812","850"]},"geometry":{"type":"Point","coordinates":[27.01391,38.55587]}},{"type":"Feature","properties":{"id":"bus-757-s24264","kind":"busstop","ref":"757","name":"Düğün Salonu","lines":["619","750","812","850"]},"geometry":{"type":"Point","coordinates":[27.02642,38.55191]}},{"type":"Feature","properties":{"id":"bus-757-s21495","kind":"busstop","ref":"757","name":"Ulukent Aktarma","lines":["619","750","812","850"]},"geometry":{"type":"Point","coordinates":[27.0353,38.5478]}},{"type":"Feature","properties":{"id":"bus-757-s24379","kind":"busstop","ref":"757","name":"Düğün Salonu","lines":["619","750","812","850"]},"geometry":{"type":"Point","coordinates":[27.02486,38.55257]}},{"type":"Feature","properties":{"id":"bus-757-s21571","kind":"busstop","ref":"757","name":"Ova Küme Evleri","lines":["619","750","812","850"]},"geometry":{"type":"Point","coordinates":[27.01706,38.55487]}},{"type":"Feature","properties":{"id":"bus-757-s24544","kind":"busstop","ref":"757","name":"Çitlenbik","lines":["619","750","812","850"]},"geometry":{"type":"Point","coordinates":[27.01301,38.55676]}},{"type":"Feature","properties":{"id":"bus-757-s21575","kind":"busstop","ref":"757","name":"Hobi Park","lines":["619","750","812","850"]},"geometry":{"type":"Point","coordinates":[27.0047,38.56339]}},{"type":"Feature","properties":{"id":"bus-757-s21577","kind":"busstop","ref":"757","name":"Günerli Üçyol","lines":["619","750","812","850"]},"geometry":{"type":"Point","coordinates":[27.00232,38.56634]}},{"type":"Feature","properties":{"id":"bus-757-s23642","kind":"busstop","ref":"757","name":"Günerli Çeşme","lines":["750","850"]},"geometry":{"type":"Point","coordinates":[26.99987,38.56686]}},{"type":"Feature","properties":{"id":"bus-757-s23643","kind":"busstop","ref":"757","name":"Günerli Cami","lines":["750","850"]},"geometry":{"type":"Point","coordinates":[26.99759,38.56913]}},{"type":"Feature","properties":{"id":"bus-757-s21579","kind":"busstop","ref":"757","name":"Günerli Dörtyol","lines":["619","750","812","850"]},"geometry":{"type":"Point","coordinates":[26.9964,38.5708]}},{"type":"Feature","properties":{"id":"bus-757-s21581","kind":"busstop","ref":"757","name":"Ekin Koleji","lines":["619","750","812","850"]},"geometry":{"type":"Point","coordinates":[26.98527,38.57533]}},{"type":"Feature","properties":{"id":"bus-757-s21583","kind":"busstop","ref":"757","name":"Seyrek Belediyesi","lines":["619","750","850"]},"geometry":{"type":"Point","coordinates":[26.97872,38.57829]}},{"type":"Feature","properties":{"id":"bus-757-s21585","kind":"busstop","ref":"757","name":"Kumtepe","lines":["619","750","850"]},"geometry":{"type":"Point","coordinates":[26.97731,38.57927]}},{"type":"Feature","properties":{"id":"bus-757-s21587","kind":"busstop","ref":"757","name":"Seyrek İlköğretim Okulu","lines":["619","750","850"]},"geometry":{"type":"Point","coordinates":[26.97544,38.58035]}},{"type":"Feature","properties":{"id":"bus-757-s21589","kind":"busstop","ref":"757","name":"Seyrek Meydan","lines":["619","750","850"]},"geometry":{"type":"Point","coordinates":[26.97355,38.58165]}},{"type":"Feature","properties":{"id":"bus-757-s23261","kind":"busstop","ref":"757","name":"Akkoç","lines":["619","750","850"]},"geometry":{"type":"Point","coordinates":[26.97134,38.58186]}},{"type":"Feature","properties":{"id":"bus-757-s21591","kind":"busstop","ref":"757","name":"Aşağı Çeşme","lines":["619","750","812","850"]},"geometry":{"type":"Point","coordinates":[26.96752,38.58215]}},{"type":"Feature","properties":{"id":"bus-757-s21593","kind":"busstop","ref":"757","name":"Bakırçay Üniversitesi","lines":["207","619","750","812","850"]},"geometry":{"type":"Point","coordinates":[26.9641,38.58229]}},{"type":"Feature","properties":{"id":"bus-757-s24222","kind":"busstop","ref":"757","name":"Çınar","lines":["750"]},"geometry":{"type":"Point","coordinates":[26.95474,38.58277]}},{"type":"Feature","properties":{"id":"bus-757-s21569","kind":"busstop","ref":"757","name":"Keyifli Yaşam Evleri","lines":["750"]},"geometry":{"type":"Point","coordinates":[26.93553,38.59514]}},{"type":"Feature","properties":{"id":"bus-757-s21615","kind":"busstop","ref":"757","name":"Villakent Anadolu Lisesi","lines":["657","750"]},"geometry":{"type":"Point","coordinates":[26.93718,38.60258]}},{"type":"Feature","properties":{"id":"bus-757-s21595","kind":"busstop","ref":"757","name":"Villakent Giriş","lines":["657","750"]},"geometry":{"type":"Point","coordinates":[26.9359,38.59842]}},{"type":"Feature","properties":{"id":"bus-757-s24667","kind":"busstop","ref":"757","name":"Flamingo Caddesi","lines":["657","750"]},"geometry":{"type":"Point","coordinates":[26.93299,38.599]}},{"type":"Feature","properties":{"id":"bus-757-s21597","kind":"busstop","ref":"757","name":"Teraslı Park","lines":["657","750"]},"geometry":{"type":"Point","coordinates":[26.93009,38.59955]}},{"type":"Feature","properties":{"id":"bus-757-s21601","kind":"busstop","ref":"757","name":"Spor Sahası","lines":["657","750"]},"geometry":{"type":"Point","coordinates":[26.92687,38.60019]}},{"type":"Feature","properties":{"id":"bus-757-s21599","kind":"busstop","ref":"757","name":"Hüseyin Baradan Parkı","lines":["657","750"]},"geometry":{"type":"Point","coordinates":[26.92457,38.60115]}},{"type":"Feature","properties":{"id":"bus-757-s21603","kind":"busstop","ref":"757","name":"Merdivenli Park","lines":["657","750"]},"geometry":{"type":"Point","coordinates":[26.92188,38.60311]}},{"type":"Feature","properties":{"id":"bus-757-s21607","kind":"busstop","ref":"757","name":"Villakent Merkez","lines":["657","750"]},"geometry":{"type":"Point","coordinates":[26.91796,38.60475]}},{"type":"Feature","properties":{"id":"bus-757-s21609","kind":"busstop","ref":"757","name":"Şehit Astsubay Ümit İnce","lines":["657","750"]},"geometry":{"type":"Point","coordinates":[26.91624,38.60618]}},{"type":"Feature","properties":{"id":"bus-757-s21617","kind":"busstop","ref":"757","name":"Florya","lines":["657","750"]},"geometry":{"type":"Point","coordinates":[26.91363,38.60628]}},{"type":"Feature","properties":{"id":"bus-757-s24242","kind":"busstop","ref":"757","name":"Kırlangıç","lines":["657","750"]},"geometry":{"type":"Point","coordinates":[26.9123,38.60783]}},{"type":"Feature","properties":{"id":"bus-757-s21619","kind":"busstop","ref":"757","name":"Şahin","lines":["657","750"]},"geometry":{"type":"Point","coordinates":[26.91296,38.60873]}},{"type":"Feature","properties":{"id":"bus-757-s22565","kind":"busstop","ref":"757","name":"Maltepe Çiftlik","lines":["657","750"]},"geometry":{"type":"Point","coordinates":[26.91415,38.61162]}},{"type":"Feature","properties":{"id":"bus-757-s22563","kind":"busstop","ref":"757","name":"Maltepe Arıtma Tesisi","lines":["657","750"]},"geometry":{"type":"Point","coordinates":[26.91456,38.61599]}},{"type":"Feature","properties":{"id":"bus-757-s22567","kind":"busstop","ref":"757","name":"Maltepe Üçyol","lines":["657","750"]},"geometry":{"type":"Point","coordinates":[26.90728,38.62205]}},{"type":"Feature","properties":{"id":"bus-757-s21611","kind":"busstop","ref":"757","name":"Maltepe Giriş","lines":["657","750"]},"geometry":{"type":"Point","coordinates":[26.90792,38.62597]}},{"type":"Feature","properties":{"id":"bus-757-s21613","kind":"busstop","ref":"757","name":"Maltepe Ortaokulu","lines":["657","750"]},"geometry":{"type":"Point","coordinates":[26.9094,38.62949]}},{"type":"Feature","properties":{"id":"bus-757-s21789","kind":"busstop","ref":"757","name":"Maltepe Kubilay","lines":["657","750","756"]},"geometry":{"type":"Point","coordinates":[26.91075,38.6298]}},{"type":"Feature","properties":{"id":"bus-757-s21807","kind":"busstop","ref":"757","name":"Maltepe Köşe","lines":["657","750","756"]},"geometry":{"type":"Point","coordinates":[26.91273,38.62988]}},{"type":"Feature","properties":{"id":"bus-757-s21791","kind":"busstop","ref":"757","name":"Maltepe Son Durak","lines":["657","750","756"]},"geometry":{"type":"Point","coordinates":[26.9159,38.6311]}}]}