{"type":"FeatureCollection","features":[{"type":"Feature","properties":{"id":"bus-766-1","kind":"busline","ref":"766","dir":1},"geometry":{"type":"LineString","coordinates":[[27.404,38.4811],[27.4041,38.481],[27.4036,38.4818],[27.4036,38.4821],[27.403,38.4822],[27.4029,38.4829],[27.402,38.4832],[27.4016,38.4831],[27.4008,38.4822],[27.3998,38.4822],[27.3994,38.4825],[27.3994,38.4827],[27.3986,38.4829],[27.3981,38.4833],[27.3959,38.4835],[27.3954,38.4846],[27.3935,38.4853],[27.3928,38.4861],[27.3921,38.4865],[27.3914,38.4885],[27.3904,38.4883],[27.3901,38.4879],[27.3902,38.487],[27.3897,38.4872],[27.3891,38.488],[27.3866,38.4874],[27.3854,38.4873],[27.383,38.488],[27.3823,38.4887],[27.3821,38.4897],[27.381,38.4913],[27.3812,38.4923],[27.3808,38.4926],[27.3808,38.4931],[27.3813,38.4941],[27.3815,38.4956],[27.3802,38.497],[27.3792,38.4977],[27.3787,38.4973],[27.3782,38.4965],[27.3773,38.4961],[27.3771,38.4963],[27.3771,38.4974],[27.3777,38.4977],[27.3762,38.4979],[27.3761,38.4971],[27.3755,38.4956],[27.3755,38.4949],[27.3751,38.4941],[27.3741,38.493],[27.3738,38.4929],[27.3723,38.4932],[27.3721,38.4931],[27.3721,38.492],[27.3727,38.4915],[27.3736,38.4912],[27.3736,38.491],[27.3713,38.4894],[27.3676,38.4876],[27.3673,38.487],[27.3659,38.4855],[27.3628,38.4828],[27.3627,38.4815],[27.3613,38.4808],[27.3581,38.48],[27.3601,38.478],[27.3593,38.4777],[27.3587,38.4777],[27.3561,38.4783],[27.3554,38.4752],[27.3547,38.4731],[27.3533,38.4713],[27.3522,38.4708],[27.3523,38.4701],[27.3526,38.4697],[27.3526,38.4692],[27.35,38.4623],[27.3495,38.4617],[27.3526,38.4612],[27.3552,38.4611],[27.3574,38.4606],[27.3582,38.4595],[27.3591,38.4575],[27.3597,38.4567],[27.3643,38.4544],[27.3697,38.4524],[27.3711,38.4517],[27.3731,38.4503],[27.3766,38.4472],[27.3753,38.4461],[27.3751,38.4455],[27.3742,38.4442],[27.3731,38.4437],[27.3721,38.4428],[27.3708,38.4422],[27.3691,38.441],[27.3676,38.4403],[27.3676,38.44],[27.3676,38.4403],[27.3691,38.441],[27.3708,38.4422],[27.3721,38.4428],[27.3731,38.4437],[27.3742,38.4442],[27.3751,38.4455],[27.3753,38.4461],[27.3766,38.4472],[27.3802,38.4442],[27.3817,38.4435],[27.3834,38.4415],[27.3843,38.4409],[27.3879,38.4408],[27.3906,38.4399],[27.3928,38.4396],[27.3978,38.4378],[27.3989,38.437],[27.3996,38.4362],[27.4034,38.4344],[27.4054,38.4322],[27.4103,38.4301],[27.4124,38.4287],[27.4159,38.4279],[27.4164,38.4274],[27.4201,38.4266],[27.4202,38.4264],[27.4207,38.4263],[27.4224,38.4253],[27.4234,38.4251],[27.4263,38.4251],[27.4285,38.4243],[27.4299,38.4233],[27.4312,38.4235],[27.4338,38.4232],[27.4354,38.4217],[27.4375,38.4215],[27.4389,38.4216],[27.4359,38.4217]]}},{"type":"Feature","properties":{"id":"bus-766-2","kind":"busline","ref":"766","dir":2},"geometry":{"type":"LineString","coordinates":[[27.4385,38.4217],[27.4379,38.4216],[27.4356,38.4218],[27.4338,38.4232],[27.4312,38.4235],[27.43,38.4234],[27.4285,38.4243],[27.4263,38.4251],[27.4234,38.4251],[27.4224,38.4253],[27.4212,38.4259],[27.4204,38.4266],[27.4185,38.427],[27.4138,38.4285],[27.4124,38.4287],[27.4103,38.4301],[27.4054,38.4322],[27.4033,38.4346],[27.3996,38.4362],[27.3989,38.437],[27.3978,38.4378],[27.3928,38.4396],[27.3906,38.4399],[27.3879,38.4408],[27.3843,38.4409],[27.3834,38.4415],[27.3817,38.4435],[27.3802,38.4442],[27.3766,38.4472],[27.3753,38.4461],[27.3751,38.4455],[27.3742,38.4442],[27.3731,38.4437],[27.3721,38.4428],[27.3708,38.4422],[27.3691,38.441],[27.3676,38.4403],[27.3676,38.44],[27.3676,38.4403],[27.3691,38.441],[27.3708,38.4422],[27.3721,38.4428],[27.3731,38.4437],[27.3742,38.4442],[27.3751,38.4455],[27.3753,38.4461],[27.3766,38.4472],[27.3731,38.4503],[27.3711,38.4517],[27.3697,38.4524],[27.3643,38.4544],[27.3597,38.4567],[27.3591,38.4575],[27.3582,38.4595],[27.3574,38.4606],[27.3552,38.4611],[27.3526,38.4612],[27.3495,38.4617],[27.35,38.4623],[27.3528,38.4695],[27.3538,38.4699],[27.3541,38.4703],[27.3537,38.4713],[27.3551,38.4741],[27.3561,38.4783],[27.3587,38.4777],[27.3593,38.4777],[27.3601,38.478],[27.3581,38.48],[27.3613,38.4808],[27.3627,38.4815],[27.3628,38.4828],[27.3659,38.4855],[27.3673,38.487],[27.3676,38.4876],[27.3713,38.4894],[27.3736,38.491],[27.3736,38.4912],[27.3727,38.4915],[27.3721,38.492],[27.3721,38.4931],[27.3723,38.4932],[27.3738,38.4929],[27.3741,38.493],[27.3751,38.4941],[27.3755,38.4949],[27.3755,38.4956],[27.3761,38.4971],[27.3762,38.4979],[27.3777,38.4977],[27.3771,38.4974],[27.3771,38.4963],[27.3773,38.4961],[27.3782,38.4965],[27.3787,38.4973],[27.3792,38.4977],[27.3802,38.497],[27.3815,38.4956],[27.3813,38.4941],[27.3808,38.4931],[27.3808,38.4926],[27.3812,38.4923],[27.381,38.4913],[27.382,38.4899],[27.3823,38.4887],[27.383,38.488],[27.3854,38.4873],[27.3866,38.4874],[27.3891,38.488],[27.3897,38.4872],[27.3902,38.487],[27.3901,38.4879],[27.3904,38.4883],[27.3914,38.4885],[27.3921,38.4865],[27.3928,38.4861],[27.3935,38.4853],[27.3954,38.4846],[27.3959,38.4835],[27.3981,38.4833],[27.3986,38.4829],[27.3994,38.4827],[27.3994,38.4825],[27.3998,38.4822],[27.4008,38.4822],[27.4016,38.4831],[27.402,38.4832],[27.4029,38.4829],[27.403,38.4822],[27.4036,38.4821],[27.4036,38.4818],[27.4041,38.481],[27.404,38.4811]]}},{"type":"Feature","properties":{"id":"bus-766-s31747","kind":"busstop","ref":"766","name":"Ansızca Son Durak","lines":[]},"geometry":{"type":"Point","coordinates":[27.404,38.4811]}},{"type":"Feature","properties":{"id":"bus-766-s31744","kind":"busstop","ref":"766","name":"Ansızca Cami","lines":[]},"geometry":{"type":"Point","coordinates":[27.4034,38.4821]}},{"type":"Feature","properties":{"id":"bus-766-s31742","kind":"busstop","ref":"766","name":"Ansızca Giriş","lines":[]},"geometry":{"type":"Point","coordinates":[27.4014,38.4831]}},{"type":"Feature","properties":{"id":"bus-766-s32491","kind":"busstop","ref":"766","name":"Orman Yolu","lines":[]},"geometry":{"type":"Point","coordinates":[27.39729,38.48338]}},{"type":"Feature","properties":{"id":"bus-766-s32493","kind":"busstop","ref":"766","name":"Kuyucak Mezarlık","lines":[]},"geometry":{"type":"Point","coordinates":[27.39311,38.48573]}},{"type":"Feature","properties":{"id":"bus-766-s32495","kind":"busstop","ref":"766","name":"Kuyucak Mezra","lines":[]},"geometry":{"type":"Point","coordinates":[27.39172,38.48762]}},{"type":"Feature","properties":{"id":"bus-766-s31740","kind":"busstop","ref":"766","name":"Kuyucak Meydan","lines":[]},"geometry":{"type":"Point","coordinates":[27.3906,38.4885]}},{"type":"Feature","properties":{"id":"bus-766-s31738","kind":"busstop","ref":"766","name":"Kuyucak İlkokulu","lines":[]},"geometry":{"type":"Point","coordinates":[27.3901,38.48729]}},{"type":"Feature","properties":{"id":"bus-766-s32464","kind":"busstop","ref":"766","name":"Hayrat Çeşmesi","lines":[]},"geometry":{"type":"Point","coordinates":[27.38474,38.48748]}},{"type":"Feature","properties":{"id":"bus-766-s32485","kind":"busstop","ref":"766","name":"Sancaklı","lines":[]},"geometry":{"type":"Point","coordinates":[27.38149,38.49052]}},{"type":"Feature","properties":{"id":"bus-766-s31726","kind":"busstop","ref":"766","name":"Damlacık Yolu","lines":[]},"geometry":{"type":"Point","coordinates":[27.38077,38.49279]}},{"type":"Feature","properties":{"id":"bus-766-s32478","kind":"busstop","ref":"766","name":"Damlacık Halı Saha","lines":[]},"geometry":{"type":"Point","coordinates":[27.38128,38.49583]}},{"type":"Feature","properties":{"id":"bus-766-s31736","kind":"busstop","ref":"766","name":"Damlacık Meydan","lines":[]},"geometry":{"type":"Point","coordinates":[27.3792,38.4977]}},{"type":"Feature","properties":{"id":"bus-766-s31734","kind":"busstop","ref":"766","name":"Damlacık Köyü İlkokulu","lines":[]},"geometry":{"type":"Point","coordinates":[27.3764,38.4979]}},{"type":"Feature","properties":{"id":"bus-766-s31728","kind":"busstop","ref":"766","name":"Damlacık Giriş","lines":[]},"geometry":{"type":"Point","coordinates":[27.37221,38.49316]}},{"type":"Feature","properties":{"id":"bus-766-s32427","kind":"busstop","ref":"766","name":"Kozalak","lines":[]},"geometry":{"type":"Point","coordinates":[27.37331,38.49086]}},{"type":"Feature","properties":{"id":"bus-766-s31732","kind":"busstop","ref":"766","name":"İnönü","lines":[]},"geometry":{"type":"Point","coordinates":[27.3628,38.483]}},{"type":"Feature","properties":{"id":"bus-766-s31730","kind":"busstop","ref":"766","name":"Şehit","lines":["966"]},"geometry":{"type":"Point","coordinates":[27.3617,38.481]}},{"type":"Feature","properties":{"id":"bus-766-s30927","kind":"busstop","ref":"766","name":"İzmir Demokrasi Üniversitesi","lines":["966"]},"geometry":{"type":"Point","coordinates":[27.3583,38.4801]}},{"type":"Feature","properties":{"id":"bus-766-s30926","kind":"busstop","ref":"766","name":"Ulucak Trafo","lines":[]},"geometry":{"type":"Point","coordinates":[27.3588,38.4793]}},{"type":"Feature","properties":{"id":"bus-766-s30924","kind":"busstop","ref":"766","name":"Ulucak Pazar Yeri","lines":[]},"geometry":{"type":"Point","coordinates":[27.3598,38.4781]}},{"type":"Feature","properties":{"id":"bus-766-s30922","kind":"busstop","ref":"766","name":"Ulucak Mezarlık","lines":[]},"geometry":{"type":"Point","coordinates":[27.35778,38.47795]}},{"type":"Feature","properties":{"id":"bus-766-s30920","kind":"busstop","ref":"766","name":"Ulucak İlköğretim Okulu","lines":["966"]},"geometry":{"type":"Point","coordinates":[27.3559,38.4776]}},{"type":"Feature","properties":{"id":"bus-766-s30918","kind":"busstop","ref":"766","name":"Güneş","lines":["966"]},"geometry":{"type":"Point","coordinates":[27.3551,38.4745]}},{"type":"Feature","properties":{"id":"bus-766-s30901","kind":"busstop","ref":"766","name":"Ulucak Cumhuriyet","lines":["966"]},"geometry":{"type":"Point","coordinates":[27.35448,38.47293]}},{"type":"Feature","properties":{"id":"bus-766-s30916","kind":"busstop","ref":"766","name":"Ulucak Spor Tesisleri","lines":["966"]},"geometry":{"type":"Point","coordinates":[27.35245,38.46901]}},{"type":"Feature","properties":{"id":"bus-766-s30914","kind":"busstop","ref":"766","name":"Ulucak Giriş","lines":["966"]},"geometry":{"type":"Point","coordinates":[27.3509,38.465]}},{"type":"Feature","properties":{"id":"bus-766-s30739","kind":"busstop","ref":"766","name":"Mopak Mesleki ve Teknik Anadolu Lisesi ","lines":["988"]},"geometry":{"type":"Point","coordinates":[27.35365,38.46106]}},{"type":"Feature","properties":{"id":"bus-766-s30741","kind":"busstop","ref":"766","name":"Pakmaya","lines":["988"]},"geometry":{"type":"Point","coordinates":[27.359,38.4575]}},{"type":"Feature","properties":{"id":"bus-766-s30743","kind":"busstop","ref":"766","name":"Pepsi","lines":["988"]},"geometry":{"type":"Point","coordinates":[27.36274,38.45502]}},{"type":"Feature","properties":{"id":"bus-766-s30775","kind":"busstop","ref":"766","name":"Tekel","lines":["988"]},"geometry":{"type":"Point","coordinates":[27.36761,38.45308]}},{"type":"Feature","properties":{"id":"bus-766-s30745","kind":"busstop","ref":"766","name":"Anıt","lines":["988"]},"geometry":{"type":"Point","coordinates":[27.37195,38.45099]}},{"type":"Feature","properties":{"id":"bus-766-s30747","kind":"busstop","ref":"766","name":"Kızıl Üzüm","lines":["988"]},"geometry":{"type":"Point","coordinates":[27.3765,38.4472]}},{"type":"Feature","properties":{"id":"bus-766-s32135","kind":"busstop","ref":"766","name":"Sulu Kız","lines":[]},"geometry":{"type":"Point","coordinates":[27.3733,38.4438]}},{"type":"Feature","properties":{"id":"bus-766-s32137","kind":"busstop","ref":"766","name":"Kızılüzüm Giriş","lines":[]},"geometry":{"type":"Point","coordinates":[27.3705,38.442]}},{"type":"Feature","properties":{"id":"bus-766-s32139","kind":"busstop","ref":"766","name":"Kızılüzüm","lines":[]},"geometry":{"type":"Point","coordinates":[27.3672,38.4394]}},{"type":"Feature","properties":{"id":"bus-766-s32138","kind":"busstop","ref":"766","name":"Kızılüzüm Giriş","lines":[]},"geometry":{"type":"Point","coordinates":[27.3704,38.4419]}},{"type":"Feature","properties":{"id":"bus-766-s32136","kind":"busstop","ref":"766","name":"Sulu Kız","lines":[]},"geometry":{"type":"Point","coordinates":[27.3735,38.4439]}},{"type":"Feature","properties":{"id":"bus-766-s30903","kind":"busstop","ref":"766","name":"Erze","lines":["988"]},"geometry":{"type":"Point","coordinates":[27.3794,38.44466]}},{"type":"Feature","properties":{"id":"bus-766-s30907","kind":"busstop","ref":"766","name":"Şehit Er Bekir VARAL","lines":["988"]},"geometry":{"type":"Point","coordinates":[27.3829,38.442]}},{"type":"Feature","properties":{"id":"bus-766-s30949","kind":"busstop","ref":"766","name":"Kemalpaşa Koleji","lines":["988"]},"geometry":{"type":"Point","coordinates":[27.38564,38.4407]}},{"type":"Feature","properties":{"id":"bus-766-s30749","kind":"busstop","ref":"766","name":"Master","lines":["988"]},"geometry":{"type":"Point","coordinates":[27.38849,38.44054]}},{"type":"Feature","properties":{"id":"bus-766-s30696","kind":"busstop","ref":"766","name":"Piyade Teğmen Mehmet Terzioğlu","lines":["988"]},"geometry":{"type":"Point","coordinates":[27.39342,38.43928]}},{"type":"Feature","properties":{"id":"bus-766-s30773","kind":"busstop","ref":"766","name":"Elit Koleji","lines":["988"]},"geometry":{"type":"Point","coordinates":[27.3974,38.4377]}},{"type":"Feature","properties":{"id":"bus-766-s30751","kind":"busstop","ref":"766","name":"Demirci","lines":["988"]},"geometry":{"type":"Point","coordinates":[27.40251,38.43479]}},{"type":"Feature","properties":{"id":"bus-766-s30753","kind":"busstop","ref":"766","name":"Çınarköy Yolu","lines":["668","767","768","772","967","988"]},"geometry":{"type":"Point","coordinates":[27.40508,38.43235]}},{"type":"Feature","properties":{"id":"bus-766-s30755","kind":"busstop","ref":"766","name":"Kemalpaşa Havuz","lines":["668","767","768","772","967","988"]},"geometry":{"type":"Point","coordinates":[27.4087,38.4307]}},{"type":"Feature","properties":{"id":"bus-766-s30757","kind":"busstop","ref":"766","name":"Sekiz Eylül İlkokulu ","lines":["668","767","768","772","967","988"]},"geometry":{"type":"Point","coordinates":[27.41138,38.42933]}},{"type":"Feature","properties":{"id":"bus-766-s30759","kind":"busstop","ref":"766","name":"Osmanlı Parkı","lines":["668","767","768","772","967","988"]},"geometry":{"type":"Point","coordinates":[27.41458,38.42828]}},{"type":"Feature","properties":{"id":"bus-766-s30761","kind":"busstop","ref":"766","name":"Cumhuriyet","lines":["668","767","768","769","772","967","988"]},"geometry":{"type":"Point","coordinates":[27.4174,38.4273]}},{"type":"Feature","properties":{"id":"bus-766-s30763","kind":"busstop","ref":"766","name":"Çeşme","lines":["668","767","768","769","772","967","988"]},"geometry":{"type":"Point","coordinates":[27.42172,38.42558]}},{"type":"Feature","properties":{"id":"bus-766-s30765","kind":"busstop","ref":"766","name":"Manav","lines":["668","767","768","769","772","967","988"]},"geometry":{"type":"Point","coordinates":[27.42444,38.42508]}},{"type":"Feature","properties":{"id":"bus-766-s30769","kind":"busstop","ref":"766","name":"Şehitler Parkı","lines":["668","767","768","769","772","967","988"]},"geometry":{"type":"Point","coordinates":[27.4267,38.4249]}},{"type":"Feature","properties":{"id":"bus-766-s30771","kind":"busstop","ref":"766","name":"Kemalpaşa","lines":["668","767","768","769","772","967","988"]},"geometry":{"type":"Point","coordinates":[27.4293,38.4236]}},{"type":"Feature","properties":{"id":"bus-766-s30851","kind":"busstop","ref":"766","name":"Kemalpaşa Belediyesi","lines":["668","767","768","769","772","967","988"]},"geometry":{"type":"Point","coordinates":[27.4334,38.4232]}},{"type":"Feature","properties":{"id":"bus-766-s30787","kind":"busstop","ref":"766","name":"Yol Ayrımı","lines":["668","767","768","769","772","967","988"]},"geometry":{"type":"Point","coordinates":[27.4364,38.42163]}},{"type":"Feature","properties":{"id":"bus-766-s30788","kind":"busstop","ref":"766","name":"Yol Ayrımı","lines":["668","767","768","769","772","967","988"]},"geometry":{"type":"Point","coordinates":[27.4362,38.4218]}},{"type":"Feature","properties":{"id":"bus-766-s30854","kind":"busstop","ref":"766","name":"Kemalpaşa Belediyesi","lines":["668","767","768","769","772","967","988"]},"geometry":{"type":"Point","coordinates":[27.4331,38.4234]}},{"type":"Feature","properties":{"id":"bus-766-s30770","kind":"busstop","ref":"766","name":"Kemalpaşa","lines":["668","767","768","769","772","967","988"]},"geometry":{"type":"Point","coordinates":[27.4296,38.4237]}},{"type":"Feature","properties":{"id":"bus-766-s30768","kind":"busstop","ref":"766","name":"Şehitler Parkı","lines":["668","767","768","769","772","967","988"]},"geometry":{"type":"Point","coordinates":[27.42647,38.42508]}},{"type":"Feature","properties":{"id":"bus-766-s30767","kind":"busstop","ref":"766","name":"Manav","lines":["668","767","768","769","772","967","988"]},"geometry":{"type":"Point","coordinates":[27.42417,38.42514]}},{"type":"Feature","properties":{"id":"bus-766-s30764","kind":"busstop","ref":"766","name":"Çeşme","lines":["668","767","768","769","772","967","988"]},"geometry":{"type":"Point","coordinates":[27.4209,38.42615]}},{"type":"Feature","properties":{"id":"bus-766-s30762","kind":"busstop","ref":"766","name":"Cumhuriyet","lines":["668","767","768","769","772","967","988"]},"geometry":{"type":"Point","coordinates":[27.4181,38.4272]}},{"type":"Feature","properties":{"id":"bus-766-s30760","kind":"busstop","ref":"766","name":"Osmanlı Parkı","lines":["668","767","768","772","967","988"]},"geometry":{"type":"Point","coordinates":[27.4156,38.428]}},{"type":"Feature","properties":{"id":"bus-766-s30758","kind":"busstop","ref":"766","name":"Sekiz Eylül İlkokulu ","lines":["668","767","768","772","967","988"]},"geometry":{"type":"Point","coordinates":[27.412,38.4291]}},{"type":"Feature","properties":{"id":"bus-766-s30756","kind":"busstop","ref":"766","name":"Kemalpaşa Havuz","lines":["668","767","768","772","967","988"]},"geometry":{"type":"Point","coordinates":[27.4088,38.4308]}},{"type":"Feature","properties":{"id":"bus-766-s30754","kind":"busstop","ref":"766","name":"Çınarköy Yolu","lines":["988"]},"geometry":{"type":"Point","coordinates":[27.40424,38.43345]}},{"type":"Feature","properties":{"id":"bus-766-s30752","kind":"busstop","ref":"766","name":"Demirci","lines":["988"]},"geometry":{"type":"Point","coordinates":[27.40277,38.4349]}},{"type":"Feature","properties":{"id":"bus-766-s30772","kind":"busstop","ref":"766","name":"Elit Koleji","lines":["988"]},"geometry":{"type":"Point","coordinates":[27.39701,38.43809]}},{"type":"Feature","properties":{"id":"bus-766-s30697","kind":"busstop","ref":"766","name":"Piyade Teğmen Mehmet Terzioğlu","lines":["988"]},"geometry":{"type":"Point","coordinates":[27.39338,38.43944]}},{"type":"Feature","properties":{"id":"bus-766-s30750","kind":"busstop","ref":"766","name":"Master","lines":["988"]},"geometry":{"type":"Point","coordinates":[27.38869,38.44065]}},{"type":"Feature","properties":{"id":"bus-766-s30948","kind":"busstop","ref":"766","name":"Kemalpaşa Koleji","lines":["988"]},"geometry":{"type":"Point","coordinates":[27.38539,38.44084]}},{"type":"Feature","properties":{"id":"bus-766-s30908","kind":"busstop","ref":"766","name":"Şehit Er Bekir VARAL","lines":["988"]},"geometry":{"type":"Point","coordinates":[27.38291,38.44222]}},{"type":"Feature","properties":{"id":"bus-766-s30904","kind":"busstop","ref":"766","name":"Erze","lines":["988"]},"geometry":{"type":"Point","coordinates":[27.379,38.4453]}},{"type":"Feature","properties":{"id":"bus-766-s30748","kind":"busstop","ref":"766","name":"Kızıl Üzüm","lines":["988"]},"geometry":{"type":"Point","coordinates":[27.3768,38.4471]}},{"type":"Feature","properties":{"id":"bus-766-s30746","kind":"busstop","ref":"766","name":"Anıt","lines":["988"]},"geometry":{"type":"Point","coordinates":[27.37204,38.45119]}},{"type":"Feature","properties":{"id":"bus-766-s30774","kind":"busstop","ref":"766","name":"Tekel","lines":["988"]},"geometry":{"type":"Point","coordinates":[27.3679,38.45317]}},{"type":"Feature","properties":{"id":"bus-766-s30744","kind":"busstop","ref":"766","name":"Pepsi","lines":["988"]},"geometry":{"type":"Point","coordinates":[27.3644,38.4545]}},{"type":"Feature","properties":{"id":"bus-766-s30742","kind":"busstop","ref":"766","name":"Pakmaya","lines":["988"]},"geometry":{"type":"Point","coordinates":[27.3591,38.4576]}},{"type":"Feature","properties":{"id":"bus-766-s30740","kind":"busstop","ref":"766","name":"Mopak Mesleki ve Teknik Anadolu Lisesi ","lines":["988"]},"geometry":{"type":"Point","coordinates":[27.3557,38.4611]}},{"type":"Feature","properties":{"id":"bus-766-s30913","kind":"busstop","ref":"766","name":"Ulucak Giriş","lines":["966"]},"geometry":{"type":"Point","coordinates":[27.35132,38.46542]}},{"type":"Feature","properties":{"id":"bus-766-s30915","kind":"busstop","ref":"766","name":"Ulucak Spor Tesisleri","lines":["966"]},"geometry":{"type":"Point","coordinates":[27.3527,38.4691]}},{"type":"Feature","properties":{"id":"bus-766-s30902","kind":"busstop","ref":"766","name":"Ulucak Cumhuriyet","lines":["966"]},"geometry":{"type":"Point","coordinates":[27.35453,38.47281]}},{"type":"Feature","properties":{"id":"bus-766-s30917","kind":"busstop","ref":"766","name":"Güneş","lines":["966"]},"geometry":{"type":"Point","coordinates":[27.3553,38.4746]}},{"type":"Feature","properties":{"id":"bus-766-s30919","kind":"busstop","ref":"766","name":"Ulucak İlköğretim Okulu","lines":["966"]},"geometry":{"type":"Point","coordinates":[27.35596,38.47756]}},{"type":"Feature","properties":{"id":"bus-766-s30921","kind":"busstop","ref":"766","name":"Ulucak Mezarlık","lines":[]},"geometry":{"type":"Point","coordinates":[27.3578,38.4779]}},{"type":"Feature","properties":{"id":"bus-766-s30923","kind":"busstop","ref":"766","name":"Ulucak Pazar Yeri","lines":[]},"geometry":{"type":"Point","coordinates":[27.3599,38.478]}},{"type":"Feature","properties":{"id":"bus-766-s30925","kind":"busstop","ref":"766","name":"Ulucak Trafo","lines":[]},"geometry":{"type":"Point","coordinates":[27.3589,38.4795]}},{"type":"Feature","properties":{"id":"bus-766-s31731","kind":"busstop","ref":"766","name":"Şehit","lines":["966"]},"geometry":{"type":"Point","coordinates":[27.3618,38.481]}},{"type":"Feature","properties":{"id":"bus-766-s31733","kind":"busstop","ref":"766","name":"İnönü","lines":[]},"geometry":{"type":"Point","coordinates":[27.3631,38.483]}},{"type":"Feature","properties":{"id":"bus-766-s32426","kind":"busstop","ref":"766","name":"Kozalak","lines":[]},"geometry":{"type":"Point","coordinates":[27.3734,38.49085]}},{"type":"Feature","properties":{"id":"bus-766-s31729","kind":"busstop","ref":"766","name":"Damlacık Giriş","lines":[]},"geometry":{"type":"Point","coordinates":[27.37217,38.49267]}},{"type":"Feature","properties":{"id":"bus-766-s31735","kind":"busstop","ref":"766","name":"Damlacık Köyü İlkokulu","lines":[]},"geometry":{"type":"Point","coordinates":[27.3763,38.4978]}},{"type":"Feature","properties":{"id":"bus-766-s31737","kind":"busstop","ref":"766","name":"Damlacık Meydan","lines":[]},"geometry":{"type":"Point","coordinates":[27.3792,38.4975]}},{"type":"Feature","properties":{"id":"bus-766-s32479","kind":"busstop","ref":"766","name":"Damlacık Halı Saha","lines":[]},"geometry":{"type":"Point","coordinates":[27.38104,38.49586]}},{"type":"Feature","properties":{"id":"bus-766-s31727","kind":"busstop","ref":"766","name":"Damlacık Yolu","lines":[]},"geometry":{"type":"Point","coordinates":[27.38072,38.49283]}},{"type":"Feature","properties":{"id":"bus-766-s32486","kind":"busstop","ref":"766","name":"Sancaklı","lines":[]},"geometry":{"type":"Point","coordinates":[27.38163,38.49019]}},{"type":"Feature","properties":{"id":"bus-766-s32463","kind":"busstop","ref":"766","name":"Hayrat Çeşmesi","lines":[]},"geometry":{"type":"Point","coordinates":[27.38469,38.48741]}},{"type":"Feature","properties":{"id":"bus-766-s31739","kind":"busstop","ref":"766","name":"Kuyucak İlkokulu","lines":[]},"geometry":{"type":"Point","coordinates":[27.3903,38.48719]}},{"type":"Feature","properties":{"id":"bus-766-s31741","kind":"busstop","ref":"766","name":"Kuyucak Meydan","lines":[]},"geometry":{"type":"Point","coordinates":[27.3905,38.4883]}},{"type":"Feature","properties":{"id":"bus-766-s31743","kind":"busstop","ref":"766","name":"Ansızca Giriş","lines":[]},"geometry":{"type":"Point","coordinates":[27.4017,38.4831]}},{"type":"Feature","properties":{"id":"bus-766-s31745","kind":"busstop","ref":"766","name":"Ansızca Cami","lines":[]},"geometry":{"type":"Point","coordinates":[27.4036,38.4819]}}]}