{"type":"FeatureCollection","features":[{"type":"Feature","properties":{"id":"bus-767-1","kind":"busline","ref":"767","dir":1},"geometry":{"type":"LineString","coordinates":[[27.4497,38.4213],[27.4487,38.4212],[27.4456,38.422],[27.4432,38.4224],[27.4379,38.4216],[27.4356,38.4218],[27.4338,38.4232],[27.4312,38.4235],[27.43,38.4234],[27.4285,38.4243],[27.4263,38.4251],[27.4234,38.4251],[27.4224,38.4253],[27.4212,38.4259],[27.4204,38.4266],[27.4185,38.427],[27.4138,38.4285],[27.4124,38.4287],[27.4103,38.4301],[27.4063,38.4317],[27.4054,38.4322],[27.4045,38.4331],[27.406,38.4339],[27.4055,38.4337]]}},{"type":"Feature","properties":{"id":"bus-767-2","kind":"busline","ref":"767","dir":2},"geometry":{"type":"LineString","coordinates":[[27.4055,38.4337],[27.4051,38.4334],[27.406,38.4339],[27.4042,38.4345],[27.4031,38.4346],[27.4054,38.4322],[27.4103,38.4301],[27.4124,38.4287],[27.4159,38.4279],[27.4164,38.4274],[27.4201,38.4266],[27.4202,38.4264],[27.4207,38.4263],[27.4224,38.4253],[27.4234,38.4251],[27.4263,38.4251],[27.4285,38.4243],[27.43,38.4234],[27.4312,38.4235],[27.4338,38.4232],[27.4354,38.4217],[27.4386,38.4215],[27.4432,38.4224],[27.4456,38.422],[27.4487,38.4212],[27.4501,38.4212]]}},{"type":"Feature","properties":{"id":"bus-767-s30792","kind":"busstop","ref":"767","name":"Demirli Çay","lines":["967"]},"geometry":{"type":"Point","coordinates":[27.44776,38.42145]}},{"type":"Feature","properties":{"id":"bus-767-s30790","kind":"busstop","ref":"767","name":"Dolmuş Garajı","lines":["769","772","967"]},"geometry":{"type":"Point","coordinates":[27.44244,38.42243]}},{"type":"Feature","properties":{"id":"bus-767-s30788","kind":"busstop","ref":"767","name":"Yol Ayrımı","lines":["668","766","768","769","772","967","988"]},"geometry":{"type":"Point","coordinates":[27.4362,38.4218]}},{"type":"Feature","properties":{"id":"bus-767-s30854","kind":"busstop","ref":"767","name":"Kemalpaşa Belediyesi","lines":["668","766","768","769","772","967","988"]},"geometry":{"type":"Point","coordinates":[27.4331,38.4234]}},{"type":"Feature","properties":{"id":"bus-767-s30770","kind":"busstop","ref":"767","name":"Kemalpaşa","lines":["668","766","768","769","772","967","988"]},"geometry":{"type":"Point","coordinates":[27.4296,38.4237]}},{"type":"Feature","properties":{"id":"bus-767-s30768","kind":"busstop","ref":"767","name":"Şehitler Parkı","lines":["668","766","768","769","772","967","988"]},"geometry":{"type":"Point","coordinates":[27.42647,38.42508]}},{"type":"Feature","properties":{"id":"bus-767-s30767","kind":"busstop","ref":"767","name":"Manav","lines":["668","766","768","769","772","967","988"]},"geometry":{"type":"Point","coordinates":[27.42417,38.42514]}},{"type":"Feature","properties":{"id":"bus-767-s30764","kind":"busstop","ref":"767","name":"Çeşme","lines":["668","766","768","769","772","967","988"]},"geometry":{"type":"Point","coordinates":[27.4209,38.42615]}},{"type":"Feature","properties":{"id":"bus-767-s30762","kind":"busstop","ref":"767","name":"Cumhuriyet","lines":["668","766","768","769","772","967","988"]},"geometry":{"type":"Point","coordinates":[27.4181,38.4272]}},{"type":"Feature","properties":{"id":"bus-767-s30760","kind":"busstop","ref":"767","name":"Osmanlı Parkı","lines":["668","766","768","772","967","988"]},"geometry":{"type":"Point","coordinates":[27.4156,38.428]}},{"type":"Feature","properties":{"id":"bus-767-s30758","kind":"busstop","ref":"767","name":"Sekiz Eylül İlkokulu ","lines":["668","766","768","772","967","988"]},"geometry":{"type":"Point","coordinates":[27.412,38.4291]}},{"type":"Feature","properties":{"id":"bus-767-s30756","kind":"busstop","ref":"767","name":"Kemalpaşa Havuz","lines":["668","766","768","772","967","988"]},"geometry":{"type":"Point","coordinates":[27.4088,38.4308]}},{"type":"Feature","properties":{"id":"bus-767-s30778","kind":"busstop","ref":"767","name":"Rıfat Ilgaz Son Durak","lines":["668","768","772","967"]},"geometry":{"type":"Point","coordinates":[27.40557,38.43364]}},{"type":"Feature","properties":{"id":"bus-767-s30753","kind":"busstop","ref":"767","name":"Çınarköy Yolu","lines":["668","766","768","772","967","988"]},"geometry":{"type":"Point","coordinates":[27.40508,38.43235]}},{"type":"Feature","properties":{"id":"bus-767-s30755","kind":"busstop","ref":"767","name":"Kemalpaşa Havuz","lines":["668","766","768","772","967","988"]},"geometry":{"type":"Point","coordinates":[27.4087,38.4307]}},{"type":"Feature","properties":{"id":"bus-767-s30757","kind":"busstop","ref":"767","name":"Sekiz Eylül İlkokulu ","lines":["668","766","768","772","967","988"]},"geometry":{"type":"Point","coordinates":[27.41138,38.42933]}},{"type":"Feature","properties":{"id":"bus-767-s30759","kind":"busstop","ref":"767","name":"Osmanlı Parkı","lines":["668","766","768","772","967","988"]},"geometry":{"type":"Point","coordinates":[27.41458,38.42828]}},{"type":"Feature","properties":{"id":"bus-767-s30761","kind":"busstop","ref":"767","name":"Cumhuriyet","lines":["668","766","768","769","772","967","988"]},"geometry":{"type":"Point","coordinates":[27.4174,38.4273]}},{"type":"Feature","properties":{"id":"bus-767-s30763","kind":"busstop","ref":"767","name":"Çeşme","lines":["668","766","768","769","772","967","988"]},"geometry":{"type":"Point","coordinates":[27.42172,38.42558]}},{"type":"Feature","properties":{"id":"bus-767-s30765","kind":"busstop","ref":"767","name":"Manav","lines":["668","766","768","769","772","967","988"]},"geometry":{"type":"Point","coordinates":[27.42444,38.42508]}},{"type":"Feature","properties":{"id":"bus-767-s30769","kind":"busstop","ref":"767","name":"Şehitler Parkı","lines":["668","766","768","769","772","967","988"]},"geometry":{"type":"Point","coordinates":[27.4267,38.4249]}},{"type":"Feature","properties":{"id":"bus-767-s30771","kind":"busstop","ref":"767","name":"Kemalpaşa","lines":["668","766","768","769","772","967","988"]},"geometry":{"type":"Point","coordinates":[27.4293,38.4236]}},{"type":"Feature","properties":{"id":"bus-767-s30851","kind":"busstop","ref":"767","name":"Kemalpaşa Belediyesi","lines":["668","766","768","769","772","967","988"]},"geometry":{"type":"Point","coordinates":[27.4334,38.4232]}},{"type":"Feature","properties":{"id":"bus-767-s30787","kind":"busstop","ref":"767","name":"Yol Ayrımı","lines":["668","766","768","769","772","967","988"]},"geometry":{"type":"Point","coordinates":[27.4364,38.42163]}},{"type":"Feature","properties":{"id":"bus-767-s30789","kind":"busstop","ref":"767","name":"Dolmuş Garajı","lines":["772","967"]},"geometry":{"type":"Point","coordinates":[27.4421,38.4222]}},{"type":"Feature","properties":{"id":"bus-767-s30791","kind":"busstop","ref":"767","name":"Demirli Çay","lines":["967"]},"geometry":{"type":"Point","coordinates":[27.44761,38.4214]}}]}