{"type":"FeatureCollection","features":[{"type":"Feature","properties":{"id":"bus-77-1","kind":"busline","ref":"77","dir":1},"geometry":{"type":"LineString","coordinates":[[27.1428,38.4882],[27.141,38.485],[27.1389,38.4826],[27.1377,38.4819],[27.1365,38.4809],[27.1353,38.4792],[27.1349,38.4793],[27.1338,38.4775],[27.1374,38.4772],[27.1406,38.4776],[27.1405,38.4748],[27.1399,38.474],[27.139,38.4738],[27.1388,38.4735],[27.1386,38.4728],[27.138,38.472],[27.1369,38.4696],[27.1369,38.4692],[27.134,38.4694],[27.1333,38.4691],[27.1296,38.4696],[27.1295,38.4693],[27.1284,38.4693],[27.1258,38.47],[27.1254,38.4708],[27.1246,38.4711],[27.1211,38.4713],[27.119,38.4712],[27.1187,38.4714],[27.1182,38.4712],[27.1173,38.4704],[27.1165,38.4681],[27.116,38.4676],[27.114,38.4684],[27.111,38.4703],[27.1111,38.4709],[27.1118,38.4709],[27.112,38.4705],[27.1111,38.4695],[27.1106,38.4694],[27.1102,38.4697],[27.1103,38.4701],[27.111,38.4702],[27.1144,38.468],[27.1164,38.4674],[27.1181,38.4674],[27.1219,38.4684],[27.1254,38.4684],[27.1273,38.4677],[27.1294,38.4663],[27.1306,38.4658],[27.1332,38.4654],[27.1396,38.4649],[27.1415,38.4649],[27.1429,38.4652],[27.1528,38.4683],[27.1548,38.4686],[27.1568,38.4684],[27.1588,38.4675],[27.1587,38.4672],[27.1583,38.4672],[27.1564,38.4681],[27.1567,38.4683],[27.1572,38.4683],[27.1594,38.4678],[27.161,38.467],[27.1625,38.4658],[27.1645,38.4636],[27.1675,38.4587],[27.1705,38.4525],[27.1719,38.4505],[27.1724,38.4491],[27.1732,38.4444],[27.1724,38.4396],[27.1686,38.4376],[27.168,38.4365],[27.1677,38.4351],[27.1675,38.4349],[27.1668,38.435],[27.1666,38.4347],[27.167,38.4346],[27.1676,38.4348],[27.1679,38.4351],[27.168,38.4357],[27.168,38.4355]]}},{"type":"Feature","properties":{"id":"bus-77-2","kind":"busline","ref":"77","dir":2},"geometry":{"type":"LineString","coordinates":[[27.168,38.4355],[27.1679,38.4351],[27.168,38.4357],[27.1678,38.4357],[27.1678,38.4359],[27.1686,38.4376],[27.1724,38.4396],[27.1732,38.4443],[27.1724,38.4491],[27.1719,38.4505],[27.1705,38.4525],[27.1672,38.4591],[27.1645,38.4636],[27.1625,38.4658],[27.161,38.467],[27.1605,38.4672],[27.1601,38.467],[27.1588,38.4678],[27.1569,38.4685],[27.1545,38.4687],[27.1518,38.4682],[27.1426,38.4652],[27.1415,38.465],[27.139,38.465],[27.1318,38.4657],[27.1297,38.4664],[27.1273,38.4678],[27.1258,38.4684],[27.1246,38.4686],[27.1218,38.4685],[27.1181,38.4675],[27.1167,38.4675],[27.116,38.4676],[27.114,38.4684],[27.1134,38.4692],[27.1129,38.4706],[27.113,38.4711],[27.114,38.4721],[27.1152,38.4743],[27.1193,38.4733],[27.1189,38.4715],[27.119,38.4712],[27.1211,38.4713],[27.1246,38.4711],[27.1254,38.4708],[27.1258,38.47],[27.1284,38.4693],[27.1295,38.4693],[27.1296,38.4696],[27.1333,38.4691],[27.134,38.4694],[27.1369,38.4692],[27.1369,38.4696],[27.138,38.472],[27.1386,38.4728],[27.1388,38.4735],[27.139,38.4738],[27.1399,38.474],[27.1405,38.4748],[27.1406,38.4776],[27.1374,38.4772],[27.1338,38.4775],[27.1349,38.4793],[27.1353,38.4792],[27.1365,38.4809],[27.1377,38.4819],[27.1389,38.4826],[27.141,38.485],[27.1428,38.4882]]}},{"type":"Feature","properties":{"id":"bus-77-s20700","kind":"busstop","ref":"77","name":"Nafiz Gürman","lines":["196","197","477","577"]},"geometry":{"type":"Point","coordinates":[27.14325,38.48818]}},{"type":"Feature","properties":{"id":"bus-77-s20536","kind":"busstop","ref":"77","name":"Orkide","lines":["196","197","477","577"]},"geometry":{"type":"Point","coordinates":[27.1418,38.4863]}},{"type":"Feature","properties":{"id":"bus-77-s20532","kind":"busstop","ref":"77","name":"Kayalık","lines":["196","197","477","577"]},"geometry":{"type":"Point","coordinates":[27.13989,38.48386]}},{"type":"Feature","properties":{"id":"bus-77-s20530","kind":"busstop","ref":"77","name":"Nafiz Gürman Eski Son Durak","lines":["196","197","477","577"]},"geometry":{"type":"Point","coordinates":[27.13822,38.48224]}},{"type":"Feature","properties":{"id":"bus-77-s20528","kind":"busstop","ref":"77","name":"Vali Namık Kemal İlköğretim Okulu","lines":["196","197","477","577"]},"geometry":{"type":"Point","coordinates":[27.13644,38.4809]}},{"type":"Feature","properties":{"id":"bus-77-s20526","kind":"busstop","ref":"77","name":"Nuri Atik Mesleki ve Teknik Anadolu Lisesi","lines":["196","197","477","577"]},"geometry":{"type":"Point","coordinates":[27.13563,38.47967]}},{"type":"Feature","properties":{"id":"bus-77-s20524","kind":"busstop","ref":"77","name":"Gümüşpala Lisesi","lines":["196","197","477","577"]},"geometry":{"type":"Point","coordinates":[27.1343,38.47844]}},{"type":"Feature","properties":{"id":"bus-77-s20516","kind":"busstop","ref":"77","name":"Gümüşpala Ticaret Lisesi","lines":["196","197","477","577"]},"geometry":{"type":"Point","coordinates":[27.13436,38.47739]}},{"type":"Feature","properties":{"id":"bus-77-s20518","kind":"busstop","ref":"77","name":"Karşıyaka Endüstri Meslek Lisesi","lines":["196","197","477","577"]},"geometry":{"type":"Point","coordinates":[27.13657,38.47718]}},{"type":"Feature","properties":{"id":"bus-77-s20520","kind":"busstop","ref":"77","name":"Nafiz Gürman Muhtarlık","lines":["196","197","477","577"]},"geometry":{"type":"Point","coordinates":[27.1397,38.47751]}},{"type":"Feature","properties":{"id":"bus-77-s20456","kind":"busstop","ref":"77","name":"Gümüşpala Su Deposu","lines":["135","196","197","335","477","577","742"]},"geometry":{"type":"Point","coordinates":[27.1405,38.4766]}},{"type":"Feature","properties":{"id":"bus-77-s20454","kind":"busstop","ref":"77","name":"Gümüşpala Merkez","lines":["196","197","335","477","537"]},"geometry":{"type":"Point","coordinates":[27.14,38.4743]}},{"type":"Feature","properties":{"id":"bus-77-s20452","kind":"busstop","ref":"77","name":"Emek","lines":["196","197","335","477","537"]},"geometry":{"type":"Point","coordinates":[27.13801,38.47207]}},{"type":"Feature","properties":{"id":"bus-77-s20450","kind":"busstop","ref":"77","name":"Muhtar","lines":["196","197","335","477","537"]},"geometry":{"type":"Point","coordinates":[27.1372,38.4701]}},{"type":"Feature","properties":{"id":"bus-77-s20444","kind":"busstop","ref":"77","name":"Gümüşpala Karakol","lines":["197","537"]},"geometry":{"type":"Point","coordinates":[27.13493,38.46941]}},{"type":"Feature","properties":{"id":"bus-77-s20442","kind":"busstop","ref":"77","name":"Gümüşpala Dört Yol","lines":["197","537"]},"geometry":{"type":"Point","coordinates":[27.13163,38.46942]}},{"type":"Feature","properties":{"id":"bus-77-s20440","kind":"busstop","ref":"77","name":"Ellinci Yıl İlkokulu","lines":["197","537"]},"geometry":{"type":"Point","coordinates":[27.12992,38.46953]}},{"type":"Feature","properties":{"id":"bus-77-s20434","kind":"busstop","ref":"77","name":"Terzi","lines":["197","537"]},"geometry":{"type":"Point","coordinates":[27.1279,38.4695]}},{"type":"Feature","properties":{"id":"bus-77-s20432","kind":"busstop","ref":"77","name":"Gümüşpala Çamlık","lines":["197","537"]},"geometry":{"type":"Point","coordinates":[27.12601,38.47004]}},{"type":"Feature","properties":{"id":"bus-77-s20430","kind":"busstop","ref":"77","name":"Bahçe","lines":["197","537"]},"geometry":{"type":"Point","coordinates":[27.12376,38.47119]}},{"type":"Feature","properties":{"id":"bus-77-s20428","kind":"busstop","ref":"77","name":"Demirci","lines":["78","135","137","197","577","742"]},"geometry":{"type":"Point","coordinates":[27.11816,38.47121]}},{"type":"Feature","properties":{"id":"bus-77-s20426","kind":"busstop","ref":"77","name":"Soğukkuyu","lines":["78","135","137","197","577","742"]},"geometry":{"type":"Point","coordinates":[27.1167,38.469]}},{"type":"Feature","properties":{"id":"bus-77-s20066","kind":"busstop","ref":"77","name":"Soğukkuyu Trafik","lines":["78","125","140","147","148","240","426","434","577","602","608","660","800","912"]},"geometry":{"type":"Point","coordinates":[27.1179,38.4674]}},{"type":"Feature","properties":{"id":"bus-77-s20064","kind":"busstop","ref":"77","name":"Öztürk","lines":["78","125","140","147","148","240","426","434","577","602","608","660","800","912"]},"geometry":{"type":"Point","coordinates":[27.12228,38.46832]}},{"type":"Feature","properties":{"id":"bus-77-s20062","kind":"busstop","ref":"77","name":"Naldöken","lines":["78","125","140","147","148","240","335","426","434","477","577","602","608","660","800","912"]},"geometry":{"type":"Point","coordinates":[27.1297,38.4661]}},{"type":"Feature","properties":{"id":"bus-77-s20060","kind":"busstop","ref":"77","name":"Turan","lines":["78","121","125","140","147","148","200","213","240","290","330","335","426","434","477","543","577","602","608","660","800","912","920"]},"geometry":{"type":"Point","coordinates":[27.1503,38.4675]}},{"type":"Feature","properties":{"id":"bus-77-s20058","kind":"busstop","ref":"77","name":"Bayraklı Çamlık","lines":["78","125","140","147","148","240","335","426","434","477","577"]},"geometry":{"type":"Point","coordinates":[27.1597,38.4676]}},{"type":"Feature","properties":{"id":"bus-77-s20056","kind":"busstop","ref":"77","name":"Bayraklı Park","lines":["78","125","140","147","148","240","335","426","434","477","577"]},"geometry":{"type":"Point","coordinates":[27.1635,38.4646]}},{"type":"Feature","properties":{"id":"bus-77-s20054","kind":"busstop","ref":"77","name":"Bayraklı İstasyon","lines":["78","125","140","147","148","240","335","426","434","477","577"]},"geometry":{"type":"Point","coordinates":[27.1647,38.463]}},{"type":"Feature","properties":{"id":"bus-77-s20052","kind":"busstop","ref":"77","name":"Çevre ve Şehircilik İl Müdürlüğü","lines":["78","125","140","147","148","240","335","426","434","477","577"]},"geometry":{"type":"Point","coordinates":[27.16715,38.45887]}},{"type":"Feature","properties":{"id":"bus-77-s20050","kind":"busstop","ref":"77","name":"Körfez","lines":["78","125","140","147","148","240","335","426","434","477","577"]},"geometry":{"type":"Point","coordinates":[27.16848,38.45642]}},{"type":"Feature","properties":{"id":"bus-77-s20048","kind":"busstop","ref":"77","name":"Makine Mühendisleri Odası","lines":["78","125","140","147","148","240","335","426","434","477","577"]},"geometry":{"type":"Point","coordinates":[27.1705,38.4525]}},{"type":"Feature","properties":{"id":"bus-77-s20046","kind":"busstop","ref":"77","name":"Salhane İş Merkezi","lines":["78","125","140","147","148","240","335","426","434","477","577"]},"geometry":{"type":"Point","coordinates":[27.1716,38.4508]}},{"type":"Feature","properties":{"id":"bus-77-s20044","kind":"busstop","ref":"77","name":"Zafer Payzın Kavşağı","lines":["78","125","140","147","148","240","335","426","434","477","577"]},"geometry":{"type":"Point","coordinates":[27.1729,38.4455]}},{"type":"Feature","properties":{"id":"bus-77-s20042","kind":"busstop","ref":"77","name":"Egem","lines":["78","125","140","147","148","240","335","426","434","477","577"]},"geometry":{"type":"Point","coordinates":[27.173,38.4436]}},{"type":"Feature","properties":{"id":"bus-77-s20040","kind":"busstop","ref":"77","name":"Çınarlı Hastanesi","lines":["78","125","140","147","148","240","335","426","434","477","577"]},"geometry":{"type":"Point","coordinates":[27.17267,38.44192]}},{"type":"Feature","properties":{"id":"bus-77-s11890","kind":"busstop","ref":"77","name":"Altınyağ","lines":["78","125","140","147","148","240","335","426","434","477","577"]},"geometry":{"type":"Point","coordinates":[27.1711,38.439]}},{"type":"Feature","properties":{"id":"bus-77-s10492","kind":"busstop","ref":"77","name":"Halkapınar 2","lines":["477","577"]},"geometry":{"type":"Point","coordinates":[27.16801,38.43549]}},{"type":"Feature","properties":{"id":"bus-77-s11889","kind":"busstop","ref":"77","name":"Altınyağ","lines":["78","125","140","147","148","240","335","426","434","477","577"]},"geometry":{"type":"Point","coordinates":[27.1709,38.4388]}},{"type":"Feature","properties":{"id":"bus-77-s20041","kind":"busstop","ref":"77","name":"Çınarlı Hastanesi","lines":["78","125","140","147","148","240","335","426","434","477","577"]},"geometry":{"type":"Point","coordinates":[27.1728,38.4418]}},{"type":"Feature","properties":{"id":"bus-77-s20045","kind":"busstop","ref":"77","name":"Salhane İş Merkezi","lines":["78","125","140","147","148","240","335","426","434","477","577"]},"geometry":{"type":"Point","coordinates":[27.1723,38.44991]}},{"type":"Feature","properties":{"id":"bus-77-s20047","kind":"busstop","ref":"77","name":"Makine Mühendisleri Odası","lines":["78","125","140","147","148","240","335","426","434","477","577"]},"geometry":{"type":"Point","coordinates":[27.17,38.4537]}},{"type":"Feature","properties":{"id":"bus-77-s20049","kind":"busstop","ref":"77","name":"Körfez","lines":["78","125","147","240","335","426","434","477","577"]},"geometry":{"type":"Point","coordinates":[27.16885,38.45614]}},{"type":"Feature","properties":{"id":"bus-77-s20051","kind":"busstop","ref":"77","name":"Çevre ve Şehircilik İl Müdürlüğü","lines":["78","125","140","147","148","240","335","426","434","477","577"]},"geometry":{"type":"Point","coordinates":[27.1671,38.4593]}},{"type":"Feature","properties":{"id":"bus-77-s20053","kind":"busstop","ref":"77","name":"Bayraklı İstasyon","lines":["78","125","140","147","148","240","335","426","434","477","577"]},"geometry":{"type":"Point","coordinates":[27.16471,38.46323]}},{"type":"Feature","properties":{"id":"bus-77-s20055","kind":"busstop","ref":"77","name":"Bayraklı Çamlık","lines":["78","102","125","140","147","148","240","335","426","434","477","501","502","504","577","662"]},"geometry":{"type":"Point","coordinates":[27.1611,38.4671]}},{"type":"Feature","properties":{"id":"bus-77-s20057","kind":"busstop","ref":"77","name":"Turan","lines":["78","121","125","140","147","148","200","240","290","330","335","426","434","477","543","577","602","608","660","800","912","920"]},"geometry":{"type":"Point","coordinates":[27.14939,38.46755]}},{"type":"Feature","properties":{"id":"bus-77-s20059","kind":"busstop","ref":"77","name":"Naldöken","lines":["78","125","140","147","148","240","426","434","577","602","608","660","800","912"]},"geometry":{"type":"Point","coordinates":[27.1293,38.4667]}},{"type":"Feature","properties":{"id":"bus-77-s20061","kind":"busstop","ref":"77","name":"Öztürk","lines":["78","125","140","147","148","240","426","434","577","602","608","660","800","912"]},"geometry":{"type":"Point","coordinates":[27.12101,38.46832]}},{"type":"Feature","properties":{"id":"bus-77-s20063","kind":"busstop","ref":"77","name":"Soğukkuyu Trafik","lines":["78","125","140","147","148","240","426","434","577","602","608","660","800","912"]},"geometry":{"type":"Point","coordinates":[27.1174,38.4675]}},{"type":"Feature","properties":{"id":"bus-77-s20483","kind":"busstop","ref":"77","name":"Girne Konutları","lines":["78","135","137","147","148","197","240","258","426","430","434","435","532","535","537","577","741","742","847"]},"geometry":{"type":"Point","coordinates":[27.1151,38.4737]}},{"type":"Feature","properties":{"id":"bus-77-s22230","kind":"busstop","ref":"77","name":"Gazeteci Çetin Altan Anadolu Ticaret Lisesi","lines":["78","135","137","197","577","742"]},"geometry":{"type":"Point","coordinates":[27.1172,38.4737]}},{"type":"Feature","properties":{"id":"bus-77-s20481","kind":"busstop","ref":"77","name":"Kuyumcu Abdullah Altınçubuk İlkokulu","lines":["78","135","137","197","577","742"]},"geometry":{"type":"Point","coordinates":[27.11902,38.47221]}},{"type":"Feature","properties":{"id":"bus-77-s20429","kind":"busstop","ref":"77","name":"Bahçe","lines":["197","537"]},"geometry":{"type":"Point","coordinates":[27.12314,38.47115]}},{"type":"Feature","properties":{"id":"bus-77-s20431","kind":"busstop","ref":"77","name":"Gümüşpala Çamlık","lines":["197","537"]},"geometry":{"type":"Point","coordinates":[27.1257,38.4702]}},{"type":"Feature","properties":{"id":"bus-77-s20433","kind":"busstop","ref":"77","name":"Terzi","lines":["197","537"]},"geometry":{"type":"Point","coordinates":[27.1279,38.4694]}},{"type":"Feature","properties":{"id":"bus-77-s20439","kind":"busstop","ref":"77","name":"Ellinci Yıl İlkokulu","lines":["197","537"]},"geometry":{"type":"Point","coordinates":[27.12994,38.46947]}},{"type":"Feature","properties":{"id":"bus-77-s20441","kind":"busstop","ref":"77","name":"Gümüşpala Dört Yol","lines":["197","537"]},"geometry":{"type":"Point","coordinates":[27.13167,38.46932]}},{"type":"Feature","properties":{"id":"bus-77-s20443","kind":"busstop","ref":"77","name":"Gümüşpala Karakol","lines":["197","537"]},"geometry":{"type":"Point","coordinates":[27.13472,38.4693]}},{"type":"Feature","properties":{"id":"bus-77-s20449","kind":"busstop","ref":"77","name":"Muhtar","lines":["196","197","335","477","537"]},"geometry":{"type":"Point","coordinates":[27.13738,38.47034]}},{"type":"Feature","properties":{"id":"bus-77-s20451","kind":"busstop","ref":"77","name":"Emek","lines":["196","197","335","477","537"]},"geometry":{"type":"Point","coordinates":[27.13825,38.47221]}},{"type":"Feature","properties":{"id":"bus-77-s20453","kind":"busstop","ref":"77","name":"Gümüşpala Merkez","lines":["196","197","335","477","537"]},"geometry":{"type":"Point","coordinates":[27.1403,38.4742]}},{"type":"Feature","properties":{"id":"bus-77-s20455","kind":"busstop","ref":"77","name":"Gümüşpala Su Deposu","lines":["135","196","197","335","477","577","742"]},"geometry":{"type":"Point","coordinates":[27.14055,38.47654]}},{"type":"Feature","properties":{"id":"bus-77-s20519","kind":"busstop","ref":"77","name":"Nafiz Gürman Muhtarlık","lines":["196","197","477","577"]},"geometry":{"type":"Point","coordinates":[27.1398,38.4775]}},{"type":"Feature","properties":{"id":"bus-77-s20517","kind":"busstop","ref":"77","name":"Karşıyaka Endüstri Meslek Lisesi","lines":["196","197","477","577"]},"geometry":{"type":"Point","coordinates":[27.13684,38.47723]}},{"type":"Feature","properties":{"id":"bus-77-s20515","kind":"busstop","ref":"77","name":"Gümüşpala Ticaret Lisesi","lines":["196","197","477","577"]},"geometry":{"type":"Point","coordinates":[27.1351,38.4774]}},{"type":"Feature","properties":{"id":"bus-77-s20523","kind":"busstop","ref":"77","name":"Gümüşpala Lisesi","lines":["196","197","477","577"]},"geometry":{"type":"Point","coordinates":[27.13475,38.47882]}},{"type":"Feature","properties":{"id":"bus-77-s20525","kind":"busstop","ref":"77","name":"Nuri Atik Mesleki ve Teknik Anadolu Lisesi","lines":["196","197","477","577"]},"geometry":{"type":"Point","coordinates":[27.13584,38.47979]}},{"type":"Feature","properties":{"id":"bus-77-s20527","kind":"busstop","ref":"77","name":"Vali Namık Kemal İlköğretim Okulu","lines":["196","197","477","577"]},"geometry":{"type":"Point","coordinates":[27.13669,38.48096]}},{"type":"Feature","properties":{"id":"bus-77-s20529","kind":"busstop","ref":"77","name":"Nafiz Gürman Eski Son Durak","lines":["196","197","477","577"]},"geometry":{"type":"Point","coordinates":[27.13868,38.48228]}},{"type":"Feature","properties":{"id":"bus-77-s20531","kind":"busstop","ref":"77","name":"Kayalık","lines":["196","197","477","577"]},"geometry":{"type":"Point","coordinates":[27.14006,38.48388]}},{"type":"Feature","properties":{"id":"bus-77-s20535","kind":"busstop","ref":"77","name":"Orkide","lines":["196","197","477","577"]},"geometry":{"type":"Point","coordinates":[27.1419,38.486]}}]}