{"type":"FeatureCollection","features":[{"type":"Feature","properties":{"id":"bus-772-1","kind":"busline","ref":"772","dir":1},"geometry":{"type":"LineString","coordinates":[[27.4499,38.4398],[27.4495,38.4399],[27.449,38.4397],[27.4475,38.4387],[27.4462,38.4377],[27.4446,38.4356],[27.4434,38.4349],[27.4397,38.4338],[27.4372,38.4326],[27.4339,38.4318],[27.4324,38.4309],[27.4313,38.4306],[27.4306,38.4301],[27.4291,38.4296],[27.4282,38.4296],[27.4254,38.4291],[27.4245,38.4285],[27.4209,38.4299],[27.4141,38.4313],[27.4111,38.4322],[27.4107,38.4312],[27.41,38.4302],[27.4124,38.4287],[27.4159,38.4279],[27.4164,38.4274],[27.4201,38.4266],[27.4212,38.4258],[27.4224,38.4253],[27.4234,38.4251],[27.4263,38.4251],[27.4285,38.4243],[27.4299,38.4233],[27.4312,38.4235],[27.4338,38.4232],[27.4354,38.4217],[27.4386,38.4215],[27.4423,38.4222],[27.4421,38.4222]]}},{"type":"Feature","properties":{"id":"bus-772-2","kind":"busline","ref":"772","dir":2},"geometry":{"type":"LineString","coordinates":[[27.4424,38.4224],[27.443,38.4224],[27.4379,38.4216],[27.4356,38.4218],[27.4338,38.4232],[27.4312,38.4235],[27.43,38.4234],[27.4285,38.4243],[27.4263,38.4251],[27.4234,38.4251],[27.4224,38.4253],[27.4212,38.4258],[27.4204,38.4266],[27.4185,38.427],[27.4138,38.4285],[27.4124,38.4287],[27.41,38.4302],[27.4107,38.4312],[27.4111,38.4322],[27.4141,38.4313],[27.4209,38.4299],[27.4245,38.4285],[27.4254,38.4291],[27.4282,38.4296],[27.4291,38.4296],[27.4306,38.4301],[27.4313,38.4306],[27.4324,38.4309],[27.4339,38.4318],[27.4372,38.4326],[27.4397,38.4338],[27.4434,38.4349],[27.4446,38.4356],[27.4462,38.4377],[27.4475,38.4387],[27.449,38.4397],[27.4495,38.4399],[27.4499,38.4398],[27.4501,38.44]]}},{"type":"Feature","properties":{"id":"bus-772-s31615","kind":"busstop","ref":"772","name":"Cennet Bahçesi Mezarlığı","lines":[]},"geometry":{"type":"Point","coordinates":[27.44925,38.43982]}},{"type":"Feature","properties":{"id":"bus-772-s31617","kind":"busstop","ref":"772","name":"Kemalpaşa Arıtma Tesisi","lines":[]},"geometry":{"type":"Point","coordinates":[27.44513,38.43641]}},{"type":"Feature","properties":{"id":"bus-772-s31619","kind":"busstop","ref":"772","name":"Kiraz Ağacı","lines":[]},"geometry":{"type":"Point","coordinates":[27.43742,38.43273]}},{"type":"Feature","properties":{"id":"bus-772-s31621","kind":"busstop","ref":"772","name":"Sütçüler Yol Ayrımı","lines":[]},"geometry":{"type":"Point","coordinates":[27.4249,38.42889]}},{"type":"Feature","properties":{"id":"bus-772-s31623","kind":"busstop","ref":"772","name":"Kemalpaşa Sevgi","lines":[]},"geometry":{"type":"Point","coordinates":[27.42243,38.42937]}},{"type":"Feature","properties":{"id":"bus-772-s31625","kind":"busstop","ref":"772","name":"Kemalpaşa Pazaryeri","lines":[]},"geometry":{"type":"Point","coordinates":[27.41797,38.43057]}},{"type":"Feature","properties":{"id":"bus-772-s31627","kind":"busstop","ref":"772","name":"Kemalpaşa Karakol","lines":[]},"geometry":{"type":"Point","coordinates":[27.41309,38.43161]}},{"type":"Feature","properties":{"id":"bus-772-s30753","kind":"busstop","ref":"772","name":"Çınarköy Yolu","lines":["668","766","767","768","967","988"]},"geometry":{"type":"Point","coordinates":[27.40508,38.43235]}},{"type":"Feature","properties":{"id":"bus-772-s30755","kind":"busstop","ref":"772","name":"Kemalpaşa Havuz","lines":["668","766","767","768","967","988"]},"geometry":{"type":"Point","coordinates":[27.4087,38.4307]}},{"type":"Feature","properties":{"id":"bus-772-s30757","kind":"busstop","ref":"772","name":"Sekiz Eylül İlkokulu ","lines":["668","766","767","768","967","988"]},"geometry":{"type":"Point","coordinates":[27.41138,38.42933]}},{"type":"Feature","properties":{"id":"bus-772-s30759","kind":"busstop","ref":"772","name":"Osmanlı Parkı","lines":["668","766","767","768","967","988"]},"geometry":{"type":"Point","coordinates":[27.41458,38.42828]}},{"type":"Feature","properties":{"id":"bus-772-s30761","kind":"busstop","ref":"772","name":"Cumhuriyet","lines":["668","766","767","768","769","967","988"]},"geometry":{"type":"Point","coordinates":[27.4174,38.4273]}},{"type":"Feature","properties":{"id":"bus-772-s30763","kind":"busstop","ref":"772","name":"Çeşme","lines":["668","766","767","768","769","967","988"]},"geometry":{"type":"Point","coordinates":[27.42172,38.42558]}},{"type":"Feature","properties":{"id":"bus-772-s30765","kind":"busstop","ref":"772","name":"Manav","lines":["668","766","767","768","769","967","988"]},"geometry":{"type":"Point","coordinates":[27.42444,38.42508]}},{"type":"Feature","properties":{"id":"bus-772-s30769","kind":"busstop","ref":"772","name":"Şehitler Parkı","lines":["668","766","767","768","769","967","988"]},"geometry":{"type":"Point","coordinates":[27.4267,38.4249]}},{"type":"Feature","properties":{"id":"bus-772-s30771","kind":"busstop","ref":"772","name":"Kemalpaşa","lines":["668","766","767","768","769","967","988"]},"geometry":{"type":"Point","coordinates":[27.4293,38.4236]}},{"type":"Feature","properties":{"id":"bus-772-s30851","kind":"busstop","ref":"772","name":"Kemalpaşa Belediyesi","lines":["668","766","767","768","769","967","988"]},"geometry":{"type":"Point","coordinates":[27.4334,38.4232]}},{"type":"Feature","properties":{"id":"bus-772-s30787","kind":"busstop","ref":"772","name":"Yol Ayrımı","lines":["668","766","767","768","769","967","988"]},"geometry":{"type":"Point","coordinates":[27.4364,38.42163]}},{"type":"Feature","properties":{"id":"bus-772-s30789","kind":"busstop","ref":"772","name":"Dolmuş Garajı","lines":["767","967"]},"geometry":{"type":"Point","coordinates":[27.4421,38.4222]}},{"type":"Feature","properties":{"id":"bus-772-s30790","kind":"busstop","ref":"772","name":"Dolmuş Garajı","lines":["767","769","967"]},"geometry":{"type":"Point","coordinates":[27.44244,38.42243]}},{"type":"Feature","properties":{"id":"bus-772-s30788","kind":"busstop","ref":"772","name":"Yol Ayrımı","lines":["668","766","767","768","769","967","988"]},"geometry":{"type":"Point","coordinates":[27.4362,38.4218]}},{"type":"Feature","properties":{"id":"bus-772-s30854","kind":"busstop","ref":"772","name":"Kemalpaşa Belediyesi","lines":["668","766","767","768","769","967","988"]},"geometry":{"type":"Point","coordinates":[27.4331,38.4234]}},{"type":"Feature","properties":{"id":"bus-772-s30770","kind":"busstop","ref":"772","name":"Kemalpaşa","lines":["668","766","767","768","769","967","988"]},"geometry":{"type":"Point","coordinates":[27.4296,38.4237]}},{"type":"Feature","properties":{"id":"bus-772-s30768","kind":"busstop","ref":"772","name":"Şehitler Parkı","lines":["668","766","767","768","769","967","988"]},"geometry":{"type":"Point","coordinates":[27.42647,38.42508]}},{"type":"Feature","properties":{"id":"bus-772-s30767","kind":"busstop","ref":"772","name":"Manav","lines":["668","766","767","768","769","967","988"]},"geometry":{"type":"Point","coordinates":[27.42417,38.42514]}},{"type":"Feature","properties":{"id":"bus-772-s30764","kind":"busstop","ref":"772","name":"Çeşme","lines":["668","766","767","768","769","967","988"]},"geometry":{"type":"Point","coordinates":[27.4209,38.42615]}},{"type":"Feature","properties":{"id":"bus-772-s30762","kind":"busstop","ref":"772","name":"Cumhuriyet","lines":["668","766","767","768","769","967","988"]},"geometry":{"type":"Point","coordinates":[27.4181,38.4272]}},{"type":"Feature","properties":{"id":"bus-772-s30760","kind":"busstop","ref":"772","name":"Osmanlı Parkı","lines":["668","766","767","768","967","988"]},"geometry":{"type":"Point","coordinates":[27.4156,38.428]}},{"type":"Feature","properties":{"id":"bus-772-s30758","kind":"busstop","ref":"772","name":"Sekiz Eylül İlkokulu ","lines":["668","766","767","768","967","988"]},"geometry":{"type":"Point","coordinates":[27.412,38.4291]}},{"type":"Feature","properties":{"id":"bus-772-s30756","kind":"busstop","ref":"772","name":"Kemalpaşa Havuz","lines":["668","766","767","768","967","988"]},"geometry":{"type":"Point","coordinates":[27.4088,38.4308]}},{"type":"Feature","properties":{"id":"bus-772-s30778","kind":"busstop","ref":"772","name":"Rıfat Ilgaz Son Durak","lines":["668","767","768","967"]},"geometry":{"type":"Point","coordinates":[27.40557,38.43364]}},{"type":"Feature","properties":{"id":"bus-772-s31626","kind":"busstop","ref":"772","name":"Kemalpaşa Karakol","lines":[]},"geometry":{"type":"Point","coordinates":[27.41326,38.43147]}},{"type":"Feature","properties":{"id":"bus-772-s31624","kind":"busstop","ref":"772","name":"Kemalpaşa Pazaryeri","lines":[]},"geometry":{"type":"Point","coordinates":[27.41744,38.43057]}},{"type":"Feature","properties":{"id":"bus-772-s31622","kind":"busstop","ref":"772","name":"Kemalpaşa Sevgi","lines":[]},"geometry":{"type":"Point","coordinates":[27.42227,38.4293]}},{"type":"Feature","properties":{"id":"bus-772-s31620","kind":"busstop","ref":"772","name":"Sütçüler Yol Ayrımı","lines":[]},"geometry":{"type":"Point","coordinates":[27.42483,38.42877]}},{"type":"Feature","properties":{"id":"bus-772-s31618","kind":"busstop","ref":"772","name":"Kiraz Ağacı","lines":[]},"geometry":{"type":"Point","coordinates":[27.43705,38.43258]}},{"type":"Feature","properties":{"id":"bus-772-s31616","kind":"busstop","ref":"772","name":"Kemalpaşa Arıtma Tesisi","lines":[]},"geometry":{"type":"Point","coordinates":[27.44539,38.4366]}},{"type":"Feature","properties":{"id":"bus-772-s31614","kind":"busstop","ref":"772","name":"Cennet Bahçesi Mezarlığı","lines":[]},"geometry":{"type":"Point","coordinates":[27.44905,38.43964]}}]}