{"type":"FeatureCollection","features":[{"type":"Feature","properties":{"id":"bus-776-1","kind":"busline","ref":"776","dir":1},"geometry":{"type":"LineString","coordinates":[[27.1373,38.201],[27.1383,38.2019],[27.1392,38.2031],[27.1397,38.2042],[27.1401,38.2064],[27.1397,38.2089],[27.1398,38.21],[27.1395,38.2107],[27.139,38.2155],[27.1372,38.2218],[27.1366,38.2273],[27.1365,38.231],[27.1353,38.2389],[27.1345,38.2403],[27.1345,38.2408],[27.1322,38.2413],[27.1291,38.2431],[27.1271,38.244],[27.1261,38.2448],[27.1251,38.2463],[27.1249,38.2471],[27.1249,38.2484],[27.1254,38.2595],[27.126,38.2604],[27.1268,38.2611],[27.1293,38.2619],[27.1299,38.2618],[27.1302,38.2612],[27.1302,38.2595],[27.1309,38.2567],[27.1308,38.2558],[27.1319,38.256],[27.1343,38.2559],[27.1375,38.2554],[27.1382,38.255],[27.1383,38.2552],[27.1398,38.2558],[27.1416,38.2577],[27.1422,38.2581],[27.1456,38.2597],[27.1462,38.2609],[27.1466,38.2612],[27.1493,38.2616],[27.1535,38.2616],[27.1581,38.2629],[27.1629,38.2625],[27.1627,38.2627]]}},{"type":"Feature","properties":{"id":"bus-776-2","kind":"busline","ref":"776","dir":2},"geometry":{"type":"LineString","coordinates":[[27.1627,38.2627],[27.1609,38.2626],[27.1594,38.2629],[27.1581,38.2629],[27.1535,38.2616],[27.1493,38.2616],[27.1466,38.2612],[27.1462,38.2609],[27.1456,38.2597],[27.1422,38.2581],[27.1416,38.2577],[27.1398,38.2558],[27.1386,38.2553],[27.1369,38.2554],[27.1333,38.256],[27.1308,38.2558],[27.1309,38.2567],[27.1302,38.2595],[27.1302,38.2622],[27.13,38.2624],[27.127,38.2614],[27.1257,38.2603],[27.1253,38.2596],[27.1251,38.2585],[27.1247,38.249],[27.1249,38.2464],[27.1259,38.2448],[27.127,38.2439],[27.1294,38.2428],[27.1317,38.2414],[27.1337,38.2407],[27.1343,38.2402],[27.135,38.2392],[27.1362,38.2323],[27.1367,38.2232],[27.1384,38.2171],[27.1392,38.2129],[27.1394,38.2103],[27.1392,38.2098],[27.1395,38.2095],[27.14,38.2064],[27.1397,38.2042],[27.1392,38.2031],[27.1383,38.2019],[27.1373,38.201],[27.1329,38.1979]]}},{"type":"Feature","properties":{"id":"bus-776-s10964","kind":"busstop","ref":"776","name":"Küner Yol Ayrımı","lines":["729","775","792","794"]},"geometry":{"type":"Point","coordinates":[27.1396,38.2109]}},{"type":"Feature","properties":{"id":"bus-776-s10962","kind":"busstop","ref":"776","name":"Ünal Soğuk Hava","lines":["729","775","792","794"]},"geometry":{"type":"Point","coordinates":[27.139,38.2154]}},{"type":"Feature","properties":{"id":"bus-776-s11104","kind":"busstop","ref":"776","name":"Akçaalan","lines":["729","775","792","794"]},"geometry":{"type":"Point","coordinates":[27.1384,38.2182]}},{"type":"Feature","properties":{"id":"bus-776-s10960","kind":"busstop","ref":"776","name":"Şehit Polis Hüseyin Dalgılıç","lines":["729","775","792","794"]},"geometry":{"type":"Point","coordinates":[27.1372,38.2224]}},{"type":"Feature","properties":{"id":"bus-776-s10918","kind":"busstop","ref":"776","name":"Koruluk","lines":["729","775","792","794"]},"geometry":{"type":"Point","coordinates":[27.1368,38.2249]}},{"type":"Feature","properties":{"id":"bus-776-s11122","kind":"busstop","ref":"776","name":"Sarıçay","lines":["729","775","792","794"]},"geometry":{"type":"Point","coordinates":[27.1366,38.2292]}},{"type":"Feature","properties":{"id":"bus-776-s10958","kind":"busstop","ref":"776","name":"Altın","lines":["729","775","792","794"]},"geometry":{"type":"Point","coordinates":[27.1365,38.2314]}},{"type":"Feature","properties":{"id":"bus-776-s10956","kind":"busstop","ref":"776","name":"Ege","lines":["729","775","792","794"]},"geometry":{"type":"Point","coordinates":[27.1355,38.2379]}},{"type":"Feature","properties":{"id":"bus-776-s10946","kind":"busstop","ref":"776","name":"Şehit Piyade Uzman Çavuş Ayhan Elmacı","lines":["729","775","792","794","799","804"]},"geometry":{"type":"Point","coordinates":[27.1291,38.2431]}},{"type":"Feature","properties":{"id":"bus-776-s10944","kind":"busstop","ref":"776","name":"Seydiköy","lines":["729","775","792","794","799","804"]},"geometry":{"type":"Point","coordinates":[27.12665,38.24441]}},{"type":"Feature","properties":{"id":"bus-776-s10932","kind":"busstop","ref":"776","name":"Menderes Nikah Sarayı","lines":["729","775","792","794","799","804"]},"geometry":{"type":"Point","coordinates":[27.1254,38.2458]}},{"type":"Feature","properties":{"id":"bus-776-s10948","kind":"busstop","ref":"776","name":"Dereköy Yol Ayrımı","lines":["729","775","792","794"]},"geometry":{"type":"Point","coordinates":[27.12511,38.25149]}},{"type":"Feature","properties":{"id":"bus-776-s10942","kind":"busstop","ref":"776","name":"Menderes Çevre Yolu","lines":["729","775","792","794"]},"geometry":{"type":"Point","coordinates":[27.1253,38.2546]}},{"type":"Feature","properties":{"id":"bus-776-s10950","kind":"busstop","ref":"776","name":"Menderes Adliye Sarayı","lines":["729","775","792","794"]},"geometry":{"type":"Point","coordinates":[27.12599,38.26022]}},{"type":"Feature","properties":{"id":"bus-776-s10711","kind":"busstop","ref":"776","name":"Menderes Park","lines":["508","729","775","792","794","808"]},"geometry":{"type":"Point","coordinates":[27.13015,38.26047]}},{"type":"Feature","properties":{"id":"bus-776-s10713","kind":"busstop","ref":"776","name":"Menderes Anadolu Lisesi","lines":["508","729","775","792","794","808","814"]},"geometry":{"type":"Point","coordinates":[27.1303,38.2589]}},{"type":"Feature","properties":{"id":"bus-776-s10715","kind":"busstop","ref":"776","name":"Menderes Sağlık Ocağı","lines":["508","729","775","792","794","808","814"]},"geometry":{"type":"Point","coordinates":[27.1307,38.2569]}},{"type":"Feature","properties":{"id":"bus-776-s11253","kind":"busstop","ref":"776","name":"Menderes İnönü","lines":["707","729","775","789","792","794","799","804","829"]},"geometry":{"type":"Point","coordinates":[27.1318,38.2559]}},{"type":"Feature","properties":{"id":"bus-776-s11255","kind":"busstop","ref":"776","name":"Menderes Stadyum","lines":["707","729","775","789","792","794","799","804","829"]},"geometry":{"type":"Point","coordinates":[27.1367,38.2553]}},{"type":"Feature","properties":{"id":"bus-776-s11259","kind":"busstop","ref":"776","name":"Menderes Pazar Yeri","lines":["707","729","775","789","792","794","799","804","808","829"]},"geometry":{"type":"Point","coordinates":[27.13962,38.25558]}},{"type":"Feature","properties":{"id":"bus-776-s15536","kind":"busstop","ref":"776","name":"Fesleğen","lines":["707","729","775","789","792","794","799","804","808","829"]},"geometry":{"type":"Point","coordinates":[27.14161,38.2575]}},{"type":"Feature","properties":{"id":"bus-776-s11261","kind":"busstop","ref":"776","name":"Gölcükler Adnan Ocay Ortaokulu","lines":["707","729","775","789","792","794","799","804","808","829"]},"geometry":{"type":"Point","coordinates":[27.14452,38.2591]}},{"type":"Feature","properties":{"id":"bus-776-s11265","kind":"busstop","ref":"776","name":"Gölcükler Sera","lines":["707","729","775","789","792","794","799","804","808","814","829"]},"geometry":{"type":"Point","coordinates":[27.14759,38.26131]}},{"type":"Feature","properties":{"id":"bus-776-s11271","kind":"busstop","ref":"776","name":"Oğlananası Yol Ayrımı","lines":["707","729","775","789","792","794","799","804","808","814","829"]},"geometry":{"type":"Point","coordinates":[27.1519,38.2615]}},{"type":"Feature","properties":{"id":"bus-776-s11267","kind":"busstop","ref":"776","name":"Amber","lines":["707","729","775","789","792","794","799","804","808","814","829"]},"geometry":{"type":"Point","coordinates":[27.1563,38.2623]}},{"type":"Feature","properties":{"id":"bus-776-s13279","kind":"busstop","ref":"776","name":"Cumaovası Aktarma Merkezi","lines":[]},"geometry":{"type":"Point","coordinates":[27.16275,38.26292]}},{"type":"Feature","properties":{"id":"bus-776-s11266","kind":"busstop","ref":"776","name":"Amber","lines":["707","729","775","789","792","794","799","804","808","814","829"]},"geometry":{"type":"Point","coordinates":[27.1562,38.2624]}},{"type":"Feature","properties":{"id":"bus-776-s11270","kind":"busstop","ref":"776","name":"Oğlananası Yol Ayrımı","lines":["707","729","775","789","792","794","799","804","808","814","829"]},"geometry":{"type":"Point","coordinates":[27.15227,38.26153]}},{"type":"Feature","properties":{"id":"bus-776-s11264","kind":"busstop","ref":"776","name":"Gölcükler Sera","lines":["707","729","775","789","792","794","799","804","808","814","829"]},"geometry":{"type":"Point","coordinates":[27.14687,38.26131]}},{"type":"Feature","properties":{"id":"bus-776-s11260","kind":"busstop","ref":"776","name":"Gölcükler  Adnan Ocay Ortaokulu","lines":["707","729","775","789","792","794","799","804","808","829"]},"geometry":{"type":"Point","coordinates":[27.14409,38.25902]}},{"type":"Feature","properties":{"id":"bus-776-s15535","kind":"busstop","ref":"776","name":"Fesleğen","lines":["707","729","775","789","792","794","799","804","808","829"]},"geometry":{"type":"Point","coordinates":[27.14124,38.25737]}},{"type":"Feature","properties":{"id":"bus-776-s11258","kind":"busstop","ref":"776","name":"Menderes Pazar Yeri","lines":["707","729","775","789","792","794","799","804","808","829"]},"geometry":{"type":"Point","coordinates":[27.13905,38.25558]}},{"type":"Feature","properties":{"id":"bus-776-s11254","kind":"busstop","ref":"776","name":"Menderes Stadyum","lines":["707","729","775","789","792","794","799","804","829"]},"geometry":{"type":"Point","coordinates":[27.1362,38.2555]}},{"type":"Feature","properties":{"id":"bus-776-s11252","kind":"busstop","ref":"776","name":"Menderes İnönü","lines":["707","729","775","789","792","794","799","804","829"]},"geometry":{"type":"Point","coordinates":[27.1322,38.256]}},{"type":"Feature","properties":{"id":"bus-776-s11250","kind":"busstop","ref":"776","name":"Menderes Sağlık Ocağı","lines":["508","729","775","792","794","808","814"]},"geometry":{"type":"Point","coordinates":[27.1308,38.2571]}},{"type":"Feature","properties":{"id":"bus-776-s10714","kind":"busstop","ref":"776","name":"Menderes Anadolu Lisesi","lines":["508","729","775","792","794","808","814"]},"geometry":{"type":"Point","coordinates":[27.13056,38.25831]}},{"type":"Feature","properties":{"id":"bus-776-s10712","kind":"busstop","ref":"776","name":"Menderes Park","lines":["508","729","775","792","794","808"]},"geometry":{"type":"Point","coordinates":[27.1303,38.261]}},{"type":"Feature","properties":{"id":"bus-776-s10951","kind":"busstop","ref":"776","name":"Menderes Adliye Sarayı","lines":["729","775","792","794"]},"geometry":{"type":"Point","coordinates":[27.127,38.2614]}},{"type":"Feature","properties":{"id":"bus-776-s10947","kind":"busstop","ref":"776","name":"Menderes Çevre Yolu","lines":["729","775","792","794"]},"geometry":{"type":"Point","coordinates":[27.1249,38.2543]}},{"type":"Feature","properties":{"id":"bus-776-s10949","kind":"busstop","ref":"776","name":"Dereköy Yol Ayrımı","lines":["729","775","792","794"]},"geometry":{"type":"Point","coordinates":[27.12484,38.25215]}},{"type":"Feature","properties":{"id":"bus-776-s10933","kind":"busstop","ref":"776","name":"Menderes Nikah Sarayı","lines":["729","775","792","794","799","804"]},"geometry":{"type":"Point","coordinates":[27.1249,38.2464]}},{"type":"Feature","properties":{"id":"bus-776-s10943","kind":"busstop","ref":"776","name":"Seydiköy","lines":["729","775","792","794","799","804"]},"geometry":{"type":"Point","coordinates":[27.1259,38.2447]}},{"type":"Feature","properties":{"id":"bus-776-s10945","kind":"busstop","ref":"776","name":"Şehit Piyade Uzman Çavuş Ayhan Elmacı","lines":["729","775","792","794","799","804"]},"geometry":{"type":"Point","coordinates":[27.129,38.2429]}},{"type":"Feature","properties":{"id":"bus-776-s10957","kind":"busstop","ref":"776","name":"Ege","lines":["729","775","792","794"]},"geometry":{"type":"Point","coordinates":[27.13533,38.23707]}},{"type":"Feature","properties":{"id":"bus-776-s10959","kind":"busstop","ref":"776","name":"Altın","lines":["729","775","792","794"]},"geometry":{"type":"Point","coordinates":[27.1362,38.2315]}},{"type":"Feature","properties":{"id":"bus-776-s11111","kind":"busstop","ref":"776","name":"Sarıçay","lines":["729","775","792","794"]},"geometry":{"type":"Point","coordinates":[27.1363,38.229]}},{"type":"Feature","properties":{"id":"bus-776-s10917","kind":"busstop","ref":"776","name":"Koruluk","lines":["729","775","792","794"]},"geometry":{"type":"Point","coordinates":[27.1365,38.2249]}},{"type":"Feature","properties":{"id":"bus-776-s10961","kind":"busstop","ref":"776","name":"Şehit Polis Hüseyin Dalgılıç","lines":["729","775","792","794"]},"geometry":{"type":"Point","coordinates":[27.1368,38.2224]}},{"type":"Feature","properties":{"id":"bus-776-s11123","kind":"busstop","ref":"776","name":"Akçaalan","lines":["729","775","792","794"]},"geometry":{"type":"Point","coordinates":[27.1381,38.2179]}},{"type":"Feature","properties":{"id":"bus-776-s10963","kind":"busstop","ref":"776","name":"Ünal Soğuk Hava","lines":["729","775","792","794"]},"geometry":{"type":"Point","coordinates":[27.1388,38.2152]}},{"type":"Feature","properties":{"id":"bus-776-s10965","kind":"busstop","ref":"776","name":"Küner Yol Ayrımı","lines":["729","775","792","794"]},"geometry":{"type":"Point","coordinates":[27.1392,38.2117]}}]}