{"type":"FeatureCollection","features":[{"type":"Feature","properties":{"id":"bus-777-1","kind":"busline","ref":"777","dir":1},"geometry":{"type":"LineString","coordinates":[[26.9453,38.4953],[26.9454,38.4956],[26.9453,38.4952],[26.9448,38.4947],[26.9434,38.4942],[26.9443,38.4914],[26.9463,38.4917],[26.9461,38.493],[26.9498,38.4922],[26.9508,38.4935],[26.9518,38.4943],[26.9518,38.4945],[26.9528,38.4944],[26.9534,38.4916],[26.9498,38.4911],[26.9491,38.4912],[26.949,38.4909],[26.9559,38.4918],[26.957,38.4918],[26.9573,38.4916],[26.9577,38.4904],[26.9583,38.4897],[26.958,38.4892],[26.9581,38.4889],[26.9591,38.4878],[26.958,38.4891],[26.9584,38.4897],[26.9576,38.4907],[26.9574,38.4916],[26.9576,38.492],[26.9803,38.495],[27.0252,38.494],[27.0258,38.4938],[27.0264,38.4933],[27.0281,38.4915],[27.029,38.4877],[27.0307,38.4845],[27.0317,38.4831],[27.0342,38.481],[27.0359,38.48],[27.038,38.479],[27.042,38.4779],[27.0465,38.4776],[27.0485,38.4777],[27.0517,38.4783],[27.0582,38.4805],[27.0608,38.4812],[27.0618,38.4812],[27.0632,38.4807],[27.0645,38.4797],[27.0659,38.4773],[27.0679,38.4751],[27.0721,38.4752],[27.0736,38.475],[27.0739,38.4748],[27.0739,38.4728],[27.0735,38.4723],[27.0684,38.4723],[27.0682,38.4716],[27.0664,38.4702],[27.0664,38.4686],[27.0669,38.4678],[27.0685,38.4678],[27.0703,38.4693],[27.0708,38.4695],[27.0796,38.4694],[27.0811,38.4682],[27.08,38.4673],[27.0801,38.4668],[27.0806,38.4664],[27.082,38.4658],[27.0822,38.4653],[27.0884,38.4592],[27.0904,38.4576],[27.0937,38.456],[27.098,38.4544],[27.1053,38.4509],[27.1088,38.4501],[27.1115,38.4497],[27.1162,38.4522],[27.1175,38.4536],[27.1198,38.4553],[27.1205,38.4556],[27.1227,38.4557]]}},{"type":"Feature","properties":{"id":"bus-777-2","kind":"busline","ref":"777","dir":2},"geometry":{"type":"LineString","coordinates":[[27.1223,38.4557],[27.1234,38.4557],[27.1235,38.456],[27.1209,38.4559],[27.1201,38.4556],[27.1176,38.4539],[27.1155,38.4519],[27.1116,38.4498],[27.1059,38.4508],[27.0971,38.455],[27.0912,38.4573],[27.0902,38.458],[27.0885,38.4593],[27.0829,38.4648],[27.0822,38.4656],[27.0822,38.466],[27.0806,38.4664],[27.0801,38.4668],[27.08,38.4673],[27.0811,38.4682],[27.0796,38.4694],[27.0708,38.4695],[27.0703,38.4693],[27.0685,38.4678],[27.0669,38.4678],[27.0664,38.4686],[27.0664,38.4702],[27.0682,38.4716],[27.0684,38.4723],[27.0756,38.4723],[27.0758,38.4748],[27.0762,38.4751],[27.0762,38.4755],[27.0759,38.4757],[27.0736,38.4757],[27.0721,38.4753],[27.0681,38.4753],[27.0663,38.4772],[27.0643,38.4806],[27.0634,38.4824],[27.0635,38.4829],[27.064,38.483],[27.0642,38.4825],[27.0639,38.4823],[27.0569,38.4808],[27.051,38.4788],[27.0469,38.4783],[27.044,38.4783],[27.0411,38.4787],[27.0372,38.4801],[27.0355,38.481],[27.0337,38.4821],[27.032,38.4835],[27.0306,38.4852],[27.0294,38.4874],[27.0288,38.4892],[27.0284,38.4937],[27.0285,38.4947],[27.0292,38.495],[27.0297,38.4947],[27.0296,38.4942],[27.0294,38.4941],[26.9798,38.4951],[26.9577,38.4921],[26.9571,38.4922],[26.9569,38.4918],[26.9573,38.4916],[26.9577,38.4904],[26.9583,38.4897],[26.958,38.4891],[26.9587,38.4879],[26.959,38.4877],[26.9591,38.4878],[26.958,38.4891],[26.9584,38.4897],[26.9576,38.4907],[26.9574,38.4916],[26.9576,38.492],[26.9571,38.4922],[26.9569,38.492],[26.9535,38.4916],[26.9528,38.4944],[26.9518,38.4945],[26.9518,38.4943],[26.9508,38.4935],[26.9498,38.4922],[26.9461,38.493],[26.9463,38.4917],[26.9443,38.4914],[26.9434,38.4942],[26.9448,38.4947],[26.9453,38.4952],[26.9454,38.4956],[26.9453,38.4953]]}},{"type":"Feature","properties":{"id":"bus-777-s21153","kind":"busstop","ref":"777","name":"Çiğli Fen Lisesi","lines":["751"]},"geometry":{"type":"Point","coordinates":[26.94545,38.49525]}},{"type":"Feature","properties":{"id":"bus-777-s21152","kind":"busstop","ref":"777","name":"Hanımeli","lines":["751"]},"geometry":{"type":"Point","coordinates":[26.9452,38.49153]}},{"type":"Feature","properties":{"id":"bus-777-s21154","kind":"busstop","ref":"777","name":"Neşeli","lines":["751"]},"geometry":{"type":"Point","coordinates":[26.9464,38.49295]}},{"type":"Feature","properties":{"id":"bus-777-s21281","kind":"busstop","ref":"777","name":"Portakal","lines":["751"]},"geometry":{"type":"Point","coordinates":[26.94963,38.49216]}},{"type":"Feature","properties":{"id":"bus-777-s21278","kind":"busstop","ref":"777","name":"Manolya","lines":["751"]},"geometry":{"type":"Point","coordinates":[26.95053,38.4931]}},{"type":"Feature","properties":{"id":"bus-777-s21276","kind":"busstop","ref":"777","name":"Çiçek","lines":["751"]},"geometry":{"type":"Point","coordinates":[26.95146,38.49398]}},{"type":"Feature","properties":{"id":"bus-777-s21274","kind":"busstop","ref":"777","name":"Sasalı Meydan","lines":["751"]},"geometry":{"type":"Point","coordinates":[26.95243,38.49444]}},{"type":"Feature","properties":{"id":"bus-777-s21272","kind":"busstop","ref":"777","name":"Sasalı Giriş","lines":[]},"geometry":{"type":"Point","coordinates":[26.95336,38.4919]}},{"type":"Feature","properties":{"id":"bus-777-s21271","kind":"busstop","ref":"777","name":"Sasalı Doğal Yaşam Parkı","lines":["751"]},"geometry":{"type":"Point","coordinates":[26.9589,38.4878]}},{"type":"Feature","properties":{"id":"bus-777-s21150","kind":"busstop","ref":"777","name":"Çakabey","lines":["751"]},"geometry":{"type":"Point","coordinates":[26.9584,38.492]}},{"type":"Feature","properties":{"id":"bus-777-s23607","kind":"busstop","ref":"777","name":"Tarım Geliştirme Merkezi","lines":["751"]},"geometry":{"type":"Point","coordinates":[26.96893,38.49347]}},{"type":"Feature","properties":{"id":"bus-777-s21148","kind":"busstop","ref":"777","name":"Ana Jet Üssü","lines":["751"]},"geometry":{"type":"Point","coordinates":[26.9804,38.495]}},{"type":"Feature","properties":{"id":"bus-777-s21146","kind":"busstop","ref":"777","name":"Sasalı Piknik Alanı","lines":["751"]},"geometry":{"type":"Point","coordinates":[26.9843,38.4949]}},{"type":"Feature","properties":{"id":"bus-777-s21158","kind":"busstop","ref":"777","name":"Kaklıç Kavşağı","lines":["149","751"]},"geometry":{"type":"Point","coordinates":[26.9942,38.4946]}},{"type":"Feature","properties":{"id":"bus-777-s21156","kind":"busstop","ref":"777","name":"Kutup Yıldızı","lines":["149","751"]},"geometry":{"type":"Point","coordinates":[27.0022,38.4944]}},{"type":"Feature","properties":{"id":"bus-777-s20340","kind":"busstop","ref":"777","name":"Karya","lines":["229","322","423","428","429","442","443","445","446","447","547","595","820","827"]},"geometry":{"type":"Point","coordinates":[27.06672,38.47626]}},{"type":"Feature","properties":{"id":"bus-777-s20384","kind":"busstop","ref":"777","name":"Süleyman Demirel Lisesi","lines":["121","200","821"]},"geometry":{"type":"Point","coordinates":[27.0738,38.4738]}},{"type":"Feature","properties":{"id":"bus-777-s20368","kind":"busstop","ref":"777","name":"Flamingo Sitesi","lines":["121","821"]},"geometry":{"type":"Point","coordinates":[27.0731,38.4723]}},{"type":"Feature","properties":{"id":"bus-777-s20366","kind":"busstop","ref":"777","name":"Flamingo Sitesi 2","lines":["121","821"]},"geometry":{"type":"Point","coordinates":[27.0708,38.4723]}},{"type":"Feature","properties":{"id":"bus-777-s20362","kind":"busstop","ref":"777","name":"Martı","lines":["121","821"]},"geometry":{"type":"Point","coordinates":[27.0671,38.4708]}},{"type":"Feature","properties":{"id":"bus-777-s20360","kind":"busstop","ref":"777","name":"Albatros","lines":["121","821"]},"geometry":{"type":"Point","coordinates":[27.0691,38.4682]}},{"type":"Feature","properties":{"id":"bus-777-s20358","kind":"busstop","ref":"777","name":"Kuğu","lines":["121","821"]},"geometry":{"type":"Point","coordinates":[27.0722,38.4694]}},{"type":"Feature","properties":{"id":"bus-777-s20356","kind":"busstop","ref":"777","name":"Mavişehir Dört Yol","lines":["121","200","821"]},"geometry":{"type":"Point","coordinates":[27.0764,38.4694]}},{"type":"Feature","properties":{"id":"bus-777-s20354","kind":"busstop","ref":"777","name":"Pamukkale Sitesi","lines":["121","200","821"]},"geometry":{"type":"Point","coordinates":[27.0785,38.4694]}},{"type":"Feature","properties":{"id":"bus-777-s20352","kind":"busstop","ref":"777","name":"Spor Merkezi","lines":["121","200","821"]},"geometry":{"type":"Point","coordinates":[27.081,38.4682]}},{"type":"Feature","properties":{"id":"bus-777-s20196","kind":"busstop","ref":"777","name":"Beşikçioğlu Cami","lines":["121","200","229","322","423","428","429","442","443","445","446","447","595","820","821","827"]},"geometry":{"type":"Point","coordinates":[27.0844,38.4631]}},{"type":"Feature","properties":{"id":"bus-777-s20194","kind":"busstop","ref":"777","name":"Bostanlı Pazaryeri","lines":["121","200","229","322","423","428","429","442","443","445","446","447","595","820","821","827"]},"geometry":{"type":"Point","coordinates":[27.0869,38.4606]}},{"type":"Feature","properties":{"id":"bus-777-s20198","kind":"busstop","ref":"777","name":"Bostanlı Market","lines":["121","200","229","322","423","428","429","442","443","445","446","447","595","820","821","827"]},"geometry":{"type":"Point","coordinates":[27.0913,38.4571]}},{"type":"Feature","properties":{"id":"bus-777-s20172","kind":"busstop","ref":"777","name":"Bostanlı İskele","lines":["121","200"]},"geometry":{"type":"Point","coordinates":[27.09764,38.45429]}},{"type":"Feature","properties":{"id":"bus-777-s20154","kind":"busstop","ref":"777","name":"Osman Bey Parkı","lines":["121","126","135","136","137","197","200","222","258","290","326","330","361","487","543","741","742","847","853","920"]},"geometry":{"type":"Point","coordinates":[27.1187,38.4545]}},{"type":"Feature","properties":{"id":"bus-777-s23600","kind":"busstop","ref":"777","name":"Karşıyaka İskele","lines":["121","200","212","213","290","330","543"]},"geometry":{"type":"Point","coordinates":[27.12269,38.45564]}},{"type":"Feature","properties":{"id":"bus-777-s20151","kind":"busstop","ref":"777","name":"Karşıyaka İskele","lines":["121","126","135","136","137","197","200","222","258","290","326","330","361","487","543","741","742","847","853","920"]},"geometry":{"type":"Point","coordinates":[27.1223,38.456]}},{"type":"Feature","properties":{"id":"bus-777-s20153","kind":"busstop","ref":"777","name":"Osman Bey Parkı","lines":["121","126","135","136","137","197","200","222","258","290","326","330","361","487","543","741","742","847","853","920"]},"geometry":{"type":"Point","coordinates":[27.1178,38.4541]}},{"type":"Feature","properties":{"id":"bus-777-s20155","kind":"busstop","ref":"777","name":"Tarık Dursun Kakınç","lines":["121","126","135","136","137","197","200","222","258","290","326","330","361","487","543","741","742","847","853","920"]},"geometry":{"type":"Point","coordinates":[27.1155,38.452]}},{"type":"Feature","properties":{"id":"bus-777-s20157","kind":"busstop","ref":"777","name":"Dokuz Eylül Dispanser","lines":["121","126","135","136","137","197","200","222","258","290","326","330","361","487","543","741","742","847","853","920"]},"geometry":{"type":"Point","coordinates":[27.1126,38.4504]}},{"type":"Feature","properties":{"id":"bus-777-s20159","kind":"busstop","ref":"777","name":"Karşıyaka Yelken Kulübü","lines":["121","126","135","136","137","197","200","222","258","290","326","330","361","487","543","741","742","847","853","920"]},"geometry":{"type":"Point","coordinates":[27.1085,38.4503]}},{"type":"Feature","properties":{"id":"bus-777-s20161","kind":"busstop","ref":"777","name":"Yunuslar","lines":["121","126","135","136","137","197","200","222","258","290","326","330","361","487","543","741","742","847","853","920"]},"geometry":{"type":"Point","coordinates":[27.106,38.4509]}},{"type":"Feature","properties":{"id":"bus-777-s20185","kind":"busstop","ref":"777","name":"Yıllar","lines":["121","200","290","330","430","435","532","543"]},"geometry":{"type":"Point","coordinates":[27.1022,38.4526]}},{"type":"Feature","properties":{"id":"bus-777-s20197","kind":"busstop","ref":"777","name":"Bostanlı Market","lines":["121","200","229","322","423","428","429","442","443","445","446","447","595","820","821","827"]},"geometry":{"type":"Point","coordinates":[27.0914,38.4573]}},{"type":"Feature","properties":{"id":"bus-777-s20189","kind":"busstop","ref":"777","name":"Bostanlı Pazaryeri","lines":["121","200","229","322","423","428","429","442","443","445","446","447","595","820","821","827"]},"geometry":{"type":"Point","coordinates":[27.0869,38.4609]}},{"type":"Feature","properties":{"id":"bus-777-s20191","kind":"busstop","ref":"777","name":"Beşikçioğlu Cami","lines":["121","200","229","322","423","428","429","442","443","445","446","447","595","820","821","827"]},"geometry":{"type":"Point","coordinates":[27.08431,38.4636]}},{"type":"Feature","properties":{"id":"bus-777-s20353","kind":"busstop","ref":"777","name":"Spor Merkezi","lines":["121","200","821"]},"geometry":{"type":"Point","coordinates":[27.0812,38.4683]}},{"type":"Feature","properties":{"id":"bus-777-s20355","kind":"busstop","ref":"777","name":"Pamukkale Sitesi","lines":["121","200","821"]},"geometry":{"type":"Point","coordinates":[27.0786,38.4695]}},{"type":"Feature","properties":{"id":"bus-777-s20357","kind":"busstop","ref":"777","name":"Mavişehir Dört Yol","lines":["121","200","821"]},"geometry":{"type":"Point","coordinates":[27.0765,38.4695]}},{"type":"Feature","properties":{"id":"bus-777-s20359","kind":"busstop","ref":"777","name":"Kuğu","lines":["121","821"]},"geometry":{"type":"Point","coordinates":[27.0723,38.4695]}},{"type":"Feature","properties":{"id":"bus-777-s20361","kind":"busstop","ref":"777","name":"Albatros","lines":["121","821"]},"geometry":{"type":"Point","coordinates":[27.0689,38.4682]}},{"type":"Feature","properties":{"id":"bus-777-s20363","kind":"busstop","ref":"777","name":"Martı","lines":["121","821"]},"geometry":{"type":"Point","coordinates":[27.0671,38.4707]}},{"type":"Feature","properties":{"id":"bus-777-s20367","kind":"busstop","ref":"777","name":"Flamingo Sitesi 2","lines":["121","821"]},"geometry":{"type":"Point","coordinates":[27.0709,38.4723]}},{"type":"Feature","properties":{"id":"bus-777-s20369","kind":"busstop","ref":"777","name":"Flamingo Sitesi","lines":["121","821"]},"geometry":{"type":"Point","coordinates":[27.073,38.4722]}},{"type":"Feature","properties":{"id":"bus-777-s20385","kind":"busstop","ref":"777","name":"Süleyman Demirel Lisesi","lines":["121","200","821"]},"geometry":{"type":"Point","coordinates":[27.07585,38.47407]}},{"type":"Feature","properties":{"id":"bus-777-s20339","kind":"busstop","ref":"777","name":"Mavişehir","lines":["121","229","322","423","428","429","442","443","445","446","447","547","595","820","821","827"]},"geometry":{"type":"Point","coordinates":[27.07491,38.47576]}},{"type":"Feature","properties":{"id":"bus-777-s20341","kind":"busstop","ref":"777","name":"Karya","lines":["229","322","423","428","429","442","443","445","446","447","547","595","820","827"]},"geometry":{"type":"Point","coordinates":[27.06558,38.47846]}},{"type":"Feature","properties":{"id":"bus-777-s21155","kind":"busstop","ref":"777","name":"Kutup Yıldızı","lines":["149","751"]},"geometry":{"type":"Point","coordinates":[27.002,38.4947]}},{"type":"Feature","properties":{"id":"bus-777-s21157","kind":"busstop","ref":"777","name":"Kaklıç Kavşağı","lines":["149","751"]},"geometry":{"type":"Point","coordinates":[26.9936,38.4949]}},{"type":"Feature","properties":{"id":"bus-777-s21145","kind":"busstop","ref":"777","name":"Sasalı Piknik Alanı","lines":["751"]},"geometry":{"type":"Point","coordinates":[26.9845,38.4951]}},{"type":"Feature","properties":{"id":"bus-777-s21147","kind":"busstop","ref":"777","name":"Ana Jet Üssü","lines":["751"]},"geometry":{"type":"Point","coordinates":[26.9804,38.4952]}},{"type":"Feature","properties":{"id":"bus-777-s23608","kind":"busstop","ref":"777","name":"Tarım Geliştirme Merkezi","lines":["751"]},"geometry":{"type":"Point","coordinates":[26.96869,38.4936]}},{"type":"Feature","properties":{"id":"bus-777-s21149","kind":"busstop","ref":"777","name":"Çakabey","lines":["751"]},"geometry":{"type":"Point","coordinates":[26.9588,38.4923]}},{"type":"Feature","properties":{"id":"bus-777-s21273","kind":"busstop","ref":"777","name":"Sasalı Giriş","lines":["751"]},"geometry":{"type":"Point","coordinates":[26.95347,38.4919]}},{"type":"Feature","properties":{"id":"bus-777-s21275","kind":"busstop","ref":"777","name":"Sasalı Meydan","lines":["751"]},"geometry":{"type":"Point","coordinates":[26.95287,38.49423]}},{"type":"Feature","properties":{"id":"bus-777-s21277","kind":"busstop","ref":"777","name":"Çiçek","lines":["751"]},"geometry":{"type":"Point","coordinates":[26.95138,38.494]}},{"type":"Feature","properties":{"id":"bus-777-s21279","kind":"busstop","ref":"777","name":"Manolya","lines":["751"]},"geometry":{"type":"Point","coordinates":[26.95053,38.49308]}},{"type":"Feature","properties":{"id":"bus-777-s21280","kind":"busstop","ref":"777","name":"Portakal","lines":["751"]},"geometry":{"type":"Point","coordinates":[26.94939,38.49227]}},{"type":"Feature","properties":{"id":"bus-777-s21161","kind":"busstop","ref":"777","name":"Neşeli","lines":["751"]},"geometry":{"type":"Point","coordinates":[26.9468,38.49289]}},{"type":"Feature","properties":{"id":"bus-777-s21151","kind":"busstop","ref":"777","name":"Hanımeli","lines":["751"]},"geometry":{"type":"Point","coordinates":[26.94507,38.49155]}}]}