{"type":"FeatureCollection","features":[{"type":"Feature","properties":{"id":"bus-785-1","kind":"busline","ref":"785","dir":1},"geometry":{"type":"LineString","coordinates":[[27.45,38.2453],[27.4486,38.2456],[27.4471,38.245],[27.4458,38.2436],[27.446,38.243],[27.4448,38.2417],[27.4443,38.2416],[27.4438,38.2418],[27.4429,38.2413],[27.4427,38.2409],[27.4401,38.2398],[27.4395,38.239],[27.439,38.2388],[27.4361,38.2391],[27.4345,38.2398],[27.4333,38.2398],[27.4328,38.2402],[27.4328,38.2404],[27.4322,38.2406],[27.4312,38.2397],[27.4305,38.2396],[27.4291,38.2402],[27.4284,38.2403],[27.4279,38.2414],[27.4262,38.2436],[27.4257,38.2437],[27.4252,38.2441],[27.4245,38.2442],[27.4237,38.2451],[27.4228,38.245],[27.4219,38.2452],[27.4206,38.245],[27.4184,38.245],[27.414,38.2433],[27.4085,38.2424],[27.4043,38.2412],[27.3957,38.2382],[27.3948,38.2383],[27.3938,38.2388],[27.3914,38.2392],[27.3911,38.2398],[27.3903,38.2401],[27.3885,38.2401],[27.3881,38.2404],[27.3866,38.2407],[27.3853,38.2413],[27.3838,38.2415],[27.3827,38.2389],[27.3817,38.2353],[27.3793,38.2308],[27.3786,38.2289],[27.3778,38.2228],[27.3756,38.2157],[27.3754,38.2154],[27.3748,38.2153],[27.3726,38.2157],[27.3701,38.2147],[27.3688,38.2148],[27.3649,38.1999]]}},{"type":"Feature","properties":{"id":"bus-785-2","kind":"busline","ref":"785","dir":2},"geometry":{"type":"LineString","coordinates":[[27.3654,38.2005],[27.3655,38.2015],[27.369,38.2148],[27.3701,38.2147],[27.3726,38.2157],[27.3744,38.2153],[27.3754,38.2154],[27.3756,38.2157],[27.3778,38.2228],[27.3786,38.2289],[27.3793,38.2308],[27.3817,38.2353],[27.3827,38.2389],[27.3838,38.2415],[27.3853,38.2413],[27.3866,38.2407],[27.3881,38.2404],[27.3885,38.2401],[27.3903,38.2401],[27.3911,38.2398],[27.3914,38.2392],[27.3938,38.2388],[27.3948,38.2383],[27.3957,38.2382],[27.4043,38.2412],[27.4085,38.2424],[27.414,38.2433],[27.4184,38.245],[27.4206,38.245],[27.4219,38.2452],[27.4228,38.245],[27.4237,38.2451],[27.4245,38.2442],[27.4252,38.2441],[27.4257,38.2437],[27.4262,38.2436],[27.4279,38.2414],[27.4284,38.2403],[27.4291,38.2402],[27.4305,38.2396],[27.4312,38.2397],[27.4322,38.2406],[27.4328,38.2404],[27.4328,38.2402],[27.4333,38.2398],[27.4345,38.2398],[27.4361,38.2391],[27.439,38.2388],[27.4395,38.239],[27.4401,38.2398],[27.4427,38.2409],[27.4429,38.2413],[27.4438,38.2418],[27.4443,38.2416],[27.4448,38.2417],[27.446,38.243],[27.4458,38.2436],[27.4471,38.245],[27.4486,38.2456],[27.4503,38.2453]]}},{"type":"Feature","properties":{"id":"bus-785-s15631","kind":"busstop","ref":"785","name":"Zihni Dağlı","lines":[]},"geometry":{"type":"Point","coordinates":[27.44693,38.24492]}},{"type":"Feature","properties":{"id":"bus-785-s13434","kind":"busstop","ref":"785","name":"Dirmil Çıkış","lines":[]},"geometry":{"type":"Point","coordinates":[27.4298,38.24]}},{"type":"Feature","properties":{"id":"bus-785-s13432","kind":"busstop","ref":"785","name":"Beyaz Ev","lines":[]},"geometry":{"type":"Point","coordinates":[27.4276,38.2418]}},{"type":"Feature","properties":{"id":"bus-785-s13430","kind":"busstop","ref":"785","name":"Meydan","lines":[]},"geometry":{"type":"Point","coordinates":[27.4254,38.244]}},{"type":"Feature","properties":{"id":"bus-785-s13428","kind":"busstop","ref":"785","name":"İncirağa","lines":[]},"geometry":{"type":"Point","coordinates":[27.4241,38.2448]}},{"type":"Feature","properties":{"id":"bus-785-s13426","kind":"busstop","ref":"785","name":"Dirmil İlkokulu","lines":[]},"geometry":{"type":"Point","coordinates":[27.4225,38.2451]}},{"type":"Feature","properties":{"id":"bus-785-s13424","kind":"busstop","ref":"785","name":"Dirmil Giriş","lines":[]},"geometry":{"type":"Point","coordinates":[27.4202,38.245]}},{"type":"Feature","properties":{"id":"bus-785-s13416","kind":"busstop","ref":"785","name":"Dirmil Tarla","lines":[]},"geometry":{"type":"Point","coordinates":[27.41686,38.24443]}},{"type":"Feature","properties":{"id":"bus-785-s15586","kind":"busstop","ref":"785","name":"Dirmil Yol Ayrımı","lines":[]},"geometry":{"type":"Point","coordinates":[27.41401,38.24334]}},{"type":"Feature","properties":{"id":"bus-785-s13418","kind":"busstop","ref":"785","name":"Ongül","lines":[]},"geometry":{"type":"Point","coordinates":[27.4099,38.2427]}},{"type":"Feature","properties":{"id":"bus-785-s16165","kind":"busstop","ref":"785","name":"Dirmil Gazi","lines":[]},"geometry":{"type":"Point","coordinates":[27.40441,38.2412]}},{"type":"Feature","properties":{"id":"bus-785-s16163","kind":"busstop","ref":"785","name":"Karakuyu Tarım","lines":[]},"geometry":{"type":"Point","coordinates":[27.39977,38.23963]}},{"type":"Feature","properties":{"id":"bus-785-s13422","kind":"busstop","ref":"785","name":"Karakuyu Çıkış","lines":[]},"geometry":{"type":"Point","coordinates":[27.3967,38.2386]}},{"type":"Feature","properties":{"id":"bus-785-s11438","kind":"busstop","ref":"785","name":"Bardakçılar","lines":["721","763"]},"geometry":{"type":"Point","coordinates":[27.3921,38.2391]}},{"type":"Feature","properties":{"id":"bus-785-s11436","kind":"busstop","ref":"785","name":"Hacı Tahsin Irmak İlkokulu","lines":["721","763"]},"geometry":{"type":"Point","coordinates":[27.3912,38.2397]}},{"type":"Feature","properties":{"id":"bus-785-s11432","kind":"busstop","ref":"785","name":"Karakuyu Pazar Yeri","lines":["721","763","786"]},"geometry":{"type":"Point","coordinates":[27.38909,38.24012]}},{"type":"Feature","properties":{"id":"bus-785-s11430","kind":"busstop","ref":"785","name":"Karakuyu Gülfidan","lines":["721","763","786"]},"geometry":{"type":"Point","coordinates":[27.3878,38.2405]}},{"type":"Feature","properties":{"id":"bus-785-s11526","kind":"busstop","ref":"785","name":"Yaren Dede","lines":["721","763","786"]},"geometry":{"type":"Point","coordinates":[27.38564,38.24104]}},{"type":"Feature","properties":{"id":"bus-785-s11428","kind":"busstop","ref":"785","name":"Karakuyu Spor Tesisleri","lines":["721","763","786"]},"geometry":{"type":"Point","coordinates":[27.3838,38.2415]}},{"type":"Feature","properties":{"id":"bus-785-s11426","kind":"busstop","ref":"785","name":"Karakuyu Mezarlık","lines":["721","763","786"]},"geometry":{"type":"Point","coordinates":[27.3824,38.23879]}},{"type":"Feature","properties":{"id":"bus-785-s11424","kind":"busstop","ref":"785","name":"Kocatepe Zeytinlik","lines":["721","763","786"]},"geometry":{"type":"Point","coordinates":[27.3814,38.235]}},{"type":"Feature","properties":{"id":"bus-785-s11562","kind":"busstop","ref":"785","name":"Karakuyu Birlik Sitesi","lines":["721","763","786"]},"geometry":{"type":"Point","coordinates":[27.37951,38.23152]}},{"type":"Feature","properties":{"id":"bus-785-s11422","kind":"busstop","ref":"785","name":"Verde","lines":["721","763","786"]},"geometry":{"type":"Point","coordinates":[27.3787,38.2291]}},{"type":"Feature","properties":{"id":"bus-785-s11420","kind":"busstop","ref":"785","name":"Palmiye","lines":["721","763","786"]},"geometry":{"type":"Point","coordinates":[27.3781,38.2253]}},{"type":"Feature","properties":{"id":"bus-785-s11418","kind":"busstop","ref":"785","name":"Punteks","lines":["721","763","786"]},"geometry":{"type":"Point","coordinates":[27.3772,38.2207]}},{"type":"Feature","properties":{"id":"bus-785-s11414","kind":"busstop","ref":"785","name":"Zümrüt","lines":["721","763","786"]},"geometry":{"type":"Point","coordinates":[27.37603,38.2174]}},{"type":"Feature","properties":{"id":"bus-785-s11412","kind":"busstop","ref":"785","name":"Çamlıca Kavşağı","lines":["721","763","786"]},"geometry":{"type":"Point","coordinates":[27.37559,38.21603]}},{"type":"Feature","properties":{"id":"bus-785-s11396","kind":"busstop","ref":"785","name":"Ortaköy Kavşak","lines":["721","763","786"]},"geometry":{"type":"Point","coordinates":[27.3696,38.2147]}},{"type":"Feature","properties":{"id":"bus-785-s11410","kind":"busstop","ref":"785","name":"Ortaköy","lines":["721","763","784","786"]},"geometry":{"type":"Point","coordinates":[27.3683,38.2124]}},{"type":"Feature","properties":{"id":"bus-785-s11408","kind":"busstop","ref":"785","name":"İl Özel İdare Asfalt Şantiye","lines":["721","763","784","786"]},"geometry":{"type":"Point","coordinates":[27.3665,38.2055]}},{"type":"Feature","properties":{"id":"bus-785-s11406","kind":"busstop","ref":"785","name":"Mimteks","lines":["721","763","784","786"]},"geometry":{"type":"Point","coordinates":[27.36494,38.20038]}},{"type":"Feature","properties":{"id":"bus-785-s11405","kind":"busstop","ref":"785","name":"Mimteks","lines":["721","763","784","786"]},"geometry":{"type":"Point","coordinates":[27.36539,38.20029]}},{"type":"Feature","properties":{"id":"bus-785-s11407","kind":"busstop","ref":"785","name":"İl Özel İdare Asfalt Şantiye","lines":["721","763","784","786"]},"geometry":{"type":"Point","coordinates":[27.3666,38.2055]}},{"type":"Feature","properties":{"id":"bus-785-s11409","kind":"busstop","ref":"785","name":"Ortaköy","lines":["721","763","784","786"]},"geometry":{"type":"Point","coordinates":[27.3684,38.2124]}},{"type":"Feature","properties":{"id":"bus-785-s11397","kind":"busstop","ref":"785","name":"Ortaköy Kavşak","lines":["721","763","786"]},"geometry":{"type":"Point","coordinates":[27.3695,38.2146]}},{"type":"Feature","properties":{"id":"bus-785-s11413","kind":"busstop","ref":"785","name":"Çamlıca Kavşağı","lines":["721","786"]},"geometry":{"type":"Point","coordinates":[27.3757,38.2157]}},{"type":"Feature","properties":{"id":"bus-785-s11415","kind":"busstop","ref":"785","name":"Zümrüt","lines":["721","763","786"]},"geometry":{"type":"Point","coordinates":[27.3762,38.21751]}},{"type":"Feature","properties":{"id":"bus-785-s11419","kind":"busstop","ref":"785","name":"Punteks","lines":["721","763","786"]},"geometry":{"type":"Point","coordinates":[27.37718,38.22033]}},{"type":"Feature","properties":{"id":"bus-785-s11421","kind":"busstop","ref":"785","name":"Palmiye","lines":["721","763","786"]},"geometry":{"type":"Point","coordinates":[27.3782,38.2253]}},{"type":"Feature","properties":{"id":"bus-785-s11423","kind":"busstop","ref":"785","name":"Verde","lines":["721","763","786"]},"geometry":{"type":"Point","coordinates":[27.37895,38.22948]}},{"type":"Feature","properties":{"id":"bus-785-s11563","kind":"busstop","ref":"785","name":"Karakuyu Birlik Sitesi","lines":["721","763","786"]},"geometry":{"type":"Point","coordinates":[27.37958,38.23123]}},{"type":"Feature","properties":{"id":"bus-785-s11425","kind":"busstop","ref":"785","name":"Kocatepe Zeytinlik","lines":["721","763","786"]},"geometry":{"type":"Point","coordinates":[27.3816,38.235]}},{"type":"Feature","properties":{"id":"bus-785-s11427","kind":"busstop","ref":"785","name":"Karakuyu Mezarlık","lines":["721","763","786"]},"geometry":{"type":"Point","coordinates":[27.3824,38.2378]}},{"type":"Feature","properties":{"id":"bus-785-s11429","kind":"busstop","ref":"785","name":"Karakuyu Spor Tesisleri","lines":["721","763","786"]},"geometry":{"type":"Point","coordinates":[27.384,38.2414]}},{"type":"Feature","properties":{"id":"bus-785-s11431","kind":"busstop","ref":"785","name":"Karakuyu Gülfidan","lines":["721","763","786"]},"geometry":{"type":"Point","coordinates":[27.3878,38.2404]}},{"type":"Feature","properties":{"id":"bus-785-s11433","kind":"busstop","ref":"785","name":"Karakuyu Pazar Yeri","lines":["721","763","786"]},"geometry":{"type":"Point","coordinates":[27.3891,38.2401]}},{"type":"Feature","properties":{"id":"bus-785-s11437","kind":"busstop","ref":"785","name":"Hacı Tahsin Irmak İlkokulu","lines":["721","763"]},"geometry":{"type":"Point","coordinates":[27.39116,38.23969]}},{"type":"Feature","properties":{"id":"bus-785-s11439","kind":"busstop","ref":"785","name":"Bardakçılar","lines":["721","763"]},"geometry":{"type":"Point","coordinates":[27.3921,38.239]}},{"type":"Feature","properties":{"id":"bus-785-s13421","kind":"busstop","ref":"785","name":"Karakuyu Çıkış","lines":[]},"geometry":{"type":"Point","coordinates":[27.397,38.2386]}},{"type":"Feature","properties":{"id":"bus-785-s16162","kind":"busstop","ref":"785","name":"Karakuyu Tarım","lines":[]},"geometry":{"type":"Point","coordinates":[27.3999,38.23958]}},{"type":"Feature","properties":{"id":"bus-785-s16164","kind":"busstop","ref":"785","name":"Dirmil Gazi","lines":[]},"geometry":{"type":"Point","coordinates":[27.40441,38.24111]}},{"type":"Feature","properties":{"id":"bus-785-s13419","kind":"busstop","ref":"785","name":"Ongül","lines":[]},"geometry":{"type":"Point","coordinates":[27.4097,38.2426]}},{"type":"Feature","properties":{"id":"bus-785-s15585","kind":"busstop","ref":"785","name":"Dirmil Yol Ayrımı","lines":[]},"geometry":{"type":"Point","coordinates":[27.41423,38.24329]}},{"type":"Feature","properties":{"id":"bus-785-s13417","kind":"busstop","ref":"785","name":"Dirmil Tarla","lines":[]},"geometry":{"type":"Point","coordinates":[27.41707,38.24444]}},{"type":"Feature","properties":{"id":"bus-785-s13423","kind":"busstop","ref":"785","name":"Dirmil Giriş","lines":[]},"geometry":{"type":"Point","coordinates":[27.42009,38.24496]}},{"type":"Feature","properties":{"id":"bus-785-s13425","kind":"busstop","ref":"785","name":"Dirmil İlkokulu","lines":[]},"geometry":{"type":"Point","coordinates":[27.4221,38.2451]}},{"type":"Feature","properties":{"id":"bus-785-s13427","kind":"busstop","ref":"785","name":"İncirağa","lines":[]},"geometry":{"type":"Point","coordinates":[27.424,38.2448]}},{"type":"Feature","properties":{"id":"bus-785-s13429","kind":"busstop","ref":"785","name":"Meydan","lines":[]},"geometry":{"type":"Point","coordinates":[27.4255,38.2439]}},{"type":"Feature","properties":{"id":"bus-785-s13431","kind":"busstop","ref":"785","name":"Beyaz Ev","lines":[]},"geometry":{"type":"Point","coordinates":[27.4277,38.2417]}},{"type":"Feature","properties":{"id":"bus-785-s13433","kind":"busstop","ref":"785","name":"Dirmil Çıkış","lines":[]},"geometry":{"type":"Point","coordinates":[27.42969,38.23994]}},{"type":"Feature","properties":{"id":"bus-785-s15632","kind":"busstop","ref":"785","name":"Zihni Dağlı","lines":[]},"geometry":{"type":"Point","coordinates":[27.44686,38.24471]}}]}