{"type":"FeatureCollection","features":[{"type":"Feature","properties":{"id":"bus-786-1","kind":"busline","ref":"786","dir":1},"geometry":{"type":"LineString","coordinates":[[27.4374,38.2955],[27.4377,38.2954],[27.4378,38.2947],[27.4385,38.2945],[27.4388,38.2938],[27.4396,38.2934],[27.4401,38.2928],[27.4402,38.2921],[27.4408,38.291],[27.4403,38.2888],[27.4376,38.2856],[27.4376,38.2853],[27.438,38.2846],[27.4393,38.2836],[27.4398,38.2826],[27.4403,38.2822],[27.4405,38.2816],[27.4411,38.2816],[27.4408,38.2812],[27.441,38.2803],[27.4333,38.2756],[27.4324,38.2754],[27.4281,38.2727],[27.4248,38.2697],[27.4242,38.2695],[27.4186,38.2695],[27.4172,38.269],[27.4135,38.2687],[27.4097,38.2679],[27.4092,38.2677],[27.4082,38.2664],[27.4069,38.2662],[27.4054,38.2657],[27.4035,38.2644],[27.4023,38.2629],[27.3991,38.2605],[27.3983,38.2597],[27.3964,38.2575],[27.3951,38.2553],[27.3936,38.2514],[27.3924,38.247],[27.3914,38.245],[27.3914,38.2432],[27.3907,38.2424],[27.3906,38.241],[27.3902,38.2405],[27.3897,38.2406],[27.3893,38.2402],[27.3889,38.2401],[27.3843,38.2415],[27.3838,38.2415],[27.3835,38.241],[27.3813,38.2346],[27.3797,38.2318],[27.3784,38.2284],[27.3778,38.2229],[27.3754,38.2154],[27.3745,38.2153],[27.3732,38.2157],[27.3726,38.2157],[27.3705,38.2148],[27.3689,38.2148],[27.3648,38.1997]]}},{"type":"Feature","properties":{"id":"bus-786-2","kind":"busline","ref":"786","dir":2},"geometry":{"type":"LineString","coordinates":[[27.3654,38.2007],[27.369,38.2147],[27.3706,38.2148],[27.3727,38.2157],[27.3744,38.2153],[27.3756,38.2154],[27.3779,38.2231],[27.3785,38.2283],[27.3797,38.2317],[27.3807,38.2331],[27.3817,38.2354],[27.3828,38.2391],[27.3838,38.2413],[27.3851,38.2413],[27.388,38.2404],[27.3886,38.24],[27.3893,38.2402],[27.3896,38.2406],[27.3903,38.2405],[27.3907,38.2412],[27.3908,38.2426],[27.3915,38.2433],[27.3915,38.2452],[27.3925,38.2472],[27.3938,38.2519],[27.395,38.2549],[27.3967,38.2577],[27.3986,38.26],[27.4028,38.2633],[27.4037,38.2645],[27.4057,38.2658],[27.4082,38.2664],[27.4096,38.2679],[27.4137,38.2688],[27.4165,38.2689],[27.4183,38.2694],[27.424,38.2694],[27.4247,38.2696],[27.428,38.2725],[27.4301,38.2739],[27.4325,38.2754],[27.434,38.276],[27.441,38.2803],[27.4408,38.281],[27.4412,38.2815],[27.4411,38.2817],[27.4406,38.2817],[27.4393,38.2836],[27.4377,38.2851],[27.4377,38.2856],[27.4403,38.2887],[27.4408,38.291],[27.4402,38.2927],[27.4395,38.2935],[27.4392,38.2935],[27.4389,38.2938],[27.4386,38.2945],[27.4378,38.2947],[27.4379,38.2951],[27.4373,38.2956]]}},{"type":"Feature","properties":{"id":"bus-786-s13893","kind":"busstop","ref":"786","name":"Karaot Son Durak","lines":[]},"geometry":{"type":"Point","coordinates":[27.43745,38.29536]}},{"type":"Feature","properties":{"id":"bus-786-s16233","kind":"busstop","ref":"786","name":"Karaot Köşe","lines":[]},"geometry":{"type":"Point","coordinates":[27.43829,38.29454]}},{"type":"Feature","properties":{"id":"bus-786-s15592","kind":"busstop","ref":"786","name":"Karaot Giriş","lines":[]},"geometry":{"type":"Point","coordinates":[27.44025,38.2922]}},{"type":"Feature","properties":{"id":"bus-786-s15590","kind":"busstop","ref":"786","name":"Karaot Orman","lines":[]},"geometry":{"type":"Point","coordinates":[27.44053,38.2898]}},{"type":"Feature","properties":{"id":"bus-786-s15588","kind":"busstop","ref":"786","name":"Karakızlar Yol Ayrımı","lines":[]},"geometry":{"type":"Point","coordinates":[27.43793,38.2859]}},{"type":"Feature","properties":{"id":"bus-786-s13888","kind":"busstop","ref":"786","name":"Karakızlar Çıkış","lines":[]},"geometry":{"type":"Point","coordinates":[27.44041,38.28172]}},{"type":"Feature","properties":{"id":"bus-786-s13886","kind":"busstop","ref":"786","name":"Karakızlar Meydan","lines":[]},"geometry":{"type":"Point","coordinates":[27.44083,38.28034]}},{"type":"Feature","properties":{"id":"bus-786-s13884","kind":"busstop","ref":"786","name":"Karakızlar Giriş","lines":[]},"geometry":{"type":"Point","coordinates":[27.43855,38.27897]}},{"type":"Feature","properties":{"id":"bus-786-s15556","kind":"busstop","ref":"786","name":"Karakızlar Çiftlik","lines":[]},"geometry":{"type":"Point","coordinates":[27.43637,38.27752]}},{"type":"Feature","properties":{"id":"bus-786-s15554","kind":"busstop","ref":"786","name":"Karakızlar Arılık","lines":[]},"geometry":{"type":"Point","coordinates":[27.43377,38.27592]}},{"type":"Feature","properties":{"id":"bus-786-s15467","kind":"busstop","ref":"786","name":"Karakızlar Dört Yol","lines":[]},"geometry":{"type":"Point","coordinates":[27.42983,38.27376]}},{"type":"Feature","properties":{"id":"bus-786-s15551","kind":"busstop","ref":"786","name":"Karakızlar Çiftlik Evleri","lines":[]},"geometry":{"type":"Point","coordinates":[27.42547,38.27019]}},{"type":"Feature","properties":{"id":"bus-786-s15552","kind":"busstop","ref":"786","name":"Karakızlar Zeytinlik","lines":[]},"geometry":{"type":"Point","coordinates":[27.41877,38.26947]}},{"type":"Feature","properties":{"id":"bus-786-s15549","kind":"busstop","ref":"786","name":"Korucuk Yol Ayrımı","lines":[]},"geometry":{"type":"Point","coordinates":[27.40321,38.264]}},{"type":"Feature","properties":{"id":"bus-786-s15546","kind":"busstop","ref":"786","name":"Karakuyu Zeytinlik","lines":[]},"geometry":{"type":"Point","coordinates":[27.39928,38.26065]}},{"type":"Feature","properties":{"id":"bus-786-s16631","kind":"busstop","ref":"786","name":"Karakuyu Zeytinlik","lines":[]},"geometry":{"type":"Point","coordinates":[27.39664,38.25774]}},{"type":"Feature","properties":{"id":"bus-786-s16550","kind":"busstop","ref":"786","name":"Karakuyu Bahçeler","lines":[]},"geometry":{"type":"Point","coordinates":[27.39579,38.25637]}},{"type":"Feature","properties":{"id":"bus-786-s15494","kind":"busstop","ref":"786","name":"Karakuyu Çiftlik","lines":[]},"geometry":{"type":"Point","coordinates":[27.39478,38.25453]}},{"type":"Feature","properties":{"id":"bus-786-s13876","kind":"busstop","ref":"786","name":"Enginar","lines":[]},"geometry":{"type":"Point","coordinates":[27.3914,38.2439]}},{"type":"Feature","properties":{"id":"bus-786-s13874","kind":"busstop","ref":"786","name":"Güldeste","lines":[]},"geometry":{"type":"Point","coordinates":[27.3907,38.2417]}},{"type":"Feature","properties":{"id":"bus-786-s11434","kind":"busstop","ref":"786","name":"Karakuyu Meydan","lines":["721","763"]},"geometry":{"type":"Point","coordinates":[27.39014,38.24064]}},{"type":"Feature","properties":{"id":"bus-786-s11432","kind":"busstop","ref":"786","name":"Karakuyu Pazar Yeri","lines":["721","763","785"]},"geometry":{"type":"Point","coordinates":[27.38909,38.24012]}},{"type":"Feature","properties":{"id":"bus-786-s11430","kind":"busstop","ref":"786","name":"Karakuyu Gülfidan","lines":["721","763","785"]},"geometry":{"type":"Point","coordinates":[27.3878,38.2405]}},{"type":"Feature","properties":{"id":"bus-786-s11525","kind":"busstop","ref":"786","name":"Yaren Dede","lines":["721","763"]},"geometry":{"type":"Point","coordinates":[27.38569,38.24113]}},{"type":"Feature","properties":{"id":"bus-786-s11428","kind":"busstop","ref":"786","name":"Karakuyu Spor Tesisleri","lines":["721","763","785"]},"geometry":{"type":"Point","coordinates":[27.3838,38.2415]}},{"type":"Feature","properties":{"id":"bus-786-s11426","kind":"busstop","ref":"786","name":"Karakuyu Mezarlık","lines":["721","763","785"]},"geometry":{"type":"Point","coordinates":[27.3824,38.23879]}},{"type":"Feature","properties":{"id":"bus-786-s11424","kind":"busstop","ref":"786","name":"Kocatepe Zeytinlik","lines":["721","763","785"]},"geometry":{"type":"Point","coordinates":[27.3814,38.235]}},{"type":"Feature","properties":{"id":"bus-786-s11562","kind":"busstop","ref":"786","name":"Karakuyu Birlik Sitesi","lines":["721","763","785"]},"geometry":{"type":"Point","coordinates":[27.37951,38.23152]}},{"type":"Feature","properties":{"id":"bus-786-s11422","kind":"busstop","ref":"786","name":"Verde","lines":["721","763","785"]},"geometry":{"type":"Point","coordinates":[27.3787,38.2291]}},{"type":"Feature","properties":{"id":"bus-786-s11420","kind":"busstop","ref":"786","name":"Palmiye","lines":["721","763","785"]},"geometry":{"type":"Point","coordinates":[27.3781,38.2253]}},{"type":"Feature","properties":{"id":"bus-786-s11418","kind":"busstop","ref":"786","name":"Punteks","lines":["721","763","785"]},"geometry":{"type":"Point","coordinates":[27.3772,38.2207]}},{"type":"Feature","properties":{"id":"bus-786-s11414","kind":"busstop","ref":"786","name":"Zümrüt","lines":["721","763","785"]},"geometry":{"type":"Point","coordinates":[27.37603,38.2174]}},{"type":"Feature","properties":{"id":"bus-786-s11412","kind":"busstop","ref":"786","name":"Çamlıca Kavşağı","lines":["721","763","785"]},"geometry":{"type":"Point","coordinates":[27.37559,38.21603]}},{"type":"Feature","properties":{"id":"bus-786-s11396","kind":"busstop","ref":"786","name":"Ortaköy Kavşak","lines":["721","763","785"]},"geometry":{"type":"Point","coordinates":[27.3696,38.2147]}},{"type":"Feature","properties":{"id":"bus-786-s11410","kind":"busstop","ref":"786","name":"Ortaköy","lines":["721","763","784","785"]},"geometry":{"type":"Point","coordinates":[27.3683,38.2124]}},{"type":"Feature","properties":{"id":"bus-786-s11408","kind":"busstop","ref":"786","name":"İl Özel İdare Asfalt Şantiye","lines":["721","763","784","785"]},"geometry":{"type":"Point","coordinates":[27.3665,38.2055]}},{"type":"Feature","properties":{"id":"bus-786-s11406","kind":"busstop","ref":"786","name":"Mimteks","lines":["721","763","784","785"]},"geometry":{"type":"Point","coordinates":[27.36494,38.20038]}},{"type":"Feature","properties":{"id":"bus-786-s11405","kind":"busstop","ref":"786","name":"Mimteks","lines":["721","763","784","785"]},"geometry":{"type":"Point","coordinates":[27.36539,38.20029]}},{"type":"Feature","properties":{"id":"bus-786-s11407","kind":"busstop","ref":"786","name":"İl Özel İdare Asfalt Şantiye","lines":["721","763","784","785"]},"geometry":{"type":"Point","coordinates":[27.3666,38.2055]}},{"type":"Feature","properties":{"id":"bus-786-s11409","kind":"busstop","ref":"786","name":"Ortaköy","lines":["721","763","784","785"]},"geometry":{"type":"Point","coordinates":[27.3684,38.2124]}},{"type":"Feature","properties":{"id":"bus-786-s11397","kind":"busstop","ref":"786","name":"Ortaköy Kavşak","lines":["721","763","785"]},"geometry":{"type":"Point","coordinates":[27.3695,38.2146]}},{"type":"Feature","properties":{"id":"bus-786-s11413","kind":"busstop","ref":"786","name":"Çamlıca Kavşağı","lines":["721","785"]},"geometry":{"type":"Point","coordinates":[27.3757,38.2157]}},{"type":"Feature","properties":{"id":"bus-786-s11415","kind":"busstop","ref":"786","name":"Zümrüt","lines":["721","763","785"]},"geometry":{"type":"Point","coordinates":[27.3762,38.21751]}},{"type":"Feature","properties":{"id":"bus-786-s11419","kind":"busstop","ref":"786","name":"Punteks","lines":["721","763","785"]},"geometry":{"type":"Point","coordinates":[27.37718,38.22033]}},{"type":"Feature","properties":{"id":"bus-786-s11421","kind":"busstop","ref":"786","name":"Palmiye","lines":["721","763","785"]},"geometry":{"type":"Point","coordinates":[27.3782,38.2253]}},{"type":"Feature","properties":{"id":"bus-786-s11423","kind":"busstop","ref":"786","name":"Verde","lines":["721","763","785"]},"geometry":{"type":"Point","coordinates":[27.37895,38.22948]}},{"type":"Feature","properties":{"id":"bus-786-s11563","kind":"busstop","ref":"786","name":"Karakuyu Birlik Sitesi","lines":["721","763","785"]},"geometry":{"type":"Point","coordinates":[27.37958,38.23123]}},{"type":"Feature","properties":{"id":"bus-786-s11425","kind":"busstop","ref":"786","name":"Kocatepe Zeytinlik","lines":["721","763","785"]},"geometry":{"type":"Point","coordinates":[27.3816,38.235]}},{"type":"Feature","properties":{"id":"bus-786-s11427","kind":"busstop","ref":"786","name":"Karakuyu Mezarlık","lines":["721","763","785"]},"geometry":{"type":"Point","coordinates":[27.3824,38.2378]}},{"type":"Feature","properties":{"id":"bus-786-s11429","kind":"busstop","ref":"786","name":"Karakuyu Spor Tesisleri","lines":["721","763","785"]},"geometry":{"type":"Point","coordinates":[27.384,38.2414]}},{"type":"Feature","properties":{"id":"bus-786-s11526","kind":"busstop","ref":"786","name":"Yaren Dede","lines":["721","763","785"]},"geometry":{"type":"Point","coordinates":[27.38564,38.24104]}},{"type":"Feature","properties":{"id":"bus-786-s11431","kind":"busstop","ref":"786","name":"Karakuyu Gülfidan","lines":["721","763","785"]},"geometry":{"type":"Point","coordinates":[27.3878,38.2404]}},{"type":"Feature","properties":{"id":"bus-786-s11433","kind":"busstop","ref":"786","name":"Karakuyu Pazar Yeri","lines":["721","763","785"]},"geometry":{"type":"Point","coordinates":[27.3891,38.2401]}},{"type":"Feature","properties":{"id":"bus-786-s11435","kind":"busstop","ref":"786","name":"Karakuyu Meydan","lines":["721","763"]},"geometry":{"type":"Point","coordinates":[27.39041,38.24073]}},{"type":"Feature","properties":{"id":"bus-786-s13873","kind":"busstop","ref":"786","name":"Güldeste","lines":[]},"geometry":{"type":"Point","coordinates":[27.3908,38.2416]}},{"type":"Feature","properties":{"id":"bus-786-s13875","kind":"busstop","ref":"786","name":"Enginar","lines":[]},"geometry":{"type":"Point","coordinates":[27.3915,38.2439]}},{"type":"Feature","properties":{"id":"bus-786-s15493","kind":"busstop","ref":"786","name":"Karakuyu Çiftlik","lines":[]},"geometry":{"type":"Point","coordinates":[27.39485,38.25433]}},{"type":"Feature","properties":{"id":"bus-786-s16551","kind":"busstop","ref":"786","name":"Karakuyu Bahçeler","lines":[]},"geometry":{"type":"Point","coordinates":[27.39584,38.25633]}},{"type":"Feature","properties":{"id":"bus-786-s16632","kind":"busstop","ref":"786","name":"Karakuyu Zeytinlik","lines":[]},"geometry":{"type":"Point","coordinates":[27.39675,38.25774]}},{"type":"Feature","properties":{"id":"bus-786-s15547","kind":"busstop","ref":"786","name":"Karakuyu Zeytinlik","lines":[]},"geometry":{"type":"Point","coordinates":[27.39925,38.26052]}},{"type":"Feature","properties":{"id":"bus-786-s15548","kind":"busstop","ref":"786","name":"Korucuk Yol Ayrımı","lines":[]},"geometry":{"type":"Point","coordinates":[27.40349,38.26421]}},{"type":"Feature","properties":{"id":"bus-786-s15550","kind":"busstop","ref":"786","name":"Karakızlar Zeytinlik","lines":[]},"geometry":{"type":"Point","coordinates":[27.41905,38.2694]}},{"type":"Feature","properties":{"id":"bus-786-s15553","kind":"busstop","ref":"786","name":"Karakızlar Çiftlik Evleri","lines":[]},"geometry":{"type":"Point","coordinates":[27.42553,38.27014]}},{"type":"Feature","properties":{"id":"bus-786-s15466","kind":"busstop","ref":"786","name":"Karakızlar Dört Yol","lines":[]},"geometry":{"type":"Point","coordinates":[27.43023,38.27382]}},{"type":"Feature","properties":{"id":"bus-786-s15555","kind":"busstop","ref":"786","name":"Karakızlar Arılık","lines":[]},"geometry":{"type":"Point","coordinates":[27.43387,38.27587]}},{"type":"Feature","properties":{"id":"bus-786-s15557","kind":"busstop","ref":"786","name":"Karakızlar Çiftlik","lines":[]},"geometry":{"type":"Point","coordinates":[27.43636,38.27744]}},{"type":"Feature","properties":{"id":"bus-786-s13887","kind":"busstop","ref":"786","name":"Karakızlar Giriş","lines":[]},"geometry":{"type":"Point","coordinates":[27.43845,38.2788]}},{"type":"Feature","properties":{"id":"bus-786-s13889","kind":"busstop","ref":"786","name":"Karakızlar Meydan","lines":[]},"geometry":{"type":"Point","coordinates":[27.44095,38.28029]}},{"type":"Feature","properties":{"id":"bus-786-s13891","kind":"busstop","ref":"786","name":"Karakızlar Çıkış","lines":[]},"geometry":{"type":"Point","coordinates":[27.44043,38.28184]}},{"type":"Feature","properties":{"id":"bus-786-s15587","kind":"busstop","ref":"786","name":"Karakızlar Yol Ayrımı","lines":[]},"geometry":{"type":"Point","coordinates":[27.43797,38.28585]}},{"type":"Feature","properties":{"id":"bus-786-s15589","kind":"busstop","ref":"786","name":"Karaot Orman","lines":[]},"geometry":{"type":"Point","coordinates":[27.44062,38.28955]}},{"type":"Feature","properties":{"id":"bus-786-s15591","kind":"busstop","ref":"786","name":"Karaot Giriş","lines":[]},"geometry":{"type":"Point","coordinates":[27.44031,38.29235]}},{"type":"Feature","properties":{"id":"bus-786-s16234","kind":"busstop","ref":"786","name":"Karaot Köşe","lines":[]},"geometry":{"type":"Point","coordinates":[27.4384,38.29457]}}]}