{"type":"FeatureCollection","features":[{"type":"Feature","properties":{"id":"bus-789-1","kind":"busline","ref":"789","dir":1},"geometry":{"type":"LineString","coordinates":[[26.9686,38.2805],[26.9697,38.2807],[26.9708,38.2802],[26.9709,38.2795],[26.9717,38.2794],[26.9719,38.2789],[26.9725,38.2785],[26.9738,38.279],[26.9737,38.2797],[26.9739,38.2797],[26.9748,38.2787],[26.9762,38.2778],[26.9768,38.2771],[26.9774,38.2769],[26.9781,38.2771],[26.9792,38.277],[26.9819,38.2776],[26.9823,38.278],[26.9827,38.2781],[26.9826,38.2776],[26.9834,38.2768],[26.984,38.2765],[26.9843,38.276],[26.9854,38.2762],[26.9861,38.2755],[26.9862,38.2756],[26.9855,38.2766],[26.9856,38.2768],[26.9865,38.276],[26.9879,38.2755],[26.9879,38.2749],[26.9888,38.2747],[26.9892,38.2737],[26.9896,38.2735],[26.9907,38.2737],[26.9921,38.273],[26.9919,38.2722],[26.9925,38.2718],[26.9929,38.2712],[26.9929,38.2708],[26.9924,38.2705],[26.9919,38.2693],[26.9926,38.2678],[26.9933,38.2676],[26.9943,38.2664],[26.9951,38.2665],[26.9954,38.2663],[26.9955,38.2658],[26.9959,38.2655],[26.9966,38.2655],[26.9971,38.2659],[26.9974,38.2658],[26.9978,38.2652],[26.9981,38.2637],[26.9987,38.2635],[26.9994,38.2636],[27.0005,38.2644],[27.0009,38.2644],[27.0014,38.2641],[27.002,38.2643],[27.0028,38.2635],[27.0035,38.264],[27.0044,38.2641],[27.0047,38.2653],[27.0043,38.2656],[27.0042,38.266],[27.0046,38.2662],[27.008,38.2647],[27.0082,38.2648],[27.0082,38.2655],[27.0084,38.2658],[27.0089,38.266],[27.009,38.2664],[27.0081,38.2666],[27.0079,38.267],[27.0089,38.2676],[27.0092,38.2681],[27.0102,38.268],[27.0105,38.2682],[27.0101,38.2694],[27.0115,38.2695],[27.0125,38.2689],[27.0134,38.2687],[27.0144,38.2682],[27.0152,38.2681],[27.0196,38.2686],[27.022,38.2678],[27.0222,38.2678],[27.0222,38.268],[27.0199,38.2697],[27.0209,38.2698],[27.0221,38.2689],[27.0225,38.2688],[27.0243,38.2688],[27.0246,38.2685],[27.0269,38.2675],[27.027,38.2667],[27.0276,38.266],[27.0277,38.2653],[27.0275,38.2652],[27.0257,38.2653],[27.0258,38.2651],[27.0266,38.2651],[27.0293,38.2638],[27.0298,38.2634],[27.0301,38.2628],[27.0326,38.2606],[27.0338,38.2603],[27.0362,38.2604],[27.0368,38.2602],[27.037,38.2599],[27.0398,38.2595],[27.0401,38.259],[27.0407,38.2588],[27.0408,38.2582],[27.0417,38.2569],[27.0427,38.2571],[27.0439,38.2568],[27.0441,38.2566],[27.044,38.256],[27.0444,38.2551],[27.0459,38.2549],[27.0465,38.2552],[27.0463,38.2545],[27.047,38.254],[27.0474,38.2539],[27.0482,38.2546],[27.0485,38.2546],[27.0487,38.2534],[27.0489,38.2533],[27.0496,38.2536],[27.0512,38.2554],[27.053,38.2569],[27.0535,38.2571],[27.054,38.2581],[27.0549,38.2591],[27.0559,38.2597],[27.0567,38.2606],[27.0587,38.262],[27.0606,38.2627],[27.0611,38.2631],[27.064,38.2628],[27.0665,38.2605],[27.0673,38.26],[27.0682,38.2606],[27.0684,38.2611],[27.0697,38.2601],[27.0706,38.2591],[27.0706,38.2587],[27.07,38.2575],[27.0701,38.2569],[27.0741,38.2535],[27.0755,38.2527],[27.0758,38.2521],[27.0771,38.2511],[27.0774,38.2505],[27.0786,38.2493],[27.0803,38.248],[27.0816,38.2475],[27.0824,38.2469],[27.0828,38.2463],[27.0849,38.2449],[27.0858,38.2435],[27.0869,38.2435],[27.0936,38.2418],[27.0954,38.2418],[27.0994,38.2407],[27.1003,38.2408],[27.1031,38.2426],[27.1048,38.2446],[27.1111,38.2477],[27.1086,38.2492],[27.1083,38.2499],[27.1074,38.2508],[27.1074,38.2516],[27.1058,38.2543],[27.1046,38.2554],[27.1021,38.2569],[27.1018,38.258],[27.1021,38.2569],[27.1046,38.2554],[27.1058,38.2543],[27.1074,38.2516],[27.1074,38.2508],[27.1083,38.2499],[27.1086,38.2492],[27.1111,38.2477],[27.1128,38.2484],[27.1181,38.2479],[27.1221,38.2487],[27.1248,38.2486],[27.1264,38.2493],[27.1293,38.2499],[27.1312,38.2505],[27.1318,38.2498],[27.132,38.249],[27.1332,38.248],[27.1339,38.2483],[27.1341,38.2488],[27.1338,38.2507],[27.1333,38.2516],[27.1321,38.2527],[27.131,38.2541],[27.1308,38.2558],[27.1319,38.256],[27.1343,38.2559],[27.1375,38.2554],[27.1382,38.255],[27.1383,38.2552],[27.1398,38.2558],[27.1416,38.2577],[27.1422,38.2581],[27.1456,38.2597],[27.1462,38.2609],[27.1466,38.2612],[27.1493,38.2616],[27.1535,38.2616],[27.1581,38.2629],[27.1594,38.2629],[27.1616,38.2625],[27.1629,38.2625],[27.1626,38.2627],[27.1628,38.2627]]}},{"type":"Feature","properties":{"id":"bus-789-2","kind":"busline","ref":"789","dir":2},"geometry":{"type":"LineString","coordinates":[[27.1628,38.2627],[27.1609,38.2626],[27.1594,38.2629],[27.1581,38.2629],[27.1535,38.2616],[27.1493,38.2616],[27.1466,38.2612],[27.1462,38.2609],[27.1456,38.2597],[27.1422,38.2581],[27.1416,38.2577],[27.1398,38.2558],[27.1386,38.2553],[27.1369,38.2554],[27.1333,38.256],[27.1308,38.2558],[27.131,38.2541],[27.1321,38.2527],[27.1333,38.2516],[27.1338,38.2507],[27.1341,38.2488],[27.1339,38.2483],[27.1332,38.248],[27.132,38.249],[27.1318,38.2498],[27.1312,38.2505],[27.1243,38.2487],[27.1224,38.2488],[27.1181,38.2479],[27.1128,38.2484],[27.1111,38.2477],[27.1086,38.2492],[27.1083,38.2499],[27.1074,38.2508],[27.1074,38.2516],[27.1058,38.2543],[27.1046,38.2554],[27.1021,38.2569],[27.1018,38.258],[27.1021,38.2569],[27.1046,38.2554],[27.1058,38.2543],[27.1074,38.2516],[27.1074,38.2508],[27.1083,38.2499],[27.1086,38.2492],[27.1111,38.2477],[27.1048,38.2446],[27.1031,38.2426],[27.1003,38.2408],[27.0994,38.2407],[27.0954,38.2418],[27.0936,38.2418],[27.0869,38.2435],[27.0858,38.2435],[27.0849,38.2449],[27.0828,38.2463],[27.0824,38.2469],[27.0816,38.2475],[27.0803,38.248],[27.0786,38.2493],[27.0774,38.2505],[27.0771,38.2511],[27.0758,38.2521],[27.0755,38.2527],[27.0741,38.2535],[27.0701,38.2569],[27.07,38.2575],[27.0706,38.2587],[27.0706,38.2591],[27.0697,38.2601],[27.0684,38.2611],[27.068,38.2604],[27.0673,38.26],[27.0665,38.2605],[27.064,38.2628],[27.0611,38.2631],[27.0606,38.2627],[27.0587,38.262],[27.0567,38.2606],[27.0559,38.2597],[27.0549,38.2591],[27.054,38.2581],[27.0535,38.2571],[27.053,38.2569],[27.0512,38.2554],[27.0496,38.2536],[27.0489,38.2533],[27.0487,38.2534],[27.0485,38.2546],[27.0482,38.2546],[27.0474,38.2539],[27.047,38.254],[27.0463,38.2545],[27.0465,38.2552],[27.0459,38.2549],[27.0444,38.2551],[27.044,38.256],[27.0441,38.2566],[27.0439,38.2568],[27.0427,38.2571],[27.0417,38.2569],[27.0408,38.2582],[27.0407,38.2588],[27.0401,38.259],[27.0398,38.2595],[27.037,38.2599],[27.0368,38.2602],[27.0362,38.2604],[27.0338,38.2603],[27.0326,38.2606],[27.0301,38.2628],[27.0298,38.2634],[27.0293,38.2638],[27.0266,38.2651],[27.0258,38.2651],[27.0257,38.2653],[27.0275,38.2652],[27.0277,38.2653],[27.0276,38.266],[27.027,38.2667],[27.0269,38.2675],[27.0246,38.2685],[27.0243,38.2688],[27.0225,38.2688],[27.0221,38.2689],[27.0209,38.2698],[27.0199,38.2697],[27.0222,38.268],[27.0222,38.2678],[27.022,38.2678],[27.0196,38.2686],[27.0152,38.2681],[27.0144,38.2682],[27.0134,38.2687],[27.0125,38.2689],[27.0115,38.2695],[27.0101,38.2694],[27.0105,38.2682],[27.0102,38.268],[27.0092,38.2681],[27.0089,38.2676],[27.0079,38.267],[27.0081,38.2666],[27.009,38.2664],[27.0089,38.266],[27.0084,38.2658],[27.0082,38.2655],[27.0082,38.2648],[27.008,38.2647],[27.0046,38.2662],[27.0042,38.266],[27.0043,38.2656],[27.0047,38.2653],[27.0044,38.2641],[27.0035,38.264],[27.0028,38.2635],[27.002,38.2643],[27.0014,38.2641],[27.0009,38.2644],[27.0005,38.2644],[26.9994,38.2636],[26.9987,38.2635],[26.9981,38.2637],[26.9978,38.2652],[26.9974,38.2658],[26.9971,38.2659],[26.9966,38.2655],[26.9959,38.2655],[26.9955,38.2658],[26.9954,38.2663],[26.9951,38.2665],[26.9943,38.2664],[26.9933,38.2676],[26.9926,38.2678],[26.9919,38.2693],[26.9924,38.2705],[26.9929,38.2708],[26.9929,38.2712],[26.9925,38.2718],[26.9919,38.2722],[26.9921,38.273],[26.9907,38.2737],[26.99,38.2735],[26.9892,38.2737],[26.9888,38.2747],[26.9879,38.2749],[26.9879,38.2755],[26.9865,38.276],[26.9856,38.2768],[26.9855,38.2766],[26.9862,38.2756],[26.9861,38.2755],[26.9854,38.2762],[26.9843,38.276],[26.984,38.2765],[26.9834,38.2768],[26.9826,38.2776],[26.9827,38.2781],[26.9823,38.278],[26.9819,38.2776],[26.9792,38.277],[26.9781,38.2771],[26.9774,38.2769],[26.9768,38.2771],[26.9762,38.2778],[26.9748,38.2787],[26.9739,38.2797],[26.9737,38.2797],[26.9738,38.279],[26.9725,38.2785],[26.9719,38.2789],[26.9717,38.2794],[26.9709,38.2795],[26.9708,38.2802],[26.9697,38.2807],[26.9686,38.2805]]}},{"type":"Feature","properties":{"id":"bus-789-s13515","kind":"busstop","ref":"789","name":"Efem Çukuru Son durak","lines":[]},"geometry":{"type":"Point","coordinates":[26.96865,38.28063]}},{"type":"Feature","properties":{"id":"bus-789-s13514","kind":"busstop","ref":"789","name":"Efemçukuru İkokulu","lines":[]},"geometry":{"type":"Point","coordinates":[26.97074,38.28009]}},{"type":"Feature","properties":{"id":"bus-789-s13512","kind":"busstop","ref":"789","name":"Efem Çukuru Hal","lines":[]},"geometry":{"type":"Point","coordinates":[26.97215,38.27867]}},{"type":"Feature","properties":{"id":"bus-789-s16257","kind":"busstop","ref":"789","name":"Efemçukuru Yolu","lines":[]},"geometry":{"type":"Point","coordinates":[26.98031,38.27727]}},{"type":"Feature","properties":{"id":"bus-789-s13510","kind":"busstop","ref":"789","name":"Tırazlı Yol Ayrımı","lines":[]},"geometry":{"type":"Point","coordinates":[26.99245,38.26817]}},{"type":"Feature","properties":{"id":"bus-789-s16460","kind":"busstop","ref":"789","name":"Çukur","lines":[]},"geometry":{"type":"Point","coordinates":[26.99932,38.26353]}},{"type":"Feature","properties":{"id":"bus-789-s16539","kind":"busstop","ref":"789","name":"Çatalca Çiftlik","lines":[]},"geometry":{"type":"Point","coordinates":[27.01125,38.26952]}},{"type":"Feature","properties":{"id":"bus-789-s16541","kind":"busstop","ref":"789","name":"Çatalca Manzara","lines":[]},"geometry":{"type":"Point","coordinates":[27.02999,38.26294]}},{"type":"Feature","properties":{"id":"bus-789-s16254","kind":"busstop","ref":"789","name":"Çatalca Üzüm","lines":[]},"geometry":{"type":"Point","coordinates":[27.04871,38.25336]}},{"type":"Feature","properties":{"id":"bus-789-s16636","kind":"busstop","ref":"789","name":"Çatal","lines":[]},"geometry":{"type":"Point","coordinates":[27.05087,38.255]}},{"type":"Feature","properties":{"id":"bus-789-s16256","kind":"busstop","ref":"789","name":"Segen Göleti","lines":[]},"geometry":{"type":"Point","coordinates":[27.05343,38.25699]}},{"type":"Feature","properties":{"id":"bus-789-s13508","kind":"busstop","ref":"789","name":"Çatalca Köprü","lines":[]},"geometry":{"type":"Point","coordinates":[27.06701,38.26018]}},{"type":"Feature","properties":{"id":"bus-789-s16211","kind":"busstop","ref":"789","name":"Çatalca Köşe","lines":[]},"geometry":{"type":"Point","coordinates":[27.06836,38.26096]}},{"type":"Feature","properties":{"id":"bus-789-s13516","kind":"busstop","ref":"789","name":"Çatalca Meydan","lines":["799"]},"geometry":{"type":"Point","coordinates":[27.07014,38.25948]}},{"type":"Feature","properties":{"id":"bus-789-s13506","kind":"busstop","ref":"789","name":"Çatalca","lines":["799"]},"geometry":{"type":"Point","coordinates":[27.07002,38.25691]}},{"type":"Feature","properties":{"id":"bus-789-s13504","kind":"busstop","ref":"789","name":"Çatalca Seralar","lines":["799"]},"geometry":{"type":"Point","coordinates":[27.07265,38.25477]}},{"type":"Feature","properties":{"id":"bus-789-s13022","kind":"busstop","ref":"789","name":"Çatalca Mezarlık","lines":["799"]},"geometry":{"type":"Point","coordinates":[27.07583,38.25203]}},{"type":"Feature","properties":{"id":"bus-789-s16429","kind":"busstop","ref":"789","name":"Çatalca Bahçe","lines":["799"]},"geometry":{"type":"Point","coordinates":[27.07851,38.24936]}},{"type":"Feature","properties":{"id":"bus-789-s13502","kind":"busstop","ref":"789","name":"Çatalca Yol Ayrımı","lines":["799","829"]},"geometry":{"type":"Point","coordinates":[27.0863,38.2434]}},{"type":"Feature","properties":{"id":"bus-789-s13498","kind":"busstop","ref":"789","name":"Üzüm Bağları","lines":["799","829"]},"geometry":{"type":"Point","coordinates":[27.08978,38.24285]}},{"type":"Feature","properties":{"id":"bus-789-s13500","kind":"busstop","ref":"789","name":"Akçaköy Yol Ayrımı","lines":["799","829"]},"geometry":{"type":"Point","coordinates":[27.0937,38.2418]}},{"type":"Feature","properties":{"id":"bus-789-s13584","kind":"busstop","ref":"789","name":"Plastik Fabrikası","lines":["799","829"]},"geometry":{"type":"Point","coordinates":[27.1006,38.241]}},{"type":"Feature","properties":{"id":"bus-789-s13920","kind":"busstop","ref":"789","name":"Ilgın","lines":["799","829"]},"geometry":{"type":"Point","coordinates":[27.1052,38.2447]}},{"type":"Feature","properties":{"id":"bus-789-s13496","kind":"busstop","ref":"789","name":"Merkez Sokak","lines":["799","829"]},"geometry":{"type":"Point","coordinates":[27.11049,38.24731]}},{"type":"Feature","properties":{"id":"bus-789-s16648","kind":"busstop","ref":"789","name":"Akçaköy Yolu","lines":["799"]},"geometry":{"type":"Point","coordinates":[27.10896,38.24896]}},{"type":"Feature","properties":{"id":"bus-789-s16471","kind":"busstop","ref":"789","name":"Festival","lines":["799"]},"geometry":{"type":"Point","coordinates":[27.10746,38.2515]}},{"type":"Feature","properties":{"id":"bus-789-s13917","kind":"busstop","ref":"789","name":"Akçaköy  İncir Fabrikası","lines":["799"]},"geometry":{"type":"Point","coordinates":[27.10403,38.2557]}},{"type":"Feature","properties":{"id":"bus-789-s13919","kind":"busstop","ref":"789","name":"Akçaköy","lines":["799"]},"geometry":{"type":"Point","coordinates":[27.10185,38.25698]}},{"type":"Feature","properties":{"id":"bus-789-s13918","kind":"busstop","ref":"789","name":"Akçaköy  İncir Fabrikası","lines":["799"]},"geometry":{"type":"Point","coordinates":[27.10384,38.25578]}},{"type":"Feature","properties":{"id":"bus-789-s16470","kind":"busstop","ref":"789","name":"Festival","lines":["799"]},"geometry":{"type":"Point","coordinates":[27.10739,38.25148]}},{"type":"Feature","properties":{"id":"bus-789-s16647","kind":"busstop","ref":"789","name":"Akçaköy Yolu","lines":["799"]},"geometry":{"type":"Point","coordinates":[27.109,38.24886]}},{"type":"Feature","properties":{"id":"bus-789-s13332","kind":"busstop","ref":"789","name":"İncir Fabrikası","lines":["799","804","829"]},"geometry":{"type":"Point","coordinates":[27.12097,38.24836]}},{"type":"Feature","properties":{"id":"bus-789-s13334","kind":"busstop","ref":"789","name":"Dereköy Kavşak","lines":["799","804","829"]},"geometry":{"type":"Point","coordinates":[27.1238,38.2486]}},{"type":"Feature","properties":{"id":"bus-789-s10953","kind":"busstop","ref":"789","name":"Dereköy Yolu","lines":["829"]},"geometry":{"type":"Point","coordinates":[27.12657,38.24923]}},{"type":"Feature","properties":{"id":"bus-789-s10781","kind":"busstop","ref":"789","name":"Barbaros","lines":["829"]},"geometry":{"type":"Point","coordinates":[27.1307,38.25029]}},{"type":"Feature","properties":{"id":"bus-789-s16155","kind":"busstop","ref":"789","name":"Saha","lines":["829"]},"geometry":{"type":"Point","coordinates":[27.1319,38.24927]}},{"type":"Feature","properties":{"id":"bus-789-s10722","kind":"busstop","ref":"789","name":"Cüneytbey Cami","lines":["508","707","799","804","808","814","829"]},"geometry":{"type":"Point","coordinates":[27.134,38.25]}},{"type":"Feature","properties":{"id":"bus-789-s10720","kind":"busstop","ref":"789","name":"Menderes Belediyesi","lines":["508","707","799","804","808","814","829"]},"geometry":{"type":"Point","coordinates":[27.13417,38.25173]}},{"type":"Feature","properties":{"id":"bus-789-s10718","kind":"busstop","ref":"789","name":"Sümerbank","lines":["508","707","799","804","808","814","829"]},"geometry":{"type":"Point","coordinates":[27.1309,38.2546]}},{"type":"Feature","properties":{"id":"bus-789-s11253","kind":"busstop","ref":"789","name":"Menderes İnönü","lines":["707","729","775","776","792","794","799","804","829"]},"geometry":{"type":"Point","coordinates":[27.1318,38.2559]}},{"type":"Feature","properties":{"id":"bus-789-s11255","kind":"busstop","ref":"789","name":"Menderes Stadyum","lines":["707","729","775","776","792","794","799","804","829"]},"geometry":{"type":"Point","coordinates":[27.1367,38.2553]}},{"type":"Feature","properties":{"id":"bus-789-s11259","kind":"busstop","ref":"789","name":"Menderes Pazar Yeri","lines":["707","729","775","776","792","794","799","804","808","829"]},"geometry":{"type":"Point","coordinates":[27.13962,38.25558]}},{"type":"Feature","properties":{"id":"bus-789-s15536","kind":"busstop","ref":"789","name":"Fesleğen","lines":["707","729","775","776","792","794","799","804","808","829"]},"geometry":{"type":"Point","coordinates":[27.14161,38.2575]}},{"type":"Feature","properties":{"id":"bus-789-s11261","kind":"busstop","ref":"789","name":"Gölcükler Adnan Ocay Ortaokulu","lines":["707","729","775","776","792","794","799","804","808","829"]},"geometry":{"type":"Point","coordinates":[27.14452,38.2591]}},{"type":"Feature","properties":{"id":"bus-789-s11265","kind":"busstop","ref":"789","name":"Gölcükler Sera","lines":["707","729","775","776","792","794","799","804","808","814","829"]},"geometry":{"type":"Point","coordinates":[27.14759,38.26131]}},{"type":"Feature","properties":{"id":"bus-789-s11271","kind":"busstop","ref":"789","name":"Oğlananası Yol Ayrımı","lines":["707","729","775","776","792","794","799","804","808","814","829"]},"geometry":{"type":"Point","coordinates":[27.1519,38.2615]}},{"type":"Feature","properties":{"id":"bus-789-s11267","kind":"busstop","ref":"789","name":"Amber","lines":["707","729","775","776","792","794","799","804","808","814","829"]},"geometry":{"type":"Point","coordinates":[27.1563,38.2623]}},{"type":"Feature","properties":{"id":"bus-789-s13277","kind":"busstop","ref":"789","name":"Cumaovası Aktarma Merkezi","lines":["799"]},"geometry":{"type":"Point","coordinates":[27.16275,38.26273]}},{"type":"Feature","properties":{"id":"bus-789-s11266","kind":"busstop","ref":"789","name":"Amber","lines":["707","729","775","776","792","794","799","804","808","814","829"]},"geometry":{"type":"Point","coordinates":[27.1562,38.2624]}},{"type":"Feature","properties":{"id":"bus-789-s11270","kind":"busstop","ref":"789","name":"Oğlananası Yol Ayrımı","lines":["707","729","775","776","792","794","799","804","808","814","829"]},"geometry":{"type":"Point","coordinates":[27.15227,38.26153]}},{"type":"Feature","properties":{"id":"bus-789-s11264","kind":"busstop","ref":"789","name":"Gölcükler Sera","lines":["707","729","775","776","792","794","799","804","808","814","829"]},"geometry":{"type":"Point","coordinates":[27.14687,38.26131]}},{"type":"Feature","properties":{"id":"bus-789-s11260","kind":"busstop","ref":"789","name":"Gölcükler  Adnan Ocay Ortaokulu","lines":["707","729","775","776","792","794","799","804","808","829"]},"geometry":{"type":"Point","coordinates":[27.14409,38.25902]}},{"type":"Feature","properties":{"id":"bus-789-s15535","kind":"busstop","ref":"789","name":"Fesleğen","lines":["707","729","775","776","792","794","799","804","808","829"]},"geometry":{"type":"Point","coordinates":[27.14124,38.25737]}},{"type":"Feature","properties":{"id":"bus-789-s11258","kind":"busstop","ref":"789","name":"Menderes Pazar Yeri","lines":["707","729","775","776","792","794","799","804","808","829"]},"geometry":{"type":"Point","coordinates":[27.13905,38.25558]}},{"type":"Feature","properties":{"id":"bus-789-s11254","kind":"busstop","ref":"789","name":"Menderes Stadyum","lines":["707","729","775","776","792","794","799","804","829"]},"geometry":{"type":"Point","coordinates":[27.1362,38.2555]}},{"type":"Feature","properties":{"id":"bus-789-s11252","kind":"busstop","ref":"789","name":"Menderes İnönü","lines":["707","729","775","776","792","794","799","804","829"]},"geometry":{"type":"Point","coordinates":[27.1322,38.256]}},{"type":"Feature","properties":{"id":"bus-789-s10717","kind":"busstop","ref":"789","name":"Sümerbank","lines":["508","707","799","804","808","814","829"]},"geometry":{"type":"Point","coordinates":[27.1308,38.2544]}},{"type":"Feature","properties":{"id":"bus-789-s10719","kind":"busstop","ref":"789","name":"Menderes Belediyesi","lines":["508","707","799","804","808","814","829"]},"geometry":{"type":"Point","coordinates":[27.1325,38.2521]}},{"type":"Feature","properties":{"id":"bus-789-s16156","kind":"busstop","ref":"789","name":"Saha","lines":["829"]},"geometry":{"type":"Point","coordinates":[27.13199,38.24938]}},{"type":"Feature","properties":{"id":"bus-789-s10782","kind":"busstop","ref":"789","name":"Barbaros","lines":["829"]},"geometry":{"type":"Point","coordinates":[27.13039,38.25029]}},{"type":"Feature","properties":{"id":"bus-789-s10952","kind":"busstop","ref":"789","name":"Dereköy Yolu","lines":["829"]},"geometry":{"type":"Point","coordinates":[27.1265,38.24932]}},{"type":"Feature","properties":{"id":"bus-789-s13335","kind":"busstop","ref":"789","name":"Dereköy Kavşak","lines":["799","804","829"]},"geometry":{"type":"Point","coordinates":[27.12436,38.24882]}},{"type":"Feature","properties":{"id":"bus-789-s13333","kind":"busstop","ref":"789","name":"İncir Fabrikası","lines":["799","804","829"]},"geometry":{"type":"Point","coordinates":[27.12161,38.24871]}},{"type":"Feature","properties":{"id":"bus-789-s13495","kind":"busstop","ref":"789","name":"Merkez Sokak","lines":["799","829"]},"geometry":{"type":"Point","coordinates":[27.1104,38.2474]}},{"type":"Feature","properties":{"id":"bus-789-s13921","kind":"busstop","ref":"789","name":"Ilgın","lines":["799","829"]},"geometry":{"type":"Point","coordinates":[27.10498,38.24471]}},{"type":"Feature","properties":{"id":"bus-789-s13585","kind":"busstop","ref":"789","name":"Plastik Fabrikası","lines":["799","829"]},"geometry":{"type":"Point","coordinates":[27.1006,38.2411]}},{"type":"Feature","properties":{"id":"bus-789-s13499","kind":"busstop","ref":"789","name":"Akçaköy Yol Ayrımı","lines":["799","829"]},"geometry":{"type":"Point","coordinates":[27.0936,38.2419]}},{"type":"Feature","properties":{"id":"bus-789-s13497","kind":"busstop","ref":"789","name":"Üzüm Bağları","lines":["799","829"]},"geometry":{"type":"Point","coordinates":[27.08958,38.24273]}},{"type":"Feature","properties":{"id":"bus-789-s16430","kind":"busstop","ref":"789","name":"Çatalca Bahçe","lines":["799"]},"geometry":{"type":"Point","coordinates":[27.07851,38.24949]}},{"type":"Feature","properties":{"id":"bus-789-s13021","kind":"busstop","ref":"789","name":"Çatalca Mezarlık","lines":["799"]},"geometry":{"type":"Point","coordinates":[27.07565,38.25257]}},{"type":"Feature","properties":{"id":"bus-789-s13503","kind":"busstop","ref":"789","name":"Çatalca Seralar","lines":["799"]},"geometry":{"type":"Point","coordinates":[27.07254,38.25503]}},{"type":"Feature","properties":{"id":"bus-789-s13505","kind":"busstop","ref":"789","name":"Çatalca","lines":["799"]},"geometry":{"type":"Point","coordinates":[27.07002,38.25712]}},{"type":"Feature","properties":{"id":"bus-789-s13517","kind":"busstop","ref":"789","name":"Çatalca Meydan","lines":["799"]},"geometry":{"type":"Point","coordinates":[27.06949,38.26024]}},{"type":"Feature","properties":{"id":"bus-789-s16212","kind":"busstop","ref":"789","name":"Çatalca Köşe","lines":[]},"geometry":{"type":"Point","coordinates":[27.06829,38.26092]}},{"type":"Feature","properties":{"id":"bus-789-s13507","kind":"busstop","ref":"789","name":"Çatalca Köprü","lines":[]},"geometry":{"type":"Point","coordinates":[27.06718,38.26011]}},{"type":"Feature","properties":{"id":"bus-789-s16255","kind":"busstop","ref":"789","name":"Segen Göleti","lines":[]},"geometry":{"type":"Point","coordinates":[27.0532,38.25697]}},{"type":"Feature","properties":{"id":"bus-789-s16635","kind":"busstop","ref":"789","name":"Çatal","lines":[]},"geometry":{"type":"Point","coordinates":[27.05095,38.25528]}},{"type":"Feature","properties":{"id":"bus-789-s16253","kind":"busstop","ref":"789","name":"Çatalca Üzüm","lines":[]},"geometry":{"type":"Point","coordinates":[27.04879,38.25371]}},{"type":"Feature","properties":{"id":"bus-789-s16540","kind":"busstop","ref":"789","name":"Çatalca Manzara","lines":[]},"geometry":{"type":"Point","coordinates":[27.02986,38.26337]}},{"type":"Feature","properties":{"id":"bus-789-s16538","kind":"busstop","ref":"789","name":"Çatalca Çiftlik","lines":[]},"geometry":{"type":"Point","coordinates":[27.01133,38.26959]}},{"type":"Feature","properties":{"id":"bus-789-s16461","kind":"busstop","ref":"789","name":"Çukur","lines":[]},"geometry":{"type":"Point","coordinates":[26.99948,38.26367]}},{"type":"Feature","properties":{"id":"bus-789-s13509","kind":"busstop","ref":"789","name":"Tırazlı Yol Ayrımı","lines":[]},"geometry":{"type":"Point","coordinates":[26.99267,38.26792]}},{"type":"Feature","properties":{"id":"bus-789-s16258","kind":"busstop","ref":"789","name":"Efemçukuru Yolu","lines":[]},"geometry":{"type":"Point","coordinates":[26.98021,38.2773]}},{"type":"Feature","properties":{"id":"bus-789-s13511","kind":"busstop","ref":"789","name":"Efem Çukuru Hal","lines":[]},"geometry":{"type":"Point","coordinates":[26.97252,38.27858]}},{"type":"Feature","properties":{"id":"bus-789-s13513","kind":"busstop","ref":"789","name":"Efemçukuru İkokulu","lines":[]},"geometry":{"type":"Point","coordinates":[26.97092,38.28006]}}]}