{"type":"FeatureCollection","features":[{"type":"Feature","properties":{"id":"bus-8-1","kind":"busline","ref":"8","dir":1},"geometry":{"type":"LineString","coordinates":[[26.887,38.3571],[26.8879,38.3575],[26.8877,38.358],[26.887,38.3588],[26.8852,38.3602],[26.883,38.3629],[26.8821,38.3629],[26.8813,38.3634],[26.8786,38.3659],[26.8753,38.3672],[26.875,38.3637],[26.8745,38.3622],[26.8746,38.3616],[26.8755,38.3613],[26.8781,38.3611],[26.8787,38.3609],[26.879,38.3604],[26.8749,38.3584],[26.8733,38.3569],[26.8711,38.3556],[26.8704,38.3553],[26.8697,38.3555],[26.8719,38.3588],[26.8725,38.36],[26.8732,38.3633],[26.8731,38.3641],[26.8735,38.3646],[26.8734,38.3652],[26.8738,38.3659],[26.8741,38.3671],[26.8755,38.3744],[26.8758,38.3752],[26.8766,38.3758],[26.8807,38.3766],[26.8891,38.3776],[26.893,38.3783],[26.8982,38.3785],[26.901,38.3788],[26.9106,38.3807],[26.918,38.3828],[26.9211,38.3839],[26.9223,38.3841],[26.9242,38.3842],[26.9286,38.3832],[26.9329,38.383],[26.9424,38.3852],[26.9444,38.3862],[26.9463,38.3864],[26.9475,38.3871],[26.9505,38.3882],[26.9548,38.3902],[26.9573,38.391],[26.9675,38.3935],[26.9702,38.394],[26.9743,38.3942],[26.9784,38.3953],[26.9853,38.3958],[26.9892,38.3963],[26.9962,38.3963],[26.9971,38.396],[26.9978,38.3961],[27.001,38.3954],[27.0043,38.3945],[27.0172,38.3938],[27.0255,38.3925],[27.0318,38.3929],[27.0362,38.3938],[27.0393,38.3942],[27.0418,38.3942],[27.0433,38.394],[27.0481,38.3942],[27.0533,38.3939],[27.0581,38.395],[27.0618,38.3964],[27.0671,38.3972],[27.0685,38.3972],[27.0693,38.397],[27.0703,38.397],[27.0705,38.3972],[27.0703,38.3976],[27.0699,38.3976],[27.0643,38.397],[27.065,38.398],[27.0657,38.3986],[27.0658,38.399],[27.0661,38.399],[27.067,38.3983],[27.0662,38.3978],[27.0659,38.3981],[27.0665,38.3985]]}},{"type":"Feature","properties":{"id":"bus-8-2","kind":"busline","ref":"8","dir":2},"geometry":{"type":"LineString","coordinates":[[27.0665,38.3985],[27.0659,38.3981],[27.0662,38.3978],[27.067,38.3983],[27.0661,38.399],[27.0658,38.399],[27.0657,38.3986],[27.065,38.398],[27.0643,38.397],[27.062,38.3967],[27.0606,38.3961],[27.0576,38.3956],[27.0571,38.3952],[27.0537,38.3942],[27.0476,38.3944],[27.0426,38.3942],[27.041,38.3944],[27.0383,38.3944],[27.0367,38.3939],[27.0306,38.3929],[27.0258,38.3926],[27.0229,38.3929],[27.0185,38.3938],[27.0043,38.3946],[27.0024,38.395],[27.0014,38.3955],[27.0005,38.3955],[26.9989,38.396],[26.9959,38.3964],[26.9911,38.3965],[26.9777,38.3953],[26.9692,38.3939],[26.9573,38.391],[26.9548,38.3902],[26.9505,38.3882],[26.9475,38.3871],[26.9463,38.3864],[26.9444,38.3862],[26.9424,38.3852],[26.9329,38.383],[26.9286,38.3832],[26.9244,38.3842],[26.9215,38.3841],[26.9147,38.3818],[26.9106,38.3807],[26.9043,38.3794],[26.8997,38.3786],[26.893,38.3783],[26.8891,38.3776],[26.8807,38.3766],[26.8755,38.3757],[26.8753,38.3755],[26.8754,38.3745],[26.8752,38.3728],[26.8737,38.3663],[26.8732,38.3653],[26.8725,38.3649],[26.8725,38.3645],[26.8728,38.3644],[26.873,38.364],[26.873,38.3629],[26.8724,38.3603],[26.8718,38.3588],[26.8695,38.3555],[26.87,38.3553],[26.8702,38.355],[26.8705,38.355],[26.8709,38.3555],[26.8733,38.3569],[26.8749,38.3584],[26.8783,38.3601],[26.8794,38.3602],[26.8787,38.3609],[26.8781,38.3611],[26.8755,38.3613],[26.8746,38.3616],[26.8745,38.3622],[26.8749,38.3632],[26.8755,38.3672],[26.8786,38.3659],[26.8813,38.3634],[26.8829,38.3622],[26.8847,38.3601],[26.8857,38.3593],[26.8867,38.358],[26.8868,38.3573],[26.887,38.3571]]}},{"type":"Feature","properties":{"id":"bus-8-s50371","kind":"busstop","ref":"8","name":"Güzelbahçe","lines":["9","28","82","321","762"]},"geometry":{"type":"Point","coordinates":[26.887,38.3571]}},{"type":"Feature","properties":{"id":"bus-8-s50362","kind":"busstop","ref":"8","name":"Güzelbahçe Meydan","lines":["9","82","321","762"]},"geometry":{"type":"Point","coordinates":[26.8876,38.3582]}},{"type":"Feature","properties":{"id":"bus-8-s50357","kind":"busstop","ref":"8","name":"Stad","lines":["9","82","321","762"]},"geometry":{"type":"Point","coordinates":[26.8864,38.3593]}},{"type":"Feature","properties":{"id":"bus-8-s50363","kind":"busstop","ref":"8","name":"Güzelbahçe Sağlık Ocağı","lines":["9","82","321","762"]},"geometry":{"type":"Point","coordinates":[26.8848,38.3608]}},{"type":"Feature","properties":{"id":"bus-8-s50365","kind":"busstop","ref":"8","name":"Okul Durağı","lines":["9","82","321","762"]},"geometry":{"type":"Point","coordinates":[26.8835,38.3623]}},{"type":"Feature","properties":{"id":"bus-8-s50367","kind":"busstop","ref":"8","name":"Asır","lines":["82","762"]},"geometry":{"type":"Point","coordinates":[26.8805,38.3644]}},{"type":"Feature","properties":{"id":"bus-8-s50369","kind":"busstop","ref":"8","name":"Bankacılar Sitesi","lines":["82","762"]},"geometry":{"type":"Point","coordinates":[26.8768,38.3666]}},{"type":"Feature","properties":{"id":"bus-8-s52083","kind":"busstop","ref":"8","name":"Dr. Güngör Özbek A. L.","lines":[]},"geometry":{"type":"Point","coordinates":[26.87513,38.36544]}},{"type":"Feature","properties":{"id":"bus-8-s52029","kind":"busstop","ref":"8","name":"Sarmaşık","lines":["9","762","962"]},"geometry":{"type":"Point","coordinates":[26.87455,38.36251]}},{"type":"Feature","properties":{"id":"bus-8-s52032","kind":"busstop","ref":"8","name":"Vadi","lines":["9","762","962"]},"geometry":{"type":"Point","coordinates":[26.87618,38.3612]}},{"type":"Feature","properties":{"id":"bus-8-s52033","kind":"busstop","ref":"8","name":"Güzeltepe","lines":["9","962"]},"geometry":{"type":"Point","coordinates":[26.87745,38.35971]}},{"type":"Feature","properties":{"id":"bus-8-s52035","kind":"busstop","ref":"8","name":"Ata","lines":["9","962"]},"geometry":{"type":"Point","coordinates":[26.87501,38.35844]}},{"type":"Feature","properties":{"id":"bus-8-s52037","kind":"busstop","ref":"8","name":"Uğur Koleji","lines":["9","962"]},"geometry":{"type":"Point","coordinates":[26.87207,38.35628]}},{"type":"Feature","properties":{"id":"bus-8-s50388","kind":"busstop","ref":"8","name":"Çiçek Mezatı","lines":["675","975","983","985","987"]},"geometry":{"type":"Point","coordinates":[26.87037,38.35635]}},{"type":"Feature","properties":{"id":"bus-8-s50386","kind":"busstop","ref":"8","name":"Benzin İstasyonu","lines":["675","975","983","985","987"]},"geometry":{"type":"Point","coordinates":[26.87272,38.36055]}},{"type":"Feature","properties":{"id":"bus-8-s50384","kind":"busstop","ref":"8","name":"Otoban Kavşağı","lines":["9","82","684","762","883","962","975","983","985","987"]},"geometry":{"type":"Point","coordinates":[26.8739,38.3662]}},{"type":"Feature","properties":{"id":"bus-8-s50382","kind":"busstop","ref":"8","name":"Konutlar","lines":["9","82","962","975","983","985","987"]},"geometry":{"type":"Point","coordinates":[26.8745,38.3689]}},{"type":"Feature","properties":{"id":"bus-8-s50464","kind":"busstop","ref":"8","name":"Çiçek","lines":["9","82","962","975","983","985","987"]},"geometry":{"type":"Point","coordinates":[26.8753,38.3724]}},{"type":"Feature","properties":{"id":"bus-8-s50380","kind":"busstop","ref":"8","name":"Seferihisar Kavşak","lines":["9","82","962","975","983","985","987"]},"geometry":{"type":"Point","coordinates":[26.87563,38.37456]}},{"type":"Feature","properties":{"id":"bus-8-s50092","kind":"busstop","ref":"8","name":"Altmışıncı Yıl Anadolu Lisesi","lines":["9","909","975","981","982","983","984","985","987"]},"geometry":{"type":"Point","coordinates":[26.8791,38.3762]}},{"type":"Feature","properties":{"id":"bus-8-s50090","kind":"busstop","ref":"8","name":"Liman","lines":["9","909","975","981","982","983","984","985","987"]},"geometry":{"type":"Point","coordinates":[26.885,38.3771]}},{"type":"Feature","properties":{"id":"bus-8-s50088","kind":"busstop","ref":"8","name":"Briketçi","lines":["9","909","975","981","982","983","984","985","987"]},"geometry":{"type":"Point","coordinates":[26.8884,38.3775]}},{"type":"Feature","properties":{"id":"bus-8-s50086","kind":"busstop","ref":"8","name":"Eczane","lines":["9","909","975","981","982","983","984","985","987"]},"geometry":{"type":"Point","coordinates":[26.8908,38.3779]}},{"type":"Feature","properties":{"id":"bus-8-s50084","kind":"busstop","ref":"8","name":"Anıt","lines":["82","321","909","975","981","982","983","984","985","987"]},"geometry":{"type":"Point","coordinates":[26.893,38.3782]}},{"type":"Feature","properties":{"id":"bus-8-s50082","kind":"busstop","ref":"8","name":"Yemişçi","lines":["82","321","909","975","981","982","983","984","985","987"]},"geometry":{"type":"Point","coordinates":[26.89566,38.37836]}},{"type":"Feature","properties":{"id":"bus-8-s50080","kind":"busstop","ref":"8","name":"Kirazlı","lines":["82","321","909","975","981","982","983","984","985","987"]},"geometry":{"type":"Point","coordinates":[26.90041,38.37864]}},{"type":"Feature","properties":{"id":"bus-8-s50124","kind":"busstop","ref":"8","name":"Karaca","lines":["82","321","909","975","981","982","983","984","985","987"]},"geometry":{"type":"Point","coordinates":[26.9048,38.3795]}},{"type":"Feature","properties":{"id":"bus-8-s50076","kind":"busstop","ref":"8","name":"Şahin","lines":["82","321","909","975","981","982","983","984","985","987"]},"geometry":{"type":"Point","coordinates":[26.9074,38.38]}},{"type":"Feature","properties":{"id":"bus-8-s50074","kind":"busstop","ref":"8","name":"Baydar","lines":["82","321","909","975","981","982","983","984","985","987"]},"geometry":{"type":"Point","coordinates":[26.91023,38.38056]}},{"type":"Feature","properties":{"id":"bus-8-s50126","kind":"busstop","ref":"8","name":"Camcı","lines":["82","321","909","975","981","982","983","984","985","987"]},"geometry":{"type":"Point","coordinates":[26.9129,38.3813]}},{"type":"Feature","properties":{"id":"bus-8-s50072","kind":"busstop","ref":"8","name":"Balıkçı Kahvesi","lines":["82","321","909","975","981","982","983","984","985","987"]},"geometry":{"type":"Point","coordinates":[26.9176,38.3826]}},{"type":"Feature","properties":{"id":"bus-8-s50070","kind":"busstop","ref":"8","name":"Maltepe","lines":["82","321","909","975","981","982","983","984","985","987"]},"geometry":{"type":"Point","coordinates":[26.9206,38.3836]}},{"type":"Feature","properties":{"id":"bus-8-s50068","kind":"busstop","ref":"8","name":"Pina","lines":["82","321","909","975","981","982","983","984","985","987"]},"geometry":{"type":"Point","coordinates":[26.92639,38.38368]}},{"type":"Feature","properties":{"id":"bus-8-s50066","kind":"busstop","ref":"8","name":"Liman Reis","lines":["82","321","909","975","981","982","983","984","985","987"]},"geometry":{"type":"Point","coordinates":[26.9302,38.3831]}},{"type":"Feature","properties":{"id":"bus-8-s50064","kind":"busstop","ref":"8","name":"Sıdıka Akdemir Rehberlik ve Araştırma Merkezi","lines":["82","321","909","975","981","982","983","984","985","987"]},"geometry":{"type":"Point","coordinates":[26.9357,38.3836]}},{"type":"Feature","properties":{"id":"bus-8-s50062","kind":"busstop","ref":"8","name":"Çeşme","lines":["82","321","909","975","981","982","983","984","985","987"]},"geometry":{"type":"Point","coordinates":[26.9395,38.3845]}},{"type":"Feature","properties":{"id":"bus-8-s50060","kind":"busstop","ref":"8","name":"Halk Plajı","lines":["82","321","909","975","981","982","983","984","985","987"]},"geometry":{"type":"Point","coordinates":[26.9422,38.3851]}},{"type":"Feature","properties":{"id":"bus-8-s50058","kind":"busstop","ref":"8","name":"İstihkam","lines":["82","321","909","975","981","982","983","984","985","987"]},"geometry":{"type":"Point","coordinates":[26.954,38.3897]}},{"type":"Feature","properties":{"id":"bus-8-s50054","kind":"busstop","ref":"8","name":"Subay Gazinosu","lines":["82","321","551","909","975","981","982","983","984","985","987"]},"geometry":{"type":"Point","coordinates":[26.9642,38.3926]}},{"type":"Feature","properties":{"id":"bus-8-s50052","kind":"busstop","ref":"8","name":"Lojmanlar","lines":["82","321","551","909","975","981","982","983","984","985","987"]},"geometry":{"type":"Point","coordinates":[26.9722,38.394]}},{"type":"Feature","properties":{"id":"bus-8-s50050","kind":"busstop","ref":"8","name":"Pertev Bey","lines":["82","321","551","909","975","981","982","983","984","985","987"]},"geometry":{"type":"Point","coordinates":[26.982,38.3955]}},{"type":"Feature","properties":{"id":"bus-8-s50048","kind":"busstop","ref":"8","name":"İstihkam Okulu","lines":["82","321","551","909","975","981","982","983","984","985","987"]},"geometry":{"type":"Point","coordinates":[26.986,38.3959]}},{"type":"Feature","properties":{"id":"bus-8-s50046","kind":"busstop","ref":"8","name":"Narlıdere Kaymakamlık","lines":["82","321","551","909","975","981","982","983","984","985","987"]},"geometry":{"type":"Point","coordinates":[26.9908,38.3963]}},{"type":"Feature","properties":{"id":"bus-8-s50044","kind":"busstop","ref":"8","name":"Narlıdere Belediye","lines":["5","82","321","551","909","975","981","982","983","984","985","987"]},"geometry":{"type":"Point","coordinates":[26.99476,38.39629]}},{"type":"Feature","properties":{"id":"bus-8-s50042","kind":"busstop","ref":"8","name":"Şehitlik","lines":["5","6","7","82","321","551","909","950","975","981","982","983","984","985","987"]},"geometry":{"type":"Point","coordinates":[26.99903,38.3958]}},{"type":"Feature","properties":{"id":"bus-8-s50040","kind":"busstop","ref":"8","name":"Siteler","lines":["5","6","7","82","321","551","909","950","975","981","982","983","984","985","987"]},"geometry":{"type":"Point","coordinates":[27.00216,38.39493]}},{"type":"Feature","properties":{"id":"bus-8-s50038","kind":"busstop","ref":"8","name":"Köprübaşı","lines":["5","6","7","82","321","551","909","950","975","981","982","983","984","985","987"]},"geometry":{"type":"Point","coordinates":[27.005,38.3944]}},{"type":"Feature","properties":{"id":"bus-8-s50036","kind":"busstop","ref":"8","name":"Uludağ","lines":["5","6","7","82","321","551","909","950","975","981","982","983","984","985","987"]},"geometry":{"type":"Point","coordinates":[27.00774,38.39427]}},{"type":"Feature","properties":{"id":"bus-8-s50034","kind":"busstop","ref":"8","name":"Narlıdere Cami","lines":["5","6","7","82","321","551","909","950","975","981","982","983","984","985","987"]},"geometry":{"type":"Point","coordinates":[27.012,38.394]}},{"type":"Feature","properties":{"id":"bus-8-s50032","kind":"busstop","ref":"8","name":"Narlıdere İtfaiye","lines":["5","6","7","82","321","551","909","950","975","981","982","983","984","985","987"]},"geometry":{"type":"Point","coordinates":[27.01534,38.39383]}},{"type":"Feature","properties":{"id":"bus-8-s50030","kind":"busstop","ref":"8","name":"Balcı","lines":["5","6","7","82","305","321","551","909","950","971","975","981","982","983","984","985","987"]},"geometry":{"type":"Point","coordinates":[27.0204,38.3932]}},{"type":"Feature","properties":{"id":"bus-8-s50028","kind":"busstop","ref":"8","name":"Güzel Sanatlar Fakültesi","lines":["5","6","7","82","305","971"]},"geometry":{"type":"Point","coordinates":[27.0244,38.3926]}},{"type":"Feature","properties":{"id":"bus-8-s50026","kind":"busstop","ref":"8","name":"İzsu","lines":["5","6","7","82","305","321","551","909","950","971","975","981","982","983","984","985","987"]},"geometry":{"type":"Point","coordinates":[27.0264,38.3925]}},{"type":"Feature","properties":{"id":"bus-8-s50024","kind":"busstop","ref":"8","name":"Kantar","lines":["5","6","7","82","305","321","551","909","950","971","975","981","982","983","984","985","987"]},"geometry":{"type":"Point","coordinates":[27.02975,38.39273]}},{"type":"Feature","properties":{"id":"bus-8-s50022","kind":"busstop","ref":"8","name":"Dokuz Eylül","lines":["5","6","7","82","305","321","551","909","950","971","975","981","982","983","984","985","987"]},"geometry":{"type":"Point","coordinates":[27.0336,38.3932]}},{"type":"Feature","properties":{"id":"bus-8-s50020","kind":"busstop","ref":"8","name":"Dokuz Eylül Hastanesi İstasyon","lines":["5","6","7","82","305","311","321","481","483","510","650","909","971","975","981","982","983","984","985","987"]},"geometry":{"type":"Point","coordinates":[27.0394,38.39413]}},{"type":"Feature","properties":{"id":"bus-8-s50018","kind":"busstop","ref":"8","name":"Hoca","lines":["5","6","7","82","305","311","321","481","510","650","909","971","975","981","982","983","984","985","987"]},"geometry":{"type":"Point","coordinates":[27.04249,38.39406]}},{"type":"Feature","properties":{"id":"bus-8-s50016","kind":"busstop","ref":"8","name":"Çağdaş İstasyon","lines":["5","6","7","82","305","311","321","510","650","909","971","975","981","982","983","984","985","987"]},"geometry":{"type":"Point","coordinates":[27.04672,38.39407]}},{"type":"Feature","properties":{"id":"bus-8-s50014","kind":"busstop","ref":"8","name":"İş Bankası Evleri","lines":["5","6","7","82","305","311","321","510","650","909","971","975","981","982","983","984","985","987"]},"geometry":{"type":"Point","coordinates":[27.0493,38.394]}},{"type":"Feature","properties":{"id":"bus-8-s50012","kind":"busstop","ref":"8","name":"Molla Kuyusu","lines":["5","6","7","82","305","311","321","481","510","650","909","971","975","981","982","983","984","985","987"]},"geometry":{"type":"Point","coordinates":[27.0532,38.39388]}},{"type":"Feature","properties":{"id":"bus-8-s50010","kind":"busstop","ref":"8","name":"Balçova İstasyon","lines":["5","6","7","82","305","311","321","481","510","650","909","971","975","981","982","983","984","985","987"]},"geometry":{"type":"Point","coordinates":[27.0569,38.3947]}},{"type":"Feature","properties":{"id":"bus-8-s50008","kind":"busstop","ref":"8","name":"Beyaz","lines":["5","6","7","24","25","82","202","305","311","321","481","510","650","909","971","975","977","981","982","983","984","985","987"]},"geometry":{"type":"Point","coordinates":[27.06161,38.39621]}},{"type":"Feature","properties":{"id":"bus-8-s51826","kind":"busstop","ref":"8","name":"Fahrettin Altay Meydan 3","lines":["10","17","671","690","873","969"]},"geometry":{"type":"Point","coordinates":[27.06956,38.39767]}},{"type":"Feature","properties":{"id":"bus-8-s51929","kind":"busstop","ref":"8","name":"Fahrettin Altay Aktarma Merkezi","lines":[]},"geometry":{"type":"Point","coordinates":[27.06666,38.39842]}},{"type":"Feature","properties":{"id":"bus-8-s50011","kind":"busstop","ref":"8","name":"Balçova İstasyon","lines":["5","6","7","82","305","311","321","481","510","650","811","909","971","975","981","982","983","984","985","987"]},"geometry":{"type":"Point","coordinates":[27.05601,38.39495]}},{"type":"Feature","properties":{"id":"bus-8-s50013","kind":"busstop","ref":"8","name":"Molla Kuyusu","lines":["5","6","7","82","305","311","321","510","650","811","909","971","975","981","982","983","984","985","987"]},"geometry":{"type":"Point","coordinates":[27.0515,38.3942]}},{"type":"Feature","properties":{"id":"bus-8-s50015","kind":"busstop","ref":"8","name":"İş Bankası Evleri","lines":["5","6","7","82","305","311","321","510","811","909","971","975","981","982","983","984","985","987"]},"geometry":{"type":"Point","coordinates":[27.04861,38.39441]}},{"type":"Feature","properties":{"id":"bus-8-s50017","kind":"busstop","ref":"8","name":"Çağdaş İstasyon","lines":["5","6","7","82","305","311","321","510","650","811","909","971","975","981","982","983","984","985","987"]},"geometry":{"type":"Point","coordinates":[27.04563,38.39437]}},{"type":"Feature","properties":{"id":"bus-8-s50019","kind":"busstop","ref":"8","name":"Hoca","lines":["5","6","7","82","305","311","321","510","650","811","909","971","975","981","982","983","984","985","987"]},"geometry":{"type":"Point","coordinates":[27.0424,38.3943]}},{"type":"Feature","properties":{"id":"bus-8-s50021","kind":"busstop","ref":"8","name":"Dokuz Eylül Hastanesi İstasyon","lines":["5","6","7","82","305","311","321","650","811","909","971","975","981","982","983","984","985","987"]},"geometry":{"type":"Point","coordinates":[27.0388,38.3944]}},{"type":"Feature","properties":{"id":"bus-8-s50023","kind":"busstop","ref":"8","name":"Dokuz Eylül","lines":["5","6","7","82","305","321","551","909","950","971","975","981","982","983","984","985","987"]},"geometry":{"type":"Point","coordinates":[27.0331,38.3933]}},{"type":"Feature","properties":{"id":"bus-8-s50025","kind":"busstop","ref":"8","name":"Kantar","lines":["5","6","7","82","305","321","551","909","950","971","975","981","982","983","984","985","987"]},"geometry":{"type":"Point","coordinates":[27.02682,38.39278]}},{"type":"Feature","properties":{"id":"bus-8-s50027","kind":"busstop","ref":"8","name":"Güzel Sanatlar Fakültesi","lines":["5","6","7","82","305","321","551","909","950","971","975","981","982","983","984","985","987"]},"geometry":{"type":"Point","coordinates":[27.024,38.3929]}},{"type":"Feature","properties":{"id":"bus-8-s50029","kind":"busstop","ref":"8","name":"Balcı","lines":["5","6","7","82","321","551","909","950","975","981","982","983","984","985","987"]},"geometry":{"type":"Point","coordinates":[27.0193,38.3936]}},{"type":"Feature","properties":{"id":"bus-8-s50031","kind":"busstop","ref":"8","name":"Narlıdere İtfaiye","lines":["5","6","7","82","321","551","909","950","975","981","982","983","984","985","987"]},"geometry":{"type":"Point","coordinates":[27.0148,38.394]}},{"type":"Feature","properties":{"id":"bus-8-s50033","kind":"busstop","ref":"8","name":"Narlıdere Cami","lines":["5","6","7","82","321","551","909","950","975","981","982","983","984","985","987"]},"geometry":{"type":"Point","coordinates":[27.0114,38.3942]}},{"type":"Feature","properties":{"id":"bus-8-s50035","kind":"busstop","ref":"8","name":"Uludağ","lines":["5","6","7","82","321","551","909","950","975","981","982","983","984","985","987"]},"geometry":{"type":"Point","coordinates":[27.0086,38.3943]}},{"type":"Feature","properties":{"id":"bus-8-s50037","kind":"busstop","ref":"8","name":"Köprübaşı","lines":["5","6","7","82","321","551","909","950","975","981","982","983","984","985","987"]},"geometry":{"type":"Point","coordinates":[27.0059,38.3945]}},{"type":"Feature","properties":{"id":"bus-8-s50039","kind":"busstop","ref":"8","name":"Siteler","lines":["5","6","7","82","321","551","909","950","975","981","982","983","984","985","987"]},"geometry":{"type":"Point","coordinates":[27.0028,38.395]}},{"type":"Feature","properties":{"id":"bus-8-s50041","kind":"busstop","ref":"8","name":"Şehitlik","lines":["5","6","7","82","321","551","909","950","975","981","982","983","984","985","987"]},"geometry":{"type":"Point","coordinates":[26.99953,38.39587]}},{"type":"Feature","properties":{"id":"bus-8-s50043","kind":"busstop","ref":"8","name":"Narlıdere Belediye","lines":["5","82","321","551","909","975","981","982","983","984","985","987"]},"geometry":{"type":"Point","coordinates":[26.9958,38.3964]}},{"type":"Feature","properties":{"id":"bus-8-s50045","kind":"busstop","ref":"8","name":"Narlıdere Kaymakamlık","lines":["82","321","551","909","975","981","982","983","984","985","987"]},"geometry":{"type":"Point","coordinates":[26.9908,38.3966]}},{"type":"Feature","properties":{"id":"bus-8-s50047","kind":"busstop","ref":"8","name":"İstihkam Okulu","lines":["82","321","551","909","975","981","982","983","984","985","987"]},"geometry":{"type":"Point","coordinates":[26.9857,38.396]}},{"type":"Feature","properties":{"id":"bus-8-s50049","kind":"busstop","ref":"8","name":"Pertev Bey","lines":["82","321","551","909","975","981","982","983","984","985","987"]},"geometry":{"type":"Point","coordinates":[26.9819,38.3956]}},{"type":"Feature","properties":{"id":"bus-8-s50051","kind":"busstop","ref":"8","name":"Lojmanlar","lines":["82","321","551","909","975","981","982","983","984","985","987"]},"geometry":{"type":"Point","coordinates":[26.97107,38.39427]}},{"type":"Feature","properties":{"id":"bus-8-s50053","kind":"busstop","ref":"8","name":"Subay Gazinosu","lines":["82","321","551","909","975","981","982","983","984","985","987"]},"geometry":{"type":"Point","coordinates":[26.9643,38.3927]}},{"type":"Feature","properties":{"id":"bus-8-s50057","kind":"busstop","ref":"8","name":"İstihkam","lines":["82","321","909","975","981","982","983","984","985","987"]},"geometry":{"type":"Point","coordinates":[26.95381,38.38985]}},{"type":"Feature","properties":{"id":"bus-8-s50059","kind":"busstop","ref":"8","name":"Çeşme","lines":["82","321","909","975","981","982","983","984","985","987"]},"geometry":{"type":"Point","coordinates":[26.9395,38.3846]}},{"type":"Feature","properties":{"id":"bus-8-s50061","kind":"busstop","ref":"8","name":"Sıdıka Akdemir Rehberlik ve Araştırma Merkezi","lines":["82","321","909","975","981","982","983","984","985","987"]},"geometry":{"type":"Point","coordinates":[26.93545,38.38371]}},{"type":"Feature","properties":{"id":"bus-8-s50063","kind":"busstop","ref":"8","name":"Liman Reis","lines":["82","321","909","975","981","982","983","984","985","987"]},"geometry":{"type":"Point","coordinates":[26.9302,38.3832]}},{"type":"Feature","properties":{"id":"bus-8-s50065","kind":"busstop","ref":"8","name":"Pina","lines":["82","321","909","975","981","982","983","984","985","987"]},"geometry":{"type":"Point","coordinates":[26.92457,38.38419]}},{"type":"Feature","properties":{"id":"bus-8-s50067","kind":"busstop","ref":"8","name":"Maltepe","lines":["82","321","909","975","981","982","983","984","985","987"]},"geometry":{"type":"Point","coordinates":[26.9205,38.3838]}},{"type":"Feature","properties":{"id":"bus-8-s50069","kind":"busstop","ref":"8","name":"Balıkçı Kahvesi","lines":["82","321","909","975","981","982","983","984","985","987"]},"geometry":{"type":"Point","coordinates":[26.9181,38.3829]}},{"type":"Feature","properties":{"id":"bus-8-s50071","kind":"busstop","ref":"8","name":"Camcı","lines":["82","321","909","975","981","982","983","984","985","987"]},"geometry":{"type":"Point","coordinates":[26.9135,38.3816]}},{"type":"Feature","properties":{"id":"bus-8-s50073","kind":"busstop","ref":"8","name":"Baydar","lines":["82","321","909","975","981","982","983","984","985","987"]},"geometry":{"type":"Point","coordinates":[26.9092,38.3805]}},{"type":"Feature","properties":{"id":"bus-8-s50075","kind":"busstop","ref":"8","name":"Karaca","lines":["82","321","909","975","981","982","983","984","985","987"]},"geometry":{"type":"Point","coordinates":[26.905,38.37967]}},{"type":"Feature","properties":{"id":"bus-8-s50077","kind":"busstop","ref":"8","name":"Kirazlı","lines":["82","321","909","975","981","982","983","984","985","987"]},"geometry":{"type":"Point","coordinates":[26.9009,38.3788]}},{"type":"Feature","properties":{"id":"bus-8-s50079","kind":"busstop","ref":"8","name":"Yemişçi","lines":["82","321","909","975","981","982","983","984","985","987"]},"geometry":{"type":"Point","coordinates":[26.8979,38.3786]}},{"type":"Feature","properties":{"id":"bus-8-s50081","kind":"busstop","ref":"8","name":"Anıt","lines":["82","321","909","975","981","982","983","984","985","987"]},"geometry":{"type":"Point","coordinates":[26.8939,38.3785]}},{"type":"Feature","properties":{"id":"bus-8-s50083","kind":"busstop","ref":"8","name":"Eczane","lines":["9","909","975","981","982","983","984","985","987"]},"geometry":{"type":"Point","coordinates":[26.8893,38.3777]}},{"type":"Feature","properties":{"id":"bus-8-s50085","kind":"busstop","ref":"8","name":"Liman","lines":["9","909","975","981","982","983","984","985","987"]},"geometry":{"type":"Point","coordinates":[26.8845,38.3771]}},{"type":"Feature","properties":{"id":"bus-8-s50089","kind":"busstop","ref":"8","name":"Altmışıncı Yıl Anadolu Lisesi","lines":["9","909","975","981","982","983","984","985","987"]},"geometry":{"type":"Point","coordinates":[26.8793,38.3764]}},{"type":"Feature","properties":{"id":"bus-8-s50379","kind":"busstop","ref":"8","name":"Seferihisar Kavşak","lines":["9","82","962","975","983","985","987"]},"geometry":{"type":"Point","coordinates":[26.8754,38.3743]}},{"type":"Feature","properties":{"id":"bus-8-s50383","kind":"busstop","ref":"8","name":"Konutlar","lines":["9","82","962","975","983","985","987"]},"geometry":{"type":"Point","coordinates":[26.8742,38.3692]}},{"type":"Feature","properties":{"id":"bus-8-s50385","kind":"busstop","ref":"8","name":"Çeşme Otoban Kavşağı","lines":["9","82","684","762","883","962","975","983","985","987"]},"geometry":{"type":"Point","coordinates":[26.8737,38.3667]}},{"type":"Feature","properties":{"id":"bus-8-s50387","kind":"busstop","ref":"8","name":"Benzin İstasyonu","lines":["675","975","983","985","987"]},"geometry":{"type":"Point","coordinates":[26.8724,38.3608]}},{"type":"Feature","properties":{"id":"bus-8-s52038","kind":"busstop","ref":"8","name":"Uğur Koleji","lines":["9","962"]},"geometry":{"type":"Point","coordinates":[26.87248,38.35634]}},{"type":"Feature","properties":{"id":"bus-8-s52036","kind":"busstop","ref":"8","name":"Ata","lines":["9","962"]},"geometry":{"type":"Point","coordinates":[26.8751,38.35826]}},{"type":"Feature","properties":{"id":"bus-8-s52034","kind":"busstop","ref":"8","name":"Güzeltepe","lines":["9","962"]},"geometry":{"type":"Point","coordinates":[26.87755,38.35954]}},{"type":"Feature","properties":{"id":"bus-8-s52031","kind":"busstop","ref":"8","name":"Vadi","lines":["9","762","962"]},"geometry":{"type":"Point","coordinates":[26.87607,38.36134]}},{"type":"Feature","properties":{"id":"bus-8-s52030","kind":"busstop","ref":"8","name":"Sarmaşık","lines":["9","762","962"]},"geometry":{"type":"Point","coordinates":[26.87463,38.36233]}},{"type":"Feature","properties":{"id":"bus-8-s52082","kind":"busstop","ref":"8","name":"Dr. Güngör Özbek A. L.","lines":[]},"geometry":{"type":"Point","coordinates":[26.87527,38.3655]}},{"type":"Feature","properties":{"id":"bus-8-s50370","kind":"busstop","ref":"8","name":"Ünlü","lines":["82","762"]},"geometry":{"type":"Point","coordinates":[26.8759,38.367]}},{"type":"Feature","properties":{"id":"bus-8-s50374","kind":"busstop","ref":"8","name":"Şehit Kemal","lines":["82","762"]},"geometry":{"type":"Point","coordinates":[26.8784,38.3659]}},{"type":"Feature","properties":{"id":"bus-8-s50368","kind":"busstop","ref":"8","name":"Asır","lines":["82","762"]},"geometry":{"type":"Point","coordinates":[26.88033,38.36433]}},{"type":"Feature","properties":{"id":"bus-8-s50366","kind":"busstop","ref":"8","name":"Okul Durağı","lines":["9","82","321","762"]},"geometry":{"type":"Point","coordinates":[26.8829,38.3621]}},{"type":"Feature","properties":{"id":"bus-8-s50364","kind":"busstop","ref":"8","name":"Sağlık Ocağı","lines":["9","82","321","762"]},"geometry":{"type":"Point","coordinates":[26.8847,38.3602]}},{"type":"Feature","properties":{"id":"bus-8-s50372","kind":"busstop","ref":"8","name":"Stad","lines":["9","82","321","762"]},"geometry":{"type":"Point","coordinates":[26.8859,38.359]}}]}