{"type":"FeatureCollection","features":[{"type":"Feature","properties":{"id":"bus-800-1","kind":"busline","ref":"800","dir":1},"geometry":{"type":"LineString","coordinates":[[27.0764,38.6037],[27.0757,38.6036],[27.0769,38.6038],[27.0774,38.6041],[27.0776,38.6045],[27.0757,38.6062],[27.0733,38.6077],[27.0721,38.6088],[27.071,38.6094],[27.0716,38.6105],[27.0718,38.6114],[27.0727,38.612],[27.0733,38.6122],[27.0744,38.6109],[27.0779,38.6044],[27.0782,38.6037],[27.0782,38.6027],[27.074,38.5896],[27.0716,38.5844],[27.0709,38.5834],[27.07,38.5826],[27.0653,38.5791],[27.0593,38.573],[27.0575,38.5714],[27.0453,38.5613],[27.0418,38.5572],[27.0353,38.5465],[27.0348,38.5451],[27.0323,38.5341],[27.0306,38.5295],[27.0306,38.5275],[27.0315,38.5258],[27.0394,38.5192],[27.0415,38.5171],[27.0459,38.5111],[27.0473,38.5084],[27.0492,38.5062],[27.0502,38.5055],[27.0515,38.5042],[27.0533,38.5016],[27.0596,38.4963],[27.0618,38.4941],[27.0686,38.4899],[27.0712,38.4887],[27.082,38.485],[27.087,38.483],[27.0943,38.4786],[27.0961,38.4779],[27.0994,38.477],[27.102,38.4758],[27.1144,38.468],[27.1158,38.4675],[27.1181,38.4674],[27.1228,38.4685],[27.1254,38.4684],[27.1273,38.4677],[27.1294,38.4663],[27.1306,38.4658],[27.1332,38.4654],[27.1415,38.4649],[27.1437,38.4654],[27.1528,38.4683],[27.1548,38.4686],[27.1564,38.4685],[27.1588,38.4676],[27.1611,38.4659],[27.1619,38.4651],[27.1625,38.4641],[27.1632,38.4635],[27.1662,38.4579],[27.171,38.4486],[27.1714,38.4465],[27.1707,38.4446],[27.1708,38.4443],[27.1714,38.4439],[27.1722,38.4439],[27.1744,38.4453],[27.1758,38.4459],[27.1809,38.4477],[27.1813,38.448],[27.1886,38.4508],[27.1899,38.4509],[27.1907,38.4505],[27.1912,38.4506],[27.1916,38.451],[27.1917,38.4517],[27.1922,38.4521],[27.2014,38.4557],[27.2034,38.4563],[27.2049,38.4562],[27.2067,38.4566],[27.2112,38.4582],[27.2146,38.4583],[27.2146,38.4587],[27.2136,38.4585],[27.2139,38.4586]]}},{"type":"Feature","properties":{"id":"bus-800-2","kind":"busline","ref":"800","dir":2},"geometry":{"type":"LineString","coordinates":[[27.2139,38.4586],[27.2136,38.4585],[27.2146,38.4587],[27.2146,38.459],[27.2115,38.4587],[27.2106,38.4588],[27.2059,38.4577],[27.1814,38.4484],[27.1806,38.4483],[27.176,38.4462],[27.1744,38.4458],[27.1733,38.4458],[27.1723,38.4462],[27.172,38.4465],[27.169,38.4528],[27.1633,38.4637],[27.1627,38.4646],[27.161,38.4663],[27.1588,38.4678],[27.1565,38.4686],[27.1544,38.4687],[27.1518,38.4682],[27.1433,38.4654],[27.1415,38.465],[27.139,38.465],[27.1318,38.4657],[27.1297,38.4664],[27.1273,38.4678],[27.1258,38.4684],[27.1246,38.4686],[27.1218,38.4685],[27.1181,38.4675],[27.116,38.4676],[27.114,38.4684],[27.1014,38.4763],[27.098,38.4776],[27.0948,38.4785],[27.0874,38.483],[27.0825,38.485],[27.0716,38.4887],[27.068,38.4904],[27.0635,38.493],[27.062,38.4941],[27.0591,38.4969],[27.0539,38.5012],[27.0514,38.5045],[27.0502,38.5057],[27.0484,38.5071],[27.0476,38.5081],[27.0458,38.5116],[27.0442,38.5135],[27.0408,38.5183],[27.0378,38.5209],[27.033,38.5246],[27.0315,38.526],[27.0308,38.5273],[27.0307,38.5292],[27.0323,38.5336],[27.0346,38.5437],[27.0355,38.5466],[27.0418,38.5569],[27.0455,38.5612],[27.0593,38.5728],[27.0654,38.579],[27.0702,38.5826],[27.0716,38.5841],[27.0742,38.5897],[27.0751,38.5927],[27.0766,38.5962],[27.0763,38.5962],[27.0764,38.5966],[27.0784,38.6026],[27.0784,38.6036],[27.0778,38.6051],[27.0747,38.6107],[27.0734,38.6124],[27.0718,38.6114],[27.0716,38.6105],[27.071,38.6094],[27.0721,38.6088],[27.0733,38.6077],[27.0757,38.6062],[27.0773,38.6046],[27.0776,38.6045],[27.0774,38.6041],[27.0769,38.6038],[27.0757,38.6036],[27.0764,38.6037]]}},{"type":"Feature","properties":{"id":"bus-800-s23802","kind":"busstop","ref":"800","name":"Menemen Aktarma Merkezi","lines":["602"]},"geometry":{"type":"Point","coordinates":[27.07643,38.60375]}},{"type":"Feature","properties":{"id":"bus-800-s22390","kind":"busstop","ref":"800","name":"Menemen Şehir Parkı","lines":["602","648","657","658","747","748","749","753","755","756","758","759","868"]},"geometry":{"type":"Point","coordinates":[27.07398,38.60731]}},{"type":"Feature","properties":{"id":"bus-800-s22364","kind":"busstop","ref":"800","name":"Menemen Toplum Sağlığı Merkezi","lines":["602","648","657","658","747","748","749","753","755","756","758","759","868"]},"geometry":{"type":"Point","coordinates":[27.07127,38.60966]}},{"type":"Feature","properties":{"id":"bus-800-s22370","kind":"busstop","ref":"800","name":"Menemen Garaj Karşısı","lines":["602","648","657","658","747","748","749","753","755","756","758","759","868"]},"geometry":{"type":"Point","coordinates":[27.07181,38.6112]}},{"type":"Feature","properties":{"id":"bus-800-s24192","kind":"busstop","ref":"800","name":"Menemen Garaj","lines":["602","648","658","660","747","748","749","753","759","868"]},"geometry":{"type":"Point","coordinates":[27.07367,38.61168]}},{"type":"Feature","properties":{"id":"bus-800-s21418","kind":"busstop","ref":"800","name":"Menemen Üst Geçit","lines":["602","648","658","660","747","748","749","753","759","868"]},"geometry":{"type":"Point","coordinates":[27.07534,38.60892]}},{"type":"Feature","properties":{"id":"bus-800-s21416","kind":"busstop","ref":"800","name":"Menemen Jandarma","lines":["602","648","658","660","747","748","749","753","759","868"]},"geometry":{"type":"Point","coordinates":[27.0764,38.6069]}},{"type":"Feature","properties":{"id":"bus-800-s21414","kind":"busstop","ref":"800","name":"Son Direk","lines":["602","660"]},"geometry":{"type":"Point","coordinates":[27.07782,38.60168]}},{"type":"Feature","properties":{"id":"bus-800-s21412","kind":"busstop","ref":"800","name":"Asarlık Esat Paşa Mahallesi","lines":["602","660"]},"geometry":{"type":"Point","coordinates":[27.07635,38.59706]}},{"type":"Feature","properties":{"id":"bus-800-s21410","kind":"busstop","ref":"800","name":"Asarlık Mezarlık","lines":["602","660"]},"geometry":{"type":"Point","coordinates":[27.07411,38.59011]}},{"type":"Feature","properties":{"id":"bus-800-s21408","kind":"busstop","ref":"800","name":"Haldun Koşay Lisesi","lines":["602","648","660","749"]},"geometry":{"type":"Point","coordinates":[27.07251,38.58642]}},{"type":"Feature","properties":{"id":"bus-800-s21406","kind":"busstop","ref":"800","name":"Asarlık Giriş","lines":["602","648","660","749"]},"geometry":{"type":"Point","coordinates":[27.0693,38.58218]}},{"type":"Feature","properties":{"id":"bus-800-s23989","kind":"busstop","ref":"800","name":"Havacılık Lisesi","lines":["602","648","660","749"]},"geometry":{"type":"Point","coordinates":[27.06704,38.5805]}},{"type":"Feature","properties":{"id":"bus-800-s21404","kind":"busstop","ref":"800","name":"Koyundere İlkokulu","lines":["602","648","660","749"]},"geometry":{"type":"Point","coordinates":[27.06351,38.57735]}},{"type":"Feature","properties":{"id":"bus-800-s21402","kind":"busstop","ref":"800","name":"Koyundere","lines":["602","660","698","748","749"]},"geometry":{"type":"Point","coordinates":[27.0603,38.5741]}},{"type":"Feature","properties":{"id":"bus-800-s21400","kind":"busstop","ref":"800","name":"Tarımsal Araştırma","lines":["602","660","698","748","749"]},"geometry":{"type":"Point","coordinates":[27.0515,38.5665]}},{"type":"Feature","properties":{"id":"bus-800-s21398","kind":"busstop","ref":"800","name":"Bakım Merkezi","lines":["602","660","698","748","749"]},"geometry":{"type":"Point","coordinates":[27.04766,38.56336]}},{"type":"Feature","properties":{"id":"bus-800-s21396","kind":"busstop","ref":"800","name":"Üst Geçit","lines":["128","602","660","698","748","848"]},"geometry":{"type":"Point","coordinates":[27.04342,38.55949]}},{"type":"Feature","properties":{"id":"bus-800-s21394","kind":"busstop","ref":"800","name":"Ulukent Trafo","lines":["128","602","660","698","748","848"]},"geometry":{"type":"Point","coordinates":[27.0408,38.5558]}},{"type":"Feature","properties":{"id":"bus-800-s21392","kind":"busstop","ref":"800","name":"Ulukent Gar","lines":["128","428","602","660","695","749","826","827"]},"geometry":{"type":"Point","coordinates":[27.0351,38.5465]}},{"type":"Feature","properties":{"id":"bus-800-s21390","kind":"busstop","ref":"800","name":"Kargılar","lines":["128","428","602","660","695","749","826","827"]},"geometry":{"type":"Point","coordinates":[27.0346,38.5445]}},{"type":"Feature","properties":{"id":"bus-800-s21388","kind":"busstop","ref":"800","name":"Eski Yol","lines":["128","428","602","660","695","749","826","827"]},"geometry":{"type":"Point","coordinates":[27.03375,38.54088]}},{"type":"Feature","properties":{"id":"bus-800-s21420","kind":"busstop","ref":"800","name":"Astsubay Lojmanları","lines":["128","428","602","660"]},"geometry":{"type":"Point","coordinates":[27.03288,38.53707]}},{"type":"Feature","properties":{"id":"bus-800-s21382","kind":"busstop","ref":"800","name":"Subay Lojmanları","lines":["128","428","602","660"]},"geometry":{"type":"Point","coordinates":[27.03201,38.52514]}},{"type":"Feature","properties":{"id":"bus-800-s24681","kind":"busstop","ref":"800","name":"Ahmet Efendi","lines":["128","428","602","660"]},"geometry":{"type":"Point","coordinates":[27.03572,38.5221]}},{"type":"Feature","properties":{"id":"bus-800-s21344","kind":"busstop","ref":"800","name":"Jandarma","lines":["128","295","428","595","596","602","608","660","695","817","820","827","920"]},"geometry":{"type":"Point","coordinates":[27.0399,38.5187]}},{"type":"Feature","properties":{"id":"bus-800-s20098","kind":"busstop","ref":"800","name":"Eski Sinema","lines":["128","295","428","595","596","602","608","660","695","817","820","827","920"]},"geometry":{"type":"Point","coordinates":[27.0421,38.5161]}},{"type":"Feature","properties":{"id":"bus-800-s20096","kind":"busstop","ref":"800","name":"Balatçık Kahveler","lines":["128","295","346","428","595","596","602","608","660","695","810","816","817","820","827","853","912","920"]},"geometry":{"type":"Point","coordinates":[27.0452,38.5119]}},{"type":"Feature","properties":{"id":"bus-800-s20094","kind":"busstop","ref":"800","name":"Ata","lines":["428","446","535","595","602","608","660","820","827","912","920"]},"geometry":{"type":"Point","coordinates":[27.0495,38.5059]}},{"type":"Feature","properties":{"id":"bus-800-s20092","kind":"busstop","ref":"800","name":"Küçük Çiğli","lines":["428","446","535","595","602","608","660","820","827","912","920"]},"geometry":{"type":"Point","coordinates":[27.05217,38.50313]}},{"type":"Feature","properties":{"id":"bus-800-s20090","kind":"busstop","ref":"800","name":"Çiğli Santral","lines":["428","446","535","595","602","608","660","820","827","912","920"]},"geometry":{"type":"Point","coordinates":[27.05444,38.50045]}},{"type":"Feature","properties":{"id":"bus-800-s20088","kind":"busstop","ref":"800","name":"Çiğli Şaraphane","lines":["428","446","535","595","602","608","660","820","827","912","920"]},"geometry":{"type":"Point","coordinates":[27.05666,38.49866]}},{"type":"Feature","properties":{"id":"bus-800-s20086","kind":"busstop","ref":"800","name":"Çiğli Belediye","lines":["229","247","329","344","428","429","443","446","529","535","602","608","660","820","827","853","912","920"]},"geometry":{"type":"Point","coordinates":[27.0665,38.4911]}},{"type":"Feature","properties":{"id":"bus-800-s20084","kind":"busstop","ref":"800","name":"Eğitim Gönüllüleri","lines":["229","247","329","344","428","429","443","445","446","529","535","602","608","660","820","827","853","912","920"]},"geometry":{"type":"Point","coordinates":[27.069,38.4896]}},{"type":"Feature","properties":{"id":"bus-800-s20082","kind":"busstop","ref":"800","name":"Çiğli İtfaiye","lines":["229","247","329","344","428","429","443","445","446","529","535","602","608","660","820","827","853","912","920"]},"geometry":{"type":"Point","coordinates":[27.0726,38.4882]}},{"type":"Feature","properties":{"id":"bus-800-s20080","kind":"busstop","ref":"800","name":"15 Temmuz Şehitler Anadolu Lisesi","lines":["535","602","608","660","853","912","920"]},"geometry":{"type":"Point","coordinates":[27.0885,38.4821]}},{"type":"Feature","properties":{"id":"bus-800-s20078","kind":"busstop","ref":"800","name":"Ayyıldız","lines":["535","602","608","660","853","912","920"]},"geometry":{"type":"Point","coordinates":[27.0924,38.4796]}},{"type":"Feature","properties":{"id":"bus-800-s20074","kind":"busstop","ref":"800","name":"Karşıyaka Jandarma","lines":["535","602","608","660","853","912","920"]},"geometry":{"type":"Point","coordinates":[27.0947,38.4784]}},{"type":"Feature","properties":{"id":"bus-800-s20072","kind":"busstop","ref":"800","name":"Kayalar Mezarlığı","lines":["535","602","608","660","853","912","920"]},"geometry":{"type":"Point","coordinates":[27.0994,38.4769]}},{"type":"Feature","properties":{"id":"bus-800-s20070","kind":"busstop","ref":"800","name":"Serinkuyu","lines":["125","126","222","326","535","602","608","660","853","912","920"]},"geometry":{"type":"Point","coordinates":[27.1045,38.4741]}},{"type":"Feature","properties":{"id":"bus-800-s20068","kind":"busstop","ref":"800","name":"Dedebaşı","lines":["125","126","222","326","535","602","608","660","853","912","920"]},"geometry":{"type":"Point","coordinates":[27.1077,38.4722]}},{"type":"Feature","properties":{"id":"bus-800-s20066","kind":"busstop","ref":"800","name":"Soğukkuyu Trafik","lines":["77","78","125","140","147","148","240","426","434","577","602","608","660","912"]},"geometry":{"type":"Point","coordinates":[27.1179,38.4674]}},{"type":"Feature","properties":{"id":"bus-800-s20064","kind":"busstop","ref":"800","name":"Öztürk","lines":["77","78","125","140","147","148","240","426","434","577","602","608","660","912"]},"geometry":{"type":"Point","coordinates":[27.12228,38.46832]}},{"type":"Feature","properties":{"id":"bus-800-s20062","kind":"busstop","ref":"800","name":"Naldöken","lines":["77","78","125","140","147","148","240","335","426","434","477","577","602","608","660","912"]},"geometry":{"type":"Point","coordinates":[27.1297,38.4661]}},{"type":"Feature","properties":{"id":"bus-800-s20060","kind":"busstop","ref":"800","name":"Turan","lines":["77","78","121","125","140","147","148","200","213","240","290","330","335","426","434","477","543","577","602","608","660","912","920"]},"geometry":{"type":"Point","coordinates":[27.1503,38.4675]}},{"type":"Feature","properties":{"id":"bus-800-s20134","kind":"busstop","ref":"800","name":"Bayraklı Üst Geçit","lines":["102","121","200","213","290","330","501","502","504","543","602","608","660","662","912","920"]},"geometry":{"type":"Point","coordinates":[27.1625,38.4641]}},{"type":"Feature","properties":{"id":"bus-800-s30101","kind":"busstop","ref":"800","name":"Yeni Kent","lines":["290","602","608","660","963"]},"geometry":{"type":"Point","coordinates":[27.179,38.447]}},{"type":"Feature","properties":{"id":"bus-800-s32184","kind":"busstop","ref":"800","name":"Keresteciler ","lines":["290","602","608","660"]},"geometry":{"type":"Point","coordinates":[27.18275,38.44846]}},{"type":"Feature","properties":{"id":"bus-800-s32149","kind":"busstop","ref":"800","name":"Benzinlik","lines":["290","602","608","660"]},"geometry":{"type":"Point","coordinates":[27.18831,38.4506]}},{"type":"Feature","properties":{"id":"bus-800-s32155","kind":"busstop","ref":"800","name":"Narlıkuyu","lines":["290","602","608","660"]},"geometry":{"type":"Point","coordinates":[27.1933,38.4524]}},{"type":"Feature","properties":{"id":"bus-800-s32151","kind":"busstop","ref":"800","name":"Ankara Caddesi","lines":["290","602","608","660"]},"geometry":{"type":"Point","coordinates":[27.19708,38.45392]}},{"type":"Feature","properties":{"id":"bus-800-s32153","kind":"busstop","ref":"800","name":"Bölge İstasyonu","lines":["290"]},"geometry":{"type":"Point","coordinates":[27.2004,38.4552]}},{"type":"Feature","properties":{"id":"bus-800-s30255","kind":"busstop","ref":"800","name":"Ege Üniversitesi Hastanesi","lines":["119","204","290","390","558"]},"geometry":{"type":"Point","coordinates":[27.2098,38.4577]}},{"type":"Feature","properties":{"id":"bus-800-s30013","kind":"busstop","ref":"800","name":"Bornova Metro","lines":[]},"geometry":{"type":"Point","coordinates":[27.21464,38.45873]}},{"type":"Feature","properties":{"id":"bus-800-s32150","kind":"busstop","ref":"800","name":"Bölge İstasyonu","lines":["290","602","608","660"]},"geometry":{"type":"Point","coordinates":[27.2007,38.4558]}},{"type":"Feature","properties":{"id":"bus-800-s32152","kind":"busstop","ref":"800","name":"Ankara Caddesi","lines":["290","602","608","660"]},"geometry":{"type":"Point","coordinates":[27.1969,38.4543]}},{"type":"Feature","properties":{"id":"bus-800-s32154","kind":"busstop","ref":"800","name":"Narlıkuyu","lines":["290","602","608","660"]},"geometry":{"type":"Point","coordinates":[27.19266,38.45274]}},{"type":"Feature","properties":{"id":"bus-800-s30110","kind":"busstop","ref":"800","name":"Hayat Ağacı","lines":["168","290","602","608","660"]},"geometry":{"type":"Point","coordinates":[27.1883,38.4511]}},{"type":"Feature","properties":{"id":"bus-800-s30108","kind":"busstop","ref":"800","name":"Benzinlik","lines":["168","290","602","608","660"]},"geometry":{"type":"Point","coordinates":[27.1841,38.4495]}},{"type":"Feature","properties":{"id":"bus-800-s30102","kind":"busstop","ref":"800","name":"Yeni Kent","lines":["290","602","608","660","963"]},"geometry":{"type":"Point","coordinates":[27.1798,38.4478]}},{"type":"Feature","properties":{"id":"bus-800-s20135","kind":"busstop","ref":"800","name":"Bayraklı Üst Geçit","lines":["121","200","290","330","543","602","608","660","912","920"]},"geometry":{"type":"Point","coordinates":[27.1631,38.4641]}},{"type":"Feature","properties":{"id":"bus-800-s20137","kind":"busstop","ref":"800","name":"Nikah Salonu","lines":["121","200","290","330","543","602","608","660","912","920"]},"geometry":{"type":"Point","coordinates":[27.1606,38.4667]}},{"type":"Feature","properties":{"id":"bus-800-s20057","kind":"busstop","ref":"800","name":"Turan","lines":["77","78","121","125","140","147","148","200","240","290","330","335","426","434","477","543","577","602","608","660","912","920"]},"geometry":{"type":"Point","coordinates":[27.14939,38.46755]}},{"type":"Feature","properties":{"id":"bus-800-s20059","kind":"busstop","ref":"800","name":"Naldöken","lines":["77","78","125","140","147","148","240","426","434","577","602","608","660","912"]},"geometry":{"type":"Point","coordinates":[27.1293,38.4667]}},{"type":"Feature","properties":{"id":"bus-800-s20061","kind":"busstop","ref":"800","name":"Öztürk","lines":["77","78","125","140","147","148","240","426","434","577","602","608","660","912"]},"geometry":{"type":"Point","coordinates":[27.12101,38.46832]}},{"type":"Feature","properties":{"id":"bus-800-s20063","kind":"busstop","ref":"800","name":"Soğukkuyu Trafik","lines":["77","78","125","140","147","148","240","426","434","577","602","608","660","912"]},"geometry":{"type":"Point","coordinates":[27.1174,38.4675]}},{"type":"Feature","properties":{"id":"bus-800-s20065","kind":"busstop","ref":"800","name":"Dedebaşı","lines":["125","126","222","326","535","602","608","660","853","912","920"]},"geometry":{"type":"Point","coordinates":[27.1081,38.4722]}},{"type":"Feature","properties":{"id":"bus-800-s20067","kind":"busstop","ref":"800","name":"Ege Üniversitesi Karşıyaka Sağlık Yerleşkesi","lines":["125","126","222","326","535","602","608","660","853","912","920"]},"geometry":{"type":"Point","coordinates":[27.1063,38.4733]}},{"type":"Feature","properties":{"id":"bus-800-s20069","kind":"busstop","ref":"800","name":"Serin Kuyu","lines":["125","126","222","326","535","602","608","660","853","912","920"]},"geometry":{"type":"Point","coordinates":[27.10286,38.47545]}},{"type":"Feature","properties":{"id":"bus-800-s20071","kind":"busstop","ref":"800","name":"Kayalar Mezarlığı","lines":["535","602","608","660","853","912","920"]},"geometry":{"type":"Point","coordinates":[27.0993,38.4772]}},{"type":"Feature","properties":{"id":"bus-800-s20073","kind":"busstop","ref":"800","name":"Karşıyaka Jandarma","lines":["535","602","608","660","853","912","920"]},"geometry":{"type":"Point","coordinates":[27.0951,38.4785]}},{"type":"Feature","properties":{"id":"bus-800-s20077","kind":"busstop","ref":"800","name":"Ayyıldız","lines":["535","602","608","660","853","912","920"]},"geometry":{"type":"Point","coordinates":[27.09076,38.48105]}},{"type":"Feature","properties":{"id":"bus-800-s20079","kind":"busstop","ref":"800","name":"15 Temmuz Şehitler Anadolu Lisesi","lines":["535","602","608","660","853","912","920"]},"geometry":{"type":"Point","coordinates":[27.0875,38.483]}},{"type":"Feature","properties":{"id":"bus-800-s20081","kind":"busstop","ref":"800","name":"Çiğli İtfaiye","lines":["229","247","329","344","428","429","443","445","446","447","529","535","602","608","660","820","827","853","912","920"]},"geometry":{"type":"Point","coordinates":[27.0722,38.4885]}},{"type":"Feature","properties":{"id":"bus-800-s20083","kind":"busstop","ref":"800","name":"Eğitim Gönüllüleri","lines":["229","247","329","344","428","429","443","445","446","529","535","602","608","660","820","827","853","912","920"]},"geometry":{"type":"Point","coordinates":[27.0689,38.49]}},{"type":"Feature","properties":{"id":"bus-800-s20085","kind":"busstop","ref":"800","name":"Çiğli Belediye","lines":["229","247","329","344","428","429","443","446","529","535","602","608","660","820","827","853","912","920"]},"geometry":{"type":"Point","coordinates":[27.0663,38.4915]}},{"type":"Feature","properties":{"id":"bus-800-s20087","kind":"busstop","ref":"800","name":"Çiğli Şaraphane","lines":["428","446","535","595","602","608","660","820","827","912","920"]},"geometry":{"type":"Point","coordinates":[27.0573,38.4985]}},{"type":"Feature","properties":{"id":"bus-800-s20089","kind":"busstop","ref":"800","name":"Çiğli Santral","lines":["428","446","535","595","602","608","660","820","827","912","920"]},"geometry":{"type":"Point","coordinates":[27.05436,38.50091]}},{"type":"Feature","properties":{"id":"bus-800-s20091","kind":"busstop","ref":"800","name":"Küçük Çiğli","lines":["428","446","535","595","602","608","660","820","827","912","920"]},"geometry":{"type":"Point","coordinates":[27.05166,38.50436]}},{"type":"Feature","properties":{"id":"bus-800-s20093","kind":"busstop","ref":"800","name":"Ata","lines":["428","446","535","595","602","608","660","820","827","912","920"]},"geometry":{"type":"Point","coordinates":[27.05035,38.5056]}},{"type":"Feature","properties":{"id":"bus-800-s20095","kind":"busstop","ref":"800","name":"Balatçık Kahveler","lines":["128","295","428","595","596","602","608","660","695","820","827","920"]},"geometry":{"type":"Point","coordinates":[27.04487,38.51283]}},{"type":"Feature","properties":{"id":"bus-800-s20097","kind":"busstop","ref":"800","name":"Eski Sinema","lines":["128","295","428","595","596","602","608","660","695","817","820","827","920"]},"geometry":{"type":"Point","coordinates":[27.04262,38.51586]}},{"type":"Feature","properties":{"id":"bus-800-s21343","kind":"busstop","ref":"800","name":"Jandarma","lines":["128","295","428","595","596","602","608","660","695","817","820","827","920"]},"geometry":{"type":"Point","coordinates":[27.04059,38.51858]}},{"type":"Feature","properties":{"id":"bus-800-s24680","kind":"busstop","ref":"800","name":"Ahmet Efendi","lines":["128","428","602","660"]},"geometry":{"type":"Point","coordinates":[27.03638,38.52196]}},{"type":"Feature","properties":{"id":"bus-800-s21381","kind":"busstop","ref":"800","name":"Subay Lojmanları","lines":["128","428","602","660"]},"geometry":{"type":"Point","coordinates":[27.0326,38.5249]}},{"type":"Feature","properties":{"id":"bus-800-s21385","kind":"busstop","ref":"800","name":"Astsubay Lojmanları","lines":["128","428","602","660"]},"geometry":{"type":"Point","coordinates":[27.03315,38.53689]}},{"type":"Feature","properties":{"id":"bus-800-s21389","kind":"busstop","ref":"800","name":"Eski Yol","lines":["128","428","602","660","695","749","826","827"]},"geometry":{"type":"Point","coordinates":[27.034,38.5405]}},{"type":"Feature","properties":{"id":"bus-800-s21391","kind":"busstop","ref":"800","name":"Kargılar","lines":["128","428","602","660","695","749","826","827"]},"geometry":{"type":"Point","coordinates":[27.03475,38.54394]}},{"type":"Feature","properties":{"id":"bus-800-s21459","kind":"busstop","ref":"800","name":"Ulukent Gar","lines":["128","602","660","695","749","826","827"]},"geometry":{"type":"Point","coordinates":[27.03587,38.54695]}},{"type":"Feature","properties":{"id":"bus-800-s21393","kind":"busstop","ref":"800","name":"Jandarma Ormanı","lines":["128","602","660","698","748","848"]},"geometry":{"type":"Point","coordinates":[27.0394,38.5529]}},{"type":"Feature","properties":{"id":"bus-800-s21395","kind":"busstop","ref":"800","name":"Ulukent Trafo","lines":["128","602","660","698","748","848"]},"geometry":{"type":"Point","coordinates":[27.0413,38.5559]}},{"type":"Feature","properties":{"id":"bus-800-s21397","kind":"busstop","ref":"800","name":"Üst Geçit","lines":["128","602","660","698","748","848"]},"geometry":{"type":"Point","coordinates":[27.0428,38.558]}},{"type":"Feature","properties":{"id":"bus-800-s21399","kind":"busstop","ref":"800","name":"Egekent 2","lines":["128","602","660","698","748","848"]},"geometry":{"type":"Point","coordinates":[27.04443,38.55991]}},{"type":"Feature","properties":{"id":"bus-800-s21401","kind":"busstop","ref":"800","name":"Tarımsal Araştırma","lines":["602","660","698","748","749"]},"geometry":{"type":"Point","coordinates":[27.05219,38.56674]}},{"type":"Feature","properties":{"id":"bus-800-s21403","kind":"busstop","ref":"800","name":"Koyundere","lines":["602","660","698","748","749"]},"geometry":{"type":"Point","coordinates":[27.06011,38.57355]}},{"type":"Feature","properties":{"id":"bus-800-s21405","kind":"busstop","ref":"800","name":"Koyundere İlkokulu","lines":["602","660","749"]},"geometry":{"type":"Point","coordinates":[27.06367,38.5771]}},{"type":"Feature","properties":{"id":"bus-800-s23917","kind":"busstop","ref":"800","name":"Sedir","lines":["602","648","660","749"]},"geometry":{"type":"Point","coordinates":[27.06555,38.57901]}},{"type":"Feature","properties":{"id":"bus-800-s23988","kind":"busstop","ref":"800","name":"Havacılık Lisesi","lines":["602","648","660","749"]},"geometry":{"type":"Point","coordinates":[27.06742,38.58041]}},{"type":"Feature","properties":{"id":"bus-800-s21407","kind":"busstop","ref":"800","name":"Asarlık Giriş","lines":["602","648","660","749"]},"geometry":{"type":"Point","coordinates":[27.07049,38.58273]}},{"type":"Feature","properties":{"id":"bus-800-s21409","kind":"busstop","ref":"800","name":"Haldun Koşay Lisesi","lines":["602","648","660","749"]},"geometry":{"type":"Point","coordinates":[27.07308,38.58698]}},{"type":"Feature","properties":{"id":"bus-800-s21411","kind":"busstop","ref":"800","name":"Asarlık Mezarlık","lines":["602","660","749"]},"geometry":{"type":"Point","coordinates":[27.07479,38.591]}},{"type":"Feature","properties":{"id":"bus-800-s24456","kind":"busstop","ref":"800","name":"İsmet İnönü","lines":["602","660"]},"geometry":{"type":"Point","coordinates":[27.07561,38.59371]}},{"type":"Feature","properties":{"id":"bus-800-s21413","kind":"busstop","ref":"800","name":"Asarlık İnönü Mahallesi","lines":["602","660"]},"geometry":{"type":"Point","coordinates":[27.07676,38.59734]}},{"type":"Feature","properties":{"id":"bus-800-s21415","kind":"busstop","ref":"800","name":"Son Direk","lines":["602","660"]},"geometry":{"type":"Point","coordinates":[27.07833,38.60203]}},{"type":"Feature","properties":{"id":"bus-800-s21417","kind":"busstop","ref":"800","name":"Menemen Jandarma","lines":["602","648","658","660","747","748","749","753","759","868"]},"geometry":{"type":"Point","coordinates":[27.0767,38.6069]}},{"type":"Feature","properties":{"id":"bus-800-s21419","kind":"busstop","ref":"800","name":"Menemen Üst Geçit","lines":["602","648","658","660","747","748","749","753","759","868"]},"geometry":{"type":"Point","coordinates":[27.07585,38.6085]}},{"type":"Feature","properties":{"id":"bus-800-s23976","kind":"busstop","ref":"800","name":"Menemen Garaj","lines":["602","648","658","660","747","748","749","753","759","868"]},"geometry":{"type":"Point","coordinates":[27.07405,38.61176]}},{"type":"Feature","properties":{"id":"bus-800-s22371","kind":"busstop","ref":"800","name":"Menemen Garaj Karşısı","lines":["602","648","657","658","747","748","749","753","755","756","758","759","868"]},"geometry":{"type":"Point","coordinates":[27.07161,38.6109]}},{"type":"Feature","properties":{"id":"bus-800-s22365","kind":"busstop","ref":"800","name":"Menemen Toplum Sağlığı Merkezi","lines":["602","648","657","658","747","748","749","753","755","756","758","759","868"]},"geometry":{"type":"Point","coordinates":[27.07096,38.60949]}},{"type":"Feature","properties":{"id":"bus-800-s22391","kind":"busstop","ref":"800","name":"Menemen Şehir Parkı","lines":["602","648","657","658","747","748","749","753","755","756","758","759","868"]},"geometry":{"type":"Point","coordinates":[27.07391,38.60724]}}]}