{"type":"FeatureCollection","features":[{"type":"Feature","properties":{"id":"bus-804-1","kind":"busline","ref":"804","dir":1},"geometry":{"type":"LineString","coordinates":[[27.1131,38.246],[27.1169,38.2476],[27.1181,38.2479],[27.1213,38.2486],[27.1243,38.2487],[27.1247,38.2485],[27.1248,38.2469],[27.1252,38.2458],[27.1259,38.2448],[27.1266,38.2442],[27.1294,38.2428],[27.1317,38.2414],[27.1335,38.2408],[27.1341,38.2404],[27.1344,38.2405],[27.1349,38.2422],[27.1349,38.2429],[27.1347,38.2456],[27.1337,38.2478],[27.1337,38.2482],[27.134,38.2484],[27.1341,38.2488],[27.134,38.25],[27.1333,38.2516],[27.1321,38.2527],[27.131,38.2541],[27.1308,38.2558],[27.1319,38.256],[27.1343,38.2559],[27.1375,38.2554],[27.1382,38.255],[27.1383,38.2552],[27.1398,38.2558],[27.1416,38.2577],[27.1422,38.2581],[27.1456,38.2597],[27.1462,38.2609],[27.1466,38.2612],[27.1493,38.2616],[27.1535,38.2616],[27.1581,38.2629],[27.1629,38.2625],[27.1628,38.263],[27.1625,38.263],[27.1627,38.263]]}},{"type":"Feature","properties":{"id":"bus-804-2","kind":"busline","ref":"804","dir":2},"geometry":{"type":"LineString","coordinates":[[27.1627,38.2631],[27.1625,38.2631],[27.1626,38.2626],[27.1581,38.2629],[27.1535,38.2616],[27.1493,38.2616],[27.1466,38.2612],[27.1462,38.2609],[27.1456,38.2597],[27.1422,38.2581],[27.1416,38.2577],[27.1398,38.2558],[27.1386,38.2553],[27.1369,38.2554],[27.1333,38.256],[27.1308,38.2558],[27.131,38.2541],[27.133,38.2517],[27.1329,38.2511],[27.1326,38.2507],[27.133,38.2503],[27.133,38.2492],[27.1339,38.2483],[27.1337,38.2482],[27.1337,38.2478],[27.1346,38.2458],[27.1348,38.2419],[27.1345,38.2412],[27.1341,38.2409],[27.1323,38.2412],[27.1291,38.2431],[27.1271,38.244],[27.1261,38.2448],[27.1251,38.2463],[27.1249,38.2471],[27.125,38.2489],[27.1243,38.2487],[27.1224,38.2488],[27.1181,38.2479],[27.1169,38.2476],[27.1131,38.246]]}},{"type":"Feature","properties":{"id":"bus-804-s13130","kind":"busstop","ref":"804","name":"Dereköy","lines":["799","829"]},"geometry":{"type":"Point","coordinates":[27.1133,38.246]}},{"type":"Feature","properties":{"id":"bus-804-s13330","kind":"busstop","ref":"804","name":"Dereköy İlkokulu","lines":["799","829"]},"geometry":{"type":"Point","coordinates":[27.11602,38.24717]}},{"type":"Feature","properties":{"id":"bus-804-s13332","kind":"busstop","ref":"804","name":"İncir Fabrikası","lines":["789","799","829"]},"geometry":{"type":"Point","coordinates":[27.12097,38.24836]}},{"type":"Feature","properties":{"id":"bus-804-s13334","kind":"busstop","ref":"804","name":"Dereköy Kavşak","lines":["789","799","829"]},"geometry":{"type":"Point","coordinates":[27.1238,38.2486]}},{"type":"Feature","properties":{"id":"bus-804-s10933","kind":"busstop","ref":"804","name":"Menderes Nikah Sarayı","lines":["729","775","776","792","794","799"]},"geometry":{"type":"Point","coordinates":[27.1249,38.2464]}},{"type":"Feature","properties":{"id":"bus-804-s10943","kind":"busstop","ref":"804","name":"Seydiköy","lines":["729","775","776","792","794","799"]},"geometry":{"type":"Point","coordinates":[27.1259,38.2447]}},{"type":"Feature","properties":{"id":"bus-804-s10945","kind":"busstop","ref":"804","name":"Şehit Piyade Uzman Çavuş Ayhan Elmacı","lines":["729","775","776","792","794","799"]},"geometry":{"type":"Point","coordinates":[27.129,38.2429]}},{"type":"Feature","properties":{"id":"bus-804-s15572","kind":"busstop","ref":"804","name":"Menderes Düğün Salonu","lines":["799"]},"geometry":{"type":"Point","coordinates":[27.1349,38.24196]}},{"type":"Feature","properties":{"id":"bus-804-s15562","kind":"busstop","ref":"804","name":"Menderes SGK","lines":["508","707","799","814"]},"geometry":{"type":"Point","coordinates":[27.13477,38.24445]}},{"type":"Feature","properties":{"id":"bus-804-s10726","kind":"busstop","ref":"804","name":"Menderes Sanayi","lines":["508","707","799","814"]},"geometry":{"type":"Point","coordinates":[27.13376,38.24773]}},{"type":"Feature","properties":{"id":"bus-804-s10722","kind":"busstop","ref":"804","name":"Cüneytbey Cami","lines":["508","707","789","799","808","814","829"]},"geometry":{"type":"Point","coordinates":[27.134,38.25]}},{"type":"Feature","properties":{"id":"bus-804-s10720","kind":"busstop","ref":"804","name":"Menderes Belediyesi","lines":["508","707","789","799","808","814","829"]},"geometry":{"type":"Point","coordinates":[27.13417,38.25173]}},{"type":"Feature","properties":{"id":"bus-804-s10718","kind":"busstop","ref":"804","name":"Sümerbank","lines":["508","707","789","799","808","814","829"]},"geometry":{"type":"Point","coordinates":[27.1309,38.2546]}},{"type":"Feature","properties":{"id":"bus-804-s11253","kind":"busstop","ref":"804","name":"Menderes İnönü","lines":["707","729","775","776","789","792","794","799","829"]},"geometry":{"type":"Point","coordinates":[27.1318,38.2559]}},{"type":"Feature","properties":{"id":"bus-804-s11255","kind":"busstop","ref":"804","name":"Menderes Stadyum","lines":["707","729","775","776","789","792","794","799","829"]},"geometry":{"type":"Point","coordinates":[27.1367,38.2553]}},{"type":"Feature","properties":{"id":"bus-804-s11259","kind":"busstop","ref":"804","name":"Menderes Pazar Yeri","lines":["707","729","775","776","789","792","794","799","808","829"]},"geometry":{"type":"Point","coordinates":[27.13962,38.25558]}},{"type":"Feature","properties":{"id":"bus-804-s15536","kind":"busstop","ref":"804","name":"Fesleğen","lines":["707","729","775","776","789","792","794","799","808","829"]},"geometry":{"type":"Point","coordinates":[27.14161,38.2575]}},{"type":"Feature","properties":{"id":"bus-804-s11261","kind":"busstop","ref":"804","name":"Gölcükler Adnan Ocay Ortaokulu","lines":["707","729","775","776","789","792","794","799","808","829"]},"geometry":{"type":"Point","coordinates":[27.14452,38.2591]}},{"type":"Feature","properties":{"id":"bus-804-s11265","kind":"busstop","ref":"804","name":"Gölcükler Sera","lines":["707","729","775","776","789","792","794","799","808","814","829"]},"geometry":{"type":"Point","coordinates":[27.14759,38.26131]}},{"type":"Feature","properties":{"id":"bus-804-s11271","kind":"busstop","ref":"804","name":"Oğlananası Yol Ayrımı","lines":["707","729","775","776","789","792","794","799","808","814","829"]},"geometry":{"type":"Point","coordinates":[27.1519,38.2615]}},{"type":"Feature","properties":{"id":"bus-804-s11267","kind":"busstop","ref":"804","name":"Amber","lines":["707","729","775","776","789","792","794","799","808","814","829"]},"geometry":{"type":"Point","coordinates":[27.1563,38.2623]}},{"type":"Feature","properties":{"id":"bus-804-s13281","kind":"busstop","ref":"804","name":"Cumaovası Aktarma Merkezi","lines":["814"]},"geometry":{"type":"Point","coordinates":[27.16268,38.26307]}},{"type":"Feature","properties":{"id":"bus-804-s11266","kind":"busstop","ref":"804","name":"Amber","lines":["707","729","775","776","789","792","794","799","808","814","829"]},"geometry":{"type":"Point","coordinates":[27.1562,38.2624]}},{"type":"Feature","properties":{"id":"bus-804-s11270","kind":"busstop","ref":"804","name":"Oğlananası Yol Ayrımı","lines":["707","729","775","776","789","792","794","799","808","814","829"]},"geometry":{"type":"Point","coordinates":[27.15227,38.26153]}},{"type":"Feature","properties":{"id":"bus-804-s11264","kind":"busstop","ref":"804","name":"Gölcükler Sera","lines":["707","729","775","776","789","792","794","799","808","814","829"]},"geometry":{"type":"Point","coordinates":[27.14687,38.26131]}},{"type":"Feature","properties":{"id":"bus-804-s11260","kind":"busstop","ref":"804","name":"Gölcükler  Adnan Ocay Ortaokulu","lines":["707","729","775","776","789","792","794","799","808","829"]},"geometry":{"type":"Point","coordinates":[27.14409,38.25902]}},{"type":"Feature","properties":{"id":"bus-804-s15535","kind":"busstop","ref":"804","name":"Fesleğen","lines":["707","729","775","776","789","792","794","799","808","829"]},"geometry":{"type":"Point","coordinates":[27.14124,38.25737]}},{"type":"Feature","properties":{"id":"bus-804-s11258","kind":"busstop","ref":"804","name":"Menderes Pazar Yeri","lines":["707","729","775","776","789","792","794","799","808","829"]},"geometry":{"type":"Point","coordinates":[27.13905,38.25558]}},{"type":"Feature","properties":{"id":"bus-804-s11254","kind":"busstop","ref":"804","name":"Menderes Stadyum","lines":["707","729","775","776","789","792","794","799","829"]},"geometry":{"type":"Point","coordinates":[27.1362,38.2555]}},{"type":"Feature","properties":{"id":"bus-804-s11252","kind":"busstop","ref":"804","name":"Menderes İnönü","lines":["707","729","775","776","789","792","794","799","829"]},"geometry":{"type":"Point","coordinates":[27.1322,38.256]}},{"type":"Feature","properties":{"id":"bus-804-s10717","kind":"busstop","ref":"804","name":"Sümerbank","lines":["508","707","789","799","808","814","829"]},"geometry":{"type":"Point","coordinates":[27.1308,38.2544]}},{"type":"Feature","properties":{"id":"bus-804-s10719","kind":"busstop","ref":"804","name":"Menderes Belediyesi","lines":["508","707","789","799","808","814","829"]},"geometry":{"type":"Point","coordinates":[27.1325,38.2521]}},{"type":"Feature","properties":{"id":"bus-804-s10721","kind":"busstop","ref":"804","name":"Menderes Ziraat Odası","lines":["508","707","799","808","814","829"]},"geometry":{"type":"Point","coordinates":[27.13293,38.24956]}},{"type":"Feature","properties":{"id":"bus-804-s10703","kind":"busstop","ref":"804","name":"Menderes sanayi","lines":["508","707","799","808","814"]},"geometry":{"type":"Point","coordinates":[27.13361,38.24781]}},{"type":"Feature","properties":{"id":"bus-804-s15563","kind":"busstop","ref":"804","name":"Menderes SGK","lines":["508","707","799","808","814"]},"geometry":{"type":"Point","coordinates":[27.13453,38.24455]}},{"type":"Feature","properties":{"id":"bus-804-s15573","kind":"busstop","ref":"804","name":"Menderes Düğün Salonu","lines":["508","799","808","814"]},"geometry":{"type":"Point","coordinates":[27.13464,38.24186]}},{"type":"Feature","properties":{"id":"bus-804-s10946","kind":"busstop","ref":"804","name":"Şehit Piyade Uzman Çavuş Ayhan Elmacı","lines":["729","775","776","792","794","799"]},"geometry":{"type":"Point","coordinates":[27.1291,38.2431]}},{"type":"Feature","properties":{"id":"bus-804-s10944","kind":"busstop","ref":"804","name":"Seydiköy","lines":["729","775","776","792","794","799"]},"geometry":{"type":"Point","coordinates":[27.12665,38.24441]}},{"type":"Feature","properties":{"id":"bus-804-s10932","kind":"busstop","ref":"804","name":"Menderes Nikah Sarayı","lines":["729","775","776","792","794","799"]},"geometry":{"type":"Point","coordinates":[27.1254,38.2458]}},{"type":"Feature","properties":{"id":"bus-804-s13335","kind":"busstop","ref":"804","name":"Dereköy Kavşak","lines":["789","799","829"]},"geometry":{"type":"Point","coordinates":[27.12436,38.24882]}},{"type":"Feature","properties":{"id":"bus-804-s13333","kind":"busstop","ref":"804","name":"İncir Fabrikası","lines":["789","799","829"]},"geometry":{"type":"Point","coordinates":[27.12161,38.24871]}},{"type":"Feature","properties":{"id":"bus-804-s13329","kind":"busstop","ref":"804","name":"Dereköy İlkokulu","lines":["799","829"]},"geometry":{"type":"Point","coordinates":[27.11618,38.24744]}},{"type":"Feature","properties":{"id":"bus-804-s13331","kind":"busstop","ref":"804","name":"Dereköy","lines":["799","829"]},"geometry":{"type":"Point","coordinates":[27.1134,38.2461]}}]}