{"type":"FeatureCollection","features":[{"type":"Feature","properties":{"id":"bus-808-1","kind":"busline","ref":"808","dir":1},"geometry":{"type":"LineString","coordinates":[[27.1627,38.263],[27.1628,38.2629],[27.1625,38.263],[27.1626,38.2626],[27.1581,38.2629],[27.1535,38.2616],[27.1493,38.2616],[27.1464,38.2611],[27.1456,38.2597],[27.1422,38.2581],[27.1416,38.2577],[27.1398,38.2558],[27.1386,38.2553],[27.138,38.2553],[27.138,38.2547],[27.1377,38.2544],[27.1362,38.2535],[27.136,38.253],[27.1358,38.2502],[27.136,38.25],[27.136,38.2493],[27.1356,38.2482],[27.1348,38.2473],[27.1345,38.2465],[27.1343,38.2465],[27.134,38.2469],[27.1337,38.2478],[27.1337,38.2482],[27.134,38.2484],[27.1341,38.2488],[27.1338,38.2507],[27.1333,38.2516],[27.1321,38.2527],[27.1309,38.2544],[27.1309,38.2567],[27.1302,38.2595],[27.1301,38.2622],[27.1306,38.2625],[27.1318,38.2638],[27.1324,38.265],[27.133,38.2683],[27.1333,38.276],[27.1325,38.276],[27.1287,38.2768],[27.1235,38.2784],[27.1237,38.2787],[27.1243,38.279],[27.1246,38.2803],[27.1244,38.2807],[27.1247,38.2816],[27.1225,38.2826],[27.1217,38.2851],[27.1224,38.2862],[27.1264,38.2885],[27.1269,38.2898],[27.1285,38.2901],[27.1282,38.2908],[27.1295,38.2914],[27.132,38.29],[27.1331,38.2907],[27.1341,38.2892],[27.1342,38.2877],[27.1345,38.2875],[27.135,38.2875],[27.1364,38.2878],[27.137,38.2877],[27.1379,38.2901],[27.1388,38.2911],[27.1403,38.2913],[27.142,38.291],[27.1432,38.2913],[27.1435,38.2916],[27.1435,38.292],[27.1424,38.2925],[27.1416,38.2936],[27.1409,38.2961],[27.14,38.3019],[27.1403,38.3038],[27.1416,38.3058],[27.1422,38.3071],[27.1426,38.3086],[27.1425,38.313],[27.1415,38.3157],[27.139,38.3188],[27.1377,38.3211],[27.1373,38.3222],[27.1361,38.329],[27.1346,38.3333],[27.1343,38.3352],[27.1343,38.3354],[27.1361,38.3357],[27.1364,38.3355]]}},{"type":"Feature","properties":{"id":"bus-808-2","kind":"busline","ref":"808","dir":2},"geometry":{"type":"LineString","coordinates":[[27.1364,38.3355],[27.1362,38.3356],[27.1367,38.3353],[27.1366,38.3358],[27.1343,38.3354],[27.1341,38.336],[27.1341,38.337],[27.1334,38.3396],[27.1334,38.3432],[27.1325,38.3461],[27.1326,38.3468],[27.1332,38.3474],[27.1337,38.3473],[27.134,38.347],[27.134,38.3466],[27.1336,38.3463],[27.1316,38.3463],[27.1309,38.3466],[27.1308,38.3469],[27.1313,38.3475],[27.1319,38.3475],[27.1322,38.3473],[27.1324,38.3466],[27.1324,38.3455],[27.1333,38.3428],[27.1333,38.3395],[27.134,38.3349],[27.1347,38.3323],[27.1357,38.3298],[27.1369,38.323],[27.1384,38.3194],[27.1414,38.3155],[27.142,38.3133],[27.1424,38.3099],[27.1422,38.3078],[27.1414,38.3058],[27.1408,38.3053],[27.1408,38.3055],[27.1405,38.3054],[27.1406,38.3052],[27.1395,38.3026],[27.1391,38.3011],[27.1392,38.299],[27.1396,38.2986],[27.1404,38.2967],[27.1403,38.294],[27.1398,38.2928],[27.1382,38.2908],[27.1367,38.2879],[27.1345,38.2875],[27.1342,38.2877],[27.1341,38.2892],[27.1331,38.2907],[27.132,38.29],[27.1295,38.2914],[27.1282,38.2908],[27.1285,38.2901],[27.1269,38.2898],[27.1264,38.2885],[27.1224,38.2862],[27.1217,38.2851],[27.1225,38.2826],[27.1247,38.2816],[27.1244,38.2807],[27.1246,38.2803],[27.1243,38.279],[27.1237,38.2787],[27.1235,38.2784],[27.1283,38.2769],[27.1327,38.276],[27.1331,38.2757],[27.133,38.2697],[27.1323,38.2651],[27.1319,38.2642],[27.131,38.2631],[27.1297,38.2622],[27.1302,38.2612],[27.1302,38.2595],[27.1309,38.2567],[27.1309,38.2544],[27.1316,38.2533],[27.133,38.2517],[27.1329,38.2511],[27.1326,38.2507],[27.133,38.2503],[27.133,38.2492],[27.1339,38.2483],[27.1337,38.2482],[27.1337,38.2478],[27.1346,38.2458],[27.1348,38.2426],[27.1346,38.2414],[27.135,38.2413],[27.1362,38.2416],[27.135,38.2413],[27.1346,38.2414],[27.1349,38.2422],[27.1349,38.2429],[27.1347,38.2456],[27.1345,38.2462],[27.1348,38.2473],[27.1356,38.2482],[27.136,38.2493],[27.136,38.25],[27.1358,38.2502],[27.136,38.253],[27.1364,38.2537],[27.1377,38.2544],[27.1383,38.2552],[27.1398,38.2558],[27.1416,38.2577],[27.1422,38.2581],[27.1456,38.2597],[27.1462,38.2609],[27.1466,38.2612],[27.1493,38.2616],[27.1535,38.2616],[27.1581,38.2629],[27.1629,38.2625],[27.1628,38.2629],[27.1625,38.263],[27.1627,38.263]]}},{"type":"Feature","properties":{"id":"bus-808-s13280","kind":"busstop","ref":"808","name":"Cumaovası Aktarma Merkezi","lines":[]},"geometry":{"type":"Point","coordinates":[27.1627,38.26299]}},{"type":"Feature","properties":{"id":"bus-808-s11266","kind":"busstop","ref":"808","name":"Amber","lines":["707","729","775","776","789","792","794","799","804","814","829"]},"geometry":{"type":"Point","coordinates":[27.1562,38.2624]}},{"type":"Feature","properties":{"id":"bus-808-s11270","kind":"busstop","ref":"808","name":"Oğlananası Yol Ayrımı","lines":["707","729","775","776","789","792","794","799","804","814","829"]},"geometry":{"type":"Point","coordinates":[27.15227,38.26153]}},{"type":"Feature","properties":{"id":"bus-808-s11264","kind":"busstop","ref":"808","name":"Gölcükler Sera","lines":["707","729","775","776","789","792","794","799","804","814","829"]},"geometry":{"type":"Point","coordinates":[27.14687,38.26131]}},{"type":"Feature","properties":{"id":"bus-808-s11260","kind":"busstop","ref":"808","name":"Gölcükler  Adnan Ocay Ortaokulu","lines":["707","729","775","776","789","792","794","799","804","829"]},"geometry":{"type":"Point","coordinates":[27.14409,38.25902]}},{"type":"Feature","properties":{"id":"bus-808-s15535","kind":"busstop","ref":"808","name":"Fesleğen","lines":["707","729","775","776","789","792","794","799","804","829"]},"geometry":{"type":"Point","coordinates":[27.14124,38.25737]}},{"type":"Feature","properties":{"id":"bus-808-s11258","kind":"busstop","ref":"808","name":"Menderes Pazar Yeri","lines":["707","729","775","776","789","792","794","799","804","829"]},"geometry":{"type":"Point","coordinates":[27.13905,38.25558]}},{"type":"Feature","properties":{"id":"bus-808-s11268","kind":"busstop","ref":"808","name":"Gençlik Parkı","lines":[]},"geometry":{"type":"Point","coordinates":[27.13695,38.25405]}},{"type":"Feature","properties":{"id":"bus-808-s11262","kind":"busstop","ref":"808","name":"Doğan","lines":[]},"geometry":{"type":"Point","coordinates":[27.13582,38.25088]}},{"type":"Feature","properties":{"id":"bus-808-s11256","kind":"busstop","ref":"808","name":"Helvacı","lines":[]},"geometry":{"type":"Point","coordinates":[27.13531,38.248]}},{"type":"Feature","properties":{"id":"bus-808-s10703","kind":"busstop","ref":"808","name":"Menderes sanayi","lines":["508","707","799","804","814"]},"geometry":{"type":"Point","coordinates":[27.13361,38.24781]}},{"type":"Feature","properties":{"id":"bus-808-s10722","kind":"busstop","ref":"808","name":"Cüneytbey Cami","lines":["508","707","789","799","804","814","829"]},"geometry":{"type":"Point","coordinates":[27.134,38.25]}},{"type":"Feature","properties":{"id":"bus-808-s10720","kind":"busstop","ref":"808","name":"Menderes Belediyesi","lines":["508","707","789","799","804","814","829"]},"geometry":{"type":"Point","coordinates":[27.13417,38.25173]}},{"type":"Feature","properties":{"id":"bus-808-s10718","kind":"busstop","ref":"808","name":"Sümerbank","lines":["508","707","789","799","804","814","829"]},"geometry":{"type":"Point","coordinates":[27.1309,38.2546]}},{"type":"Feature","properties":{"id":"bus-808-s11250","kind":"busstop","ref":"808","name":"Menderes Sağlık Ocağı","lines":["508","729","775","776","792","794","814"]},"geometry":{"type":"Point","coordinates":[27.1308,38.2571]}},{"type":"Feature","properties":{"id":"bus-808-s10714","kind":"busstop","ref":"808","name":"Menderes Anadolu Lisesi","lines":["508","729","775","776","792","794","814"]},"geometry":{"type":"Point","coordinates":[27.13056,38.25831]}},{"type":"Feature","properties":{"id":"bus-808-s10712","kind":"busstop","ref":"808","name":"Menderes Park","lines":["508","729","775","776","792","794"]},"geometry":{"type":"Point","coordinates":[27.1303,38.261]}},{"type":"Feature","properties":{"id":"bus-808-s10704","kind":"busstop","ref":"808","name":"Dokuz Eylül","lines":["508"]},"geometry":{"type":"Point","coordinates":[27.13235,38.2647]}},{"type":"Feature","properties":{"id":"bus-808-s10700","kind":"busstop","ref":"808","name":"Zeytinlik","lines":["508"]},"geometry":{"type":"Point","coordinates":[27.13321,38.27037]}},{"type":"Feature","properties":{"id":"bus-808-s10758","kind":"busstop","ref":"808","name":"Görece Giriş","lines":[]},"geometry":{"type":"Point","coordinates":[27.12999,38.27651]}},{"type":"Feature","properties":{"id":"bus-808-s10756","kind":"busstop","ref":"808","name":"Görece Park","lines":[]},"geometry":{"type":"Point","coordinates":[27.12647,38.27754]}},{"type":"Feature","properties":{"id":"bus-808-s10748","kind":"busstop","ref":"808","name":"Görece Son Durak","lines":[]},"geometry":{"type":"Point","coordinates":[27.12395,38.27868]}},{"type":"Feature","properties":{"id":"bus-808-s16143","kind":"busstop","ref":"808","name":"Görece Zeytinlik","lines":[]},"geometry":{"type":"Point","coordinates":[27.12468,38.28129]}},{"type":"Feature","properties":{"id":"bus-808-s10746","kind":"busstop","ref":"808","name":"Görece Spor Salonu","lines":[]},"geometry":{"type":"Point","coordinates":[27.12231,38.28314]}},{"type":"Feature","properties":{"id":"bus-808-s10744","kind":"busstop","ref":"808","name":"Görece Sağlık Ocağı","lines":[]},"geometry":{"type":"Point","coordinates":[27.12287,38.28632]}},{"type":"Feature","properties":{"id":"bus-808-s10742","kind":"busstop","ref":"808","name":"Görece Cami","lines":[]},"geometry":{"type":"Point","coordinates":[27.12558,38.28775]}},{"type":"Feature","properties":{"id":"bus-808-s10740","kind":"busstop","ref":"808","name":"Görece Alışveriş Merkezi","lines":[]},"geometry":{"type":"Point","coordinates":[27.12721,38.28984]}},{"type":"Feature","properties":{"id":"bus-808-s10738","kind":"busstop","ref":"808","name":"Görece Trafo","lines":[]},"geometry":{"type":"Point","coordinates":[27.12996,38.29116]}},{"type":"Feature","properties":{"id":"bus-808-s10736","kind":"busstop","ref":"808","name":"Görece Muhtarlık","lines":[]},"geometry":{"type":"Point","coordinates":[27.13239,38.29008]}},{"type":"Feature","properties":{"id":"bus-808-s10734","kind":"busstop","ref":"808","name":"Fevzi Çakmak","lines":[]},"geometry":{"type":"Point","coordinates":[27.13404,38.28887]}},{"type":"Feature","properties":{"id":"bus-808-s10732","kind":"busstop","ref":"808","name":"Görece Çıkış","lines":[]},"geometry":{"type":"Point","coordinates":[27.13516,38.28749]}},{"type":"Feature","properties":{"id":"bus-808-s10708","kind":"busstop","ref":"808","name":"Kışlalı","lines":["508"]},"geometry":{"type":"Point","coordinates":[27.13794,38.29013]}},{"type":"Feature","properties":{"id":"bus-808-s10762","kind":"busstop","ref":"808","name":"Havalimanı","lines":["508","697","806","858"]},"geometry":{"type":"Point","coordinates":[27.1414,38.29481]}},{"type":"Feature","properties":{"id":"bus-808-s10676","kind":"busstop","ref":"808","name":"Seçkinler Sitesi","lines":["200","202","204","206","508","697","806","858"]},"geometry":{"type":"Point","coordinates":[27.1418,38.3061]}},{"type":"Feature","properties":{"id":"bus-808-s10674","kind":"busstop","ref":"808","name":"Emlak Bankası Evleri","lines":["200","202","204","206","508","697","806","858"]},"geometry":{"type":"Point","coordinates":[27.1426,38.3087]}},{"type":"Feature","properties":{"id":"bus-808-s10679","kind":"busstop","ref":"808","name":"Akçay","lines":["200","202","204","206","508","697","806","858"]},"geometry":{"type":"Point","coordinates":[27.14259,38.31087]}},{"type":"Feature","properties":{"id":"bus-808-s10670","kind":"busstop","ref":"808","name":"Gaziemir İlçe Emniyet","lines":["200","202","204","206","508","697","806","858","887"]},"geometry":{"type":"Point","coordinates":[27.1406,38.3169]}},{"type":"Feature","properties":{"id":"bus-808-s10668","kind":"busstop","ref":"808","name":"Kolej","lines":["200","202","204","206","508","697","806","858","887"]},"geometry":{"type":"Point","coordinates":[27.1379,38.3209]}},{"type":"Feature","properties":{"id":"bus-808-s10666","kind":"busstop","ref":"808","name":"Askeri Lojmanlar","lines":["200","202","204","206","508","697","806","858","887"]},"geometry":{"type":"Point","coordinates":[27.1371,38.3237]}},{"type":"Feature","properties":{"id":"bus-808-s10664","kind":"busstop","ref":"808","name":"Ulaştırma","lines":["152","200","202","204","206","353","508","510","691","697","806","858","887","891","910"]},"geometry":{"type":"Point","coordinates":[27.13592,38.32971]}},{"type":"Feature","properties":{"id":"bus-808-s10662","kind":"busstop","ref":"808","name":"Leylak","lines":["152","200","202","204","206","353","508","510","691","697","806","858","887","891","910"]},"geometry":{"type":"Point","coordinates":[27.1348,38.3331]}},{"type":"Feature","properties":{"id":"bus-808-s13164","kind":"busstop","ref":"808","name":"Esbaş","lines":["232","491","828"]},"geometry":{"type":"Point","coordinates":[27.13642,38.33546]}},{"type":"Feature","properties":{"id":"bus-808-s10660","kind":"busstop","ref":"808","name":"Ege Serbest Bölge","lines":["152","200","202","204","206","353","508","510","691","697","806","828","858","887","891","910"]},"geometry":{"type":"Point","coordinates":[27.134,38.3372]}},{"type":"Feature","properties":{"id":"bus-808-s10661","kind":"busstop","ref":"808","name":"Ege Serbest Bölge","lines":["152","200","202","204","206","353","508","510","691","697","806","858","887","891","910"]},"geometry":{"type":"Point","coordinates":[27.13378,38.33572]}},{"type":"Feature","properties":{"id":"bus-808-s10663","kind":"busstop","ref":"808","name":"Leylak","lines":["152","200","202","204","206","353","508","510","691","697","806","858","887","891","910"]},"geometry":{"type":"Point","coordinates":[27.1352,38.3309]}},{"type":"Feature","properties":{"id":"bus-808-s10665","kind":"busstop","ref":"808","name":"Ulaştırma","lines":["152","200","202","204","206","353","508","510","691","697","806","858","887","891","910"]},"geometry":{"type":"Point","coordinates":[27.136,38.3282]}},{"type":"Feature","properties":{"id":"bus-808-s10667","kind":"busstop","ref":"808","name":"Gaziemir Alt Geçidi","lines":["200","202","204","206","508","697","806","858","887"]},"geometry":{"type":"Point","coordinates":[27.1366,38.3247]}},{"type":"Feature","properties":{"id":"bus-808-s10669","kind":"busstop","ref":"808","name":"Kolej","lines":["200","202","204","206","508","697","806","858","887"]},"geometry":{"type":"Point","coordinates":[27.1376,38.3209]}},{"type":"Feature","properties":{"id":"bus-808-s10671","kind":"busstop","ref":"808","name":"Gaziemir İlçe Emniyet","lines":["200","202","204","206","508","697","806","858","887"]},"geometry":{"type":"Point","coordinates":[27.1404,38.3167]}},{"type":"Feature","properties":{"id":"bus-808-s10675","kind":"busstop","ref":"808","name":"Emlak Bankası Evleri","lines":["200","202","204","206","508","697","806","858"]},"geometry":{"type":"Point","coordinates":[27.14233,38.30909]}},{"type":"Feature","properties":{"id":"bus-808-s10677","kind":"busstop","ref":"808","name":"Seçkinler Sitesi","lines":["200","202","204","206","508","697","806","858"]},"geometry":{"type":"Point","coordinates":[27.1415,38.3061]}},{"type":"Feature","properties":{"id":"bus-808-s10909","kind":"busstop","ref":"808","name":"Tasiş Ambar","lines":["200","508"]},"geometry":{"type":"Point","coordinates":[27.13915,38.30181]}},{"type":"Feature","properties":{"id":"bus-808-s10687","kind":"busstop","ref":"808","name":"Havalimanı","lines":["508"]},"geometry":{"type":"Point","coordinates":[27.14036,38.29537]}},{"type":"Feature","properties":{"id":"bus-808-s10707","kind":"busstop","ref":"808","name":"Kışlalı","lines":["508"]},"geometry":{"type":"Point","coordinates":[27.1377,38.29]}},{"type":"Feature","properties":{"id":"bus-808-s10731","kind":"busstop","ref":"808","name":"Görece Çıkış","lines":[]},"geometry":{"type":"Point","coordinates":[27.13577,38.28779]}},{"type":"Feature","properties":{"id":"bus-808-s10733","kind":"busstop","ref":"808","name":"Fevzi Çakmak","lines":[]},"geometry":{"type":"Point","coordinates":[27.13416,38.28887]}},{"type":"Feature","properties":{"id":"bus-808-s10735","kind":"busstop","ref":"808","name":"Görece Muhtarlık","lines":[]},"geometry":{"type":"Point","coordinates":[27.13274,38.29049]}},{"type":"Feature","properties":{"id":"bus-808-s10737","kind":"busstop","ref":"808","name":"Görece Trafo","lines":[]},"geometry":{"type":"Point","coordinates":[27.13,38.29121]}},{"type":"Feature","properties":{"id":"bus-808-s10739","kind":"busstop","ref":"808","name":"Görece Alışveriş Merkezi","lines":[]},"geometry":{"type":"Point","coordinates":[27.12754,38.28995]}},{"type":"Feature","properties":{"id":"bus-808-s10741","kind":"busstop","ref":"808","name":"Görece Cami","lines":[]},"geometry":{"type":"Point","coordinates":[27.1255,38.28798]}},{"type":"Feature","properties":{"id":"bus-808-s10743","kind":"busstop","ref":"808","name":"Görece Sağlık Ocağı","lines":[]},"geometry":{"type":"Point","coordinates":[27.12268,38.28645]}},{"type":"Feature","properties":{"id":"bus-808-s10745","kind":"busstop","ref":"808","name":"Görece Spor Salonu","lines":[]},"geometry":{"type":"Point","coordinates":[27.12219,38.28311]}},{"type":"Feature","properties":{"id":"bus-808-s16144","kind":"busstop","ref":"808","name":"Görece Zeytinlik","lines":[]},"geometry":{"type":"Point","coordinates":[27.12455,38.28125]}},{"type":"Feature","properties":{"id":"bus-808-s10747","kind":"busstop","ref":"808","name":"Görece Son Durak","lines":[]},"geometry":{"type":"Point","coordinates":[27.12394,38.27872]}},{"type":"Feature","properties":{"id":"bus-808-s10755","kind":"busstop","ref":"808","name":"Görece Park","lines":[]},"geometry":{"type":"Point","coordinates":[27.12599,38.27756]}},{"type":"Feature","properties":{"id":"bus-808-s10757","kind":"busstop","ref":"808","name":"Görece Giriş","lines":[]},"geometry":{"type":"Point","coordinates":[27.12981,38.27647]}},{"type":"Feature","properties":{"id":"bus-808-s10695","kind":"busstop","ref":"808","name":"Görece Fidanlık","lines":["508"]},"geometry":{"type":"Point","coordinates":[27.13296,38.27387]}},{"type":"Feature","properties":{"id":"bus-808-s10701","kind":"busstop","ref":"808","name":"Dokuz Eylül","lines":["508"]},"geometry":{"type":"Point","coordinates":[27.13201,38.26473]}},{"type":"Feature","properties":{"id":"bus-808-s10711","kind":"busstop","ref":"808","name":"Menderes Park","lines":["508","729","775","776","792","794"]},"geometry":{"type":"Point","coordinates":[27.13015,38.26047]}},{"type":"Feature","properties":{"id":"bus-808-s10713","kind":"busstop","ref":"808","name":"Menderes Anadolu Lisesi","lines":["508","729","775","776","792","794","814"]},"geometry":{"type":"Point","coordinates":[27.1303,38.2589]}},{"type":"Feature","properties":{"id":"bus-808-s10715","kind":"busstop","ref":"808","name":"Menderes Sağlık Ocağı","lines":["508","729","775","776","792","794","814"]},"geometry":{"type":"Point","coordinates":[27.1307,38.2569]}},{"type":"Feature","properties":{"id":"bus-808-s10717","kind":"busstop","ref":"808","name":"Sümerbank","lines":["508","707","789","799","804","814","829"]},"geometry":{"type":"Point","coordinates":[27.1308,38.2544]}},{"type":"Feature","properties":{"id":"bus-808-s10719","kind":"busstop","ref":"808","name":"Menderes Belediyesi","lines":["508","707","789","799","804","814","829"]},"geometry":{"type":"Point","coordinates":[27.1325,38.2521]}},{"type":"Feature","properties":{"id":"bus-808-s10721","kind":"busstop","ref":"808","name":"Menderes Ziraat Odası","lines":["508","707","799","804","814","829"]},"geometry":{"type":"Point","coordinates":[27.13293,38.24956]}},{"type":"Feature","properties":{"id":"bus-808-s15563","kind":"busstop","ref":"808","name":"Menderes SGK","lines":["508","707","799","804","814"]},"geometry":{"type":"Point","coordinates":[27.13453,38.24455]}},{"type":"Feature","properties":{"id":"bus-808-s15573","kind":"busstop","ref":"808","name":"Menderes Düğün Salonu","lines":["508","799","804","814"]},"geometry":{"type":"Point","coordinates":[27.13464,38.24186]}},{"type":"Feature","properties":{"id":"bus-808-s15564","kind":"busstop","ref":"808","name":"Menderes Son Durak","lines":["508","707","799","814"]},"geometry":{"type":"Point","coordinates":[27.13596,38.24148]}},{"type":"Feature","properties":{"id":"bus-808-s11257","kind":"busstop","ref":"808","name":"Helvacı","lines":[]},"geometry":{"type":"Point","coordinates":[27.13548,38.24806]}},{"type":"Feature","properties":{"id":"bus-808-s11263","kind":"busstop","ref":"808","name":"Doğan","lines":[]},"geometry":{"type":"Point","coordinates":[27.13587,38.2508]}},{"type":"Feature","properties":{"id":"bus-808-s11269","kind":"busstop","ref":"808","name":"Gençlik Parkı","lines":[]},"geometry":{"type":"Point","coordinates":[27.13701,38.25399]}},{"type":"Feature","properties":{"id":"bus-808-s11259","kind":"busstop","ref":"808","name":"Menderes Pazar Yeri","lines":["707","729","775","776","789","792","794","799","804","829"]},"geometry":{"type":"Point","coordinates":[27.13962,38.25558]}},{"type":"Feature","properties":{"id":"bus-808-s15536","kind":"busstop","ref":"808","name":"Fesleğen","lines":["707","729","775","776","789","792","794","799","804","829"]},"geometry":{"type":"Point","coordinates":[27.14161,38.2575]}},{"type":"Feature","properties":{"id":"bus-808-s11261","kind":"busstop","ref":"808","name":"Gölcükler Adnan Ocay Ortaokulu","lines":["707","729","775","776","789","792","794","799","804","829"]},"geometry":{"type":"Point","coordinates":[27.14452,38.2591]}},{"type":"Feature","properties":{"id":"bus-808-s11265","kind":"busstop","ref":"808","name":"Gölcükler Sera","lines":["707","729","775","776","789","792","794","799","804","814","829"]},"geometry":{"type":"Point","coordinates":[27.14759,38.26131]}},{"type":"Feature","properties":{"id":"bus-808-s11271","kind":"busstop","ref":"808","name":"Oğlananası Yol Ayrımı","lines":["707","729","775","776","789","792","794","799","804","814","829"]},"geometry":{"type":"Point","coordinates":[27.1519,38.2615]}},{"type":"Feature","properties":{"id":"bus-808-s11267","kind":"busstop","ref":"808","name":"Amber","lines":["707","729","775","776","789","792","794","799","804","814","829"]},"geometry":{"type":"Point","coordinates":[27.1563,38.2623]}}]}