{"type":"FeatureCollection","features":[{"type":"Feature","properties":{"id":"bus-811-1","kind":"busline","ref":"811","dir":1},"geometry":{"type":"LineString","coordinates":[[27.0665,38.4059],[27.0647,38.4058],[27.0646,38.4056],[27.066,38.4058],[27.0671,38.4056],[27.0701,38.4041],[27.0707,38.4032],[27.0714,38.4033],[27.0722,38.4031],[27.0746,38.4015],[27.0771,38.4005],[27.0802,38.4002],[27.0819,38.3997],[27.0853,38.3983],[27.0869,38.3983],[27.0887,38.3987],[27.0906,38.3995],[27.0913,38.4],[27.0929,38.4018],[27.0949,38.4026],[27.0955,38.403],[27.0973,38.4049],[27.0992,38.4062],[27.1002,38.4066],[27.1043,38.4078],[27.1069,38.408],[27.1082,38.4083],[27.1101,38.4094],[27.1114,38.4098],[27.1158,38.4098],[27.1185,38.4102],[27.1194,38.4105],[27.1207,38.4099],[27.1219,38.4115],[27.122,38.4128],[27.1231,38.4141],[27.1239,38.4146],[27.1255,38.4149],[27.127,38.4155]]}},{"type":"Feature","properties":{"id":"bus-811-2","kind":"busline","ref":"811","dir":2},"geometry":{"type":"LineString","coordinates":[[27.127,38.4155],[27.1265,38.4153],[27.1272,38.4157],[27.1268,38.4159],[27.1267,38.4156],[27.126,38.4151],[27.1239,38.4146],[27.1231,38.4141],[27.1225,38.4146],[27.1236,38.4155],[27.1266,38.4174],[27.1278,38.419],[27.1286,38.4208],[27.1312,38.4225],[27.1431,38.4225],[27.1433,38.4227],[27.1433,38.424],[27.1426,38.4244],[27.1413,38.4278],[27.1418,38.4299],[27.1432,38.4318],[27.1483,38.4306],[27.1488,38.4304],[27.1492,38.4298],[27.1497,38.4288],[27.1497,38.4281],[27.1491,38.4271],[27.1472,38.4256],[27.1474,38.4247],[27.1471,38.4244],[27.1436,38.4239],[27.1431,38.4241],[27.142,38.4239],[27.1376,38.4242],[27.1376,38.4226],[27.1369,38.4204],[27.1367,38.4179],[27.1355,38.4166],[27.1342,38.4143],[27.1334,38.4135],[27.132,38.413],[27.1305,38.4118],[27.1281,38.4105],[27.127,38.4089],[27.1261,38.4083],[27.1235,38.4069],[27.1212,38.406],[27.1167,38.4033],[27.1139,38.4024],[27.1083,38.4015],[27.1036,38.4015],[27.1005,38.4017],[27.0994,38.4014],[27.0977,38.3998],[27.0952,38.3986],[27.0944,38.3976],[27.0943,38.3967],[27.0937,38.3958],[27.0888,38.3941],[27.0876,38.3932],[27.0854,38.3932],[27.0786,38.394],[27.0737,38.396],[27.0708,38.3968],[27.0705,38.397],[27.0703,38.3976],[27.062,38.3967],[27.0606,38.3961],[27.0576,38.3956],[27.0571,38.3952],[27.0537,38.3942],[27.0476,38.3944],[27.0426,38.3942],[27.041,38.3944],[27.0381,38.3944],[27.0378,38.3947],[27.0356,38.4068],[27.0359,38.4076],[27.0359,38.4086],[27.0385,38.4086],[27.0426,38.4084],[27.0447,38.408],[27.0496,38.4067],[27.0523,38.4054],[27.0533,38.4052],[27.058,38.4053],[27.0581,38.4055],[27.0629,38.4055],[27.0662,38.406],[27.0665,38.4059]]}},{"type":"Feature","properties":{"id":"bus-811-s50185","kind":"busstop","ref":"811","name":"Engelliler Eğitim Merkezi","lines":["486"]},"geometry":{"type":"Point","coordinates":[27.06652,38.40594]}},{"type":"Feature","properties":{"id":"bus-811-s50184","kind":"busstop","ref":"811","name":"Engelliler Eğitim Merkezi","lines":["486"]},"geometry":{"type":"Point","coordinates":[27.0669,38.4056]}},{"type":"Feature","properties":{"id":"bus-811-s10148","kind":"busstop","ref":"811","name":"Karataş Anadolu Lisesi","lines":["10","35","36","121","253","302","838","951"]},"geometry":{"type":"Point","coordinates":[27.12146,38.41078]}},{"type":"Feature","properties":{"id":"bus-811-s10146","kind":"busstop","ref":"811","name":"Kız Lisesi","lines":["10","35","36","121","253","302","838","951"]},"geometry":{"type":"Point","coordinates":[27.1223,38.4132]}},{"type":"Feature","properties":{"id":"bus-811-s10019","kind":"busstop","ref":"811","name":"Bahribaba","lines":["121","253"]},"geometry":{"type":"Point","coordinates":[27.12705,38.41547]}},{"type":"Feature","properties":{"id":"bus-811-s10103","kind":"busstop","ref":"811","name":"Belediye Sarayı","lines":["18","19","20","36","121","202","253","302","466","838","910","920","930","940","950"]},"geometry":{"type":"Point","coordinates":[27.1297,38.4214]}},{"type":"Feature","properties":{"id":"bus-811-s10117","kind":"busstop","ref":"811","name":"Hisarönü","lines":["23","35","930","940","951"]},"geometry":{"type":"Point","coordinates":[27.1323,38.4224]}},{"type":"Feature","properties":{"id":"bus-811-s10119","kind":"busstop","ref":"811","name":"Kavaflar","lines":["72","104","105","171","285","374","465","471","484","485"]},"geometry":{"type":"Point","coordinates":[27.1365,38.4224]}},{"type":"Feature","properties":{"id":"bus-811-s10121","kind":"busstop","ref":"811","name":"Çankaya","lines":["41","42","44","45","46","234","302","951"]},"geometry":{"type":"Point","coordinates":[27.13935,38.42242]}},{"type":"Feature","properties":{"id":"bus-811-s10123","kind":"busstop","ref":"811","name":"Basmane Ptt","lines":["34","35","36","39","466","838"]},"geometry":{"type":"Point","coordinates":[27.1415,38.4224]}},{"type":"Feature","properties":{"id":"bus-811-s10353","kind":"busstop","ref":"811","name":"Kültürpark","lines":["49"]},"geometry":{"type":"Point","coordinates":[27.14167,38.42695]}},{"type":"Feature","properties":{"id":"bus-811-s10324","kind":"busstop","ref":"811","name":"Montrö","lines":["680","951"]},"geometry":{"type":"Point","coordinates":[27.14165,38.42926]}},{"type":"Feature","properties":{"id":"bus-811-s10327","kind":"busstop","ref":"811","name":"Lozan","lines":["951"]},"geometry":{"type":"Point","coordinates":[27.1426,38.431]}},{"type":"Feature","properties":{"id":"bus-811-s10390","kind":"busstop","ref":"811","name":"26 Ağustos Kapısı","lines":["951"]},"geometry":{"type":"Point","coordinates":[27.14556,38.43116]}},{"type":"Feature","properties":{"id":"bus-811-s10388","kind":"busstop","ref":"811","name":"Mimar Sinan","lines":["951"]},"geometry":{"type":"Point","coordinates":[27.14862,38.43033]}},{"type":"Feature","properties":{"id":"bus-811-s10386","kind":"busstop","ref":"811","name":"Dispanser","lines":["951"]},"geometry":{"type":"Point","coordinates":[27.14947,38.42771]}},{"type":"Feature","properties":{"id":"bus-811-s10384","kind":"busstop","ref":"811","name":"Çayırlı Bahçe","lines":["951"]},"geometry":{"type":"Point","coordinates":[27.14748,38.42588]}},{"type":"Feature","properties":{"id":"bus-811-s10350","kind":"busstop","ref":"811","name":"Mürsel Paşa","lines":["951"]},"geometry":{"type":"Point","coordinates":[27.1455,38.4242]}},{"type":"Feature","properties":{"id":"bus-811-s50193","kind":"busstop","ref":"811","name":"İnciraltı Bakü Bulvarı","lines":["486"]},"geometry":{"type":"Point","coordinates":[27.0585,38.4055]}},{"type":"Feature","properties":{"id":"bus-811-s10128","kind":"busstop","ref":"811","name":"Çardak","lines":["35","36","302","466","838","951"]},"geometry":{"type":"Point","coordinates":[27.14071,38.42408]}},{"type":"Feature","properties":{"id":"bus-811-s10211","kind":"busstop","ref":"811","name":"Çankaya","lines":["691","940","950"]},"geometry":{"type":"Point","coordinates":[27.13756,38.42352]}},{"type":"Feature","properties":{"id":"bus-811-s10225","kind":"busstop","ref":"811","name":"Mezarlıkbaşı","lines":["18","19","20"]},"geometry":{"type":"Point","coordinates":[27.1371,38.421]}},{"type":"Feature","properties":{"id":"bus-811-s10231","kind":"busstop","ref":"811","name":"Kestelli","lines":["18","19","20","23","72","104","105","171","234","285","374","465","470","471","484","485","680","681","691","910","940","950"]},"geometry":{"type":"Point","coordinates":[27.1348,38.4156]}},{"type":"Feature","properties":{"id":"bus-811-s10233","kind":"busstop","ref":"811","name":"Koruluk","lines":["18","19","20","681"]},"geometry":{"type":"Point","coordinates":[27.1313,38.4125]}},{"type":"Feature","properties":{"id":"bus-811-s10247","kind":"busstop","ref":"811","name":"Bayramyeri","lines":["15","18","19","20","152","157","508","550","587","588","681","887","910","950"]},"geometry":{"type":"Point","coordinates":[27.1267,38.4088]}},{"type":"Feature","properties":{"id":"bus-811-s10251","kind":"busstop","ref":"811","name":"Altıntaş","lines":["15","18","19","20","152","157","508","550","587","588","681","887","910","950"]},"geometry":{"type":"Point","coordinates":[27.1241,38.4073]}},{"type":"Feature","properties":{"id":"bus-811-s10257","kind":"busstop","ref":"811","name":"İzmir Spor","lines":["15","20","520","575","681","950"]},"geometry":{"type":"Point","coordinates":[27.1194,38.4049]}},{"type":"Feature","properties":{"id":"bus-811-s10259","kind":"busstop","ref":"811","name":"Şoförler Lokali","lines":["15","681","950"]},"geometry":{"type":"Point","coordinates":[27.11432,38.40254]}},{"type":"Feature","properties":{"id":"bus-811-s10285","kind":"busstop","ref":"811","name":"Hatay Çeşme","lines":["15","681","950"]},"geometry":{"type":"Point","coordinates":[27.1094,38.4017]}},{"type":"Feature","properties":{"id":"bus-811-s10287","kind":"busstop","ref":"811","name":"Nokta","lines":["681","950"]},"geometry":{"type":"Point","coordinates":[27.1049,38.4015]}},{"type":"Feature","properties":{"id":"bus-811-s10271","kind":"busstop","ref":"811","name":"Hakimevleri","lines":["681","950"]},"geometry":{"type":"Point","coordinates":[27.0988,38.4012]}},{"type":"Feature","properties":{"id":"bus-811-s10273","kind":"busstop","ref":"811","name":"Susuz Dede","lines":["681","950"]},"geometry":{"type":"Point","coordinates":[27.0948,38.3982]}},{"type":"Feature","properties":{"id":"bus-811-s10275","kind":"busstop","ref":"811","name":"Amerikan Koleji","lines":["681","950"]},"geometry":{"type":"Point","coordinates":[27.0912,38.3949]}},{"type":"Feature","properties":{"id":"bus-811-s10289","kind":"busstop","ref":"811","name":"Hıfzıssıhha","lines":["517","681","879","950"]},"geometry":{"type":"Point","coordinates":[27.08585,38.39319]}},{"type":"Feature","properties":{"id":"bus-811-s10281","kind":"busstop","ref":"811","name":"Denizmen","lines":["517","681","879","950"]},"geometry":{"type":"Point","coordinates":[27.08065,38.39378]}},{"type":"Feature","properties":{"id":"bus-811-s10283","kind":"busstop","ref":"811","name":"Göztepe Stadı","lines":["517","681","879","950"]},"geometry":{"type":"Point","coordinates":[27.0761,38.3951]}},{"type":"Feature","properties":{"id":"bus-811-s10135","kind":"busstop","ref":"811","name":"Fahrettin Altay Meydan 6","lines":["517","681","879","950"]},"geometry":{"type":"Point","coordinates":[27.07153,38.39665]}},{"type":"Feature","properties":{"id":"bus-811-s50007","kind":"busstop","ref":"811","name":"Fahrettin Altay Meydan 2","lines":["5","6","7","24","25","202","311","480","510","551","650","950","977"]},"geometry":{"type":"Point","coordinates":[27.06869,38.39752]}},{"type":"Feature","properties":{"id":"bus-811-s50011","kind":"busstop","ref":"811","name":"Balçova İstasyon","lines":["5","6","7","8","82","305","311","321","481","510","650","909","971","975","981","982","983","984","985","987"]},"geometry":{"type":"Point","coordinates":[27.05601,38.39495]}},{"type":"Feature","properties":{"id":"bus-811-s50013","kind":"busstop","ref":"811","name":"Molla Kuyusu","lines":["5","6","7","8","82","305","311","321","510","650","909","971","975","981","982","983","984","985","987"]},"geometry":{"type":"Point","coordinates":[27.0515,38.3942]}},{"type":"Feature","properties":{"id":"bus-811-s50015","kind":"busstop","ref":"811","name":"İş Bankası Evleri","lines":["5","6","7","8","82","305","311","321","510","909","971","975","981","982","983","984","985","987"]},"geometry":{"type":"Point","coordinates":[27.04861,38.39441]}},{"type":"Feature","properties":{"id":"bus-811-s50017","kind":"busstop","ref":"811","name":"Çağdaş İstasyon","lines":["5","6","7","8","82","305","311","321","510","650","909","971","975","981","982","983","984","985","987"]},"geometry":{"type":"Point","coordinates":[27.04563,38.39437]}},{"type":"Feature","properties":{"id":"bus-811-s50019","kind":"busstop","ref":"811","name":"Hoca","lines":["5","6","7","8","82","305","311","321","510","650","909","971","975","981","982","983","984","985","987"]},"geometry":{"type":"Point","coordinates":[27.0424,38.3943]}},{"type":"Feature","properties":{"id":"bus-811-s50021","kind":"busstop","ref":"811","name":"Dokuz Eylül Hastanesi İstasyon","lines":["5","6","7","8","82","305","311","321","650","909","971","975","981","982","983","984","985","987"]},"geometry":{"type":"Point","coordinates":[27.0388,38.3944]}},{"type":"Feature","properties":{"id":"bus-811-s50203","kind":"busstop","ref":"811","name":"Ata Durağı","lines":["311","480"]},"geometry":{"type":"Point","coordinates":[27.0367,38.4011]}},{"type":"Feature","properties":{"id":"bus-811-s50205","kind":"busstop","ref":"811","name":"Sera","lines":["311","480"]},"geometry":{"type":"Point","coordinates":[27.0362,38.4037]}},{"type":"Feature","properties":{"id":"bus-811-s50215","kind":"busstop","ref":"811","name":"Beşyol","lines":["311","480"]},"geometry":{"type":"Point","coordinates":[27.0358,38.4063]}},{"type":"Feature","properties":{"id":"bus-811-s50190","kind":"busstop","ref":"811","name":"Başak","lines":["486"]},"geometry":{"type":"Point","coordinates":[27.03676,38.40848]}},{"type":"Feature","properties":{"id":"bus-811-s50188","kind":"busstop","ref":"811","name":"Karakol","lines":["486"]},"geometry":{"type":"Point","coordinates":[27.039,38.4085]}},{"type":"Feature","properties":{"id":"bus-811-s50186","kind":"busstop","ref":"811","name":"Dokuz Eylül Deniz Bilimleri","lines":["483","486"]},"geometry":{"type":"Point","coordinates":[27.0436,38.4082]}}]}