{"type":"FeatureCollection","features":[{"type":"Feature","properties":{"id":"bus-814-1","kind":"busline","ref":"814","dir":1},"geometry":{"type":"LineString","coordinates":[[27.1351,38.2414],[27.1356,38.2414],[27.1346,38.2414],[27.1344,38.2405],[27.1341,38.2404],[27.1338,38.2406],[27.1346,38.2414],[27.1356,38.2414],[27.1392,38.2422],[27.1383,38.2433],[27.1379,38.2452],[27.138,38.2465],[27.1389,38.2462],[27.1412,38.2466],[27.1409,38.2472],[27.1408,38.2496],[27.1431,38.2511],[27.1435,38.2509],[27.1441,38.2498],[27.1452,38.2499],[27.1473,38.2491],[27.1489,38.2487],[27.1503,38.2486],[27.1509,38.247],[27.1509,38.2458],[27.1515,38.2433],[27.1514,38.2422],[27.151,38.2412],[27.1511,38.241],[27.1507,38.2386],[27.1492,38.2356],[27.149,38.2341],[27.1491,38.2337],[27.1485,38.2324],[27.146,38.2336],[27.1435,38.2344],[27.142,38.2346],[27.1394,38.2358],[27.1377,38.238],[27.1368,38.2381],[27.1362,38.2417],[27.1357,38.2423],[27.1349,38.2425],[27.1347,38.2456],[27.1337,38.2478],[27.1337,38.2482],[27.134,38.2484],[27.1341,38.2488],[27.1338,38.2507],[27.1333,38.2516],[27.1321,38.2527],[27.1309,38.2544],[27.1309,38.2567],[27.1302,38.2595],[27.1302,38.2612],[27.1313,38.261],[27.1358,38.261],[27.1358,38.2617],[27.1361,38.2627],[27.1368,38.2633],[27.1372,38.2644],[27.1411,38.2624],[27.1426,38.2644],[27.1437,38.2674],[27.1465,38.2668],[27.1462,38.2665],[27.1461,38.2644],[27.1457,38.2636],[27.1452,38.2631],[27.1449,38.2622],[27.144,38.2613],[27.1442,38.2612],[27.1441,38.2599],[27.1443,38.2591],[27.1456,38.2597],[27.1462,38.2609],[27.147,38.2613],[27.1493,38.2616],[27.1535,38.2616],[27.1581,38.2629],[27.1629,38.2625],[27.1628,38.263],[27.1625,38.263],[27.1627,38.263]]}},{"type":"Feature","properties":{"id":"bus-814-2","kind":"busline","ref":"814","dir":2},"geometry":{"type":"LineString","coordinates":[[27.1627,38.263],[27.1625,38.263],[27.1628,38.263],[27.1628,38.2626],[27.1609,38.2626],[27.1594,38.2629],[27.1581,38.2629],[27.1535,38.2616],[27.1493,38.2616],[27.147,38.2613],[27.1464,38.2611],[27.1459,38.2603],[27.1453,38.2608],[27.144,38.2613],[27.1449,38.2622],[27.1452,38.2631],[27.1457,38.2636],[27.1461,38.2644],[27.1462,38.2665],[27.1466,38.267],[27.1454,38.2674],[27.1454,38.2671],[27.1437,38.2674],[27.1426,38.2644],[27.1411,38.2624],[27.1372,38.2644],[27.1368,38.2633],[27.1361,38.2627],[27.1358,38.2617],[27.1358,38.261],[27.1313,38.261],[27.1302,38.2612],[27.1302,38.2595],[27.1309,38.2567],[27.1309,38.2544],[27.1316,38.2533],[27.133,38.2517],[27.1329,38.2511],[27.1326,38.2507],[27.133,38.2503],[27.133,38.2492],[27.1339,38.2483],[27.1337,38.2482],[27.1337,38.2478],[27.1346,38.2458],[27.1348,38.2426],[27.1346,38.2414],[27.135,38.2413],[27.1362,38.2416],[27.1365,38.2406],[27.1368,38.2381],[27.1377,38.238],[27.1394,38.2358],[27.142,38.2346],[27.1435,38.2344],[27.146,38.2336],[27.1485,38.2324],[27.1491,38.2337],[27.149,38.2341],[27.1492,38.2356],[27.1507,38.2386],[27.1511,38.241],[27.151,38.2412],[27.1514,38.2422],[27.1515,38.2433],[27.1509,38.2458],[27.1509,38.247],[27.1503,38.2486],[27.1489,38.2487],[27.1473,38.2491],[27.1452,38.2499],[27.1441,38.2498],[27.1435,38.2509],[27.1431,38.2511],[27.1408,38.2496],[27.1409,38.2472],[27.1412,38.2466],[27.1389,38.2462],[27.138,38.2465],[27.1379,38.2452],[27.1383,38.2433],[27.1392,38.2422],[27.1356,38.2414],[27.1359,38.2415]]}},{"type":"Feature","properties":{"id":"bus-814-s16194","kind":"busstop","ref":"814","name":"Menderes Son Durak","lines":["799"]},"geometry":{"type":"Point","coordinates":[27.13507,38.24138]}},{"type":"Feature","properties":{"id":"bus-814-s16230","kind":"busstop","ref":"814","name":"Menderes Oto Sanayi","lines":[]},"geometry":{"type":"Point","coordinates":[27.13888,38.24206]}},{"type":"Feature","properties":{"id":"bus-814-s16209","kind":"busstop","ref":"814","name":"Menderes Jandarma","lines":[]},"geometry":{"type":"Point","coordinates":[27.13812,38.24457]}},{"type":"Feature","properties":{"id":"bus-814-s16208","kind":"busstop","ref":"814","name":"Öztürkler","lines":[]},"geometry":{"type":"Point","coordinates":[27.13967,38.2463]}},{"type":"Feature","properties":{"id":"bus-814-s16228","kind":"busstop","ref":"814","name":"Menderes Meslek Lisesi","lines":[]},"geometry":{"type":"Point","coordinates":[27.14094,38.24769]}},{"type":"Feature","properties":{"id":"bus-814-s16205","kind":"busstop","ref":"814","name":"Spor Sahası","lines":[]},"geometry":{"type":"Point","coordinates":[27.14121,38.24965]}},{"type":"Feature","properties":{"id":"bus-814-s16204","kind":"busstop","ref":"814","name":"Armutlu 1 Küme","lines":[]},"geometry":{"type":"Point","coordinates":[27.14393,38.25003]}},{"type":"Feature","properties":{"id":"bus-814-s16226","kind":"busstop","ref":"814","name":"Altıntepe Tarım","lines":[]},"geometry":{"type":"Point","coordinates":[27.14986,38.24865]}},{"type":"Feature","properties":{"id":"bus-814-s16201","kind":"busstop","ref":"814","name":"Altıntepe Cami","lines":[]},"geometry":{"type":"Point","coordinates":[27.15093,38.24582]}},{"type":"Feature","properties":{"id":"bus-814-s16224","kind":"busstop","ref":"814","name":"Altıntepe Çiftçi","lines":[]},"geometry":{"type":"Point","coordinates":[27.15129,38.24392]}},{"type":"Feature","properties":{"id":"bus-814-s16221","kind":"busstop","ref":"814","name":"Altıntepe Nefes","lines":[]},"geometry":{"type":"Point","coordinates":[27.15124,38.24192]}},{"type":"Feature","properties":{"id":"bus-814-s16199","kind":"busstop","ref":"814","name":"Altıntepe İlkokulu","lines":[]},"geometry":{"type":"Point","coordinates":[27.14976,38.23659]}},{"type":"Feature","properties":{"id":"bus-814-s16219","kind":"busstop","ref":"814","name":"Menderes Damlar","lines":[]},"geometry":{"type":"Point","coordinates":[27.14874,38.23291]}},{"type":"Feature","properties":{"id":"bus-814-s16198","kind":"busstop","ref":"814","name":"Altıntepe Sera","lines":[]},"geometry":{"type":"Point","coordinates":[27.14438,38.23414]}},{"type":"Feature","properties":{"id":"bus-814-s16889","kind":"busstop","ref":"814","name":"Damlar","lines":[]},"geometry":{"type":"Point","coordinates":[27.1409,38.23508]}},{"type":"Feature","properties":{"id":"bus-814-s16196","kind":"busstop","ref":"814","name":"Menderes Devlet Hastanesi","lines":[]},"geometry":{"type":"Point","coordinates":[27.13682,38.2386]}},{"type":"Feature","properties":{"id":"bus-814-s15562","kind":"busstop","ref":"814","name":"Menderes SGK","lines":["508","707","799","804"]},"geometry":{"type":"Point","coordinates":[27.13477,38.24445]}},{"type":"Feature","properties":{"id":"bus-814-s10726","kind":"busstop","ref":"814","name":"Menderes Sanayi","lines":["508","707","799","804"]},"geometry":{"type":"Point","coordinates":[27.13376,38.24773]}},{"type":"Feature","properties":{"id":"bus-814-s10722","kind":"busstop","ref":"814","name":"Cüneytbey Cami","lines":["508","707","789","799","804","808","829"]},"geometry":{"type":"Point","coordinates":[27.134,38.25]}},{"type":"Feature","properties":{"id":"bus-814-s10720","kind":"busstop","ref":"814","name":"Menderes Belediyesi","lines":["508","707","789","799","804","808","829"]},"geometry":{"type":"Point","coordinates":[27.13417,38.25173]}},{"type":"Feature","properties":{"id":"bus-814-s10718","kind":"busstop","ref":"814","name":"Sümerbank","lines":["508","707","789","799","804","808","829"]},"geometry":{"type":"Point","coordinates":[27.1309,38.2546]}},{"type":"Feature","properties":{"id":"bus-814-s11250","kind":"busstop","ref":"814","name":"Menderes Sağlık Ocağı","lines":["508","729","775","776","792","794","808"]},"geometry":{"type":"Point","coordinates":[27.1308,38.2571]}},{"type":"Feature","properties":{"id":"bus-814-s10714","kind":"busstop","ref":"814","name":"Menderes Anadolu Lisesi","lines":["508","729","775","776","792","794","808"]},"geometry":{"type":"Point","coordinates":[27.13056,38.25831]}},{"type":"Feature","properties":{"id":"bus-814-s13491","kind":"busstop","ref":"814","name":"Ege Kar","lines":[]},"geometry":{"type":"Point","coordinates":[27.13316,38.26101]}},{"type":"Feature","properties":{"id":"bus-814-s13489","kind":"busstop","ref":"814","name":"Zeytin","lines":[]},"geometry":{"type":"Point","coordinates":[27.13589,38.26158]}},{"type":"Feature","properties":{"id":"bus-814-s13487","kind":"busstop","ref":"814","name":"Uzlar","lines":[]},"geometry":{"type":"Point","coordinates":[27.13707,38.26393]}},{"type":"Feature","properties":{"id":"bus-814-s13482","kind":"busstop","ref":"814","name":"Çınar","lines":[]},"geometry":{"type":"Point","coordinates":[27.13946,38.2632]}},{"type":"Feature","properties":{"id":"bus-814-s13480","kind":"busstop","ref":"814","name":"Ondokuz Mayıs","lines":[]},"geometry":{"type":"Point","coordinates":[27.14242,38.2641]}},{"type":"Feature","properties":{"id":"bus-814-s13478","kind":"busstop","ref":"814","name":"Gazipaşa Mah Muhtarlık","lines":[]},"geometry":{"type":"Point","coordinates":[27.1431,38.26539]}},{"type":"Feature","properties":{"id":"bus-814-s15907","kind":"busstop","ref":"814","name":"Köşe","lines":[]},"geometry":{"type":"Point","coordinates":[27.14407,38.26729]}},{"type":"Feature","properties":{"id":"bus-814-s13476","kind":"busstop","ref":"814","name":"Gazi İlkokulu","lines":[]},"geometry":{"type":"Point","coordinates":[27.14555,38.26699]}},{"type":"Feature","properties":{"id":"bus-814-s15905","kind":"busstop","ref":"814","name":"Kuşçu","lines":[]},"geometry":{"type":"Point","coordinates":[27.14615,38.26625]}},{"type":"Feature","properties":{"id":"bus-814-s13474","kind":"busstop","ref":"814","name":"Yonca","lines":[]},"geometry":{"type":"Point","coordinates":[27.14611,38.26486]}},{"type":"Feature","properties":{"id":"bus-814-s13472","kind":"busstop","ref":"814","name":"Gölcükler Cami","lines":[]},"geometry":{"type":"Point","coordinates":[27.14375,38.26165]}},{"type":"Feature","properties":{"id":"bus-814-s11265","kind":"busstop","ref":"814","name":"Gölcükler Sera","lines":["707","729","775","776","789","792","794","799","804","808","829"]},"geometry":{"type":"Point","coordinates":[27.14759,38.26131]}},{"type":"Feature","properties":{"id":"bus-814-s11271","kind":"busstop","ref":"814","name":"Oğlananası Yol Ayrımı","lines":["707","729","775","776","789","792","794","799","804","808","829"]},"geometry":{"type":"Point","coordinates":[27.1519,38.2615]}},{"type":"Feature","properties":{"id":"bus-814-s11267","kind":"busstop","ref":"814","name":"Amber","lines":["707","729","775","776","789","792","794","799","804","808","829"]},"geometry":{"type":"Point","coordinates":[27.1563,38.2623]}},{"type":"Feature","properties":{"id":"bus-814-s13275","kind":"busstop","ref":"814","name":"Menderes Altgeçit","lines":["707"]},"geometry":{"type":"Point","coordinates":[27.16144,38.26248]}},{"type":"Feature","properties":{"id":"bus-814-s13281","kind":"busstop","ref":"814","name":"Cumaovası Aktarma Merkezi","lines":["804"]},"geometry":{"type":"Point","coordinates":[27.16268,38.26307]}},{"type":"Feature","properties":{"id":"bus-814-s13274","kind":"busstop","ref":"814","name":"Menderes Altgeçit","lines":["707"]},"geometry":{"type":"Point","coordinates":[27.16121,38.26268]}},{"type":"Feature","properties":{"id":"bus-814-s11266","kind":"busstop","ref":"814","name":"Amber","lines":["707","729","775","776","789","792","794","799","804","808","829"]},"geometry":{"type":"Point","coordinates":[27.1562,38.2624]}},{"type":"Feature","properties":{"id":"bus-814-s11270","kind":"busstop","ref":"814","name":"Oğlananası Yol Ayrımı","lines":["707","729","775","776","789","792","794","799","804","808","829"]},"geometry":{"type":"Point","coordinates":[27.15227,38.26153]}},{"type":"Feature","properties":{"id":"bus-814-s11264","kind":"busstop","ref":"814","name":"Gölcükler Sera","lines":["707","729","775","776","789","792","794","799","804","808","829"]},"geometry":{"type":"Point","coordinates":[27.14687,38.26131]}},{"type":"Feature","properties":{"id":"bus-814-s13473","kind":"busstop","ref":"814","name":"Yonca","lines":[]},"geometry":{"type":"Point","coordinates":[27.1462,38.26484]}},{"type":"Feature","properties":{"id":"bus-814-s15906","kind":"busstop","ref":"814","name":"Kuşçu","lines":[]},"geometry":{"type":"Point","coordinates":[27.14618,38.26624]}},{"type":"Feature","properties":{"id":"bus-814-s13475","kind":"busstop","ref":"814","name":"Gazi İlkokulu","lines":[]},"geometry":{"type":"Point","coordinates":[27.14587,38.26724]}},{"type":"Feature","properties":{"id":"bus-814-s15908","kind":"busstop","ref":"814","name":"Köşe","lines":[]},"geometry":{"type":"Point","coordinates":[27.14464,38.26726]}},{"type":"Feature","properties":{"id":"bus-814-s13477","kind":"busstop","ref":"814","name":"Gazipaşa Mah Muhtarlık","lines":[]},"geometry":{"type":"Point","coordinates":[27.14304,38.26544]}},{"type":"Feature","properties":{"id":"bus-814-s13479","kind":"busstop","ref":"814","name":"Ondokuz Mayıs","lines":[]},"geometry":{"type":"Point","coordinates":[27.14242,38.26423]}},{"type":"Feature","properties":{"id":"bus-814-s13481","kind":"busstop","ref":"814","name":"Çınar","lines":[]},"geometry":{"type":"Point","coordinates":[27.13895,38.26351]}},{"type":"Feature","properties":{"id":"bus-814-s13488","kind":"busstop","ref":"814","name":"Uzlar","lines":[]},"geometry":{"type":"Point","coordinates":[27.13689,38.26395]}},{"type":"Feature","properties":{"id":"bus-814-s13490","kind":"busstop","ref":"814","name":"Zeytin","lines":[]},"geometry":{"type":"Point","coordinates":[27.13574,38.26153]}},{"type":"Feature","properties":{"id":"bus-814-s13492","kind":"busstop","ref":"814","name":"Ege Kar","lines":[]},"geometry":{"type":"Point","coordinates":[27.1331,38.26111]}},{"type":"Feature","properties":{"id":"bus-814-s10713","kind":"busstop","ref":"814","name":"Menderes Anadolu Lisesi","lines":["508","729","775","776","792","794","808"]},"geometry":{"type":"Point","coordinates":[27.1303,38.2589]}},{"type":"Feature","properties":{"id":"bus-814-s10715","kind":"busstop","ref":"814","name":"Menderes Sağlık Ocağı","lines":["508","729","775","776","792","794","808"]},"geometry":{"type":"Point","coordinates":[27.1307,38.2569]}},{"type":"Feature","properties":{"id":"bus-814-s10717","kind":"busstop","ref":"814","name":"Sümerbank","lines":["508","707","789","799","804","808","829"]},"geometry":{"type":"Point","coordinates":[27.1308,38.2544]}},{"type":"Feature","properties":{"id":"bus-814-s10719","kind":"busstop","ref":"814","name":"Menderes Belediyesi","lines":["508","707","789","799","804","808","829"]},"geometry":{"type":"Point","coordinates":[27.1325,38.2521]}},{"type":"Feature","properties":{"id":"bus-814-s10721","kind":"busstop","ref":"814","name":"Menderes Ziraat Odası","lines":["508","707","799","804","808","829"]},"geometry":{"type":"Point","coordinates":[27.13293,38.24956]}},{"type":"Feature","properties":{"id":"bus-814-s10703","kind":"busstop","ref":"814","name":"Menderes sanayi","lines":["508","707","799","804","808"]},"geometry":{"type":"Point","coordinates":[27.13361,38.24781]}},{"type":"Feature","properties":{"id":"bus-814-s15563","kind":"busstop","ref":"814","name":"Menderes SGK","lines":["508","707","799","804","808"]},"geometry":{"type":"Point","coordinates":[27.13453,38.24455]}},{"type":"Feature","properties":{"id":"bus-814-s16888","kind":"busstop","ref":"814","name":"Damlar","lines":[]},"geometry":{"type":"Point","coordinates":[27.1404,38.23525]}},{"type":"Feature","properties":{"id":"bus-814-s16197","kind":"busstop","ref":"814","name":"Altıntepe Sera","lines":[]},"geometry":{"type":"Point","coordinates":[27.14446,38.23403]}},{"type":"Feature","properties":{"id":"bus-814-s16220","kind":"busstop","ref":"814","name":"Menderes Damlar","lines":[]},"geometry":{"type":"Point","coordinates":[27.14876,38.23271]}},{"type":"Feature","properties":{"id":"bus-814-s16200","kind":"busstop","ref":"814","name":"Altıntepe İlkokulu","lines":[]},"geometry":{"type":"Point","coordinates":[27.14988,38.23672]}},{"type":"Feature","properties":{"id":"bus-814-s16222","kind":"busstop","ref":"814","name":"Altıntepe Nefes","lines":[]},"geometry":{"type":"Point","coordinates":[27.15126,38.2417]}},{"type":"Feature","properties":{"id":"bus-814-s16223","kind":"busstop","ref":"814","name":"Altıntepe Çiftçi","lines":[]},"geometry":{"type":"Point","coordinates":[27.15138,38.24406]}},{"type":"Feature","properties":{"id":"bus-814-s16202","kind":"busstop","ref":"814","name":"Altıntepe Cami","lines":[]},"geometry":{"type":"Point","coordinates":[27.15101,38.2462]}},{"type":"Feature","properties":{"id":"bus-814-s16225","kind":"busstop","ref":"814","name":"Altıntepe Tarım","lines":[]},"geometry":{"type":"Point","coordinates":[27.14968,38.24873]}},{"type":"Feature","properties":{"id":"bus-814-s16203","kind":"busstop","ref":"814","name":"Armutlu 1 Küme","lines":[]},"geometry":{"type":"Point","coordinates":[27.14393,38.25029]}},{"type":"Feature","properties":{"id":"bus-814-s16206","kind":"busstop","ref":"814","name":"Spor Sahası","lines":[]},"geometry":{"type":"Point","coordinates":[27.14098,38.24966]}},{"type":"Feature","properties":{"id":"bus-814-s16227","kind":"busstop","ref":"814","name":"Menderes Meslek lisesi","lines":[]},"geometry":{"type":"Point","coordinates":[27.14082,38.24762]}},{"type":"Feature","properties":{"id":"bus-814-s16207","kind":"busstop","ref":"814","name":"Öztürkler","lines":[]},"geometry":{"type":"Point","coordinates":[27.13964,38.24635]}},{"type":"Feature","properties":{"id":"bus-814-s16229","kind":"busstop","ref":"814","name":"Menderes Oto Sanayi","lines":[]},"geometry":{"type":"Point","coordinates":[27.13863,38.2421]}},{"type":"Feature","properties":{"id":"bus-814-s16195","kind":"busstop","ref":"814","name":"Menderes Devlet Hastanesi","lines":[]},"geometry":{"type":"Point","coordinates":[27.13664,38.23885]}},{"type":"Feature","properties":{"id":"bus-814-s16210","kind":"busstop","ref":"814","name":"Menderes Jandarma","lines":[]},"geometry":{"type":"Point","coordinates":[27.13808,38.24438]}},{"type":"Feature","properties":{"id":"bus-814-s15573","kind":"busstop","ref":"814","name":"Menderes Düğün Salonu","lines":["508","799","804","808"]},"geometry":{"type":"Point","coordinates":[27.13464,38.24186]}},{"type":"Feature","properties":{"id":"bus-814-s15564","kind":"busstop","ref":"814","name":"Menderes Son Durak","lines":["508","707","799","808"]},"geometry":{"type":"Point","coordinates":[27.13596,38.24148]}}]}