{"type":"FeatureCollection","features":[{"type":"Feature","properties":{"id":"bus-820-1","kind":"busline","ref":"820","dir":1},"geometry":{"type":"LineString","coordinates":[[27.0543,38.5375],[27.054,38.5376],[27.0552,38.5374],[27.0568,38.5382],[27.056,38.5387],[27.0563,38.5397],[27.0569,38.54],[27.0574,38.5408],[27.0587,38.5408],[27.0589,38.541],[27.0553,38.5421],[27.056,38.5436],[27.0563,38.5453],[27.0558,38.5433],[27.0547,38.5414],[27.0534,38.54],[27.0526,38.5375],[27.0511,38.5378],[27.0503,38.5374],[27.0501,38.5369],[27.0502,38.5355],[27.0497,38.5345],[27.0517,38.5336],[27.0521,38.5332],[27.0526,38.5324],[27.0521,38.531],[27.0508,38.531],[27.0488,38.5318],[27.0475,38.5292],[27.0476,38.5287],[27.0471,38.5267],[27.0457,38.5251],[27.0452,38.524],[27.0448,38.522],[27.0436,38.522],[27.0431,38.5218],[27.0421,38.5208],[27.0399,38.5194],[27.0394,38.5193],[27.0394,38.5191],[27.0415,38.5171],[27.0459,38.5111],[27.0473,38.5084],[27.0485,38.5069],[27.0515,38.5042],[27.0533,38.5016],[27.0596,38.4962],[27.0614,38.4943],[27.0644,38.4923],[27.0686,38.4899],[27.0712,38.4887],[27.0752,38.4873],[27.0776,38.4861],[27.0777,38.4855],[27.0771,38.4839],[27.076,38.4834],[27.0741,38.483],[27.0711,38.4828],[27.0679,38.4829],[27.0628,38.4821],[27.0621,38.4824],[27.0623,38.4828],[27.0626,38.4829],[27.0632,38.4825],[27.0646,38.4798],[27.0649,38.4788],[27.0662,38.4771],[27.0661,38.4769],[27.0666,38.4767],[27.0679,38.4751],[27.0721,38.4752],[27.0733,38.475],[27.0761,38.475],[27.0767,38.4752],[27.0806,38.4752],[27.0816,38.4748],[27.0853,38.471],[27.0845,38.4701],[27.0822,38.4663],[27.0821,38.4656],[27.0884,38.4592],[27.0904,38.4576],[27.0937,38.456],[27.0971,38.4547],[27.0973,38.4545],[27.0973,38.4538],[27.0971,38.4535],[27.0974,38.4529],[27.0972,38.4532]]}},{"type":"Feature","properties":{"id":"bus-820-2","kind":"busline","ref":"820","dir":2},"geometry":{"type":"LineString","coordinates":[[27.0972,38.4537],[27.0973,38.4538],[27.0971,38.4535],[27.0973,38.453],[27.0977,38.4528],[27.0978,38.453],[27.0974,38.454],[27.098,38.454],[27.0981,38.4545],[27.0921,38.4569],[27.0906,38.4577],[27.0885,38.4593],[27.0824,38.4654],[27.0823,38.4661],[27.083,38.4674],[27.0848,38.4703],[27.0855,38.471],[27.082,38.4746],[27.0808,38.4753],[27.0774,38.4753],[27.0759,38.4757],[27.0736,38.4757],[27.0721,38.4753],[27.0684,38.4752],[27.0674,38.4759],[27.0666,38.4772],[27.0663,38.4772],[27.0654,38.4787],[27.0654,38.4791],[27.065,38.4793],[27.0648,38.4798],[27.0648,38.4807],[27.065,38.4811],[27.0654,38.4816],[27.0663,38.482],[27.0763,38.4831],[27.08,38.4842],[27.0836,38.4859],[27.0842,38.4858],[27.0846,38.4854],[27.0844,38.4848],[27.0837,38.4846],[27.0716,38.4887],[27.068,38.4904],[27.0625,38.4938],[27.0592,38.4969],[27.0541,38.501],[27.0514,38.5045],[27.0502,38.5057],[27.0484,38.5071],[27.0476,38.5081],[27.0458,38.5116],[27.0442,38.5135],[27.0408,38.5183],[27.0397,38.5192],[27.0416,38.5204],[27.0431,38.5218],[27.0436,38.522],[27.0448,38.522],[27.0452,38.524],[27.0457,38.5251],[27.0471,38.5267],[27.0476,38.5287],[27.0475,38.5292],[27.0488,38.5318],[27.0508,38.531],[27.0521,38.531],[27.0527,38.5324],[27.0517,38.5336],[27.0497,38.5345],[27.0502,38.5355],[27.0501,38.5369],[27.0503,38.5374],[27.0507,38.5377],[27.0527,38.5376],[27.0535,38.5399],[27.0551,38.5418],[27.0558,38.5431],[27.0563,38.5453],[27.0558,38.5433],[27.0552,38.5421],[27.0589,38.541],[27.0587,38.5408],[27.0574,38.5408],[27.0569,38.54],[27.0563,38.5397],[27.056,38.5387],[27.0568,38.5382],[27.0552,38.5374],[27.054,38.5376],[27.0543,38.5375]]}},{"type":"Feature","properties":{"id":"bus-820-s21372","kind":"busstop","ref":"820","name":"Harmandalı","lines":["295","608"]},"geometry":{"type":"Point","coordinates":[27.05436,38.53763]}},{"type":"Feature","properties":{"id":"bus-820-s21318","kind":"busstop","ref":"820","name":"Şehit Üsteğmen İbrahim Fahri Efendi","lines":["295","608"]},"geometry":{"type":"Point","coordinates":[27.05631,38.53787]}},{"type":"Feature","properties":{"id":"bus-820-s21325","kind":"busstop","ref":"820","name":"Yörük","lines":["295","608"]},"geometry":{"type":"Point","coordinates":[27.0567,38.5398]}},{"type":"Feature","properties":{"id":"bus-820-s21370","kind":"busstop","ref":"820","name":"Fevzi Çakmak","lines":["295","608"]},"geometry":{"type":"Point","coordinates":[27.05841,38.54076]}},{"type":"Feature","properties":{"id":"bus-820-s21359","kind":"busstop","ref":"820","name":"Site Son Durak","lines":["295","608","827"]},"geometry":{"type":"Point","coordinates":[27.05625,38.54466]}},{"type":"Feature","properties":{"id":"bus-820-s23269","kind":"busstop","ref":"820","name":"Site Son Durak","lines":["295","608","827"]},"geometry":{"type":"Point","coordinates":[27.05592,38.54403]}},{"type":"Feature","properties":{"id":"bus-820-s21358","kind":"busstop","ref":"820","name":"Site 2","lines":["295","608","827"]},"geometry":{"type":"Point","coordinates":[27.0549,38.5418]}},{"type":"Feature","properties":{"id":"bus-820-s21356","kind":"busstop","ref":"820","name":"Site 1","lines":["295","608","827"]},"geometry":{"type":"Point","coordinates":[27.0538,38.5403]}},{"type":"Feature","properties":{"id":"bus-820-s21354","kind":"busstop","ref":"820","name":"Cumhuriyet Mahallesi Muhtarlığı","lines":["295","608","827"]},"geometry":{"type":"Point","coordinates":[27.0529,38.5384]}},{"type":"Feature","properties":{"id":"bus-820-s21352","kind":"busstop","ref":"820","name":"Harmandalı Mezarlık","lines":["295","608","827"]},"geometry":{"type":"Point","coordinates":[27.0508,38.5378]}},{"type":"Feature","properties":{"id":"bus-820-s21376","kind":"busstop","ref":"820","name":"Harmandalı Eski Belediye","lines":["295","608","827"]},"geometry":{"type":"Point","coordinates":[27.0498,38.5348]}},{"type":"Feature","properties":{"id":"bus-820-s21374","kind":"busstop","ref":"820","name":"Harmandalı İlköğretim Okulu","lines":["295"]},"geometry":{"type":"Point","coordinates":[27.0513,38.5337]}},{"type":"Feature","properties":{"id":"bus-820-s21346","kind":"busstop","ref":"820","name":"Sarmaşık","lines":["295"]},"geometry":{"type":"Point","coordinates":[27.0524,38.5318]}},{"type":"Feature","properties":{"id":"bus-820-s21368","kind":"busstop","ref":"820","name":"Harmandalı Sağlık Ocağı","lines":["295"]},"geometry":{"type":"Point","coordinates":[27.0506,38.5312]}},{"type":"Feature","properties":{"id":"bus-820-s21342","kind":"busstop","ref":"820","name":"Zambak","lines":["295","608","827"]},"geometry":{"type":"Point","coordinates":[27.0486,38.5314]}},{"type":"Feature","properties":{"id":"bus-820-s21340","kind":"busstop","ref":"820","name":"Papatya","lines":["295","608","695","827"]},"geometry":{"type":"Point","coordinates":[27.04737,38.52841]}},{"type":"Feature","properties":{"id":"bus-820-s21338","kind":"busstop","ref":"820","name":"İnönü Mahallesi","lines":["295","608","695","827"]},"geometry":{"type":"Point","coordinates":[27.047,38.527]}},{"type":"Feature","properties":{"id":"bus-820-s21336","kind":"busstop","ref":"820","name":"Uğur Mumcu","lines":["295","608","695","827"]},"geometry":{"type":"Point","coordinates":[27.04563,38.52525]}},{"type":"Feature","properties":{"id":"bus-820-s21334","kind":"busstop","ref":"820","name":"Uğur Mumcu Sağlık Ocağı","lines":["295","608","695","827"]},"geometry":{"type":"Point","coordinates":[27.0448,38.5225]}},{"type":"Feature","properties":{"id":"bus-820-s21330","kind":"busstop","ref":"820","name":"Meydan Yolu","lines":["295","608","695","827"]},"geometry":{"type":"Point","coordinates":[27.0401,38.5196]}},{"type":"Feature","properties":{"id":"bus-820-s21344","kind":"busstop","ref":"820","name":"Jandarma","lines":["128","295","428","595","596","602","608","660","695","800","817","827","920"]},"geometry":{"type":"Point","coordinates":[27.0399,38.5187]}},{"type":"Feature","properties":{"id":"bus-820-s20098","kind":"busstop","ref":"820","name":"Eski Sinema","lines":["128","295","428","595","596","602","608","660","695","800","817","827","920"]},"geometry":{"type":"Point","coordinates":[27.0421,38.5161]}},{"type":"Feature","properties":{"id":"bus-820-s20096","kind":"busstop","ref":"820","name":"Balatçık Kahveler","lines":["128","295","346","428","595","596","602","608","660","695","800","810","816","817","827","853","912","920"]},"geometry":{"type":"Point","coordinates":[27.0452,38.5119]}},{"type":"Feature","properties":{"id":"bus-820-s20094","kind":"busstop","ref":"820","name":"Ata","lines":["428","446","535","595","602","608","660","800","827","912","920"]},"geometry":{"type":"Point","coordinates":[27.0495,38.5059]}},{"type":"Feature","properties":{"id":"bus-820-s20092","kind":"busstop","ref":"820","name":"Küçük Çiğli","lines":["428","446","535","595","602","608","660","800","827","912","920"]},"geometry":{"type":"Point","coordinates":[27.05217,38.50313]}},{"type":"Feature","properties":{"id":"bus-820-s20090","kind":"busstop","ref":"820","name":"Çiğli Santral","lines":["428","446","535","595","602","608","660","800","827","912","920"]},"geometry":{"type":"Point","coordinates":[27.05444,38.50045]}},{"type":"Feature","properties":{"id":"bus-820-s20088","kind":"busstop","ref":"820","name":"Çiğli Şaraphane","lines":["428","446","535","595","602","608","660","800","827","912","920"]},"geometry":{"type":"Point","coordinates":[27.05666,38.49866]}},{"type":"Feature","properties":{"id":"bus-820-s20086","kind":"busstop","ref":"820","name":"Çiğli Belediye","lines":["229","247","329","344","428","429","443","446","529","535","602","608","660","800","827","853","912","920"]},"geometry":{"type":"Point","coordinates":[27.0665,38.4911]}},{"type":"Feature","properties":{"id":"bus-820-s20084","kind":"busstop","ref":"820","name":"Eğitim Gönüllüleri","lines":["229","247","329","344","428","429","443","445","446","529","535","602","608","660","800","827","853","912","920"]},"geometry":{"type":"Point","coordinates":[27.069,38.4896]}},{"type":"Feature","properties":{"id":"bus-820-s20082","kind":"busstop","ref":"820","name":"Çiğli İtfaiye","lines":["229","247","329","344","428","429","443","445","446","529","535","602","608","660","800","827","853","912","920"]},"geometry":{"type":"Point","coordinates":[27.0726,38.4882]}},{"type":"Feature","properties":{"id":"bus-820-s20340","kind":"busstop","ref":"820","name":"Karya","lines":["229","322","423","428","429","442","443","445","446","447","547","595","777","827"]},"geometry":{"type":"Point","coordinates":[27.06672,38.47626]}},{"type":"Feature","properties":{"id":"bus-820-s20338","kind":"busstop","ref":"820","name":"Mavişehir","lines":["229","322","423","428","429","442","443","445","446","447","547","595","827"]},"geometry":{"type":"Point","coordinates":[27.0745,38.4749]}},{"type":"Feature","properties":{"id":"bus-820-s20336","kind":"busstop","ref":"820","name":"Haydar Aliyev Parkı","lines":["229","423","428","429","442","443","445","446","447","547","595","827"]},"geometry":{"type":"Point","coordinates":[27.0836,38.4727]}},{"type":"Feature","properties":{"id":"bus-820-s20396","kind":"busstop","ref":"820","name":"Atakent Anadolu Lisesi","lines":["229","322","423","428","429","442","443","445","446","447","595","827"]},"geometry":{"type":"Point","coordinates":[27.084,38.4692]}},{"type":"Feature","properties":{"id":"bus-820-s20196","kind":"busstop","ref":"820","name":"Beşikçioğlu Cami","lines":["121","200","229","322","423","428","429","442","443","445","446","447","595","777","821","827"]},"geometry":{"type":"Point","coordinates":[27.0844,38.4631]}},{"type":"Feature","properties":{"id":"bus-820-s20194","kind":"busstop","ref":"820","name":"Bostanlı Pazaryeri","lines":["121","200","229","322","423","428","429","442","443","445","446","447","595","777","821","827"]},"geometry":{"type":"Point","coordinates":[27.0869,38.4606]}},{"type":"Feature","properties":{"id":"bus-820-s20198","kind":"busstop","ref":"820","name":"Bostanlı Market","lines":["121","200","229","322","423","428","429","442","443","445","446","447","595","777","821","827"]},"geometry":{"type":"Point","coordinates":[27.0913,38.4571]}},{"type":"Feature","properties":{"id":"bus-820-s20021","kind":"busstop","ref":"820","name":"Bostanlı İskele","lines":["827"]},"geometry":{"type":"Point","coordinates":[27.0974,38.45343]}},{"type":"Feature","properties":{"id":"bus-820-s20197","kind":"busstop","ref":"820","name":"Bostanlı Market","lines":["121","200","229","322","423","428","429","442","443","445","446","447","595","777","821","827"]},"geometry":{"type":"Point","coordinates":[27.0914,38.4573]}},{"type":"Feature","properties":{"id":"bus-820-s20189","kind":"busstop","ref":"820","name":"Bostanlı Pazaryeri","lines":["121","200","229","322","423","428","429","442","443","445","446","447","595","777","821","827"]},"geometry":{"type":"Point","coordinates":[27.0869,38.4609]}},{"type":"Feature","properties":{"id":"bus-820-s20191","kind":"busstop","ref":"820","name":"Beşikçioğlu Cami","lines":["121","200","229","322","423","428","429","442","443","445","446","447","595","777","821","827"]},"geometry":{"type":"Point","coordinates":[27.08431,38.4636]}},{"type":"Feature","properties":{"id":"bus-820-s20395","kind":"busstop","ref":"820","name":"Atakent Anadolu Lisesi","lines":["229","322","423","428","429","442","443","445","446","447","595","827"]},"geometry":{"type":"Point","coordinates":[27.0845,38.4697]}},{"type":"Feature","properties":{"id":"bus-820-s20337","kind":"busstop","ref":"820","name":"Haydar Aliyev Parkı","lines":["229","322","423","428","429","442","443","445","446","447","547","595","827"]},"geometry":{"type":"Point","coordinates":[27.08404,38.47269]}},{"type":"Feature","properties":{"id":"bus-820-s20339","kind":"busstop","ref":"820","name":"Mavişehir","lines":["121","229","322","423","428","429","442","443","445","446","447","547","595","777","821","827"]},"geometry":{"type":"Point","coordinates":[27.07491,38.47576]}},{"type":"Feature","properties":{"id":"bus-820-s20341","kind":"busstop","ref":"820","name":"Karya","lines":["229","322","423","428","429","442","443","445","446","447","547","595","777","827"]},"geometry":{"type":"Point","coordinates":[27.06558,38.47846]}},{"type":"Feature","properties":{"id":"bus-820-s20081","kind":"busstop","ref":"820","name":"Çiğli İtfaiye","lines":["229","247","329","344","428","429","443","445","446","447","529","535","602","608","660","800","827","853","912","920"]},"geometry":{"type":"Point","coordinates":[27.0722,38.4885]}},{"type":"Feature","properties":{"id":"bus-820-s20083","kind":"busstop","ref":"820","name":"Eğitim Gönüllüleri","lines":["229","247","329","344","428","429","443","445","446","529","535","602","608","660","800","827","853","912","920"]},"geometry":{"type":"Point","coordinates":[27.0689,38.49]}},{"type":"Feature","properties":{"id":"bus-820-s20085","kind":"busstop","ref":"820","name":"Çiğli Belediye","lines":["229","247","329","344","428","429","443","446","529","535","602","608","660","800","827","853","912","920"]},"geometry":{"type":"Point","coordinates":[27.0663,38.4915]}},{"type":"Feature","properties":{"id":"bus-820-s20087","kind":"busstop","ref":"820","name":"Çiğli Şaraphane","lines":["428","446","535","595","602","608","660","800","827","912","920"]},"geometry":{"type":"Point","coordinates":[27.0573,38.4985]}},{"type":"Feature","properties":{"id":"bus-820-s20089","kind":"busstop","ref":"820","name":"Çiğli Santral","lines":["428","446","535","595","602","608","660","800","827","912","920"]},"geometry":{"type":"Point","coordinates":[27.05436,38.50091]}},{"type":"Feature","properties":{"id":"bus-820-s20091","kind":"busstop","ref":"820","name":"Küçük Çiğli","lines":["428","446","535","595","602","608","660","800","827","912","920"]},"geometry":{"type":"Point","coordinates":[27.05166,38.50436]}},{"type":"Feature","properties":{"id":"bus-820-s20093","kind":"busstop","ref":"820","name":"Ata","lines":["428","446","535","595","602","608","660","800","827","912","920"]},"geometry":{"type":"Point","coordinates":[27.05035,38.5056]}},{"type":"Feature","properties":{"id":"bus-820-s20095","kind":"busstop","ref":"820","name":"Balatçık Kahveler","lines":["128","295","428","595","596","602","608","660","695","800","827","920"]},"geometry":{"type":"Point","coordinates":[27.04487,38.51283]}},{"type":"Feature","properties":{"id":"bus-820-s20097","kind":"busstop","ref":"820","name":"Eski Sinema","lines":["128","295","428","595","596","602","608","660","695","800","817","827","920"]},"geometry":{"type":"Point","coordinates":[27.04262,38.51586]}},{"type":"Feature","properties":{"id":"bus-820-s21343","kind":"busstop","ref":"820","name":"Jandarma","lines":["128","295","428","595","596","602","608","660","695","800","817","827","920"]},"geometry":{"type":"Point","coordinates":[27.04059,38.51858]}},{"type":"Feature","properties":{"id":"bus-820-s21329","kind":"busstop","ref":"820","name":"Meydan Yolu","lines":["295","608","695","827"]},"geometry":{"type":"Point","coordinates":[27.04114,38.52011]}},{"type":"Feature","properties":{"id":"bus-820-s21335","kind":"busstop","ref":"820","name":"Uğur Mumcu","lines":["295","608","695","827"]},"geometry":{"type":"Point","coordinates":[27.04611,38.52545]}},{"type":"Feature","properties":{"id":"bus-820-s21337","kind":"busstop","ref":"820","name":"İnönü Mahallesi","lines":["295","608","695","827"]},"geometry":{"type":"Point","coordinates":[27.0472,38.527]}},{"type":"Feature","properties":{"id":"bus-820-s21339","kind":"busstop","ref":"820","name":"Papatya","lines":["295","608","695","827"]},"geometry":{"type":"Point","coordinates":[27.04761,38.52843]}},{"type":"Feature","properties":{"id":"bus-820-s21341","kind":"busstop","ref":"820","name":"Zambak","lines":["295","608","827"]},"geometry":{"type":"Point","coordinates":[27.0488,38.5314]}},{"type":"Feature","properties":{"id":"bus-820-s21367","kind":"busstop","ref":"820","name":"Harmandalı Sağlık Ocağı","lines":["295"]},"geometry":{"type":"Point","coordinates":[27.0505,38.5311]}},{"type":"Feature","properties":{"id":"bus-820-s21345","kind":"busstop","ref":"820","name":"Sarmaşık","lines":["295"]},"geometry":{"type":"Point","coordinates":[27.0525,38.5318]}},{"type":"Feature","properties":{"id":"bus-820-s21373","kind":"busstop","ref":"820","name":"Harmandalı İlköğretim Okulu","lines":["295"]},"geometry":{"type":"Point","coordinates":[27.0511,38.5339]}},{"type":"Feature","properties":{"id":"bus-820-s21375","kind":"busstop","ref":"820","name":"Harmandalı Eski Belediye","lines":["295","608","827"]},"geometry":{"type":"Point","coordinates":[27.0499,38.5349]}},{"type":"Feature","properties":{"id":"bus-820-s21351","kind":"busstop","ref":"820","name":"Harmandalı Mezarlık","lines":["295","608","827"]},"geometry":{"type":"Point","coordinates":[27.05178,38.53758]}},{"type":"Feature","properties":{"id":"bus-820-s21353","kind":"busstop","ref":"820","name":"Cumhuriyet Mahallesi Muhtarlığı","lines":["295","608","827"]},"geometry":{"type":"Point","coordinates":[27.05304,38.53845]}},{"type":"Feature","properties":{"id":"bus-820-s21355","kind":"busstop","ref":"820","name":"Site 1","lines":["295","608","827"]},"geometry":{"type":"Point","coordinates":[27.0538,38.54]}},{"type":"Feature","properties":{"id":"bus-820-s21357","kind":"busstop","ref":"820","name":"Site 2","lines":["295","608","827"]},"geometry":{"type":"Point","coordinates":[27.0551,38.5418]}},{"type":"Feature","properties":{"id":"bus-820-s21371","kind":"busstop","ref":"820","name":"Fevzi Çakmak","lines":["295","608"]},"geometry":{"type":"Point","coordinates":[27.05822,38.5409]}},{"type":"Feature","properties":{"id":"bus-820-s21326","kind":"busstop","ref":"820","name":"Yörük","lines":["295","608"]},"geometry":{"type":"Point","coordinates":[27.05648,38.53982]}},{"type":"Feature","properties":{"id":"bus-820-s21317","kind":"busstop","ref":"820","name":"Şehit Üsteğmen İbrahim Fahri Efendi","lines":["295","608"]},"geometry":{"type":"Point","coordinates":[27.05607,38.53792]}}]}