{"type":"FeatureCollection","features":[{"type":"Feature","properties":{"id":"bus-821-1","kind":"busline","ref":"821","dir":1},"geometry":{"type":"LineString","coordinates":[[27.0837,38.481],[27.0838,38.4809],[27.0836,38.4812],[27.0832,38.4812],[27.0813,38.482],[27.0762,38.4815],[27.0757,38.4811],[27.0758,38.478],[27.0756,38.4777],[27.0758,38.4758],[27.0736,38.4757],[27.0733,38.4755],[27.0734,38.4751],[27.0739,38.4748],[27.0739,38.4723],[27.0684,38.4723],[27.0682,38.4716],[27.0664,38.4702],[27.0664,38.4686],[27.0666,38.4681],[27.0669,38.4678],[27.0685,38.4678],[27.0703,38.4693],[27.0708,38.4695],[27.0796,38.4694],[27.0811,38.4682],[27.08,38.4673],[27.0803,38.4666],[27.082,38.4658],[27.0822,38.4653],[27.0884,38.4592],[27.0904,38.4576],[27.0937,38.456],[27.0971,38.4547],[27.0973,38.4545],[27.0973,38.4541],[27.0975,38.4541],[27.0972,38.4537],[27.0974,38.453],[27.0973,38.4531]]}},{"type":"Feature","properties":{"id":"bus-821-2","kind":"busline","ref":"821","dir":2},"geometry":{"type":"LineString","coordinates":[[27.0973,38.4531],[27.0972,38.4533],[27.0975,38.4528],[27.0978,38.4528],[27.0975,38.4535],[27.0977,38.4542],[27.1001,38.4532],[27.1006,38.4534],[27.0971,38.455],[27.0921,38.4569],[27.0902,38.458],[27.0885,38.4593],[27.0829,38.4648],[27.0822,38.4656],[27.0822,38.466],[27.0806,38.4664],[27.0801,38.4668],[27.08,38.4673],[27.0811,38.4682],[27.0796,38.4694],[27.0708,38.4695],[27.0703,38.4693],[27.0685,38.4678],[27.0669,38.4678],[27.0666,38.4681],[27.0664,38.4686],[27.0664,38.4702],[27.0682,38.4716],[27.0684,38.4723],[27.0758,38.4724],[27.0758,38.4748],[27.0762,38.4751],[27.0762,38.4755],[27.0759,38.4757],[27.076,38.4778],[27.0757,38.4811],[27.0762,38.4815],[27.0804,38.482],[27.0821,38.4817],[27.083,38.4813],[27.0865,38.4777],[27.0866,38.4779],[27.0851,38.4792],[27.0836,38.4812],[27.0837,38.481]]}},{"type":"Feature","properties":{"id":"bus-821-s22190","kind":"busstop","ref":"821","name":"Mavişehir Aktarma Merkezi","lines":["121","200"]},"geometry":{"type":"Point","coordinates":[27.0837,38.481]}},{"type":"Feature","properties":{"id":"bus-821-s22058","kind":"busstop","ref":"821","name":"Albayrak Mavişehir Evleri","lines":["121","200"]},"geometry":{"type":"Point","coordinates":[27.08161,38.48198]}},{"type":"Feature","properties":{"id":"bus-821-s22054","kind":"busstop","ref":"821","name":"Bayrak","lines":["121","200"]},"geometry":{"type":"Point","coordinates":[27.07723,38.48171]}},{"type":"Feature","properties":{"id":"bus-821-s22052","kind":"busstop","ref":"821","name":"Fotoğraf Müzesi","lines":["121","200"]},"geometry":{"type":"Point","coordinates":[27.07571,38.47914]}},{"type":"Feature","properties":{"id":"bus-821-s22050","kind":"busstop","ref":"821","name":"Soyak","lines":["121","200"]},"geometry":{"type":"Point","coordinates":[27.0757,38.47662]}},{"type":"Feature","properties":{"id":"bus-821-s20339","kind":"busstop","ref":"821","name":"Mavişehir","lines":["121","229","322","423","428","429","442","443","445","446","447","547","595","777","820","827"]},"geometry":{"type":"Point","coordinates":[27.07491,38.47576]}},{"type":"Feature","properties":{"id":"bus-821-s20384","kind":"busstop","ref":"821","name":"Süleyman Demirel Lisesi","lines":["121","200","777"]},"geometry":{"type":"Point","coordinates":[27.0738,38.4738]}},{"type":"Feature","properties":{"id":"bus-821-s20368","kind":"busstop","ref":"821","name":"Flamingo Sitesi","lines":["121","777"]},"geometry":{"type":"Point","coordinates":[27.0731,38.4723]}},{"type":"Feature","properties":{"id":"bus-821-s20366","kind":"busstop","ref":"821","name":"Flamingo Sitesi 2","lines":["121","777"]},"geometry":{"type":"Point","coordinates":[27.0708,38.4723]}},{"type":"Feature","properties":{"id":"bus-821-s20362","kind":"busstop","ref":"821","name":"Martı","lines":["121","777"]},"geometry":{"type":"Point","coordinates":[27.0671,38.4708]}},{"type":"Feature","properties":{"id":"bus-821-s20360","kind":"busstop","ref":"821","name":"Albatros","lines":["121","777"]},"geometry":{"type":"Point","coordinates":[27.0691,38.4682]}},{"type":"Feature","properties":{"id":"bus-821-s20358","kind":"busstop","ref":"821","name":"Kuğu","lines":["121","777"]},"geometry":{"type":"Point","coordinates":[27.0722,38.4694]}},{"type":"Feature","properties":{"id":"bus-821-s20356","kind":"busstop","ref":"821","name":"Mavişehir Dört Yol","lines":["121","200","777"]},"geometry":{"type":"Point","coordinates":[27.0764,38.4694]}},{"type":"Feature","properties":{"id":"bus-821-s20354","kind":"busstop","ref":"821","name":"Pamukkale Sitesi","lines":["121","200","777"]},"geometry":{"type":"Point","coordinates":[27.0785,38.4694]}},{"type":"Feature","properties":{"id":"bus-821-s20352","kind":"busstop","ref":"821","name":"Spor Merkezi","lines":["121","200","777"]},"geometry":{"type":"Point","coordinates":[27.081,38.4682]}},{"type":"Feature","properties":{"id":"bus-821-s20196","kind":"busstop","ref":"821","name":"Beşikçioğlu Cami","lines":["121","200","229","322","423","428","429","442","443","445","446","447","595","777","820","827"]},"geometry":{"type":"Point","coordinates":[27.0844,38.4631]}},{"type":"Feature","properties":{"id":"bus-821-s20194","kind":"busstop","ref":"821","name":"Bostanlı Pazaryeri","lines":["121","200","229","322","423","428","429","442","443","445","446","447","595","777","820","827"]},"geometry":{"type":"Point","coordinates":[27.0869,38.4606]}},{"type":"Feature","properties":{"id":"bus-821-s20198","kind":"busstop","ref":"821","name":"Bostanlı Market","lines":["121","200","229","322","423","428","429","442","443","445","446","447","595","777","820","827"]},"geometry":{"type":"Point","coordinates":[27.0913,38.4571]}},{"type":"Feature","properties":{"id":"bus-821-s20029","kind":"busstop","ref":"821","name":"Bostanlı İskele","lines":[]},"geometry":{"type":"Point","coordinates":[27.09727,38.45303]}},{"type":"Feature","properties":{"id":"bus-821-s20197","kind":"busstop","ref":"821","name":"Bostanlı Market","lines":["121","200","229","322","423","428","429","442","443","445","446","447","595","777","820","827"]},"geometry":{"type":"Point","coordinates":[27.0914,38.4573]}},{"type":"Feature","properties":{"id":"bus-821-s20189","kind":"busstop","ref":"821","name":"Bostanlı Pazaryeri","lines":["121","200","229","322","423","428","429","442","443","445","446","447","595","777","820","827"]},"geometry":{"type":"Point","coordinates":[27.0869,38.4609]}},{"type":"Feature","properties":{"id":"bus-821-s20191","kind":"busstop","ref":"821","name":"Beşikçioğlu Cami","lines":["121","200","229","322","423","428","429","442","443","445","446","447","595","777","820","827"]},"geometry":{"type":"Point","coordinates":[27.08431,38.4636]}},{"type":"Feature","properties":{"id":"bus-821-s20353","kind":"busstop","ref":"821","name":"Spor Merkezi","lines":["121","200","777"]},"geometry":{"type":"Point","coordinates":[27.0812,38.4683]}},{"type":"Feature","properties":{"id":"bus-821-s20355","kind":"busstop","ref":"821","name":"Pamukkale Sitesi","lines":["121","200","777"]},"geometry":{"type":"Point","coordinates":[27.0786,38.4695]}},{"type":"Feature","properties":{"id":"bus-821-s20357","kind":"busstop","ref":"821","name":"Mavişehir Dört Yol","lines":["121","200","777"]},"geometry":{"type":"Point","coordinates":[27.0765,38.4695]}},{"type":"Feature","properties":{"id":"bus-821-s20359","kind":"busstop","ref":"821","name":"Kuğu","lines":["121","777"]},"geometry":{"type":"Point","coordinates":[27.0723,38.4695]}},{"type":"Feature","properties":{"id":"bus-821-s20361","kind":"busstop","ref":"821","name":"Albatros","lines":["121","777"]},"geometry":{"type":"Point","coordinates":[27.0689,38.4682]}},{"type":"Feature","properties":{"id":"bus-821-s20363","kind":"busstop","ref":"821","name":"Martı","lines":["121","777"]},"geometry":{"type":"Point","coordinates":[27.0671,38.4707]}},{"type":"Feature","properties":{"id":"bus-821-s20367","kind":"busstop","ref":"821","name":"Flamingo Sitesi 2","lines":["121","777"]},"geometry":{"type":"Point","coordinates":[27.0709,38.4723]}},{"type":"Feature","properties":{"id":"bus-821-s20369","kind":"busstop","ref":"821","name":"Flamingo Sitesi","lines":["121","777"]},"geometry":{"type":"Point","coordinates":[27.073,38.4722]}},{"type":"Feature","properties":{"id":"bus-821-s20385","kind":"busstop","ref":"821","name":"Süleyman Demirel Lisesi","lines":["121","200","777"]},"geometry":{"type":"Point","coordinates":[27.07585,38.47407]}},{"type":"Feature","properties":{"id":"bus-821-s22051","kind":"busstop","ref":"821","name":"Soyak","lines":["121","200"]},"geometry":{"type":"Point","coordinates":[27.0759,38.4772]}},{"type":"Feature","properties":{"id":"bus-821-s22053","kind":"busstop","ref":"821","name":"Fotoğraf Müzesi","lines":["121","200"]},"geometry":{"type":"Point","coordinates":[27.07587,38.4796]}},{"type":"Feature","properties":{"id":"bus-821-s22055","kind":"busstop","ref":"821","name":"Bayrak","lines":["121","200"]},"geometry":{"type":"Point","coordinates":[27.07743,38.48158]}},{"type":"Feature","properties":{"id":"bus-821-s22049","kind":"busstop","ref":"821","name":"Albayrak Mavişehir Evleri","lines":["121","200"]},"geometry":{"type":"Point","coordinates":[27.08019,38.48187]}},{"type":"Feature","properties":{"id":"bus-821-s22047","kind":"busstop","ref":"821","name":"Doğa Koleji","lines":["121","200"]},"geometry":{"type":"Point","coordinates":[27.0839,38.4803]}},{"type":"Feature","properties":{"id":"bus-821-s22061","kind":"busstop","ref":"821","name":"Yaşam","lines":["121","200"]},"geometry":{"type":"Point","coordinates":[27.0856,38.4785]}}]}