{"type":"FeatureCollection","features":[{"type":"Feature","properties":{"id":"bus-823-1","kind":"busline","ref":"823","dir":1},"geometry":{"type":"LineString","coordinates":[[27.1171,38.4032],[27.1204,38.4054],[27.1216,38.4059],[27.1221,38.4058],[27.1225,38.4043],[27.1242,38.4026],[27.1235,38.4017],[27.1234,38.3996],[27.1231,38.3993],[27.1254,38.3986],[27.1275,38.3982],[27.1277,38.398],[27.127,38.3953],[27.1269,38.3941],[27.1267,38.3935],[27.1254,38.3916],[27.1249,38.3913],[27.1227,38.3903],[27.1206,38.3896],[27.1196,38.3895],[27.1189,38.3892],[27.117,38.3892],[27.1162,38.3881],[27.1157,38.3861],[27.1142,38.3845],[27.1139,38.3844],[27.1139,38.3842],[27.1193,38.3834],[27.1198,38.383],[27.1196,38.3826],[27.1133,38.3802],[27.1127,38.3802],[27.1123,38.3789],[27.1106,38.3777],[27.1093,38.3771],[27.1083,38.377],[27.1072,38.3766],[27.1078,38.3751],[27.1078,38.3744],[27.1071,38.3714],[27.1085,38.3702],[27.1082,38.3677],[27.108,38.3672],[27.1067,38.3662],[27.1063,38.3648],[27.1059,38.3641],[27.1051,38.3634],[27.105,38.3621],[27.104,38.3606],[27.104,38.3589],[27.1061,38.3587],[27.1067,38.3582],[27.1071,38.3551],[27.1063,38.3539],[27.1055,38.3532],[27.105,38.3533],[27.1047,38.3536],[27.1047,38.3539],[27.105,38.3542],[27.1058,38.3543],[27.1097,38.3534],[27.1134,38.3531],[27.1176,38.3523],[27.1208,38.351],[27.1274,38.3471],[27.1303,38.3462],[27.1334,38.346],[27.1341,38.3455],[27.1339,38.345],[27.1335,38.3449],[27.1331,38.3449],[27.1326,38.3455],[27.1326,38.3471],[27.1338,38.3506],[27.1339,38.3535],[27.1342,38.355],[27.1357,38.3577]]}},{"type":"Feature","properties":{"id":"bus-823-2","kind":"busline","ref":"823","dir":2},"geometry":{"type":"LineString","coordinates":[[27.1357,38.3577],[27.136,38.3582],[27.1359,38.3584],[27.1357,38.3584],[27.1349,38.3571],[27.1338,38.3549],[27.1335,38.3536],[27.1335,38.3502],[27.1328,38.3488],[27.1322,38.3482],[27.1303,38.3472],[27.1283,38.3471],[27.1255,38.3483],[27.1214,38.3509],[27.1182,38.3523],[27.115,38.3531],[27.111,38.3535],[27.1089,38.3539],[27.1079,38.3545],[27.1072,38.3556],[27.1068,38.3584],[27.107,38.3588],[27.1069,38.3591],[27.1045,38.359],[27.1041,38.3592],[27.104,38.3606],[27.105,38.3621],[27.1051,38.3634],[27.1062,38.3644],[27.1068,38.3661],[27.1082,38.3673],[27.1082,38.3684],[27.1086,38.3702],[27.1081,38.3708],[27.1071,38.3714],[27.1078,38.3744],[27.1078,38.3751],[27.1074,38.3765],[27.1079,38.3769],[27.1093,38.3771],[27.1106,38.3777],[27.1121,38.3787],[27.1128,38.3799],[27.1131,38.3801],[27.1199,38.3826],[27.1207,38.3827],[27.1206,38.383],[27.1194,38.3835],[27.1148,38.3841],[27.1142,38.3844],[27.1143,38.3847],[27.1157,38.3861],[27.1162,38.3881],[27.117,38.3892],[27.1189,38.3892],[27.1196,38.3895],[27.1206,38.3896],[27.1227,38.3903],[27.1254,38.3916],[27.1268,38.3937],[27.1272,38.3962],[27.1282,38.3988],[27.1285,38.399],[27.1285,38.3992],[27.1282,38.3993],[27.1277,38.3983],[27.1273,38.3983],[27.1238,38.3991],[27.1213,38.4003],[27.1192,38.4016],[27.1163,38.4023],[27.1173,38.4033],[27.1171,38.4032]]}},{"type":"Feature","properties":{"id":"bus-823-s10310","kind":"busstop","ref":"823","name":"Üçyol Aktarma","lines":["523"]},"geometry":{"type":"Point","coordinates":[27.11718,38.40316]}},{"type":"Feature","properties":{"id":"bus-823-s10252","kind":"busstop","ref":"823","name":"Üçyol Metro","lines":["16","18","19","84","89","92","108","124","156","490","522","556","588","681","950"]},"geometry":{"type":"Point","coordinates":[27.1213,38.4057]}},{"type":"Feature","properties":{"id":"bus-823-s10611","kind":"busstop","ref":"823","name":"Osman Öksüz Parkı","lines":["84","89","92","108","124","156","157","522","550","556","587","588"]},"geometry":{"type":"Point","coordinates":[27.12264,38.40418]}},{"type":"Feature","properties":{"id":"bus-823-s12263","kind":"busstop","ref":"823","name":"Spotçular","lines":["84","89","124","156","522","550","556","587","588"]},"geometry":{"type":"Point","coordinates":[27.12343,38.4006]}},{"type":"Feature","properties":{"id":"bus-823-s12256","kind":"busstop","ref":"823","name":"Bozyaka Devlet Hastanesi","lines":["89","522","550","556","588"]},"geometry":{"type":"Point","coordinates":[27.1263,38.3984]}},{"type":"Feature","properties":{"id":"bus-823-s12199","kind":"busstop","ref":"823","name":"Kilimci Tepe","lines":["23","89","193","224","522","550","556","588","680"]},"geometry":{"type":"Point","coordinates":[27.12713,38.39615]}},{"type":"Feature","properties":{"id":"bus-823-s12201","kind":"busstop","ref":"823","name":"Narlık","lines":["23","89","193","224","522","550","556","588","680"]},"geometry":{"type":"Point","coordinates":[27.12662,38.39351]}},{"type":"Feature","properties":{"id":"bus-823-s12203","kind":"busstop","ref":"823","name":"Zincirlikuyu","lines":["23","193","224","522","588","680"]},"geometry":{"type":"Point","coordinates":[27.1245,38.3912]}},{"type":"Feature","properties":{"id":"bus-823-s12205","kind":"busstop","ref":"823","name":"Kestelli","lines":["23","193","224","522","588","680"]},"geometry":{"type":"Point","coordinates":[27.12187,38.39008]}},{"type":"Feature","properties":{"id":"bus-823-s12207","kind":"busstop","ref":"823","name":"Bozyaka Cami","lines":["23","193","224","522","588","680"]},"geometry":{"type":"Point","coordinates":[27.11989,38.38953]}},{"type":"Feature","properties":{"id":"bus-823-s12209","kind":"busstop","ref":"823","name":"Karakuyu","lines":["23","124","193","224","522","587","588","680","879"]},"geometry":{"type":"Point","coordinates":[27.1159,38.3872]}},{"type":"Feature","properties":{"id":"bus-823-s12211","kind":"busstop","ref":"823","name":"Karaselvi","lines":["23","124","193","224","522","587","588","680","879"]},"geometry":{"type":"Point","coordinates":[27.1147,38.3851]}},{"type":"Feature","properties":{"id":"bus-823-s16521","kind":"busstop","ref":"823","name":"Sevgi Mahalle Muhtarlığı","lines":["224","522","879"]},"geometry":{"type":"Point","coordinates":[27.11559,38.3839]}},{"type":"Feature","properties":{"id":"bus-823-s12644","kind":"busstop","ref":"823","name":"İsmail Hakkı Tonguç Parkı","lines":["224","522","879"]},"geometry":{"type":"Point","coordinates":[27.11788,38.3835]}},{"type":"Feature","properties":{"id":"bus-823-s12625","kind":"busstop","ref":"823","name":"Trafo","lines":["224","522","671"]},"geometry":{"type":"Point","coordinates":[27.118,38.3821]}},{"type":"Feature","properties":{"id":"bus-823-s12617","kind":"busstop","ref":"823","name":"Karanfil","lines":["224","522","671"]},"geometry":{"type":"Point","coordinates":[27.11612,38.38126]}},{"type":"Feature","properties":{"id":"bus-823-s12621","kind":"busstop","ref":"823","name":"Çamlık Yol Ayrımı","lines":["224","522","671"]},"geometry":{"type":"Point","coordinates":[27.11348,38.38033]}},{"type":"Feature","properties":{"id":"bus-823-s12215","kind":"busstop","ref":"823","name":"Kuyu","lines":["23","193","224","522","587","671","680"]},"geometry":{"type":"Point","coordinates":[27.1106,38.3778]}},{"type":"Feature","properties":{"id":"bus-823-s12217","kind":"busstop","ref":"823","name":"Yıkık Cami","lines":["23","224","523","877"]},"geometry":{"type":"Point","coordinates":[27.10765,38.3753]}},{"type":"Feature","properties":{"id":"bus-823-s12219","kind":"busstop","ref":"823","name":"Naci Şensoy Anadolu Lisesi","lines":["23","224","523","877"]},"geometry":{"type":"Point","coordinates":[27.10726,38.37252]}},{"type":"Feature","properties":{"id":"bus-823-s12223","kind":"busstop","ref":"823","name":"Hulusi Kentmen Parkı","lines":["23","523","877"]},"geometry":{"type":"Point","coordinates":[27.10777,38.37078]}},{"type":"Feature","properties":{"id":"bus-823-s12225","kind":"busstop","ref":"823","name":"Çiftlik","lines":["23","523","877"]},"geometry":{"type":"Point","coordinates":[27.10828,38.36908]}},{"type":"Feature","properties":{"id":"bus-823-s12227","kind":"busstop","ref":"823","name":"Eskiizmir İlkokulu","lines":["23","523","877"]},"geometry":{"type":"Point","coordinates":[27.10775,38.36705]}},{"type":"Feature","properties":{"id":"bus-823-s12229","kind":"busstop","ref":"823","name":"Reşat Nuri","lines":["23","523","877"]},"geometry":{"type":"Point","coordinates":[27.10639,38.36548]}},{"type":"Feature","properties":{"id":"bus-823-s12231","kind":"busstop","ref":"823","name":"Gürsel","lines":["23","523","877"]},"geometry":{"type":"Point","coordinates":[27.105,38.3631]}},{"type":"Feature","properties":{"id":"bus-823-s12233","kind":"busstop","ref":"823","name":"İzmir Anadolu Lisesi","lines":["23","523","877"]},"geometry":{"type":"Point","coordinates":[27.10392,38.36009]}},{"type":"Feature","properties":{"id":"bus-823-s10656","kind":"busstop","ref":"823","name":"Aktepe","lines":["152","200","508","539","610","691","828","877","879","887","891","910"]},"geometry":{"type":"Point","coordinates":[27.134,38.3526]}},{"type":"Feature","properties":{"id":"bus-823-s10678","kind":"busstop","ref":"823","name":"Gaziemir Aktarma Merkezi","lines":["485","508","610","828","877","879","891"]},"geometry":{"type":"Point","coordinates":[27.13556,38.35726]}},{"type":"Feature","properties":{"id":"bus-823-s10653","kind":"busstop","ref":"823","name":"Gaziemir Semt Garajı","lines":["152","200","508","539","610","691","828","877","879","887","891","910"]},"geometry":{"type":"Point","coordinates":[27.13479,38.35704]}},{"type":"Feature","properties":{"id":"bus-823-s10655","kind":"busstop","ref":"823","name":"Emrez","lines":["152","200","508","539","610","691","828","877","879","887","891","910"]},"geometry":{"type":"Point","coordinates":[27.134,38.3555]}},{"type":"Feature","properties":{"id":"bus-823-s10657","kind":"busstop","ref":"823","name":"Aktepe","lines":["152","200","508","539","610","691","828","877","879","887","891","910"]},"geometry":{"type":"Point","coordinates":[27.1334,38.3518]}},{"type":"Feature","properties":{"id":"bus-823-s12232","kind":"busstop","ref":"823","name":"İzmir Anadolu Lisesi","lines":["23","523","877"]},"geometry":{"type":"Point","coordinates":[27.1041,38.3603]}},{"type":"Feature","properties":{"id":"bus-823-s12230","kind":"busstop","ref":"823","name":"Gürsel","lines":["23","523","877"]},"geometry":{"type":"Point","coordinates":[27.1053,38.3633]}},{"type":"Feature","properties":{"id":"bus-823-s12228","kind":"busstop","ref":"823","name":"Reşat Nuri","lines":["23","523","877"]},"geometry":{"type":"Point","coordinates":[27.10664,38.36543]}},{"type":"Feature","properties":{"id":"bus-823-s12226","kind":"busstop","ref":"823","name":"Eskiizmir İlkokulu","lines":["23","523","877"]},"geometry":{"type":"Point","coordinates":[27.1081,38.367]}},{"type":"Feature","properties":{"id":"bus-823-s12224","kind":"busstop","ref":"823","name":"Çiftlik","lines":["23","523","877"]},"geometry":{"type":"Point","coordinates":[27.1086,38.3692]}},{"type":"Feature","properties":{"id":"bus-823-s12222","kind":"busstop","ref":"823","name":"Hulusi Kentmen Parkı","lines":["23","523","877"]},"geometry":{"type":"Point","coordinates":[27.10772,38.371]}},{"type":"Feature","properties":{"id":"bus-823-s12220","kind":"busstop","ref":"823","name":"Naci Şensoy Anadolu Lisesi","lines":["23","224","523","877"]},"geometry":{"type":"Point","coordinates":[27.1075,38.3729]}},{"type":"Feature","properties":{"id":"bus-823-s12218","kind":"busstop","ref":"823","name":"Yıkık Cami","lines":["23","224","523","877"]},"geometry":{"type":"Point","coordinates":[27.1076,38.3757]}},{"type":"Feature","properties":{"id":"bus-823-s12216","kind":"busstop","ref":"823","name":"Kuyu","lines":["23","193","224","522","587","671","680"]},"geometry":{"type":"Point","coordinates":[27.11087,38.3779]}},{"type":"Feature","properties":{"id":"bus-823-s12620","kind":"busstop","ref":"823","name":"Çamlık Yol Ayrımı","lines":["224","522","588","671"]},"geometry":{"type":"Point","coordinates":[27.1139,38.3803]}},{"type":"Feature","properties":{"id":"bus-823-s12618","kind":"busstop","ref":"823","name":"Karanfil","lines":["224","522","671"]},"geometry":{"type":"Point","coordinates":[27.11625,38.38111]}},{"type":"Feature","properties":{"id":"bus-823-s12624","kind":"busstop","ref":"823","name":"Trafo","lines":["522","671"]},"geometry":{"type":"Point","coordinates":[27.1191,38.38214]}},{"type":"Feature","properties":{"id":"bus-823-s12643","kind":"busstop","ref":"823","name":"İsmail Hakkı Tonguç Parkı","lines":["224","522","879"]},"geometry":{"type":"Point","coordinates":[27.11888,38.3836]}},{"type":"Feature","properties":{"id":"bus-823-s16520","kind":"busstop","ref":"823","name":"Sevgi Mahalle Muhtarlığı","lines":["224","522","879"]},"geometry":{"type":"Point","coordinates":[27.11561,38.38404]}},{"type":"Feature","properties":{"id":"bus-823-s12212","kind":"busstop","ref":"823","name":"Karaselvi","lines":["23","124","193","224","522","587","588","680","879"]},"geometry":{"type":"Point","coordinates":[27.1152,38.3854]}},{"type":"Feature","properties":{"id":"bus-823-s12210","kind":"busstop","ref":"823","name":"Karakuyu","lines":["23","124","193","224","522","587","588","680","879"]},"geometry":{"type":"Point","coordinates":[27.11616,38.38757]}},{"type":"Feature","properties":{"id":"bus-823-s12208","kind":"busstop","ref":"823","name":"Bozyaka Cami","lines":["23","193","224","522","588","680"]},"geometry":{"type":"Point","coordinates":[27.12069,38.38956]}},{"type":"Feature","properties":{"id":"bus-823-s12206","kind":"busstop","ref":"823","name":"Kestelli","lines":["23","193","224","522","588","680"]},"geometry":{"type":"Point","coordinates":[27.1224,38.3901]}},{"type":"Feature","properties":{"id":"bus-823-s12204","kind":"busstop","ref":"823","name":"Zincirlikuyu","lines":["23","193","224","522","550","556","588","680"]},"geometry":{"type":"Point","coordinates":[27.1259,38.3922]}},{"type":"Feature","properties":{"id":"bus-823-s12202","kind":"busstop","ref":"823","name":"Narlık","lines":["23","89","193","224","522","550","556","588","680"]},"geometry":{"type":"Point","coordinates":[27.1268,38.3936]}},{"type":"Feature","properties":{"id":"bus-823-s12200","kind":"busstop","ref":"823","name":"Kilimci Tepe","lines":["23","89","193","224","522","550","556","588","680"]},"geometry":{"type":"Point","coordinates":[27.1274,38.3962]}},{"type":"Feature","properties":{"id":"bus-823-s12255","kind":"busstop","ref":"823","name":"Bozyaka Devlet Hastanesi","lines":["89","522","550","556","588"]},"geometry":{"type":"Point","coordinates":[27.12657,38.3985]}},{"type":"Feature","properties":{"id":"bus-823-s12257","kind":"busstop","ref":"823","name":"Çevik Kuvvet","lines":["20","84","89","124","156","522","556","588"]},"geometry":{"type":"Point","coordinates":[27.122,38.4]}},{"type":"Feature","properties":{"id":"bus-823-s12259","kind":"busstop","ref":"823","name":"Bahçelievler","lines":["20","84","89","124","156","522","556","588"]},"geometry":{"type":"Point","coordinates":[27.1181,38.402]}}]}