{"type":"FeatureCollection","features":[{"type":"Feature","properties":{"id":"bus-829-1","kind":"busline","ref":"829","dir":1},"geometry":{"type":"LineString","coordinates":[[27.0214,38.2],[27.0214,38.2008],[27.0223,38.2014],[27.0243,38.2041],[27.0304,38.2083],[27.0326,38.2093],[27.0371,38.2103],[27.038,38.211],[27.0408,38.2122],[27.042,38.2134],[27.0425,38.2146],[27.0437,38.2157],[27.0438,38.216],[27.0462,38.2178],[27.0475,38.2196],[27.0492,38.2214],[27.0513,38.2219],[27.0519,38.2224],[27.0528,38.2226],[27.0556,38.224],[27.0562,38.2255],[27.0577,38.2265],[27.0591,38.2295],[27.06,38.2303],[27.064,38.2332],[27.0667,38.2338],[27.0682,38.2349],[27.0706,38.2358],[27.0709,38.2361],[27.0716,38.2396],[27.0764,38.2424],[27.0782,38.2426],[27.0803,38.2433],[27.0828,38.2436],[27.0848,38.2434],[27.0869,38.2435],[27.0931,38.2419],[27.0954,38.2418],[27.0988,38.2408],[27.0998,38.2407],[27.1003,38.2408],[27.1031,38.2426],[27.1048,38.2446],[27.1111,38.2477],[27.1131,38.246],[27.1169,38.2476],[27.1181,38.2479],[27.1221,38.2487],[27.1248,38.2486],[27.1262,38.2492],[27.1312,38.2505],[27.1318,38.2498],[27.132,38.249],[27.1332,38.248],[27.1339,38.2483],[27.1341,38.2488],[27.1338,38.2507],[27.1333,38.2516],[27.1321,38.2527],[27.131,38.2541],[27.1308,38.2558],[27.1319,38.256],[27.1343,38.2559],[27.1375,38.2554],[27.1382,38.255],[27.1383,38.2552],[27.1398,38.2558],[27.1416,38.2577],[27.1422,38.2581],[27.1456,38.2597],[27.1462,38.2609],[27.1466,38.2612],[27.1493,38.2616],[27.1535,38.2616],[27.1581,38.2629],[27.1629,38.2625],[27.1627,38.2627]]}},{"type":"Feature","properties":{"id":"bus-829-2","kind":"busline","ref":"829","dir":2},"geometry":{"type":"LineString","coordinates":[[27.1627,38.2627],[27.1629,38.2625],[27.1581,38.2629],[27.1535,38.2616],[27.1493,38.2616],[27.1466,38.2612],[27.1462,38.2609],[27.1456,38.2597],[27.1422,38.2581],[27.1416,38.2577],[27.1398,38.2558],[27.1386,38.2553],[27.1369,38.2554],[27.1333,38.256],[27.1308,38.2558],[27.131,38.2541],[27.133,38.2516],[27.1326,38.2507],[27.133,38.2503],[27.133,38.2492],[27.1339,38.2483],[27.1332,38.248],[27.132,38.249],[27.1318,38.2498],[27.1312,38.2505],[27.1243,38.2487],[27.1224,38.2488],[27.1181,38.2479],[27.1169,38.2476],[27.1131,38.246],[27.1111,38.2477],[27.1048,38.2446],[27.1031,38.2426],[27.1003,38.2408],[27.0998,38.2407],[27.0988,38.2408],[27.0954,38.2418],[27.0931,38.2419],[27.0869,38.2435],[27.0848,38.2434],[27.0828,38.2436],[27.0803,38.2433],[27.0782,38.2426],[27.0764,38.2424],[27.0716,38.2396],[27.0709,38.2361],[27.0706,38.2358],[27.0682,38.2349],[27.0667,38.2338],[27.064,38.2332],[27.06,38.2303],[27.0591,38.2295],[27.0577,38.2265],[27.0562,38.2255],[27.0556,38.224],[27.0528,38.2226],[27.0519,38.2224],[27.0513,38.2219],[27.0492,38.2214],[27.0475,38.2196],[27.0462,38.2178],[27.0438,38.216],[27.0437,38.2157],[27.0425,38.2146],[27.042,38.2134],[27.0408,38.2122],[27.038,38.211],[27.0371,38.2103],[27.0326,38.2093],[27.0304,38.2083],[27.0243,38.2041],[27.0223,38.2014],[27.0214,38.2008],[27.0214,38.1996]]}},{"type":"Feature","properties":{"id":"bus-829-s13600","kind":"busstop","ref":"829","name":"Sümbül","lines":[]},"geometry":{"type":"Point","coordinates":[27.02326,38.20253]}},{"type":"Feature","properties":{"id":"bus-829-s13648","kind":"busstop","ref":"829","name":"Dalya","lines":[]},"geometry":{"type":"Point","coordinates":[27.0269,38.2057]}},{"type":"Feature","properties":{"id":"bus-829-s13646","kind":"busstop","ref":"829","name":"Hercai","lines":[]},"geometry":{"type":"Point","coordinates":[27.0301,38.2079]}},{"type":"Feature","properties":{"id":"bus-829-s13644","kind":"busstop","ref":"829","name":"Gülhatmi","lines":[]},"geometry":{"type":"Point","coordinates":[27.0338,38.2095]}},{"type":"Feature","properties":{"id":"bus-829-s13598","kind":"busstop","ref":"829","name":"Menekşe","lines":[]},"geometry":{"type":"Point","coordinates":[27.0393,38.2114]}},{"type":"Feature","properties":{"id":"bus-829-s13924","kind":"busstop","ref":"829","name":"Aslanağazı","lines":[]},"geometry":{"type":"Point","coordinates":[27.0421,38.2139]}},{"type":"Feature","properties":{"id":"bus-829-s13596","kind":"busstop","ref":"829","name":"Yeniköy Ortaokulu","lines":[]},"geometry":{"type":"Point","coordinates":[27.04352,38.21548]}},{"type":"Feature","properties":{"id":"bus-829-s13578","kind":"busstop","ref":"829","name":"Yeniköy Kahveler","lines":[]},"geometry":{"type":"Point","coordinates":[27.04445,38.21646]}},{"type":"Feature","properties":{"id":"bus-829-s13594","kind":"busstop","ref":"829","name":"Yeniköy Giriş","lines":[]},"geometry":{"type":"Point","coordinates":[27.0465,38.21815]}},{"type":"Feature","properties":{"id":"bus-829-s13586","kind":"busstop","ref":"829","name":"Yeniköy Lale","lines":[]},"geometry":{"type":"Point","coordinates":[27.0478,38.2198]}},{"type":"Feature","properties":{"id":"bus-829-s13582","kind":"busstop","ref":"829","name":"Yeniköy Zambak","lines":[]},"geometry":{"type":"Point","coordinates":[27.0495,38.2215]}},{"type":"Feature","properties":{"id":"bus-829-s13580","kind":"busstop","ref":"829","name":"Yeniköy Menekşe","lines":[]},"geometry":{"type":"Point","coordinates":[27.0515,38.2221]}},{"type":"Feature","properties":{"id":"bus-829-s13569","kind":"busstop","ref":"829","name":"Yeniköy Atış Poligonu","lines":[]},"geometry":{"type":"Point","coordinates":[27.0559,38.22433]}},{"type":"Feature","properties":{"id":"bus-829-s13572","kind":"busstop","ref":"829","name":"Seven","lines":[]},"geometry":{"type":"Point","coordinates":[27.05712,38.22609]}},{"type":"Feature","properties":{"id":"bus-829-s13592","kind":"busstop","ref":"829","name":"Orkide","lines":[]},"geometry":{"type":"Point","coordinates":[27.0587,38.2285]}},{"type":"Feature","properties":{"id":"bus-829-s13588","kind":"busstop","ref":"829","name":"Üzümlü","lines":[]},"geometry":{"type":"Point","coordinates":[27.06069,38.23072]}},{"type":"Feature","properties":{"id":"bus-829-s13590","kind":"busstop","ref":"829","name":"Bahçecik","lines":[]},"geometry":{"type":"Point","coordinates":[27.06535,38.23337]}},{"type":"Feature","properties":{"id":"bus-829-s16850","kind":"busstop","ref":"829","name":"Yeniköy Küme Evleri","lines":[]},"geometry":{"type":"Point","coordinates":[27.06859,38.23504]}},{"type":"Feature","properties":{"id":"bus-829-s16249","kind":"busstop","ref":"829","name":"Yeniköy Yolu","lines":[]},"geometry":{"type":"Point","coordinates":[27.07112,38.23653]}},{"type":"Feature","properties":{"id":"bus-829-s13922","kind":"busstop","ref":"829","name":"Anemon","lines":[]},"geometry":{"type":"Point","coordinates":[27.0737,38.2407]}},{"type":"Feature","properties":{"id":"bus-829-s13518","kind":"busstop","ref":"829","name":"Orman İşletmesi","lines":[]},"geometry":{"type":"Point","coordinates":[27.08238,38.24346]}},{"type":"Feature","properties":{"id":"bus-829-s13502","kind":"busstop","ref":"829","name":"Çatalca Yol Ayrımı","lines":["789","799"]},"geometry":{"type":"Point","coordinates":[27.0863,38.2434]}},{"type":"Feature","properties":{"id":"bus-829-s13498","kind":"busstop","ref":"829","name":"Üzüm Bağları","lines":["789","799"]},"geometry":{"type":"Point","coordinates":[27.08978,38.24285]}},{"type":"Feature","properties":{"id":"bus-829-s13500","kind":"busstop","ref":"829","name":"Akçaköy Yol Ayrımı","lines":["789","799"]},"geometry":{"type":"Point","coordinates":[27.0937,38.2418]}},{"type":"Feature","properties":{"id":"bus-829-s13584","kind":"busstop","ref":"829","name":"Plastik Fabrikası","lines":["789","799"]},"geometry":{"type":"Point","coordinates":[27.1006,38.241]}},{"type":"Feature","properties":{"id":"bus-829-s13920","kind":"busstop","ref":"829","name":"Ilgın","lines":["789","799"]},"geometry":{"type":"Point","coordinates":[27.1052,38.2447]}},{"type":"Feature","properties":{"id":"bus-829-s13496","kind":"busstop","ref":"829","name":"Merkez Sokak","lines":["789","799"]},"geometry":{"type":"Point","coordinates":[27.11049,38.24731]}},{"type":"Feature","properties":{"id":"bus-829-s13130","kind":"busstop","ref":"829","name":"Dereköy","lines":["799","804"]},"geometry":{"type":"Point","coordinates":[27.1133,38.246]}},{"type":"Feature","properties":{"id":"bus-829-s13330","kind":"busstop","ref":"829","name":"Dereköy İlkokulu","lines":["799","804"]},"geometry":{"type":"Point","coordinates":[27.11602,38.24717]}},{"type":"Feature","properties":{"id":"bus-829-s13332","kind":"busstop","ref":"829","name":"İncir Fabrikası","lines":["789","799","804"]},"geometry":{"type":"Point","coordinates":[27.12097,38.24836]}},{"type":"Feature","properties":{"id":"bus-829-s13334","kind":"busstop","ref":"829","name":"Dereköy Kavşak","lines":["789","799","804"]},"geometry":{"type":"Point","coordinates":[27.1238,38.2486]}},{"type":"Feature","properties":{"id":"bus-829-s10953","kind":"busstop","ref":"829","name":"Dereköy Yolu","lines":["789"]},"geometry":{"type":"Point","coordinates":[27.12657,38.24923]}},{"type":"Feature","properties":{"id":"bus-829-s10781","kind":"busstop","ref":"829","name":"Barbaros","lines":["789"]},"geometry":{"type":"Point","coordinates":[27.1307,38.25029]}},{"type":"Feature","properties":{"id":"bus-829-s16155","kind":"busstop","ref":"829","name":"Saha","lines":["789"]},"geometry":{"type":"Point","coordinates":[27.1319,38.24927]}},{"type":"Feature","properties":{"id":"bus-829-s10722","kind":"busstop","ref":"829","name":"Cüneytbey Cami","lines":["508","707","789","799","804","808","814"]},"geometry":{"type":"Point","coordinates":[27.134,38.25]}},{"type":"Feature","properties":{"id":"bus-829-s10720","kind":"busstop","ref":"829","name":"Menderes Belediyesi","lines":["508","707","789","799","804","808","814"]},"geometry":{"type":"Point","coordinates":[27.13417,38.25173]}},{"type":"Feature","properties":{"id":"bus-829-s10718","kind":"busstop","ref":"829","name":"Sümerbank","lines":["508","707","789","799","804","808","814"]},"geometry":{"type":"Point","coordinates":[27.1309,38.2546]}},{"type":"Feature","properties":{"id":"bus-829-s11253","kind":"busstop","ref":"829","name":"Menderes İnönü","lines":["707","729","775","776","789","792","794","799","804"]},"geometry":{"type":"Point","coordinates":[27.1318,38.2559]}},{"type":"Feature","properties":{"id":"bus-829-s11255","kind":"busstop","ref":"829","name":"Menderes Stadyum","lines":["707","729","775","776","789","792","794","799","804"]},"geometry":{"type":"Point","coordinates":[27.1367,38.2553]}},{"type":"Feature","properties":{"id":"bus-829-s11259","kind":"busstop","ref":"829","name":"Menderes Pazar Yeri","lines":["707","729","775","776","789","792","794","799","804","808"]},"geometry":{"type":"Point","coordinates":[27.13962,38.25558]}},{"type":"Feature","properties":{"id":"bus-829-s15536","kind":"busstop","ref":"829","name":"Fesleğen","lines":["707","729","775","776","789","792","794","799","804","808"]},"geometry":{"type":"Point","coordinates":[27.14161,38.2575]}},{"type":"Feature","properties":{"id":"bus-829-s11261","kind":"busstop","ref":"829","name":"Gölcükler Adnan Ocay Ortaokulu","lines":["707","729","775","776","789","792","794","799","804","808"]},"geometry":{"type":"Point","coordinates":[27.14452,38.2591]}},{"type":"Feature","properties":{"id":"bus-829-s11265","kind":"busstop","ref":"829","name":"Gölcükler Sera","lines":["707","729","775","776","789","792","794","799","804","808","814"]},"geometry":{"type":"Point","coordinates":[27.14759,38.26131]}},{"type":"Feature","properties":{"id":"bus-829-s11271","kind":"busstop","ref":"829","name":"Oğlananası Yol Ayrımı","lines":["707","729","775","776","789","792","794","799","804","808","814"]},"geometry":{"type":"Point","coordinates":[27.1519,38.2615]}},{"type":"Feature","properties":{"id":"bus-829-s11267","kind":"busstop","ref":"829","name":"Amber","lines":["707","729","775","776","789","792","794","799","804","808","814"]},"geometry":{"type":"Point","coordinates":[27.1563,38.2623]}},{"type":"Feature","properties":{"id":"bus-829-s13276","kind":"busstop","ref":"829","name":"Cumaovası Aktarma Merkezi","lines":["729","792","794"]},"geometry":{"type":"Point","coordinates":[27.16268,38.26275]}},{"type":"Feature","properties":{"id":"bus-829-s11266","kind":"busstop","ref":"829","name":"Amber","lines":["707","729","775","776","789","792","794","799","804","808","814"]},"geometry":{"type":"Point","coordinates":[27.1562,38.2624]}},{"type":"Feature","properties":{"id":"bus-829-s11270","kind":"busstop","ref":"829","name":"Oğlananası Yol Ayrımı","lines":["707","729","775","776","789","792","794","799","804","808","814"]},"geometry":{"type":"Point","coordinates":[27.15227,38.26153]}},{"type":"Feature","properties":{"id":"bus-829-s11264","kind":"busstop","ref":"829","name":"Gölcükler Sera","lines":["707","729","775","776","789","792","794","799","804","808","814"]},"geometry":{"type":"Point","coordinates":[27.14687,38.26131]}},{"type":"Feature","properties":{"id":"bus-829-s11260","kind":"busstop","ref":"829","name":"Gölcükler  Adnan Ocay Ortaokulu","lines":["707","729","775","776","789","792","794","799","804","808"]},"geometry":{"type":"Point","coordinates":[27.14409,38.25902]}},{"type":"Feature","properties":{"id":"bus-829-s15535","kind":"busstop","ref":"829","name":"Fesleğen","lines":["707","729","775","776","789","792","794","799","804","808"]},"geometry":{"type":"Point","coordinates":[27.14124,38.25737]}},{"type":"Feature","properties":{"id":"bus-829-s11258","kind":"busstop","ref":"829","name":"Menderes Pazar Yeri","lines":["707","729","775","776","789","792","794","799","804","808"]},"geometry":{"type":"Point","coordinates":[27.13905,38.25558]}},{"type":"Feature","properties":{"id":"bus-829-s11254","kind":"busstop","ref":"829","name":"Menderes Stadyum","lines":["707","729","775","776","789","792","794","799","804"]},"geometry":{"type":"Point","coordinates":[27.1362,38.2555]}},{"type":"Feature","properties":{"id":"bus-829-s11252","kind":"busstop","ref":"829","name":"Menderes İnönü","lines":["707","729","775","776","789","792","794","799","804"]},"geometry":{"type":"Point","coordinates":[27.1322,38.256]}},{"type":"Feature","properties":{"id":"bus-829-s10717","kind":"busstop","ref":"829","name":"Sümerbank","lines":["508","707","789","799","804","808","814"]},"geometry":{"type":"Point","coordinates":[27.1308,38.2544]}},{"type":"Feature","properties":{"id":"bus-829-s10719","kind":"busstop","ref":"829","name":"Menderes Belediyesi","lines":["508","707","789","799","804","808","814"]},"geometry":{"type":"Point","coordinates":[27.1325,38.2521]}},{"type":"Feature","properties":{"id":"bus-829-s10721","kind":"busstop","ref":"829","name":"Menderes Ziraat Odası","lines":["508","707","799","804","808","814"]},"geometry":{"type":"Point","coordinates":[27.13293,38.24956]}},{"type":"Feature","properties":{"id":"bus-829-s16156","kind":"busstop","ref":"829","name":"Saha","lines":["789"]},"geometry":{"type":"Point","coordinates":[27.13199,38.24938]}},{"type":"Feature","properties":{"id":"bus-829-s10782","kind":"busstop","ref":"829","name":"Barbaros","lines":["789"]},"geometry":{"type":"Point","coordinates":[27.13039,38.25029]}},{"type":"Feature","properties":{"id":"bus-829-s10952","kind":"busstop","ref":"829","name":"Dereköy Yolu","lines":["789"]},"geometry":{"type":"Point","coordinates":[27.1265,38.24932]}},{"type":"Feature","properties":{"id":"bus-829-s13335","kind":"busstop","ref":"829","name":"Dereköy Kavşak","lines":["789","799","804"]},"geometry":{"type":"Point","coordinates":[27.12436,38.24882]}},{"type":"Feature","properties":{"id":"bus-829-s13333","kind":"busstop","ref":"829","name":"İncir Fabrikası","lines":["789","799","804"]},"geometry":{"type":"Point","coordinates":[27.12161,38.24871]}},{"type":"Feature","properties":{"id":"bus-829-s13329","kind":"busstop","ref":"829","name":"Dereköy İlkokulu","lines":["799","804"]},"geometry":{"type":"Point","coordinates":[27.11618,38.24744]}},{"type":"Feature","properties":{"id":"bus-829-s13331","kind":"busstop","ref":"829","name":"Dereköy","lines":["799","804"]},"geometry":{"type":"Point","coordinates":[27.1134,38.2461]}},{"type":"Feature","properties":{"id":"bus-829-s13495","kind":"busstop","ref":"829","name":"Merkez Sokak","lines":["789","799"]},"geometry":{"type":"Point","coordinates":[27.1104,38.2474]}},{"type":"Feature","properties":{"id":"bus-829-s13921","kind":"busstop","ref":"829","name":"Ilgın","lines":["789","799"]},"geometry":{"type":"Point","coordinates":[27.10498,38.24471]}},{"type":"Feature","properties":{"id":"bus-829-s13585","kind":"busstop","ref":"829","name":"Plastik Fabrikası","lines":["789","799"]},"geometry":{"type":"Point","coordinates":[27.1006,38.2411]}},{"type":"Feature","properties":{"id":"bus-829-s13499","kind":"busstop","ref":"829","name":"Akçaköy Yol Ayrımı","lines":["789","799"]},"geometry":{"type":"Point","coordinates":[27.0936,38.2419]}},{"type":"Feature","properties":{"id":"bus-829-s13497","kind":"busstop","ref":"829","name":"Üzüm Bağları","lines":["789","799"]},"geometry":{"type":"Point","coordinates":[27.08958,38.24273]}},{"type":"Feature","properties":{"id":"bus-829-s13501","kind":"busstop","ref":"829","name":"Çatalca Yol Ayrımı","lines":[]},"geometry":{"type":"Point","coordinates":[27.0852,38.2435]}},{"type":"Feature","properties":{"id":"bus-829-s13519","kind":"busstop","ref":"829","name":"Orman İşletmesi","lines":[]},"geometry":{"type":"Point","coordinates":[27.08204,38.24356]}},{"type":"Feature","properties":{"id":"bus-829-s13923","kind":"busstop","ref":"829","name":"Anemon","lines":[]},"geometry":{"type":"Point","coordinates":[27.0738,38.2409]}},{"type":"Feature","properties":{"id":"bus-829-s16250","kind":"busstop","ref":"829","name":"Yeniköy Yolu","lines":[]},"geometry":{"type":"Point","coordinates":[27.07091,38.23641]}},{"type":"Feature","properties":{"id":"bus-829-s16851","kind":"busstop","ref":"829","name":"Yeniköy Küme Evleri","lines":[]},"geometry":{"type":"Point","coordinates":[27.0684,38.23505]}},{"type":"Feature","properties":{"id":"bus-829-s13591","kind":"busstop","ref":"829","name":"Bahçecik","lines":[]},"geometry":{"type":"Point","coordinates":[27.06524,38.23347]}},{"type":"Feature","properties":{"id":"bus-829-s13589","kind":"busstop","ref":"829","name":"Üzümlü","lines":[]},"geometry":{"type":"Point","coordinates":[27.0609,38.231]}},{"type":"Feature","properties":{"id":"bus-829-s13593","kind":"busstop","ref":"829","name":"Orkide","lines":[]},"geometry":{"type":"Point","coordinates":[27.0586,38.2285]}},{"type":"Feature","properties":{"id":"bus-829-s13571","kind":"busstop","ref":"829","name":"Seven","lines":[]},"geometry":{"type":"Point","coordinates":[27.0569,38.22607]}},{"type":"Feature","properties":{"id":"bus-829-s13570","kind":"busstop","ref":"829","name":"Yeniköy Atış Poligonu","lines":[]},"geometry":{"type":"Point","coordinates":[27.05526,38.22388]}},{"type":"Feature","properties":{"id":"bus-829-s13581","kind":"busstop","ref":"829","name":"Yeniköy Menekşe","lines":[]},"geometry":{"type":"Point","coordinates":[27.0517,38.2224]}},{"type":"Feature","properties":{"id":"bus-829-s13583","kind":"busstop","ref":"829","name":"Yeniköy Zambak","lines":[]},"geometry":{"type":"Point","coordinates":[27.04932,38.22147]}},{"type":"Feature","properties":{"id":"bus-829-s13587","kind":"busstop","ref":"829","name":"Yeniköy Lale","lines":[]},"geometry":{"type":"Point","coordinates":[27.0476,38.2198]}},{"type":"Feature","properties":{"id":"bus-829-s13595","kind":"busstop","ref":"829","name":"Yeniköy Giriş","lines":[]},"geometry":{"type":"Point","coordinates":[27.0466,38.2184]}},{"type":"Feature","properties":{"id":"bus-829-s13579","kind":"busstop","ref":"829","name":"Yeniköy Kahveler","lines":[]},"geometry":{"type":"Point","coordinates":[27.0447,38.2167]}},{"type":"Feature","properties":{"id":"bus-829-s13597","kind":"busstop","ref":"829","name":"Yeniköy Ortaokulu","lines":[]},"geometry":{"type":"Point","coordinates":[27.04366,38.21574]}},{"type":"Feature","properties":{"id":"bus-829-s13925","kind":"busstop","ref":"829","name":"Aslanağazı","lines":[]},"geometry":{"type":"Point","coordinates":[27.0421,38.214]}},{"type":"Feature","properties":{"id":"bus-829-s13599","kind":"busstop","ref":"829","name":"Menekşe","lines":[]},"geometry":{"type":"Point","coordinates":[27.0395,38.2116]}},{"type":"Feature","properties":{"id":"bus-829-s13645","kind":"busstop","ref":"829","name":"Gülhatmi","lines":[]},"geometry":{"type":"Point","coordinates":[27.0335,38.2095]}},{"type":"Feature","properties":{"id":"bus-829-s13647","kind":"busstop","ref":"829","name":"Hercai","lines":[]},"geometry":{"type":"Point","coordinates":[27.03,38.2079]}},{"type":"Feature","properties":{"id":"bus-829-s13649","kind":"busstop","ref":"829","name":"Dalya","lines":[]},"geometry":{"type":"Point","coordinates":[27.0268,38.2057]}},{"type":"Feature","properties":{"id":"bus-829-s13601","kind":"busstop","ref":"829","name":"Sümbül","lines":[]},"geometry":{"type":"Point","coordinates":[27.023,38.20239]}}]}