{"type":"FeatureCollection","features":[{"type":"Feature","properties":{"id":"bus-838-1","kind":"busline","ref":"838","dir":1},"geometry":{"type":"LineString","coordinates":[[27.1488,38.3905],[27.1485,38.3912],[27.1485,38.3916],[27.1487,38.3918],[27.1485,38.393],[27.1496,38.3928],[27.1518,38.392],[27.1547,38.3916],[27.156,38.3946],[27.1532,38.395],[27.1528,38.3956],[27.1524,38.398],[27.155,38.3991],[27.1554,38.3995],[27.1561,38.4009],[27.1571,38.4018],[27.1583,38.4035],[27.1592,38.4044],[27.1612,38.4049],[27.1618,38.4053],[27.162,38.4052],[27.1623,38.4044],[27.1634,38.4046],[27.1623,38.4084],[27.1614,38.4098],[27.1607,38.41],[27.1605,38.4097],[27.1592,38.4096],[27.1582,38.4092],[27.1595,38.4102],[27.1603,38.4123],[27.161,38.4127],[27.1613,38.4131],[27.1611,38.4137],[27.1605,38.4143],[27.1578,38.4186],[27.1563,38.4225],[27.1564,38.4227],[27.159,38.423],[27.1591,38.4233],[27.1521,38.4221],[27.1477,38.4225],[27.1436,38.4221],[27.1433,38.4228],[27.1433,38.424],[27.1431,38.4241],[27.142,38.4239],[27.1321,38.4246],[27.1308,38.4223],[27.1285,38.4209],[27.1277,38.4191],[27.1265,38.4175],[27.1224,38.415],[27.1214,38.4141],[27.1209,38.4132],[27.1208,38.4124],[27.1205,38.4118],[27.1197,38.4108],[27.12,38.4109],[27.1207,38.4118],[27.1211,38.4131],[27.1219,38.4142],[27.1266,38.4174],[27.1278,38.419],[27.1283,38.4204],[27.1289,38.4211],[27.1305,38.4219],[27.1312,38.4225],[27.1368,38.4225],[27.1362,38.4225]]}},{"type":"Feature","properties":{"id":"bus-838-2","kind":"busline","ref":"838","dir":2},"geometry":{"type":"LineString","coordinates":[[27.1327,38.4225],[27.1319,38.4225],[27.1428,38.4225],[27.1435,38.4221],[27.1474,38.4225],[27.1521,38.422],[27.1582,38.4231],[27.1585,38.4224],[27.1566,38.4221],[27.1564,38.4219],[27.1583,38.4177],[27.1613,38.4132],[27.161,38.4127],[27.1603,38.4123],[27.1595,38.4102],[27.1582,38.4092],[27.1592,38.4096],[27.1605,38.4097],[27.1607,38.41],[27.1615,38.4097],[27.1618,38.4091],[27.1615,38.4091],[27.1614,38.4083],[27.1618,38.4053],[27.1612,38.4049],[27.1592,38.4044],[27.1587,38.4041],[27.157,38.4019],[27.1556,38.4008],[27.1557,38.4],[27.155,38.3991],[27.1524,38.398],[27.1528,38.3958],[27.1527,38.3936],[27.1524,38.3919],[27.1495,38.3929],[27.1489,38.3934],[27.1472,38.3931],[27.1477,38.3906],[27.1484,38.3898],[27.1496,38.3891]]}},{"type":"Feature","properties":{"id":"bus-838-s41174","kind":"busstop","ref":"838","name":"Şirinyer Aktarma","lines":["441","472","871"]},"geometry":{"type":"Point","coordinates":[27.14881,38.39055]}},{"type":"Feature","properties":{"id":"bus-838-s40009","kind":"busstop","ref":"838","name":"Şirinyer Pazar Yeri","lines":["72","74","206","285","303","304","374","441","472","476","485","536","676","805","866","871","874","875","876"]},"geometry":{"type":"Point","coordinates":[27.1499,38.3926]}},{"type":"Feature","properties":{"id":"bus-838-s40411","kind":"busstop","ref":"838","name":"Redresör","lines":["72","441","472","871"]},"geometry":{"type":"Point","coordinates":[27.15538,38.39298]}},{"type":"Feature","properties":{"id":"bus-838-s40449","kind":"busstop","ref":"838","name":"Betonyol","lines":["284"]},"geometry":{"type":"Point","coordinates":[27.1553,38.3947]}},{"type":"Feature","properties":{"id":"bus-838-s40431","kind":"busstop","ref":"838","name":"Adnan Kahveci Parkı","lines":["284"]},"geometry":{"type":"Point","coordinates":[27.1529,38.3957]}},{"type":"Feature","properties":{"id":"bus-838-s40433","kind":"busstop","ref":"838","name":"Çağrı","lines":["284"]},"geometry":{"type":"Point","coordinates":[27.1531,38.3982]}},{"type":"Feature","properties":{"id":"bus-838-s40435","kind":"busstop","ref":"838","name":"Onat","lines":["284"]},"geometry":{"type":"Point","coordinates":[27.1554,38.3994]}},{"type":"Feature","properties":{"id":"bus-838-s40438","kind":"busstop","ref":"838","name":"Çamlık Cami","lines":[]},"geometry":{"type":"Point","coordinates":[27.15723,38.40186]}},{"type":"Feature","properties":{"id":"bus-838-s40694","kind":"busstop","ref":"838","name":"Mehtap Mahallesi Kahveler","lines":[]},"geometry":{"type":"Point","coordinates":[27.15884,38.40394]}},{"type":"Feature","properties":{"id":"bus-838-s40693","kind":"busstop","ref":"838","name":"Çiçek","lines":[]},"geometry":{"type":"Point","coordinates":[27.16105,38.40485]}},{"type":"Feature","properties":{"id":"bus-838-s41114","kind":"busstop","ref":"838","name":"Ali Fuat Cebesoy İlkokulu","lines":["34"]},"geometry":{"type":"Point","coordinates":[27.16331,38.40514]}},{"type":"Feature","properties":{"id":"bus-838-s41116","kind":"busstop","ref":"838","name":"Kaptan","lines":["34"]},"geometry":{"type":"Point","coordinates":[27.1625,38.4074]}},{"type":"Feature","properties":{"id":"bus-838-s41136","kind":"busstop","ref":"838","name":"Kasap","lines":[]},"geometry":{"type":"Point","coordinates":[27.16178,38.40915]}},{"type":"Feature","properties":{"id":"bus-838-s41139","kind":"busstop","ref":"838","name":"Mavi Köşe","lines":["39"]},"geometry":{"type":"Point","coordinates":[27.1605,38.4098]}},{"type":"Feature","properties":{"id":"bus-838-s10581","kind":"busstop","ref":"838","name":"İsmet Paşa Sağlık Ocağı","lines":["39","418","466"]},"geometry":{"type":"Point","coordinates":[27.15961,38.41044]}},{"type":"Feature","properties":{"id":"bus-838-s10579","kind":"busstop","ref":"838","name":"Gürçeşme Cami","lines":["34","39","418","466"]},"geometry":{"type":"Point","coordinates":[27.1608,38.414]}},{"type":"Feature","properties":{"id":"bus-838-s10577","kind":"busstop","ref":"838","name":"Gürçeşme","lines":["34","39","418","466"]},"geometry":{"type":"Point","coordinates":[27.1591,38.4166]}},{"type":"Feature","properties":{"id":"bus-838-s10575","kind":"busstop","ref":"838","name":"Ülkü Sineması","lines":["34","39","418","466"]},"geometry":{"type":"Point","coordinates":[27.1578,38.4186]}},{"type":"Feature","properties":{"id":"bus-838-s13352","kind":"busstop","ref":"838","name":"Kemer Aktarma Merkezi","lines":["34","39","41","42","46","49","418","466"]},"geometry":{"type":"Point","coordinates":[27.1567,38.42159]}},{"type":"Feature","properties":{"id":"bus-838-s10358","kind":"busstop","ref":"838","name":"Kemer","lines":["34","35","36","39","41","42","44","45","46","49","302","466"]},"geometry":{"type":"Point","coordinates":[27.14892,38.42243]}},{"type":"Feature","properties":{"id":"bus-838-s10356","kind":"busstop","ref":"838","name":"Basmane Gar","lines":["34","35","36","39","41","42","44","45","46","49","302","466"]},"geometry":{"type":"Point","coordinates":[27.1448,38.4223]}},{"type":"Feature","properties":{"id":"bus-838-s10128","kind":"busstop","ref":"838","name":"Çardak","lines":["35","36","302","466","811","951"]},"geometry":{"type":"Point","coordinates":[27.14071,38.42408]}},{"type":"Feature","properties":{"id":"bus-838-s10126","kind":"busstop","ref":"838","name":"Borsa","lines":["35","36","302","466","930","951"]},"geometry":{"type":"Point","coordinates":[27.1346,38.4245]}},{"type":"Feature","properties":{"id":"bus-838-s10102","kind":"busstop","ref":"838","name":"İskele","lines":["35","36","121","202","253","302","466","910","920","930","940","950","951"]},"geometry":{"type":"Point","coordinates":[27.1279,38.4199]}},{"type":"Feature","properties":{"id":"bus-838-s10148","kind":"busstop","ref":"838","name":"Karataş Anadolu Lisesi","lines":["10","35","36","121","253","302","811","951"]},"geometry":{"type":"Point","coordinates":[27.12146,38.41078]}},{"type":"Feature","properties":{"id":"bus-838-s10146","kind":"busstop","ref":"838","name":"Kız Lisesi","lines":["10","35","36","121","253","302","811","951"]},"geometry":{"type":"Point","coordinates":[27.1223,38.4132]}},{"type":"Feature","properties":{"id":"bus-838-s16484","kind":"busstop","ref":"838","name":"Konak","lines":["10"]},"geometry":{"type":"Point","coordinates":[27.12665,38.41525]}},{"type":"Feature","properties":{"id":"bus-838-s10103","kind":"busstop","ref":"838","name":"Belediye Sarayı","lines":["18","19","20","36","121","202","253","302","466","811","910","920","930","940","950"]},"geometry":{"type":"Point","coordinates":[27.1297,38.4214]}},{"type":"Feature","properties":{"id":"bus-838-s16811","kind":"busstop","ref":"838","name":"Kavaflar 2","lines":["35","36","234"]},"geometry":{"type":"Point","coordinates":[27.13621,38.42236]}},{"type":"Feature","properties":{"id":"bus-838-s10123","kind":"busstop","ref":"838","name":"Basmane Ptt","lines":["34","35","36","39","466","811"]},"geometry":{"type":"Point","coordinates":[27.1415,38.4224]}},{"type":"Feature","properties":{"id":"bus-838-s10357","kind":"busstop","ref":"838","name":"Basmane Gar","lines":["34","35","36","39","41","42","44","45","46","49","302","466"]},"geometry":{"type":"Point","coordinates":[27.1455,38.4224]}},{"type":"Feature","properties":{"id":"bus-838-s10361","kind":"busstop","ref":"838","name":"Kemer 2","lines":["34","36","39","41","42","44","45","46","466"]},"geometry":{"type":"Point","coordinates":[27.1506,38.422]}},{"type":"Feature","properties":{"id":"bus-838-s13351","kind":"busstop","ref":"838","name":"Kemer Aktarma Merkezi","lines":["34","39","41","42","46","49","418","466"]},"geometry":{"type":"Point","coordinates":[27.15657,38.42134]}},{"type":"Feature","properties":{"id":"bus-838-s10574","kind":"busstop","ref":"838","name":"Ülkü Sineması","lines":["34","39","418","466"]},"geometry":{"type":"Point","coordinates":[27.1578,38.4184]}},{"type":"Feature","properties":{"id":"bus-838-s10576","kind":"busstop","ref":"838","name":"Gürçeşme","lines":["34","39","418","466"]},"geometry":{"type":"Point","coordinates":[27.1592,38.4162]}},{"type":"Feature","properties":{"id":"bus-838-s10578","kind":"busstop","ref":"838","name":"Gürçeşme Cami","lines":["34","39","418","466"]},"geometry":{"type":"Point","coordinates":[27.1607,38.4141]}},{"type":"Feature","properties":{"id":"bus-838-s10580","kind":"busstop","ref":"838","name":"İsmet Paşa Sağlık Ocağı","lines":["39","418","466"]},"geometry":{"type":"Point","coordinates":[27.15962,38.41078]}},{"type":"Feature","properties":{"id":"bus-838-s41138","kind":"busstop","ref":"838","name":"Mavi Köşe","lines":["39"]},"geometry":{"type":"Point","coordinates":[27.1605,38.4099]}},{"type":"Feature","properties":{"id":"bus-838-s41135","kind":"busstop","ref":"838","name":"Kasap","lines":["39"]},"geometry":{"type":"Point","coordinates":[27.16152,38.40907]}},{"type":"Feature","properties":{"id":"bus-838-s41378","kind":"busstop","ref":"838","name":"Kaptan2","lines":[]},"geometry":{"type":"Point","coordinates":[27.1616,38.40707]}},{"type":"Feature","properties":{"id":"bus-838-s40692","kind":"busstop","ref":"838","name":"Çiçek","lines":[]},"geometry":{"type":"Point","coordinates":[27.1608,38.4049]}},{"type":"Feature","properties":{"id":"bus-838-s40695","kind":"busstop","ref":"838","name":"Mehtap Mahallesi Kahveler","lines":[]},"geometry":{"type":"Point","coordinates":[27.15828,38.40375]}},{"type":"Feature","properties":{"id":"bus-838-s40437","kind":"busstop","ref":"838","name":"Çamlık Cami","lines":[]},"geometry":{"type":"Point","coordinates":[27.15716,38.4022]}},{"type":"Feature","properties":{"id":"bus-838-s40436","kind":"busstop","ref":"838","name":"Onat","lines":["284"]},"geometry":{"type":"Point","coordinates":[27.1554,38.3996]}},{"type":"Feature","properties":{"id":"bus-838-s40434","kind":"busstop","ref":"838","name":"Çağrı","lines":["284"]},"geometry":{"type":"Point","coordinates":[27.153,38.3983]}},{"type":"Feature","properties":{"id":"bus-838-s40432","kind":"busstop","ref":"838","name":"Adnan Kahveci Parkı","lines":["284"]},"geometry":{"type":"Point","coordinates":[27.1527,38.3954]}},{"type":"Feature","properties":{"id":"bus-838-s40430","kind":"busstop","ref":"838","name":"Kreş","lines":[]},"geometry":{"type":"Point","coordinates":[27.1525,38.3929]}},{"type":"Feature","properties":{"id":"bus-838-s40153","kind":"busstop","ref":"838","name":"Şirinyer İstasyonu","lines":["36","74","206","418","441","466","476","536","671","676","805","818","866","871","874","875","876","878"]},"geometry":{"type":"Point","coordinates":[27.14743,38.39172]}},{"type":"Feature","properties":{"id":"bus-838-s40198","kind":"busstop","ref":"838","name":"Şirinyer Saha","lines":["36","74","418","441","465","471","472","476","536","671","676","805","818","866","871","874","875","876","878"]},"geometry":{"type":"Point","coordinates":[27.14911,38.3894]}}]}