{"type":"FeatureCollection","features":[{"type":"Feature","properties":{"id":"bus-869-1","kind":"busline","ref":"869","dir":1},"geometry":{"type":"LineString","coordinates":[[27.2003,38.4019],[27.2003,38.4036],[27.2026,38.4036],[27.2021,38.4033],[27.2019,38.4025],[27.2029,38.4016],[27.2031,38.4008],[27.2023,38.3998],[27.2029,38.3992],[27.2037,38.3979],[27.2065,38.3978],[27.2068,38.3973],[27.2042,38.3951],[27.2012,38.3943],[27.1995,38.3933],[27.1966,38.3905],[27.1948,38.389],[27.1929,38.3878],[27.1905,38.387],[27.1888,38.3859],[27.1872,38.3853],[27.1871,38.3852],[27.1873,38.3849],[27.1885,38.3837],[27.1869,38.3822],[27.1847,38.3815],[27.184,38.3829],[27.1837,38.3829],[27.1825,38.3819],[27.1807,38.3842],[27.179,38.3854],[27.1778,38.3845],[27.1768,38.3828],[27.1769,38.383]]}},{"type":"Feature","properties":{"id":"bus-869-2","kind":"busline","ref":"869","dir":2},"geometry":{"type":"LineString","coordinates":[[27.1768,38.3828],[27.1776,38.3842],[27.1765,38.3822],[27.1763,38.3823],[27.1762,38.382],[27.1779,38.3818],[27.181,38.3808],[27.1815,38.3809],[27.1839,38.3829],[27.1846,38.3815],[27.1869,38.3822],[27.1885,38.3837],[27.1874,38.3849],[27.1875,38.3853],[27.1905,38.387],[27.1929,38.3878],[27.1943,38.3885],[27.1976,38.3912],[27.2,38.3936],[27.2014,38.3943],[27.2035,38.3948],[27.2044,38.3952],[27.2065,38.3968],[27.2069,38.3973],[27.2069,38.3976],[27.2065,38.3979],[27.2036,38.3981],[27.2033,38.3989],[27.2027,38.3997],[27.2027,38.4001],[27.2032,38.4008],[27.2032,38.4012],[27.203,38.4016],[27.2021,38.4023],[27.2019,38.4029],[27.2023,38.4035],[27.2026,38.4036],[27.2003,38.4036],[27.2003,38.4019]]}}]}