{"type":"FeatureCollection","features":[{"type":"Feature","properties":{"id":"bus-874-1","kind":"busline","ref":"874","dir":1},"geometry":{"type":"LineString","coordinates":[[27.2003,38.4019],[27.2003,38.4036],[27.2001,38.4046],[27.2025,38.4051],[27.2045,38.4051],[27.2048,38.4043],[27.2046,38.4037],[27.2003,38.4036],[27.2002,38.4021],[27.1998,38.4021],[27.1986,38.4029],[27.1965,38.4036],[27.1957,38.4032],[27.1954,38.403],[27.1965,38.402],[27.194,38.3991],[27.192,38.4],[27.1918,38.401],[27.1899,38.4007],[27.1895,38.3988],[27.1881,38.3978],[27.1865,38.3974],[27.1866,38.3964],[27.1873,38.3957],[27.1855,38.3942],[27.1848,38.3942],[27.1843,38.3947],[27.1808,38.3959],[27.1798,38.3965],[27.1783,38.3978],[27.1761,38.3975],[27.1749,38.397],[27.1729,38.3984],[27.1719,38.3985],[27.1691,38.3969],[27.1673,38.3969],[27.1666,38.3931],[27.1657,38.3909],[27.1651,38.3902],[27.1524,38.3919],[27.1495,38.3929],[27.1489,38.3934],[27.1472,38.3931],[27.1477,38.3906],[27.1484,38.3898],[27.1496,38.3891]]}},{"type":"Feature","properties":{"id":"bus-874-2","kind":"busline","ref":"874","dir":2},"geometry":{"type":"LineString","coordinates":[[27.1488,38.3902],[27.1488,38.3908],[27.1485,38.3912],[27.1485,38.3916],[27.1487,38.3918],[27.1485,38.393],[27.1523,38.3919],[27.1652,38.3901],[27.1663,38.3923],[27.167,38.3948],[27.1688,38.3946],[27.1692,38.3944],[27.1694,38.3971],[27.1719,38.3985],[27.173,38.3983],[27.1749,38.3967],[27.1754,38.3972],[27.1761,38.3975],[27.1783,38.3978],[27.1798,38.3965],[27.1808,38.3959],[27.1839,38.3948],[27.1846,38.3942],[27.1856,38.394],[27.1875,38.3957],[27.1867,38.3962],[27.1865,38.3974],[27.1881,38.3978],[27.1895,38.3988],[27.1899,38.4007],[27.1918,38.401],[27.192,38.4],[27.194,38.3991],[27.1965,38.402],[27.1954,38.403],[27.1957,38.4032],[27.1965,38.4036],[27.1986,38.4029],[27.1998,38.4021],[27.2002,38.4021],[27.2003,38.4036],[27.2001,38.4046],[27.2025,38.4051],[27.2045,38.4051],[27.2048,38.4043],[27.2046,38.4037],[27.2003,38.4036],[27.2003,38.4019]]}},{"type":"Feature","properties":{"id":"bus-874-s40661","kind":"busstop","ref":"874","name":"İzmir Tınaztepe Üniversitesi","lines":["104","284","285","374","475","866","875","876"]},"geometry":{"type":"Point","coordinates":[27.2003,38.4019]}},{"type":"Feature","properties":{"id":"bus-874-s41374","kind":"busstop","ref":"874","name":"Buca Oyak  2.Etap","lines":[]},"geometry":{"type":"Point","coordinates":[27.20142,38.40484]}},{"type":"Feature","properties":{"id":"bus-874-s41305","kind":"busstop","ref":"874","name":"Buca Oyak Sitesi","lines":["866"]},"geometry":{"type":"Point","coordinates":[27.20185,38.40365]}},{"type":"Feature","properties":{"id":"bus-874-s40658","kind":"busstop","ref":"874","name":"Mursal Meydanı","lines":["104","284","285","374","866"]},"geometry":{"type":"Point","coordinates":[27.19883,38.4029]}},{"type":"Feature","properties":{"id":"bus-874-s40656","kind":"busstop","ref":"874","name":"Şehit Polis Cebrail Aksöz","lines":["104","284","285","374","866"]},"geometry":{"type":"Point","coordinates":[27.19663,38.40357]}},{"type":"Feature","properties":{"id":"bus-874-s40645","kind":"busstop","ref":"874","name":"Buca İlçe Halk Kütüphanesi","lines":["104","284","285","374","866"]},"geometry":{"type":"Point","coordinates":[27.19616,38.40222]}},{"type":"Feature","properties":{"id":"bus-874-s40640","kind":"busstop","ref":"874","name":"Mimar Kemalettin İlkokulu","lines":["374"]},"geometry":{"type":"Point","coordinates":[27.1947,38.4]}},{"type":"Feature","properties":{"id":"bus-874-s40612","kind":"busstop","ref":"874","name":"Yedi Göller İş Merkezi","lines":["374"]},"geometry":{"type":"Point","coordinates":[27.19266,38.39976]}},{"type":"Feature","properties":{"id":"bus-874-s41386","kind":"busstop","ref":"874","name":"Portakal","lines":[]},"geometry":{"type":"Point","coordinates":[27.19195,38.40059]}},{"type":"Feature","properties":{"id":"bus-874-s41383","kind":"busstop","ref":"874","name":"Sardunya","lines":[]},"geometry":{"type":"Point","coordinates":[27.18979,38.40034]}},{"type":"Feature","properties":{"id":"bus-874-s41384","kind":"busstop","ref":"874","name":"Zeytin","lines":[]},"geometry":{"type":"Point","coordinates":[27.18956,38.39901]}},{"type":"Feature","properties":{"id":"bus-874-s40600","kind":"busstop","ref":"874","name":"İzkent Depo","lines":["374"]},"geometry":{"type":"Point","coordinates":[27.18806,38.39786]}},{"type":"Feature","properties":{"id":"bus-874-s41379","kind":"busstop","ref":"874","name":"Çiçek","lines":[]},"geometry":{"type":"Point","coordinates":[27.18644,38.39707]}},{"type":"Feature","properties":{"id":"bus-874-s40598","kind":"busstop","ref":"874","name":"Güneş","lines":["374"]},"geometry":{"type":"Point","coordinates":[27.18698,38.39589]}},{"type":"Feature","properties":{"id":"bus-874-s40527","kind":"busstop","ref":"874","name":"Yedi Göller","lines":["374"]},"geometry":{"type":"Point","coordinates":[27.185,38.3942]}},{"type":"Feature","properties":{"id":"bus-874-s41427","kind":"busstop","ref":"874","name":"Pazaryeri","lines":["374"]},"geometry":{"type":"Point","coordinates":[27.18244,38.3954]}},{"type":"Feature","properties":{"id":"bus-874-s40524","kind":"busstop","ref":"874","name":"Buca Tütün İhracatçıları Birliği İlkokulu","lines":["374"]},"geometry":{"type":"Point","coordinates":[27.18,38.3964]}},{"type":"Feature","properties":{"id":"bus-874-s40522","kind":"busstop","ref":"874","name":"Dokuz Eylül Öğrenci Yurdu","lines":["374","876"]},"geometry":{"type":"Point","coordinates":[27.1771,38.3976]}},{"type":"Feature","properties":{"id":"bus-874-s40506","kind":"busstop","ref":"874","name":" Süleyman Şah Mesleki ve Teknik Anadolu Lisesi","lines":["284","285","374","875"]},"geometry":{"type":"Point","coordinates":[27.17384,38.39774]}},{"type":"Feature","properties":{"id":"bus-874-s40504","kind":"busstop","ref":"874","name":"Evka 1 Çeşme","lines":["284","285","374","875"]},"geometry":{"type":"Point","coordinates":[27.171,38.3981]}},{"type":"Feature","properties":{"id":"bus-874-s40488","kind":"busstop","ref":"874","name":"Evka 1 İtfaiye","lines":["284","285","374","875"]},"geometry":{"type":"Point","coordinates":[27.1684,38.3969]}},{"type":"Feature","properties":{"id":"bus-874-s40464","kind":"busstop","ref":"874","name":"Hüdaverdi Cami","lines":["284","285","374","875"]},"geometry":{"type":"Point","coordinates":[27.167,38.3952]}},{"type":"Feature","properties":{"id":"bus-874-s40462","kind":"busstop","ref":"874","name":"Çakıl","lines":["285","374","875","876"]},"geometry":{"type":"Point","coordinates":[27.166,38.3918]}},{"type":"Feature","properties":{"id":"bus-874-s40016","kind":"busstop","ref":"874","name":"Buca Belediye Sarayı","lines":["104","206","285","303","304","374","470","476","490","515","536","676","805","875","876","940"]},"geometry":{"type":"Point","coordinates":[27.1634,38.3905]}},{"type":"Feature","properties":{"id":"bus-874-s40014","kind":"busstop","ref":"874","name":"Buca Vergi Dairesi","lines":["104","206","285","303","304","374","470","476","490","515","536","676","805","875","876","940"]},"geometry":{"type":"Point","coordinates":[27.1604,38.3909]}},{"type":"Feature","properties":{"id":"bus-874-s40012","kind":"busstop","ref":"874","name":"Yeni Mahalle","lines":["104","206","285","303","304","374","470","476","490","515","536","676","805","875","876","940"]},"geometry":{"type":"Point","coordinates":[27.1571,38.3913]}},{"type":"Feature","properties":{"id":"bus-874-s40010","kind":"busstop","ref":"874","name":"Şirinyer PTT","lines":["72","104","206","285","303","304","374","441","470","472","476","490","515","536","676","805","871","875","876","940"]},"geometry":{"type":"Point","coordinates":[27.1534,38.3918]}},{"type":"Feature","properties":{"id":"bus-874-s40153","kind":"busstop","ref":"874","name":"Şirinyer İstasyonu","lines":["36","74","206","418","441","466","476","536","671","676","805","818","838","866","871","875","876","878"]},"geometry":{"type":"Point","coordinates":[27.14743,38.39172]}},{"type":"Feature","properties":{"id":"bus-874-s40198","kind":"busstop","ref":"874","name":"Şirinyer Saha","lines":["36","74","418","441","465","471","472","476","536","671","676","805","818","838","866","871","875","876","878"]},"geometry":{"type":"Point","coordinates":[27.14911,38.3894]}},{"type":"Feature","properties":{"id":"bus-874-s41172","kind":"busstop","ref":"874","name":"Şirinyer Aktarma","lines":["875","876"]},"geometry":{"type":"Point","coordinates":[27.14886,38.39022]}},{"type":"Feature","properties":{"id":"bus-874-s40009","kind":"busstop","ref":"874","name":"Şirinyer Pazar Yeri","lines":["72","74","206","285","303","304","374","441","472","476","485","536","676","805","838","866","871","875","876"]},"geometry":{"type":"Point","coordinates":[27.1499,38.3926]}},{"type":"Feature","properties":{"id":"bus-874-s40011","kind":"busstop","ref":"874","name":"Yeni Mahalle","lines":["104","206","285","303","304","374","470","476","490","515","536","676","805","875","876","940"]},"geometry":{"type":"Point","coordinates":[27.1564,38.3913]}},{"type":"Feature","properties":{"id":"bus-874-s40013","kind":"busstop","ref":"874","name":"Buca Vergi Dairesi","lines":["104","206","285","303","304","374","470","476","490","515","536","676","805","875","876","940"]},"geometry":{"type":"Point","coordinates":[27.1594,38.3909]}},{"type":"Feature","properties":{"id":"bus-874-s40015","kind":"busstop","ref":"874","name":"Buca Belediye Sarayı","lines":["104","206","285","303","304","374","470","476","490","515","536","676","805","875","876","940"]},"geometry":{"type":"Point","coordinates":[27.163,38.3904]}},{"type":"Feature","properties":{"id":"bus-874-s40461","kind":"busstop","ref":"874","name":"Çakıl","lines":["285","374","875","876"]},"geometry":{"type":"Point","coordinates":[27.16625,38.3919]}},{"type":"Feature","properties":{"id":"bus-874-s40475","kind":"busstop","ref":"874","name":"Hüdaverdi Cami","lines":["284","285","374","875"]},"geometry":{"type":"Point","coordinates":[27.1676,38.3947]}},{"type":"Feature","properties":{"id":"bus-874-s40503","kind":"busstop","ref":"874","name":"Evka 1 İtfaiye","lines":["284","285","374","875"]},"geometry":{"type":"Point","coordinates":[27.1693,38.3961]}},{"type":"Feature","properties":{"id":"bus-874-s40505","kind":"busstop","ref":"874","name":"Evka 1 Ceşme","lines":["284","285","374","875"]},"geometry":{"type":"Point","coordinates":[27.1706,38.3979]}},{"type":"Feature","properties":{"id":"bus-874-s40507","kind":"busstop","ref":"874","name":" Süleyman Şah Mesleki ve Teknik Anadolu Lisesi","lines":["284","285","374","875"]},"geometry":{"type":"Point","coordinates":[27.1745,38.3971]}},{"type":"Feature","properties":{"id":"bus-874-s40523","kind":"busstop","ref":"874","name":"Dokuz Eylül Öğrenci Yurdu","lines":["374","876"]},"geometry":{"type":"Point","coordinates":[27.177,38.3976]}},{"type":"Feature","properties":{"id":"bus-874-s41401","kind":"busstop","ref":"874","name":"Buca Tütün İhracatçıları Birliği İlkokulu","lines":["374"]},"geometry":{"type":"Point","coordinates":[27.17951,38.39671]}},{"type":"Feature","properties":{"id":"bus-874-s41426","kind":"busstop","ref":"874","name":"Pazaryeri","lines":["374"]},"geometry":{"type":"Point","coordinates":[27.18203,38.39538]}},{"type":"Feature","properties":{"id":"bus-874-s40526","kind":"busstop","ref":"874","name":"Yedi Göller","lines":["374"]},"geometry":{"type":"Point","coordinates":[27.185,38.3941]}},{"type":"Feature","properties":{"id":"bus-874-s40599","kind":"busstop","ref":"874","name":"Güneş","lines":["374"]},"geometry":{"type":"Point","coordinates":[27.18701,38.39601]}},{"type":"Feature","properties":{"id":"bus-874-s41381","kind":"busstop","ref":"874","name":"Çiçek","lines":[]},"geometry":{"type":"Point","coordinates":[27.18658,38.39711]}},{"type":"Feature","properties":{"id":"bus-874-s40601","kind":"busstop","ref":"874","name":"İzkent Depo","lines":["374"]},"geometry":{"type":"Point","coordinates":[27.1884,38.3979]}},{"type":"Feature","properties":{"id":"bus-874-s41385","kind":"busstop","ref":"874","name":"Zeytin","lines":[]},"geometry":{"type":"Point","coordinates":[27.18964,38.39905]}},{"type":"Feature","properties":{"id":"bus-874-s41382","kind":"busstop","ref":"874","name":"Sardunya","lines":[]},"geometry":{"type":"Point","coordinates":[27.18997,38.40043]}},{"type":"Feature","properties":{"id":"bus-874-s41380","kind":"busstop","ref":"874","name":"Portakal","lines":[]},"geometry":{"type":"Point","coordinates":[27.19183,38.40075]}},{"type":"Feature","properties":{"id":"bus-874-s40611","kind":"busstop","ref":"874","name":"Yedi Göller İş Merkezi","lines":["374"]},"geometry":{"type":"Point","coordinates":[27.1927,38.3997]}},{"type":"Feature","properties":{"id":"bus-874-s40641","kind":"busstop","ref":"874","name":"Mimar Kemalettin İlkokulu","lines":["374"]},"geometry":{"type":"Point","coordinates":[27.1948,38.4]}},{"type":"Feature","properties":{"id":"bus-874-s40644","kind":"busstop","ref":"874","name":"Buca İlçe Halk Kütüphanesi","lines":["104","284","285","374","866"]},"geometry":{"type":"Point","coordinates":[27.19618,38.40234]}},{"type":"Feature","properties":{"id":"bus-874-s40657","kind":"busstop","ref":"874","name":"Şehit Polis Cebrail Aksöz","lines":["104","284","285","374","866"]},"geometry":{"type":"Point","coordinates":[27.19687,38.40335]}},{"type":"Feature","properties":{"id":"bus-874-s40659","kind":"busstop","ref":"874","name":"Mursal Meydanı","lines":["104","284","285","374","866"]},"geometry":{"type":"Point","coordinates":[27.19869,38.40281]}},{"type":"Feature","properties":{"id":"bus-874-s41375","kind":"busstop","ref":"874","name":"Buca Oyak 2.Etap","lines":[]},"geometry":{"type":"Point","coordinates":[27.20233,38.40506]}},{"type":"Feature","properties":{"id":"bus-874-s41360","kind":"busstop","ref":"874","name":"Buca Oyak Sitesi","lines":[]},"geometry":{"type":"Point","coordinates":[27.20074,38.40364]}}]}