{"type":"FeatureCollection","features":[{"type":"Feature","properties":{"id":"bus-875-1","kind":"busline","ref":"875","dir":1},"geometry":{"type":"LineString","coordinates":[[27.2003,38.4019],[27.2001,38.4021],[27.2019,38.4029],[27.202,38.4023],[27.2029,38.4016],[27.2031,38.4012],[27.2031,38.4008],[27.2024,38.4],[27.2024,38.3997],[27.2028,38.3998],[27.2039,38.3995],[27.2044,38.4],[27.2052,38.3998],[27.2069,38.3998],[27.2072,38.3997],[27.2072,38.3992],[27.2052,38.3992],[27.2024,38.4],[27.2023,38.3998],[27.2029,38.3992],[27.2034,38.3982],[27.2013,38.3979],[27.2,38.3983],[27.1994,38.3989],[27.2,38.3996],[27.2001,38.4004],[27.1977,38.3995],[27.198,38.3988],[27.1979,38.3984],[27.1972,38.3977],[27.1964,38.3963],[27.195,38.3946],[27.1954,38.3942],[27.1934,38.3916],[27.1926,38.3912],[27.192,38.3919],[27.1924,38.3928],[27.1934,38.3931],[27.1932,38.3937],[27.1944,38.396],[27.1963,38.3978],[27.1953,38.3983],[27.1933,38.3968],[27.1909,38.3943],[27.1902,38.3946],[27.1883,38.3928],[27.1869,38.3908],[27.1827,38.3891],[27.1818,38.389],[27.1811,38.3896],[27.1811,38.3909],[27.1798,38.3933],[27.1731,38.3983],[27.1719,38.3985],[27.1691,38.3969],[27.1673,38.3969],[27.1666,38.3931],[27.1657,38.3909],[27.1651,38.3902],[27.1524,38.3919],[27.1495,38.3929],[27.1489,38.3934],[27.1472,38.3931],[27.1477,38.3906],[27.1484,38.3898],[27.1496,38.3891]]}},{"type":"Feature","properties":{"id":"bus-875-2","kind":"busline","ref":"875","dir":2},"geometry":{"type":"LineString","coordinates":[[27.1488,38.3902],[27.1488,38.3908],[27.1485,38.3912],[27.1485,38.3916],[27.1487,38.3918],[27.1485,38.393],[27.1523,38.3919],[27.1652,38.3901],[27.1663,38.3923],[27.167,38.3948],[27.1688,38.3946],[27.1692,38.3944],[27.1694,38.3971],[27.1719,38.3985],[27.173,38.3983],[27.1749,38.3967],[27.1765,38.3958],[27.1798,38.3933],[27.1811,38.3909],[27.1811,38.3896],[27.1818,38.389],[27.1827,38.3891],[27.1869,38.3908],[27.1883,38.3928],[27.1902,38.3946],[27.1909,38.3943],[27.1941,38.3975],[27.1951,38.3982],[27.1955,38.3982],[27.1963,38.3978],[27.1944,38.396],[27.1932,38.3937],[27.1936,38.3924],[27.1941,38.3925],[27.1954,38.3942],[27.195,38.3946],[27.1964,38.3963],[27.1972,38.3977],[27.1979,38.3984],[27.198,38.3988],[27.1977,38.3995],[27.1996,38.4003],[27.2001,38.4004],[27.2,38.3996],[27.1994,38.3989],[27.2,38.3983],[27.2013,38.3979],[27.2035,38.3983],[27.2027,38.3998],[27.2052,38.3992],[27.2072,38.3992],[27.2072,38.3997],[27.2069,38.3998],[27.2052,38.3998],[27.2044,38.4],[27.2039,38.3995],[27.2028,38.3998],[27.2027,38.4001],[27.2032,38.4008],[27.2032,38.4012],[27.203,38.4016],[27.2021,38.4023],[27.202,38.4029],[27.2001,38.4021],[27.2003,38.4019]]}},{"type":"Feature","properties":{"id":"bus-875-s40661","kind":"busstop","ref":"875","name":"İzmir Tınaztepe Üniversitesi","lines":["104","284","285","374","475","866","874","876"]},"geometry":{"type":"Point","coordinates":[27.2003,38.4019]}},{"type":"Feature","properties":{"id":"bus-875-s41226","kind":"busstop","ref":"875","name":"Yamaç","lines":[]},"geometry":{"type":"Point","coordinates":[27.2026,38.4002]}},{"type":"Feature","properties":{"id":"bus-875-s41222","kind":"busstop","ref":"875","name":"Toki AVM","lines":["104","866"]},"geometry":{"type":"Point","coordinates":[27.2061,38.3997]}},{"type":"Feature","properties":{"id":"bus-875-s41220","kind":"busstop","ref":"875","name":"Toki Okul","lines":["104","866"]},"geometry":{"type":"Point","coordinates":[27.20524,38.39924]}},{"type":"Feature","properties":{"id":"bus-875-s41311","kind":"busstop","ref":"875","name":"Buca Toki Girişi","lines":["104","284","285","866"]},"geometry":{"type":"Point","coordinates":[27.20255,38.39945]}},{"type":"Feature","properties":{"id":"bus-875-s41232","kind":"busstop","ref":"875","name":"Huzur","lines":["104","284","285"]},"geometry":{"type":"Point","coordinates":[27.20293,38.39818]}},{"type":"Feature","properties":{"id":"bus-875-s41234","kind":"busstop","ref":"875","name":"Sosyal Yaşam Merkezi 2","lines":["104","284","285"]},"geometry":{"type":"Point","coordinates":[27.2018,38.39804]}},{"type":"Feature","properties":{"id":"bus-875-s41352","kind":"busstop","ref":"875","name":"Kolej","lines":["104","284","285"]},"geometry":{"type":"Point","coordinates":[27.1999,38.39852]}},{"type":"Feature","properties":{"id":"bus-875-s40653","kind":"busstop","ref":"875","name":"Evka-1 Pazaryeri","lines":["104","284","285"]},"geometry":{"type":"Point","coordinates":[27.1979,38.3988]}},{"type":"Feature","properties":{"id":"bus-875-s40619","kind":"busstop","ref":"875","name":"Cumhuriyet Parkı","lines":["104","284","285"]},"geometry":{"type":"Point","coordinates":[27.1963,38.3962]}},{"type":"Feature","properties":{"id":"bus-875-s41349","kind":"busstop","ref":"875","name":"Zirve","lines":["104","284","285"]},"geometry":{"type":"Point","coordinates":[27.19538,38.39519]}},{"type":"Feature","properties":{"id":"bus-875-s40633","kind":"busstop","ref":"875","name":"Alkent","lines":["104","284","285"]},"geometry":{"type":"Point","coordinates":[27.1951,38.394]}},{"type":"Feature","properties":{"id":"bus-875-s40623","kind":"busstop","ref":"875","name":"Birlikcan","lines":["104","284","285"]},"geometry":{"type":"Point","coordinates":[27.1941,38.3927]}},{"type":"Feature","properties":{"id":"bus-875-s40625","kind":"busstop","ref":"875","name":"Şehit Üst Teğmen Konuralp Özcan İlköğretim Okulu","lines":["104"]},"geometry":{"type":"Point","coordinates":[27.19219,38.39176]}},{"type":"Feature","properties":{"id":"bus-875-s40627","kind":"busstop","ref":"875","name":"Avşar Sitesi","lines":["104","284","285"]},"geometry":{"type":"Point","coordinates":[27.1936,38.3944]}},{"type":"Feature","properties":{"id":"bus-875-s40631","kind":"busstop","ref":"875","name":"Çam","lines":["104","284","285"]},"geometry":{"type":"Point","coordinates":[27.1947,38.3961]}},{"type":"Feature","properties":{"id":"bus-875-s40614","kind":"busstop","ref":"875","name":"Yavuz Sultan Selim Cami","lines":["284","285"]},"geometry":{"type":"Point","coordinates":[27.196,38.398]}},{"type":"Feature","properties":{"id":"bus-875-s40530","kind":"busstop","ref":"875","name":"Dörtyol","lines":["284","285"]},"geometry":{"type":"Point","coordinates":[27.1947,38.3979]}},{"type":"Feature","properties":{"id":"bus-875-s40528","kind":"busstop","ref":"875","name":"Çağdaş","lines":["284","285"]},"geometry":{"type":"Point","coordinates":[27.1932,38.3966]}},{"type":"Feature","properties":{"id":"bus-875-s40592","kind":"busstop","ref":"875","name":"Sultan Alparslan Anadolu Lisesi","lines":["284","285"]},"geometry":{"type":"Point","coordinates":[27.18989,38.39447]}},{"type":"Feature","properties":{"id":"bus-875-s40590","kind":"busstop","ref":"875","name":"Karakol","lines":["284","285"]},"geometry":{"type":"Point","coordinates":[27.1879,38.39243]}},{"type":"Feature","properties":{"id":"bus-875-s40588","kind":"busstop","ref":"875","name":"Sağlık Ocağı","lines":["284","285"]},"geometry":{"type":"Point","coordinates":[27.18655,38.39075]}},{"type":"Feature","properties":{"id":"bus-875-s40586","kind":"busstop","ref":"875","name":" Akşemsettin İlkokulu","lines":["284","285"]},"geometry":{"type":"Point","coordinates":[27.184,38.3897]}},{"type":"Feature","properties":{"id":"bus-875-s40514","kind":"busstop","ref":"875","name":"Mehmetçik","lines":["284","285"]},"geometry":{"type":"Point","coordinates":[27.1812,38.3905]}},{"type":"Feature","properties":{"id":"bus-875-s40512","kind":"busstop","ref":"875","name":"Eyüp Sultan Cami","lines":["284","285"]},"geometry":{"type":"Point","coordinates":[27.18,38.393]}},{"type":"Feature","properties":{"id":"bus-875-s40510","kind":"busstop","ref":"875","name":"Mevlana Heykeli","lines":["284","285"]},"geometry":{"type":"Point","coordinates":[27.17816,38.39459]}},{"type":"Feature","properties":{"id":"bus-875-s40508","kind":"busstop","ref":"875","name":"Buca Tenis Kulübü","lines":["284","285"]},"geometry":{"type":"Point","coordinates":[27.1762,38.396]}},{"type":"Feature","properties":{"id":"bus-875-s40506","kind":"busstop","ref":"875","name":" Süleyman Şah Mesleki ve Teknik Anadolu Lisesi","lines":["284","285","374","874"]},"geometry":{"type":"Point","coordinates":[27.17384,38.39774]}},{"type":"Feature","properties":{"id":"bus-875-s40504","kind":"busstop","ref":"875","name":"Evka 1 Çeşme","lines":["284","285","374","874"]},"geometry":{"type":"Point","coordinates":[27.171,38.3981]}},{"type":"Feature","properties":{"id":"bus-875-s40488","kind":"busstop","ref":"875","name":"Evka 1 İtfaiye","lines":["284","285","374","874"]},"geometry":{"type":"Point","coordinates":[27.1684,38.3969]}},{"type":"Feature","properties":{"id":"bus-875-s40464","kind":"busstop","ref":"875","name":"Hüdaverdi Cami","lines":["284","285","374","874"]},"geometry":{"type":"Point","coordinates":[27.167,38.3952]}},{"type":"Feature","properties":{"id":"bus-875-s40462","kind":"busstop","ref":"875","name":"Çakıl","lines":["285","374","874","876"]},"geometry":{"type":"Point","coordinates":[27.166,38.3918]}},{"type":"Feature","properties":{"id":"bus-875-s40016","kind":"busstop","ref":"875","name":"Buca Belediye Sarayı","lines":["104","206","285","303","304","374","470","476","490","515","536","676","805","874","876","940"]},"geometry":{"type":"Point","coordinates":[27.1634,38.3905]}},{"type":"Feature","properties":{"id":"bus-875-s40014","kind":"busstop","ref":"875","name":"Buca Vergi Dairesi","lines":["104","206","285","303","304","374","470","476","490","515","536","676","805","874","876","940"]},"geometry":{"type":"Point","coordinates":[27.1604,38.3909]}},{"type":"Feature","properties":{"id":"bus-875-s40012","kind":"busstop","ref":"875","name":"Yeni Mahalle","lines":["104","206","285","303","304","374","470","476","490","515","536","676","805","874","876","940"]},"geometry":{"type":"Point","coordinates":[27.1571,38.3913]}},{"type":"Feature","properties":{"id":"bus-875-s40010","kind":"busstop","ref":"875","name":"Şirinyer PTT","lines":["72","104","206","285","303","304","374","441","470","472","476","490","515","536","676","805","871","874","876","940"]},"geometry":{"type":"Point","coordinates":[27.1534,38.3918]}},{"type":"Feature","properties":{"id":"bus-875-s40153","kind":"busstop","ref":"875","name":"Şirinyer İstasyonu","lines":["36","74","206","418","441","466","476","536","671","676","805","818","838","866","871","874","876","878"]},"geometry":{"type":"Point","coordinates":[27.14743,38.39172]}},{"type":"Feature","properties":{"id":"bus-875-s40198","kind":"busstop","ref":"875","name":"Şirinyer Saha","lines":["36","74","418","441","465","471","472","476","536","671","676","805","818","838","866","871","874","876","878"]},"geometry":{"type":"Point","coordinates":[27.14911,38.3894]}},{"type":"Feature","properties":{"id":"bus-875-s41172","kind":"busstop","ref":"875","name":"Şirinyer Aktarma","lines":["874","876"]},"geometry":{"type":"Point","coordinates":[27.14886,38.39022]}},{"type":"Feature","properties":{"id":"bus-875-s40009","kind":"busstop","ref":"875","name":"Şirinyer Pazar Yeri","lines":["72","74","206","285","303","304","374","441","472","476","485","536","676","805","838","866","871","874","876"]},"geometry":{"type":"Point","coordinates":[27.1499,38.3926]}},{"type":"Feature","properties":{"id":"bus-875-s40011","kind":"busstop","ref":"875","name":"Yeni Mahalle","lines":["104","206","285","303","304","374","470","476","490","515","536","676","805","874","876","940"]},"geometry":{"type":"Point","coordinates":[27.1564,38.3913]}},{"type":"Feature","properties":{"id":"bus-875-s40013","kind":"busstop","ref":"875","name":"Buca Vergi Dairesi","lines":["104","206","285","303","304","374","470","476","490","515","536","676","805","874","876","940"]},"geometry":{"type":"Point","coordinates":[27.1594,38.3909]}},{"type":"Feature","properties":{"id":"bus-875-s40015","kind":"busstop","ref":"875","name":"Buca Belediye Sarayı","lines":["104","206","285","303","304","374","470","476","490","515","536","676","805","874","876","940"]},"geometry":{"type":"Point","coordinates":[27.163,38.3904]}},{"type":"Feature","properties":{"id":"bus-875-s40461","kind":"busstop","ref":"875","name":"Çakıl","lines":["285","374","874","876"]},"geometry":{"type":"Point","coordinates":[27.16625,38.3919]}},{"type":"Feature","properties":{"id":"bus-875-s40475","kind":"busstop","ref":"875","name":"Hüdaverdi Cami","lines":["284","285","374","874"]},"geometry":{"type":"Point","coordinates":[27.1676,38.3947]}},{"type":"Feature","properties":{"id":"bus-875-s40503","kind":"busstop","ref":"875","name":"Evka 1 İtfaiye","lines":["284","285","374","874"]},"geometry":{"type":"Point","coordinates":[27.1693,38.3961]}},{"type":"Feature","properties":{"id":"bus-875-s40505","kind":"busstop","ref":"875","name":"Evka 1 Ceşme","lines":["284","285","374","874"]},"geometry":{"type":"Point","coordinates":[27.1706,38.3979]}},{"type":"Feature","properties":{"id":"bus-875-s40507","kind":"busstop","ref":"875","name":" Süleyman Şah Mesleki ve Teknik Anadolu Lisesi","lines":["284","285","374","874"]},"geometry":{"type":"Point","coordinates":[27.1745,38.3971]}},{"type":"Feature","properties":{"id":"bus-875-s40509","kind":"busstop","ref":"875","name":"Buca Tenis Kulübü","lines":["284","285"]},"geometry":{"type":"Point","coordinates":[27.1761,38.3959]}},{"type":"Feature","properties":{"id":"bus-875-s40511","kind":"busstop","ref":"875","name":"Mevlana Heykeli","lines":["284","285"]},"geometry":{"type":"Point","coordinates":[27.17811,38.39451]}},{"type":"Feature","properties":{"id":"bus-875-s40513","kind":"busstop","ref":"875","name":"Eyüp Sultan Cami","lines":["284","285"]},"geometry":{"type":"Point","coordinates":[27.18,38.3929]}},{"type":"Feature","properties":{"id":"bus-875-s40515","kind":"busstop","ref":"875","name":"Mehmetçik","lines":["284","285"]},"geometry":{"type":"Point","coordinates":[27.18109,38.39056]}},{"type":"Feature","properties":{"id":"bus-875-s40587","kind":"busstop","ref":"875","name":" Akşemsettin İlkokulu","lines":["284","285"]},"geometry":{"type":"Point","coordinates":[27.1841,38.3896]}},{"type":"Feature","properties":{"id":"bus-875-s40589","kind":"busstop","ref":"875","name":"Sağlık Ocağı","lines":["284","285"]},"geometry":{"type":"Point","coordinates":[27.18689,38.39071]}},{"type":"Feature","properties":{"id":"bus-875-s40591","kind":"busstop","ref":"875","name":"Karakol","lines":["284","285"]},"geometry":{"type":"Point","coordinates":[27.18837,38.39269]}},{"type":"Feature","properties":{"id":"bus-875-s40593","kind":"busstop","ref":"875","name":"Sultan Alparslan Anadolu Lisesi","lines":["284","285"]},"geometry":{"type":"Point","coordinates":[27.1904,38.3944]}},{"type":"Feature","properties":{"id":"bus-875-s40529","kind":"busstop","ref":"875","name":"Çağdaş","lines":["284","285"]},"geometry":{"type":"Point","coordinates":[27.1929,38.3964]}},{"type":"Feature","properties":{"id":"bus-875-s40531","kind":"busstop","ref":"875","name":"Dörtyol","lines":["284","285"]},"geometry":{"type":"Point","coordinates":[27.1949,38.3981]}},{"type":"Feature","properties":{"id":"bus-875-s40613","kind":"busstop","ref":"875","name":"Yavuz Sultan Selim Cami","lines":["284","285"]},"geometry":{"type":"Point","coordinates":[27.1961,38.3979]}},{"type":"Feature","properties":{"id":"bus-875-s40630","kind":"busstop","ref":"875","name":"Çam","lines":["104","284","285"]},"geometry":{"type":"Point","coordinates":[27.1946,38.3962]}},{"type":"Feature","properties":{"id":"bus-875-s40626","kind":"busstop","ref":"875","name":"Avşar Sitesi","lines":["104","284","285"]},"geometry":{"type":"Point","coordinates":[27.1933,38.3942]}},{"type":"Feature","properties":{"id":"bus-875-s40624","kind":"busstop","ref":"875","name":"Birlikcan","lines":["104","284","285"]},"geometry":{"type":"Point","coordinates":[27.1945,38.3927]}},{"type":"Feature","properties":{"id":"bus-875-s40632","kind":"busstop","ref":"875","name":"Alkent","lines":["104","284","285"]},"geometry":{"type":"Point","coordinates":[27.1952,38.3935]}},{"type":"Feature","properties":{"id":"bus-875-s41350","kind":"busstop","ref":"875","name":"Zirve","lines":["104","284","285"]},"geometry":{"type":"Point","coordinates":[27.19533,38.39492]}},{"type":"Feature","properties":{"id":"bus-875-s40620","kind":"busstop","ref":"875","name":"Cumhuriyet Parkı","lines":["104","284","285"]},"geometry":{"type":"Point","coordinates":[27.19677,38.3967]}},{"type":"Feature","properties":{"id":"bus-875-s40652","kind":"busstop","ref":"875","name":"Evka 1 Pazaryeri","lines":["104","284","285"]},"geometry":{"type":"Point","coordinates":[27.1979,38.3992]}},{"type":"Feature","properties":{"id":"bus-875-s41373","kind":"busstop","ref":"875","name":"İde","lines":["104","285"]},"geometry":{"type":"Point","coordinates":[27.1987,38.39972]}},{"type":"Feature","properties":{"id":"bus-875-s41351","kind":"busstop","ref":"875","name":"Kolej","lines":["104","284","285"]},"geometry":{"type":"Point","coordinates":[27.20009,38.39828]}},{"type":"Feature","properties":{"id":"bus-875-s41233","kind":"busstop","ref":"875","name":"Sosyal Yaşam Merkezi 2","lines":["104","284","285"]},"geometry":{"type":"Point","coordinates":[27.20131,38.39791]}},{"type":"Feature","properties":{"id":"bus-875-s41231","kind":"busstop","ref":"875","name":"Huzur","lines":["104","284","285"]},"geometry":{"type":"Point","coordinates":[27.20316,38.39815]}},{"type":"Feature","properties":{"id":"bus-875-s41312","kind":"busstop","ref":"875","name":"Buca Toki Girişi","lines":["104","284","285","866"]},"geometry":{"type":"Point","coordinates":[27.20293,38.39945]}},{"type":"Feature","properties":{"id":"bus-875-s41217","kind":"busstop","ref":"875","name":"Toki Okul","lines":["104","866"]},"geometry":{"type":"Point","coordinates":[27.2055,38.3991]}},{"type":"Feature","properties":{"id":"bus-875-s41219","kind":"busstop","ref":"875","name":"Toki AVM","lines":["104","866"]},"geometry":{"type":"Point","coordinates":[27.2059,38.3998]}},{"type":"Feature","properties":{"id":"bus-875-s41225","kind":"busstop","ref":"875","name":"Yamaç","lines":[]},"geometry":{"type":"Point","coordinates":[27.2029,38.4002]}}]}