{"type":"FeatureCollection","features":[{"type":"Feature","properties":{"id":"bus-876-1","kind":"busline","ref":"876","dir":1},"geometry":{"type":"LineString","coordinates":[[27.2003,38.4019],[27.2001,38.4021],[27.202,38.4029],[27.2024,38.4035],[27.2047,38.4037],[27.2049,38.4043],[27.2045,38.4053],[27.2033,38.4064],[27.2015,38.4065],[27.201,38.4075],[27.2007,38.4077],[27.1973,38.4082],[27.1962,38.4082],[27.1895,38.4051],[27.1889,38.4051],[27.1879,38.4036],[27.1865,38.4023],[27.1856,38.402],[27.1838,38.4005],[27.1829,38.4],[27.181,38.3979],[27.1797,38.3987],[27.1798,38.3993],[27.1812,38.3999],[27.1806,38.4002],[27.1783,38.3993],[27.1778,38.3985],[27.1773,38.3983],[27.1774,38.3977],[27.1761,38.3975],[27.1748,38.397],[27.1744,38.3961],[27.1732,38.3947],[27.1709,38.3932],[27.1723,38.3922],[27.1727,38.3914],[27.1726,38.3911],[27.1723,38.3911],[27.1701,38.3925],[27.1666,38.3931],[27.1657,38.3909],[27.1651,38.3902],[27.1524,38.3919],[27.1495,38.3929],[27.1489,38.3934],[27.1472,38.3931],[27.1477,38.3906],[27.1484,38.3898],[27.1496,38.3891]]}},{"type":"Feature","properties":{"id":"bus-876-2","kind":"busline","ref":"876","dir":2},"geometry":{"type":"LineString","coordinates":[[27.1488,38.3902],[27.1488,38.3908],[27.1485,38.3912],[27.1485,38.3916],[27.1487,38.3918],[27.1485,38.393],[27.1523,38.3919],[27.1651,38.3901],[27.1657,38.3909],[27.1665,38.393],[27.1695,38.3926],[27.171,38.392],[27.1722,38.3911],[27.1729,38.3908],[27.1723,38.3922],[27.1709,38.3932],[27.1732,38.3947],[27.1748,38.3967],[27.1754,38.3972],[27.1761,38.3975],[27.1774,38.3977],[27.1773,38.3983],[27.1778,38.3985],[27.1783,38.3993],[27.1806,38.4002],[27.1812,38.3999],[27.1798,38.3993],[27.1797,38.3987],[27.181,38.3979],[27.1829,38.4],[27.1838,38.4005],[27.1856,38.402],[27.1865,38.4023],[27.189,38.4049],[27.1903,38.4053],[27.1961,38.4081],[27.1973,38.4081],[27.2007,38.4076],[27.2015,38.4064],[27.2032,38.4063],[27.2038,38.406],[27.2044,38.4053],[27.2048,38.4043],[27.2046,38.4037],[27.2025,38.4036],[27.2018,38.4028],[27.2001,38.4021],[27.2003,38.4019]]}},{"type":"Feature","properties":{"id":"bus-876-s40661","kind":"busstop","ref":"876","name":"İzmir Tınaztepe Üniversitesi","lines":["104","284","285","374","475","866","874","875"]},"geometry":{"type":"Point","coordinates":[27.2003,38.4019]}},{"type":"Feature","properties":{"id":"bus-876-s41223","kind":"busstop","ref":"876","name":"Jandarma Komutanlığı","lines":[]},"geometry":{"type":"Point","coordinates":[27.20327,38.40353]}},{"type":"Feature","properties":{"id":"bus-876-s41446","kind":"busstop","ref":"876","name":"Kriminal Laboratuvar Müdürlüğü","lines":[]},"geometry":{"type":"Point","coordinates":[27.20125,38.40724]}},{"type":"Feature","properties":{"id":"bus-876-s41354","kind":"busstop","ref":"876","name":"İzmir Tınaztepe Üniversitesi Üst Giriş","lines":["475"]},"geometry":{"type":"Point","coordinates":[27.19726,38.40819]}},{"type":"Feature","properties":{"id":"bus-876-s41361","kind":"busstop","ref":"876","name":"İZUM","lines":["475"]},"geometry":{"type":"Point","coordinates":[27.19031,38.40549]}},{"type":"Feature","properties":{"id":"bus-876-s40562","kind":"busstop","ref":"876","name":"Afetevleri","lines":[]},"geometry":{"type":"Point","coordinates":[27.1851,38.4017]}},{"type":"Feature","properties":{"id":"bus-876-s40560","kind":"busstop","ref":"876","name":"Akasyalar","lines":[]},"geometry":{"type":"Point","coordinates":[27.1837,38.4006]}},{"type":"Feature","properties":{"id":"bus-876-s40558","kind":"busstop","ref":"876","name":"Şehit Jandarma Çadırcı","lines":[]},"geometry":{"type":"Point","coordinates":[27.1819,38.3989]}},{"type":"Feature","properties":{"id":"bus-876-s40570","kind":"busstop","ref":"876","name":"Basket Sahası","lines":[]},"geometry":{"type":"Point","coordinates":[27.1807,38.39812]}},{"type":"Feature","properties":{"id":"bus-876-s40572","kind":"busstop","ref":"876","name":"Şirintepe","lines":[]},"geometry":{"type":"Point","coordinates":[27.18066,38.39966]}},{"type":"Feature","properties":{"id":"bus-876-s40550","kind":"busstop","ref":"876","name":"Şirintepe Parkı","lines":[]},"geometry":{"type":"Point","coordinates":[27.1795,38.3998]}},{"type":"Feature","properties":{"id":"bus-876-s40548","kind":"busstop","ref":"876","name":"Asma","lines":[]},"geometry":{"type":"Point","coordinates":[27.1777,38.3986]}},{"type":"Feature","properties":{"id":"bus-876-s40522","kind":"busstop","ref":"876","name":"Dokuz Eylül Öğrenci Yurdu","lines":["374","874"]},"geometry":{"type":"Point","coordinates":[27.1771,38.3976]}},{"type":"Feature","properties":{"id":"bus-876-s40520","kind":"busstop","ref":"876","name":"Devlet Malzeme Ofisi Çok Programlı Anadolu Lisesi","lines":[]},"geometry":{"type":"Point","coordinates":[27.1737,38.3954]}},{"type":"Feature","properties":{"id":"bus-876-s40518","kind":"busstop","ref":"876","name":"Buca Spor Salonu","lines":[]},"geometry":{"type":"Point","coordinates":[27.1727,38.3944]}},{"type":"Feature","properties":{"id":"bus-876-s40064","kind":"busstop","ref":"876","name":"Buca Yeni Cami","lines":[]},"geometry":{"type":"Point","coordinates":[27.1717,38.3925]}},{"type":"Feature","properties":{"id":"bus-876-s40472","kind":"busstop","ref":"876","name":"Sağlık","lines":[]},"geometry":{"type":"Point","coordinates":[27.17211,38.3914]}},{"type":"Feature","properties":{"id":"bus-876-s40470","kind":"busstop","ref":"876","name":"Buca Menderes Mahallesi Muhtarlığı","lines":[]},"geometry":{"type":"Point","coordinates":[27.1702,38.3925]}},{"type":"Feature","properties":{"id":"bus-876-s40468","kind":"busstop","ref":"876","name":"Park","lines":[]},"geometry":{"type":"Point","coordinates":[27.1674,38.393]}},{"type":"Feature","properties":{"id":"bus-876-s40462","kind":"busstop","ref":"876","name":"Çakıl","lines":["285","374","874","875"]},"geometry":{"type":"Point","coordinates":[27.166,38.3918]}},{"type":"Feature","properties":{"id":"bus-876-s40016","kind":"busstop","ref":"876","name":"Buca Belediye Sarayı","lines":["104","206","285","303","304","374","470","476","490","515","536","676","805","874","875","940"]},"geometry":{"type":"Point","coordinates":[27.1634,38.3905]}},{"type":"Feature","properties":{"id":"bus-876-s40014","kind":"busstop","ref":"876","name":"Buca Vergi Dairesi","lines":["104","206","285","303","304","374","470","476","490","515","536","676","805","874","875","940"]},"geometry":{"type":"Point","coordinates":[27.1604,38.3909]}},{"type":"Feature","properties":{"id":"bus-876-s40012","kind":"busstop","ref":"876","name":"Yeni Mahalle","lines":["104","206","285","303","304","374","470","476","490","515","536","676","805","874","875","940"]},"geometry":{"type":"Point","coordinates":[27.1571,38.3913]}},{"type":"Feature","properties":{"id":"bus-876-s40010","kind":"busstop","ref":"876","name":"Şirinyer PTT","lines":["72","104","206","285","303","304","374","441","470","472","476","490","515","536","676","805","871","874","875","940"]},"geometry":{"type":"Point","coordinates":[27.1534,38.3918]}},{"type":"Feature","properties":{"id":"bus-876-s40153","kind":"busstop","ref":"876","name":"Şirinyer İstasyonu","lines":["36","74","206","418","441","466","476","536","671","676","805","818","838","866","871","874","875","878"]},"geometry":{"type":"Point","coordinates":[27.14743,38.39172]}},{"type":"Feature","properties":{"id":"bus-876-s40198","kind":"busstop","ref":"876","name":"Şirinyer Saha","lines":["36","74","418","441","465","471","472","476","536","671","676","805","818","838","866","871","874","875","878"]},"geometry":{"type":"Point","coordinates":[27.14911,38.3894]}},{"type":"Feature","properties":{"id":"bus-876-s41172","kind":"busstop","ref":"876","name":"Şirinyer Aktarma","lines":["874","875"]},"geometry":{"type":"Point","coordinates":[27.14886,38.39022]}},{"type":"Feature","properties":{"id":"bus-876-s40009","kind":"busstop","ref":"876","name":"Şirinyer Pazar Yeri","lines":["72","74","206","285","303","304","374","441","472","476","485","536","676","805","838","866","871","874","875"]},"geometry":{"type":"Point","coordinates":[27.1499,38.3926]}},{"type":"Feature","properties":{"id":"bus-876-s40011","kind":"busstop","ref":"876","name":"Yeni Mahalle","lines":["104","206","285","303","304","374","470","476","490","515","536","676","805","874","875","940"]},"geometry":{"type":"Point","coordinates":[27.1564,38.3913]}},{"type":"Feature","properties":{"id":"bus-876-s40013","kind":"busstop","ref":"876","name":"Buca Vergi Dairesi","lines":["104","206","285","303","304","374","470","476","490","515","536","676","805","874","875","940"]},"geometry":{"type":"Point","coordinates":[27.1594,38.3909]}},{"type":"Feature","properties":{"id":"bus-876-s40015","kind":"busstop","ref":"876","name":"Buca Belediye Sarayı","lines":["104","206","285","303","304","374","470","476","490","515","536","676","805","874","875","940"]},"geometry":{"type":"Point","coordinates":[27.163,38.3904]}},{"type":"Feature","properties":{"id":"bus-876-s40461","kind":"busstop","ref":"876","name":"Çakıl","lines":["285","374","874","875"]},"geometry":{"type":"Point","coordinates":[27.16625,38.3919]}},{"type":"Feature","properties":{"id":"bus-876-s40467","kind":"busstop","ref":"876","name":"Mustafa Eren Parkı","lines":[]},"geometry":{"type":"Point","coordinates":[27.1681,38.3927]}},{"type":"Feature","properties":{"id":"bus-876-s40469","kind":"busstop","ref":"876","name":"Buca Menderes Mahallesi Muhtarlığı","lines":[]},"geometry":{"type":"Point","coordinates":[27.1704,38.3921]}},{"type":"Feature","properties":{"id":"bus-876-s40471","kind":"busstop","ref":"876","name":"Sağlık","lines":[]},"geometry":{"type":"Point","coordinates":[27.1721,38.3911]}},{"type":"Feature","properties":{"id":"bus-876-s40063","kind":"busstop","ref":"876","name":"Buca Yeni Cami","lines":[]},"geometry":{"type":"Point","coordinates":[27.17172,38.39262]}},{"type":"Feature","properties":{"id":"bus-876-s40519","kind":"busstop","ref":"876","name":"Buca Spor Salonu","lines":[]},"geometry":{"type":"Point","coordinates":[27.1725,38.3942]}},{"type":"Feature","properties":{"id":"bus-876-s40521","kind":"busstop","ref":"876","name":"Devlet Malzeme Ofisi Çok Programlı Anadolu Lisesi","lines":[]},"geometry":{"type":"Point","coordinates":[27.1738,38.3952]}},{"type":"Feature","properties":{"id":"bus-876-s40523","kind":"busstop","ref":"876","name":"Dokuz Eylül Öğrenci Yurdu","lines":["374","874"]},"geometry":{"type":"Point","coordinates":[27.177,38.3976]}},{"type":"Feature","properties":{"id":"bus-876-s40549","kind":"busstop","ref":"876","name":"Asma","lines":[]},"geometry":{"type":"Point","coordinates":[27.17806,38.39859]}},{"type":"Feature","properties":{"id":"bus-876-s40551","kind":"busstop","ref":"876","name":"Şirintepe Parkı","lines":[]},"geometry":{"type":"Point","coordinates":[27.1794,38.3997]}},{"type":"Feature","properties":{"id":"bus-876-s40553","kind":"busstop","ref":"876","name":"Şirintepe","lines":[]},"geometry":{"type":"Point","coordinates":[27.18078,38.3998]}},{"type":"Feature","properties":{"id":"bus-876-s40571","kind":"busstop","ref":"876","name":"Basket Sahası","lines":[]},"geometry":{"type":"Point","coordinates":[27.18055,38.39812]}},{"type":"Feature","properties":{"id":"bus-876-s40559","kind":"busstop","ref":"876","name":"Şehit Jandarma Çadırcı","lines":[]},"geometry":{"type":"Point","coordinates":[27.1817,38.3987]}},{"type":"Feature","properties":{"id":"bus-876-s40561","kind":"busstop","ref":"876","name":"Akasyalar","lines":[]},"geometry":{"type":"Point","coordinates":[27.1833,38.4001]}},{"type":"Feature","properties":{"id":"bus-876-s40563","kind":"busstop","ref":"876","name":"Afetevleri","lines":[]},"geometry":{"type":"Point","coordinates":[27.1855,38.4018]}},{"type":"Feature","properties":{"id":"bus-876-s40565","kind":"busstop","ref":"876","name":"İZUM","lines":["475"]},"geometry":{"type":"Point","coordinates":[27.19004,38.40512]}},{"type":"Feature","properties":{"id":"bus-876-s41353","kind":"busstop","ref":"876","name":"İzmir Tınaztepe Üniversitesi Üst Giriş","lines":[]},"geometry":{"type":"Point","coordinates":[27.1976,38.40798]}},{"type":"Feature","properties":{"id":"bus-876-s41445","kind":"busstop","ref":"876","name":"Kriminal Laboratuvar Müdürlüğü","lines":[]},"geometry":{"type":"Point","coordinates":[27.20019,38.40759]}},{"type":"Feature","properties":{"id":"bus-876-s41224","kind":"busstop","ref":"876","name":"Jandarma","lines":[]},"geometry":{"type":"Point","coordinates":[27.204,38.4037]}}]}