{"type":"FeatureCollection","features":[{"type":"Feature","properties":{"id":"bus-879-1","kind":"busline","ref":"879","dir":1},"geometry":{"type":"LineString","coordinates":[[27.0729,38.3872],[27.073,38.3868],[27.0729,38.3873],[27.0717,38.3892],[27.0714,38.3903],[27.0716,38.3922],[27.0696,38.3953],[27.0697,38.3966],[27.07,38.397],[27.0742,38.3957],[27.0787,38.3939],[27.0874,38.393],[27.0878,38.3923],[27.0899,38.3904],[27.0925,38.3895],[27.0952,38.389],[27.0965,38.3904],[27.0973,38.392],[27.0982,38.3929],[27.1017,38.3951],[27.1,38.3973],[27.1,38.3975],[27.1006,38.398],[27.1022,38.3985],[27.1074,38.3983],[27.1093,38.3984],[27.1109,38.3988],[27.1128,38.3984],[27.1129,38.3972],[27.1141,38.3967],[27.1158,38.3954],[27.1168,38.395],[27.1187,38.3936],[27.1187,38.3924],[27.119,38.3918],[27.1185,38.3907],[27.1178,38.3899],[27.1176,38.3892],[27.117,38.3892],[27.1164,38.3885],[27.1157,38.3861],[27.1142,38.3845],[27.1139,38.3844],[27.1139,38.3842],[27.1196,38.3833],[27.1203,38.3827],[27.1209,38.3826],[27.1222,38.3818],[27.1251,38.3796],[27.1292,38.3782],[27.1322,38.3775],[27.1309,38.376],[27.1295,38.3739],[27.1297,38.3732],[27.1297,38.3689],[27.1296,38.3683],[27.1288,38.3677],[27.1291,38.3659],[27.1289,38.3654],[27.129,38.3645],[27.1287,38.3633],[27.1282,38.3624],[27.1281,38.3616],[27.1286,38.3605],[27.1278,38.3596],[27.1274,38.3587],[27.1267,38.3583],[27.1262,38.3577],[27.129,38.3553],[27.13,38.3547],[27.1304,38.3542],[27.1315,38.3537],[27.1327,38.3514],[27.1335,38.3511],[27.1335,38.3502],[27.1324,38.3471],[27.1323,38.3452],[27.1318,38.3449],[27.1313,38.3449],[27.131,38.3451],[27.1309,38.3456],[27.1318,38.3461],[27.1334,38.346],[27.134,38.3457],[27.1341,38.3453],[27.1339,38.345],[27.1331,38.3449],[27.1326,38.3455],[27.1325,38.3465],[27.1338,38.3506],[27.1339,38.3535],[27.1342,38.355],[27.1357,38.3577]]}},{"type":"Feature","properties":{"id":"bus-879-2","kind":"busline","ref":"879","dir":2},"geometry":{"type":"LineString","coordinates":[[27.1357,38.3577],[27.136,38.3582],[27.1359,38.3584],[27.1357,38.3584],[27.134,38.3555],[27.1335,38.3536],[27.1334,38.3513],[27.1329,38.3514],[27.1325,38.3519],[27.1315,38.3537],[27.1304,38.3542],[27.1269,38.3573],[27.1262,38.3577],[27.1267,38.3583],[27.1274,38.3587],[27.1278,38.3596],[27.1286,38.3605],[27.1281,38.3616],[27.1282,38.3624],[27.1287,38.3633],[27.129,38.3645],[27.1289,38.3654],[27.1291,38.3659],[27.1288,38.3677],[27.1296,38.3683],[27.1297,38.3689],[27.1297,38.3742],[27.1309,38.376],[27.1323,38.3775],[27.128,38.3786],[27.1257,38.3795],[27.1208,38.3827],[27.1206,38.383],[27.1194,38.3835],[27.1148,38.3841],[27.1142,38.3844],[27.1143,38.3847],[27.1157,38.3861],[27.1164,38.3885],[27.117,38.3892],[27.1176,38.3892],[27.1178,38.3899],[27.1185,38.3907],[27.119,38.3918],[27.1187,38.3924],[27.1187,38.3936],[27.1168,38.395],[27.1158,38.3954],[27.1141,38.3967],[27.1129,38.3972],[27.1128,38.3984],[27.1115,38.3986],[27.1113,38.3989],[27.111,38.3989],[27.1086,38.3988],[27.1063,38.3983],[27.1017,38.3985],[27.1005,38.398],[27.0998,38.3974],[27.1017,38.3951],[27.0982,38.3929],[27.0973,38.392],[27.0965,38.3904],[27.0955,38.3896],[27.0953,38.3891],[27.0934,38.3893],[27.0911,38.3899],[27.0897,38.3906],[27.0878,38.3923],[27.0876,38.3927],[27.0877,38.3932],[27.0854,38.3932],[27.0786,38.394],[27.0737,38.396],[27.0708,38.3968],[27.0705,38.397],[27.0703,38.3976],[27.0699,38.3976],[27.0697,38.3974],[27.0695,38.3953],[27.0715,38.3922],[27.0713,38.3908],[27.0714,38.3895],[27.073,38.3868],[27.0729,38.3872]]}},{"type":"Feature","properties":{"id":"bus-879-s10504","kind":"busstop","ref":"879","name":"Fahrettin Altay","lines":["311","517","551","681","945","946"]},"geometry":{"type":"Point","coordinates":[27.073,38.3872]}},{"type":"Feature","properties":{"id":"bus-879-s10507","kind":"busstop","ref":"879","name":"İkinci Oyak Sitesi","lines":["486","517","551","681"]},"geometry":{"type":"Point","coordinates":[27.0716,38.3899]}},{"type":"Feature","properties":{"id":"bus-879-s10505","kind":"busstop","ref":"879","name":"Ordu Pazarı","lines":["486","517","551","681"]},"geometry":{"type":"Point","coordinates":[27.0714,38.3925]}},{"type":"Feature","properties":{"id":"bus-879-s10506","kind":"busstop","ref":"879","name":"Mehmetçik","lines":["486","517","681"]},"geometry":{"type":"Point","coordinates":[27.0697,38.3952]}},{"type":"Feature","properties":{"id":"bus-879-s10134","kind":"busstop","ref":"879","name":"Fahrettin Altay Meydan 7","lines":["517","681","950"]},"geometry":{"type":"Point","coordinates":[27.07026,38.39677]}},{"type":"Feature","properties":{"id":"bus-879-s10292","kind":"busstop","ref":"879","name":"Göztepe Stadı","lines":["517","681","950"]},"geometry":{"type":"Point","coordinates":[27.0759,38.3949]}},{"type":"Feature","properties":{"id":"bus-879-s10290","kind":"busstop","ref":"879","name":"Denizmen","lines":["517","681","950"]},"geometry":{"type":"Point","coordinates":[27.0806,38.3936]}},{"type":"Feature","properties":{"id":"bus-879-s10280","kind":"busstop","ref":"879","name":"Hıfzıssıhha","lines":["517","681","950"]},"geometry":{"type":"Point","coordinates":[27.0862,38.3929]}},{"type":"Feature","properties":{"id":"bus-879-s12423","kind":"busstop","ref":"879","name":"Nevvar Salih İşgören Anadolu Lisesi","lines":["517"]},"geometry":{"type":"Point","coordinates":[27.0898,38.3904]}},{"type":"Feature","properties":{"id":"bus-879-s12425","kind":"busstop","ref":"879","name":"Metin Oktay Mahallesi Muhtarlığı","lines":["517"]},"geometry":{"type":"Point","coordinates":[27.09393,38.38911]}},{"type":"Feature","properties":{"id":"bus-879-s12344","kind":"busstop","ref":"879","name":"Mermerci","lines":["18","19","523","524","575","579"]},"geometry":{"type":"Point","coordinates":[27.09638,38.39022]}},{"type":"Feature","properties":{"id":"bus-879-s12342","kind":"busstop","ref":"879","name":"Karabağlar Halk Eğitim Merkezi","lines":["18","19","523","524","575","579"]},"geometry":{"type":"Point","coordinates":[27.09774,38.39232]}},{"type":"Feature","properties":{"id":"bus-879-s12340","kind":"busstop","ref":"879","name":"Hasan Tahsin","lines":["18","19","523","524","575","579"]},"geometry":{"type":"Point","coordinates":[27.0995,38.3937]}},{"type":"Feature","properties":{"id":"bus-879-s12364","kind":"busstop","ref":"879","name":"Şehit Halit Taş Ortaokulu","lines":["16","19","520","523","524"]},"geometry":{"type":"Point","coordinates":[27.10113,38.39591]}},{"type":"Feature","properties":{"id":"bus-879-s12278","kind":"busstop","ref":"879","name":"Basın Sitesi","lines":["16","19","520","523","524"]},"geometry":{"type":"Point","coordinates":[27.1004,38.3976]}},{"type":"Feature","properties":{"id":"bus-879-s12276","kind":"busstop","ref":"879","name":"Yeşilyurt Huzurevi","lines":["16","19","520","523","524"]},"geometry":{"type":"Point","coordinates":[27.10237,38.39844]}},{"type":"Feature","properties":{"id":"bus-879-s12274","kind":"busstop","ref":"879","name":"Yeşilyurt Devlet Hastanesi","lines":["16","19","520","523","524"]},"geometry":{"type":"Point","coordinates":[27.10504,38.3983]}},{"type":"Feature","properties":{"id":"bus-879-s12272","kind":"busstop","ref":"879","name":"Yeşilyurt Çeşme","lines":["16","19","520","523","524"]},"geometry":{"type":"Point","coordinates":[27.10827,38.39831]}},{"type":"Feature","properties":{"id":"bus-879-s12303","kind":"busstop","ref":"879","name":"İzsu","lines":["18","575","579"]},"geometry":{"type":"Point","coordinates":[27.11369,38.39689]}},{"type":"Feature","properties":{"id":"bus-879-s12305","kind":"busstop","ref":"879","name":"Defne","lines":["18","575","579"]},"geometry":{"type":"Point","coordinates":[27.1151,38.3959]}},{"type":"Feature","properties":{"id":"bus-879-s12307","kind":"busstop","ref":"879","name":"Öztepe","lines":["18","575","579"]},"geometry":{"type":"Point","coordinates":[27.11755,38.39443]}},{"type":"Feature","properties":{"id":"bus-879-s12291","kind":"busstop","ref":"879","name":"Karabağlar Kazım Karabekir Orta Okulu","lines":["124","587"]},"geometry":{"type":"Point","coordinates":[27.11863,38.39269]}},{"type":"Feature","properties":{"id":"bus-879-s12293","kind":"busstop","ref":"879","name":"Emek Sitesi","lines":["124","587"]},"geometry":{"type":"Point","coordinates":[27.11867,38.39111]}},{"type":"Feature","properties":{"id":"bus-879-s12209","kind":"busstop","ref":"879","name":"Karakuyu","lines":["23","124","193","224","522","587","588","680","823"]},"geometry":{"type":"Point","coordinates":[27.1159,38.3872]}},{"type":"Feature","properties":{"id":"bus-879-s12211","kind":"busstop","ref":"879","name":"Karaselvi","lines":["23","124","193","224","522","587","588","680","823"]},"geometry":{"type":"Point","coordinates":[27.1147,38.3851]}},{"type":"Feature","properties":{"id":"bus-879-s16521","kind":"busstop","ref":"879","name":"Sevgi Mahalle Muhtarlığı","lines":["224","522","823"]},"geometry":{"type":"Point","coordinates":[27.11559,38.3839]}},{"type":"Feature","properties":{"id":"bus-879-s12644","kind":"busstop","ref":"879","name":"İsmail Hakkı Tonguç Parkı","lines":["224","522","823"]},"geometry":{"type":"Point","coordinates":[27.11788,38.3835]}},{"type":"Feature","properties":{"id":"bus-879-s12642","kind":"busstop","ref":"879","name":"İlkkurşun Anadolu Lisesi","lines":["550","556","671"]},"geometry":{"type":"Point","coordinates":[27.1218,38.3819]}},{"type":"Feature","properties":{"id":"bus-879-s12638","kind":"busstop","ref":"879","name":"Hasan Ali Yücel Parkı","lines":["550","556","671"]},"geometry":{"type":"Point","coordinates":[27.12417,38.38028]}},{"type":"Feature","properties":{"id":"bus-879-s12634","kind":"busstop","ref":"879","name":"2 Nolu Çağdaş Kahraman Sağlık Ocağı","lines":["556","671"]},"geometry":{"type":"Point","coordinates":[27.12753,38.37862]}},{"type":"Feature","properties":{"id":"bus-879-s12630","kind":"busstop","ref":"879","name":"Bahar Yıldırım İlkokulu","lines":["556","671"]},"geometry":{"type":"Point","coordinates":[27.1301,38.3779]}},{"type":"Feature","properties":{"id":"bus-879-s12599","kind":"busstop","ref":"879","name":"Kasap","lines":["156","157","556"]},"geometry":{"type":"Point","coordinates":[27.1308,38.3759]}},{"type":"Feature","properties":{"id":"bus-879-s12601","kind":"busstop","ref":"879","name":"Karabağlar Briketçi","lines":["156","157","556"]},"geometry":{"type":"Point","coordinates":[27.1297,38.3744]}},{"type":"Feature","properties":{"id":"bus-879-s12603","kind":"busstop","ref":"879","name":"Bademlik","lines":["156","157","556"]},"geometry":{"type":"Point","coordinates":[27.12947,38.37264]}},{"type":"Feature","properties":{"id":"bus-879-s12605","kind":"busstop","ref":"879","name":"Cevdet Güçlüer İlkokulu","lines":["156","157","556"]},"geometry":{"type":"Point","coordinates":[27.12955,38.37074]}},{"type":"Feature","properties":{"id":"bus-879-s12607","kind":"busstop","ref":"879","name":"Karabağlar Atatürk Mesleki ve Teknik Anadolu Lisesi","lines":["156","157","556"]},"geometry":{"type":"Point","coordinates":[27.1294,38.3683]}},{"type":"Feature","properties":{"id":"bus-879-s12863","kind":"busstop","ref":"879","name":"Demirci","lines":["157","828"]},"geometry":{"type":"Point","coordinates":[27.12889,38.36458]}},{"type":"Feature","properties":{"id":"bus-879-s12865","kind":"busstop","ref":"879","name":"Lalepaşa Cami","lines":["157","828"]},"geometry":{"type":"Point","coordinates":[27.1283,38.3628]}},{"type":"Feature","properties":{"id":"bus-879-s12867","kind":"busstop","ref":"879","name":"Manav","lines":["157","828"]},"geometry":{"type":"Point","coordinates":[27.1284,38.3608]}},{"type":"Feature","properties":{"id":"bus-879-s12717","kind":"busstop","ref":"879","name":"Saka","lines":["157","828"]},"geometry":{"type":"Point","coordinates":[27.1273,38.3588]}},{"type":"Feature","properties":{"id":"bus-879-s12719","kind":"busstop","ref":"879","name":"Köşe","lines":["157","828"]},"geometry":{"type":"Point","coordinates":[27.12659,38.35733]}},{"type":"Feature","properties":{"id":"bus-879-s12721","kind":"busstop","ref":"879","name":"Aktepe Cami","lines":["92","157","828"]},"geometry":{"type":"Point","coordinates":[27.12863,38.35551]}},{"type":"Feature","properties":{"id":"bus-879-s12723","kind":"busstop","ref":"879","name":"Demirkıran","lines":["92","157","828"]},"geometry":{"type":"Point","coordinates":[27.1307,38.354]}},{"type":"Feature","properties":{"id":"bus-879-s13338","kind":"busstop","ref":"879","name":"Aktepe Giriş","lines":["610","828"]},"geometry":{"type":"Point","coordinates":[27.1323,38.352]}},{"type":"Feature","properties":{"id":"bus-879-s10656","kind":"busstop","ref":"879","name":"Aktepe","lines":["152","200","508","539","610","691","823","828","877","887","891","910"]},"geometry":{"type":"Point","coordinates":[27.134,38.3526]}},{"type":"Feature","properties":{"id":"bus-879-s10678","kind":"busstop","ref":"879","name":"Gaziemir Aktarma Merkezi","lines":["485","508","610","823","828","877","891"]},"geometry":{"type":"Point","coordinates":[27.13556,38.35726]}},{"type":"Feature","properties":{"id":"bus-879-s10653","kind":"busstop","ref":"879","name":"Gaziemir Semt Garajı","lines":["152","200","508","539","610","691","823","828","877","887","891","910"]},"geometry":{"type":"Point","coordinates":[27.13479,38.35704]}},{"type":"Feature","properties":{"id":"bus-879-s10655","kind":"busstop","ref":"879","name":"Emrez","lines":["152","200","508","539","610","691","823","828","877","887","891","910"]},"geometry":{"type":"Point","coordinates":[27.134,38.3555]}},{"type":"Feature","properties":{"id":"bus-879-s10657","kind":"busstop","ref":"879","name":"Aktepe","lines":["152","200","508","539","610","691","823","828","877","887","891","910"]},"geometry":{"type":"Point","coordinates":[27.1334,38.3518]}},{"type":"Feature","properties":{"id":"bus-879-s13339","kind":"busstop","ref":"879","name":"Aktepe Giriş","lines":["610","828"]},"geometry":{"type":"Point","coordinates":[27.1324,38.3522]}},{"type":"Feature","properties":{"id":"bus-879-s12720","kind":"busstop","ref":"879","name":"Demirkıran","lines":["92","157","828"]},"geometry":{"type":"Point","coordinates":[27.131,38.354]}},{"type":"Feature","properties":{"id":"bus-879-s12718","kind":"busstop","ref":"879","name":"Aktepe Cami","lines":["92","157","828"]},"geometry":{"type":"Point","coordinates":[27.12818,38.35623]}},{"type":"Feature","properties":{"id":"bus-879-s12716","kind":"busstop","ref":"879","name":"Köşe","lines":["157","828"]},"geometry":{"type":"Point","coordinates":[27.12668,38.35749]}},{"type":"Feature","properties":{"id":"bus-879-s12714","kind":"busstop","ref":"879","name":"Saka","lines":["157","828"]},"geometry":{"type":"Point","coordinates":[27.1277,38.3588]}},{"type":"Feature","properties":{"id":"bus-879-s12868","kind":"busstop","ref":"879","name":"Manav","lines":["157","828"]},"geometry":{"type":"Point","coordinates":[27.1286,38.3607]}},{"type":"Feature","properties":{"id":"bus-879-s12866","kind":"busstop","ref":"879","name":"Lalepaşa Cami","lines":["157","828"]},"geometry":{"type":"Point","coordinates":[27.1285,38.3628]}},{"type":"Feature","properties":{"id":"bus-879-s12864","kind":"busstop","ref":"879","name":"Demirci","lines":["157","828"]},"geometry":{"type":"Point","coordinates":[27.129,38.3651]}},{"type":"Feature","properties":{"id":"bus-879-s12604","kind":"busstop","ref":"879","name":"Karabağlar Atatürk Mesleki ve Teknik Anadolu Lisesi","lines":["156","157","556"]},"geometry":{"type":"Point","coordinates":[27.1294,38.3681]}},{"type":"Feature","properties":{"id":"bus-879-s12602","kind":"busstop","ref":"879","name":"Sinan Cami","lines":["156","157","556"]},"geometry":{"type":"Point","coordinates":[27.1297,38.3699]}},{"type":"Feature","properties":{"id":"bus-879-s12600","kind":"busstop","ref":"879","name":"Bademlik","lines":["156","157","556"]},"geometry":{"type":"Point","coordinates":[27.12963,38.3725]}},{"type":"Feature","properties":{"id":"bus-879-s12598","kind":"busstop","ref":"879","name":"Karabağlar Briketçi","lines":["156","157","556"]},"geometry":{"type":"Point","coordinates":[27.1297,38.374]}},{"type":"Feature","properties":{"id":"bus-879-s12596","kind":"busstop","ref":"879","name":"Kasap","lines":["156","157","556"]},"geometry":{"type":"Point","coordinates":[27.13077,38.37568]}},{"type":"Feature","properties":{"id":"bus-879-s12629","kind":"busstop","ref":"879","name":"Bahar Yıldırım İlkokulu","lines":["556","671"]},"geometry":{"type":"Point","coordinates":[27.1295,38.3783]}},{"type":"Feature","properties":{"id":"bus-879-s12633","kind":"busstop","ref":"879","name":"2 Nolu Çağdaş Kahraman Sağlık Ocağı","lines":["556","671"]},"geometry":{"type":"Point","coordinates":[27.1273,38.379]}},{"type":"Feature","properties":{"id":"bus-879-s12639","kind":"busstop","ref":"879","name":"Hasan Ali Yücel Parkı","lines":["550","556","671"]},"geometry":{"type":"Point","coordinates":[27.1242,38.3805]}},{"type":"Feature","properties":{"id":"bus-879-s12641","kind":"busstop","ref":"879","name":"İlkkurşun Anadolu Lisesi","lines":["550","556","671"]},"geometry":{"type":"Point","coordinates":[27.1221,38.382]}},{"type":"Feature","properties":{"id":"bus-879-s12643","kind":"busstop","ref":"879","name":"İsmail Hakkı Tonguç Parkı","lines":["224","522","823"]},"geometry":{"type":"Point","coordinates":[27.11888,38.3836]}},{"type":"Feature","properties":{"id":"bus-879-s16520","kind":"busstop","ref":"879","name":"Sevgi Mahalle Muhtarlığı","lines":["224","522","823"]},"geometry":{"type":"Point","coordinates":[27.11561,38.38404]}},{"type":"Feature","properties":{"id":"bus-879-s12212","kind":"busstop","ref":"879","name":"Karaselvi","lines":["23","124","193","224","522","587","588","680","823"]},"geometry":{"type":"Point","coordinates":[27.1152,38.3854]}},{"type":"Feature","properties":{"id":"bus-879-s12210","kind":"busstop","ref":"879","name":"Karakuyu","lines":["23","124","193","224","522","587","588","680","823"]},"geometry":{"type":"Point","coordinates":[27.11616,38.38757]}},{"type":"Feature","properties":{"id":"bus-879-s12294","kind":"busstop","ref":"879","name":"Emek Sitesi","lines":["124","587"]},"geometry":{"type":"Point","coordinates":[27.1187,38.3909]}},{"type":"Feature","properties":{"id":"bus-879-s12292","kind":"busstop","ref":"879","name":"Karabağlar Kazım Karabekir Ortaokulu","lines":["124","587"]},"geometry":{"type":"Point","coordinates":[27.1188,38.3925]}},{"type":"Feature","properties":{"id":"bus-879-s12308","kind":"busstop","ref":"879","name":"Öztepe","lines":["18","575","579"]},"geometry":{"type":"Point","coordinates":[27.1168,38.395]}},{"type":"Feature","properties":{"id":"bus-879-s12306","kind":"busstop","ref":"879","name":"Defne","lines":["18","575","579"]},"geometry":{"type":"Point","coordinates":[27.1149,38.3962]}},{"type":"Feature","properties":{"id":"bus-879-s12304","kind":"busstop","ref":"879","name":"İzsu","lines":["18","575","579"]},"geometry":{"type":"Point","coordinates":[27.11296,38.39728]}},{"type":"Feature","properties":{"id":"bus-879-s12271","kind":"busstop","ref":"879","name":"Yeşilyurt Çeşme","lines":["16","19","520","523","524"]},"geometry":{"type":"Point","coordinates":[27.1085,38.3988]}},{"type":"Feature","properties":{"id":"bus-879-s16960","kind":"busstop","ref":"879","name":"Yeşilyurt Devlet Hastanesi","lines":["16","19","520","523","524"]},"geometry":{"type":"Point","coordinates":[27.10512,38.39839]}},{"type":"Feature","properties":{"id":"bus-879-s12273","kind":"busstop","ref":"879","name":"Yeşilyurt Devlet Hastanesi 2","lines":["16","19","520","523","524"]},"geometry":{"type":"Point","coordinates":[27.10352,38.39851]}},{"type":"Feature","properties":{"id":"bus-879-s12275","kind":"busstop","ref":"879","name":"Yeşilyurt Huzurevi","lines":["16","19","520","523","524"]},"geometry":{"type":"Point","coordinates":[27.1024,38.39856]}},{"type":"Feature","properties":{"id":"bus-879-s12277","kind":"busstop","ref":"879","name":"Basın Sitesi","lines":["16","19","520","523","524"]},"geometry":{"type":"Point","coordinates":[27.1001,38.3977]}},{"type":"Feature","properties":{"id":"bus-879-s12363","kind":"busstop","ref":"879","name":"Şehit Halit Taş Ortaokulu","lines":["16","19","520","523","524"]},"geometry":{"type":"Point","coordinates":[27.1012,38.3958]}},{"type":"Feature","properties":{"id":"bus-879-s12337","kind":"busstop","ref":"879","name":"Hasan Tahsin","lines":["18","19","523","524","575","579"]},"geometry":{"type":"Point","coordinates":[27.0998,38.3939]}},{"type":"Feature","properties":{"id":"bus-879-s12339","kind":"busstop","ref":"879","name":"Karabağlar Halk Eğitim Merkezi","lines":["18","19","523","524","575","579"]},"geometry":{"type":"Point","coordinates":[27.09806,38.39287]}},{"type":"Feature","properties":{"id":"bus-879-s12341","kind":"busstop","ref":"879","name":"Mermerci","lines":["18","19","523","524","575","579"]},"geometry":{"type":"Point","coordinates":[27.0962,38.3901]}},{"type":"Feature","properties":{"id":"bus-879-s12426","kind":"busstop","ref":"879","name":"Metin Oktay Mahallesi Muhtarlığı","lines":["517"]},"geometry":{"type":"Point","coordinates":[27.0944,38.3892]}},{"type":"Feature","properties":{"id":"bus-879-s12424","kind":"busstop","ref":"879","name":"Nevvar Salih İşgören Anadolu Lisesi","lines":["517"]},"geometry":{"type":"Point","coordinates":[27.09006,38.39047]}},{"type":"Feature","properties":{"id":"bus-879-s10289","kind":"busstop","ref":"879","name":"Hıfzıssıhha","lines":["517","681","811","950"]},"geometry":{"type":"Point","coordinates":[27.08585,38.39319]}},{"type":"Feature","properties":{"id":"bus-879-s10281","kind":"busstop","ref":"879","name":"Denizmen","lines":["517","681","811","950"]},"geometry":{"type":"Point","coordinates":[27.08065,38.39378]}},{"type":"Feature","properties":{"id":"bus-879-s10283","kind":"busstop","ref":"879","name":"Göztepe Stadı","lines":["517","681","811","950"]},"geometry":{"type":"Point","coordinates":[27.0761,38.3951]}},{"type":"Feature","properties":{"id":"bus-879-s10135","kind":"busstop","ref":"879","name":"Fahrettin Altay Meydan 6","lines":["517","681","811","950"]},"geometry":{"type":"Point","coordinates":[27.07153,38.39665]}},{"type":"Feature","properties":{"id":"bus-879-s10503","kind":"busstop","ref":"879","name":"Mehmetçik","lines":["311","486","517","551","681","945","946"]},"geometry":{"type":"Point","coordinates":[27.06941,38.39565]}},{"type":"Feature","properties":{"id":"bus-879-s10512","kind":"busstop","ref":"879","name":"Ordu Pazarı","lines":["486","517","551","681"]},"geometry":{"type":"Point","coordinates":[27.07093,38.39305]}},{"type":"Feature","properties":{"id":"bus-879-s10514","kind":"busstop","ref":"879","name":"İkinci Oyak Sitesi","lines":["517","551","681"]},"geometry":{"type":"Point","coordinates":[27.07133,38.38957]}}]}