{"type":"FeatureCollection","features":[{"type":"Feature","properties":{"id":"bus-891-1","kind":"busline","ref":"891","dir":1},"geometry":{"type":"LineString","coordinates":[[27.1044,38.3381],[27.1042,38.3362],[27.1057,38.3345],[27.1068,38.3346],[27.1077,38.3342],[27.1089,38.3342],[27.1105,38.3329],[27.1124,38.3322],[27.1152,38.3307],[27.1179,38.3301],[27.1182,38.3293],[27.1186,38.3292],[27.1204,38.3273],[27.1233,38.3291],[27.1247,38.3291],[27.1271,38.3303],[27.1292,38.3287],[27.1305,38.3281],[27.1314,38.327],[27.1318,38.326],[27.1291,38.3253],[27.1302,38.323],[27.131,38.3232],[27.1335,38.3245],[27.1367,38.3253],[27.1367,38.3261],[27.1359,38.3298],[27.1346,38.3333],[27.1334,38.3396],[27.1334,38.3432],[27.1325,38.3461],[27.1327,38.3475],[27.1338,38.3506],[27.1339,38.3535],[27.1342,38.355],[27.1357,38.3577]]}},{"type":"Feature","properties":{"id":"bus-891-2","kind":"busline","ref":"891","dir":2},"geometry":{"type":"LineString","coordinates":[[27.1356,38.3573],[27.1355,38.3572],[27.136,38.3582],[27.1359,38.3584],[27.1357,38.3584],[27.1349,38.3571],[27.1338,38.3549],[27.1335,38.3536],[27.1335,38.3502],[27.1326,38.3478],[27.1323,38.3461],[27.1333,38.3428],[27.1333,38.3395],[27.1342,38.3339],[27.1357,38.3298],[27.1365,38.3254],[27.1335,38.3245],[27.131,38.3232],[27.1302,38.323],[27.1291,38.3253],[27.1318,38.326],[27.1312,38.3275],[27.1273,38.3302],[27.1271,38.3303],[27.1263,38.3298],[27.1247,38.3292],[27.1232,38.3291],[27.1203,38.3274],[27.1186,38.3292],[27.1182,38.3293],[27.1179,38.3301],[27.1152,38.3307],[27.1124,38.3322],[27.1105,38.3329],[27.1095,38.3336],[27.1091,38.3342],[27.1078,38.3343],[27.1069,38.3347],[27.1058,38.3346],[27.1043,38.3363],[27.1045,38.3386],[27.1042,38.3367]]}},{"type":"Feature","properties":{"id":"bus-891-s12928","kind":"busstop","ref":"891","name":"Evka 7 Son Durak","lines":["491"]},"geometry":{"type":"Point","coordinates":[27.1043,38.3381]}},{"type":"Feature","properties":{"id":"bus-891-s12926","kind":"busstop","ref":"891","name":"Evka 7","lines":["491"]},"geometry":{"type":"Point","coordinates":[27.1042,38.3367]}},{"type":"Feature","properties":{"id":"bus-891-s12924","kind":"busstop","ref":"891","name":"Zafer Mahallesi Muhtarlık","lines":["491"]},"geometry":{"type":"Point","coordinates":[27.1052,38.3351]}},{"type":"Feature","properties":{"id":"bus-891-s12922","kind":"busstop","ref":"891","name":"Akyüz","lines":["491"]},"geometry":{"type":"Point","coordinates":[27.1085,38.3341]}},{"type":"Feature","properties":{"id":"bus-891-s12920","kind":"busstop","ref":"891","name":"Güneş Sitesi","lines":["491"]},"geometry":{"type":"Point","coordinates":[27.1103,38.3329]}},{"type":"Feature","properties":{"id":"bus-891-s12918","kind":"busstop","ref":"891","name":"Doktorlar Sitesi","lines":["491"]},"geometry":{"type":"Point","coordinates":[27.113,38.3318]}},{"type":"Feature","properties":{"id":"bus-891-s12914","kind":"busstop","ref":"891","name":"Leylak","lines":["491"]},"geometry":{"type":"Point","coordinates":[27.1199,38.3277]}},{"type":"Feature","properties":{"id":"bus-891-s12912","kind":"busstop","ref":"891","name":"Evrensel Sitesi","lines":["491"]},"geometry":{"type":"Point","coordinates":[27.1229,38.3288]}},{"type":"Feature","properties":{"id":"bus-891-s12910","kind":"busstop","ref":"891","name":"Yasemin","lines":["491"]},"geometry":{"type":"Point","coordinates":[27.1248,38.3291]}},{"type":"Feature","properties":{"id":"bus-891-s12908","kind":"busstop","ref":"891","name":"Sümbül","lines":["491"]},"geometry":{"type":"Point","coordinates":[27.1269,38.3301]}},{"type":"Feature","properties":{"id":"bus-891-s12906","kind":"busstop","ref":"891","name":"Lale","lines":["491"]},"geometry":{"type":"Point","coordinates":[27.1285,38.3292]}},{"type":"Feature","properties":{"id":"bus-891-s12932","kind":"busstop","ref":"891","name":"Hasan Kara Parkı","lines":["491"]},"geometry":{"type":"Point","coordinates":[27.1301,38.3282]}},{"type":"Feature","properties":{"id":"bus-891-s12934","kind":"busstop","ref":"891","name":"Albay İbrahim Karaoğlanoğlu","lines":["491"]},"geometry":{"type":"Point","coordinates":[27.13162,38.32621]}},{"type":"Feature","properties":{"id":"bus-891-s16878","kind":"busstop","ref":"891","name":"Gazi Mahallesi","lines":[]},"geometry":{"type":"Point","coordinates":[27.12999,38.32556]}},{"type":"Feature","properties":{"id":"bus-891-s14384","kind":"busstop","ref":"891","name":"Gaziemir Belediyesi","lines":[]},"geometry":{"type":"Point","coordinates":[27.1298,38.3235]}},{"type":"Feature","properties":{"id":"bus-891-s12880","kind":"busstop","ref":"891","name":"Gaziemir PTT","lines":["152","353","491","510","691","828","910"]},"geometry":{"type":"Point","coordinates":[27.1323,38.3238]}},{"type":"Feature","properties":{"id":"bus-891-s12878","kind":"busstop","ref":"891","name":"Büyükşehir Kurs Merkezi","lines":["152","353","510","691","828","910"]},"geometry":{"type":"Point","coordinates":[27.1359,38.3251]}},{"type":"Feature","properties":{"id":"bus-891-s10664","kind":"busstop","ref":"891","name":"Ulaştırma","lines":["152","200","202","204","206","353","508","510","691","697","806","808","858","887","910"]},"geometry":{"type":"Point","coordinates":[27.13592,38.32971]}},{"type":"Feature","properties":{"id":"bus-891-s10662","kind":"busstop","ref":"891","name":"Leylak","lines":["152","200","202","204","206","353","508","510","691","697","806","808","858","887","910"]},"geometry":{"type":"Point","coordinates":[27.1348,38.3331]}},{"type":"Feature","properties":{"id":"bus-891-s10660","kind":"busstop","ref":"891","name":"Ege Serbest Bölge","lines":["152","200","202","204","206","353","508","510","691","697","806","808","828","858","887","910"]},"geometry":{"type":"Point","coordinates":[27.134,38.3372]}},{"type":"Feature","properties":{"id":"bus-891-s10656","kind":"busstop","ref":"891","name":"Aktepe","lines":["152","200","508","539","610","691","823","828","877","879","887","910"]},"geometry":{"type":"Point","coordinates":[27.134,38.3526]}},{"type":"Feature","properties":{"id":"bus-891-s10678","kind":"busstop","ref":"891","name":"Gaziemir Aktarma Merkezi","lines":["485","508","610","823","828","877","879"]},"geometry":{"type":"Point","coordinates":[27.13556,38.35726]}},{"type":"Feature","properties":{"id":"bus-891-s10653","kind":"busstop","ref":"891","name":"Gaziemir Semt Garajı","lines":["152","200","508","539","610","691","823","828","877","879","887","910"]},"geometry":{"type":"Point","coordinates":[27.13479,38.35704]}},{"type":"Feature","properties":{"id":"bus-891-s10655","kind":"busstop","ref":"891","name":"Emrez","lines":["152","200","508","539","610","691","823","828","877","879","887","910"]},"geometry":{"type":"Point","coordinates":[27.134,38.3555]}},{"type":"Feature","properties":{"id":"bus-891-s10657","kind":"busstop","ref":"891","name":"Aktepe","lines":["152","200","508","539","610","691","823","828","877","879","887","910"]},"geometry":{"type":"Point","coordinates":[27.1334,38.3518]}},{"type":"Feature","properties":{"id":"bus-891-s10661","kind":"busstop","ref":"891","name":"Ege Serbest Bölge","lines":["152","200","202","204","206","353","508","510","691","697","806","808","858","887","910"]},"geometry":{"type":"Point","coordinates":[27.13378,38.33572]}},{"type":"Feature","properties":{"id":"bus-891-s10663","kind":"busstop","ref":"891","name":"Leylak","lines":["152","200","202","204","206","353","508","510","691","697","806","808","858","887","910"]},"geometry":{"type":"Point","coordinates":[27.1352,38.3309]}},{"type":"Feature","properties":{"id":"bus-891-s10665","kind":"busstop","ref":"891","name":"Ulaştırma","lines":["152","200","202","204","206","353","508","510","691","697","806","808","858","887","910"]},"geometry":{"type":"Point","coordinates":[27.136,38.3282]}},{"type":"Feature","properties":{"id":"bus-891-s12877","kind":"busstop","ref":"891","name":"Büyükşehir Kurs Merkezi","lines":["152","353","510","691","828","910"]},"geometry":{"type":"Point","coordinates":[27.13426,38.32476]}},{"type":"Feature","properties":{"id":"bus-891-s12879","kind":"busstop","ref":"891","name":"Gaziemir PTT","lines":["152","353","491","510","691","828","910"]},"geometry":{"type":"Point","coordinates":[27.13195,38.32375]}},{"type":"Feature","properties":{"id":"bus-891-s14385","kind":"busstop","ref":"891","name":"Gaziemir Belediyesi","lines":[]},"geometry":{"type":"Point","coordinates":[27.1302,38.3231]}},{"type":"Feature","properties":{"id":"bus-891-s16879","kind":"busstop","ref":"891","name":"Gazi Mahallesi","lines":[]},"geometry":{"type":"Point","coordinates":[27.13033,38.32558]}},{"type":"Feature","properties":{"id":"bus-891-s12935","kind":"busstop","ref":"891","name":"Albay İbrahim Karaoğlanoğlu","lines":["491"]},"geometry":{"type":"Point","coordinates":[27.1318,38.3263]}},{"type":"Feature","properties":{"id":"bus-891-s12931","kind":"busstop","ref":"891","name":"Hasan Kara Parkı","lines":["491"]},"geometry":{"type":"Point","coordinates":[27.1305,38.3282]}},{"type":"Feature","properties":{"id":"bus-891-s12907","kind":"busstop","ref":"891","name":"Lale","lines":["491"]},"geometry":{"type":"Point","coordinates":[27.1283,38.3295]}},{"type":"Feature","properties":{"id":"bus-891-s12909","kind":"busstop","ref":"891","name":"Sümbül","lines":["491"]},"geometry":{"type":"Point","coordinates":[27.1267,38.3301]}},{"type":"Feature","properties":{"id":"bus-891-s12911","kind":"busstop","ref":"891","name":"Yasemin","lines":["491"]},"geometry":{"type":"Point","coordinates":[27.1242,38.3292]}},{"type":"Feature","properties":{"id":"bus-891-s12913","kind":"busstop","ref":"891","name":"Evrensel Sitesi","lines":["491"]},"geometry":{"type":"Point","coordinates":[27.1229,38.329]}},{"type":"Feature","properties":{"id":"bus-891-s12915","kind":"busstop","ref":"891","name":"Leylak","lines":["491"]},"geometry":{"type":"Point","coordinates":[27.1198,38.3279]}},{"type":"Feature","properties":{"id":"bus-891-s12919","kind":"busstop","ref":"891","name":"Doktorlar Sitesi","lines":["491"]},"geometry":{"type":"Point","coordinates":[27.1133,38.3317]}},{"type":"Feature","properties":{"id":"bus-891-s12921","kind":"busstop","ref":"891","name":"Güneş Sitesi","lines":["491"]},"geometry":{"type":"Point","coordinates":[27.1105,38.3329]}},{"type":"Feature","properties":{"id":"bus-891-s12923","kind":"busstop","ref":"891","name":"Akyüz","lines":["491"]},"geometry":{"type":"Point","coordinates":[27.1086,38.3343]}},{"type":"Feature","properties":{"id":"bus-891-s12925","kind":"busstop","ref":"891","name":"Zafer Mahallesi Muhtarlık","lines":["491"]},"geometry":{"type":"Point","coordinates":[27.1053,38.3352]}},{"type":"Feature","properties":{"id":"bus-891-s12927","kind":"busstop","ref":"891","name":"Evka 7","lines":["491"]},"geometry":{"type":"Point","coordinates":[27.1043,38.3367]}}]}