{"type":"FeatureCollection","features":[{"type":"Feature","properties":{"id":"bus-912-1","kind":"busline","ref":"912","dir":1},"geometry":{"type":"LineString","coordinates":[[27.0464,38.5076],[27.0465,38.5075],[27.0462,38.5078],[27.0459,38.5077],[27.0431,38.5108],[27.043,38.511],[27.0447,38.5114],[27.0437,38.5129],[27.0449,38.5125],[27.0459,38.5111],[27.0473,38.5084],[27.0492,38.5062],[27.0502,38.5055],[27.0515,38.5042],[27.0533,38.5016],[27.0629,38.4933],[27.0686,38.4899],[27.0712,38.4887],[27.082,38.485],[27.0861,38.4834],[27.088,38.4825],[27.0943,38.4786],[27.1008,38.4764],[27.1149,38.4678],[27.1164,38.4674],[27.1181,38.4674],[27.1219,38.4684],[27.1254,38.4684],[27.1273,38.4677],[27.1294,38.4663],[27.1306,38.4658],[27.1332,38.4654],[27.1396,38.4649],[27.1415,38.4649],[27.1429,38.4652],[27.1528,38.4683],[27.1548,38.4686],[27.1568,38.4684],[27.1596,38.4671],[27.1611,38.4659],[27.1619,38.4651],[27.1625,38.4641],[27.1632,38.4635],[27.171,38.4486],[27.1715,38.4464],[27.1708,38.4428],[27.1699,38.4411],[27.1691,38.4404],[27.1682,38.4398],[27.1663,38.4392],[27.1641,38.439],[27.1623,38.4391],[27.1575,38.4405],[27.1559,38.4406],[27.1544,38.441],[27.1511,38.4406],[27.1481,38.4398],[27.1474,38.4394],[27.1478,38.4393],[27.148,38.4395],[27.1507,38.4403]]}},{"type":"Feature","properties":{"id":"bus-912-2","kind":"busline","ref":"912","dir":2},"geometry":{"type":"LineString","coordinates":[[27.1507,38.4403],[27.1506,38.4402],[27.1512,38.4405],[27.1527,38.4408],[27.1545,38.4408],[27.1581,38.4398],[27.1633,38.4388],[27.1684,38.4393],[27.1689,38.4394],[27.1698,38.44],[27.1717,38.4433],[27.1725,38.4442],[27.1727,38.4448],[27.1726,38.4455],[27.1719,38.4463],[27.1712,38.4484],[27.1648,38.4607],[27.1643,38.462],[27.1627,38.4646],[27.1603,38.4669],[27.1588,38.4678],[27.1569,38.4685],[27.1544,38.4687],[27.1518,38.4682],[27.1426,38.4652],[27.1415,38.465],[27.139,38.465],[27.1318,38.4657],[27.1297,38.4664],[27.1273,38.4678],[27.1258,38.4684],[27.1246,38.4686],[27.1218,38.4685],[27.1181,38.4675],[27.116,38.4676],[27.1146,38.4681],[27.1039,38.4748],[27.1004,38.4768],[27.0948,38.4785],[27.0874,38.483],[27.086,38.4836],[27.0825,38.485],[27.0716,38.4887],[27.0697,38.4895],[27.0635,38.493],[27.062,38.4941],[27.0591,38.4969],[27.0541,38.501],[27.0514,38.5045],[27.0502,38.5057],[27.0484,38.5071],[27.0476,38.5081],[27.0467,38.5099],[27.0466,38.5105],[27.0473,38.5107],[27.0476,38.5104],[27.0473,38.5099],[27.0461,38.509],[27.0456,38.5092],[27.0458,38.5096],[27.0464,38.5098],[27.0473,38.5084],[27.0473,38.5079],[27.0479,38.5074],[27.047,38.5069],[27.0463,38.5077],[27.0464,38.5076]]}},{"type":"Feature","properties":{"id":"bus-912-s22170","kind":"busstop","ref":"912","name":"Egekent Aktarma Merkezi","lines":["535"]},"geometry":{"type":"Point","coordinates":[27.04644,38.50759]}},{"type":"Feature","properties":{"id":"bus-912-s22168","kind":"busstop","ref":"912","name":"Tüvtürk","lines":["128","295","346","535","695","810","816","817","853"]},"geometry":{"type":"Point","coordinates":[27.0435,38.5104]}},{"type":"Feature","properties":{"id":"bus-912-s20096","kind":"busstop","ref":"912","name":"Balatçık Kahveler","lines":["128","295","346","428","595","596","602","608","660","695","800","810","816","817","820","827","853","920"]},"geometry":{"type":"Point","coordinates":[27.0452,38.5119]}},{"type":"Feature","properties":{"id":"bus-912-s20094","kind":"busstop","ref":"912","name":"Ata","lines":["428","446","535","595","602","608","660","800","820","827","920"]},"geometry":{"type":"Point","coordinates":[27.0495,38.5059]}},{"type":"Feature","properties":{"id":"bus-912-s20092","kind":"busstop","ref":"912","name":"Küçük Çiğli","lines":["428","446","535","595","602","608","660","800","820","827","920"]},"geometry":{"type":"Point","coordinates":[27.05217,38.50313]}},{"type":"Feature","properties":{"id":"bus-912-s20090","kind":"busstop","ref":"912","name":"Çiğli Santral","lines":["428","446","535","595","602","608","660","800","820","827","920"]},"geometry":{"type":"Point","coordinates":[27.05444,38.50045]}},{"type":"Feature","properties":{"id":"bus-912-s20088","kind":"busstop","ref":"912","name":"Çiğli Şaraphane","lines":["428","446","535","595","602","608","660","800","820","827","920"]},"geometry":{"type":"Point","coordinates":[27.05666,38.49866]}},{"type":"Feature","properties":{"id":"bus-912-s20086","kind":"busstop","ref":"912","name":"Çiğli Belediye","lines":["229","247","329","344","428","429","443","446","529","535","602","608","660","800","820","827","853","920"]},"geometry":{"type":"Point","coordinates":[27.0665,38.4911]}},{"type":"Feature","properties":{"id":"bus-912-s20084","kind":"busstop","ref":"912","name":"Eğitim Gönüllüleri","lines":["229","247","329","344","428","429","443","445","446","529","535","602","608","660","800","820","827","853","920"]},"geometry":{"type":"Point","coordinates":[27.069,38.4896]}},{"type":"Feature","properties":{"id":"bus-912-s20082","kind":"busstop","ref":"912","name":"Çiğli İtfaiye","lines":["229","247","329","344","428","429","443","445","446","529","535","602","608","660","800","820","827","853","920"]},"geometry":{"type":"Point","coordinates":[27.0726,38.4882]}},{"type":"Feature","properties":{"id":"bus-912-s20080","kind":"busstop","ref":"912","name":"15 Temmuz Şehitler Anadolu Lisesi","lines":["535","602","608","660","800","853","920"]},"geometry":{"type":"Point","coordinates":[27.0885,38.4821]}},{"type":"Feature","properties":{"id":"bus-912-s20078","kind":"busstop","ref":"912","name":"Ayyıldız","lines":["535","602","608","660","800","853","920"]},"geometry":{"type":"Point","coordinates":[27.0924,38.4796]}},{"type":"Feature","properties":{"id":"bus-912-s20074","kind":"busstop","ref":"912","name":"Karşıyaka Jandarma","lines":["535","602","608","660","800","853","920"]},"geometry":{"type":"Point","coordinates":[27.0947,38.4784]}},{"type":"Feature","properties":{"id":"bus-912-s20072","kind":"busstop","ref":"912","name":"Kayalar Mezarlığı","lines":["535","602","608","660","800","853","920"]},"geometry":{"type":"Point","coordinates":[27.0994,38.4769]}},{"type":"Feature","properties":{"id":"bus-912-s20070","kind":"busstop","ref":"912","name":"Serinkuyu","lines":["125","126","222","326","535","602","608","660","800","853","920"]},"geometry":{"type":"Point","coordinates":[27.1045,38.4741]}},{"type":"Feature","properties":{"id":"bus-912-s20068","kind":"busstop","ref":"912","name":"Dedebaşı","lines":["125","126","222","326","535","602","608","660","800","853","920"]},"geometry":{"type":"Point","coordinates":[27.1077,38.4722]}},{"type":"Feature","properties":{"id":"bus-912-s20066","kind":"busstop","ref":"912","name":"Soğukkuyu Trafik","lines":["77","78","125","140","147","148","240","426","434","577","602","608","660","800"]},"geometry":{"type":"Point","coordinates":[27.1179,38.4674]}},{"type":"Feature","properties":{"id":"bus-912-s20064","kind":"busstop","ref":"912","name":"Öztürk","lines":["77","78","125","140","147","148","240","426","434","577","602","608","660","800"]},"geometry":{"type":"Point","coordinates":[27.12228,38.46832]}},{"type":"Feature","properties":{"id":"bus-912-s20062","kind":"busstop","ref":"912","name":"Naldöken","lines":["77","78","125","140","147","148","240","335","426","434","477","577","602","608","660","800"]},"geometry":{"type":"Point","coordinates":[27.1297,38.4661]}},{"type":"Feature","properties":{"id":"bus-912-s20060","kind":"busstop","ref":"912","name":"Turan","lines":["77","78","121","125","140","147","148","200","213","240","290","330","335","426","434","477","543","577","602","608","660","800","920"]},"geometry":{"type":"Point","coordinates":[27.1503,38.4675]}},{"type":"Feature","properties":{"id":"bus-912-s20134","kind":"busstop","ref":"912","name":"Bayraklı Üst Geçit","lines":["102","121","200","213","290","330","501","502","504","543","602","608","660","662","800","920"]},"geometry":{"type":"Point","coordinates":[27.1625,38.4641]}},{"type":"Feature","properties":{"id":"bus-912-s10424","kind":"busstop","ref":"912","name":"Liman","lines":["121","920","930","951"]},"geometry":{"type":"Point","coordinates":[27.1499,38.4403]}},{"type":"Feature","properties":{"id":"bus-912-s10418","kind":"busstop","ref":"912","name":"Alsancak Gar","lines":["121","253","951","963"]},"geometry":{"type":"Point","coordinates":[27.14805,38.43978]}},{"type":"Feature","properties":{"id":"bus-912-s10421","kind":"busstop","ref":"912","name":"Tariş","lines":["121","920","930","951","963"]},"geometry":{"type":"Point","coordinates":[27.1508,38.4402]}},{"type":"Feature","properties":{"id":"bus-912-s10425","kind":"busstop","ref":"912","name":"Liman","lines":["121","920","930","951","963"]},"geometry":{"type":"Point","coordinates":[27.1556,38.4405]}},{"type":"Feature","properties":{"id":"bus-912-s20135","kind":"busstop","ref":"912","name":"Bayraklı Üst Geçit","lines":["121","200","290","330","543","602","608","660","800","920"]},"geometry":{"type":"Point","coordinates":[27.1631,38.4641]}},{"type":"Feature","properties":{"id":"bus-912-s20137","kind":"busstop","ref":"912","name":"Nikah Salonu","lines":["121","200","290","330","543","602","608","660","800","920"]},"geometry":{"type":"Point","coordinates":[27.1606,38.4667]}},{"type":"Feature","properties":{"id":"bus-912-s20057","kind":"busstop","ref":"912","name":"Turan","lines":["77","78","121","125","140","147","148","200","240","290","330","335","426","434","477","543","577","602","608","660","800","920"]},"geometry":{"type":"Point","coordinates":[27.14939,38.46755]}},{"type":"Feature","properties":{"id":"bus-912-s20059","kind":"busstop","ref":"912","name":"Naldöken","lines":["77","78","125","140","147","148","240","426","434","577","602","608","660","800"]},"geometry":{"type":"Point","coordinates":[27.1293,38.4667]}},{"type":"Feature","properties":{"id":"bus-912-s20061","kind":"busstop","ref":"912","name":"Öztürk","lines":["77","78","125","140","147","148","240","426","434","577","602","608","660","800"]},"geometry":{"type":"Point","coordinates":[27.12101,38.46832]}},{"type":"Feature","properties":{"id":"bus-912-s20063","kind":"busstop","ref":"912","name":"Soğukkuyu Trafik","lines":["77","78","125","140","147","148","240","426","434","577","602","608","660","800"]},"geometry":{"type":"Point","coordinates":[27.1174,38.4675]}},{"type":"Feature","properties":{"id":"bus-912-s20065","kind":"busstop","ref":"912","name":"Dedebaşı","lines":["125","126","222","326","535","602","608","660","800","853","920"]},"geometry":{"type":"Point","coordinates":[27.1081,38.4722]}},{"type":"Feature","properties":{"id":"bus-912-s20067","kind":"busstop","ref":"912","name":"Ege Üniversitesi Karşıyaka Sağlık Yerleşkesi","lines":["125","126","222","326","535","602","608","660","800","853","920"]},"geometry":{"type":"Point","coordinates":[27.1063,38.4733]}},{"type":"Feature","properties":{"id":"bus-912-s20069","kind":"busstop","ref":"912","name":"Serin Kuyu","lines":["125","126","222","326","535","602","608","660","800","853","920"]},"geometry":{"type":"Point","coordinates":[27.10286,38.47545]}},{"type":"Feature","properties":{"id":"bus-912-s20071","kind":"busstop","ref":"912","name":"Kayalar Mezarlığı","lines":["535","602","608","660","800","853","920"]},"geometry":{"type":"Point","coordinates":[27.0993,38.4772]}},{"type":"Feature","properties":{"id":"bus-912-s20073","kind":"busstop","ref":"912","name":"Karşıyaka Jandarma","lines":["535","602","608","660","800","853","920"]},"geometry":{"type":"Point","coordinates":[27.0951,38.4785]}},{"type":"Feature","properties":{"id":"bus-912-s20077","kind":"busstop","ref":"912","name":"Ayyıldız","lines":["535","602","608","660","800","853","920"]},"geometry":{"type":"Point","coordinates":[27.09076,38.48105]}},{"type":"Feature","properties":{"id":"bus-912-s20079","kind":"busstop","ref":"912","name":"15 Temmuz Şehitler Anadolu Lisesi","lines":["535","602","608","660","800","853","920"]},"geometry":{"type":"Point","coordinates":[27.0875,38.483]}},{"type":"Feature","properties":{"id":"bus-912-s20081","kind":"busstop","ref":"912","name":"Çiğli İtfaiye","lines":["229","247","329","344","428","429","443","445","446","447","529","535","602","608","660","800","820","827","853","920"]},"geometry":{"type":"Point","coordinates":[27.0722,38.4885]}},{"type":"Feature","properties":{"id":"bus-912-s20083","kind":"busstop","ref":"912","name":"Eğitim Gönüllüleri","lines":["229","247","329","344","428","429","443","445","446","529","535","602","608","660","800","820","827","853","920"]},"geometry":{"type":"Point","coordinates":[27.0689,38.49]}},{"type":"Feature","properties":{"id":"bus-912-s20085","kind":"busstop","ref":"912","name":"Çiğli Belediye","lines":["229","247","329","344","428","429","443","446","529","535","602","608","660","800","820","827","853","920"]},"geometry":{"type":"Point","coordinates":[27.0663,38.4915]}},{"type":"Feature","properties":{"id":"bus-912-s20087","kind":"busstop","ref":"912","name":"Çiğli Şaraphane","lines":["428","446","535","595","602","608","660","800","820","827","920"]},"geometry":{"type":"Point","coordinates":[27.0573,38.4985]}},{"type":"Feature","properties":{"id":"bus-912-s20089","kind":"busstop","ref":"912","name":"Çiğli Santral","lines":["428","446","535","595","602","608","660","800","820","827","920"]},"geometry":{"type":"Point","coordinates":[27.05436,38.50091]}},{"type":"Feature","properties":{"id":"bus-912-s20091","kind":"busstop","ref":"912","name":"Küçük Çiğli","lines":["428","446","535","595","602","608","660","800","820","827","920"]},"geometry":{"type":"Point","coordinates":[27.05166,38.50436]}},{"type":"Feature","properties":{"id":"bus-912-s20093","kind":"busstop","ref":"912","name":"Ata","lines":["428","446","535","595","602","608","660","800","820","827","920"]},"geometry":{"type":"Point","coordinates":[27.05035,38.5056]}}]}