{"type":"FeatureCollection","features":[{"type":"Feature","properties":{"id":"bus-92-1","kind":"busline","ref":"92","dir":1},"geometry":{"type":"LineString","coordinates":[[27.1226,38.3479],[27.1243,38.35],[27.1271,38.3502],[27.1281,38.3511],[27.1282,38.3515],[27.1308,38.353],[27.1317,38.3532],[27.1312,38.3539],[27.1306,38.3541],[27.1286,38.3557],[27.1281,38.3563],[27.1299,38.3582],[27.1315,38.361],[27.13,38.3615],[27.133,38.3641],[27.1323,38.3647],[27.1352,38.3711],[27.1355,38.371],[27.1361,38.3687],[27.1363,38.3686],[27.135,38.374],[27.1351,38.3768],[27.1348,38.3921],[27.1359,38.3936],[27.1356,38.3942],[27.1268,38.4007],[27.1234,38.4035],[27.1224,38.4049],[27.1227,38.4061],[27.1226,38.4064],[27.1222,38.4064],[27.1211,38.4059],[27.1181,38.404],[27.117,38.4035],[27.1163,38.4025],[27.116,38.4029],[27.1179,38.4037]]}},{"type":"Feature","properties":{"id":"bus-92-2","kind":"busline","ref":"92","dir":2},"geometry":{"type":"LineString","coordinates":[[27.1179,38.4037],[27.1206,38.4055],[27.122,38.4058],[27.1222,38.4056],[27.1224,38.4045],[27.1238,38.403],[27.1251,38.4018],[27.1303,38.3978],[27.1311,38.3974],[27.1333,38.3957],[27.1344,38.3942],[27.1345,38.3936],[27.1345,38.3846],[27.1347,38.3821],[27.1348,38.3743],[27.1353,38.3712],[27.1323,38.3647],[27.1329,38.3641],[27.1302,38.3619],[27.13,38.3615],[27.1314,38.361],[27.1298,38.3582],[27.128,38.3562],[27.1291,38.3551],[27.1316,38.3533],[27.1296,38.3525],[27.1281,38.3515],[27.1279,38.3511],[27.1274,38.3508],[27.1273,38.3504],[27.124,38.35],[27.1231,38.3491],[27.1222,38.3477]]}},{"type":"Feature","properties":{"id":"bus-92-s14602","kind":"busstop","ref":"92","name":"Fuar İzmir","lines":["610","650"]},"geometry":{"type":"Point","coordinates":[27.12293,38.34762]}},{"type":"Feature","properties":{"id":"bus-92-s14604","kind":"busstop","ref":"92","name":"Aktepe Meşe","lines":["610"]},"geometry":{"type":"Point","coordinates":[27.1244,38.3499]}},{"type":"Feature","properties":{"id":"bus-92-s12736","kind":"busstop","ref":"92","name":"Şehit Süleyman Ergin","lines":["610"]},"geometry":{"type":"Point","coordinates":[27.1274,38.3506]}},{"type":"Feature","properties":{"id":"bus-92-s12724","kind":"busstop","ref":"92","name":"Peker Mahallesi Eski Son Durak","lines":["157","610"]},"geometry":{"type":"Point","coordinates":[27.1288,38.3517]}},{"type":"Feature","properties":{"id":"bus-92-s12722","kind":"busstop","ref":"92","name":"Aktepe Polis Lojmanları","lines":["157","610"]},"geometry":{"type":"Point","coordinates":[27.13119,38.35309]}},{"type":"Feature","properties":{"id":"bus-92-s12720","kind":"busstop","ref":"92","name":"Demirkıran","lines":["157","828","879"]},"geometry":{"type":"Point","coordinates":[27.131,38.354]}},{"type":"Feature","properties":{"id":"bus-92-s12718","kind":"busstop","ref":"92","name":"Aktepe Cami","lines":["157","828","879"]},"geometry":{"type":"Point","coordinates":[27.12818,38.35623]}},{"type":"Feature","properties":{"id":"bus-92-s13090","kind":"busstop","ref":"92","name":"Müjde","lines":[]},"geometry":{"type":"Point","coordinates":[27.12964,38.35783]}},{"type":"Feature","properties":{"id":"bus-92-s13088","kind":"busstop","ref":"92","name":"Fulden","lines":[]},"geometry":{"type":"Point","coordinates":[27.1303,38.35898]}},{"type":"Feature","properties":{"id":"bus-92-s13086","kind":"busstop","ref":"92","name":"Sevda","lines":[]},"geometry":{"type":"Point","coordinates":[27.13132,38.36076]}},{"type":"Feature","properties":{"id":"bus-92-s12710","kind":"busstop","ref":"92","name":"Aydın Mahallesi Eski Son Durak","lines":[]},"geometry":{"type":"Point","coordinates":[27.1305,38.3619]}},{"type":"Feature","properties":{"id":"bus-92-s12708","kind":"busstop","ref":"92","name":"Begonvil","lines":[]},"geometry":{"type":"Point","coordinates":[27.1322,38.3633]}},{"type":"Feature","properties":{"id":"bus-92-s12706","kind":"busstop","ref":"92","name":"Sucu","lines":[]},"geometry":{"type":"Point","coordinates":[27.1327,38.3642]}},{"type":"Feature","properties":{"id":"bus-92-s12704","kind":"busstop","ref":"92","name":"Dede","lines":[]},"geometry":{"type":"Point","coordinates":[27.1329,38.3659]}},{"type":"Feature","properties":{"id":"bus-92-s12712","kind":"busstop","ref":"92","name":"Ali Akatlar","lines":[]},"geometry":{"type":"Point","coordinates":[27.13343,38.36713]}},{"type":"Feature","properties":{"id":"bus-92-s12702","kind":"busstop","ref":"92","name":"Aydın Parkı","lines":[]},"geometry":{"type":"Point","coordinates":[27.1342,38.3687]}},{"type":"Feature","properties":{"id":"bus-92-s12700","kind":"busstop","ref":"92","name":"Karabağlar Polis Merkezi","lines":[]},"geometry":{"type":"Point","coordinates":[27.13516,38.37099]}},{"type":"Feature","properties":{"id":"bus-92-s10638","kind":"busstop","ref":"92","name":"Kızılcık","lines":["152","200","508","539","691","887","910"]},"geometry":{"type":"Point","coordinates":[27.13607,38.36998]}},{"type":"Feature","properties":{"id":"bus-92-s10636","kind":"busstop","ref":"92","name":"Söğüt","lines":["152","200","508","539","691","887","910"]},"geometry":{"type":"Point","coordinates":[27.1356,38.3718]}},{"type":"Feature","properties":{"id":"bus-92-s10634","kind":"busstop","ref":"92","name":"Karabağlar Cumhuriyet Anadolu Lisesi","lines":["152","200","508","539","691","887","910"]},"geometry":{"type":"Point","coordinates":[27.13509,38.37625]}},{"type":"Feature","properties":{"id":"bus-92-s10632","kind":"busstop","ref":"92","name":"Kaymakkuyu","lines":["152","156","157","200","508","539","691","887","910"]},"geometry":{"type":"Point","coordinates":[27.13501,38.38019]}},{"type":"Feature","properties":{"id":"bus-92-s10630","kind":"busstop","ref":"92","name":"Çitlenbik","lines":["152","156","157","200","508","539","691","887","910"]},"geometry":{"type":"Point","coordinates":[27.1351,38.3839]}},{"type":"Feature","properties":{"id":"bus-92-s10628","kind":"busstop","ref":"92","name":"Orcaner","lines":["108","152","156","157","200","508","539","691","887","910"]},"geometry":{"type":"Point","coordinates":[27.13498,38.38699]}},{"type":"Feature","properties":{"id":"bus-92-s10626","kind":"busstop","ref":"92","name":"Hasan Hüseyinler","lines":["108","152","156","157","508","691","887","910"]},"geometry":{"type":"Point","coordinates":[27.1349,38.39185]}},{"type":"Feature","properties":{"id":"bus-92-s10618","kind":"busstop","ref":"92","name":"Elka","lines":["108","152","156","157","508","691","887","910"]},"geometry":{"type":"Point","coordinates":[27.1315,38.3973]}},{"type":"Feature","properties":{"id":"bus-92-s10616","kind":"busstop","ref":"92","name":"İller Bankası","lines":["108","152","490","508","887","910"]},"geometry":{"type":"Point","coordinates":[27.12687,38.40076]}},{"type":"Feature","properties":{"id":"bus-92-s10612","kind":"busstop","ref":"92","name":"Osman Öksüz Parkı","lines":["108","152","490","508","550","587","887","910"]},"geometry":{"type":"Point","coordinates":[27.1234,38.4036]}},{"type":"Feature","properties":{"id":"bus-92-s10255","kind":"busstop","ref":"92","name":"Üçyol Metro","lines":["18","19","108","490","523","524","575","579","950"]},"geometry":{"type":"Point","coordinates":[27.1209,38.4059]}},{"type":"Feature","properties":{"id":"bus-92-s10276","kind":"busstop","ref":"92","name":"Uğur Mumcu Parkı","lines":["108"]},"geometry":{"type":"Point","coordinates":[27.1161,38.4028]}},{"type":"Feature","properties":{"id":"bus-92-s10298","kind":"busstop","ref":"92","name":"Üçyol Aktarma","lines":["108"]},"geometry":{"type":"Point","coordinates":[27.1183,38.404]}},{"type":"Feature","properties":{"id":"bus-92-s10252","kind":"busstop","ref":"92","name":"Üçyol Metro","lines":["16","18","19","84","89","108","124","156","490","522","556","588","681","823","950"]},"geometry":{"type":"Point","coordinates":[27.1213,38.4057]}},{"type":"Feature","properties":{"id":"bus-92-s10611","kind":"busstop","ref":"92","name":"Osman Öksüz Parkı","lines":["84","89","108","124","156","157","522","550","556","587","588","823"]},"geometry":{"type":"Point","coordinates":[27.12264,38.40418]}},{"type":"Feature","properties":{"id":"bus-92-s10615","kind":"busstop","ref":"92","name":"İller Bankası","lines":["108","152","156","157","490","508","887","910"]},"geometry":{"type":"Point","coordinates":[27.1272,38.4002]}},{"type":"Feature","properties":{"id":"bus-92-s10617","kind":"busstop","ref":"92","name":"Elka","lines":["108","152","156","157","490","508","691","887","910"]},"geometry":{"type":"Point","coordinates":[27.1303,38.3978]}},{"type":"Feature","properties":{"id":"bus-92-s10625","kind":"busstop","ref":"92","name":"Hasan Hüseyinler","lines":["108","152","156","157","200","508","539","691","887","910"]},"geometry":{"type":"Point","coordinates":[27.13444,38.39212]}},{"type":"Feature","properties":{"id":"bus-92-s10629","kind":"busstop","ref":"92","name":"Orcaner","lines":["108","152","156","157","200","508","539","691","887","910"]},"geometry":{"type":"Point","coordinates":[27.13442,38.38686]}},{"type":"Feature","properties":{"id":"bus-92-s10631","kind":"busstop","ref":"92","name":"Çitlenbik","lines":["152","156","157","200","508","539","691","887","910"]},"geometry":{"type":"Point","coordinates":[27.13454,38.38229]}},{"type":"Feature","properties":{"id":"bus-92-s10633","kind":"busstop","ref":"92","name":"Kaymakkuyu","lines":["152","200","508","539","691","887","910"]},"geometry":{"type":"Point","coordinates":[27.13458,38.37826]}},{"type":"Feature","properties":{"id":"bus-92-s10635","kind":"busstop","ref":"92","name":"Karabağlar Cumhuriyet Anadolu Lisesi","lines":["152","200","508","539","691","887","910"]},"geometry":{"type":"Point","coordinates":[27.13479,38.37334]}},{"type":"Feature","properties":{"id":"bus-92-s12701","kind":"busstop","ref":"92","name":"Karabağlar Polis Merkezi","lines":[]},"geometry":{"type":"Point","coordinates":[27.13509,38.3709]}},{"type":"Feature","properties":{"id":"bus-92-s12703","kind":"busstop","ref":"92","name":"Aydın Parkı","lines":[]},"geometry":{"type":"Point","coordinates":[27.1341,38.3687]}},{"type":"Feature","properties":{"id":"bus-92-s12705","kind":"busstop","ref":"92","name":"Ali Akatlar","lines":[]},"geometry":{"type":"Point","coordinates":[27.13553,38.3674]}},{"type":"Feature","properties":{"id":"bus-92-s12707","kind":"busstop","ref":"92","name":"Dede","lines":[]},"geometry":{"type":"Point","coordinates":[27.13294,38.36612]}},{"type":"Feature","properties":{"id":"bus-92-s12709","kind":"busstop","ref":"92","name":"Sucu","lines":[]},"geometry":{"type":"Point","coordinates":[27.1326,38.3643]}},{"type":"Feature","properties":{"id":"bus-92-s12711","kind":"busstop","ref":"92","name":"Begonvil","lines":[]},"geometry":{"type":"Point","coordinates":[27.1321,38.3634]}},{"type":"Feature","properties":{"id":"bus-92-s12713","kind":"busstop","ref":"92","name":"Aydın Mahallesi Eski Son Durak","lines":[]},"geometry":{"type":"Point","coordinates":[27.1303,38.3619]}},{"type":"Feature","properties":{"id":"bus-92-s13087","kind":"busstop","ref":"92","name":"Sevda","lines":[]},"geometry":{"type":"Point","coordinates":[27.13125,38.36074]}},{"type":"Feature","properties":{"id":"bus-92-s13089","kind":"busstop","ref":"92","name":"Fulden","lines":[]},"geometry":{"type":"Point","coordinates":[27.13029,38.35901]}},{"type":"Feature","properties":{"id":"bus-92-s13091","kind":"busstop","ref":"92","name":"Müjde","lines":[]},"geometry":{"type":"Point","coordinates":[27.1296,38.35797]}},{"type":"Feature","properties":{"id":"bus-92-s12721","kind":"busstop","ref":"92","name":"Aktepe Cami","lines":["157","828","879"]},"geometry":{"type":"Point","coordinates":[27.12863,38.35551]}},{"type":"Feature","properties":{"id":"bus-92-s12723","kind":"busstop","ref":"92","name":"Demirkıran","lines":["157","828","879"]},"geometry":{"type":"Point","coordinates":[27.1307,38.354]}},{"type":"Feature","properties":{"id":"bus-92-s12725","kind":"busstop","ref":"92","name":"Aktepe Polis Lojmanları","lines":["157","610"]},"geometry":{"type":"Point","coordinates":[27.1306,38.3529]}},{"type":"Feature","properties":{"id":"bus-92-s12727","kind":"busstop","ref":"92","name":"Peker Mahallesi Eski Son Durak","lines":["157","610"]},"geometry":{"type":"Point","coordinates":[27.1288,38.3518]}},{"type":"Feature","properties":{"id":"bus-92-s12737","kind":"busstop","ref":"92","name":"Şehit Süleyman Ergin","lines":["610"]},"geometry":{"type":"Point","coordinates":[27.1272,38.3505]}},{"type":"Feature","properties":{"id":"bus-92-s14603","kind":"busstop","ref":"92","name":"Aktepe Meşe","lines":["610"]},"geometry":{"type":"Point","coordinates":[27.1243,38.35]}},{"type":"Feature","properties":{"id":"bus-92-s14601","kind":"busstop","ref":"92","name":"Fuar İzmir","lines":["610"]},"geometry":{"type":"Point","coordinates":[27.1222,38.3477]}}]}