{"type":"FeatureCollection","features":[{"type":"Feature","properties":{"id":"bus-920-1","kind":"busline","ref":"920","dir":1},"geometry":{"type":"LineString","coordinates":[[27.0311,38.5179],[27.0308,38.5178],[27.0318,38.518],[27.0349,38.5166],[27.0359,38.5156],[27.0372,38.515],[27.0383,38.5138],[27.038,38.5131],[27.0388,38.5121],[27.0387,38.5113],[27.0372,38.5114],[27.0373,38.5126],[27.038,38.5131],[27.0383,38.5138],[27.0377,38.5145],[27.0372,38.515],[27.0359,38.5156],[27.0351,38.5165],[27.0328,38.5176],[27.0326,38.5179],[27.033,38.5183],[27.0385,38.5188],[27.0395,38.5191],[27.0415,38.5171],[27.0449,38.5125],[27.0459,38.5111],[27.0473,38.5084],[27.0485,38.5069],[27.0515,38.5042],[27.0533,38.5016],[27.0596,38.4962],[27.0618,38.494],[27.0686,38.4899],[27.0712,38.4887],[27.082,38.485],[27.0861,38.4834],[27.088,38.4825],[27.0943,38.4786],[27.1008,38.4764],[27.1056,38.4736],[27.1094,38.4711],[27.1099,38.4705],[27.1103,38.4691],[27.1085,38.4639],[27.1066,38.4552],[27.106,38.4539],[27.1039,38.4516],[27.1053,38.4509],[27.1088,38.4501],[27.1115,38.4497],[27.1162,38.4522],[27.1175,38.4536],[27.1198,38.4553],[27.1205,38.4556],[27.1234,38.4557],[27.1239,38.4559],[27.1265,38.4597],[27.1279,38.4613],[27.128,38.4624],[27.1294,38.4639],[27.1298,38.4652],[27.1304,38.4657],[27.1396,38.4649],[27.1415,38.4649],[27.1437,38.4654],[27.1528,38.4683],[27.1555,38.4686],[27.1568,38.4684],[27.1588,38.4676],[27.1603,38.4666],[27.1619,38.4651],[27.1625,38.4641],[27.1632,38.4635],[27.1711,38.4483],[27.1715,38.4464],[27.1708,38.4428],[27.1699,38.4411],[27.1691,38.4404],[27.1677,38.4396],[27.1663,38.4392],[27.1641,38.439],[27.1623,38.4391],[27.1545,38.4411],[27.152,38.4408],[27.1476,38.4396],[27.1473,38.4393],[27.1475,38.4368],[27.1386,38.433],[27.1383,38.4331],[27.1349,38.4295],[27.135,38.4288],[27.1346,38.4285],[27.134,38.4285],[27.1332,38.4277],[27.1321,38.4246],[27.1308,38.4223],[27.1285,38.4209],[27.1277,38.4191],[27.1265,38.4175],[27.1241,38.4161],[27.1223,38.4147],[27.1224,38.4145],[27.1236,38.4155],[27.1253,38.4165],[27.1264,38.4163],[27.1276,38.4157],[27.1275,38.4153],[27.1273,38.4152],[27.1274,38.4149],[27.1276,38.4149]]}},{"type":"Feature","properties":{"id":"bus-920-2","kind":"busline","ref":"920","dir":2},"geometry":{"type":"LineString","coordinates":[[27.1276,38.4149],[27.1281,38.4149],[27.1286,38.4141],[27.129,38.4143],[27.1286,38.4151],[27.1265,38.4169],[27.1266,38.4174],[27.1278,38.419],[27.1283,38.4204],[27.1289,38.4211],[27.1305,38.4219],[27.1312,38.4225],[27.1328,38.4225],[27.1357,38.4272],[27.1348,38.4285],[27.1351,38.4288],[27.135,38.4294],[27.1382,38.4328],[27.1421,38.4343],[27.1467,38.4364],[27.1473,38.4364],[27.1476,38.4368],[27.1476,38.4391],[27.148,38.4395],[27.1527,38.4408],[27.1545,38.4408],[27.1581,38.4398],[27.1633,38.4388],[27.1689,38.4394],[27.1696,38.4398],[27.1701,38.4404],[27.1717,38.4433],[27.1725,38.4442],[27.1727,38.4452],[27.1725,38.4457],[27.1719,38.4463],[27.1712,38.4484],[27.1648,38.4607],[27.1643,38.462],[27.1627,38.4646],[27.1603,38.4669],[27.1588,38.4678],[27.1569,38.4685],[27.1557,38.4687],[27.1544,38.4687],[27.1518,38.4682],[27.1433,38.4654],[27.1415,38.465],[27.139,38.465],[27.1336,38.4656],[27.1323,38.4664],[27.131,38.4664],[27.1301,38.466],[27.1298,38.4656],[27.1293,38.4639],[27.1277,38.4622],[27.1276,38.4611],[27.1266,38.46],[27.124,38.4561],[27.1209,38.4559],[27.1201,38.4556],[27.1176,38.4539],[27.1155,38.4519],[27.1116,38.4498],[27.1059,38.4508],[27.1043,38.4516],[27.1043,38.4518],[27.1063,38.4541],[27.1067,38.4552],[27.1086,38.4639],[27.1096,38.4669],[27.1105,38.4687],[27.1119,38.4701],[27.1123,38.4703],[27.1128,38.4702],[27.1129,38.4698],[27.1126,38.4696],[27.1116,38.4699],[27.1019,38.476],[27.1004,38.4768],[27.0948,38.4785],[27.0874,38.483],[27.0825,38.485],[27.0716,38.4887],[27.0697,38.4895],[27.0656,38.4918],[27.0625,38.4938],[27.0592,38.4969],[27.0541,38.501],[27.0514,38.5045],[27.0502,38.5057],[27.0484,38.5071],[27.0476,38.5081],[27.0458,38.5116],[27.0442,38.5135],[27.0408,38.5183],[27.0397,38.5193],[27.0389,38.519],[27.0318,38.5182],[27.032,38.5179],[27.0351,38.5165],[27.0359,38.5156],[27.0372,38.515],[27.0383,38.5138],[27.038,38.5131],[27.0373,38.5126],[27.0372,38.5114],[27.0395,38.5112],[27.0382,38.5127],[27.038,38.5131],[27.0383,38.5138],[27.0372,38.515],[27.0359,38.5156],[27.0351,38.5165],[27.0328,38.5176],[27.0323,38.5183],[27.0289,38.5174],[27.0269,38.5173],[27.0286,38.5172],[27.0314,38.5179],[27.0311,38.5179]]}},{"type":"Feature","properties":{"id":"bus-920-s21328","kind":"busstop","ref":"920","name":"Katip Çelebi Üniversitesi","lines":["207","595","596","817"]},"geometry":{"type":"Point","coordinates":[27.03117,38.51781]}},{"type":"Feature","properties":{"id":"bus-920-s21258","kind":"busstop","ref":"920","name":"Çiğli Ege Sanayi Sitesi","lines":["817"]},"geometry":{"type":"Point","coordinates":[27.035,38.5164]}},{"type":"Feature","properties":{"id":"bus-920-s21256","kind":"busstop","ref":"920","name":"Düğüm","lines":["817"]},"geometry":{"type":"Point","coordinates":[27.03784,38.51427]}},{"type":"Feature","properties":{"id":"bus-920-s21247","kind":"busstop","ref":"920","name":"Ahmet Yesevi Cami","lines":["817"]},"geometry":{"type":"Point","coordinates":[27.03785,38.51139]}},{"type":"Feature","properties":{"id":"bus-920-s21249","kind":"busstop","ref":"920","name":"Kyk Çiğli Öğrenci Yurdu","lines":["817"]},"geometry":{"type":"Point","coordinates":[27.03769,38.51272]}},{"type":"Feature","properties":{"id":"bus-920-s23275","kind":"busstop","ref":"920","name":"Katip Çelebi Üniversitesi Öğrenci Yurdu","lines":[]},"geometry":{"type":"Point","coordinates":[27.0386,38.51237]}},{"type":"Feature","properties":{"id":"bus-920-s21257","kind":"busstop","ref":"920","name":"Düğüm","lines":["817"]},"geometry":{"type":"Point","coordinates":[27.03794,38.51443]}},{"type":"Feature","properties":{"id":"bus-920-s21259","kind":"busstop","ref":"920","name":"Çiğli Ege Sanayi Sitesi","lines":["817"]},"geometry":{"type":"Point","coordinates":[27.035,38.5166]}},{"type":"Feature","properties":{"id":"bus-920-s21322","kind":"busstop","ref":"920","name":"Tekel Lojmanlar","lines":["595","596","817"]},"geometry":{"type":"Point","coordinates":[27.0332,38.5183]}},{"type":"Feature","properties":{"id":"bus-920-s21344","kind":"busstop","ref":"920","name":"Jandarma","lines":["128","295","428","595","596","602","608","660","695","800","817","820","827"]},"geometry":{"type":"Point","coordinates":[27.0399,38.5187]}},{"type":"Feature","properties":{"id":"bus-920-s20098","kind":"busstop","ref":"920","name":"Eski Sinema","lines":["128","295","428","595","596","602","608","660","695","800","817","820","827"]},"geometry":{"type":"Point","coordinates":[27.0421,38.5161]}},{"type":"Feature","properties":{"id":"bus-920-s20096","kind":"busstop","ref":"920","name":"Balatçık Kahveler","lines":["128","295","346","428","595","596","602","608","660","695","800","810","816","817","820","827","853","912"]},"geometry":{"type":"Point","coordinates":[27.0452,38.5119]}},{"type":"Feature","properties":{"id":"bus-920-s20094","kind":"busstop","ref":"920","name":"Ata","lines":["428","446","535","595","602","608","660","800","820","827","912"]},"geometry":{"type":"Point","coordinates":[27.0495,38.5059]}},{"type":"Feature","properties":{"id":"bus-920-s20092","kind":"busstop","ref":"920","name":"Küçük Çiğli","lines":["428","446","535","595","602","608","660","800","820","827","912"]},"geometry":{"type":"Point","coordinates":[27.05217,38.50313]}},{"type":"Feature","properties":{"id":"bus-920-s20090","kind":"busstop","ref":"920","name":"Çiğli Santral","lines":["428","446","535","595","602","608","660","800","820","827","912"]},"geometry":{"type":"Point","coordinates":[27.05444,38.50045]}},{"type":"Feature","properties":{"id":"bus-920-s20088","kind":"busstop","ref":"920","name":"Çiğli Şaraphane","lines":["428","446","535","595","602","608","660","800","820","827","912"]},"geometry":{"type":"Point","coordinates":[27.05666,38.49866]}},{"type":"Feature","properties":{"id":"bus-920-s20086","kind":"busstop","ref":"920","name":"Çiğli Belediye","lines":["229","247","329","344","428","429","443","446","529","535","602","608","660","800","820","827","853","912"]},"geometry":{"type":"Point","coordinates":[27.0665,38.4911]}},{"type":"Feature","properties":{"id":"bus-920-s20084","kind":"busstop","ref":"920","name":"Eğitim Gönüllüleri","lines":["229","247","329","344","428","429","443","445","446","529","535","602","608","660","800","820","827","853","912"]},"geometry":{"type":"Point","coordinates":[27.069,38.4896]}},{"type":"Feature","properties":{"id":"bus-920-s20082","kind":"busstop","ref":"920","name":"Çiğli İtfaiye","lines":["229","247","329","344","428","429","443","445","446","529","535","602","608","660","800","820","827","853","912"]},"geometry":{"type":"Point","coordinates":[27.0726,38.4882]}},{"type":"Feature","properties":{"id":"bus-920-s20080","kind":"busstop","ref":"920","name":"15 Temmuz Şehitler Anadolu Lisesi","lines":["535","602","608","660","800","853","912"]},"geometry":{"type":"Point","coordinates":[27.0885,38.4821]}},{"type":"Feature","properties":{"id":"bus-920-s20078","kind":"busstop","ref":"920","name":"Ayyıldız","lines":["535","602","608","660","800","853","912"]},"geometry":{"type":"Point","coordinates":[27.0924,38.4796]}},{"type":"Feature","properties":{"id":"bus-920-s20074","kind":"busstop","ref":"920","name":"Karşıyaka Jandarma","lines":["535","602","608","660","800","853","912"]},"geometry":{"type":"Point","coordinates":[27.0947,38.4784]}},{"type":"Feature","properties":{"id":"bus-920-s20072","kind":"busstop","ref":"920","name":"Kayalar Mezarlığı","lines":["535","602","608","660","800","853","912"]},"geometry":{"type":"Point","coordinates":[27.0994,38.4769]}},{"type":"Feature","properties":{"id":"bus-920-s20070","kind":"busstop","ref":"920","name":"Serinkuyu","lines":["125","126","222","326","535","602","608","660","800","853","912"]},"geometry":{"type":"Point","coordinates":[27.1045,38.4741]}},{"type":"Feature","properties":{"id":"bus-920-s20068","kind":"busstop","ref":"920","name":"Dedebaşı","lines":["125","126","222","326","535","602","608","660","800","853","912"]},"geometry":{"type":"Point","coordinates":[27.1077,38.4722]}},{"type":"Feature","properties":{"id":"bus-920-s20214","kind":"busstop","ref":"920","name":"Zafer Takı","lines":["126","135","136","137","197","222","258","326","430","435","487","532","741","742","847","853"]},"geometry":{"type":"Point","coordinates":[27.1096,38.4671]}},{"type":"Feature","properties":{"id":"bus-920-s20212","kind":"busstop","ref":"920","name":"Çayırcı","lines":["126","135","136","137","197","222","258","326","430","435","487","532","741","742","847","853"]},"geometry":{"type":"Point","coordinates":[27.1088,38.4649]}},{"type":"Feature","properties":{"id":"bus-920-s20208","kind":"busstop","ref":"920","name":"Girne Bulvarı","lines":["126","135","136","137","197","222","258","326","361","430","435","487","532","741","742","847","853"]},"geometry":{"type":"Point","coordinates":[27.10778,38.46089]}},{"type":"Feature","properties":{"id":"bus-920-s20206","kind":"busstop","ref":"920","name":"Geçit 1","lines":["126","135","136","137","197","222","258","326","361","430","435","487","532","741","742","847","853"]},"geometry":{"type":"Point","coordinates":[27.10724,38.4585]}},{"type":"Feature","properties":{"id":"bus-920-s20204","kind":"busstop","ref":"920","name":"Geçit 2","lines":["126","135","136","137","197","222","258","326","361","430","435","487","532","741","742","847","853"]},"geometry":{"type":"Point","coordinates":[27.107,38.4574]}},{"type":"Feature","properties":{"id":"bus-920-s20202","kind":"busstop","ref":"920","name":"Metin Aşıkoğlu Ortaokulu","lines":["126","135","136","137","197","222","258","326","361","430","435","487","532","741","742","847","853"]},"geometry":{"type":"Point","coordinates":[27.10626,38.45443]}},{"type":"Feature","properties":{"id":"bus-920-s20200","kind":"busstop","ref":"920","name":"Şehit Diplomat Erdoğan Özen","lines":["126","135","136","137","197","222","258","326","361","430","435","487","532","741","742","847","853"]},"geometry":{"type":"Point","coordinates":[27.1047,38.4525]}},{"type":"Feature","properties":{"id":"bus-920-s20154","kind":"busstop","ref":"920","name":"Osman Bey Parkı","lines":["121","126","135","136","137","197","200","222","258","290","326","330","361","487","543","741","742","777","847","853"]},"geometry":{"type":"Point","coordinates":[27.1187,38.4545]}},{"type":"Feature","properties":{"id":"bus-920-s20004","kind":"busstop","ref":"920","name":"Karşıyaka İskele","lines":["136","361","487"]},"geometry":{"type":"Point","coordinates":[27.12258,38.45565]}},{"type":"Feature","properties":{"id":"bus-920-s20148","kind":"busstop","ref":"920","name":"Muammer Aksoy Parkı","lines":["121","196","200","290","330","543"]},"geometry":{"type":"Point","coordinates":[27.125,38.45729]}},{"type":"Feature","properties":{"id":"bus-920-s20146","kind":"busstop","ref":"920","name":" Selçuk Yaşar Alaybey Ortaokulu","lines":["121","196","200","290","330","543"]},"geometry":{"type":"Point","coordinates":[27.1265,38.4596]}},{"type":"Feature","properties":{"id":"bus-920-s20144","kind":"busstop","ref":"920","name":"Tersane","lines":["121","196","200","290","330","543"]},"geometry":{"type":"Point","coordinates":[27.12804,38.46159]}},{"type":"Feature","properties":{"id":"bus-920-s20060","kind":"busstop","ref":"920","name":"Turan","lines":["77","78","121","125","140","147","148","200","213","240","290","330","335","426","434","477","543","577","602","608","660","800","912"]},"geometry":{"type":"Point","coordinates":[27.1503,38.4675]}},{"type":"Feature","properties":{"id":"bus-920-s20134","kind":"busstop","ref":"920","name":"Bayraklı Üst Geçit","lines":["102","121","200","213","290","330","501","502","504","543","602","608","660","662","800","912"]},"geometry":{"type":"Point","coordinates":[27.1625,38.4641]}},{"type":"Feature","properties":{"id":"bus-920-s10424","kind":"busstop","ref":"920","name":"Liman","lines":["121","912","930","951"]},"geometry":{"type":"Point","coordinates":[27.1499,38.4403]}},{"type":"Feature","properties":{"id":"bus-920-s10110","kind":"busstop","ref":"920","name":"Talatpaşa","lines":["121","253"]},"geometry":{"type":"Point","coordinates":[27.14457,38.43558]}},{"type":"Feature","properties":{"id":"bus-920-s10108","kind":"busstop","ref":"920","name":"Alsancak Devlet Hastanesi","lines":["121","253"]},"geometry":{"type":"Point","coordinates":[27.14179,38.43439]}},{"type":"Feature","properties":{"id":"bus-920-s10106","kind":"busstop","ref":"920","name":"Dokuz Eylül Rektörlük","lines":["121","202","253","910","940","950"]},"geometry":{"type":"Point","coordinates":[27.1359,38.4305]}},{"type":"Feature","properties":{"id":"bus-920-s10104","kind":"busstop","ref":"920","name":"Sosyal Sigortalar Kurumu","lines":["121","202","253","910","940","950"]},"geometry":{"type":"Point","coordinates":[27.1324,38.4252]}},{"type":"Feature","properties":{"id":"bus-920-s10102","kind":"busstop","ref":"920","name":"İskele","lines":["35","36","121","202","253","302","466","838","910","930","940","950","951"]},"geometry":{"type":"Point","coordinates":[27.1279,38.4199]}},{"type":"Feature","properties":{"id":"bus-920-s10016","kind":"busstop","ref":"920","name":"Bahribaba","lines":["910","930","940","950"]},"geometry":{"type":"Point","coordinates":[27.1276,38.4148]}},{"type":"Feature","properties":{"id":"bus-920-s10103","kind":"busstop","ref":"920","name":"Belediye Sarayı","lines":["18","19","20","36","121","202","253","302","466","811","838","910","930","940","950"]},"geometry":{"type":"Point","coordinates":[27.1297,38.4214]}},{"type":"Feature","properties":{"id":"bus-920-s16586","kind":"busstop","ref":"920","name":"Mimar Kemalettin","lines":["121","202","253","910","940","950"]},"geometry":{"type":"Point","coordinates":[27.13351,38.42368]}},{"type":"Feature","properties":{"id":"bus-920-s10112","kind":"busstop","ref":"920","name":"Halit Ziya","lines":["121","202","253","910","940","950"]},"geometry":{"type":"Point","coordinates":[27.13502,38.4261]}},{"type":"Feature","properties":{"id":"bus-920-s10107","kind":"busstop","ref":"920","name":"Dokuz Eylül Rektörlük","lines":["121","253"]},"geometry":{"type":"Point","coordinates":[27.1375,38.4319]}},{"type":"Feature","properties":{"id":"bus-920-s10109","kind":"busstop","ref":"920","name":"Alsancak Devlet Hastanesi","lines":["121","253"]},"geometry":{"type":"Point","coordinates":[27.14229,38.4344]}},{"type":"Feature","properties":{"id":"bus-920-s10111","kind":"busstop","ref":"920","name":"Talatpaşa","lines":["121","253"]},"geometry":{"type":"Point","coordinates":[27.1442,38.4353]}},{"type":"Feature","properties":{"id":"bus-920-s10415","kind":"busstop","ref":"920","name":"Alsancak Gar","lines":["121","253","930","951"]},"geometry":{"type":"Point","coordinates":[27.14763,38.43852]}},{"type":"Feature","properties":{"id":"bus-920-s10421","kind":"busstop","ref":"920","name":"Tariş","lines":["121","912","930","951","963"]},"geometry":{"type":"Point","coordinates":[27.1508,38.4402]}},{"type":"Feature","properties":{"id":"bus-920-s10425","kind":"busstop","ref":"920","name":"Liman","lines":["121","912","930","951","963"]},"geometry":{"type":"Point","coordinates":[27.1556,38.4405]}},{"type":"Feature","properties":{"id":"bus-920-s20135","kind":"busstop","ref":"920","name":"Bayraklı Üst Geçit","lines":["121","200","290","330","543","602","608","660","800","912"]},"geometry":{"type":"Point","coordinates":[27.1631,38.4641]}},{"type":"Feature","properties":{"id":"bus-920-s20137","kind":"busstop","ref":"920","name":"Nikah Salonu","lines":["121","200","290","330","543","602","608","660","800","912"]},"geometry":{"type":"Point","coordinates":[27.1606,38.4667]}},{"type":"Feature","properties":{"id":"bus-920-s20057","kind":"busstop","ref":"920","name":"Turan","lines":["77","78","121","125","140","147","148","200","240","290","330","335","426","434","477","543","577","602","608","660","800","912"]},"geometry":{"type":"Point","coordinates":[27.14939,38.46755]}},{"type":"Feature","properties":{"id":"bus-920-s20145","kind":"busstop","ref":"920","name":"Tersane","lines":["121","196","200","290","330","543"]},"geometry":{"type":"Point","coordinates":[27.1282,38.4629]}},{"type":"Feature","properties":{"id":"bus-920-s20147","kind":"busstop","ref":"920","name":" Selçuk Yaşar Alaybey Ortaokulu","lines":["121","196","200","290","330","543"]},"geometry":{"type":"Point","coordinates":[27.12628,38.45951]}},{"type":"Feature","properties":{"id":"bus-920-s20149","kind":"busstop","ref":"920","name":"Muammer Aksoy Parkı","lines":["121","196","200","290","330","543"]},"geometry":{"type":"Point","coordinates":[27.12499,38.45754]}},{"type":"Feature","properties":{"id":"bus-920-s20151","kind":"busstop","ref":"920","name":"Karşıyaka İskele","lines":["121","126","135","136","137","197","200","222","258","290","326","330","361","487","543","741","742","777","847","853"]},"geometry":{"type":"Point","coordinates":[27.1223,38.456]}},{"type":"Feature","properties":{"id":"bus-920-s20153","kind":"busstop","ref":"920","name":"Osman Bey Parkı","lines":["121","126","135","136","137","197","200","222","258","290","326","330","361","487","543","741","742","777","847","853"]},"geometry":{"type":"Point","coordinates":[27.1178,38.4541]}},{"type":"Feature","properties":{"id":"bus-920-s20155","kind":"busstop","ref":"920","name":"Tarık Dursun Kakınç","lines":["121","126","135","136","137","197","200","222","258","290","326","330","361","487","543","741","742","777","847","853"]},"geometry":{"type":"Point","coordinates":[27.1155,38.452]}},{"type":"Feature","properties":{"id":"bus-920-s20157","kind":"busstop","ref":"920","name":"Dokuz Eylül Dispanser","lines":["121","126","135","136","137","197","200","222","258","290","326","330","361","487","543","741","742","777","847","853"]},"geometry":{"type":"Point","coordinates":[27.1126,38.4504]}},{"type":"Feature","properties":{"id":"bus-920-s20159","kind":"busstop","ref":"920","name":"Karşıyaka Yelken Kulübü","lines":["121","126","135","136","137","197","200","222","258","290","326","330","361","487","543","741","742","777","847","853"]},"geometry":{"type":"Point","coordinates":[27.1085,38.4503]}},{"type":"Feature","properties":{"id":"bus-920-s20161","kind":"busstop","ref":"920","name":"Yunuslar","lines":["121","126","135","136","137","197","200","222","258","290","326","330","361","487","543","741","742","777","847","853"]},"geometry":{"type":"Point","coordinates":[27.106,38.4509]}},{"type":"Feature","properties":{"id":"bus-920-s20199","kind":"busstop","ref":"920","name":"Şehit Diplomat Erdoğan Özen","lines":["126","135","136","137","197","222","258","326","361","430","435","487","532","741","742","847","853"]},"geometry":{"type":"Point","coordinates":[27.10526,38.45267]}},{"type":"Feature","properties":{"id":"bus-920-s20201","kind":"busstop","ref":"920","name":"Metin Aşıkoğlu Ortaokulu","lines":["126","135","136","137","197","222","258","326","361","430","435","487","532","741","742","847","853"]},"geometry":{"type":"Point","coordinates":[27.10643,38.4544]}},{"type":"Feature","properties":{"id":"bus-920-s20203","kind":"busstop","ref":"920","name":"Geçit 2","lines":["126","135","136","137","197","222","258","326","361","430","435","487","532","741","742","847","853"]},"geometry":{"type":"Point","coordinates":[27.10738,38.45759]}},{"type":"Feature","properties":{"id":"bus-920-s20205","kind":"busstop","ref":"920","name":"Geçit 1","lines":["126","135","136","137","197","222","258","326","361","430","435","487","532","741","742","847","853"]},"geometry":{"type":"Point","coordinates":[27.1076,38.4589]}},{"type":"Feature","properties":{"id":"bus-920-s20207","kind":"busstop","ref":"920","name":"Girne Bulvarı","lines":["126","135","136","137","197","222","258","326","361","430","435","487","532","741","742","847","853"]},"geometry":{"type":"Point","coordinates":[27.1081,38.461]}},{"type":"Feature","properties":{"id":"bus-920-s20209","kind":"busstop","ref":"920","name":"Çayırcı","lines":["126","135","136","137","197","222","258","326","430","435","487","532","741","742","847","853"]},"geometry":{"type":"Point","coordinates":[27.109,38.4647]}},{"type":"Feature","properties":{"id":"bus-920-s20211","kind":"busstop","ref":"920","name":"Zafer Takı","lines":["126","135","136","137","197","222","258","326","430","435","487","532","741","742","847","853"]},"geometry":{"type":"Point","coordinates":[27.10977,38.46706]}},{"type":"Feature","properties":{"id":"bus-920-s20065","kind":"busstop","ref":"920","name":"Dedebaşı","lines":["125","126","222","326","535","602","608","660","800","853","912"]},"geometry":{"type":"Point","coordinates":[27.1081,38.4722]}},{"type":"Feature","properties":{"id":"bus-920-s20067","kind":"busstop","ref":"920","name":"Ege Üniversitesi Karşıyaka Sağlık Yerleşkesi","lines":["125","126","222","326","535","602","608","660","800","853","912"]},"geometry":{"type":"Point","coordinates":[27.1063,38.4733]}},{"type":"Feature","properties":{"id":"bus-920-s20069","kind":"busstop","ref":"920","name":"Serin Kuyu","lines":["125","126","222","326","535","602","608","660","800","853","912"]},"geometry":{"type":"Point","coordinates":[27.10286,38.47545]}},{"type":"Feature","properties":{"id":"bus-920-s20071","kind":"busstop","ref":"920","name":"Kayalar Mezarlığı","lines":["535","602","608","660","800","853","912"]},"geometry":{"type":"Point","coordinates":[27.0993,38.4772]}},{"type":"Feature","properties":{"id":"bus-920-s20073","kind":"busstop","ref":"920","name":"Karşıyaka Jandarma","lines":["535","602","608","660","800","853","912"]},"geometry":{"type":"Point","coordinates":[27.0951,38.4785]}},{"type":"Feature","properties":{"id":"bus-920-s20077","kind":"busstop","ref":"920","name":"Ayyıldız","lines":["535","602","608","660","800","853","912"]},"geometry":{"type":"Point","coordinates":[27.09076,38.48105]}},{"type":"Feature","properties":{"id":"bus-920-s20079","kind":"busstop","ref":"920","name":"15 Temmuz Şehitler Anadolu Lisesi","lines":["535","602","608","660","800","853","912"]},"geometry":{"type":"Point","coordinates":[27.0875,38.483]}},{"type":"Feature","properties":{"id":"bus-920-s20081","kind":"busstop","ref":"920","name":"Çiğli İtfaiye","lines":["229","247","329","344","428","429","443","445","446","447","529","535","602","608","660","800","820","827","853","912"]},"geometry":{"type":"Point","coordinates":[27.0722,38.4885]}},{"type":"Feature","properties":{"id":"bus-920-s20083","kind":"busstop","ref":"920","name":"Eğitim Gönüllüleri","lines":["229","247","329","344","428","429","443","445","446","529","535","602","608","660","800","820","827","853","912"]},"geometry":{"type":"Point","coordinates":[27.0689,38.49]}},{"type":"Feature","properties":{"id":"bus-920-s20085","kind":"busstop","ref":"920","name":"Çiğli Belediye","lines":["229","247","329","344","428","429","443","446","529","535","602","608","660","800","820","827","853","912"]},"geometry":{"type":"Point","coordinates":[27.0663,38.4915]}},{"type":"Feature","properties":{"id":"bus-920-s20087","kind":"busstop","ref":"920","name":"Çiğli Şaraphane","lines":["428","446","535","595","602","608","660","800","820","827","912"]},"geometry":{"type":"Point","coordinates":[27.0573,38.4985]}},{"type":"Feature","properties":{"id":"bus-920-s20089","kind":"busstop","ref":"920","name":"Çiğli Santral","lines":["428","446","535","595","602","608","660","800","820","827","912"]},"geometry":{"type":"Point","coordinates":[27.05436,38.50091]}},{"type":"Feature","properties":{"id":"bus-920-s20091","kind":"busstop","ref":"920","name":"Küçük Çiğli","lines":["428","446","535","595","602","608","660","800","820","827","912"]},"geometry":{"type":"Point","coordinates":[27.05166,38.50436]}},{"type":"Feature","properties":{"id":"bus-920-s20093","kind":"busstop","ref":"920","name":"Ata","lines":["428","446","535","595","602","608","660","800","820","827","912"]},"geometry":{"type":"Point","coordinates":[27.05035,38.5056]}},{"type":"Feature","properties":{"id":"bus-920-s20095","kind":"busstop","ref":"920","name":"Balatçık Kahveler","lines":["128","295","428","595","596","602","608","660","695","800","820","827"]},"geometry":{"type":"Point","coordinates":[27.04487,38.51283]}},{"type":"Feature","properties":{"id":"bus-920-s20097","kind":"busstop","ref":"920","name":"Eski Sinema","lines":["128","295","428","595","596","602","608","660","695","800","817","820","827"]},"geometry":{"type":"Point","coordinates":[27.04262,38.51586]}},{"type":"Feature","properties":{"id":"bus-920-s21343","kind":"busstop","ref":"920","name":"Jandarma","lines":["128","295","428","595","596","602","608","660","695","800","817","820","827"]},"geometry":{"type":"Point","coordinates":[27.04059,38.51858]}},{"type":"Feature","properties":{"id":"bus-920-s21321","kind":"busstop","ref":"920","name":"Tekel Lojmanlar","lines":["595","596","817"]},"geometry":{"type":"Point","coordinates":[27.0336,38.5184]}},{"type":"Feature","properties":{"id":"bus-920-s21248","kind":"busstop","ref":"920","name":"Kyk Çiğli Öğrenci Yurdu","lines":["817"]},"geometry":{"type":"Point","coordinates":[27.03766,38.51291]}},{"type":"Feature","properties":{"id":"bus-920-s21246","kind":"busstop","ref":"920","name":"Ahmet Yesevi Cami","lines":["817"]},"geometry":{"type":"Point","coordinates":[27.03777,38.51131]}}]}