{"type":"FeatureCollection","features":[{"type":"Feature","properties":{"id":"bus-940-1","kind":"busline","ref":"940","dir":1},"geometry":{"type":"LineString","coordinates":[[27.1871,38.3852],[27.1872,38.3851],[27.1855,38.3848],[27.1856,38.3835],[27.1864,38.382],[27.1847,38.3815],[27.184,38.3828],[27.184,38.3854],[27.1831,38.3848],[27.1816,38.3831],[27.1807,38.3842],[27.1793,38.3853],[27.1789,38.3854],[27.1778,38.3845],[27.1765,38.3822],[27.1693,38.3835],[27.1688,38.3837],[27.1688,38.384],[27.1711,38.3863],[27.1722,38.3872],[27.1736,38.388],[27.1735,38.3881],[27.1714,38.3888],[27.1695,38.3891],[27.1664,38.39],[27.1524,38.3919],[27.1495,38.3929],[27.1489,38.3934],[27.1474,38.3931],[27.1429,38.3934],[27.1418,38.3936],[27.1402,38.3942],[27.1365,38.3947],[27.1353,38.3952],[27.1326,38.3969],[27.1314,38.3988],[27.1294,38.4041],[27.1285,38.4058],[27.1284,38.4077],[27.1289,38.4086],[27.1288,38.4105],[27.129,38.4108],[27.1307,38.4118],[27.132,38.413],[27.1337,38.4137],[27.1355,38.4166],[27.1366,38.4177],[27.137,38.4204],[27.1377,38.4225],[27.1377,38.424],[27.1403,38.4269],[27.1414,38.4278],[27.1416,38.4294],[27.1419,38.4299],[27.1417,38.4301],[27.1407,38.4302],[27.1367,38.4314],[27.1349,38.4295],[27.135,38.4288],[27.1346,38.4285],[27.134,38.4285],[27.1332,38.4277],[27.1321,38.4246],[27.131,38.4226],[27.1304,38.422],[27.1285,38.4209],[27.1277,38.4191],[27.1268,38.4178],[27.1251,38.4166],[27.124,38.4162],[27.1235,38.4163],[27.1233,38.4167],[27.1238,38.4171],[27.1259,38.4167],[27.1276,38.4157],[27.1273,38.4151],[27.1274,38.4149],[27.1277,38.4149]]}},{"type":"Feature","properties":{"id":"bus-940-2","kind":"busline","ref":"940","dir":2},"geometry":{"type":"LineString","coordinates":[[27.1275,38.4149],[27.1273,38.4152],[27.1274,38.4149],[27.1281,38.4149],[27.1286,38.4141],[27.129,38.4143],[27.1286,38.4151],[27.1265,38.4169],[27.1266,38.4174],[27.1278,38.419],[27.1283,38.4204],[27.1289,38.4211],[27.1305,38.4219],[27.1312,38.4225],[27.1328,38.4225],[27.1357,38.4272],[27.1348,38.4285],[27.1351,38.4288],[27.1369,38.4286],[27.141,38.428],[27.1412,38.4277],[27.1414,38.4278],[27.1416,38.4294],[27.1419,38.4299],[27.1417,38.4301],[27.1415,38.43],[27.1415,38.4294],[27.141,38.4278],[27.1376,38.4242],[27.1376,38.4226],[27.137,38.4209],[27.1366,38.4177],[27.1355,38.4166],[27.1337,38.4137],[27.132,38.413],[27.1307,38.412],[27.1289,38.4111],[27.1287,38.4107],[27.1288,38.4087],[27.1284,38.4082],[27.1282,38.4075],[27.1284,38.4058],[27.1294,38.4038],[27.1314,38.3985],[27.1322,38.3972],[27.1331,38.3964],[27.1359,38.3948],[27.1371,38.3945],[27.1397,38.3942],[27.1411,38.3936],[27.1423,38.3934],[27.1485,38.393],[27.1523,38.3919],[27.1664,38.39],[27.1695,38.3891],[27.1714,38.3888],[27.1733,38.3879],[27.1711,38.3863],[27.1679,38.3831],[27.1696,38.3835],[27.1738,38.3826],[27.1756,38.3824],[27.1762,38.382],[27.1779,38.3818],[27.1812,38.3808],[27.1826,38.3819],[27.1816,38.3831],[27.1837,38.3853],[27.1852,38.3855],[27.1855,38.3848],[27.1872,38.3851],[27.1867,38.385]]}},{"type":"Feature","properties":{"id":"bus-940-s41387","kind":"busstop","ref":"940","name":"Adatepe Son Durak","lines":["174","175","176","177"]},"geometry":{"type":"Point","coordinates":[27.1866,38.38504]}},{"type":"Feature","properties":{"id":"bus-940-s40582","kind":"busstop","ref":"940","name":"Adatepe Üçgen Park","lines":["104","174","175","176","177"]},"geometry":{"type":"Point","coordinates":[27.18585,38.38278]}},{"type":"Feature","properties":{"id":"bus-940-s41204","kind":"busstop","ref":"940","name":"Işılay Saygın Lisesi","lines":["174","175","176","177","866"]},"geometry":{"type":"Point","coordinates":[27.1855,38.3817]}},{"type":"Feature","properties":{"id":"bus-940-s40584","kind":"busstop","ref":"940","name":"Işılay Saygın Güzel Sanatlar Lisesi","lines":["174","175","176","177"]},"geometry":{"type":"Point","coordinates":[27.18416,38.38262]}},{"type":"Feature","properties":{"id":"bus-940-s40578","kind":"busstop","ref":"940","name":"Fakülte","lines":["104","174","175","176","177"]},"geometry":{"type":"Point","coordinates":[27.1828,38.3844]}},{"type":"Feature","properties":{"id":"bus-940-s40068","kind":"busstop","ref":"940","name":"İktisadi ve İdari Bilimler Fakültesi","lines":["104","174","175","176","177","470","490"]},"geometry":{"type":"Point","coordinates":[27.17986,38.38484]}},{"type":"Feature","properties":{"id":"bus-940-s40742","kind":"busstop","ref":"940","name":"Buca Üçkuyular Meydan","lines":["104","304","465","470","471","476","490","676","805","866","878"]},"geometry":{"type":"Point","coordinates":[27.17594,38.38236]}},{"type":"Feature","properties":{"id":"bus-940-s40738","kind":"busstop","ref":"940","name":"Buca Sağlık Ocağı","lines":["104","206","304","353","465","470","471","472","476","490","515","536","676","805","866","878"]},"geometry":{"type":"Point","coordinates":[27.17252,38.38291]}},{"type":"Feature","properties":{"id":"bus-940-s40038","kind":"busstop","ref":"940","name":"Buca Devlet Hastanesi","lines":["104","304","470","476","490","536"]},"geometry":{"type":"Point","coordinates":[27.16923,38.38432]}},{"type":"Feature","properties":{"id":"bus-940-s40036","kind":"busstop","ref":"940","name":"Dokuz Eylül Eğitim Fakültesi","lines":["104","206","304","476","490","515","536","676","805"]},"geometry":{"type":"Point","coordinates":[27.1704,38.3856]}},{"type":"Feature","properties":{"id":"bus-940-s40022","kind":"busstop","ref":"940","name":"Buca Sosyal Güvenlik Kurumu","lines":["104","303","304","470","476","490","515","676","805"]},"geometry":{"type":"Point","coordinates":[27.1712,38.3889]}},{"type":"Feature","properties":{"id":"bus-940-s40018","kind":"busstop","ref":"940","name":"Öğretmen Evleri","lines":["104","206","303","304","470","476","490","515","536","676","805"]},"geometry":{"type":"Point","coordinates":[27.1661,38.39006]}},{"type":"Feature","properties":{"id":"bus-940-s40016","kind":"busstop","ref":"940","name":"Buca Belediye Sarayı","lines":["104","206","285","303","304","374","470","476","490","515","536","676","805","874","875","876"]},"geometry":{"type":"Point","coordinates":[27.1634,38.3905]}},{"type":"Feature","properties":{"id":"bus-940-s40014","kind":"busstop","ref":"940","name":"Buca Vergi Dairesi","lines":["104","206","285","303","304","374","470","476","490","515","536","676","805","874","875","876"]},"geometry":{"type":"Point","coordinates":[27.1604,38.3909]}},{"type":"Feature","properties":{"id":"bus-940-s40012","kind":"busstop","ref":"940","name":"Yeni Mahalle","lines":["104","206","285","303","304","374","470","476","490","515","536","676","805","874","875","876"]},"geometry":{"type":"Point","coordinates":[27.1571,38.3913]}},{"type":"Feature","properties":{"id":"bus-940-s40010","kind":"busstop","ref":"940","name":"Şirinyer PTT","lines":["72","104","206","285","303","304","374","441","470","472","476","490","515","536","676","805","871","874","875","876"]},"geometry":{"type":"Point","coordinates":[27.1534,38.3918]}},{"type":"Feature","properties":{"id":"bus-940-s40004","kind":"busstop","ref":"940","name":"Şirinyer Merkez","lines":["72","104","206","285","374","465","470","471","485","490","515"]},"geometry":{"type":"Point","coordinates":[27.14808,38.39327]}},{"type":"Feature","properties":{"id":"bus-940-s40002","kind":"busstop","ref":"940","name":"Nato","lines":["72","104","285","374","465","470","471","485","490","515"]},"geometry":{"type":"Point","coordinates":[27.1415,38.3938]}},{"type":"Feature","properties":{"id":"bus-940-s12070","kind":"busstop","ref":"940","name":"Şelale Parkı","lines":["72","104","105","171","233","234","285","374","465","470","471","484","490"]},"geometry":{"type":"Point","coordinates":[27.134,38.396]}},{"type":"Feature","properties":{"id":"bus-940-s12068","kind":"busstop","ref":"940","name":"Konak Anadolu Lisesi","lines":["72","104","105","171","233","234","285","374","465","470","471","484","485","490"]},"geometry":{"type":"Point","coordinates":[27.1321,38.3978]}},{"type":"Feature","properties":{"id":"bus-940-s12064","kind":"busstop","ref":"940","name":"Yağhaneler 2","lines":["72","104","105","171","233","234","285","374","465","470","471","484","485","490"]},"geometry":{"type":"Point","coordinates":[27.1306,38.4011]}},{"type":"Feature","properties":{"id":"bus-940-s12066","kind":"busstop","ref":"940","name":"Arap Cami","lines":["33","72","104","105","171","233","285","374","465","471","484","485"]},"geometry":{"type":"Point","coordinates":[27.12859,38.40571]}},{"type":"Feature","properties":{"id":"bus-940-s12058","kind":"busstop","ref":"940","name":"Eşrefpaşa","lines":["23","29","30","32","33","72","104","105","157","171","193","224","233","285","374","465","471","484","485"]},"geometry":{"type":"Point","coordinates":[27.1288,38.4083]}},{"type":"Feature","properties":{"id":"bus-940-s10228","kind":"busstop","ref":"940","name":"Koruluk","lines":["234","470","680","681","691","910","950"]},"geometry":{"type":"Point","coordinates":[27.13178,38.41269]}},{"type":"Feature","properties":{"id":"bus-940-s10226","kind":"busstop","ref":"940","name":"Kestelli","lines":["234","470","680","681","691","910","950"]},"geometry":{"type":"Point","coordinates":[27.13483,38.41529]}},{"type":"Feature","properties":{"id":"bus-940-s10224","kind":"busstop","ref":"940","name":"Mezarlıkbaşı","lines":["234","470","680","681","691","910","950"]},"geometry":{"type":"Point","coordinates":[27.1372,38.4207]}},{"type":"Feature","properties":{"id":"bus-940-s10321","kind":"busstop","ref":"940","name":"Kent Müzesi","lines":["470","680","681","691","910","930","950"]},"geometry":{"type":"Point","coordinates":[27.1385,38.4248]}},{"type":"Feature","properties":{"id":"bus-940-s10330","kind":"busstop","ref":"940","name":"Montrö","lines":["202","691","910","930","950"]},"geometry":{"type":"Point","coordinates":[27.14154,38.42876]}},{"type":"Feature","properties":{"id":"bus-940-s10554","kind":"busstop","ref":"940","name":"Vasıf Çınar","lines":["202","910","950"]},"geometry":{"type":"Point","coordinates":[27.14076,38.43022]}},{"type":"Feature","properties":{"id":"bus-940-s10106","kind":"busstop","ref":"940","name":"Dokuz Eylül Rektörlük","lines":["121","202","253","910","920","950"]},"geometry":{"type":"Point","coordinates":[27.1359,38.4305]}},{"type":"Feature","properties":{"id":"bus-940-s10104","kind":"busstop","ref":"940","name":"Sosyal Sigortalar Kurumu","lines":["121","202","253","910","920","950"]},"geometry":{"type":"Point","coordinates":[27.1324,38.4252]}},{"type":"Feature","properties":{"id":"bus-940-s10102","kind":"busstop","ref":"940","name":"İskele","lines":["35","36","121","202","253","302","466","838","910","920","930","950","951"]},"geometry":{"type":"Point","coordinates":[27.1279,38.4199]}},{"type":"Feature","properties":{"id":"bus-940-s10016","kind":"busstop","ref":"940","name":"Bahribaba","lines":["910","920","930","950"]},"geometry":{"type":"Point","coordinates":[27.1276,38.4148]}},{"type":"Feature","properties":{"id":"bus-940-s10103","kind":"busstop","ref":"940","name":"Belediye Sarayı","lines":["18","19","20","36","121","202","253","302","466","811","838","910","920","930","950"]},"geometry":{"type":"Point","coordinates":[27.1297,38.4214]}},{"type":"Feature","properties":{"id":"bus-940-s10117","kind":"busstop","ref":"940","name":"Hisarönü","lines":["23","35","811","930","951"]},"geometry":{"type":"Point","coordinates":[27.1323,38.4224]}},{"type":"Feature","properties":{"id":"bus-940-s16586","kind":"busstop","ref":"940","name":"Mimar Kemalettin","lines":["121","202","253","910","920","950"]},"geometry":{"type":"Point","coordinates":[27.13351,38.42368]}},{"type":"Feature","properties":{"id":"bus-940-s10112","kind":"busstop","ref":"940","name":"Halit Ziya","lines":["121","202","253","910","920","950"]},"geometry":{"type":"Point","coordinates":[27.13502,38.4261]}},{"type":"Feature","properties":{"id":"bus-940-s10323","kind":"busstop","ref":"940","name":"Montrö","lines":["49","681"]},"geometry":{"type":"Point","coordinates":[27.1417,38.4286]}},{"type":"Feature","properties":{"id":"bus-940-s10322","kind":"busstop","ref":"940","name":"Kent Müzesi","lines":["470","680","681","691","910","930","950"]},"geometry":{"type":"Point","coordinates":[27.13955,38.42628]}},{"type":"Feature","properties":{"id":"bus-940-s10211","kind":"busstop","ref":"940","name":"Çankaya","lines":["691","811","950"]},"geometry":{"type":"Point","coordinates":[27.13756,38.42352]}},{"type":"Feature","properties":{"id":"bus-940-s10227","kind":"busstop","ref":"940","name":"Mezarlıkbaşı","lines":["470","681","691","910","950"]},"geometry":{"type":"Point","coordinates":[27.13699,38.4209]}},{"type":"Feature","properties":{"id":"bus-940-s10231","kind":"busstop","ref":"940","name":"Kestelli","lines":["18","19","20","23","72","104","105","171","234","285","374","465","470","471","484","485","680","681","691","811","910","950"]},"geometry":{"type":"Point","coordinates":[27.1348,38.4156]}},{"type":"Feature","properties":{"id":"bus-940-s10235","kind":"busstop","ref":"940","name":"Koruluk","lines":["23","72","104","105","171","234","285","374","465","470","471","484","485","680","691","910","950"]},"geometry":{"type":"Point","coordinates":[27.1309,38.4123]}},{"type":"Feature","properties":{"id":"bus-940-s12057","kind":"busstop","ref":"940","name":"Eşrefpaşa","lines":["72","104","105","171","233","234","285","374","465","470","471","484","485"]},"geometry":{"type":"Point","coordinates":[27.1285,38.4081]}},{"type":"Feature","properties":{"id":"bus-940-s12065","kind":"busstop","ref":"940","name":"Yağhaneler 2","lines":["72","104","105","171","233","234","285","374","465","470","471","484","485"]},"geometry":{"type":"Point","coordinates":[27.13044,38.40104]}},{"type":"Feature","properties":{"id":"bus-940-s12069","kind":"busstop","ref":"940","name":"Konak Anadolu Lisesi","lines":["72","104","105","171","233","234","285","374","465","470","471","484","485"]},"geometry":{"type":"Point","coordinates":[27.1312,38.399]}},{"type":"Feature","properties":{"id":"bus-940-s12071","kind":"busstop","ref":"940","name":"Şelale Parkı","lines":["72","104","105","171","233","234","285","374","465","470","471","484","485"]},"geometry":{"type":"Point","coordinates":[27.13419,38.39567]}},{"type":"Feature","properties":{"id":"bus-940-s40001","kind":"busstop","ref":"940","name":"Nato","lines":["72","104","285","374","465","470","471","485","490","515","671"]},"geometry":{"type":"Point","coordinates":[27.1434,38.3933]}},{"type":"Feature","properties":{"id":"bus-940-s40003","kind":"busstop","ref":"940","name":"Şirinyer Merkez","lines":["104","470","490","515"]},"geometry":{"type":"Point","coordinates":[27.1485,38.39285]}},{"type":"Feature","properties":{"id":"bus-940-s40011","kind":"busstop","ref":"940","name":"Yeni Mahalle","lines":["104","206","285","303","304","374","470","476","490","515","536","676","805","874","875","876"]},"geometry":{"type":"Point","coordinates":[27.1564,38.3913]}},{"type":"Feature","properties":{"id":"bus-940-s40013","kind":"busstop","ref":"940","name":"Buca Vergi Dairesi","lines":["104","206","285","303","304","374","470","476","490","515","536","676","805","874","875","876"]},"geometry":{"type":"Point","coordinates":[27.1594,38.3909]}},{"type":"Feature","properties":{"id":"bus-940-s40015","kind":"busstop","ref":"940","name":"Buca Belediye Sarayı","lines":["104","206","285","303","304","374","470","476","490","515","536","676","805","874","875","876"]},"geometry":{"type":"Point","coordinates":[27.163,38.3904]}},{"type":"Feature","properties":{"id":"bus-940-s40019","kind":"busstop","ref":"940","name":"İzmir Meslek Yüksek Okulu","lines":["104","206","303","304","470","476","490","515","536","676","805"]},"geometry":{"type":"Point","coordinates":[27.1684,38.3893]}},{"type":"Feature","properties":{"id":"bus-940-s40025","kind":"busstop","ref":"940","name":"Buca Heykel","lines":["104","206","303","304","470","476","490","515","536","676","805"]},"geometry":{"type":"Point","coordinates":[27.1727,38.3882]}},{"type":"Feature","properties":{"id":"bus-940-s40035","kind":"busstop","ref":"940","name":"Dokuz Eylül Eğitim Fakültesi","lines":["104","206","304","470","476","515","536","676","805"]},"geometry":{"type":"Point","coordinates":[27.1708,38.3861]}},{"type":"Feature","properties":{"id":"bus-940-s40037","kind":"busstop","ref":"940","name":"Buca Devlet Hastanesi","lines":["104","206","304","470","476","490","515","536","676","805"]},"geometry":{"type":"Point","coordinates":[27.169,38.3843]}},{"type":"Feature","properties":{"id":"bus-940-s40737","kind":"busstop","ref":"940","name":"Buca Sağlık Ocağı","lines":["104","206","304","353","465","470","471","472","476","490","515","536","676","805","866","878"]},"geometry":{"type":"Point","coordinates":[27.1728,38.3828]}},{"type":"Feature","properties":{"id":"bus-940-s40739","kind":"busstop","ref":"940","name":"Buca Üçkuyular Meydan","lines":["104","304","465","470","471","472","476","490","515","536","676","805","866","878"]},"geometry":{"type":"Point","coordinates":[27.1758,38.3823]}},{"type":"Feature","properties":{"id":"bus-940-s40079","kind":"busstop","ref":"940","name":"Hasan Ağa Bahçesi","lines":["174","175","176","177","304","536","866"]},"geometry":{"type":"Point","coordinates":[27.18,38.3812]}},{"type":"Feature","properties":{"id":"bus-940-s40081","kind":"busstop","ref":"940","name":"Eski Mezarlık","lines":["866"]},"geometry":{"type":"Point","coordinates":[27.1823,38.3816]}},{"type":"Feature","properties":{"id":"bus-940-s40577","kind":"busstop","ref":"940","name":"Fakülte","lines":["104","174","175","176","177"]},"geometry":{"type":"Point","coordinates":[27.1827,38.3842]}},{"type":"Feature","properties":{"id":"bus-940-s40574","kind":"busstop","ref":"940","name":"Adatepe","lines":["104","174","175","176","177"]},"geometry":{"type":"Point","coordinates":[27.18523,38.38519]}},{"type":"Feature","properties":{"id":"bus-940-s40581","kind":"busstop","ref":"940","name":"Adatepe Son Durak","lines":["174","175","176","177"]},"geometry":{"type":"Point","coordinates":[27.18673,38.38503]}}]}