{"type":"FeatureCollection","features":[{"type":"Feature","properties":{"id":"bus-969-1","kind":"busline","ref":"969","dir":1},"geometry":{"type":"LineString","coordinates":[[27.0386,38.3891],[27.0389,38.3892],[27.0377,38.3891],[27.0382,38.388],[27.0386,38.3878],[27.0405,38.3875],[27.046,38.3877],[27.0511,38.3868],[27.0574,38.3849],[27.0582,38.3843],[27.0583,38.3831],[27.0582,38.3828],[27.0575,38.3823],[27.0569,38.3821],[27.0595,38.3812],[27.0607,38.3837],[27.0615,38.3844],[27.062,38.3865],[27.062,38.387],[27.0614,38.3869],[27.0603,38.3884],[27.0598,38.391],[27.0595,38.3909],[27.0591,38.3921],[27.0595,38.3928],[27.0596,38.3939],[27.0621,38.3957],[27.0623,38.3961],[27.0638,38.3967],[27.0672,38.3972],[27.0685,38.3972],[27.0693,38.397],[27.0703,38.397],[27.0705,38.3972],[27.0703,38.3976],[27.0699,38.3976],[27.0647,38.3971],[27.065,38.3973],[27.0649,38.3979],[27.0657,38.3986],[27.0658,38.399],[27.0661,38.399],[27.0662,38.3987],[27.0666,38.3988],[27.0671,38.3983],[27.0662,38.3978],[27.0658,38.3982],[27.0664,38.3986]]}},{"type":"Feature","properties":{"id":"bus-969-2","kind":"busline","ref":"969","dir":2},"geometry":{"type":"LineString","coordinates":[[27.0664,38.3986],[27.0665,38.3987],[27.067,38.3983],[27.0663,38.3978],[27.066,38.3978],[27.0657,38.3981],[27.0662,38.3986],[27.0662,38.3989],[27.0658,38.399],[27.0657,38.3986],[27.0649,38.3979],[27.065,38.3973],[27.0647,38.3971],[27.062,38.3967],[27.0606,38.3961],[27.0576,38.3956],[27.0574,38.3954],[27.0576,38.395],[27.0579,38.395],[27.0581,38.3903],[27.0588,38.3877],[27.0586,38.3856],[27.0583,38.3846],[27.0519,38.3866],[27.046,38.3877],[27.0405,38.3875],[27.0389,38.3878],[27.0383,38.3882],[27.038,38.3889],[27.0381,38.3891],[27.0389,38.3892],[27.0386,38.3891]]}},{"type":"Feature","properties":{"id":"bus-969-s50176","kind":"busstop","ref":"969","name":"Balçova Son Durak","lines":["481","510","650"]},"geometry":{"type":"Point","coordinates":[27.03869,38.38883]}},{"type":"Feature","properties":{"id":"bus-969-s52626","kind":"busstop","ref":"969","name":"Ahmet Hakkı Balcıoğlu Mesleki Anadolu Lisesi","lines":["480","551"]},"geometry":{"type":"Point","coordinates":[27.03943,38.38769]}},{"type":"Feature","properties":{"id":"bus-969-s50174","kind":"busstop","ref":"969","name":"Teleferik","lines":["480","551","950"]},"geometry":{"type":"Point","coordinates":[27.0423,38.3874]}},{"type":"Feature","properties":{"id":"bus-969-s50172","kind":"busstop","ref":"969","name":"Ekonomi Üniversitesi","lines":["480","551","950"]},"geometry":{"type":"Point","coordinates":[27.0465,38.3875]}},{"type":"Feature","properties":{"id":"bus-969-s50170","kind":"busstop","ref":"969","name":"Salih Dede Anadolu Lisesi","lines":["480","551","950"]},"geometry":{"type":"Point","coordinates":[27.049,38.387]}},{"type":"Feature","properties":{"id":"bus-969-s50168","kind":"busstop","ref":"969","name":"Çifte Selviler","lines":["480","551","950"]},"geometry":{"type":"Point","coordinates":[27.05222,38.38636]}},{"type":"Feature","properties":{"id":"bus-969-s50166","kind":"busstop","ref":"969","name":"Gümüş","lines":["480","551","950"]},"geometry":{"type":"Point","coordinates":[27.0563,38.3851]}},{"type":"Feature","properties":{"id":"bus-969-s50159","kind":"busstop","ref":"969","name":"Merkez Cami","lines":["167","480","551","950"]},"geometry":{"type":"Point","coordinates":[27.0581,38.3829]}},{"type":"Feature","properties":{"id":"bus-969-s50165","kind":"busstop","ref":"969","name":"Asmaaltı","lines":["167","480","551","950"]},"geometry":{"type":"Point","coordinates":[27.05798,38.38165]}},{"type":"Feature","properties":{"id":"bus-969-s50150","kind":"busstop","ref":"969","name":"Tatbikat Cami","lines":["167","480","551","950"]},"geometry":{"type":"Point","coordinates":[27.06059,38.38323]}},{"type":"Feature","properties":{"id":"bus-969-s50152","kind":"busstop","ref":"969","name":"Duygu","lines":["167","480","551","950"]},"geometry":{"type":"Point","coordinates":[27.06176,38.38559]}},{"type":"Feature","properties":{"id":"bus-969-s50154","kind":"busstop","ref":"969","name":"Kabristan","lines":["167","480","551","950"]},"geometry":{"type":"Point","coordinates":[27.06046,38.38834]}},{"type":"Feature","properties":{"id":"bus-969-s50142","kind":"busstop","ref":"969","name":"Ziya Gökalp","lines":["167","480","551","950"]},"geometry":{"type":"Point","coordinates":[27.05924,38.39197]}},{"type":"Feature","properties":{"id":"bus-969-s50140","kind":"busstop","ref":"969","name":"Barış","lines":["167","480","551","950"]},"geometry":{"type":"Point","coordinates":[27.0604,38.3945]}},{"type":"Feature","properties":{"id":"bus-969-s50138","kind":"busstop","ref":"969","name":"İkiztepe","lines":["167","480","551","950"]},"geometry":{"type":"Point","coordinates":[27.0629,38.3962]}},{"type":"Feature","properties":{"id":"bus-969-s51826","kind":"busstop","ref":"969","name":"Fahrettin Altay Meydan 3","lines":["8","10","17","671","690","873"]},"geometry":{"type":"Point","coordinates":[27.06956,38.39767]}},{"type":"Feature","properties":{"id":"bus-969-s51914","kind":"busstop","ref":"969","name":"Fahrettin Altay Aktarma Merkezi","lines":[]},"geometry":{"type":"Point","coordinates":[27.06646,38.39857]}},{"type":"Feature","properties":{"id":"bus-969-s50147","kind":"busstop","ref":"969","name":"Balçova İstasyon","lines":["167","480","551","950"]},"geometry":{"type":"Point","coordinates":[27.05797,38.39349]}},{"type":"Feature","properties":{"id":"bus-969-s50149","kind":"busstop","ref":"969","name":"Balçova Anadolu Lisesi","lines":["167","480","551","950"]},"geometry":{"type":"Point","coordinates":[27.0582,38.3897]}},{"type":"Feature","properties":{"id":"bus-969-s50151","kind":"busstop","ref":"969","name":"Sevgi Yolu","lines":["167","480","551","950"]},"geometry":{"type":"Point","coordinates":[27.0588,38.3875]}},{"type":"Feature","properties":{"id":"bus-969-s50153","kind":"busstop","ref":"969","name":"Balçova Belediyesi","lines":["167","480","551","950"]},"geometry":{"type":"Point","coordinates":[27.0584,38.3854]}},{"type":"Feature","properties":{"id":"bus-969-s50167","kind":"busstop","ref":"969","name":"Aydibi","lines":["480","551","950"]},"geometry":{"type":"Point","coordinates":[27.0575,38.3848]}},{"type":"Feature","properties":{"id":"bus-969-s50169","kind":"busstop","ref":"969","name":"Gümüş","lines":["480","551","950"]},"geometry":{"type":"Point","coordinates":[27.0554,38.3854]}},{"type":"Feature","properties":{"id":"bus-969-s50171","kind":"busstop","ref":"969","name":"Çifte Selviler","lines":["480","551","950"]},"geometry":{"type":"Point","coordinates":[27.0528,38.3863]}},{"type":"Feature","properties":{"id":"bus-969-s50173","kind":"busstop","ref":"969","name":"Salih Dede Anadolu Lisesi","lines":["480","551","950"]},"geometry":{"type":"Point","coordinates":[27.04832,38.38723]}},{"type":"Feature","properties":{"id":"bus-969-s50175","kind":"busstop","ref":"969","name":"Teleferik","lines":["480","481","483","551","950"]},"geometry":{"type":"Point","coordinates":[27.0429,38.38762]}},{"type":"Feature","properties":{"id":"bus-969-s50177","kind":"busstop","ref":"969","name":"Turem","lines":["480","481","551","950"]},"geometry":{"type":"Point","coordinates":[27.0409,38.3875]}},{"type":"Feature","properties":{"id":"bus-969-s52627","kind":"busstop","ref":"969","name":"Ahmet Hakkı Balcıoğlu Mesleki Anadolu Lises","lines":["480","551"]},"geometry":{"type":"Point","coordinates":[27.03961,38.38773]}}]}