{"type":"FeatureCollection","features":[{"type":"Feature","properties":{"id":"bus-971-1","kind":"busline","ref":"971","dir":1},"geometry":{"type":"LineString","coordinates":[[27.0203,38.3861],[27.0197,38.3862],[27.0195,38.386],[27.0191,38.385],[27.0186,38.3845],[27.0187,38.3844],[27.0196,38.3849],[27.0203,38.3848],[27.0206,38.3851],[27.0211,38.3852],[27.0219,38.3851],[27.0219,38.3849],[27.0182,38.3828],[27.0173,38.3828],[27.0168,38.3825],[27.0173,38.3828],[27.0182,38.3828],[27.0219,38.3849],[27.0219,38.3851],[27.0211,38.3852],[27.0206,38.3851],[27.0203,38.3848],[27.0196,38.3849],[27.019,38.3845],[27.0179,38.3842],[27.0147,38.384],[27.0152,38.383],[27.0153,38.3819],[27.0151,38.3817],[27.014,38.3818],[27.0135,38.3816],[27.0128,38.3819],[27.0129,38.3815],[27.0126,38.3792],[27.0115,38.378],[27.0111,38.378],[27.0115,38.3818],[27.0118,38.3824],[27.012,38.3825],[27.0127,38.3822],[27.0129,38.3816],[27.0128,38.3814],[27.014,38.3818],[27.0154,38.3815],[27.0154,38.3819],[27.0145,38.383],[27.0137,38.3836],[27.0134,38.3846],[27.0126,38.3858],[27.0127,38.3865],[27.0132,38.3869],[27.013,38.3875],[27.0134,38.3883],[27.0135,38.389],[27.0142,38.39],[27.014,38.3906],[27.0144,38.3912],[27.0153,38.3915],[27.0159,38.3905],[27.0157,38.3901],[27.015,38.3896],[27.0153,38.3893],[27.0158,38.3894],[27.0169,38.3906],[27.0185,38.3936],[27.0255,38.3925],[27.0318,38.3929],[27.0362,38.3938],[27.0393,38.3942],[27.0418,38.3942],[27.0433,38.394],[27.0481,38.3942],[27.0533,38.3939],[27.0581,38.395],[27.0615,38.3963],[27.0632,38.3967],[27.0672,38.3972],[27.0685,38.3972],[27.0693,38.397],[27.0703,38.397],[27.0705,38.3972],[27.0703,38.3976],[27.0654,38.3972],[27.0651,38.3975],[27.0652,38.3979],[27.0662,38.3987],[27.0666,38.3988],[27.0671,38.3984],[27.0663,38.3978],[27.0658,38.3982],[27.0661,38.3983]]}},{"type":"Feature","properties":{"id":"bus-971-2","kind":"busline","ref":"971","dir":2},"geometry":{"type":"LineString","coordinates":[[27.0661,38.3983],[27.0658,38.3982],[27.0663,38.3978],[27.0671,38.3984],[27.0666,38.3988],[27.0662,38.3987],[27.0661,38.399],[27.0658,38.399],[27.0657,38.3986],[27.0649,38.3979],[27.065,38.3973],[27.0647,38.3971],[27.062,38.3967],[27.0606,38.3961],[27.0576,38.3956],[27.0571,38.3952],[27.0537,38.3942],[27.0476,38.3944],[27.0426,38.3942],[27.041,38.3944],[27.0383,38.3944],[27.0367,38.3939],[27.0306,38.3929],[27.0258,38.3926],[27.0229,38.3929],[27.0182,38.3938],[27.0183,38.3934],[27.0169,38.3906],[27.0158,38.3894],[27.0153,38.3893],[27.015,38.3896],[27.0157,38.3901],[27.0159,38.3905],[27.0153,38.3915],[27.0144,38.3912],[27.014,38.3906],[27.0142,38.39],[27.0135,38.389],[27.0134,38.3883],[27.013,38.3875],[27.0132,38.3869],[27.0127,38.3865],[27.0126,38.3858],[27.0134,38.3846],[27.0137,38.3836],[27.0145,38.383],[27.0152,38.3818],[27.014,38.3818],[27.0133,38.3816],[27.0129,38.3818],[27.0127,38.3822],[27.012,38.3825],[27.0118,38.3824],[27.0115,38.3818],[27.0111,38.378],[27.0115,38.378],[27.0126,38.3792],[27.0128,38.3814],[27.014,38.3818],[27.0154,38.3815],[27.0154,38.3823],[27.0147,38.384],[27.0179,38.3842],[27.019,38.3845],[27.0196,38.3849],[27.0203,38.3848],[27.0206,38.3851],[27.0211,38.3852],[27.0219,38.3851],[27.0219,38.3849],[27.0182,38.3828],[27.0173,38.3828],[27.0168,38.3825],[27.0173,38.3828],[27.0182,38.3828],[27.0219,38.3849],[27.0219,38.3851],[27.0211,38.3852],[27.0206,38.3851],[27.0203,38.3848],[27.0196,38.3849],[27.0187,38.3844],[27.0186,38.3845],[27.0191,38.385],[27.0195,38.386],[27.0197,38.3862],[27.0203,38.3861]]}},{"type":"Feature","properties":{"id":"bus-971-s50877","kind":"busstop","ref":"971","name":"Narbel Son Durak","lines":[]},"geometry":{"type":"Point","coordinates":[27.0204,38.3862]}},{"type":"Feature","properties":{"id":"bus-971-s52115","kind":"busstop","ref":"971","name":"Tepe","lines":[]},"geometry":{"type":"Point","coordinates":[27.02153,38.3851]}},{"type":"Feature","properties":{"id":"bus-971-s52091","kind":"busstop","ref":"971","name":"Seyir","lines":[]},"geometry":{"type":"Point","coordinates":[27.02119,38.38458]}},{"type":"Feature","properties":{"id":"bus-971-s52089","kind":"busstop","ref":"971","name":"Uğur Mumcu","lines":[]},"geometry":{"type":"Point","coordinates":[27.0189,38.38326]}},{"type":"Feature","properties":{"id":"bus-971-s52128","kind":"busstop","ref":"971","name":"Gökkuşağı","lines":[]},"geometry":{"type":"Point","coordinates":[27.01686,38.38268]}},{"type":"Feature","properties":{"id":"bus-971-s52090","kind":"busstop","ref":"971","name":"Uğur Mumcu","lines":[]},"geometry":{"type":"Point","coordinates":[27.01912,38.38328]}},{"type":"Feature","properties":{"id":"bus-971-s52092","kind":"busstop","ref":"971","name":"Seyir","lines":[]},"geometry":{"type":"Point","coordinates":[27.02144,38.38459]}},{"type":"Feature","properties":{"id":"bus-971-s52114","kind":"busstop","ref":"971","name":"Tepe","lines":[]},"geometry":{"type":"Point","coordinates":[27.02129,38.38522]}},{"type":"Feature","properties":{"id":"bus-971-s50876","kind":"busstop","ref":"971","name":"Altınova Sitesi","lines":[]},"geometry":{"type":"Point","coordinates":[27.018,38.3843]}},{"type":"Feature","properties":{"id":"bus-971-s50874","kind":"busstop","ref":"971","name":"Maltepe Sitesi","lines":[]},"geometry":{"type":"Point","coordinates":[27.015,38.3841]}},{"type":"Feature","properties":{"id":"bus-971-s50247","kind":"busstop","ref":"971","name":"Hasan İçyer Ortaokulu","lines":[]},"geometry":{"type":"Point","coordinates":[27.01266,38.38011]}},{"type":"Feature","properties":{"id":"bus-971-s50249","kind":"busstop","ref":"971","name":"Radar","lines":[]},"geometry":{"type":"Point","coordinates":[27.01129,38.37846]}},{"type":"Feature","properties":{"id":"bus-971-s50251","kind":"busstop","ref":"971","name":"Trafo","lines":[]},"geometry":{"type":"Point","coordinates":[27.0114,38.3802]}},{"type":"Feature","properties":{"id":"bus-971-s50253","kind":"busstop","ref":"971","name":"Vadi","lines":[]},"geometry":{"type":"Point","coordinates":[27.0116,38.382]}},{"type":"Feature","properties":{"id":"bus-971-s50252","kind":"busstop","ref":"971","name":"Yaşar Kemal Kültür Merkezi","lines":[]},"geometry":{"type":"Point","coordinates":[27.01364,38.3816]}},{"type":"Feature","properties":{"id":"bus-971-s50238","kind":"busstop","ref":"971","name":"Narbel Çeşme","lines":[]},"geometry":{"type":"Point","coordinates":[27.01503,38.38235]}},{"type":"Feature","properties":{"id":"bus-971-s50242","kind":"busstop","ref":"971","name":"Narlıdere İzmir Evleri","lines":[]},"geometry":{"type":"Point","coordinates":[27.0135,38.3846]}},{"type":"Feature","properties":{"id":"bus-971-s50240","kind":"busstop","ref":"971","name":"İkinci İnönü Mahalle Muhtarlığı","lines":[]},"geometry":{"type":"Point","coordinates":[27.0135,38.3884]}},{"type":"Feature","properties":{"id":"bus-971-s50226","kind":"busstop","ref":"971","name":"İkinci İnönü Meydan","lines":["305"]},"geometry":{"type":"Point","coordinates":[27.0141,38.3901]}},{"type":"Feature","properties":{"id":"bus-971-s50224","kind":"busstop","ref":"971","name":"Çocuk Parkı","lines":["305"]},"geometry":{"type":"Point","coordinates":[27.0155,38.3912]}},{"type":"Feature","properties":{"id":"bus-971-s50222","kind":"busstop","ref":"971","name":"Maltepe","lines":["305"]},"geometry":{"type":"Point","coordinates":[27.0159,38.3895]}},{"type":"Feature","properties":{"id":"bus-971-s50220","kind":"busstop","ref":"971","name":"Çayırlı","lines":["305"]},"geometry":{"type":"Point","coordinates":[27.0182,38.393]}},{"type":"Feature","properties":{"id":"bus-971-s50030","kind":"busstop","ref":"971","name":"Balcı","lines":["5","6","7","8","82","305","321","551","909","950","975","981","982","983","984","985","987"]},"geometry":{"type":"Point","coordinates":[27.0204,38.3932]}},{"type":"Feature","properties":{"id":"bus-971-s50028","kind":"busstop","ref":"971","name":"Güzel Sanatlar Fakültesi","lines":["5","6","7","8","82","305"]},"geometry":{"type":"Point","coordinates":[27.0244,38.3926]}},{"type":"Feature","properties":{"id":"bus-971-s50026","kind":"busstop","ref":"971","name":"İzsu","lines":["5","6","7","8","82","305","321","551","909","950","975","981","982","983","984","985","987"]},"geometry":{"type":"Point","coordinates":[27.0264,38.3925]}},{"type":"Feature","properties":{"id":"bus-971-s50024","kind":"busstop","ref":"971","name":"Kantar","lines":["5","6","7","8","82","305","321","551","909","950","975","981","982","983","984","985","987"]},"geometry":{"type":"Point","coordinates":[27.02975,38.39273]}},{"type":"Feature","properties":{"id":"bus-971-s50022","kind":"busstop","ref":"971","name":"Dokuz Eylül","lines":["5","6","7","8","82","305","321","551","909","950","975","981","982","983","984","985","987"]},"geometry":{"type":"Point","coordinates":[27.0336,38.3932]}},{"type":"Feature","properties":{"id":"bus-971-s50020","kind":"busstop","ref":"971","name":"Dokuz Eylül Hastanesi İstasyon","lines":["5","6","7","8","82","305","311","321","481","483","510","650","909","975","981","982","983","984","985","987"]},"geometry":{"type":"Point","coordinates":[27.0394,38.39413]}},{"type":"Feature","properties":{"id":"bus-971-s50018","kind":"busstop","ref":"971","name":"Hoca","lines":["5","6","7","8","82","305","311","321","481","510","650","909","975","981","982","983","984","985","987"]},"geometry":{"type":"Point","coordinates":[27.04249,38.39406]}},{"type":"Feature","properties":{"id":"bus-971-s50016","kind":"busstop","ref":"971","name":"Çağdaş İstasyon","lines":["5","6","7","8","82","305","311","321","510","650","909","975","981","982","983","984","985","987"]},"geometry":{"type":"Point","coordinates":[27.04672,38.39407]}},{"type":"Feature","properties":{"id":"bus-971-s50014","kind":"busstop","ref":"971","name":"İş Bankası Evleri","lines":["5","6","7","8","82","305","311","321","510","650","909","975","981","982","983","984","985","987"]},"geometry":{"type":"Point","coordinates":[27.0493,38.394]}},{"type":"Feature","properties":{"id":"bus-971-s50012","kind":"busstop","ref":"971","name":"Molla Kuyusu","lines":["5","6","7","8","82","305","311","321","481","510","650","909","975","981","982","983","984","985","987"]},"geometry":{"type":"Point","coordinates":[27.0532,38.39388]}},{"type":"Feature","properties":{"id":"bus-971-s50010","kind":"busstop","ref":"971","name":"Balçova İstasyon","lines":["5","6","7","8","82","305","311","321","481","510","650","909","975","981","982","983","984","985","987"]},"geometry":{"type":"Point","coordinates":[27.0569,38.3947]}},{"type":"Feature","properties":{"id":"bus-971-s50008","kind":"busstop","ref":"971","name":"Beyaz","lines":["5","6","7","8","24","25","82","202","305","311","321","481","510","650","909","975","977","981","982","983","984","985","987"]},"geometry":{"type":"Point","coordinates":[27.06161,38.39621]}},{"type":"Feature","properties":{"id":"bus-971-s50004","kind":"busstop","ref":"971","name":"Fahrettin Altay Meydan 9 ","lines":["5","6","7","10","24","25","82","167","202","305","311","321","480","510","551","650","675","684","883","909","945","946","975","977","981","982","983","984","985","987"]},"geometry":{"type":"Point","coordinates":[27.0686,38.3971]}},{"type":"Feature","properties":{"id":"bus-971-s51918","kind":"busstop","ref":"971","name":"Fahrettin Altay Aktarma Merkezi","lines":[]},"geometry":{"type":"Point","coordinates":[27.06608,38.39831]}},{"type":"Feature","properties":{"id":"bus-971-s50011","kind":"busstop","ref":"971","name":"Balçova İstasyon","lines":["5","6","7","8","82","305","311","321","481","510","650","811","909","975","981","982","983","984","985","987"]},"geometry":{"type":"Point","coordinates":[27.05601,38.39495]}},{"type":"Feature","properties":{"id":"bus-971-s50013","kind":"busstop","ref":"971","name":"Molla Kuyusu","lines":["5","6","7","8","82","305","311","321","510","650","811","909","975","981","982","983","984","985","987"]},"geometry":{"type":"Point","coordinates":[27.0515,38.3942]}},{"type":"Feature","properties":{"id":"bus-971-s50015","kind":"busstop","ref":"971","name":"İş Bankası Evleri","lines":["5","6","7","8","82","305","311","321","510","811","909","975","981","982","983","984","985","987"]},"geometry":{"type":"Point","coordinates":[27.04861,38.39441]}},{"type":"Feature","properties":{"id":"bus-971-s50017","kind":"busstop","ref":"971","name":"Çağdaş İstasyon","lines":["5","6","7","8","82","305","311","321","510","650","811","909","975","981","982","983","984","985","987"]},"geometry":{"type":"Point","coordinates":[27.04563,38.39437]}},{"type":"Feature","properties":{"id":"bus-971-s50019","kind":"busstop","ref":"971","name":"Hoca","lines":["5","6","7","8","82","305","311","321","510","650","811","909","975","981","982","983","984","985","987"]},"geometry":{"type":"Point","coordinates":[27.0424,38.3943]}},{"type":"Feature","properties":{"id":"bus-971-s50021","kind":"busstop","ref":"971","name":"Dokuz Eylül Hastanesi İstasyon","lines":["5","6","7","8","82","305","311","321","650","811","909","975","981","982","983","984","985","987"]},"geometry":{"type":"Point","coordinates":[27.0388,38.3944]}},{"type":"Feature","properties":{"id":"bus-971-s50023","kind":"busstop","ref":"971","name":"Dokuz Eylül","lines":["5","6","7","8","82","305","321","551","909","950","975","981","982","983","984","985","987"]},"geometry":{"type":"Point","coordinates":[27.0331,38.3933]}},{"type":"Feature","properties":{"id":"bus-971-s50025","kind":"busstop","ref":"971","name":"Kantar","lines":["5","6","7","8","82","305","321","551","909","950","975","981","982","983","984","985","987"]},"geometry":{"type":"Point","coordinates":[27.02682,38.39278]}},{"type":"Feature","properties":{"id":"bus-971-s50027","kind":"busstop","ref":"971","name":"Güzel Sanatlar Fakültesi","lines":["5","6","7","8","82","305","321","551","909","950","975","981","982","983","984","985","987"]},"geometry":{"type":"Point","coordinates":[27.024,38.3929]}},{"type":"Feature","properties":{"id":"bus-971-s50221","kind":"busstop","ref":"971","name":"Çayırlı","lines":["305"]},"geometry":{"type":"Point","coordinates":[27.018,38.3928]}},{"type":"Feature","properties":{"id":"bus-971-s50223","kind":"busstop","ref":"971","name":"Maltepe","lines":["305"]},"geometry":{"type":"Point","coordinates":[27.0158,38.3894]}},{"type":"Feature","properties":{"id":"bus-971-s50225","kind":"busstop","ref":"971","name":"Çocuk Parkı","lines":["305"]},"geometry":{"type":"Point","coordinates":[27.0156,38.3913]}},{"type":"Feature","properties":{"id":"bus-971-s50227","kind":"busstop","ref":"971","name":"İkinci İnönü Meydan","lines":["305"]},"geometry":{"type":"Point","coordinates":[27.01407,38.39018]}},{"type":"Feature","properties":{"id":"bus-971-s50241","kind":"busstop","ref":"971","name":"İkinci İnönü Muhtarlık","lines":[]},"geometry":{"type":"Point","coordinates":[27.0134,38.3884]}},{"type":"Feature","properties":{"id":"bus-971-s50243","kind":"busstop","ref":"971","name":"Narlıdere İzmir Evleri","lines":[]},"geometry":{"type":"Point","coordinates":[27.01313,38.38487]}},{"type":"Feature","properties":{"id":"bus-971-s50239","kind":"busstop","ref":"971","name":"Narbel Çeşme","lines":[]},"geometry":{"type":"Point","coordinates":[27.0147,38.3827]}},{"type":"Feature","properties":{"id":"bus-971-s50245","kind":"busstop","ref":"971","name":"Yaşar Kemal Kültür Merkezi","lines":[]},"geometry":{"type":"Point","coordinates":[27.01396,38.38182]}},{"type":"Feature","properties":{"id":"bus-971-s50250","kind":"busstop","ref":"971","name":"Vadi","lines":[]},"geometry":{"type":"Point","coordinates":[27.0115,38.382]}},{"type":"Feature","properties":{"id":"bus-971-s50248","kind":"busstop","ref":"971","name":"Trafo","lines":[]},"geometry":{"type":"Point","coordinates":[27.0113,38.3802]}},{"type":"Feature","properties":{"id":"bus-971-s50246","kind":"busstop","ref":"971","name":"Radar","lines":[]},"geometry":{"type":"Point","coordinates":[27.01106,38.37823]}},{"type":"Feature","properties":{"id":"bus-971-s50244","kind":"busstop","ref":"971","name":"Hasan İçyer Ortaokulu","lines":[]},"geometry":{"type":"Point","coordinates":[27.01281,38.38031]}},{"type":"Feature","properties":{"id":"bus-971-s50873","kind":"busstop","ref":"971","name":"Maltepe Sitesi","lines":[]},"geometry":{"type":"Point","coordinates":[27.0153,38.384]}},{"type":"Feature","properties":{"id":"bus-971-s50875","kind":"busstop","ref":"971","name":"Altınova Sitesi","lines":[]},"geometry":{"type":"Point","coordinates":[27.0181,38.3842]}}]}