{"type":"FeatureCollection","features":[{"type":"Feature","properties":{"id":"bus-988-1","kind":"busline","ref":"988","dir":1},"geometry":{"type":"LineString","coordinates":[[27.4455,38.4048],[27.4454,38.4049],[27.4459,38.4039],[27.4461,38.4039],[27.446,38.4044],[27.4423,38.4105],[27.4414,38.4117],[27.4399,38.413],[27.4388,38.415],[27.4387,38.4162],[27.4391,38.419],[27.4401,38.4219],[27.4379,38.4216],[27.4356,38.4218],[27.4338,38.4232],[27.4312,38.4235],[27.43,38.4234],[27.4285,38.4243],[27.4263,38.4251],[27.4234,38.4251],[27.4224,38.4253],[27.4212,38.4259],[27.4204,38.4266],[27.4185,38.427],[27.4138,38.4285],[27.4124,38.4287],[27.4103,38.4301],[27.4054,38.4322],[27.4033,38.4346],[27.3996,38.4362],[27.3989,38.437],[27.3978,38.4378],[27.3928,38.4396],[27.3906,38.4399],[27.3879,38.4408],[27.3843,38.4409],[27.3834,38.4415],[27.3817,38.4435],[27.3802,38.4442],[27.3737,38.4498],[27.3711,38.4517],[27.3697,38.4524],[27.3643,38.4544],[27.3597,38.4567],[27.3591,38.4575],[27.3582,38.4595],[27.3574,38.4606],[27.3552,38.4611],[27.3526,38.4612],[27.3478,38.4619],[27.3442,38.4617],[27.3434,38.462],[27.3421,38.463],[27.3417,38.463],[27.3411,38.4624],[27.3407,38.4623],[27.3336,38.4612],[27.3315,38.4605],[27.3271,38.4579],[27.3247,38.456],[27.3235,38.4556],[27.3218,38.4557],[27.3212,38.4555],[27.3196,38.4542],[27.318,38.4535],[27.3164,38.4534],[27.3153,38.4536],[27.3121,38.4552],[27.3105,38.4553],[27.3094,38.455],[27.3067,38.4537],[27.3032,38.4529],[27.3012,38.4522],[27.2979,38.4506],[27.2958,38.4498],[27.2936,38.4494],[27.2917,38.4493],[27.2711,38.4514],[27.2686,38.4518],[27.2663,38.4524],[27.2659,38.4528],[27.2652,38.4528],[27.2534,38.4571],[27.2517,38.4575],[27.2511,38.4581],[27.2534,38.4644],[27.2535,38.4649],[27.2533,38.465],[27.2509,38.4656],[27.2503,38.4654],[27.2497,38.4644],[27.2497,38.464],[27.2484,38.4641],[27.2461,38.4648],[27.2446,38.4655],[27.2432,38.4659],[27.2431,38.4661],[27.2426,38.4659],[27.2412,38.466],[27.2388,38.4657],[27.2365,38.4661],[27.234,38.4671],[27.2337,38.4671],[27.2304,38.4652],[27.2291,38.4661],[27.2283,38.4662],[27.2282,38.4659]]}},{"type":"Feature","properties":{"id":"bus-988-2","kind":"busline","ref":"988","dir":2},"geometry":{"type":"LineString","coordinates":[[27.2282,38.4659],[27.2283,38.466],[27.2282,38.4656],[27.2286,38.4655],[27.2288,38.4661],[27.2291,38.4661],[27.2304,38.4652],[27.234,38.4669],[27.2355,38.4663],[27.2378,38.4657],[27.2409,38.4659],[27.244,38.4657],[27.2479,38.4641],[27.249,38.4636],[27.2491,38.4634],[27.2526,38.4626],[27.2511,38.4583],[27.2504,38.4577],[27.2505,38.4574],[27.2521,38.4572],[27.2538,38.4567],[27.2651,38.4526],[27.2656,38.4521],[27.2665,38.4521],[27.2694,38.4514],[27.2915,38.4492],[27.2937,38.4493],[27.2957,38.4497],[27.2982,38.4506],[27.302,38.4524],[27.3067,38.4536],[27.31,38.4551],[27.3114,38.4552],[27.3123,38.455],[27.3143,38.4539],[27.3157,38.4534],[27.3174,38.4533],[27.3182,38.4535],[27.3194,38.4539],[27.3215,38.4555],[27.3237,38.4555],[27.325,38.4559],[27.3263,38.4572],[27.3285,38.4584],[27.3311,38.4602],[27.3329,38.4609],[27.3345,38.4612],[27.3424,38.4624],[27.3442,38.4616],[27.3478,38.4619],[27.3526,38.4612],[27.3552,38.4611],[27.3574,38.4606],[27.3582,38.4595],[27.3591,38.4575],[27.3597,38.4567],[27.3643,38.4544],[27.3697,38.4524],[27.3711,38.4517],[27.3737,38.4498],[27.3802,38.4442],[27.3817,38.4435],[27.3834,38.4415],[27.3843,38.4409],[27.3879,38.4408],[27.3906,38.4399],[27.3928,38.4396],[27.3978,38.4378],[27.3989,38.437],[27.3996,38.4362],[27.4034,38.4344],[27.4054,38.4322],[27.4103,38.4301],[27.4124,38.4287],[27.4159,38.4279],[27.4164,38.4274],[27.4201,38.4266],[27.4202,38.4264],[27.4207,38.4263],[27.4224,38.4253],[27.4234,38.4251],[27.4263,38.4251],[27.4285,38.4243],[27.4299,38.4233],[27.4312,38.4235],[27.4328,38.4234],[27.434,38.4231],[27.4355,38.4216],[27.4371,38.4188],[27.4392,38.4136],[27.4417,38.4112],[27.4456,38.4046],[27.4455,38.4048]]}},{"type":"Feature","properties":{"id":"bus-988-s31633","kind":"busstop","ref":"988","name":"Pakmaya Ülkü Hızal Anadolu Lisesi","lines":["668","768"]},"geometry":{"type":"Point","coordinates":[27.4455,38.4046]}},{"type":"Feature","properties":{"id":"bus-988-s31656","kind":"busstop","ref":"988","name":"Pakmaya Ülkü Hızal Anadolu Lisesi","lines":["668","768"]},"geometry":{"type":"Point","coordinates":[27.44565,38.40492]}},{"type":"Feature","properties":{"id":"bus-988-s30788","kind":"busstop","ref":"988","name":"Yol Ayrımı","lines":["668","766","767","768","769","772","967"]},"geometry":{"type":"Point","coordinates":[27.4362,38.4218]}},{"type":"Feature","properties":{"id":"bus-988-s30854","kind":"busstop","ref":"988","name":"Kemalpaşa Belediyesi","lines":["668","766","767","768","769","772","967"]},"geometry":{"type":"Point","coordinates":[27.4331,38.4234]}},{"type":"Feature","properties":{"id":"bus-988-s30770","kind":"busstop","ref":"988","name":"Kemalpaşa","lines":["668","766","767","768","769","772","967"]},"geometry":{"type":"Point","coordinates":[27.4296,38.4237]}},{"type":"Feature","properties":{"id":"bus-988-s30768","kind":"busstop","ref":"988","name":"Şehitler Parkı","lines":["668","766","767","768","769","772","967"]},"geometry":{"type":"Point","coordinates":[27.42647,38.42508]}},{"type":"Feature","properties":{"id":"bus-988-s30767","kind":"busstop","ref":"988","name":"Manav","lines":["668","766","767","768","769","772","967"]},"geometry":{"type":"Point","coordinates":[27.42417,38.42514]}},{"type":"Feature","properties":{"id":"bus-988-s30764","kind":"busstop","ref":"988","name":"Çeşme","lines":["668","766","767","768","769","772","967"]},"geometry":{"type":"Point","coordinates":[27.4209,38.42615]}},{"type":"Feature","properties":{"id":"bus-988-s30762","kind":"busstop","ref":"988","name":"Cumhuriyet","lines":["668","766","767","768","769","772","967"]},"geometry":{"type":"Point","coordinates":[27.4181,38.4272]}},{"type":"Feature","properties":{"id":"bus-988-s30760","kind":"busstop","ref":"988","name":"Osmanlı Parkı","lines":["668","766","767","768","772","967"]},"geometry":{"type":"Point","coordinates":[27.4156,38.428]}},{"type":"Feature","properties":{"id":"bus-988-s30758","kind":"busstop","ref":"988","name":"Sekiz Eylül İlkokulu ","lines":["668","766","767","768","772","967"]},"geometry":{"type":"Point","coordinates":[27.412,38.4291]}},{"type":"Feature","properties":{"id":"bus-988-s30756","kind":"busstop","ref":"988","name":"Kemalpaşa Havuz","lines":["668","766","767","768","772","967"]},"geometry":{"type":"Point","coordinates":[27.4088,38.4308]}},{"type":"Feature","properties":{"id":"bus-988-s30754","kind":"busstop","ref":"988","name":"Çınarköy Yolu","lines":["766"]},"geometry":{"type":"Point","coordinates":[27.40424,38.43345]}},{"type":"Feature","properties":{"id":"bus-988-s30752","kind":"busstop","ref":"988","name":"Demirci","lines":["766"]},"geometry":{"type":"Point","coordinates":[27.40277,38.4349]}},{"type":"Feature","properties":{"id":"bus-988-s30772","kind":"busstop","ref":"988","name":"Elit Koleji","lines":["766"]},"geometry":{"type":"Point","coordinates":[27.39701,38.43809]}},{"type":"Feature","properties":{"id":"bus-988-s30697","kind":"busstop","ref":"988","name":"Piyade Teğmen Mehmet Terzioğlu","lines":["766"]},"geometry":{"type":"Point","coordinates":[27.39338,38.43944]}},{"type":"Feature","properties":{"id":"bus-988-s30750","kind":"busstop","ref":"988","name":"Master","lines":["766"]},"geometry":{"type":"Point","coordinates":[27.38869,38.44065]}},{"type":"Feature","properties":{"id":"bus-988-s30948","kind":"busstop","ref":"988","name":"Kemalpaşa Koleji","lines":["766"]},"geometry":{"type":"Point","coordinates":[27.38539,38.44084]}},{"type":"Feature","properties":{"id":"bus-988-s30908","kind":"busstop","ref":"988","name":"Şehit Er Bekir VARAL","lines":["766"]},"geometry":{"type":"Point","coordinates":[27.38291,38.44222]}},{"type":"Feature","properties":{"id":"bus-988-s30904","kind":"busstop","ref":"988","name":"Erze","lines":["766"]},"geometry":{"type":"Point","coordinates":[27.379,38.4453]}},{"type":"Feature","properties":{"id":"bus-988-s30748","kind":"busstop","ref":"988","name":"Kızıl Üzüm","lines":["766"]},"geometry":{"type":"Point","coordinates":[27.3768,38.4471]}},{"type":"Feature","properties":{"id":"bus-988-s30746","kind":"busstop","ref":"988","name":"Anıt","lines":["766"]},"geometry":{"type":"Point","coordinates":[27.37204,38.45119]}},{"type":"Feature","properties":{"id":"bus-988-s30774","kind":"busstop","ref":"988","name":"Tekel","lines":["766"]},"geometry":{"type":"Point","coordinates":[27.3679,38.45317]}},{"type":"Feature","properties":{"id":"bus-988-s30744","kind":"busstop","ref":"988","name":"Pepsi","lines":["766"]},"geometry":{"type":"Point","coordinates":[27.3644,38.4545]}},{"type":"Feature","properties":{"id":"bus-988-s30742","kind":"busstop","ref":"988","name":"Pakmaya","lines":["766"]},"geometry":{"type":"Point","coordinates":[27.3591,38.4576]}},{"type":"Feature","properties":{"id":"bus-988-s30740","kind":"busstop","ref":"988","name":"Mopak Mesleki ve Teknik Anadolu Lisesi ","lines":["766"]},"geometry":{"type":"Point","coordinates":[27.3557,38.4611]}},{"type":"Feature","properties":{"id":"bus-988-s30736","kind":"busstop","ref":"988","name":"Istaş","lines":[]},"geometry":{"type":"Point","coordinates":[27.34673,38.46185]}},{"type":"Feature","properties":{"id":"bus-988-s30352","kind":"busstop","ref":"988","name":"Fabrika","lines":["949","966"]},"geometry":{"type":"Point","coordinates":[27.33819,38.46195]}},{"type":"Feature","properties":{"id":"bus-988-s30350","kind":"busstop","ref":"988","name":"Maliye","lines":["949","966"]},"geometry":{"type":"Point","coordinates":[27.33541,38.46155]}},{"type":"Feature","properties":{"id":"bus-988-s30348","kind":"busstop","ref":"988","name":"Belkahve Çay Bahçesi","lines":["949","966"]},"geometry":{"type":"Point","coordinates":[27.3157,38.4536]}},{"type":"Feature","properties":{"id":"bus-988-s30346","kind":"busstop","ref":"988","name":"İzbeton","lines":["949","966"]},"geometry":{"type":"Point","coordinates":[27.28759,38.44985]}},{"type":"Feature","properties":{"id":"bus-988-s30332","kind":"busstop","ref":"988","name":"Çimento Fabrikası","lines":["111","317","949","966"]},"geometry":{"type":"Point","coordinates":[27.26454,38.45307]}},{"type":"Feature","properties":{"id":"bus-988-s30344","kind":"busstop","ref":"988","name":"Terbay","lines":["111","317","949","966"]},"geometry":{"type":"Point","coordinates":[27.2572,38.4558]}},{"type":"Feature","properties":{"id":"bus-988-s30340","kind":"busstop","ref":"988","name":"Dördüncü Sanayi Kavşağı","lines":["111","317","949","966"]},"geometry":{"type":"Point","coordinates":[27.2525,38.4574]}},{"type":"Feature","properties":{"id":"bus-988-s31467","kind":"busstop","ref":"988","name":"Türkan Özilhan Devlet Hastanesi","lines":["67","111","314","317","966"]},"geometry":{"type":"Point","coordinates":[27.25155,38.45915]}},{"type":"Feature","properties":{"id":"bus-988-s31469","kind":"busstop","ref":"988","name":"Ses","lines":["67","111","317","966"]},"geometry":{"type":"Point","coordinates":[27.25261,38.46191]}},{"type":"Feature","properties":{"id":"bus-988-s31471","kind":"busstop","ref":"988","name":"Dördüncü Sanayi","lines":["67","111","317","966"]},"geometry":{"type":"Point","coordinates":[27.25339,38.46405]}},{"type":"Feature","properties":{"id":"bus-988-s31485","kind":"busstop","ref":"988","name":"Şehit Erkan Er Ortaokulu","lines":["67","111","314","317","966"]},"geometry":{"type":"Point","coordinates":[27.2516,38.4654]}},{"type":"Feature","properties":{"id":"bus-988-s31475","kind":"busstop","ref":"988","name":"Adil Demir Sitesi","lines":["67","111","314","317","966"]},"geometry":{"type":"Point","coordinates":[27.24725,38.46442]}},{"type":"Feature","properties":{"id":"bus-988-s31477","kind":"busstop","ref":"988","name":"Bornova Kooperatif","lines":["67","111","314","317","966"]},"geometry":{"type":"Point","coordinates":[27.2446,38.4655]}},{"type":"Feature","properties":{"id":"bus-988-s31481","kind":"busstop","ref":"988","name":"Bornova Tenis Kulübü","lines":["67","111","114","317","966"]},"geometry":{"type":"Point","coordinates":[27.23996,38.4659]}},{"type":"Feature","properties":{"id":"bus-988-s31483","kind":"busstop","ref":"988","name":"Profesörler Sitesi","lines":["67","111","114","317","966"]},"geometry":{"type":"Point","coordinates":[27.2357,38.46639]}},{"type":"Feature","properties":{"id":"bus-988-s31779","kind":"busstop","ref":"988","name":"Evka 3 Aktarma Merkezi","lines":["966"]},"geometry":{"type":"Point","coordinates":[27.2282,38.46595]}},{"type":"Feature","properties":{"id":"bus-988-s31484","kind":"busstop","ref":"988","name":"Profesörler Sitesi","lines":["67","111","114","317","966"]},"geometry":{"type":"Point","coordinates":[27.23544,38.46631]}},{"type":"Feature","properties":{"id":"bus-988-s31482","kind":"busstop","ref":"988","name":"Bornova Tenis Kulübü","lines":["67","111","114","317","966"]},"geometry":{"type":"Point","coordinates":[27.2398,38.4657]}},{"type":"Feature","properties":{"id":"bus-988-s31476","kind":"busstop","ref":"988","name":"Bornova Kooperatif","lines":["67","111","314","317","966"]},"geometry":{"type":"Point","coordinates":[27.2443,38.4655]}},{"type":"Feature","properties":{"id":"bus-988-s31474","kind":"busstop","ref":"988","name":"Adil Demir Sitesi","lines":["67","111","314","317","966"]},"geometry":{"type":"Point","coordinates":[27.2477,38.4642]}},{"type":"Feature","properties":{"id":"bus-988-s31472","kind":"busstop","ref":"988","name":"Erez","lines":["67","111","317","966"]},"geometry":{"type":"Point","coordinates":[27.25103,38.46308]}},{"type":"Feature","properties":{"id":"bus-988-s31470","kind":"busstop","ref":"988","name":"Ses","lines":["67","111","317","966"]},"geometry":{"type":"Point","coordinates":[27.2523,38.46185]}},{"type":"Feature","properties":{"id":"bus-988-s31468","kind":"busstop","ref":"988","name":"Türkan Özilhan Devlet Hastanesi","lines":["67","111","314","317","966"]},"geometry":{"type":"Point","coordinates":[27.2511,38.4585]}},{"type":"Feature","properties":{"id":"bus-988-s30341","kind":"busstop","ref":"988","name":"Dördüncü Sanayi Kavşağı","lines":["111","317","949","966"]},"geometry":{"type":"Point","coordinates":[27.2525,38.4571]}},{"type":"Feature","properties":{"id":"bus-988-s30342","kind":"busstop","ref":"988","name":"Terbay","lines":["111","317","949","966"]},"geometry":{"type":"Point","coordinates":[27.2566,38.4556]}},{"type":"Feature","properties":{"id":"bus-988-s30355","kind":"busstop","ref":"988","name":"Çimento Fabrikası","lines":["111","317","949","966"]},"geometry":{"type":"Point","coordinates":[27.26439,38.45272]}},{"type":"Feature","properties":{"id":"bus-988-s30343","kind":"busstop","ref":"988","name":"Mermerci","lines":["949","966"]},"geometry":{"type":"Point","coordinates":[27.26683,38.45195]}},{"type":"Feature","properties":{"id":"bus-988-s30345","kind":"busstop","ref":"988","name":"İzbeton","lines":["949","966"]},"geometry":{"type":"Point","coordinates":[27.28677,38.44966]}},{"type":"Feature","properties":{"id":"bus-988-s30351","kind":"busstop","ref":"988","name":"Belkahve Çay Bahçesi","lines":["949","966"]},"geometry":{"type":"Point","coordinates":[27.3168,38.4532]}},{"type":"Feature","properties":{"id":"bus-988-s30353","kind":"busstop","ref":"988","name":"Maliye","lines":["949","966"]},"geometry":{"type":"Point","coordinates":[27.3349,38.4611]}},{"type":"Feature","properties":{"id":"bus-988-s30735","kind":"busstop","ref":"988","name":"Istaş","lines":[]},"geometry":{"type":"Point","coordinates":[27.34687,38.46175]}},{"type":"Feature","properties":{"id":"bus-988-s30739","kind":"busstop","ref":"988","name":"Mopak Mesleki ve Teknik Anadolu Lisesi ","lines":["766"]},"geometry":{"type":"Point","coordinates":[27.35365,38.46106]}},{"type":"Feature","properties":{"id":"bus-988-s30741","kind":"busstop","ref":"988","name":"Pakmaya","lines":["766"]},"geometry":{"type":"Point","coordinates":[27.359,38.4575]}},{"type":"Feature","properties":{"id":"bus-988-s30743","kind":"busstop","ref":"988","name":"Pepsi","lines":["766"]},"geometry":{"type":"Point","coordinates":[27.36274,38.45502]}},{"type":"Feature","properties":{"id":"bus-988-s30775","kind":"busstop","ref":"988","name":"Tekel","lines":["766"]},"geometry":{"type":"Point","coordinates":[27.36761,38.45308]}},{"type":"Feature","properties":{"id":"bus-988-s30745","kind":"busstop","ref":"988","name":"Anıt","lines":["766"]},"geometry":{"type":"Point","coordinates":[27.37195,38.45099]}},{"type":"Feature","properties":{"id":"bus-988-s30747","kind":"busstop","ref":"988","name":"Kızıl Üzüm","lines":["766"]},"geometry":{"type":"Point","coordinates":[27.3765,38.4472]}},{"type":"Feature","properties":{"id":"bus-988-s30903","kind":"busstop","ref":"988","name":"Erze","lines":["766"]},"geometry":{"type":"Point","coordinates":[27.3794,38.44466]}},{"type":"Feature","properties":{"id":"bus-988-s30907","kind":"busstop","ref":"988","name":"Şehit Er Bekir VARAL","lines":["766"]},"geometry":{"type":"Point","coordinates":[27.3829,38.442]}},{"type":"Feature","properties":{"id":"bus-988-s30949","kind":"busstop","ref":"988","name":"Kemalpaşa Koleji","lines":["766"]},"geometry":{"type":"Point","coordinates":[27.38564,38.4407]}},{"type":"Feature","properties":{"id":"bus-988-s30749","kind":"busstop","ref":"988","name":"Master","lines":["766"]},"geometry":{"type":"Point","coordinates":[27.38849,38.44054]}},{"type":"Feature","properties":{"id":"bus-988-s30696","kind":"busstop","ref":"988","name":"Piyade Teğmen Mehmet Terzioğlu","lines":["766"]},"geometry":{"type":"Point","coordinates":[27.39342,38.43928]}},{"type":"Feature","properties":{"id":"bus-988-s30773","kind":"busstop","ref":"988","name":"Elit Koleji","lines":["766"]},"geometry":{"type":"Point","coordinates":[27.3974,38.4377]}},{"type":"Feature","properties":{"id":"bus-988-s30751","kind":"busstop","ref":"988","name":"Demirci","lines":["766"]},"geometry":{"type":"Point","coordinates":[27.40251,38.43479]}},{"type":"Feature","properties":{"id":"bus-988-s30753","kind":"busstop","ref":"988","name":"Çınarköy Yolu","lines":["668","766","767","768","772","967"]},"geometry":{"type":"Point","coordinates":[27.40508,38.43235]}},{"type":"Feature","properties":{"id":"bus-988-s30755","kind":"busstop","ref":"988","name":"Kemalpaşa Havuz","lines":["668","766","767","768","772","967"]},"geometry":{"type":"Point","coordinates":[27.4087,38.4307]}},{"type":"Feature","properties":{"id":"bus-988-s30757","kind":"busstop","ref":"988","name":"Sekiz Eylül İlkokulu ","lines":["668","766","767","768","772","967"]},"geometry":{"type":"Point","coordinates":[27.41138,38.42933]}},{"type":"Feature","properties":{"id":"bus-988-s30759","kind":"busstop","ref":"988","name":"Osmanlı Parkı","lines":["668","766","767","768","772","967"]},"geometry":{"type":"Point","coordinates":[27.41458,38.42828]}},{"type":"Feature","properties":{"id":"bus-988-s30761","kind":"busstop","ref":"988","name":"Cumhuriyet","lines":["668","766","767","768","769","772","967"]},"geometry":{"type":"Point","coordinates":[27.4174,38.4273]}},{"type":"Feature","properties":{"id":"bus-988-s30763","kind":"busstop","ref":"988","name":"Çeşme","lines":["668","766","767","768","769","772","967"]},"geometry":{"type":"Point","coordinates":[27.42172,38.42558]}},{"type":"Feature","properties":{"id":"bus-988-s30765","kind":"busstop","ref":"988","name":"Manav","lines":["668","766","767","768","769","772","967"]},"geometry":{"type":"Point","coordinates":[27.42444,38.42508]}},{"type":"Feature","properties":{"id":"bus-988-s30769","kind":"busstop","ref":"988","name":"Şehitler Parkı","lines":["668","766","767","768","769","772","967"]},"geometry":{"type":"Point","coordinates":[27.4267,38.4249]}},{"type":"Feature","properties":{"id":"bus-988-s30771","kind":"busstop","ref":"988","name":"Kemalpaşa","lines":["668","766","767","768","769","772","967"]},"geometry":{"type":"Point","coordinates":[27.4293,38.4236]}},{"type":"Feature","properties":{"id":"bus-988-s30851","kind":"busstop","ref":"988","name":"Kemalpaşa Belediyesi","lines":["668","766","767","768","769","772","967"]},"geometry":{"type":"Point","coordinates":[27.4334,38.4232]}},{"type":"Feature","properties":{"id":"bus-988-s30787","kind":"busstop","ref":"988","name":"Yol Ayrımı","lines":["668","766","767","768","769","772","967"]},"geometry":{"type":"Point","coordinates":[27.4364,38.42163]}},{"type":"Feature","properties":{"id":"bus-988-s32332","kind":"busstop","ref":"988","name":"Soğukpınar","lines":["668","768"]},"geometry":{"type":"Point","coordinates":[27.43653,38.41963]}}]}