{"type":"FeatureCollection","features":[{"type":"Feature","properties":{"id":"turistik-0","kind":"district","btype":"turistik","name":"Sultanahmet","lab":1},"geometry":{"type":"Polygon","coordinates":[[[28.966,41.013],[28.985,41.01],[28.99,41.004],[28.978,40.998],[28.963,41.002],[28.96,41.008],[28.966,41.013]]]}},{"type":"Feature","properties":{"id":"turistik-lbl-0","kind":"district-label","name":"Sultanahmet"},"geometry":{"type":"Point","coordinates":[28.97367,41.00583]}},{"type":"Feature","properties":{"id":"turistik-1","kind":"district","btype":"turistik","name":"Eminönü · Kapalıçarşı","lab":1},"geometry":{"type":"Polygon","coordinates":[[[28.964,41.018],[28.976,41.019],[28.974,41.01],[28.963,41.01],[28.964,41.018]]]}},{"type":"Feature","properties":{"id":"turistik-lbl-1","kind":"district-label","name":"Eminönü · Kapalıçarşı"},"geometry":{"type":"Point","coordinates":[28.96925,41.01425]}},{"type":"Feature","properties":{"id":"turistik-2","kind":"district","btype":"turistik","name":"Beyoğlu · İstiklal","lab":1},"geometry":{"type":"Polygon","coordinates":[[[28.972,41.04],[28.988,41.038],[28.987,41.028],[28.974,41.027],[28.972,41.04]]]}},{"type":"Feature","properties":{"id":"turistik-lbl-2","kind":"district-label","name":"Beyoğlu · İstiklal"},"geometry":{"type":"Point","coordinates":[28.98025,41.03325]}},{"type":"Feature","properties":{"id":"turistik-3","kind":"district","btype":"turistik","name":"Galata · Karaköy","lab":1},"geometry":{"type":"Polygon","coordinates":[[[28.972,41.027],[28.982,41.027],[28.981,41.02],[28.973,41.021],[28.972,41.027]]]}},{"type":"Feature","properties":{"id":"turistik-lbl-3","kind":"district-label","name":"Galata · Karaköy"},"geometry":{"type":"Point","coordinates":[28.977,41.02375]}},{"type":"Feature","properties":{"id":"turistik-4","kind":"district","btype":"turistik","name":"Beşiktaş · Ortaköy","lab":1},"geometry":{"type":"Polygon","coordinates":[[[29.004,41.049],[29.028,41.055],[29.03,41.044],[29.006,41.041],[29.004,41.049]]]}},{"type":"Feature","properties":{"id":"turistik-lbl-4","kind":"district-label","name":"Beşiktaş · Ortaköy"},"geometry":{"type":"Point","coordinates":[29.017,41.04725]}},{"type":"Feature","properties":{"id":"turistik-5","kind":"district","btype":"turistik","name":"Balat · Fener","lab":1},"geometry":{"type":"Polygon","coordinates":[[[28.944,41.034],[28.958,41.033],[28.956,41.023],[28.945,41.024],[28.944,41.034]]]}},{"type":"Feature","properties":{"id":"turistik-lbl-5","kind":"district-label","name":"Balat · Fener"},"geometry":{"type":"Point","coordinates":[28.95075,41.0285]}},{"type":"Feature","properties":{"id":"turistik-6","kind":"district","btype":"turistik","name":"Eyüpsultan","lab":1},"geometry":{"type":"Polygon","coordinates":[[[28.926,41.05],[28.94,41.05],[28.94,41.038],[28.927,41.039],[28.926,41.05]]]}},{"type":"Feature","properties":{"id":"turistik-lbl-6","kind":"district-label","name":"Eyüpsultan"},"geometry":{"type":"Point","coordinates":[28.93325,41.04425]}},{"type":"Feature","properties":{"id":"turistik-7","kind":"district","btype":"turistik","name":"Bebek · Boğaz","lab":1},"geometry":{"type":"Polygon","coordinates":[[[29.04,41.082],[29.058,41.08],[29.056,41.066],[29.042,41.068],[29.04,41.082]]]}},{"type":"Feature","properties":{"id":"turistik-lbl-7","kind":"district-label","name":"Bebek · Boğaz"},"geometry":{"type":"Point","coordinates":[29.049,41.074]}},{"type":"Feature","properties":{"id":"turistik-8","kind":"district","btype":"turistik","name":"Üsküdar","lab":1},"geometry":{"type":"Polygon","coordinates":[[[29.006,41.03],[29.022,41.029],[29.021,41.017],[29.007,41.018],[29.006,41.03]]]}},{"type":"Feature","properties":{"id":"turistik-lbl-8","kind":"district-label","name":"Üsküdar"},"geometry":{"type":"Point","coordinates":[29.014,41.0235]}},{"type":"Feature","properties":{"id":"turistik-9","kind":"district","btype":"turistik","name":"Kadıköy · Moda","lab":1},"geometry":{"type":"Polygon","coordinates":[[[29.019,40.992],[29.036,40.991],[29.034,40.976],[29.02,40.978],[29.019,40.992]]]}},{"type":"Feature","properties":{"id":"turistik-lbl-9","kind":"district-label","name":"Kadıköy · Moda"},"geometry":{"type":"Point","coordinates":[29.02725,40.98425]}}]}