{"type":"FeatureCollection","features":[{"type":"Feature","properties":{"id":"ke-tarihi-0","kind":"poi","name":"Mehmet Efendi Çeşmesi","theme":"tarihi","lab":1},"geometry":{"type":"Point","coordinates":[28.97208,41.00318]}},{"type":"Feature","properties":{"id":"ke-tarihi-1","kind":"poi","name":"Alman Protestan Kilisesi","theme":"tarihi","lab":1},"geometry":{"type":"Point","coordinates":[28.97384,41.03608]}},{"type":"Feature","properties":{"id":"ke-tarihi-2","kind":"poi","name":"Tarihi Moda İskelesi","theme":"tarihi","lab":1},"geometry":{"type":"Point","coordinates":[29.0251,40.97899]}},{"type":"Feature","properties":{"id":"ke-tarihi-3","kind":"poi","name":"Barbaros Hayrettin Türbesi","theme":"tarihi","lab":1},"geometry":{"type":"Point","coordinates":[29.00684,41.04192]}},{"type":"Feature","properties":{"id":"ke-tarihi-4","kind":"poi","name":"Surp Garabed Kilisesi","theme":"tarihi","lab":1},"geometry":{"type":"Point","coordinates":[29.03137,41.02092]}},{"type":"Feature","properties":{"id":"ke-tarihi-5","kind":"poi","name":"Yılanlı Sütun","theme":"tarihi","lab":1},"geometry":{"type":"Point","coordinates":[28.97511,41.00566]}},{"type":"Feature","properties":{"id":"ke-tarihi-6","kind":"poi","name":"Çemberlitaş Hamamı","theme":"tarihi","lab":1},"geometry":{"type":"Point","coordinates":[28.97162,41.00854]}},{"type":"Feature","properties":{"id":"ke-tarihi-7","kind":"poi","name":"Neve Şalom Sinagogu","theme":"tarihi","lab":1},"geometry":{"type":"Point","coordinates":[28.97247,41.0267]}},{"type":"Feature","properties":{"id":"ke-tarihi-8","kind":"poi","name":"Fatih Mescidi","theme":"tarihi","lab":1},"geometry":{"type":"Point","coordinates":[28.8527,41.00449]}},{"type":"Feature","properties":{"id":"ke-tarihi-9","kind":"poi","name":"Belgrad Kapı","theme":"tarihi","lab":1},"geometry":{"type":"Point","coordinates":[28.92054,40.99983]}},{"type":"Feature","properties":{"id":"ke-tarihi-10","kind":"poi","name":"Hatice Turhan Sultan Türbesi","theme":"tarihi","lab":1},"geometry":{"type":"Point","coordinates":[28.9719,41.0162]}},{"type":"Feature","properties":{"id":"ke-tarihi-11","kind":"poi","name":"Garipçe Kalesi","theme":"tarihi","lab":1},"geometry":{"type":"Point","coordinates":[29.1106,41.21408]}},{"type":"Feature","properties":{"id":"ke-tarihi-12","kind":"poi","name":"Hannibal'ın Mezarı","theme":"tarihi","lab":1},"geometry":{"type":"Point","coordinates":[29.44173,40.78229]}},{"type":"Feature","properties":{"id":"ke-tarihi-13","kind":"poi","name":"Cumhuriyet Anıtı","theme":"tarihi","lab":1},"geometry":{"type":"Point","coordinates":[28.98512,41.03697]}},{"type":"Feature","properties":{"id":"ke-tarihi-14","kind":"poi","name":"2. Abdülhamit Anıtı","theme":"tarihi","lab":1},"geometry":{"type":"Point","coordinates":[29.00712,41.00177]}},{"type":"Feature","properties":{"id":"ke-tarihi-15","kind":"poi","name":"Boğa Heykeli","theme":"tarihi","lab":1},"geometry":{"type":"Point","coordinates":[29.02921,40.99049]}},{"type":"Feature","properties":{"id":"ke-tarihi-16","kind":"poi","name":"Kıztaşı","theme":"tarihi","lab":1},"geometry":{"type":"Point","coordinates":[28.95028,41.01544]}},{"type":"Feature","properties":{"id":"ke-tarihi-17","kind":"poi","name":"Hava Şehitleri Anıtı","theme":"tarihi","lab":1},"geometry":{"type":"Point","coordinates":[28.95263,41.01607]}},{"type":"Feature","properties":{"id":"ke-tarihi-18","kind":"poi","name":"Santa Maria Draperis","theme":"tarihi","lab":1},"geometry":{"type":"Point","coordinates":[28.97615,41.0301]}},{"type":"Feature","properties":{"id":"ke-tarihi-19","kind":"poi","name":"Anadolu Hisarı Namazgah","theme":"tarihi","lab":1},"geometry":{"type":"Point","coordinates":[29.06678,41.08183]}},{"type":"Feature","properties":{"id":"ke-tarihi-20","kind":"poi","name":"Yıldız Sarayı","theme":"tarihi","lab":1},"geometry":{"type":"Point","coordinates":[29.0117,41.05071]}},{"type":"Feature","properties":{"id":"ke-tarihi-21","kind":"poi","name":"Meryem Ana Rum Manastiri","theme":"tarihi","lab":1},"geometry":{"type":"Point","coordinates":[28.91552,41.00676]}},{"type":"Feature","properties":{"id":"ke-tarihi-22","kind":"poi","name":"Saat Kulesi","theme":"tarihi","lab":1},"geometry":{"type":"Point","coordinates":[29.1286,40.87412]}},{"type":"Feature","properties":{"id":"ke-tarihi-23","kind":"poi","name":"Caddebostan Sinagogu","theme":"tarihi","lab":1},"geometry":{"type":"Point","coordinates":[29.06763,40.97242]}},{"type":"Feature","properties":{"id":"ke-tarihi-24","kind":"poi","name":"Gotlar Sütunu","theme":"tarihi","lab":1},"geometry":{"type":"Point","coordinates":[28.98568,41.01464]}},{"type":"Feature","properties":{"id":"ke-tarihi-25","kind":"poi","name":"Aziz Meryem","theme":"tarihi","lab":1},"geometry":{"type":"Point","coordinates":[29.04172,41.16035]}},{"type":"Feature","properties":{"id":"ke-tarihi-26","kind":"poi","name":"Turkuazoo","theme":"tarihi","lab":1},"geometry":{"type":"Point","coordinates":[28.89621,41.0456]}},{"type":"Feature","properties":{"id":"ke-tarihi-27","kind":"poi","name":"M.K. Atatürk & Salvador Allende","theme":"tarihi","lab":1},"geometry":{"type":"Point","coordinates":[29.12591,40.99045]}},{"type":"Feature","properties":{"id":"ke-tarihi-28","kind":"poi","name":"Şeyh Ahmet Buhara Türbesi","theme":"tarihi","lab":1},"geometry":{"type":"Point","coordinates":[28.96026,41.02316]}},{"type":"Feature","properties":{"id":"ke-tarihi-29","kind":"poi","name":"Samatya Aya Analipsiz Kilisesi","theme":"tarihi","lab":1},"geometry":{"type":"Point","coordinates":[28.93159,40.99904]}},{"type":"Feature","properties":{"id":"ke-tarihi-30","kind":"poi","name":"Kasturya Sinagogu","theme":"tarihi","lab":1},"geometry":{"type":"Point","coordinates":[28.94148,41.03421]}},{"type":"Feature","properties":{"id":"ke-tarihi-31","kind":"poi","name":"Surp Hagop Kilisesi","theme":"tarihi","lab":1},"geometry":{"type":"Point","coordinates":[28.93475,41.00811]}},{"type":"Feature","properties":{"id":"ke-tarihi-32","kind":"poi","name":"Surp Yerits Mangants Kilisesi","theme":"tarihi","lab":1},"geometry":{"type":"Point","coordinates":[29.05116,41.10235]}},{"type":"Feature","properties":{"id":"ke-tarihi-33","kind":"poi","name":"Çiçek Pasajı","theme":"tarihi","lab":1},"geometry":{"type":"Point","coordinates":[28.97792,41.0341]}},{"type":"Feature","properties":{"id":"ke-tarihi-34","kind":"poi","name":"Prison of Anemas","theme":"tarihi","lab":1},"geometry":{"type":"Point","coordinates":[28.9408,41.03841]}},{"type":"Feature","properties":{"id":"ke-tarihi-35","kind":"poi","name":"Sadrazam Bahir Mustafa Paşa Çeşmesi","theme":"tarihi","lab":1},"geometry":{"type":"Point","coordinates":[28.91819,41.04254]}},{"type":"Feature","properties":{"id":"ke-tarihi-36","kind":"poi","name":"Surp Vartanans","theme":"tarihi","lab":1},"geometry":{"type":"Point","coordinates":[28.98129,41.05365]}},{"type":"Feature","properties":{"id":"ke-tarihi-37","kind":"poi","name":"Korugan","theme":"tarihi","lab":1},"geometry":{"type":"Point","coordinates":[28.55237,41.10856]}},{"type":"Feature","properties":{"id":"ke-tarihi-38","kind":"poi","name":"Korugan","theme":"tarihi","lab":1},"geometry":{"type":"Point","coordinates":[28.56726,41.09135]}},{"type":"Feature","properties":{"id":"ke-tarihi-39","kind":"poi","name":"Korugan","theme":"tarihi","lab":1},"geometry":{"type":"Point","coordinates":[28.56635,41.09188]}},{"type":"Feature","properties":{"id":"ke-tarihi-40","kind":"poi","name":"Nişan Taşı","theme":"tarihi","lab":1},"geometry":{"type":"Point","coordinates":[28.99152,41.05173]}},{"type":"Feature","properties":{"id":"ke-tarihi-41","kind":"poi","name":"İslambey Çeşmesi","theme":"tarihi","lab":1},"geometry":{"type":"Point","coordinates":[28.92676,41.05146]}},{"type":"Feature","properties":{"id":"ke-tarihi-42","kind":"poi","name":"Zeynep Hanım Çeşmesi","theme":"tarihi","lab":1},"geometry":{"type":"Point","coordinates":[29.22343,40.91703]}},{"type":"Feature","properties":{"id":"ke-tarihi-43","kind":"poi","name":"Erenköy Station Fountain","theme":"tarihi","lab":1},"geometry":{"type":"Point","coordinates":[29.07542,40.97391]}},{"type":"Feature","properties":{"id":"ke-tarihi-44","kind":"poi","name":"Yoğurtçu Çeşmesi","theme":"tarihi","lab":1},"geometry":{"type":"Point","coordinates":[29.03324,40.98363]}},{"type":"Feature","properties":{"id":"ke-tarihi-45","kind":"poi","name":"Çoban Çeşmesi","theme":"tarihi","lab":1},"geometry":{"type":"Point","coordinates":[28.81948,40.99371]}},{"type":"Feature","properties":{"id":"ke-tarihi-46","kind":"poi","name":"Kayışdağı Suyu Çeşmesi","theme":"tarihi","lab":1},"geometry":{"type":"Point","coordinates":[29.07737,40.9803]}},{"type":"Feature","properties":{"id":"ke-tarihi-47","kind":"poi","name":"Arkadyos Sütunu","theme":"tarihi","lab":1},"geometry":{"type":"Point","coordinates":[28.94306,41.00774]}},{"type":"Feature","properties":{"id":"ke-tarihi-48","kind":"poi","name":"İstanbul'un Fethi","theme":"tarihi","lab":1},"geometry":{"type":"Point","coordinates":[28.92631,41.02165]}},{"type":"Feature","properties":{"id":"ke-tarihi-49","kind":"poi","name":"Mahmut Bey Çeşmesi","theme":"tarihi","lab":1},"geometry":{"type":"Point","coordinates":[29.10936,40.96964]}},{"type":"Feature","properties":{"id":"ke-tarihi-50","kind":"poi","name":"15 Temmuz Darbe Girişiminin başlangıç ​​noktası","theme":"tarihi","lab":1},"geometry":{"type":"Point","coordinates":[29.02828,41.051]}},{"type":"Feature","properties":{"id":"ke-tarihi-51","kind":"poi","name":"Validebağ Su Terazisi","theme":"tarihi","lab":1},"geometry":{"type":"Point","coordinates":[29.04366,41.01708]}},{"type":"Feature","properties":{"id":"ke-tarihi-52","kind":"poi","name":"İstanbul Surları","theme":"tarihi","lab":1},"geometry":{"type":"Point","coordinates":[28.92696,41.022]}},{"type":"Feature","properties":{"id":"ke-tarihi-53","kind":"poi","name":"İstanbul Surları","theme":"tarihi","lab":1},"geometry":{"type":"Point","coordinates":[28.93191,41.02673]}},{"type":"Feature","properties":{"id":"ke-tarihi-54","kind":"poi","name":"Rumeli Feneri Kalesi","theme":"tarihi","lab":1},"geometry":{"type":"Point","coordinates":[29.11109,41.23763]}},{"type":"Feature","properties":{"id":"ke-tarihi-55","kind":"poi","name":"III. Ahmed Kütüphanesi","theme":"tarihi","lab":1},"geometry":{"type":"Point","coordinates":[28.98455,41.01303]}},{"type":"Feature","properties":{"id":"ke-tarihi-56","kind":"poi","name":"Uzun Kemer","theme":"tarihi","lab":1},"geometry":{"type":"Point","coordinates":[28.90265,41.17113]}},{"type":"Feature","properties":{"id":"ke-tarihi-57","kind":"poi","name":"Maslak Kasrı","theme":"tarihi","lab":1},"geometry":{"type":"Point","coordinates":[29.02613,41.11918]}},{"type":"Feature","properties":{"id":"ke-tarihi-58","kind":"poi","name":"Çadır Köşkü","theme":"tarihi","lab":1},"geometry":{"type":"Point","coordinates":[29.01329,41.04765]}},{"type":"Feature","properties":{"id":"ke-tarihi-59","kind":"poi","name":"Geylani Tekke Cami","theme":"tarihi","lab":1},"geometry":{"type":"Point","coordinates":[28.93094,41.01564]}},{"type":"Feature","properties":{"id":"ke-tarihi-60","kind":"poi","name":"Sultan Mustafa İskele Camii","theme":"tarihi","lab":1},"geometry":{"type":"Point","coordinates":[29.02382,40.99082]}},{"type":"Feature","properties":{"id":"ke-tarihi-61","kind":"poi","name":"Kız Kulesi","theme":"tarihi","lab":1},"geometry":{"type":"Point","coordinates":[29.00414,41.02109]}},{"type":"Feature","properties":{"id":"ke-tarihi-62","kind":"poi","name":"Fatih Rehberlik ve Araştırma Merkezi","theme":"tarihi","lab":1},"geometry":{"type":"Point","coordinates":[28.96152,41.01233]}},{"type":"Feature","properties":{"id":"ke-tarihi-63","kind":"poi","name":"Akbıyık Cami","theme":"tarihi","lab":1},"geometry":{"type":"Point","coordinates":[28.97943,41.00325]}},{"type":"Feature","properties":{"id":"ke-tarihi-64","kind":"poi","name":"Fethiye Camii","theme":"tarihi","lab":1},"geometry":{"type":"Point","coordinates":[28.9464,41.02908]}},{"type":"Feature","properties":{"id":"ke-tarihi-65","kind":"poi","name":"Endem TV Kulesi","theme":"tarihi","lab":1},"geometry":{"type":"Point","coordinates":[28.62058,41.02641]}},{"type":"Feature","properties":{"id":"ke-tarihi-66","kind":"poi","name":"Sokullu Mehmet Paşa Türbesi","theme":"tarihi","lab":1},"geometry":{"type":"Point","coordinates":[28.93429,41.04722]}},{"type":"Feature","properties":{"id":"ke-tarihi-67","kind":"poi","name":"Cihangir Camii","theme":"tarihi","lab":1},"geometry":{"type":"Point","coordinates":[28.98715,41.03012]}},{"type":"Feature","properties":{"id":"ke-tarihi-68","kind":"poi","name":"Ragıp Paşa Köşkü","theme":"tarihi","lab":1},"geometry":{"type":"Point","coordinates":[29.06209,40.9631]}},{"type":"Feature","properties":{"id":"ke-tarihi-69","kind":"poi","name":"Fenerbahçe Camii","theme":"tarihi","lab":1},"geometry":{"type":"Point","coordinates":[29.04038,40.97252]}},{"type":"Feature","properties":{"id":"ke-tarihi-70","kind":"poi","name":"Zühtüpaşa Camii","theme":"tarihi","lab":1},"geometry":{"type":"Point","coordinates":[29.04004,40.98414]}},{"type":"Feature","properties":{"id":"ke-tarihi-71","kind":"poi","name":"Aya Triada Manastırı","theme":"tarihi","lab":1},"geometry":{"type":"Point","coordinates":[29.09487,40.88213]}},{"type":"Feature","properties":{"id":"ke-tarihi-72","kind":"poi","name":"Tevhide Hanım Köşkü","theme":"tarihi","lab":1},"geometry":{"type":"Point","coordinates":[29.05956,40.96366]}},{"type":"Feature","properties":{"id":"ke-tarihi-73","kind":"poi","name":"Tüccar Başı Böcekli Cami","theme":"tarihi","lab":1},"geometry":{"type":"Point","coordinates":[29.08443,40.97846]}},{"type":"Feature","properties":{"id":"ke-tarihi-74","kind":"poi","name":"Büyük Selimiye Camii","theme":"tarihi","lab":1},"geometry":{"type":"Point","coordinates":[29.01634,41.00966]}},{"type":"Feature","properties":{"id":"ke-tarihi-75","kind":"poi","name":"Salacak Fatih Camii","theme":"tarihi","lab":1},"geometry":{"type":"Point","coordinates":[29.00796,41.02098]}},{"type":"Feature","properties":{"id":"ke-tarihi-76","kind":"poi","name":"Şemsi Paşa Camii","theme":"tarihi","lab":1},"geometry":{"type":"Point","coordinates":[29.01136,41.02594]}},{"type":"Feature","properties":{"id":"ke-tarihi-77","kind":"poi","name":"Dolmabahçe Sarayı Hazine-i Hassa Dairesi","theme":"tarihi","lab":1},"geometry":{"type":"Point","coordinates":[28.99736,41.03786]}},{"type":"Feature","properties":{"id":"ke-tarihi-78","kind":"poi","name":"Şişli Merkez Camii","theme":"tarihi","lab":1},"geometry":{"type":"Point","coordinates":[28.98774,41.06143]}},{"type":"Feature","properties":{"id":"ke-tarihi-79","kind":"poi","name":"Mecidiye Camii","theme":"tarihi","lab":1},"geometry":{"type":"Point","coordinates":[28.83131,40.96054]}},{"type":"Feature","properties":{"id":"ke-tarihi-80","kind":"poi","name":"Ali Kethüda Camii","theme":"tarihi","lab":1},"geometry":{"type":"Point","coordinates":[29.05787,41.169]}},{"type":"Feature","properties":{"id":"ke-tarihi-81","kind":"poi","name":"Hadım İbrahim Paşa Camii","theme":"tarihi","lab":1},"geometry":{"type":"Point","coordinates":[28.92273,41.00603]}},{"type":"Feature","properties":{"id":"ke-tarihi-82","kind":"poi","name":"Serbostani Mustafa Ağa Camii","theme":"tarihi","lab":1},"geometry":{"type":"Point","coordinates":[29.09239,41.13375]}},{"type":"Feature","properties":{"id":"ke-tarihi-83","kind":"poi","name":"Arnavutköy Osmanlı Camii","theme":"tarihi","lab":1},"geometry":{"type":"Point","coordinates":[28.74206,41.18818]}},{"type":"Feature","properties":{"id":"ke-tarihi-84","kind":"poi","name":"Kurban Nasuh Baba Camii","theme":"tarihi","lab":1},"geometry":{"type":"Point","coordinates":[29.0197,41.01864]}},{"type":"Feature","properties":{"id":"ke-tarihi-85","kind":"poi","name":"Sancaklar Camii","theme":"tarihi","lab":1},"geometry":{"type":"Point","coordinates":[28.60149,41.08914]}},{"type":"Feature","properties":{"id":"ke-tarihi-86","kind":"poi","name":"Bostancı Kuloğlu Cami","theme":"tarihi","lab":1},"geometry":{"type":"Point","coordinates":[29.09386,40.95508]}},{"type":"Feature","properties":{"id":"ke-tarihi-87","kind":"poi","name":"Levent Cami","theme":"tarihi","lab":1},"geometry":{"type":"Point","coordinates":[29.01761,41.07914]}},{"type":"Feature","properties":{"id":"ke-tarihi-88","kind":"poi","name":"Yoros Kalesi","theme":"tarihi","lab":1},"geometry":{"type":"Point","coordinates":[29.09486,41.17858]}},{"type":"Feature","properties":{"id":"ke-tarihi-89","kind":"poi","name":"Adile Sultan Sarayı","theme":"tarihi","lab":1},"geometry":{"type":"Point","coordinates":[29.05812,41.07215]}},{"type":"Feature","properties":{"id":"ke-tarihi-90","kind":"poi","name":"Aydos (Aetos) Kalesi","theme":"tarihi","lab":1},"geometry":{"type":"Point","coordinates":[29.25815,40.9497]}},{"type":"Feature","properties":{"id":"ke-tarihi-91","kind":"poi","name":"Rasim Paşa Camii","theme":"tarihi","lab":1},"geometry":{"type":"Point","coordinates":[29.03011,40.99636]}},{"type":"Feature","properties":{"id":"ke-tarihi-92","kind":"poi","name":"Silahtar Abrurrahman Ağa Camii","theme":"tarihi","lab":1},"geometry":{"type":"Point","coordinates":[29.02233,41.03157]}},{"type":"Feature","properties":{"id":"ke-tarihi-93","kind":"poi","name":"Hasan Dede Türbesi","theme":"tarihi","lab":1},"geometry":{"type":"Point","coordinates":[28.93292,41.05379]}},{"type":"Feature","properties":{"id":"ke-tarihi-94","kind":"poi","name":"Sokullu Mehmet Paşa Camii","theme":"tarihi","lab":1},"geometry":{"type":"Point","coordinates":[28.57615,41.02212]}},{"type":"Feature","properties":{"id":"ke-tarihi-95","kind":"poi","name":"Büyükada Eski Rum Yetimhanesi","theme":"tarihi","lab":1},"geometry":{"type":"Point","coordinates":[29.12309,40.86102]}},{"type":"Feature","properties":{"id":"ke-tarihi-96","kind":"poi","name":"Defterdar İbrahim Paşa Cami","theme":"tarihi","lab":1},"geometry":{"type":"Point","coordinates":[29.03325,41.05103]}},{"type":"Feature","properties":{"id":"ke-tarihi-97","kind":"poi","name":"Tevfikiye Cami","theme":"tarihi","lab":1},"geometry":{"type":"Point","coordinates":[29.04516,41.06789]}},{"type":"Feature","properties":{"id":"ke-tarihi-98","kind":"poi","name":"Büyük Mecidiye Camii","theme":"tarihi","lab":1},"geometry":{"type":"Point","coordinates":[29.02679,41.04731]}},{"type":"Feature","properties":{"id":"ke-tarihi-99","kind":"poi","name":"Piyale Paşa Camii","theme":"tarihi","lab":1},"geometry":{"type":"Point","coordinates":[28.966,41.04456]}},{"type":"Feature","properties":{"id":"ke-tarihi-100","kind":"poi","name":"Beylerbeyi Camii","theme":"tarihi","lab":1},"geometry":{"type":"Point","coordinates":[29.04573,41.04514]}},{"type":"Feature","properties":{"id":"ke-tarihi-101","kind":"poi","name":"Çoban Mustafa Paşa Camii","theme":"tarihi","lab":1},"geometry":{"type":"Point","coordinates":[29.43153,40.79982]}},{"type":"Feature","properties":{"id":"ke-tarihi-102","kind":"poi","name":"Atatürk Arboretumu","theme":"tarihi","lab":1},"geometry":{"type":"Point","coordinates":[28.98248,41.17701]}},{"type":"Feature","properties":{"id":"ke-tarihi-103","kind":"poi","name":"Czestochowalı Meryem Ana Kilisesi","theme":"tarihi","lab":1},"geometry":{"type":"Point","coordinates":[29.2074,41.10986]}},{"type":"Feature","properties":{"id":"ke-tarihi-104","kind":"poi","name":"Vaniköy Camii","theme":"tarihi","lab":1},"geometry":{"type":"Point","coordinates":[29.05522,41.0641]}},{"type":"Feature","properties":{"id":"ke-tarihi-105","kind":"poi","name":"Tütüncü Mehmet Efendi Camii","theme":"tarihi","lab":1},"geometry":{"type":"Point","coordinates":[29.06623,40.9789]}},{"type":"Feature","properties":{"id":"ke-tarihi-106","kind":"poi","name":"Hilmi Abbas Camii","theme":"tarihi","lab":1},"geometry":{"type":"Point","coordinates":[29.23433,40.88116]}},{"type":"Feature","properties":{"id":"ke-tarihi-107","kind":"poi","name":"Kazasker Camii","theme":"tarihi","lab":1},"geometry":{"type":"Point","coordinates":[29.08572,40.96918]}},{"type":"Feature","properties":{"id":"ke-tarihi-108","kind":"poi","name":"Suadiye Camii","theme":"tarihi","lab":1},"geometry":{"type":"Point","coordinates":[29.07952,40.96239]}},{"type":"Feature","properties":{"id":"ke-tarihi-109","kind":"poi","name":"Sadabad Camii","theme":"tarihi","lab":1},"geometry":{"type":"Point","coordinates":[28.96288,41.06999]}},{"type":"Feature","properties":{"id":"ke-tarihi-110","kind":"poi","name":"belgradkapı camii","theme":"tarihi","lab":1},"geometry":{"type":"Point","coordinates":[28.91817,41.0004]}},{"type":"Feature","properties":{"id":"ke-tarihi-111","kind":"poi","name":"Bet Yaakov Sinagogu","theme":"tarihi","lab":1},"geometry":{"type":"Point","coordinates":[29.09845,40.87858]}},{"type":"Feature","properties":{"id":"ke-tarihi-112","kind":"poi","name":"Riva Kalesi","theme":"tarihi","lab":1},"geometry":{"type":"Point","coordinates":[29.21718,41.22394]}},{"type":"Feature","properties":{"id":"ke-tarihi-113","kind":"poi","name":"Surp Haç Kilisesi","theme":"tarihi","lab":1},"geometry":{"type":"Point","coordinates":[29.0308,41.02482]}},{"type":"Feature","properties":{"id":"ke-tarihi-114","kind":"poi","name":"Yeniköy sinagogu","theme":"tarihi","lab":1},"geometry":{"type":"Point","coordinates":[29.06632,41.11827]}},{"type":"Feature","properties":{"id":"ke-tarihi-115","kind":"poi","name":"Saint Esprit Katedrali","theme":"tarihi","lab":1},"geometry":{"type":"Point","coordinates":[28.98573,41.04467]}},{"type":"Feature","properties":{"id":"ke-tarihi-116","kind":"poi","name":"Çamlıca Televizyon Kulesi","theme":"tarihi","lab":1},"geometry":{"type":"Point","coordinates":[29.06554,41.01637]}},{"type":"Feature","properties":{"id":"ke-tarihi-117","kind":"poi","name":"Maarifi Sultan Camii","theme":"tarihi","lab":1},"geometry":{"type":"Point","coordinates":[29.19064,40.88833]}},{"type":"Feature","properties":{"id":"ke-tarihi-118","kind":"poi","name":"Surp Nigoğayos Ermeni Kilisesi","theme":"tarihi","lab":1},"geometry":{"type":"Point","coordinates":[29.09617,41.13447]}},{"type":"Feature","properties":{"id":"ke-tarihi-119","kind":"poi","name":"Karakadı Alaattin Camii","theme":"tarihi","lab":1},"geometry":{"type":"Point","coordinates":[29.01841,41.02406]}},{"type":"Feature","properties":{"id":"ke-tarihi-120","kind":"poi","name":"Boğazköy Camii","theme":"tarihi","lab":1},"geometry":{"type":"Point","coordinates":[28.77203,41.18071]}},{"type":"Feature","properties":{"id":"ke-tarihi-121","kind":"poi","name":"Abdülhakim Sancak Camii","theme":"tarihi","lab":1},"geometry":{"type":"Point","coordinates":[29.03062,41.10631]}},{"type":"Feature","properties":{"id":"ke-tarihi-122","kind":"poi","name":"Emirgan Hamid-i Evvel Camii","theme":"tarihi","lab":1},"geometry":{"type":"Point","coordinates":[29.05626,41.10455]}},{"type":"Feature","properties":{"id":"ke-tarihi-123","kind":"poi","name":"Dağıstanlı İsa Ruhi Paşa Köşkü","theme":"tarihi","lab":1},"geometry":{"type":"Point","coordinates":[29.04256,41.00883]}},{"type":"Feature","properties":{"id":"ke-tarihi-124","kind":"poi","name":"Trotsky House","theme":"tarihi","lab":1},"geometry":{"type":"Point","coordinates":[29.11649,40.87023]}},{"type":"Feature","properties":{"id":"ke-tarihi-125","kind":"poi","name":"Feridun Paşa Camii","theme":"tarihi","lab":1},"geometry":{"type":"Point","coordinates":[29.03322,41.00547]}},{"type":"Feature","properties":{"id":"ke-tarihi-126","kind":"poi","name":"Perili Köşk","theme":"tarihi","lab":1},"geometry":{"type":"Point","coordinates":[29.05656,41.08907]}},{"type":"Feature","properties":{"id":"ke-tarihi-127","kind":"poi","name":"Baba-Oğul Çeşmesi","theme":"tarihi","lab":1},"geometry":{"type":"Point","coordinates":[29.0404,41.00137]}},{"type":"Feature","properties":{"id":"ke-tarihi-128","kind":"poi","name":"Kanlıca Camii","theme":"tarihi","lab":1},"geometry":{"type":"Point","coordinates":[29.06597,41.09995]}},{"type":"Feature","properties":{"id":"ke-tarihi-129","kind":"poi","name":"Mazul Kemer","theme":"tarihi","lab":1},"geometry":{"type":"Point","coordinates":[28.85113,41.07089]}},{"type":"Feature","properties":{"id":"ke-modern-0","kind":"poi","name":"Bulgur Palas","theme":"modern","lab":1},"geometry":{"type":"Point","coordinates":[28.94392,41.00703]}},{"type":"Feature","properties":{"id":"ke-modern-1","kind":"poi","name":"Terziler Sinagogu  / Schneidertempel Sanat Merkezi","theme":"modern","lab":1},"geometry":{"type":"Point","coordinates":[28.97407,41.02408]}},{"type":"Feature","properties":{"id":"ke-modern-2","kind":"poi","name":"Nazım Hikmet Kültür Merkezi","theme":"modern","lab":1},"geometry":{"type":"Point","coordinates":[29.03018,40.98943]}},{"type":"Feature","properties":{"id":"ke-modern-3","kind":"poi","name":"Bostancı Gösteri Merkezi","theme":"modern","lab":1},"geometry":{"type":"Point","coordinates":[29.10236,40.95674]}},{"type":"Feature","properties":{"id":"ke-modern-4","kind":"poi","name":"Kazlıçeşme Kültür Merkezi","theme":"modern","lab":0},"geometry":{"type":"Point","coordinates":[28.90906,40.98684]}},{"type":"Feature","properties":{"id":"ke-modern-5","kind":"poi","name":"Ortaköy Sanat Galerisi","theme":"modern","lab":0},"geometry":{"type":"Point","coordinates":[29.02636,41.04919]}},{"type":"Feature","properties":{"id":"ke-modern-6","kind":"poi","name":"Borusan Art Center","theme":"modern","lab":0},"geometry":{"type":"Point","coordinates":[28.98039,41.03381]}},{"type":"Feature","properties":{"id":"ke-modern-7","kind":"poi","name":"Studyo İpek Tarabya","theme":"modern","lab":0},"geometry":{"type":"Point","coordinates":[29.05274,41.13807]}},{"type":"Feature","properties":{"id":"ke-modern-8","kind":"poi","name":"Living Room","theme":"modern","lab":0},"geometry":{"type":"Point","coordinates":[29.02697,40.98806]}},{"type":"Feature","properties":{"id":"ke-modern-9","kind":"poi","name":"Hamidiye Kültür Merkezi","theme":"modern","lab":0},"geometry":{"type":"Point","coordinates":[29.1897,41.02236]}},{"type":"Feature","properties":{"id":"ke-modern-10","kind":"poi","name":"Diyar Saz Evi","theme":"modern","lab":0},"geometry":{"type":"Point","coordinates":[29.21458,41.00988]}},{"type":"Feature","properties":{"id":"ke-modern-11","kind":"poi","name":"Time Güzel Sanatlar Çekmeköy","theme":"modern","lab":0},"geometry":{"type":"Point","coordinates":[29.17652,41.04072]}},{"type":"Feature","properties":{"id":"ke-modern-12","kind":"poi","name":"Yenidoğan Sanat Galerisi","theme":"modern","lab":0},"geometry":{"type":"Point","coordinates":[29.08524,40.96253]}},{"type":"Feature","properties":{"id":"ke-modern-13","kind":"poi","name":"Galleria Mavist","theme":"modern","lab":0},"geometry":{"type":"Point","coordinates":[29.0284,40.99525]}},{"type":"Feature","properties":{"id":"ke-modern-14","kind":"poi","name":"Venüs Sanat","theme":"modern","lab":0},"geometry":{"type":"Point","coordinates":[29.05942,40.98041]}},{"type":"Feature","properties":{"id":"ke-modern-15","kind":"poi","name":"Tuzla Belediyesi Rumeli Kültür Merkezi","theme":"modern","lab":0},"geometry":{"type":"Point","coordinates":[29.30066,40.81828]}},{"type":"Feature","properties":{"id":"ke-modern-16","kind":"poi","name":"Tuzla Ahmet Yesevi Kültür Merkezi","theme":"modern","lab":0},"geometry":{"type":"Point","coordinates":[29.36174,40.83386]}},{"type":"Feature","properties":{"id":"ke-modern-17","kind":"poi","name":"Bülent Ecevit Kültür Merkezi","theme":"modern","lab":0},"geometry":{"type":"Point","coordinates":[29.19639,40.88634]}},{"type":"Feature","properties":{"id":"ke-modern-18","kind":"poi","name":"Atatürk Kültür Merkezi","theme":"modern","lab":0},"geometry":{"type":"Point","coordinates":[28.90375,40.99379]}},{"type":"Feature","properties":{"id":"ke-modern-19","kind":"poi","name":"Eylül Sanat Galerisi","theme":"modern","lab":0},"geometry":{"type":"Point","coordinates":[28.99373,41.05615]}},{"type":"Feature","properties":{"id":"ke-modern-20","kind":"poi","name":"Naim Süleymanoğlu Kültür Merkezi","theme":"modern","lab":0},"geometry":{"type":"Point","coordinates":[29.37312,40.86104]}},{"type":"Feature","properties":{"id":"ke-modern-21","kind":"poi","name":"Harmony","theme":"modern","lab":0},"geometry":{"type":"Point","coordinates":[29.03021,41.03517]}},{"type":"Feature","properties":{"id":"ke-modern-22","kind":"poi","name":"İbrahim Çallı Sanat Galerisi","theme":"modern","lab":0},"geometry":{"type":"Point","coordinates":[28.59305,41.01757]}},{"type":"Feature","properties":{"id":"ke-modern-23","kind":"poi","name":"Batı İstanbul Sergi Salonu","theme":"modern","lab":0},"geometry":{"type":"Point","coordinates":[28.64162,41.00159]}},{"type":"Feature","properties":{"id":"ke-modern-24","kind":"poi","name":"Tarık Akan Kültür Merkezi","theme":"modern","lab":0},"geometry":{"type":"Point","coordinates":[28.85419,40.98099]}},{"type":"Feature","properties":{"id":"ke-modern-25","kind":"poi","name":"Türk İslam Sanatları Merkezi","theme":"modern","lab":0},"geometry":{"type":"Point","coordinates":[28.90788,41.04145]}},{"type":"Feature","properties":{"id":"ke-modern-26","kind":"poi","name":"Turkiano Art Gallery","theme":"modern","lab":0},"geometry":{"type":"Point","coordinates":[29.12498,40.98094]}},{"type":"Feature","properties":{"id":"ke-modern-27","kind":"poi","name":"Kuzey Makedonya Kültür Merkezi","theme":"modern","lab":0},"geometry":{"type":"Point","coordinates":[28.9876,41.03718]}},{"type":"Feature","properties":{"id":"ke-modern-28","kind":"poi","name":"Ekol Sanat Akademisi","theme":"modern","lab":0},"geometry":{"type":"Point","coordinates":[29.11905,40.97266]}},{"type":"Feature","properties":{"id":"ke-modern-29","kind":"poi","name":"Osman Hamdi Bey Kültür Merkezi","theme":"modern","lab":0},"geometry":{"type":"Point","coordinates":[29.43952,40.806]}},{"type":"Feature","properties":{"id":"ke-doga-0","kind":"poi","name":"Atatürk Kent Ormanı","theme":"doga","lab":1},"geometry":{"type":"Point","coordinates":[29.03211,41.13426]}},{"type":"Feature","properties":{"id":"ke-doga-1","kind":"poi","name":"Silahtarağa Gençlik Parkı","theme":"doga","lab":1},"geometry":{"type":"Point","coordinates":[28.94391,41.07102]}},{"type":"Feature","properties":{"id":"ke-doga-2","kind":"poi","name":"15 Temmuz Millet Bahçesi","theme":"doga","lab":1},"geometry":{"type":"Point","coordinates":[28.87962,41.05953]}},{"type":"Feature","properties":{"id":"ke-doga-3","kind":"poi","name":"Atatürk Havalimanı Millet Bahçesi","theme":"doga","lab":1},"geometry":{"type":"Point","coordinates":[28.80818,40.9843]}},{"type":"Feature","properties":{"id":"ke-doga-4","kind":"poi","name":"Polonezköy Tabiat Parkı","theme":"doga","lab":1},"geometry":{"type":"Point","coordinates":[29.19743,41.10655]}},{"type":"Feature","properties":{"id":"ke-doga-5","kind":"poi","name":"Garipçe Kalesi","theme":"doga","lab":1},"geometry":{"type":"Point","coordinates":[29.1106,41.21408]}},{"type":"Feature","properties":{"id":"ke-doga-6","kind":"poi","name":"Alfred Heilbronn Botanik Bahçesi","theme":"doga","lab":1},"geometry":{"type":"Point","coordinates":[28.96387,41.01831]}},{"type":"Feature","properties":{"id":"ke-doga-7","kind":"poi","name":"Binbirdirek Sarnıcı","theme":"doga","lab":1},"geometry":{"type":"Point","coordinates":[28.97375,41.00749]}},{"type":"Feature","properties":{"id":"ke-doga-8","kind":"poi","name":"Cundi Parkı","theme":"doga","lab":1},"geometry":{"type":"Point","coordinates":[28.97,41.00308]}},{"type":"Feature","properties":{"id":"ke-doga-9","kind":"poi","name":"Falih Rıfkı Atay Tabiat Parkı","theme":"doga","lab":1},"geometry":{"type":"Point","coordinates":[28.961,41.19219]}},{"type":"Feature","properties":{"id":"ke-doga-10","kind":"poi","name":"Bebek Parkı","theme":"doga","lab":1},"geometry":{"type":"Point","coordinates":[29.04379,41.07591]}},{"type":"Feature","properties":{"id":"ke-doga-11","kind":"poi","name":"Taksim Gezi Parkı","theme":"doga","lab":1},"geometry":{"type":"Point","coordinates":[28.9869,41.03886]}},{"type":"Feature","properties":{"id":"ke-doga-12","kind":"poi","name":"Abbasağa Parkı","theme":"doga","lab":1},"geometry":{"type":"Point","coordinates":[29.00635,41.04654]}},{"type":"Feature","properties":{"id":"ke-doga-13","kind":"poi","name":"Dolmabahçe Sarayı","theme":"doga","lab":1},"geometry":{"type":"Point","coordinates":[28.99965,41.03902]}},{"type":"Feature","properties":{"id":"ke-doga-14","kind":"poi","name":"Gülhane Parkı","theme":"doga","lab":1},"geometry":{"type":"Point","coordinates":[28.98231,41.0131]}},{"type":"Feature","properties":{"id":"ke-doga-15","kind":"poi","name":"Maçka Demokrasi Parkı","theme":"doga","lab":1},"geometry":{"type":"Point","coordinates":[28.994,41.04434]}},{"type":"Feature","properties":{"id":"ke-doga-16","kind":"poi","name":"Ulus Parkı","theme":"doga","lab":1},"geometry":{"type":"Point","coordinates":[29.03232,41.06386]}},{"type":"Feature","properties":{"id":"ke-doga-17","kind":"poi","name":"Kalamış Parkı","theme":"doga","lab":1},"geometry":{"type":"Point","coordinates":[29.03814,40.97989]}},{"type":"Feature","properties":{"id":"ke-doga-18","kind":"poi","name":"Göztepe 60. Yıl Parkı","theme":"doga","lab":1},"geometry":{"type":"Point","coordinates":[29.05796,40.96951]}},{"type":"Feature","properties":{"id":"ke-doga-19","kind":"poi","name":"Cüneyt Arkın Sanatçılar Parkı","theme":"doga","lab":1},"geometry":{"type":"Point","coordinates":[29.02983,41.08281]}},{"type":"Feature","properties":{"id":"ke-doga-20","kind":"poi","name":"Atatürk Ormanı","theme":"doga","lab":1},"geometry":{"type":"Point","coordinates":[28.78634,40.97824]}},{"type":"Feature","properties":{"id":"ke-doga-21","kind":"poi","name":"Özgürlük Parkı","theme":"doga","lab":1},"geometry":{"type":"Point","coordinates":[29.05644,40.97928]}},{"type":"Feature","properties":{"id":"ke-doga-22","kind":"poi","name":"Topkapı Şehir Parkı","theme":"doga","lab":1},"geometry":{"type":"Point","coordinates":[28.92141,41.01932]}},{"type":"Feature","properties":{"id":"ke-doga-23","kind":"poi","name":"Aya Triada Rum Ortodoks Kilisesi","theme":"doga","lab":1},"geometry":{"type":"Point","coordinates":[29.02751,40.98619]}},{"type":"Feature","properties":{"id":"ke-doga-24","kind":"poi","name":"Fenerbahçe Parkı","theme":"doga","lab":1},"geometry":{"type":"Point","coordinates":[29.03455,40.96781]}},{"type":"Feature","properties":{"id":"ke-doga-25","kind":"poi","name":"Yenikapı Şehir Parkı","theme":"doga","lab":1},"geometry":{"type":"Point","coordinates":[28.94578,40.99911]}},{"type":"Feature","properties":{"id":"ke-doga-26","kind":"poi","name":"Beylerbeyi Parkı","theme":"doga","lab":1},"geometry":{"type":"Point","coordinates":[29.0426,41.0436]}},{"type":"Feature","properties":{"id":"ke-doga-27","kind":"poi","name":"Esenler Bölge Parkı","theme":"doga","lab":1},"geometry":{"type":"Point","coordinates":[28.87246,41.05878]}},{"type":"Feature","properties":{"id":"ke-doga-28","kind":"poi","name":"Atatürk Arboretumu","theme":"doga","lab":1},"geometry":{"type":"Point","coordinates":[28.98248,41.17701]}},{"type":"Feature","properties":{"id":"ke-doga-29","kind":"poi","name":"Emirgan Korusu","theme":"doga","lab":1},"geometry":{"type":"Point","coordinates":[29.05282,41.109]}},{"type":"Feature","properties":{"id":"ke-doga-30","kind":"poi","name":"Beykoz Çayırı","theme":"doga","lab":1},"geometry":{"type":"Point","coordinates":[29.08623,41.14274]}},{"type":"Feature","properties":{"id":"ke-doga-31","kind":"poi","name":"Çengelköy Havuzbaşı Parkı","theme":"doga","lab":1},"geometry":{"type":"Point","coordinates":[29.05376,41.04671]}},{"type":"Feature","properties":{"id":"ke-doga-32","kind":"poi","name":"Mihrabat Korusu","theme":"doga","lab":1},"geometry":{"type":"Point","coordinates":[29.07341,41.09505]}},{"type":"Feature","properties":{"id":"ke-doga-33","kind":"poi","name":"Tophane Parkı","theme":"doga","lab":1},"geometry":{"type":"Point","coordinates":[28.98196,41.02697]}},{"type":"Feature","properties":{"id":"ke-doga-34","kind":"poi","name":"Beykoz Korusu","theme":"doga","lab":1},"geometry":{"type":"Point","coordinates":[29.09881,41.13336]}},{"type":"Feature","properties":{"id":"ke-doga-35","kind":"poi","name":"Yıldız Parkı","theme":"doga","lab":1},"geometry":{"type":"Point","coordinates":[29.01689,41.04831]}},{"type":"Feature","properties":{"id":"ke-doga-36","kind":"poi","name":"Büyük Çamlıca","theme":"doga","lab":1},"geometry":{"type":"Point","coordinates":[29.06768,41.02676]}},{"type":"Feature","properties":{"id":"ke-doga-37","kind":"poi","name":"Çekmeköy Rahmi Demir Kent Ormanı","theme":"doga","lab":0},"geometry":{"type":"Point","coordinates":[29.18619,41.0375]}},{"type":"Feature","properties":{"id":"ke-doga-38","kind":"poi","name":"Göztepe Tabiat Parkı","theme":"doga","lab":0},"geometry":{"type":"Point","coordinates":[29.12011,41.09386]}},{"type":"Feature","properties":{"id":"ke-doga-39","kind":"poi","name":"Sultangazi Kent Ormanı","theme":"doga","lab":0},"geometry":{"type":"Point","coordinates":[28.91346,41.1098]}},{"type":"Feature","properties":{"id":"ke-doga-40","kind":"poi","name":"Şamlar Tabiat Parkı","theme":"doga","lab":0},"geometry":{"type":"Point","coordinates":[28.75906,41.14319]}},{"type":"Feature","properties":{"id":"ke-doga-41","kind":"poi","name":"Göktürk Göleti Tabiat Parkı","theme":"doga","lab":0},"geometry":{"type":"Point","coordinates":[28.87671,41.19597]}},{"type":"Feature","properties":{"id":"ke-doga-42","kind":"poi","name":"Mimar Sinan Kent Ormanı","theme":"doga","lab":0},"geometry":{"type":"Point","coordinates":[28.90009,41.11648]}},{"type":"Feature","properties":{"id":"ke-doga-43","kind":"poi","name":"Kemerburgaz Kent Ormanı","theme":"doga","lab":0},"geometry":{"type":"Point","coordinates":[28.88505,41.1516]}},{"type":"Feature","properties":{"id":"ke-doga-44","kind":"poi","name":"Boğaz Manzarası","theme":"doga","lab":0},"geometry":{"type":"Point","coordinates":[29.03908,41.07148]}},{"type":"Feature","properties":{"id":"ke-doga-45","kind":"poi","name":"Petek","theme":"doga","lab":0},"geometry":{"type":"Point","coordinates":[29.04839,41.0833]}},{"type":"Feature","properties":{"id":"ke-doga-46","kind":"poi","name":"Istanbul Sapphire","theme":"doga","lab":0},"geometry":{"type":"Point","coordinates":[29.00595,41.08497]}},{"type":"Feature","properties":{"id":"ke-doga-47","kind":"poi","name":"Best Point for Sea&Lake Sunset View","theme":"doga","lab":0},"geometry":{"type":"Point","coordinates":[28.62048,41.01236]}},{"type":"Feature","properties":{"id":"ke-doga-48","kind":"poi","name":"View of the Bosphorus","theme":"doga","lab":0},"geometry":{"type":"Point","coordinates":[28.98705,41.02989]}},{"type":"Feature","properties":{"id":"ke-doga-49","kind":"poi","name":"McPro Productions","theme":"doga","lab":0},"geometry":{"type":"Point","coordinates":[28.64516,41.00524]}},{"type":"Feature","properties":{"id":"ke-doga-50","kind":"poi","name":"Özgüt Sokagi","theme":"doga","lab":0},"geometry":{"type":"Point","coordinates":[29.27523,40.81337]}},{"type":"Feature","properties":{"id":"ke-doga-51","kind":"poi","name":"Dragos Sahili","theme":"doga","lab":0},"geometry":{"type":"Point","coordinates":[29.14115,40.90408]}},{"type":"Feature","properties":{"id":"ke-doga-52","kind":"poi","name":"Eyüp Tepesi","theme":"doga","lab":0},"geometry":{"type":"Point","coordinates":[28.93362,41.05363]}},{"type":"Feature","properties":{"id":"ke-doga-53","kind":"poi","name":"Sarayburnu Manzarası","theme":"doga","lab":0},"geometry":{"type":"Point","coordinates":[28.98575,41.01754]}},{"type":"Feature","properties":{"id":"ke-doga-54","kind":"poi","name":"صيرفة","theme":"doga","lab":0},"geometry":{"type":"Point","coordinates":[28.89005,41.01097]}},{"type":"Feature","properties":{"id":"ke-doga-55","kind":"poi","name":"Madentepe Manzarası","theme":"doga","lab":0},"geometry":{"type":"Point","coordinates":[28.76824,41.14731]}},{"type":"Feature","properties":{"id":"ke-doga-56","kind":"poi","name":"Kınalı Ada Gözlem Noktası (m&h)","theme":"doga","lab":0},"geometry":{"type":"Point","coordinates":[29.05642,40.90771]}},{"type":"Feature","properties":{"id":"ke-doga-57","kind":"poi","name":"Cam Teras","theme":"doga","lab":0},"geometry":{"type":"Point","coordinates":[28.99256,40.86361]}},{"type":"Feature","properties":{"id":"ke-doga-58","kind":"poi","name":"Plaj","theme":"doga","lab":0},"geometry":{"type":"Point","coordinates":[29.28261,40.81269]}},{"type":"Feature","properties":{"id":"ke-doga-59","kind":"poi","name":"Yeniköy Seyir Terası","theme":"doga","lab":0},"geometry":{"type":"Point","coordinates":[28.72232,41.3198]}},{"type":"Feature","properties":{"id":"ke-gastronomi-0","kind":"poi","name":"Espressolab","theme":"gastronomi","lab":1},"geometry":{"type":"Point","coordinates":[28.79177,41.01997]}},{"type":"Feature","properties":{"id":"ke-gastronomi-1","kind":"poi","name":"Nabu Karakoy","theme":"gastronomi","lab":1},"geometry":{"type":"Point","coordinates":[28.97993,41.02526]}},{"type":"Feature","properties":{"id":"ke-gastronomi-2","kind":"poi","name":"Sultan’s Inn","theme":"gastronomi","lab":1},"geometry":{"type":"Point","coordinates":[28.97453,41.00317]}},{"type":"Feature","properties":{"id":"ke-gastronomi-3","kind":"poi","name":"Ismet Baba","theme":"gastronomi","lab":1},"geometry":{"type":"Point","coordinates":[29.02947,41.03677]}},{"type":"Feature","properties":{"id":"ke-gastronomi-4","kind":"poi","name":"Savoy","theme":"gastronomi","lab":1},"geometry":{"type":"Point","coordinates":[28.98333,41.03196]}},{"type":"Feature","properties":{"id":"ke-gastronomi-5","kind":"poi","name":"Arasta Çarşısı","theme":"gastronomi","lab":1},"geometry":{"type":"Point","coordinates":[28.97775,41.005]}},{"type":"Feature","properties":{"id":"ke-gastronomi-6","kind":"poi","name":"Lalezar Meyhanesi","theme":"gastronomi","lab":1},"geometry":{"type":"Point","coordinates":[28.9894,41.04409]}},{"type":"Feature","properties":{"id":"ke-gastronomi-7","kind":"poi","name":"Neolokal","theme":"gastronomi","lab":1},"geometry":{"type":"Point","coordinates":[28.97348,41.02378]}},{"type":"Feature","properties":{"id":"ke-gastronomi-8","kind":"poi","name":"Sepetçi Han","theme":"gastronomi","lab":1},"geometry":{"type":"Point","coordinates":[28.96717,41.00965]}},{"type":"Feature","properties":{"id":"ke-gastronomi-9","kind":"poi","name":"Mısır Çarşısı","theme":"gastronomi","lab":1},"geometry":{"type":"Point","coordinates":[28.9711,41.01646]}},{"type":"Feature","properties":{"id":"ke-gastronomi-10","kind":"poi","name":"beyti lokanta","theme":"gastronomi","lab":1},"geometry":{"type":"Point","coordinates":[28.79399,40.97332]}},{"type":"Feature","properties":{"id":"ke-gastronomi-11","kind":"poi","name":"Mihrabat","theme":"gastronomi","lab":1},"geometry":{"type":"Point","coordinates":[29.06849,41.0964]}},{"type":"Feature","properties":{"id":"ke-gastronomi-12","kind":"poi","name":"Cold Stone Creamery","theme":"gastronomi","lab":0},"geometry":{"type":"Point","coordinates":[29.02425,41.04783]}},{"type":"Feature","properties":{"id":"ke-gastronomi-13","kind":"poi","name":"Pinkberry","theme":"gastronomi","lab":0},"geometry":{"type":"Point","coordinates":[29.00994,41.07823]}},{"type":"Feature","properties":{"id":"ke-gastronomi-14","kind":"poi","name":"Hakmar","theme":"gastronomi","lab":0},"geometry":{"type":"Point","coordinates":[29.19105,41.01729]}},{"type":"Feature","properties":{"id":"ke-gastronomi-15","kind":"poi","name":"Cold Stone Creamery","theme":"gastronomi","lab":0},"geometry":{"type":"Point","coordinates":[29.02351,40.99033]}},{"type":"Feature","properties":{"id":"ke-gastronomi-16","kind":"poi","name":"Bomonti Semt Pazarı","theme":"gastronomi","lab":0},"geometry":{"type":"Point","coordinates":[28.98045,41.05667]}},{"type":"Feature","properties":{"id":"ke-gastronomi-17","kind":"poi","name":"Arenapark Organik Pazarı","theme":"gastronomi","lab":0},"geometry":{"type":"Point","coordinates":[28.792,41.05253]}},{"type":"Feature","properties":{"id":"ke-gastronomi-18","kind":"poi","name":"Pendik Pazar Alanı","theme":"gastronomi","lab":0},"geometry":{"type":"Point","coordinates":[29.24759,40.873]}},{"type":"Feature","properties":{"id":"ke-gastronomi-19","kind":"poi","name":"Barbaros Kapalı Semt Pazarı","theme":"gastronomi","lab":0},"geometry":{"type":"Point","coordinates":[29.09989,40.99361]}},{"type":"Feature","properties":{"id":"ke-gastronomi-20","kind":"poi","name":"Alibeyköy Kapalı Pazar Yeri","theme":"gastronomi","lab":0},"geometry":{"type":"Point","coordinates":[28.94905,41.07476]}},{"type":"Feature","properties":{"id":"ke-gastronomi-21","kind":"poi","name":"Deprem Toplanma Alanı ve Pazar","theme":"gastronomi","lab":0},"geometry":{"type":"Point","coordinates":[29.26448,40.90506]}},{"type":"Feature","properties":{"id":"ke-gastronomi-22","kind":"poi","name":"Ambarlı Semt Pazarı","theme":"gastronomi","lab":0},"geometry":{"type":"Point","coordinates":[28.71074,40.97804]}},{"type":"Feature","properties":{"id":"ke-gastronomi-23","kind":"poi","name":"Aldıkaçtı","theme":"gastronomi","lab":0},"geometry":{"type":"Point","coordinates":[29.06717,41.03822]}},{"type":"Feature","properties":{"id":"ke-gastronomi-24","kind":"poi","name":"Meşhur Dondurmacı Ali Usta","theme":"gastronomi","lab":0},"geometry":{"type":"Point","coordinates":[29.02283,40.98157]}},{"type":"Feature","properties":{"id":"ke-gastronomi-25","kind":"poi","name":"Arnavutköy Farmers Market","theme":"gastronomi","lab":0},"geometry":{"type":"Point","coordinates":[29.0408,41.07014]}},{"type":"Feature","properties":{"id":"ke-gastronomi-26","kind":"poi","name":"Aksuvital Doğal Ürünler Gıda San.Tic.A.Ş.","theme":"gastronomi","lab":0},"geometry":{"type":"Point","coordinates":[28.80417,41.08604]}},{"type":"Feature","properties":{"id":"ke-gastronomi-27","kind":"poi","name":"Aksuvital Doğal Ürünler Gıda San.Tic.A.Ş. Fabrika","theme":"gastronomi","lab":0},"geometry":{"type":"Point","coordinates":[28.78216,41.08332]}},{"type":"Feature","properties":{"id":"ke-gastronomi-28","kind":"poi","name":"Aksuvital Doğal Ürünler Gıda San.Tic.A.Ş.","theme":"gastronomi","lab":0},"geometry":{"type":"Point","coordinates":[28.6376,40.9865]}},{"type":"Feature","properties":{"id":"ke-gastronomi-29","kind":"poi","name":"Aksuvital Fındıkzade Şubesi","theme":"gastronomi","lab":0},"geometry":{"type":"Point","coordinates":[28.93989,41.01326]}},{"type":"Feature","properties":{"id":"ke-gastronomi-30","kind":"poi","name":"Cumartesi Pazarı","theme":"gastronomi","lab":0},"geometry":{"type":"Point","coordinates":[28.88187,40.99707]}},{"type":"Feature","properties":{"id":"ke-gastronomi-31","kind":"poi","name":"Beygah Semt Pazarı","theme":"gastronomi","lab":0},"geometry":{"type":"Point","coordinates":[28.65036,41.01996]}},{"type":"Feature","properties":{"id":"ke-gastronomi-32","kind":"poi","name":"Dondurması","theme":"gastronomi","lab":0},"geometry":{"type":"Point","coordinates":[29.10117,40.87661]}},{"type":"Feature","properties":{"id":"ke-gastronomi-33","kind":"poi","name":"Horhor","theme":"gastronomi","lab":0},"geometry":{"type":"Point","coordinates":[28.95156,41.01288]}},{"type":"Feature","properties":{"id":"ke-gastronomi-34","kind":"poi","name":"Omaya ice cream","theme":"gastronomi","lab":0},"geometry":{"type":"Point","coordinates":[28.94787,41.01992]}},{"type":"Feature","properties":{"id":"ke-gastronomi-35","kind":"poi","name":"Selamet","theme":"gastronomi","lab":0},"geometry":{"type":"Point","coordinates":[28.94846,41.02595]}},{"type":"Feature","properties":{"id":"ke-gastronomi-36","kind":"poi","name":"Fazlıoğlu Kuruyemiş","theme":"gastronomi","lab":0},"geometry":{"type":"Point","coordinates":[29.18097,41.04065]}},{"type":"Feature","properties":{"id":"ke-gastronomi-37","kind":"poi","name":"Arslan Tekel Sayısal Loto Bayi","theme":"gastronomi","lab":0},"geometry":{"type":"Point","coordinates":[29.19737,41.01417]}},{"type":"Feature","properties":{"id":"ke-gastronomi-38","kind":"poi","name":"Erzincan Pazarı","theme":"gastronomi","lab":0},"geometry":{"type":"Point","coordinates":[29.171,40.89895]}},{"type":"Feature","properties":{"id":"ke-gastronomi-39","kind":"poi","name":"Yaşar Usta Dondurma","theme":"gastronomi","lab":0},"geometry":{"type":"Point","coordinates":[29.09702,40.95714]}},{"type":"Feature","properties":{"id":"ke-gastronomi-40","kind":"poi","name":"Yiğitoğlu Tekel Bayii","theme":"gastronomi","lab":0},"geometry":{"type":"Point","coordinates":[29.18322,41.03121]}},{"type":"Feature","properties":{"id":"ke-gastronomi-41","kind":"poi","name":"Kervan Dondurma","theme":"gastronomi","lab":0},"geometry":{"type":"Point","coordinates":[29.37329,40.78954]}},{"type":"Feature","properties":{"id":"ke-gastronomi-42","kind":"poi","name":"Dörtler Kuruyemiş","theme":"gastronomi","lab":0},"geometry":{"type":"Point","coordinates":[28.93052,41.01226]}},{"type":"Feature","properties":{"id":"ke-gastronomi-43","kind":"poi","name":"Köşem Gıda","theme":"gastronomi","lab":0},"geometry":{"type":"Point","coordinates":[28.92981,41.01216]}},{"type":"Feature","properties":{"id":"ke-gastronomi-44","kind":"poi","name":"Serez Dondurmacısı","theme":"gastronomi","lab":0},"geometry":{"type":"Point","coordinates":[29.12884,40.93785]}},{"type":"Feature","properties":{"id":"ke-gastronomi-45","kind":"poi","name":"Kastamono","theme":"gastronomi","lab":0},"geometry":{"type":"Point","coordinates":[28.96914,41.03714]}},{"type":"Feature","properties":{"id":"ke-gastronomi-46","kind":"poi","name":"dondurmacı amcam","theme":"gastronomi","lab":0},"geometry":{"type":"Point","coordinates":[29.28972,40.94517]}},{"type":"Feature","properties":{"id":"ke-gastronomi-47","kind":"poi","name":"Yeşiltepe Kardeşler Daimi Ekonomik Halk Pazarı","theme":"gastronomi","lab":0},"geometry":{"type":"Point","coordinates":[28.89982,40.99095]}},{"type":"Feature","properties":{"id":"ke-gastronomi-48","kind":"poi","name":"Pınar Dondurma","theme":"gastronomi","lab":0},"geometry":{"type":"Point","coordinates":[29.08518,40.97967]}},{"type":"Feature","properties":{"id":"ke-gastronomi-49","kind":"poi","name":"Efendiler Kornet Dondurma","theme":"gastronomi","lab":0},"geometry":{"type":"Point","coordinates":[29.12852,40.92117]}},{"type":"Feature","properties":{"id":"ke-gastronomi-50","kind":"poi","name":"Güler Balık Pazarı","theme":"gastronomi","lab":0},"geometry":{"type":"Point","coordinates":[29.22757,40.90021]}},{"type":"Feature","properties":{"id":"ke-gastronomi-51","kind":"poi","name":"GÜLLÜ MARKET","theme":"gastronomi","lab":0},"geometry":{"type":"Point","coordinates":[29.3799,40.816]}},{"type":"Feature","properties":{"id":"ke-gastronomi-52","kind":"poi","name":"GÜRBÜZ MARKET","theme":"gastronomi","lab":0},"geometry":{"type":"Point","coordinates":[29.37829,40.81458]}},{"type":"Feature","properties":{"id":"ke-gastronomi-53","kind":"poi","name":"Pazar Yeri","theme":"gastronomi","lab":0},"geometry":{"type":"Point","coordinates":[28.85568,41.02943]}},{"type":"Feature","properties":{"id":"ke-gastronomi-54","kind":"poi","name":"Kapalı Semt Pazarı","theme":"gastronomi","lab":0},"geometry":{"type":"Point","coordinates":[29.37255,40.86182]}},{"type":"Feature","properties":{"id":"ke-gastronomi-55","kind":"poi","name":"Cremeria Milano","theme":"gastronomi","lab":0},"geometry":{"type":"Point","coordinates":[29.06804,40.96676]}},{"type":"Feature","properties":{"id":"ke-gastronomi-56","kind":"poi","name":"Meshur DONDURMACI Erham","theme":"gastronomi","lab":0},"geometry":{"type":"Point","coordinates":[29.0719,40.98368]}},{"type":"Feature","properties":{"id":"ke-gastronomi-57","kind":"poi","name":"Dondurma","theme":"gastronomi","lab":0},"geometry":{"type":"Point","coordinates":[28.58874,41.01742]}},{"type":"Feature","properties":{"id":"ke-gastronomi-58","kind":"poi","name":"Şehr-i Maraş Dondurma","theme":"gastronomi","lab":0},"geometry":{"type":"Point","coordinates":[28.93297,41.04698]}},{"type":"Feature","properties":{"id":"ke-gastronomi-59","kind":"poi","name":"Vita Mia Gelato","theme":"gastronomi","lab":0},"geometry":{"type":"Point","coordinates":[28.97681,41.01393]}},{"type":"Feature","properties":{"id":"ke-gastronomi-60","kind":"poi","name":"Murratto Waffle","theme":"gastronomi","lab":0},"geometry":{"type":"Point","coordinates":[29.23529,40.87703]}},{"type":"Feature","properties":{"id":"ke-gastronomi-61","kind":"poi","name":"Özkayalar Maraş Dondurma","theme":"gastronomi","lab":0},"geometry":{"type":"Point","coordinates":[29.22885,41.03049]}},{"type":"Feature","properties":{"id":"ke-gastronomi-62","kind":"poi","name":"MUA Gelatieri d'italia","theme":"gastronomi","lab":0},"geometry":{"type":"Point","coordinates":[29.06732,41.11872]}},{"type":"Feature","properties":{"id":"ke-gastronomi-63","kind":"poi","name":"Thai Roll Ice","theme":"gastronomi","lab":0},"geometry":{"type":"Point","coordinates":[29.05639,41.08453]}},{"type":"Feature","properties":{"id":"ke-gastronomi-64","kind":"poi","name":"Güneş Dondurma& Waffle","theme":"gastronomi","lab":0},"geometry":{"type":"Point","coordinates":[29.04493,41.07847]}},{"type":"Feature","properties":{"id":"ke-gastronomi-65","kind":"poi","name":"Cremeria Milano","theme":"gastronomi","lab":0},"geometry":{"type":"Point","coordinates":[29.07554,40.96191]}},{"type":"Feature","properties":{"id":"ke-gastronomi-66","kind":"poi","name":"Balıkçılar","theme":"gastronomi","lab":0},"geometry":{"type":"Point","coordinates":[29.04218,41.15963]}},{"type":"Feature","properties":{"id":"ke-gastronomi-67","kind":"poi","name":"Bolulu Hasan Usta","theme":"gastronomi","lab":0},"geometry":{"type":"Point","coordinates":[28.99118,41.05171]}},{"type":"Feature","properties":{"id":"ke-gastronomi-68","kind":"poi","name":"Yakacık'ın Tarihi Balkan Dondurması","theme":"gastronomi","lab":0},"geometry":{"type":"Point","coordinates":[29.22586,40.91849]}},{"type":"Feature","properties":{"id":"ke-gastronomi-69","kind":"poi","name":"Öz Çinili Şarküteri","theme":"gastronomi","lab":0},"geometry":{"type":"Point","coordinates":[29.24706,40.90486]}},{"type":"Feature","properties":{"id":"ke-alisveris-0","kind":"poi","name":"Atlas Pasajı","theme":"alisveris","lab":1},"geometry":{"type":"Point","coordinates":[28.97921,41.03411]}},{"type":"Feature","properties":{"id":"ke-alisveris-1","kind":"poi","name":"Carousel Alışveriş ve Yaşam Merkezi","theme":"alisveris","lab":1},"geometry":{"type":"Point","coordinates":[28.87342,40.97773]}},{"type":"Feature","properties":{"id":"ke-alisveris-2","kind":"poi","name":"Akasya Alışveriş Merkezi","theme":"alisveris","lab":1},"geometry":{"type":"Point","coordinates":[29.05481,41.00157]}},{"type":"Feature","properties":{"id":"ke-alisveris-3","kind":"poi","name":"Trump Alışveriş Merkezi","theme":"alisveris","lab":1},"geometry":{"type":"Point","coordinates":[28.9923,41.06849]}},{"type":"Feature","properties":{"id":"ke-alisveris-4","kind":"poi","name":"İstinyePark","theme":"alisveris","lab":1},"geometry":{"type":"Point","coordinates":[29.03263,41.11032]}},{"type":"Feature","properties":{"id":"ke-alisveris-5","kind":"poi","name":"ÖzdilekPark İstanbul","theme":"alisveris","lab":1},"geometry":{"type":"Point","coordinates":[29.01093,41.07731]}},{"type":"Feature","properties":{"id":"ke-alisveris-6","kind":"poi","name":"Maltepe Park","theme":"alisveris","lab":1},"geometry":{"type":"Point","coordinates":[29.16393,40.9191]}},{"type":"Feature","properties":{"id":"ke-alisveris-7","kind":"poi","name":"İMÇ Çarşısı","theme":"alisveris","lab":1},"geometry":{"type":"Point","coordinates":[28.95759,41.01728]}},{"type":"Feature","properties":{"id":"ke-alisveris-8","kind":"poi","name":"Mısır Çarşısı","theme":"alisveris","lab":1},"geometry":{"type":"Point","coordinates":[28.9711,41.01646]}},{"type":"Feature","properties":{"id":"ke-alisveris-9","kind":"poi","name":"Olivium Outlet Center","theme":"alisveris","lab":1},"geometry":{"type":"Point","coordinates":[28.90976,40.99537]}},{"type":"Feature","properties":{"id":"ke-alisveris-10","kind":"poi","name":"Atirus","theme":"alisveris","lab":1},"geometry":{"type":"Point","coordinates":[28.58376,41.0212]}},{"type":"Feature","properties":{"id":"ke-alisveris-11","kind":"poi","name":"Vadistanbul Alışveriş Merkezi","theme":"alisveris","lab":1},"geometry":{"type":"Point","coordinates":[28.98741,41.10741]}},{"type":"Feature","properties":{"id":"ke-alisveris-12","kind":"poi","name":"İstanbul Cevahir Alışveriş ve Eğlence Merkezi","theme":"alisveris","lab":1},"geometry":{"type":"Point","coordinates":[28.99286,41.06258]}},{"type":"Feature","properties":{"id":"ke-alisveris-13","kind":"poi","name":"ArmoniPark Alışveriş Merkezi","theme":"alisveris","lab":1},"geometry":{"type":"Point","coordinates":[28.7973,41.0069]}},{"type":"Feature","properties":{"id":"ke-alisveris-14","kind":"poi","name":"Büyük Beşiktaş Çarşısı","theme":"alisveris","lab":1},"geometry":{"type":"Point","coordinates":[29.00523,41.04271]}},{"type":"Feature","properties":{"id":"ke-alisveris-15","kind":"poi","name":"Tepe Nautilus Alışveriş Merkezi","theme":"alisveris","lab":1},"geometry":{"type":"Point","coordinates":[29.0315,40.99961]}},{"type":"Feature","properties":{"id":"ke-alisveris-16","kind":"poi","name":"Akmerkez","theme":"alisveris","lab":1},"geometry":{"type":"Point","coordinates":[29.02674,41.07664]}},{"type":"Feature","properties":{"id":"ke-alisveris-17","kind":"poi","name":"Astoria","theme":"alisveris","lab":1},"geometry":{"type":"Point","coordinates":[29.00587,41.06859]}},{"type":"Feature","properties":{"id":"ke-alisveris-18","kind":"poi","name":"Sapphire","theme":"alisveris","lab":1},"geometry":{"type":"Point","coordinates":[29.00605,41.08496]}},{"type":"Feature","properties":{"id":"ke-alisveris-19","kind":"poi","name":"Ataköy Galleria Alışveriş Merkezi","theme":"alisveris","lab":1},"geometry":{"type":"Point","coordinates":[28.86942,40.9744]}},{"type":"Feature","properties":{"id":"ke-alisveris-20","kind":"poi","name":"Marmara Park","theme":"alisveris","lab":1},"geometry":{"type":"Point","coordinates":[28.65959,41.00971]}},{"type":"Feature","properties":{"id":"ke-alisveris-21","kind":"poi","name":"Forum İstanbul Alışveriş ve Yaşam Merkezi","theme":"alisveris","lab":1},"geometry":{"type":"Point","coordinates":[28.89765,41.04686]}},{"type":"Feature","properties":{"id":"ke-alisveris-22","kind":"poi","name":"Narmanlı Han","theme":"alisveris","lab":1},"geometry":{"type":"Point","coordinates":[28.97473,41.02925]}},{"type":"Feature","properties":{"id":"ke-alisveris-23","kind":"poi","name":"Zorlu Center","theme":"alisveris","lab":1},"geometry":{"type":"Point","coordinates":[29.01688,41.06646]}},{"type":"Feature","properties":{"id":"ke-alisveris-24","kind":"poi","name":"Tekstilkent A Kapısı","theme":"alisveris","lab":0},"geometry":{"type":"Point","coordinates":[28.8605,41.06727]}},{"type":"Feature","properties":{"id":"ke-alisveris-25","kind":"poi","name":"Mopaş","theme":"alisveris","lab":0},"geometry":{"type":"Point","coordinates":[29.12283,40.93481]}},{"type":"Feature","properties":{"id":"ke-alisveris-26","kind":"poi","name":"GIZIA Toptanci Magazasi","theme":"alisveris","lab":0},"geometry":{"type":"Point","coordinates":[28.99067,41.05386]}},{"type":"Feature","properties":{"id":"ke-alisveris-27","kind":"poi","name":"M&S Outlet","theme":"alisveris","lab":0},"geometry":{"type":"Point","coordinates":[29.01314,41.07578]}},{"type":"Feature","properties":{"id":"ke-alisveris-28","kind":"poi","name":"The KASE Turkey","theme":"alisveris","lab":0},"geometry":{"type":"Point","coordinates":[28.80709,41.06306]}},{"type":"Feature","properties":{"id":"ke-alisveris-29","kind":"poi","name":"İstanbul AVM","theme":"alisveris","lab":0},"geometry":{"type":"Point","coordinates":[29.13242,40.92393]}},{"type":"Feature","properties":{"id":"ke-alisveris-30","kind":"poi","name":"Model Mefruşat","theme":"alisveris","lab":0},"geometry":{"type":"Point","coordinates":[29.0307,40.99015]}},{"type":"Feature","properties":{"id":"ke-alisveris-31","kind":"poi","name":"M&S Outlet","theme":"alisveris","lab":0},"geometry":{"type":"Point","coordinates":[29.07682,40.96277]}},{"type":"Feature","properties":{"id":"ke-alisveris-32","kind":"poi","name":"Axis İstanbul","theme":"alisveris","lab":0},"geometry":{"type":"Point","coordinates":[28.92089,41.03537]}},{"type":"Feature","properties":{"id":"ke-alisveris-33","kind":"poi","name":"Pabuç Butik | Ayakkabı ve Çanta","theme":"alisveris","lab":0},"geometry":{"type":"Point","coordinates":[29.02785,40.99066]}},{"type":"Feature","properties":{"id":"ke-alisveris-34","kind":"poi","name":"Ardan Çanta","theme":"alisveris","lab":0},"geometry":{"type":"Point","coordinates":[28.89662,41.03535]}},{"type":"Feature","properties":{"id":"ke-alisveris-35","kind":"poi","name":"Kadriye Baştürk Zeruj Mall","theme":"alisveris","lab":0},"geometry":{"type":"Point","coordinates":[29.2323,40.88164]}},{"type":"Feature","properties":{"id":"ke-alisveris-36","kind":"poi","name":"kith&kin","theme":"alisveris","lab":0},"geometry":{"type":"Point","coordinates":[28.98556,41.0314]}},{"type":"Feature","properties":{"id":"ke-alisveris-37","kind":"poi","name":"İleri Store","theme":"alisveris","lab":0},"geometry":{"type":"Point","coordinates":[28.96645,41.06467]}},{"type":"Feature","properties":{"id":"ke-alisveris-38","kind":"poi","name":"Mate Kostüm","theme":"alisveris","lab":0},"geometry":{"type":"Point","coordinates":[28.80598,41.07091]}},{"type":"Feature","properties":{"id":"ke-alisveris-39","kind":"poi","name":"mnkhome","theme":"alisveris","lab":0},"geometry":{"type":"Point","coordinates":[28.82593,41.06638]}},{"type":"Feature","properties":{"id":"ke-otel-0","kind":"poi","name":"Dedeman İstanbul","theme":"otel","lab":1},"geometry":{"type":"Point","coordinates":[29.00991,41.06404]}},{"type":"Feature","properties":{"id":"ke-otel-1","kind":"poi","name":"Hilton Garden Inn Istanbul Ataturk Airport","theme":"otel","lab":1},"geometry":{"type":"Point","coordinates":[28.81562,41.02285]}},{"type":"Feature","properties":{"id":"ke-otel-2","kind":"poi","name":"Wyndham Grand Istanbul Levent","theme":"otel","lab":1},"geometry":{"type":"Point","coordinates":[29.01259,41.07728]}},{"type":"Feature","properties":{"id":"ke-otel-3","kind":"poi","name":"Hampton by Hilton Istanbul Atakoy","theme":"otel","lab":1},"geometry":{"type":"Point","coordinates":[28.86052,40.98268]}},{"type":"Feature","properties":{"id":"ke-otel-4","kind":"poi","name":"Sheraton Istanbul City Center","theme":"otel","lab":1},"geometry":{"type":"Point","coordinates":[28.97469,41.03955]}},{"type":"Feature","properties":{"id":"ke-otel-5","kind":"poi","name":"DoubleTree by Hilton Hotel Istanbul - Old Town","theme":"otel","lab":1},"geometry":{"type":"Point","coordinates":[28.96035,41.00905]}},{"type":"Feature","properties":{"id":"ke-otel-6","kind":"poi","name":"Hilton Garden Inn Istanbul Beylikduzu","theme":"otel","lab":1},"geometry":{"type":"Point","coordinates":[28.63718,41.01765]}},{"type":"Feature","properties":{"id":"ke-otel-7","kind":"poi","name":"Sura Design Hotel and Suites","theme":"otel","lab":1},"geometry":{"type":"Point","coordinates":[28.97592,41.00861]}},{"type":"Feature","properties":{"id":"ke-otel-8","kind":"poi","name":"Radisson Blu Hotel & Spa","theme":"otel","lab":1},"geometry":{"type":"Point","coordinates":[29.3158,40.87612]}},{"type":"Feature","properties":{"id":"ke-otel-9","kind":"poi","name":"Hampton by Hilton Istanbul Kurtköy","theme":"otel","lab":1},"geometry":{"type":"Point","coordinates":[29.30914,40.92765]}},{"type":"Feature","properties":{"id":"ke-otel-10","kind":"poi","name":"Hampton by Hilton Istanbul Sirkeci","theme":"otel","lab":1},"geometry":{"type":"Point","coordinates":[28.97377,41.01358]}},{"type":"Feature","properties":{"id":"ke-otel-11","kind":"poi","name":"Hilton Istanbul Bosphorus","theme":"otel","lab":1},"geometry":{"type":"Point","coordinates":[28.98959,41.04449]}},{"type":"Feature","properties":{"id":"ke-otel-12","kind":"poi","name":"Conrad Istanbul Bosphorus","theme":"otel","lab":1},"geometry":{"type":"Point","coordinates":[29.0095,41.04714]}},{"type":"Feature","properties":{"id":"ke-otel-13","kind":"poi","name":"DoubleTree by Hilton Hotel Istanbul","theme":"otel","lab":1},"geometry":{"type":"Point","coordinates":[29.02129,40.98847]}},{"type":"Feature","properties":{"id":"ke-otel-14","kind":"poi","name":"Hilton Istanbul Bomonti Hotel & Conference Center","theme":"otel","lab":1},"geometry":{"type":"Point","coordinates":[28.97925,41.05876]}},{"type":"Feature","properties":{"id":"ke-otel-15","kind":"poi","name":"Sheraton Grand Ataşehir İstanbul","theme":"otel","lab":1},"geometry":{"type":"Point","coordinates":[29.10171,40.99368]}},{"type":"Feature","properties":{"id":"ke-otel-16","kind":"poi","name":"Hilton Istanbul Maslak","theme":"otel","lab":1},"geometry":{"type":"Point","coordinates":[29.02293,41.10919]}},{"type":"Feature","properties":{"id":"ke-otel-17","kind":"poi","name":"Hampton by Hilton Istanbul Zeytinburnu","theme":"otel","lab":1},"geometry":{"type":"Point","coordinates":[28.91884,40.99345]}},{"type":"Feature","properties":{"id":"ke-otel-18","kind":"poi","name":"DoubleTree by Hilton Istanbul Topkapi","theme":"otel","lab":1},"geometry":{"type":"Point","coordinates":[28.92047,41.0264]}},{"type":"Feature","properties":{"id":"ke-otel-19","kind":"poi","name":"Hilton Istanbul Bakırkoy","theme":"otel","lab":1},"geometry":{"type":"Point","coordinates":[28.8862,40.98016]}},{"type":"Feature","properties":{"id":"ke-otel-20","kind":"poi","name":"Hyatt House Gebze","theme":"otel","lab":1},"geometry":{"type":"Point","coordinates":[29.44204,40.79453]}},{"type":"Feature","properties":{"id":"ke-otel-21","kind":"poi","name":"Hyatt Regency Istanbul Ataköy","theme":"otel","lab":1},"geometry":{"type":"Point","coordinates":[28.85713,40.97609]}},{"type":"Feature","properties":{"id":"ke-otel-22","kind":"poi","name":"Hyatt Centric Levent İstanbul","theme":"otel","lab":1},"geometry":{"type":"Point","coordinates":[29.01541,41.07544]}},{"type":"Feature","properties":{"id":"ke-otel-23","kind":"poi","name":"Golden City Hotel","theme":"otel","lab":1},"geometry":{"type":"Point","coordinates":[28.97008,41.02383]}},{"type":"Feature","properties":{"id":"ke-otel-24","kind":"poi","name":"Grand Hotel Avcılar","theme":"otel","lab":1},"geometry":{"type":"Point","coordinates":[28.74226,40.97769]}},{"type":"Feature","properties":{"id":"ke-otel-25","kind":"poi","name":"Bilek Hotel","theme":"otel","lab":1},"geometry":{"type":"Point","coordinates":[29.00543,41.08963]}},{"type":"Feature","properties":{"id":"ke-otel-26","kind":"poi","name":"Hampton by Hilton Istanbul Kayasehir","theme":"otel","lab":1},"geometry":{"type":"Point","coordinates":[28.75706,41.10735]}},{"type":"Feature","properties":{"id":"ke-otel-27","kind":"poi","name":"Grand S Hotel","theme":"otel","lab":1},"geometry":{"type":"Point","coordinates":[28.89442,41.03516]}},{"type":"Feature","properties":{"id":"ke-otel-28","kind":"poi","name":"Hampton by Hilton Istanbul Merter","theme":"otel","lab":1},"geometry":{"type":"Point","coordinates":[28.89337,41.00624]}},{"type":"Feature","properties":{"id":"ke-otel-29","kind":"poi","name":"Imagine Istanbul - Sultanahmet","theme":"otel","lab":1},"geometry":{"type":"Point","coordinates":[28.96972,41.00543]}},{"type":"Feature","properties":{"id":"ke-otel-30","kind":"poi","name":"DoubleTree by Hilton Hotel Istanbul - Avcilar","theme":"otel","lab":1},"geometry":{"type":"Point","coordinates":[28.70677,40.99405]}},{"type":"Feature","properties":{"id":"ke-otel-31","kind":"poi","name":"Holiday Inn","theme":"otel","lab":1},"geometry":{"type":"Point","coordinates":[29.4275,40.79114]}},{"type":"Feature","properties":{"id":"ke-otel-32","kind":"poi","name":"DoubleTree by Hilton Istanbul Gayrettepe","theme":"otel","lab":1},"geometry":{"type":"Point","coordinates":[29.00424,41.06759]}},{"type":"Feature","properties":{"id":"ke-otel-33","kind":"poi","name":"DoubleTree by Hilton Istanbul - Tuzla","theme":"otel","lab":1},"geometry":{"type":"Point","coordinates":[29.29634,40.84593]}},{"type":"Feature","properties":{"id":"ke-otel-34","kind":"poi","name":"DoubleTree by Hilton Istanbul - Piyalepasa","theme":"otel","lab":1},"geometry":{"type":"Point","coordinates":[28.96634,41.03962]}},{"type":"Feature","properties":{"id":"ke-otel-35","kind":"poi","name":"DoubleTree by Hilton Istanbul Umraniye","theme":"otel","lab":1},"geometry":{"type":"Point","coordinates":[29.10545,41.02521]}},{"type":"Feature","properties":{"id":"ke-otel-36","kind":"poi","name":"Novotel Istanbul Zeytinburnu","theme":"otel","lab":1},"geometry":{"type":"Point","coordinates":[28.90137,40.98036]}},{"type":"Feature","properties":{"id":"ke-otel-37","kind":"poi","name":"DoubleTree by Hilton Istanbul Macka","theme":"otel","lab":1},"geometry":{"type":"Point","coordinates":[28.996,41.04275]}},{"type":"Feature","properties":{"id":"ke-otel-38","kind":"poi","name":"Mercure Hotel","theme":"otel","lab":1},"geometry":{"type":"Point","coordinates":[29.11681,41.02905]}},{"type":"Feature","properties":{"id":"ke-otel-39","kind":"poi","name":"Wish More Hotel Şişli","theme":"otel","lab":1},"geometry":{"type":"Point","coordinates":[28.98762,41.05936]}},{"type":"Feature","properties":{"id":"ke-otel-40","kind":"poi","name":"Hilton İstanbul Kozyatağı","theme":"otel","lab":1},"geometry":{"type":"Point","coordinates":[29.086,40.98697]}},{"type":"Feature","properties":{"id":"ke-otel-41","kind":"poi","name":"ALL INN","theme":"otel","lab":1},"geometry":{"type":"Point","coordinates":[28.98331,41.04514]}},{"type":"Feature","properties":{"id":"ke-otel-42","kind":"poi","name":"Lalinn Hotel","theme":"otel","lab":1},"geometry":{"type":"Point","coordinates":[28.97775,41.00266]}},{"type":"Feature","properties":{"id":"ke-otel-43","kind":"poi","name":"Anibal","theme":"otel","lab":0},"geometry":{"type":"Point","coordinates":[29.43962,40.79738]}},{"type":"Feature","properties":{"id":"ke-otel-44","kind":"poi","name":"Levni Hotel & SPA","theme":"otel","lab":0},"geometry":{"type":"Point","coordinates":[28.97567,41.01304]}},{"type":"Feature","properties":{"id":"ke-otel-45","kind":"poi","name":"Richmond Hotel","theme":"otel","lab":0},"geometry":{"type":"Point","coordinates":[28.97554,41.02972]}},{"type":"Feature","properties":{"id":"ke-otel-46","kind":"poi","name":"Rios Edition Hotel","theme":"otel","lab":0},"geometry":{"type":"Point","coordinates":[28.87565,40.97446]}},{"type":"Feature","properties":{"id":"ke-otel-47","kind":"poi","name":"Elite Hotels Istanbul Airport","theme":"otel","lab":0},"geometry":{"type":"Point","coordinates":[28.74344,41.18445]}},{"type":"Feature","properties":{"id":"ke-otel-48","kind":"poi","name":"Melas Hotel İstanbul","theme":"otel","lab":0},"geometry":{"type":"Point","coordinates":[29.00343,41.06609]}},{"type":"Feature","properties":{"id":"ke-otel-49","kind":"poi","name":"Limak Eurasia","theme":"otel","lab":0},"geometry":{"type":"Point","coordinates":[29.09745,41.09201]}},{"type":"Feature","properties":{"id":"ke-otel-50","kind":"poi","name":"Yeşilköy Çınar Hotel","theme":"otel","lab":0},"geometry":{"type":"Point","coordinates":[28.83636,40.959]}},{"type":"Feature","properties":{"id":"ke-otel-51","kind":"poi","name":"Dosso Dossi Golden Horn Hotel","theme":"otel","lab":0},"geometry":{"type":"Point","coordinates":[28.94964,41.05372]}},{"type":"Feature","properties":{"id":"ke-otel-52","kind":"poi","name":"Modus Hotel İstanbul","theme":"otel","lab":0},"geometry":{"type":"Point","coordinates":[28.99703,41.0541]}},{"type":"Feature","properties":{"id":"ke-otel-53","kind":"poi","name":"Avrasya Queen Hotel","theme":"otel","lab":0},"geometry":{"type":"Point","coordinates":[28.95298,41.00378]}},{"type":"Feature","properties":{"id":"ke-otel-54","kind":"poi","name":"Blue Life Otel","theme":"otel","lab":0},"geometry":{"type":"Point","coordinates":[29.23468,40.88722]}},{"type":"Feature","properties":{"id":"ke-yurt-0","kind":"poi","name":"The LOCAL","theme":"yurt","lab":1},"geometry":{"type":"Point","coordinates":[28.97938,41.00302]}},{"type":"Feature","properties":{"id":"ke-yurt-1","kind":"poi","name":"Avrasya Hostel","theme":"yurt","lab":1},"geometry":{"type":"Point","coordinates":[28.97962,41.00595]}},{"type":"Feature","properties":{"id":"ke-yurt-2","kind":"poi","name":"Cheers Midtown","theme":"yurt","lab":1},"geometry":{"type":"Point","coordinates":[28.97968,41.02924]}},{"type":"Feature","properties":{"id":"ke-yurt-3","kind":"poi","name":"Taksim square hostel","theme":"yurt","lab":1},"geometry":{"type":"Point","coordinates":[28.97775,41.03207]}},{"type":"Feature","properties":{"id":"ke-yurt-4","kind":"poi","name":"Galata West Hostel","theme":"yurt","lab":1},"geometry":{"type":"Point","coordinates":[28.97389,41.02509]}},{"type":"Feature","properties":{"id":"ke-yurt-5","kind":"poi","name":"Sipahi Otel","theme":"yurt","lab":1},"geometry":{"type":"Point","coordinates":[28.97241,41.00939]}},{"type":"Feature","properties":{"id":"ke-yurt-6","kind":"poi","name":"Levanten Hostel","theme":"yurt","lab":1},"geometry":{"type":"Point","coordinates":[28.98623,41.03385]}},{"type":"Feature","properties":{"id":"ke-yurt-7","kind":"poi","name":"Taksim Green House Hostel","theme":"yurt","lab":1},"geometry":{"type":"Point","coordinates":[28.9853,41.04265]}},{"type":"Feature","properties":{"id":"ke-yurt-8","kind":"poi","name":"Rodamón","theme":"yurt","lab":1},"geometry":{"type":"Point","coordinates":[28.97259,41.03106]}},{"type":"Feature","properties":{"id":"ke-yurt-9","kind":"poi","name":"Hamam Hostel 1469","theme":"yurt","lab":1},"geometry":{"type":"Point","coordinates":[28.9622,41.01989]}},{"type":"Feature","properties":{"id":"ke-yurt-10","kind":"poi","name":"Kevin's Hostel","theme":"yurt","lab":1},"geometry":{"type":"Point","coordinates":[29.02725,40.99503]}},{"type":"Feature","properties":{"id":"ke-yurt-11","kind":"poi","name":"Kalkedon Hostel","theme":"yurt","lab":1},"geometry":{"type":"Point","coordinates":[29.02977,40.9964]}},{"type":"Feature","properties":{"id":"ke-yurt-12","kind":"poi","name":"Moda Drei","theme":"yurt","lab":1},"geometry":{"type":"Point","coordinates":[29.03054,40.98532]}},{"type":"Feature","properties":{"id":"ke-yurt-13","kind":"poi","name":"Hostel suryali","theme":"yurt","lab":0},"geometry":{"type":"Point","coordinates":[29.27171,40.96646]}},{"type":"Feature","properties":{"id":"ke-yurt-14","kind":"poi","name":"mustafa akyol sokagi 11/1 .yenisehir/pendik","theme":"yurt","lab":0},"geometry":{"type":"Point","coordinates":[29.30793,40.92804]}},{"type":"Feature","properties":{"id":"ke-yurt-15","kind":"poi","name":"Atatürk Vakfı H. Yılmaz Külahçıoğlu Kız Öğrenci Yurdu","theme":"yurt","lab":0},"geometry":{"type":"Point","coordinates":[28.70122,41.00357]}},{"type":"Feature","properties":{"id":"ke-yurt-16","kind":"poi","name":"Özel Ortaöğretim Kız Öğrenci Yurdu","theme":"yurt","lab":0},"geometry":{"type":"Point","coordinates":[29.26659,40.97187]}},{"type":"Feature","properties":{"id":"ke-yurt-17","kind":"poi","name":"İBB Avcılar Yükseköğrenim Kız Öğrenci Yurdu 1","theme":"yurt","lab":0},"geometry":{"type":"Point","coordinates":[28.71347,40.99506]}},{"type":"Feature","properties":{"id":"ke-yurt-18","kind":"poi","name":"Kopuzlar Erkek Öğrenci Yurdu","theme":"yurt","lab":0},"geometry":{"type":"Point","coordinates":[29.08863,40.96988]}},{"type":"Feature","properties":{"id":"ke-yurt-19","kind":"poi","name":"İBB Zeren Ertaş Yükseköğrenim Kız Öğrenci Yurdu","theme":"yurt","lab":0},"geometry":{"type":"Point","coordinates":[29.04287,40.99781]}},{"type":"Feature","properties":{"id":"ke-yurt-20","kind":"poi","name":"İBB Avcılar Yükseköğrenim Kız Öğrenci Yurdu 1","theme":"yurt","lab":0},"geometry":{"type":"Point","coordinates":[28.72072,40.99077]}},{"type":"Feature","properties":{"id":"ke-yurt-21","kind":"poi","name":"İBB Ümraniye Yükseköğrenim Erkek Öğrenci Yurdu","theme":"yurt","lab":0},"geometry":{"type":"Point","coordinates":[29.14664,40.99937]}},{"type":"Feature","properties":{"id":"ke-yurt-22","kind":"poi","name":"İBB Bayrampaşa Yükseköğretim Kız Öğrenci Yurdu","theme":"yurt","lab":0},"geometry":{"type":"Point","coordinates":[28.89837,41.0409]}},{"type":"Feature","properties":{"id":"ke-yurt-23","kind":"poi","name":"İBB Gaziosmanpaşa Yükseköğrenim Erkek Öğrenci Yurdu","theme":"yurt","lab":0},"geometry":{"type":"Point","coordinates":[28.90315,41.07274]}},{"type":"Feature","properties":{"id":"ke-yurt-24","kind":"poi","name":"İBB Esenyurt Yükseköğrenim Erkek Öğrenci Yurdu","theme":"yurt","lab":0},"geometry":{"type":"Point","coordinates":[28.68482,41.01804]}},{"type":"Feature","properties":{"id":"ke-kamu-0","kind":"poi","name":"İstanbul Adalet Sarayı Savcı Mehmet Selim Kiraz Yerleşkesi","theme":"kamu","lab":1},"geometry":{"type":"Point","coordinates":[28.98032,41.06898]}},{"type":"Feature","properties":{"id":"ke-kamu-1","kind":"poi","name":"Karaköy Palas","theme":"kamu","lab":1},"geometry":{"type":"Point","coordinates":[28.97555,41.02319]}},{"type":"Feature","properties":{"id":"ke-kamu-2","kind":"poi","name":"Üsküdar Belediyesi","theme":"kamu","lab":1},"geometry":{"type":"Point","coordinates":[29.01986,41.02067]}},{"type":"Feature","properties":{"id":"ke-kamu-3","kind":"poi","name":"Istanbul Büyükşehir Belediyesi","theme":"kamu","lab":1},"geometry":{"type":"Point","coordinates":[28.95532,41.01349]}},{"type":"Feature","properties":{"id":"ke-kamu-4","kind":"poi","name":"Marmara Belediyeler Birliği","theme":"kamu","lab":1},"geometry":{"type":"Point","coordinates":[28.96874,41.01901]}},{"type":"Feature","properties":{"id":"ke-kamu-5","kind":"poi","name":"Osmanlı Arşivi Daire Başkanlığı","theme":"kamu","lab":1},"geometry":{"type":"Point","coordinates":[28.96551,41.06883]}},{"type":"Feature","properties":{"id":"ke-kamu-6","kind":"poi","name":"Türkiye Cumhuriyet Merkez Bankası","theme":"kamu","lab":1},"geometry":{"type":"Point","coordinates":[29.11065,41.00202]}},{"type":"Feature","properties":{"id":"ke-kamu-7","kind":"poi","name":"İstanbul Anadolu Adalet Sarayı","theme":"kamu","lab":1},"geometry":{"type":"Point","coordinates":[29.17835,40.9144]}},{"type":"Feature","properties":{"id":"ke-kamu-8","kind":"poi","name":"İstanbul Bölge Adliye Mahkemesi","theme":"kamu","lab":1},"geometry":{"type":"Point","coordinates":[29.15826,40.91071]}},{"type":"Feature","properties":{"id":"ke-kamu-9","kind":"poi","name":"Sultanbeyli İlçe Milli Eğitim Müdürlüğü","theme":"kamu","lab":0},"geometry":{"type":"Point","coordinates":[29.26054,40.9701]}},{"type":"Feature","properties":{"id":"ke-kamu-10","kind":"poi","name":"İstanbul Valiliği","theme":"kamu","lab":0},"geometry":{"type":"Point","coordinates":[28.97635,41.01212]}},{"type":"Feature","properties":{"id":"ke-kamu-11","kind":"poi","name":"İstanbul İl Afet ve Acil Durum Müdürlüğü Hasdal Hizmet Binası","theme":"kamu","lab":0},"geometry":{"type":"Point","coordinates":[28.94839,41.09477]}},{"type":"Feature","properties":{"id":"ke-kamu-12","kind":"poi","name":"İstanbul Sağlık Müdürlüğü Ek Hizmet Binası","theme":"kamu","lab":0},"geometry":{"type":"Point","coordinates":[28.9733,41.00583]}},{"type":"Feature","properties":{"id":"ke-kamu-13","kind":"poi","name":"Maltepe Belediyesi","theme":"kamu","lab":0},"geometry":{"type":"Point","coordinates":[29.12792,40.93142]}},{"type":"Feature","properties":{"id":"ke-kamu-14","kind":"poi","name":"Pirinççi Mahallesi Muhtarlığı","theme":"kamu","lab":0},"geometry":{"type":"Point","coordinates":[28.83317,41.13393]}},{"type":"Feature","properties":{"id":"ke-kamu-15","kind":"poi","name":"Sultangazi Belediyesi Hizmet Binası","theme":"kamu","lab":0},"geometry":{"type":"Point","coordinates":[28.87265,41.10684]}},{"type":"Feature","properties":{"id":"ke-kamu-16","kind":"poi","name":"Afet Yönetim Merkezi","theme":"kamu","lab":0},"geometry":{"type":"Point","coordinates":[29.26824,40.98281]}},{"type":"Feature","properties":{"id":"ke-kamu-17","kind":"poi","name":"İBB Bakırköy Hizmet Binası","theme":"kamu","lab":0},"geometry":{"type":"Point","coordinates":[28.88467,40.99966]}},{"type":"Feature","properties":{"id":"ke-kamu-18","kind":"poi","name":"Halk Sağlığı Müdürlüğü","theme":"kamu","lab":0},"geometry":{"type":"Point","coordinates":[28.90667,41.00956]}},{"type":"Feature","properties":{"id":"ke-kamu-19","kind":"poi","name":"Zeytinburnu Semiha Şakir Huzurevi","theme":"kamu","lab":0},"geometry":{"type":"Point","coordinates":[28.91663,41.00284]}},{"type":"Feature","properties":{"id":"ke-kamu-20","kind":"poi","name":"Fen İşleri Müdürlüğü","theme":"kamu","lab":0},"geometry":{"type":"Point","coordinates":[28.61996,41.00083]}},{"type":"Feature","properties":{"id":"ke-kamu-21","kind":"poi","name":"Paşaköy Ahmet Keleşoğlu Hizmet Merkezi","theme":"kamu","lab":0},"geometry":{"type":"Point","coordinates":[29.27691,41.01811]}},{"type":"Feature","properties":{"id":"ke-kamu-22","kind":"poi","name":"Uğur Mumcu Mahallesi Hizmet Tesisleri","theme":"kamu","lab":0},"geometry":{"type":"Point","coordinates":[28.86938,41.09477]}},{"type":"Feature","properties":{"id":"ke-kamu-23","kind":"poi","name":"İstanbul Su ve Kanalizasyon İdaresi Kadıköy Şube Müdürlüğü","theme":"kamu","lab":0},"geometry":{"type":"Point","coordinates":[29.02105,40.98714]}},{"type":"Feature","properties":{"id":"ke-kamu-24","kind":"poi","name":"Kartal Kaymakamlığı","theme":"kamu","lab":0},"geometry":{"type":"Point","coordinates":[29.19254,40.8927]}},{"type":"Feature","properties":{"id":"ke-kamu-25","kind":"poi","name":"Avcılar Belediyesi","theme":"kamu","lab":0},"geometry":{"type":"Point","coordinates":[28.71238,40.97928]}},{"type":"Feature","properties":{"id":"ke-kamu-26","kind":"poi","name":"Gaziosmanpaşa Adliyesi","theme":"kamu","lab":0},"geometry":{"type":"Point","coordinates":[28.90729,41.05761]}},{"type":"Feature","properties":{"id":"ke-kamu-27","kind":"poi","name":"50.Yıl Mahallesi Hizmet Tesisleri","theme":"kamu","lab":0},"geometry":{"type":"Point","coordinates":[28.87417,41.09073]}},{"type":"Feature","properties":{"id":"ke-kamu-28","kind":"poi","name":"İSKİ Üsküdar Şube Müdürlüğü","theme":"kamu","lab":0},"geometry":{"type":"Point","coordinates":[29.0433,41.01786]}},{"type":"Feature","properties":{"id":"ke-kamu-29","kind":"poi","name":"Başakşehir Belediyesi Bahçeşehir Hizmet Binası","theme":"kamu","lab":0},"geometry":{"type":"Point","coordinates":[28.68455,41.06233]}},{"type":"Feature","properties":{"id":"ke-kamu-30","kind":"poi","name":"Ebubekir Kültür Merkezi","theme":"kamu","lab":0},"geometry":{"type":"Point","coordinates":[28.86991,41.03338]}},{"type":"Feature","properties":{"id":"ke-kamu-31","kind":"poi","name":"İSKİ Beşiktaş Şube Müdürlüğü","theme":"kamu","lab":0},"geometry":{"type":"Point","coordinates":[29.0286,41.11113]}},{"type":"Feature","properties":{"id":"ke-kamu-32","kind":"poi","name":"Pendik Belediyesi","theme":"kamu","lab":0},"geometry":{"type":"Point","coordinates":[29.2646,40.89164]}},{"type":"Feature","properties":{"id":"ke-kamu-33","kind":"poi","name":"Sancaktepe Belediye Başkanlığı","theme":"kamu","lab":0},"geometry":{"type":"Point","coordinates":[29.22892,40.99379]}},{"type":"Feature","properties":{"id":"ke-kamu-34","kind":"poi","name":"İPKB","theme":"kamu","lab":0},"geometry":{"type":"Point","coordinates":[29.07852,41.02325]}},{"type":"Feature","properties":{"id":"ke-kamu-35","kind":"poi","name":"T. C. İstanbul Valiliği İstanbul Havalimanı Mülkî İdare Amirliği","theme":"kamu","lab":0},"geometry":{"type":"Point","coordinates":[28.74899,41.24933]}},{"type":"Feature","properties":{"id":"ke-kamu-36","kind":"poi","name":"Ulus Mahallesi Muhtarlığı","theme":"kamu","lab":0},"geometry":{"type":"Point","coordinates":[29.02817,41.06546]}},{"type":"Feature","properties":{"id":"ke-kamu-37","kind":"poi","name":"Cihannüma Mahallesi Muhtarlığı","theme":"kamu","lab":0},"geometry":{"type":"Point","coordinates":[29.00844,41.0446]}},{"type":"Feature","properties":{"id":"ke-kamu-38","kind":"poi","name":"Abbasağa Mahallesi Muhtarlığı","theme":"kamu","lab":0},"geometry":{"type":"Point","coordinates":[29.00611,41.04758]}},{"type":"Feature","properties":{"id":"ke-kamu-39","kind":"poi","name":"İBB İsbak A.Ş","theme":"kamu","lab":0},"geometry":{"type":"Point","coordinates":[28.98418,41.09538]}}]}