{"type":"FeatureCollection","features":[{"type":"Feature","properties":{"id":"link-schiphol","kind":"link","subKey":"arr.schiphol.sub","real":true,"via":"NS"},"geometry":{"type":"LineString","coordinates":[[4.76166,52.3095],[4.76162,52.30951],[4.76194,52.30976],[4.76239,52.31011],[4.76285,52.31045],[4.76321,52.31071],[4.76376,52.3111],[4.76391,52.31121],[4.76448,52.31165],[4.76525,52.31227],[4.76565,52.31262],[4.76613,52.31299],[4.76679,52.31343],[4.7674,52.31399],[4.76779,52.31435],[4.76828,52.31475],[4.7693,52.3157],[4.76955,52.31594],[4.77238,52.31858],[4.77451,52.32057],[4.77484,52.32088],[4.77522,52.32123],[4.77571,52.32166],[4.77594,52.32185],[4.77646,52.32225],[4.77697,52.32262],[4.7775,52.32297],[4.77816,52.32337],[4.77845,52.32354],[4.77915,52.32391],[4.77976,52.32421],[4.78051,52.32455],[4.78116,52.32482],[4.78141,52.32492],[4.78211,52.32517],[4.7828,52.3254],[4.78302,52.32547],[4.78395,52.32574],[4.78476,52.32595],[4.78531,52.32608],[4.78626,52.32631],[4.7863,52.32632],[4.78717,52.32661],[4.78863,52.32689],[4.78955,52.32713],[4.7905,52.32735],[4.79079,52.32742],[4.7916,52.32763],[4.79241,52.32785],[4.79302,52.32804],[4.79377,52.32829],[4.79461,52.3286],[4.79499,52.32875],[4.79551,52.32896],[4.79631,52.32931],[4.79692,52.32959],[4.79752,52.32988],[4.79811,52.33019],[4.79834,52.33031],[4.79897,52.33066],[4.79959,52.33102],[4.79986,52.33119],[4.80208,52.33255],[4.80313,52.33319],[4.80374,52.33357],[4.80412,52.3338],[4.8045,52.33403],[4.80527,52.33442],[4.806,52.33481],[4.8065,52.33512],[4.8072,52.33546],[4.80776,52.33579],[4.80844,52.33617],[4.80923,52.33657],[4.8097,52.33678],[4.81043,52.33708],[4.81119,52.33735],[4.81176,52.33753],[4.81256,52.33775],[4.81293,52.33784],[4.81388,52.33804],[4.81477,52.33819],[4.81555,52.33829],[4.81585,52.33832],[4.81687,52.3384],[4.81763,52.33844],[4.81842,52.33845],[4.81922,52.33846],[4.82151,52.33845],[4.82168,52.33845],[4.8227,52.33851],[4.82366,52.33854],[4.82458,52.33859],[4.8254,52.33864],[4.82621,52.33867],[4.82687,52.3387],[4.82753,52.33873],[4.82855,52.33875],[4.82879,52.33876],[4.82965,52.3389],[4.83056,52.33917],[4.83097,52.33933],[4.83171,52.33967],[4.83199,52.33983],[4.83253,52.34019],[4.83303,52.3406],[4.83343,52.34103],[4.83383,52.34161],[4.83388,52.34171],[4.83411,52.34228],[4.83416,52.34252],[4.83423,52.3431],[4.83425,52.34347],[4.83426,52.34396],[4.83425,52.34475],[4.83423,52.34535],[4.83422,52.34585],[4.8342,52.34632],[4.83419,52.34674],[4.83418,52.34718],[4.83416,52.34777],[4.8341,52.3497],[4.83406,52.35124],[4.83403,52.35215],[4.83403,52.35222],[4.83401,52.35281],[4.834,52.35324],[4.83398,52.35389],[4.83397,52.35431],[4.83398,52.35461],[4.83398,52.35542],[4.83397,52.35604],[4.83397,52.35615],[4.83395,52.35676],[4.83394,52.35724],[4.83392,52.35783],[4.83388,52.35933],[4.83387,52.35955],[4.83385,52.36017],[4.83382,52.36078],[4.83377,52.36153],[4.83379,52.36211],[4.83378,52.36254],[4.83377,52.36297],[4.83374,52.36377],[4.83373,52.36433],[4.83373,52.36496],[4.83377,52.36665],[4.8338,52.36709],[4.83386,52.3676],[4.83394,52.3681],[4.83408,52.36892],[4.83415,52.36935],[4.83425,52.36991],[4.83429,52.37014],[4.83439,52.37063],[4.83453,52.37119],[4.83467,52.37164],[4.83486,52.37215],[4.83505,52.37275],[4.8352,52.37312],[4.83543,52.37369],[4.83557,52.37406],[4.83577,52.37462],[4.83595,52.37516],[4.83607,52.37551],[4.83625,52.37601],[4.83647,52.37661],[4.83653,52.37677],[4.83673,52.37725],[4.83696,52.37778],[4.83732,52.37862],[4.8378,52.37976],[4.83802,52.38029],[4.83813,52.38057],[4.83836,52.38112],[4.8386,52.38169],[4.83873,52.38221],[4.83892,52.38279],[4.83894,52.383],[4.83897,52.38359],[4.83892,52.38417],[4.83886,52.38446],[4.83884,52.38503],[4.83892,52.3856],[4.83842,52.3868],[4.83847,52.38731],[4.83833,52.38788],[4.83827,52.38819],[4.83865,52.38875],[4.83938,52.38877],[4.84012,52.38879],[4.84113,52.38883],[4.84169,52.38886],[4.84269,52.38891],[4.8432,52.38893],[4.84409,52.38895],[4.84497,52.38896],[4.84577,52.38897],[4.84662,52.38897],[4.84735,52.38897],[4.84806,52.38896],[4.84902,52.38896],[4.84989,52.38895],[4.8508,52.38895],[4.85136,52.38895],[4.85231,52.38896],[4.85271,52.38896],[4.85371,52.38897],[4.85419,52.38897],[4.855,52.38898],[4.85585,52.38898],[4.85687,52.38899],[4.85747,52.38899],[4.85794,52.389],[4.86003,52.38901],[4.86104,52.38902],[4.8615,52.38902],[4.86218,52.38902],[4.86306,52.38903],[4.86389,52.38904],[4.86475,52.38903],[4.86548,52.38901],[4.86642,52.38898],[4.86725,52.38896],[4.86791,52.38895],[4.86858,52.38893],[4.86928,52.38889],[4.87013,52.3888],[4.87105,52.38866],[4.87195,52.38853],[4.87284,52.38839],[4.87367,52.38825],[4.87446,52.38814],[4.87539,52.38799],[4.87632,52.38783],[4.87727,52.38764],[4.87795,52.38747],[4.87888,52.38721],[4.87958,52.38699],[4.88036,52.38673],[4.88075,52.38661],[4.8815,52.38637],[4.88239,52.38607],[4.88326,52.38577],[4.884,52.3855],[4.88459,52.38526],[4.88535,52.38493],[4.88589,52.38471],[4.88736,52.38389],[4.88805,52.38362],[4.88857,52.38339],[4.88911,52.38316],[4.88974,52.38289],[4.89052,52.38257],[4.89089,52.38244],[4.89173,52.38211],[4.89207,52.38199],[4.89294,52.38168],[4.89316,52.3816],[4.89388,52.38134],[4.89448,52.38112],[4.89513,52.38088],[4.89598,52.38055],[4.89689,52.38027],[4.89738,52.38012],[4.89819,52.37983],[4.89908,52.37951],[4.89945,52.37937],[4.90028,52.37907],[4.9003,52.3791]]}},{"type":"Feature","properties":{"id":"gate-schiphol","kind":"gate","name":"Schiphol Airport","gtype":"air","mode":"plane","subKey":"arr.schiphol.sub","lab":1},"geometry":{"type":"Point","coordinates":[4.76166,52.3095]}},{"type":"Feature","properties":{"id":"gate-centraal","kind":"gate","name":"Amsterdam Centraal","gtype":"rail","mode":"train","subKey":"arr.centraal.sub","lab":1},"geometry":{"type":"Point","coordinates":[4.9003,52.3791]}},{"type":"Feature","properties":{"id":"gate-zuid","kind":"gate","name":"Amsterdam Zuid","gtype":"rail","mode":"train","subKey":"arr.zuid.sub","lab":1},"geometry":{"type":"Point","coordinates":[4.8726,52.339]}},{"type":"Feature","properties":{"id":"gate-sloterdijk","kind":"gate","name":"Amsterdam Sloterdijk","gtype":"road","mode":"bus","subKey":"arr.sloterdijk.sub","lab":1},"geometry":{"type":"Point","coordinates":[4.8378,52.3889]}}]}