{"type":"FeatureCollection","features":[{"type":"Feature","properties":{"id":"egitim-0","kind":"district","btype":"egitim","name":"Humboldt-Universität zu Berlin - Standort Dahlem","lab":1},"geometry":{"type":"Polygon","coordinates":[[[13.29555,52.46932],[13.30321,52.468],[13.30307,52.46653],[13.29959,52.46708],[13.29878,52.46524],[13.29822,52.46514],[13.29486,52.46792],[13.29547,52.4682],[13.29503,52.46856],[13.29555,52.46932]]]}},{"type":"Feature","properties":{"id":"egitim-lab-0","kind":"district-label","btype":"egitim","name":"Humboldt-Universität zu Berlin - Standort Dahlem"},"geometry":{"type":"Point","coordinates":[13.29927,52.4675]}},{"type":"Feature","properties":{"id":"egitim-1","kind":"district","btype":"egitim","name":"Berliner Hochschule für Technik","lab":1},"geometry":{"type":"Polygon","coordinates":[[[13.34949,52.54242],[13.34891,52.54283],[13.35137,52.54424],[13.35015,52.54513],[13.35156,52.54586],[13.3527,52.54505],[13.35535,52.54616],[13.35678,52.54522],[13.34949,52.54242]]]}},{"type":"Feature","properties":{"id":"egitim-lab-1","kind":"district-label","btype":"egitim","name":"Berliner Hochschule für Technik"},"geometry":{"type":"Point","coordinates":[13.35305,52.54465]}},{"type":"Feature","properties":{"id":"egitim-2","kind":"district","btype":"egitim","name":"GeoCampus Lankwitz FU Berlin","lab":1},"geometry":{"type":"Polygon","coordinates":[[[13.35797,52.42519],[13.36037,52.42531],[13.35989,52.4262],[13.36059,52.42736],[13.3555,52.42763],[13.3569,52.42473],[13.35797,52.42519]]]}},{"type":"Feature","properties":{"id":"egitim-lab-2","kind":"district-label","btype":"egitim","name":"GeoCampus Lankwitz FU Berlin"},"geometry":{"type":"Point","coordinates":[13.35827,52.42576]}},{"type":"Feature","properties":{"id":"egitim-3","kind":"district","btype":"egitim","name":"Hochschule für Technik und Wirtschaft Berlin Campus Wilhelminenhof","lab":1},"geometry":{"type":"Polygon","coordinates":[[[13.52762,52.45751],[13.52677,52.45674],[13.52744,52.45644],[13.52685,52.45592],[13.52754,52.45553],[13.52616,52.45429],[13.52339,52.45578],[13.52388,52.45615],[13.52514,52.4556],[13.52577,52.45614],[13.52453,52.45713],[13.5259,52.45829],[13.52644,52.45838],[13.52762,52.45751]]]}},{"type":"Feature","properties":{"id":"egitim-lab-3","kind":"district-label","btype":"egitim","name":"Hochschule für Technik und Wirtschaft Berlin Campus Wilhelminenhof"},"geometry":{"type":"Point","coordinates":[13.52643,52.45629]}},{"type":"Feature","properties":{"id":"egitim-4","kind":"district","btype":"egitim","name":"FU Berlin - Standort Albrecht-Thaer-Weg","lab":1},"geometry":{"type":"Polygon","coordinates":[[[13.29968,52.46707],[13.30307,52.46653],[13.30326,52.46569],[13.29893,52.46528],[13.29968,52.46707]]]}},{"type":"Feature","properties":{"id":"egitim-lab-4","kind":"district-label","btype":"egitim","name":"FU Berlin - Standort Albrecht-Thaer-Weg"},"geometry":{"type":"Point","coordinates":[13.30122,52.46611]}},{"type":"Feature","properties":{"id":"egitim-5","kind":"district","btype":"egitim","name":"Humboldt-Universität Sportzentrum Adlershof","lab":1},"geometry":{"type":"Polygon","coordinates":[[[13.52226,52.42343],[13.52234,52.42208],[13.52525,52.42165],[13.52568,52.42297],[13.52226,52.42343]]]}},{"type":"Feature","properties":{"id":"egitim-lab-5","kind":"district-label","btype":"egitim","name":"Humboldt-Universität Sportzentrum Adlershof"},"geometry":{"type":"Point","coordinates":[13.52392,52.42253]}},{"type":"Feature","properties":{"id":"egitim-6","kind":"district","btype":"egitim","name":"Freie Universität Berlin","lab":1},"geometry":{"type":"Polygon","coordinates":[[[13.27779,52.44753],[13.27909,52.44701],[13.27752,52.44499],[13.27628,52.44521],[13.27779,52.44753]]]}},{"type":"Feature","properties":{"id":"egitim-lab-6","kind":"district-label","btype":"egitim","name":"Freie Universität Berlin"},"geometry":{"type":"Point","coordinates":[13.27763,52.44611]}},{"type":"Feature","properties":{"id":"egitim-7","kind":"district","btype":"egitim","name":"Evangelische Hochschule Berlin","lab":1},"geometry":{"type":"Polygon","coordinates":[[[13.26318,52.42294],[13.26025,52.42256],[13.25988,52.42303],[13.25998,52.42355],[13.2627,52.42391],[13.26318,52.42294]]]}},{"type":"Feature","properties":{"id":"egitim-lab-7","kind":"district-label","btype":"egitim","name":"Evangelische Hochschule Berlin"},"geometry":{"type":"Point","coordinates":[13.26147,52.42329]}},{"type":"Feature","properties":{"id":"egitim-8","kind":"district","btype":"egitim","name":"European School of Management and Technology Berlin","lab":1},"geometry":{"type":"Polygon","coordinates":[[[13.40226,52.5161],[13.40342,52.51522],[13.40151,52.51435],[13.40033,52.51542],[13.40226,52.5161]]]}},{"type":"Feature","properties":{"id":"egitim-lab-8","kind":"district-label","btype":"egitim","name":"European School of Management and Technology Berlin"},"geometry":{"type":"Point","coordinates":[13.40186,52.51532]}},{"type":"Feature","properties":{"id":"egitim-9","kind":"district","btype":"egitim","name":"TU Berlin - Campus Dahlem","lab":1},"geometry":{"type":"Polygon","coordinates":[[[13.29954,52.45779],[13.29764,52.4564],[13.29843,52.45617],[13.29912,52.45521],[13.29951,52.45555],[13.2992,52.45658],[13.30058,52.45683],[13.29954,52.45779]]]}},{"type":"Feature","properties":{"id":"egitim-lab-9","kind":"district-label","btype":"egitim","name":"TU Berlin - Campus Dahlem"},"geometry":{"type":"Point","coordinates":[13.2985,52.45649]}}]}