{"type":"FeatureCollection","features":[{"type":"Feature","properties":{"id":"dogal-0","kind":"district","btype":"dogal","name":"Großer Tiergarten","lab":1},"geometry":{"type":"MultiPolygon","coordinates":[[[[13.34832,52.51421],[13.35,52.51361],[13.35106,52.50974],[13.34982,52.50938],[13.34642,52.50993],[13.34542,52.51095],[13.34312,52.50921],[13.33865,52.5107],[13.33542,52.51278],[13.33165,52.51281],[13.34832,52.51421]]],[[[13.35167,52.50981],[13.3507,52.51368],[13.35195,52.51445],[13.37612,52.51599],[13.3771,52.51543],[13.3765,52.51263],[13.37389,52.51169],[13.37193,52.51142],[13.37051,52.51222],[13.37065,52.51114],[13.36303,52.50988],[13.35314,52.5097],[13.35167,52.50981]]],[[[13.33799,52.51453],[13.33937,52.51457],[13.33926,52.51516],[13.3383,52.5151],[13.33884,52.51549],[13.34221,52.5155],[13.34224,52.51505],[13.34313,52.51511],[13.343,52.51555],[13.34562,52.5162],[13.34871,52.51485],[13.33811,52.51386],[13.33799,52.51453]]],[[[13.3706,52.51763],[13.36967,52.51594],[13.35188,52.5148],[13.35123,52.5151],[13.35483,52.517],[13.35783,52.51692],[13.36173,52.51762],[13.36925,52.51726],[13.3706,52.51763]]],[[[13.37551,52.51631],[13.3726,52.51618],[13.37247,52.51699],[13.37176,52.51718],[13.37129,52.51691],[13.37141,52.5161],[13.37001,52.51605],[13.37092,52.51769],[13.37669,52.51765],[13.37698,52.51704],[13.37551,52.51631]]],[[[13.35146,52.51576],[13.34906,52.51516],[13.34414,52.51726],[13.34465,52.5173],[13.34437,52.51848],[13.34452,52.51816],[13.34583,52.51828],[13.34572,52.5177],[13.34722,52.51781],[13.34732,52.51907],[13.34685,52.51947],[13.34753,52.51909],[13.34829,52.51971],[13.35006,52.51967],[13.35122,52.51904],[13.34875,52.5194],[13.34787,52.51769],[13.35046,52.51711],[13.35,52.51635],[13.35146,52.51576]]]]}},{"type":"Feature","properties":{"id":"dogal-lab-0","kind":"district-label","btype":"dogal","name":"Großer Tiergarten"},"geometry":{"type":"Point","coordinates":[13.36372,52.51315]}},{"type":"Feature","properties":{"id":"dogal-1","kind":"district","btype":"dogal","name":"Tempelhofer Feld","lab":1},"geometry":{"type":"Polygon","coordinates":[[[13.39412,52.47995],[13.40156,52.48023],[13.40247,52.48258],[13.40192,52.48269],[13.40242,52.48327],[13.40728,52.48227],[13.40674,52.48103],[13.41153,52.47839],[13.41361,52.47905],[13.41622,52.47849],[13.41642,52.47776],[13.41796,52.4778],[13.41977,52.47209],[13.42053,52.47107],[13.41754,52.47036],[13.4162,52.46944],[13.41658,52.46672],[13.41193,52.46621],[13.4101,52.46658],[13.40445,52.46564],[13.40086,52.46593],[13.39694,52.46699],[13.39209,52.46938],[13.38629,52.47128],[13.38611,52.47616],[13.38865,52.4762],[13.38859,52.4769],[13.38925,52.47717],[13.39118,52.47722],[13.39258,52.47904],[13.39412,52.47995]]]}},{"type":"Feature","properties":{"id":"dogal-lab-1","kind":"district-label","btype":"dogal","name":"Tempelhofer Feld"},"geometry":{"type":"Point","coordinates":[13.40265,52.47413]}},{"type":"Feature","properties":{"id":"dogal-2","kind":"district","btype":"dogal","name":"Grunewald","lab":1},"geometry":{"type":"MultiPolygon","coordinates":[[[[13.24076,52.45217],[13.24385,52.45273],[13.2449,52.45101],[13.24779,52.44865],[13.24617,52.44773],[13.24076,52.45217]]],[[[13.2733,52.47234],[13.27227,52.46692],[13.27401,52.4675],[13.27343,52.46625],[13.27421,52.4661],[13.27394,52.4657],[13.27592,52.46517],[13.27621,52.46557],[13.27709,52.46534],[13.27722,52.46552],[13.27631,52.4657],[13.27678,52.46635],[13.27682,52.46828],[13.27808,52.46836],[13.27781,52.46603],[13.27455,52.46045],[13.2642,52.4571],[13.26385,52.45734],[13.26436,52.45767],[13.26357,52.45811],[13.26301,52.45774],[13.26241,52.45828],[13.26028,52.45801],[13.25978,52.45769],[13.26168,52.45659],[13.26298,52.45761],[13.26397,52.45703],[13.25682,52.45511],[13.25016,52.45417],[13.2502,52.4537],[13.24233,52.45264],[13.23947,52.4519],[13.23518,52.44939],[13.23449,52.45004],[13.23352,52.44967],[13.23449,52.44868],[13.23262,52.4485],[13.23288,52.44823],[13.23215,52.44797],[13.2324,52.44771],[13.23137,52.44678],[13.23045,52.44703],[13.22867,52.44401],[13.22071,52.44303],[13.21975,52.44229],[13.21986,52.44103],[13.21292,52.43996],[13.21175,52.44051],[13.2118,52.44006],[13.21107,52.43991],[13.21122,52.43955],[13.21024,52.43932],[13.20915,52.43999],[13.20765,52.43983],[13.20266,52.43814],[13.20166,52.43621],[13.20003,52.43559],[13.19886,52.43565],[13.19747,52.43683],[13.19739,52.43726],[13.23786,52.46932],[13.24513,52.47475],[13.25297,52.47962],[13.25732,52.48544],[13.25692,52.48271],[13.25966,52.47877],[13.26074,52.47831],[13.26232,52.4799],[13.26347,52.4795],[13.26411,52.48001],[13.27189,52.4765],[13.27126,52.47658],[13.27125,52.47514],[13.27511,52.4751],[13.27491,52.47457],[13.27123,52.4746],[13.27119,52.47236],[13.2733,52.47234]]],[[[13.23424,52.4677],[13.19419,52.43647],[13.18705,52.43262],[13.18622,52.43309],[13.1796,52.43272],[13.17721,52.43395],[13.17921,52.43495],[13.1775,52.43673],[13.17759,52.44258],[13.17661,52.44497],[13.17596,52.44531],[13.1767,52.44507],[13.17752,52.44559],[13.17786,52.44675],[13.17742,52.4469],[13.17854,52.44914],[13.17991,52.44983],[13.1835,52.44923],[13.18771,52.44918],[13.18909,52.45202],[13.18834,52.45253],[13.18572,52.45248],[13.18492,52.45329],[13.18579,52.45371],[13.1869,52.4553],[13.18921,52.46086],[13.18852,52.46237],[13.19007,52.46365],[13.19238,52.46429],[13.19481,52.46578],[13.19547,52.46919],[13.19684,52.47012],[13.19586,52.4707],[13.19459,52.4706],[13.19342,52.46985],[13.19259,52.46998],[13.1907,52.47564],[13.19085,52.4773],[13.19158,52.4787],[13.19417,52.4822],[13.19305,52.48483],[13.18965,52.48797],[13.19117,52.49137],[13.19367,52.49305],[13.19327,52.4943],[13.19401,52.49625],[13.19575,52.49713],[13.19732,52.49671],[13.19662,52.49311],[13.19796,52.4934],[13.19895,52.49484],[13.19865,52.49496],[13.2005,52.49594],[13.1993,52.49652],[13.20307,52.49843],[13.20582,52.50054],[13.2092,52.50161],[13.21063,52.50135],[13.21186,52.50222],[13.21547,52.50268],[13.21599,52.50463],[13.21495,52.5048],[13.2158,52.50598],[13.21499,52.50629],[13.21588,52.50609],[13.21722,52.50725],[13.21651,52.50762],[13.21731,52.50731],[13.21856,52.50847],[13.21992,52.5082],[13.2198,52.50609],[13.223,52.50661],[13.22289,52.5076],[13.22747,52.50667],[13.2279,52.50624],[13.22765,52.50593],[13.22838,52.50593],[13.22855,52.50488],[13.22771,52.50359],[13.25422,52.50521],[13.25745,52.50767],[13.25803,52.50681],[13.25714,52.50351],[13.2556,52.50423],[13.25344,52.5025],[13.25657,52.50048],[13.2557,52.4998],[13.25518,52.50004],[13.25176,52.49736],[13.25853,52.49415],[13.26198,52.49685],[13.26288,52.49648],[13.25905,52.49336],[13.25718,52.49314],[13.25832,52.49088],[13.26038,52.48944],[13.23424,52.4677]]],[[[13.21528,52.50921],[13.21635,52.50888],[13.21576,52.50841],[13.21639,52.50835],[13.21544,52.50772],[13.21607,52.50744],[13.21563,52.50711],[13.21459,52.50743],[13.21388,52.50631],[13.21435,52.50638],[13.21479,52.5062],[13.2138,52.50625],[13.2131,52.50652],[13.21397,52.50827],[13.21528,52.50921]]]]}},{"type":"Feature","properties":{"id":"dogal-lab-2","kind":"district-label","btype":"dogal","name":"Grunewald"},"geometry":{"type":"Point","coordinates":[13.25279,52.46281]}},{"type":"Feature","properties":{"id":"dogal-3","kind":"district","btype":"dogal","name":"Volkspark Friedrichshain","lab":1},"geometry":{"type":"MultiPolygon","coordinates":[[[[13.43673,52.52492],[13.43727,52.52468],[13.43718,52.52365],[13.43666,52.52361],[13.43623,52.52446],[13.43673,52.52492]]],[[[13.44222,52.53092],[13.44517,52.5283],[13.44105,52.52662],[13.44133,52.52636],[13.44086,52.52618],[13.43957,52.52734],[13.437,52.52712],[13.43539,52.52611],[13.43681,52.52547],[13.43608,52.52471],[13.43641,52.52352],[13.43556,52.52387],[13.43526,52.52343],[13.43363,52.52344],[13.42521,52.52801],[13.43744,52.52952],[13.43861,52.52862],[13.44222,52.53092]]]]}},{"type":"Feature","properties":{"id":"dogal-lab-3","kind":"district-label","btype":"dogal","name":"Volkspark Friedrichshain"},"geometry":{"type":"Point","coordinates":[13.43247,52.52723]}},{"type":"Feature","properties":{"id":"dogal-4","kind":"district","btype":"dogal","name":"Hasenheide","lab":1},"geometry":{"type":"Polygon","coordinates":[[[13.62351,52.67242],[13.62512,52.67168],[13.62567,52.67233],[13.62824,52.67168],[13.62889,52.67216],[13.63406,52.66972],[13.63573,52.67244],[13.63683,52.67033],[13.63777,52.67152],[13.64024,52.67023],[13.64823,52.66942],[13.65425,52.67033],[13.65491,52.67217],[13.6536,52.67238],[13.64971,52.67176],[13.63899,52.67386],[13.63604,52.6734],[13.62707,52.67629],[13.6273,52.67667],[13.62593,52.67711],[13.62654,52.67663],[13.62351,52.67242]]]}},{"type":"Feature","properties":{"id":"dogal-lab-4","kind":"district-label","btype":"dogal","name":"Hasenheide"},"geometry":{"type":"Point","coordinates":[13.63383,52.67292]}},{"type":"Feature","properties":{"id":"dogal-5","kind":"district","btype":"dogal","name":"Görlitzer Park","lab":1},"geometry":{"type":"Polygon","coordinates":[[[13.43155,52.49909],[13.43591,52.49791],[13.44469,52.49506],[13.44328,52.49412],[13.44235,52.49408],[13.43336,52.4972],[13.43258,52.49843],[13.4317,52.49864],[13.43155,52.49909]]]}},{"type":"Feature","properties":{"id":"dogal-lab-5","kind":"district-label","btype":"dogal","name":"Görlitzer Park"},"geometry":{"type":"Point","coordinates":[13.43892,52.49613]}},{"type":"Feature","properties":{"id":"dogal-6","kind":"district","btype":"dogal","name":"Mauerpark","lab":1},"geometry":{"type":"Polygon","coordinates":[[[13.4014,52.54647],[13.4029,52.54393],[13.40359,52.54406],[13.40442,52.54206],[13.40522,52.54168],[13.40503,52.5409],[13.40203,52.54014],[13.40025,52.54337],[13.3993,52.5463],[13.4006,52.54643],[13.40002,52.54733],[13.40079,52.5474],[13.40101,52.54674],[13.40059,52.54652],[13.4014,52.54647]]]}},{"type":"Feature","properties":{"id":"dogal-lab-6","kind":"district-label","btype":"dogal","name":"Mauerpark"},"geometry":{"type":"Point","coordinates":[13.40196,52.54365]}},{"type":"Feature","properties":{"id":"dogal-7","kind":"district","btype":"dogal","name":"Viktoriapark","lab":1},"geometry":{"type":"Polygon","coordinates":[[[13.38077,52.48678],[13.37929,52.48678],[13.37926,52.48514],[13.37878,52.48515],[13.37882,52.4868],[13.37774,52.48701],[13.37776,52.48759],[13.37685,52.4876],[13.3769,52.48915],[13.38313,52.48979],[13.38283,52.48881],[13.38478,52.48838],[13.38357,52.48732],[13.38079,52.48746],[13.38077,52.48678]]]}},{"type":"Feature","properties":{"id":"dogal-lab-7","kind":"district-label","btype":"dogal","name":"Viktoriapark"},"geometry":{"type":"Point","coordinates":[13.38078,52.48752]}},{"type":"Feature","properties":{"id":"dogal-8","kind":"district","btype":"dogal","name":"Britzer Garten","lab":1},"geometry":{"type":"Polygon","coordinates":[[[13.42965,52.42768],[13.42595,52.42831],[13.42327,52.42805],[13.42288,52.42754],[13.4147,52.43214],[13.41397,52.4317],[13.41324,52.4322],[13.41229,52.43166],[13.41178,52.432],[13.40736,52.43062],[13.407,52.43088],[13.40807,52.43395],[13.40897,52.43395],[13.40858,52.43272],[13.41298,52.43467],[13.4129,52.43543],[13.4134,52.4355],[13.41233,52.43869],[13.414,52.43869],[13.41495,52.43659],[13.4158,52.43638],[13.41781,52.4373],[13.41786,52.43688],[13.41915,52.43636],[13.42233,52.43807],[13.42167,52.43897],[13.42169,52.43996],[13.42268,52.44007],[13.42445,52.43892],[13.42182,52.43712],[13.42315,52.43391],[13.42403,52.43348],[13.42239,52.43248],[13.42288,52.43204],[13.42222,52.43143],[13.42377,52.43055],[13.42268,52.42914],[13.42483,52.42902],[13.42643,52.42996],[13.42868,52.42996],[13.43367,52.42894],[13.43359,52.42815],[13.43424,52.42798],[13.43016,52.42834],[13.42965,52.42768]]]}},{"type":"Feature","properties":{"id":"dogal-lab-8","kind":"district-label","btype":"dogal","name":"Britzer Garten"},"geometry":{"type":"Point","coordinates":[13.41718,52.4337]}},{"type":"Feature","properties":{"id":"dogal-9","kind":"district","btype":"dogal","name":"Gärten der Welt","lab":1},"geometry":{"type":"Polygon","coordinates":[[[13.57114,52.5395],[13.57134,52.54034],[13.58031,52.53956],[13.58073,52.53803],[13.5822,52.53723],[13.57674,52.53611],[13.57505,52.53441],[13.57261,52.53421],[13.56715,52.53521],[13.56756,52.53583],[13.5687,52.53563],[13.56885,52.53603],[13.56782,52.53621],[13.569,52.53796],[13.5695,52.53787],[13.56995,52.53958],[13.57114,52.5395]]]}},{"type":"Feature","properties":{"id":"dogal-lab-9","kind":"district-label","btype":"dogal","name":"Gärten der Welt"},"geometry":{"type":"Point","coordinates":[13.57517,52.53755]}},{"type":"Feature","properties":{"id":"dogal-10","kind":"district","btype":"dogal","name":"Volkspark Rehberge","lab":1},"geometry":{"type":"MultiPolygon","coordinates":[[[[13.33233,52.55515],[13.33668,52.55243],[13.33833,52.55087],[13.33781,52.55054],[13.33845,52.55008],[13.33225,52.54598],[13.3233,52.54954],[13.32289,52.54945],[13.32195,52.54967],[13.32334,52.54964],[13.32588,52.55748],[13.32584,52.5608],[13.3275,52.5605],[13.32656,52.56034],[13.32623,52.55932],[13.32661,52.55927],[13.32538,52.55562],[13.32859,52.55525],[13.32919,52.55706],[13.32824,52.55774],[13.32835,52.55805],[13.32883,52.55833],[13.32832,52.55769],[13.32905,52.55773],[13.32911,52.55716],[13.33223,52.55521],[13.331,52.55453],[13.33068,52.55528],[13.32987,52.55548],[13.32939,52.55472],[13.33113,52.55413],[13.33233,52.55515]]],[[[13.32735,52.56005],[13.32877,52.56009],[13.32881,52.55971],[13.32735,52.56005]]]]}},{"type":"Feature","properties":{"id":"dogal-lab-10","kind":"district-label","btype":"dogal","name":"Volkspark Rehberge"},"geometry":{"type":"Point","coordinates":[13.32992,52.55328]}},{"type":"Feature","properties":{"id":"dogal-11","kind":"district","btype":"dogal","name":"Plänterwald","lab":1},"geometry":{"type":"Polygon","coordinates":[[[13.47975,52.48449],[13.48675,52.48766],[13.48914,52.48777],[13.49091,52.48736],[13.49348,52.48471],[13.49561,52.47832],[13.49449,52.47521],[13.49505,52.47229],[13.49263,52.47024],[13.48353,52.48023],[13.48621,52.48163],[13.48412,52.48313],[13.48209,52.48185],[13.47975,52.48449]]]}},{"type":"Feature","properties":{"id":"dogal-lab-11","kind":"district-label","btype":"dogal","name":"Plänterwald"},"geometry":{"type":"Point","coordinates":[13.48985,52.47928]}},{"type":"Feature","properties":{"id":"dogal-12","kind":"district","btype":"dogal","name":"Spandauer Forst","lab":1},"geometry":{"type":"MultiPolygon","coordinates":[[[[13.21105,52.57163],[13.21172,52.57062],[13.21064,52.57049],[13.21032,52.57156],[13.21105,52.57163]]],[[[13.14389,52.58733],[13.14335,52.586],[13.14598,52.58727],[13.14623,52.58648],[13.14576,52.5857],[13.14895,52.58591],[13.14942,52.58549],[13.15108,52.58657],[13.15058,52.58696],[13.15159,52.5879],[13.15029,52.5884],[13.14887,52.58798],[13.14845,52.58989],[13.15029,52.59117],[13.15362,52.59144],[13.15686,52.59084],[13.15368,52.59153],[13.15034,52.59125],[13.1539,52.59341],[13.15644,52.59213],[13.15804,52.59258],[13.15734,52.59335],[13.15762,52.59572],[13.16806,52.59647],[13.17352,52.59479],[13.18167,52.59331],[13.19148,52.58944],[13.21282,52.58595],[13.21088,52.58519],[13.21088,52.5844],[13.21149,52.58466],[13.21199,52.58376],[13.21279,52.58353],[13.21281,52.58287],[13.21422,52.58212],[13.21347,52.58139],[13.21408,52.58114],[13.21483,52.58194],[13.21611,52.5811],[13.21682,52.57992],[13.21656,52.57878],[13.21732,52.57778],[13.21664,52.57777],[13.21633,52.57825],[13.21612,52.58046],[13.21278,52.58039],[13.21266,52.57986],[13.21135,52.5799],[13.21159,52.57796],[13.21068,52.57793],[13.21152,52.57771],[13.21232,52.57627],[13.21192,52.57543],[13.21288,52.57365],[13.21244,52.57333],[13.21284,52.5718],[13.21242,52.57067],[13.21197,52.57171],[13.21137,52.57166],[13.21083,52.57356],[13.21016,52.5735],[13.2102,52.57199],[13.20814,52.57308],[13.20378,52.57086],[13.20571,52.57229],[13.19665,52.57786],[13.18784,52.5724],[13.19196,52.56778],[13.1757,52.5649],[13.17326,52.56382],[13.17076,52.56435],[13.17092,52.56667],[13.16958,52.5671],[13.1675,52.56663],[13.16449,52.56754],[13.16299,52.56679],[13.15647,52.56887],[13.15569,52.56646],[13.15683,52.56633],[13.15964,52.56452],[13.14982,52.56689],[13.1501,52.56755],[13.13913,52.57159],[13.13215,52.5794],[13.13744,52.58058],[13.13905,52.58049],[13.14381,52.58173],[13.14555,52.58277],[13.14796,52.58307],[13.14516,52.58366],[13.14528,52.58312],[13.14427,52.5826],[13.14322,52.58412],[13.14178,52.58451],[13.14073,52.58341],[13.13758,52.58346],[13.13663,52.58378],[13.13554,52.58468],[13.13555,52.58535],[13.13495,52.58544],[13.13429,52.58397],[13.13279,52.584],[13.13321,52.58547],[13.13419,52.58554],[13.13378,52.58619],[13.13627,52.58582],[13.14227,52.58746],[13.14389,52.58733]]]]}},{"type":"Feature","properties":{"id":"dogal-lab-12","kind":"district-label","btype":"dogal","name":"Spandauer Forst"},"geometry":{"type":"Point","coordinates":[13.17413,52.58016]}},{"type":"Feature","properties":{"id":"dogal-13","kind":"district","btype":"dogal","name":"Landschaftspark Wartenberger Feldmark","lab":1},"geometry":{"type":"Polygon","coordinates":[[[13.51983,52.59067],[13.51532,52.58382],[13.51283,52.57894],[13.51559,52.57848],[13.51891,52.57725],[13.51179,52.57884],[13.51167,52.57818],[13.51154,52.57856],[13.50987,52.57827],[13.50976,52.57874],[13.5071,52.57812],[13.50687,52.57745],[13.50409,52.57771],[13.50371,52.57648],[13.50309,52.57654],[13.50309,52.57755],[13.49983,52.57723],[13.50357,52.57811],[13.50502,52.59203],[13.50784,52.59212],[13.50758,52.59286],[13.50835,52.59214],[13.51781,52.5925],[13.51941,52.59184],[13.51983,52.59067]]]}},{"type":"Feature","properties":{"id":"dogal-lab-13","kind":"district-label","btype":"dogal","name":"Landschaftspark Wartenberger Feldmark"},"geometry":{"type":"Point","coordinates":[13.51105,52.58725]}},{"type":"Feature","properties":{"id":"dogal-14","kind":"district","btype":"dogal","name":"Treptower Park","lab":1},"geometry":{"type":"Polygon","coordinates":[[[13.46987,52.48983],[13.46834,52.48977],[13.46083,52.49221],[13.46028,52.49017],[13.47299,52.48155],[13.48183,52.48596],[13.47887,52.48677],[13.47771,52.48878],[13.47557,52.49028],[13.4632,52.49422],[13.46383,52.49516],[13.46103,52.49251],[13.46987,52.48983]]]}},{"type":"Feature","properties":{"id":"dogal-lab-14","kind":"district-label","btype":"dogal","name":"Treptower Park"},"geometry":{"type":"Point","coordinates":[13.47105,52.48777]}},{"type":"Feature","properties":{"id":"dogal-15","kind":"district","btype":"dogal","name":"Freizeitpark Marienfelde","lab":1},"geometry":{"type":"Polygon","coordinates":[[[13.36163,52.40188],[13.36225,52.40452],[13.37329,52.40408],[13.37196,52.40612],[13.37349,52.40608],[13.37386,52.40891],[13.37579,52.40899],[13.37686,52.40818],[13.37493,52.40693],[13.3742,52.40059],[13.3753,52.39982],[13.38211,52.40019],[13.37538,52.39941],[13.37608,52.39662],[13.37766,52.39616],[13.37516,52.39574],[13.37442,52.39926],[13.36452,52.39853],[13.36527,52.40172],[13.36163,52.40188]]]}},{"type":"Feature","properties":{"id":"dogal-lab-15","kind":"district-label","btype":"dogal","name":"Freizeitpark Marienfelde"},"geometry":{"type":"Point","coordinates":[13.36818,52.40298]}},{"type":"Feature","properties":{"id":"dogal-16","kind":"district","btype":"dogal","name":"Schlosspark Charlottenburg","lab":1},"geometry":{"type":"Polygon","coordinates":[[[13.29664,52.5237],[13.29753,52.52231],[13.29975,52.52169],[13.29913,52.52038],[13.29102,52.51977],[13.29012,52.52475],[13.286,52.52569],[13.28568,52.52441],[13.28514,52.52471],[13.28619,52.52685],[13.2895,52.52809],[13.28937,52.52856],[13.29422,52.52932],[13.29584,52.52763],[13.29664,52.5237]]]}},{"type":"Feature","properties":{"id":"dogal-lab-16","kind":"district-label","btype":"dogal","name":"Schlosspark Charlottenburg"},"geometry":{"type":"Point","coordinates":[13.29331,52.52456]}},{"type":"Feature","properties":{"id":"dogal-17","kind":"district","btype":"dogal","name":"Müllberg Großziethen","lab":1},"geometry":{"type":"Polygon","coordinates":[[[13.45051,52.41107],[13.46234,52.41424],[13.46468,52.40974],[13.45817,52.40805],[13.4569,52.41042],[13.45556,52.41005],[13.45578,52.40961],[13.4537,52.40929],[13.45398,52.40852],[13.45354,52.40803],[13.45396,52.40702],[13.45255,52.40683],[13.45051,52.41107]]]}},{"type":"Feature","properties":{"id":"dogal-lab-17","kind":"district-label","btype":"dogal","name":"Müllberg Großziethen"},"geometry":{"type":"Point","coordinates":[13.45741,52.41075]}},{"type":"Feature","properties":{"id":"dogal-18","kind":"district","btype":"dogal","name":"Botanischer Garten","lab":1},"geometry":{"type":"Polygon","coordinates":[[[13.29966,52.45452],[13.30438,52.45866],[13.30487,52.45796],[13.30682,52.45776],[13.30788,52.45699],[13.30913,52.45586],[13.30749,52.45525],[13.3085,52.45431],[13.30815,52.45395],[13.31084,52.45201],[13.3054,52.45],[13.29966,52.45452]]]}},{"type":"Feature","properties":{"id":"dogal-lab-18","kind":"district-label","btype":"dogal","name":"Botanischer Garten"},"geometry":{"type":"Point","coordinates":[13.30409,52.45441]}},{"type":"Feature","properties":{"id":"dogal-19","kind":"district","btype":"dogal","name":"Steinbergpark","lab":1},"geometry":{"type":"Polygon","coordinates":[[[13.30402,52.60073],[13.30622,52.60182],[13.30918,52.60008],[13.31159,52.60153],[13.31337,52.60185],[13.31371,52.60171],[13.31297,52.60138],[13.31426,52.60055],[13.31393,52.60044],[13.31495,52.5987],[13.31448,52.59829],[13.31591,52.59721],[13.30307,52.59597],[13.30293,52.59688],[13.30665,52.59794],[13.30622,52.59836],[13.30547,52.59815],[13.30402,52.60073]]]}},{"type":"Feature","properties":{"id":"dogal-lab-19","kind":"district-label","btype":"dogal","name":"Steinbergpark"},"geometry":{"type":"Point","coordinates":[13.30966,52.59939]}},{"type":"Feature","properties":{"id":"dogal-20","kind":"district","btype":"dogal","name":"Botanischer Volkspark Blankenfelde-Pankow","lab":1},"geometry":{"type":"Polygon","coordinates":[[[13.39811,52.60769],[13.39551,52.60715],[13.39511,52.6078],[13.39184,52.60713],[13.39223,52.60638],[13.39109,52.60634],[13.39019,52.60502],[13.38855,52.60461],[13.38809,52.60404],[13.4009,52.60249],[13.40145,52.60362],[13.39993,52.60605],[13.39905,52.60587],[13.39811,52.60769]]]}},{"type":"Feature","properties":{"id":"dogal-lab-20","kind":"district-label","btype":"dogal","name":"Botanischer Volkspark Blankenfelde-Pankow"},"geometry":{"type":"Point","coordinates":[13.39539,52.60545]}},{"type":"Feature","properties":{"id":"dogal-21","kind":"district","btype":"dogal","name":"Eichepark","lab":1},"geometry":{"type":"Polygon","coordinates":[[[13.57649,52.56128],[13.58133,52.56516],[13.58032,52.56544],[13.58123,52.56647],[13.58042,52.5667],[13.58175,52.56807],[13.5806,52.56844],[13.58204,52.56803],[13.58234,52.56864],[13.58139,52.57028],[13.58121,52.57102],[13.58165,52.57113],[13.58322,52.56823],[13.58378,52.56799],[13.5843,52.56623],[13.58346,52.56605],[13.58344,52.56527],[13.58372,52.56474],[13.58496,52.56468],[13.58516,52.56406],[13.58379,52.56335],[13.58378,52.56258],[13.58459,52.55937],[13.58571,52.55836],[13.57649,52.56128]]]}},{"type":"Feature","properties":{"id":"dogal-lab-21","kind":"district-label","btype":"dogal","name":"Eichepark"},"geometry":{"type":"Point","coordinates":[13.58234,52.56495]}},{"type":"Feature","properties":{"id":"dogal-22","kind":"district","btype":"dogal","name":"Landschaftspark Herzberge","lab":1},"geometry":{"type":"Polygon","coordinates":[[[13.50456,52.523],[13.50488,52.52398],[13.50441,52.52618],[13.50467,52.52575],[13.50504,52.52611],[13.50755,52.52537],[13.50756,52.52429],[13.50809,52.5242],[13.50876,52.52426],[13.50872,52.52536],[13.51159,52.5253],[13.50874,52.52328],[13.50875,52.52275],[13.51195,52.52251],[13.51167,52.52058],[13.50862,52.51491],[13.50828,52.51484],[13.50952,52.51673],[13.50668,52.51764],[13.50957,52.51687],[13.50982,52.51786],[13.50772,52.52013],[13.50597,52.52014],[13.50608,52.51785],[13.50498,52.51877],[13.50461,52.52214],[13.50211,52.52157],[13.49964,52.52157],[13.50288,52.52176],[13.50441,52.5228],[13.50314,52.52407],[13.49983,52.52465],[13.50272,52.5244],[13.50456,52.523]]]}},{"type":"Feature","properties":{"id":"dogal-lab-22","kind":"district-label","btype":"dogal","name":"Landschaftspark Herzberge"},"geometry":{"type":"Point","coordinates":[13.50818,52.52036]}},{"type":"Feature","properties":{"id":"dogal-23","kind":"district","btype":"dogal","name":"Seelgrabenpark","lab":1},"geometry":{"type":"Polygon","coordinates":[[[13.5711,52.56394],[13.57151,52.56381],[13.57083,52.56305],[13.57295,52.56249],[13.57458,52.56419],[13.57479,52.56351],[13.57758,52.56234],[13.57488,52.56032],[13.56581,52.56104],[13.56063,52.56222],[13.56072,52.56294],[13.5599,52.5639],[13.56042,52.56457],[13.56153,52.56489],[13.5654,52.56323],[13.5671,52.56294],[13.56788,52.56373],[13.56879,52.56336],[13.56808,52.56349],[13.56748,52.56281],[13.5688,52.56238],[13.56947,52.56303],[13.56919,52.56323],[13.57012,52.56298],[13.5711,52.56394]]]}},{"type":"Feature","properties":{"id":"dogal-lab-23","kind":"district-label","btype":"dogal","name":"Seelgrabenpark"},"geometry":{"type":"Point","coordinates":[13.56433,52.56265]}},{"type":"Feature","properties":{"id":"dogal-24","kind":"district","btype":"dogal","name":"Volkspark Prenzlauer Berg","lab":1},"geometry":{"type":"Polygon","coordinates":[[[13.46198,52.5352],[13.45819,52.53581],[13.45806,52.53638],[13.45733,52.53666],[13.45842,52.53759],[13.45794,52.5378],[13.45985,52.53913],[13.46771,52.53618],[13.46874,52.53471],[13.46285,52.53245],[13.46097,52.53302],[13.46198,52.5352]]]}},{"type":"Feature","properties":{"id":"dogal-lab-24","kind":"district-label","btype":"dogal","name":"Volkspark Prenzlauer Berg"},"geometry":{"type":"Point","coordinates":[13.46413,52.53551]}},{"type":"Feature","properties":{"id":"dogal-25","kind":"district","btype":"dogal","name":"Heinrich-Laehr-Park","lab":1},"geometry":{"type":"Polygon","coordinates":[[[13.273,52.41609],[13.27214,52.41267],[13.27009,52.41238],[13.27001,52.41276],[13.26934,52.41269],[13.26856,52.41514],[13.26914,52.41521],[13.26904,52.41585],[13.26639,52.4223],[13.27007,52.42284],[13.27178,52.41869],[13.27277,52.41884],[13.27185,52.41854],[13.273,52.41609]]]}},{"type":"Feature","properties":{"id":"dogal-lab-25","kind":"district-label","btype":"dogal","name":"Heinrich-Laehr-Park"},"geometry":{"type":"Point","coordinates":[13.27043,52.41732]}},{"type":"Feature","properties":{"id":"dogal-26","kind":"district","btype":"dogal","name":"Gutspark Neukladow","lab":1},"geometry":{"type":"Polygon","coordinates":[[[13.15864,52.46054],[13.15991,52.45984],[13.16359,52.45921],[13.16191,52.45691],[13.15952,52.45526],[13.15842,52.45498],[13.15762,52.45535],[13.15704,52.45498],[13.15512,52.45574],[13.15615,52.45682],[13.15537,52.45706],[13.15658,52.4585],[13.15612,52.45867],[13.15864,52.46054]]]}},{"type":"Feature","properties":{"id":"dogal-lab-26","kind":"district-label","btype":"dogal","name":"Gutspark Neukladow"},"geometry":{"type":"Point","coordinates":[13.15926,52.45778]}},{"type":"Feature","properties":{"id":"dogal-27","kind":"district","btype":"dogal","name":"Park am Weißen See","lab":1},"geometry":{"type":"Polygon","coordinates":[[[13.46215,52.55089],[13.46232,52.55169],[13.4597,52.55207],[13.46028,52.55415],[13.46084,52.55464],[13.45978,52.55507],[13.45924,52.55457],[13.46014,52.55414],[13.4587,52.55471],[13.45909,52.55507],[13.45854,52.55523],[13.45899,52.55579],[13.46046,52.55515],[13.46177,52.55547],[13.46064,52.55586],[13.46113,52.55693],[13.46176,52.55583],[13.46185,52.55647],[13.4628,52.55647],[13.46274,52.55694],[13.4636,52.55695],[13.46283,52.55633],[13.46293,52.5557],[13.46544,52.55621],[13.46618,52.55449],[13.46677,52.55444],[13.4665,52.55333],[13.46683,52.5531],[13.46566,52.55221],[13.46215,52.55089]]]}},{"type":"Feature","properties":{"id":"dogal-lab-27","kind":"district-label","btype":"dogal","name":"Park am Weißen See"},"geometry":{"type":"Point","coordinates":[13.46338,52.55374]}},{"type":"Feature","properties":{"id":"dogal-28","kind":"district","btype":"dogal","name":"Grünzug Bullengraben","lab":1},"geometry":{"type":"Polygon","coordinates":[[[13.14979,52.52787],[13.14449,52.52883],[13.14417,52.52897],[13.14482,52.52978],[13.14111,52.53133],[13.14175,52.53187],[13.14236,52.53122],[13.14307,52.53122],[13.14313,52.53244],[13.14421,52.53248],[13.14459,52.53125],[13.14817,52.52968],[13.14984,52.52955],[13.14978,52.53041],[13.15055,52.53041],[13.15109,52.52932],[13.15896,52.53015],[13.15921,52.52951],[13.15275,52.52872],[13.15107,52.52645],[13.14983,52.52673],[13.14979,52.52787]]]}},{"type":"Feature","properties":{"id":"dogal-lab-28","kind":"district-label","btype":"dogal","name":"Grünzug Bullengraben"},"geometry":{"type":"Point","coordinates":[13.14779,52.52942]}},{"type":"Feature","properties":{"id":"dogal-29","kind":"district","btype":"dogal","name":"Naturpark Schöneberger Südgelände","lab":1},"geometry":{"type":"Polygon","coordinates":[[[13.35651,52.45735],[13.35642,52.45899],[13.35706,52.46116],[13.36342,52.47209],[13.35802,52.45731],[13.35651,52.45735]]]}},{"type":"Feature","properties":{"id":"dogal-lab-29","kind":"district-label","btype":"dogal","name":"Naturpark Schöneberger Südgelände"},"geometry":{"type":"Point","coordinates":[13.36083,52.46663]}},{"type":"Feature","properties":{"id":"dogal-30","kind":"district","btype":"dogal","name":"Kienhorstpark","lab":1},"geometry":{"type":"Polygon","coordinates":[[[13.33919,52.57569],[13.33933,52.57678],[13.3428,52.57702],[13.34584,52.57616],[13.3456,52.57485],[13.34741,52.57456],[13.34761,52.5776],[13.34745,52.57796],[13.33924,52.57816],[13.33906,52.57677],[13.33276,52.57678],[13.33259,52.57625],[13.33496,52.57626],[13.33498,52.57556],[13.33681,52.57592],[13.33919,52.57569]]]}},{"type":"Feature","properties":{"id":"dogal-lab-30","kind":"district-label","btype":"dogal","name":"Kienhorstpark"},"geometry":{"type":"Point","coordinates":[13.33599,52.57652]}},{"type":"Feature","properties":{"id":"dogal-31","kind":"district","btype":"dogal","name":"Tegeler Forst (südlicher Teil)","lab":1},"geometry":{"type":"Polygon","coordinates":[[[13.27937,52.59483],[13.27839,52.59402],[13.2768,52.59449],[13.26788,52.59426],[13.26477,52.59301],[13.26223,52.5933],[13.26032,52.59233],[13.26139,52.59158],[13.2612,52.59105],[13.25991,52.59106],[13.26012,52.59023],[13.2606,52.59015],[13.26021,52.58892],[13.26217,52.58831],[13.26019,52.5862],[13.26034,52.58497],[13.25968,52.58462],[13.25808,52.58496],[13.25802,52.58552],[13.25888,52.58646],[13.25763,52.58693],[13.25565,52.58653],[13.25531,52.58533],[13.2559,52.58401],[13.25549,52.58341],[13.25172,52.58235],[13.24871,52.58065],[13.24711,52.58028],[13.24514,52.5771],[13.2456,52.57567],[13.24386,52.57552],[13.24088,52.57441],[13.23847,52.56997],[13.23511,52.57119],[13.23317,52.57249],[13.23311,52.57358],[13.23153,52.57398],[13.23002,52.5756],[13.228,52.57605],[13.22863,52.57616],[13.22839,52.57773],[13.22612,52.57765],[13.22662,52.57747],[13.22628,52.57648],[13.22264,52.57724],[13.22302,52.5789],[13.22266,52.57915],[13.2231,52.57968],[13.22636,52.58019],[13.22725,52.58164],[13.23676,52.58259],[13.23822,52.58562],[13.23326,52.58742],[13.23283,52.58879],[13.23193,52.58915],[13.22799,52.5897],[13.22777,52.59165],[13.22341,52.59258],[13.22058,52.59538],[13.22153,52.5955],[13.22206,52.5964],[13.22266,52.5964],[13.22134,52.59898],[13.2228,52.59912],[13.22432,52.59736],[13.22399,52.59665],[13.23084,52.59602],[13.23121,52.59646],[13.23299,52.59619],[13.23954,52.59696],[13.2411,52.5986],[13.24768,52.59904],[13.24775,52.60282],[13.2494,52.60495],[13.25037,52.60733],[13.25378,52.60755],[13.25605,52.60656],[13.27585,52.60238],[13.27875,52.60139],[13.28114,52.5995],[13.27937,52.59483]]]}},{"type":"Feature","properties":{"id":"dogal-lab-31","kind":"district-label","btype":"dogal","name":"Tegeler Forst (südlicher Teil)"},"geometry":{"type":"Point","coordinates":[13.24715,52.58855]}},{"type":"Feature","properties":{"id":"dogal-32","kind":"district","btype":"dogal","name":"LSG Jungfernheide","lab":1},"geometry":{"type":"Polygon","coordinates":[[[13.27624,52.56357],[13.27175,52.56544],[13.27534,52.56652],[13.27744,52.57052],[13.26625,52.57187],[13.26739,52.57294],[13.26463,52.57371],[13.26416,52.57348],[13.2629,52.57435],[13.26419,52.57504],[13.26348,52.57553],[13.259,52.57274],[13.25854,52.57296],[13.25794,52.57087],[13.25586,52.56823],[13.25581,52.56709],[13.25482,52.56649],[13.25404,52.56508],[13.25,52.56392],[13.2487,52.564],[13.24808,52.56288],[13.24632,52.56229],[13.24636,52.56191],[13.24385,52.56152],[13.24395,52.56077],[13.24181,52.55978],[13.24236,52.55958],[13.24235,52.5579],[13.24092,52.55779],[13.24986,52.55342],[13.25257,52.55313],[13.25725,52.55358],[13.25645,52.55689],[13.25749,52.55799],[13.27354,52.56328],[13.27624,52.56357]]]}},{"type":"Feature","properties":{"id":"dogal-lab-32","kind":"district-label","btype":"dogal","name":"LSG Jungfernheide"},"geometry":{"type":"Point","coordinates":[13.26304,52.56454]}},{"type":"Feature","properties":{"id":"dogal-33","kind":"district","btype":"dogal","name":"Rieselfelder Karolinenhöhe","lab":1},"geometry":{"type":"Polygon","coordinates":[[[13.15287,52.49816],[13.17383,52.49141],[13.17649,52.4935],[13.17853,52.49416],[13.18013,52.4953],[13.17967,52.50023],[13.17916,52.5013],[13.17982,52.505],[13.17913,52.5074],[13.17314,52.50756],[13.17334,52.50797],[13.16917,52.50912],[13.15508,52.49972],[13.15287,52.49816]]]}},{"type":"Feature","properties":{"id":"dogal-lab-33","kind":"district-label","btype":"dogal","name":"Rieselfelder Karolinenhöhe"},"geometry":{"type":"Point","coordinates":[13.16803,52.50077]}},{"type":"Feature","properties":{"id":"dogal-34","kind":"district","btype":"dogal","name":"LSG Flughafensee","lab":1},"geometry":{"type":"Polygon","coordinates":[[[13.29451,52.56935],[13.29347,52.5658],[13.27626,52.56358],[13.27182,52.56544],[13.27533,52.56655],[13.27744,52.57052],[13.28385,52.57065],[13.28896,52.57294],[13.29077,52.57133],[13.29317,52.57091],[13.29775,52.57231],[13.30006,52.56988],[13.29451,52.56935]]]}},{"type":"Feature","properties":{"id":"dogal-lab-34","kind":"district-label","btype":"dogal","name":"LSG Flughafensee"},"geometry":{"type":"Point","coordinates":[13.28509,52.56795]}},{"type":"Feature","properties":{"id":"dogal-35","kind":"district","btype":"dogal","name":"LSG Kaulsdorfer Seen","lab":1},"geometry":{"type":"Polygon","coordinates":[[[13.59733,52.50235],[13.59555,52.49899],[13.59628,52.49774],[13.59873,52.49715],[13.59944,52.49628],[13.59845,52.49429],[13.59752,52.49446],[13.59669,52.4918],[13.59725,52.49176],[13.59607,52.48968],[13.59014,52.4902],[13.58796,52.48724],[13.58185,52.48953],[13.58407,52.4897],[13.58708,52.49297],[13.58837,52.49254],[13.58886,52.49334],[13.58645,52.49417],[13.58683,52.49456],[13.58801,52.49415],[13.59105,52.49743],[13.58685,52.49834],[13.58716,52.49884],[13.58881,52.49858],[13.59026,52.50122],[13.588,52.50164],[13.58834,52.50262],[13.59733,52.50235]]]}},{"type":"Feature","properties":{"id":"dogal-lab-35","kind":"district-label","btype":"dogal","name":"LSG Kaulsdorfer Seen"},"geometry":{"type":"Point","coordinates":[13.5941,52.49542]}},{"type":"Feature","properties":{"id":"dogal-36","kind":"district","btype":"dogal","name":"Julius-Leber-Kaserne","lab":1},"geometry":{"type":"Polygon","coordinates":[[[13.32309,52.55044],[13.32567,52.55963],[13.3238,52.56058],[13.3178,52.55975],[13.30974,52.55774],[13.30715,52.55509],[13.32208,52.54989],[13.32309,52.55044]]]}},{"type":"Feature","properties":{"id":"dogal-lab-36","kind":"district-label","btype":"dogal","name":"Julius-Leber-Kaserne"},"geometry":{"type":"Point","coordinates":[13.31661,52.55642]}},{"type":"Feature","properties":{"id":"dogal-37","kind":"district","btype":"dogal","name":"NSG Falkenberger Rieselfelder","lab":1},"geometry":{"type":"Polygon","coordinates":[[[13.53952,52.58245],[13.54169,52.58593],[13.54541,52.58537],[13.54699,52.58764],[13.55418,52.58476],[13.55982,52.58171],[13.55577,52.57576],[13.55376,52.57641],[13.55103,52.57856],[13.54492,52.58053],[13.54303,52.58192],[13.53952,52.58245]]]}},{"type":"Feature","properties":{"id":"dogal-lab-37","kind":"district-label","btype":"dogal","name":"NSG Falkenberger Rieselfelder"},"geometry":{"type":"Point","coordinates":[13.55177,52.58112]}},{"type":"Feature","properties":{"id":"dogal-38","kind":"district","btype":"dogal","name":"Postfenn und Teufelsfenn","lab":1},"geometry":{"type":"Polygon","coordinates":[[[13.23289,52.4924],[13.23488,52.49207],[13.23516,52.49139],[13.23286,52.49108],[13.23266,52.49069],[13.23305,52.49041],[13.23163,52.48971],[13.22925,52.49021],[13.22844,52.49126],[13.22417,52.49328],[13.22787,52.49621],[13.21861,52.50023],[13.22272,52.50024],[13.2281,52.50358],[13.22958,52.50363],[13.23439,52.50135],[13.2353,52.50053],[13.2347,52.49867],[13.2325,52.49681],[13.23195,52.49551],[13.23235,52.49439],[13.2346,52.49321],[13.23383,52.49262],[13.23272,52.493],[13.23289,52.4924]]]}},{"type":"Feature","properties":{"id":"dogal-lab-38","kind":"district-label","btype":"dogal","name":"Postfenn und Teufelsfenn"},"geometry":{"type":"Point","coordinates":[13.22978,52.49651]}},{"type":"Feature","properties":{"id":"dogal-39","kind":"district","btype":"dogal","name":"Freiflächen am Wilhelm-Griesinger-Krankenhaus mit Anstaltsfriedhof","lab":1},"geometry":{"type":"Polygon","coordinates":[[[13.57404,52.51334],[13.56902,52.51467],[13.56899,52.51329],[13.56438,52.51341],[13.56667,52.5248],[13.5704,52.52431],[13.56988,52.52312],[13.56679,52.52354],[13.5657,52.51791],[13.56625,52.51783],[13.56665,52.51879],[13.56891,52.51849],[13.5701,52.52007],[13.57035,52.52154],[13.57151,52.52148],[13.57217,52.52318],[13.57559,52.52264],[13.57583,52.52359],[13.57754,52.52338],[13.57775,52.521],[13.57404,52.51334]]]}},{"type":"Feature","properties":{"id":"dogal-lab-39","kind":"district-label","btype":"dogal","name":"Freiflächen am Wilhelm-Griesinger-Krankenhaus mit Anstaltsfriedhof"},"geometry":{"type":"Point","coordinates":[13.5733,52.51943]}},{"type":"Feature","properties":{"id":"dogal-40","kind":"district","btype":"dogal","name":"Ehemaliges Flugfeld Johannisthal","lab":1},"geometry":{"type":"Polygon","coordinates":[[[13.5165,52.43146],[13.51542,52.42909],[13.51661,52.42888],[13.51763,52.43122],[13.51848,52.43118],[13.51823,52.43285],[13.53065,52.44001],[13.53019,52.44024],[13.52706,52.43842],[13.52074,52.43854],[13.51609,52.44171],[13.51514,52.44116],[13.50839,52.4423],[13.50783,52.44113],[13.51273,52.44011],[13.51372,52.43335],[13.5165,52.43146]]]}},{"type":"Feature","properties":{"id":"dogal-lab-40","kind":"district-label","btype":"dogal","name":"Ehemaliges Flugfeld Johannisthal"},"geometry":{"type":"Point","coordinates":[13.51842,52.43588]}},{"type":"Feature","properties":{"id":"dogal-41","kind":"district","btype":"dogal","name":"LSG Hönower Weiherkette","lab":1},"geometry":{"type":"Polygon","coordinates":[[[13.60665,52.54517],[13.60467,52.5451],[13.60419,52.54572],[13.60344,52.54577],[13.60373,52.54643],[13.60611,52.54635],[13.61993,52.54416],[13.63332,52.54301],[13.63578,52.5423],[13.63918,52.54215],[13.63929,52.54175],[13.63475,52.53857],[13.63078,52.53929],[13.6312,52.54117],[13.62446,52.54163],[13.61804,52.54267],[13.61302,52.54274],[13.61275,52.5415],[13.6131,52.54151],[13.61326,52.54038],[13.61278,52.54029],[13.61233,52.54112],[13.61145,52.54118],[13.61211,52.54164],[13.6113,52.54289],[13.60848,52.54308],[13.60784,52.54468],[13.6068,52.54447],[13.60665,52.54517]]]}},{"type":"Feature","properties":{"id":"dogal-lab-41","kind":"district-label","btype":"dogal","name":"LSG Hönower Weiherkette"},"geometry":{"type":"Point","coordinates":[13.62716,52.54248]}},{"type":"Feature","properties":{"id":"dogal-42","kind":"district","btype":"dogal","name":"Barssee und Pechsee","lab":1},"geometry":{"type":"Polygon","coordinates":[[[13.20722,52.47991],[13.21401,52.48527],[13.22269,52.48115],[13.2147,52.47503],[13.21173,52.4762],[13.211,52.47812],[13.20722,52.47991]]]}},{"type":"Feature","properties":{"id":"dogal-lab-42","kind":"district-label","btype":"dogal","name":"Barssee und Pechsee"},"geometry":{"type":"Point","coordinates":[13.21494,52.48053]}},{"type":"Feature","properties":{"id":"dogal-43","kind":"district","btype":"dogal","name":"Waldsiedlung Zehlendorf","lab":1},"geometry":{"type":"Polygon","coordinates":[[[13.25404,52.44644],[13.25268,52.44911],[13.25479,52.44982],[13.25397,52.45067],[13.25132,52.44993],[13.25053,52.45354],[13.25156,52.45292],[13.25778,52.45435],[13.26269,52.45027],[13.26008,52.44598],[13.25845,52.44471],[13.25846,52.44374],[13.25661,52.44302],[13.25493,52.4429],[13.25393,52.4449],[13.25467,52.44503],[13.25428,52.44589],[13.25475,52.44604],[13.25404,52.44644]]]}},{"type":"Feature","properties":{"id":"dogal-lab-43","kind":"district-label","btype":"dogal","name":"Waldsiedlung Zehlendorf"},"geometry":{"type":"Point","coordinates":[13.25727,52.44778]}},{"type":"Feature","properties":{"id":"dogal-44","kind":"district","btype":"dogal","name":"Ensemble Karl-Marx-Allee","lab":1},"geometry":{"type":"Polygon","coordinates":[[[13.42674,52.51952],[13.42593,52.5184],[13.42826,52.51765],[13.43266,52.51736],[13.43279,52.51776],[13.4365,52.51739],[13.43638,52.51657],[13.437,52.51706],[13.44237,52.51641],[13.44291,52.51615],[13.44091,52.51529],[13.4415,52.51496],[13.44234,52.51527],[13.44388,52.51386],[13.44431,52.51399],[13.44368,52.51476],[13.44497,52.51513],[13.44467,52.51564],[13.44531,52.516],[13.4465,52.51448],[13.4455,52.51421],[13.44575,52.5139],[13.44533,52.51344],[13.44372,52.51254],[13.44402,52.51216],[13.44223,52.51155],[13.44308,52.51082],[13.44397,52.51162],[13.44674,52.51196],[13.44663,52.5125],[13.44791,52.51262],[13.44748,52.51318],[13.44983,52.51296],[13.45002,52.51342],[13.44809,52.5137],[13.45034,52.51566],[13.4523,52.51557],[13.45408,52.51437],[13.45465,52.51526],[13.45964,52.51469],[13.46038,52.51586],[13.45508,52.5164],[13.45481,52.51684],[13.45095,52.5168],[13.45049,52.51809],[13.45184,52.51849],[13.44706,52.51819],[13.44544,52.5203],[13.44361,52.51924],[13.44408,52.51904],[13.44283,52.51795],[13.43552,52.51808],[13.42674,52.51952]]]}},{"type":"Feature","properties":{"id":"dogal-lab-44","kind":"district-label","btype":"dogal","name":"Ensemble Karl-Marx-Allee"},"geometry":{"type":"Point","coordinates":[13.45631,52.51543]}},{"type":"Feature","properties":{"id":"dogal-45","kind":"district","btype":"dogal","name":"Teufelsbruch und Nebenmoore","lab":1},"geometry":{"type":"Polygon","coordinates":[[[13.19168,52.57924],[13.19526,52.57705],[13.19873,52.57921],[13.20092,52.57798],[13.20283,52.57758],[13.20449,52.57645],[13.20467,52.57582],[13.2036,52.5748],[13.2055,52.57377],[13.20845,52.57558],[13.20615,52.57969],[13.20091,52.58056],[13.20203,52.58124],[13.19802,52.5831],[13.19176,52.58109],[13.19168,52.57924]]]}},{"type":"Feature","properties":{"id":"dogal-lab-45","kind":"district-label","btype":"dogal","name":"Teufelsbruch und Nebenmoore"},"geometry":{"type":"Point","coordinates":[13.20329,52.57859]}},{"type":"Feature","properties":{"id":"dogal-46","kind":"district","btype":"dogal","name":"Heiligensee","lab":1},"geometry":{"type":"Polygon","coordinates":[[[13.21771,52.61081],[13.22073,52.60776],[13.22103,52.60496],[13.21988,52.60509],[13.21892,52.60415],[13.21915,52.60361],[13.21538,52.6006],[13.2134,52.60054],[13.21041,52.60166],[13.21029,52.60329],[13.21096,52.60467],[13.21391,52.60546],[13.21406,52.6062],[13.21674,52.60885],[13.21539,52.61035],[13.21771,52.61081]]]}},{"type":"Feature","properties":{"id":"dogal-lab-46","kind":"district-label","btype":"dogal","name":"Heiligensee"},"geometry":{"type":"Point","coordinates":[13.21746,52.60583]}},{"type":"Feature","properties":{"id":"dogal-47","kind":"district","btype":"dogal","name":"Baumberge","lab":1},"geometry":{"type":"Polygon","coordinates":[[[13.22266,52.60103],[13.2228,52.59912],[13.22432,52.59736],[13.22399,52.59665],[13.23084,52.59602],[13.23121,52.59646],[13.23629,52.59651],[13.23954,52.59696],[13.2411,52.5986],[13.23714,52.59865],[13.2373,52.59912],[13.22224,52.60148],[13.22224,52.60103],[13.22266,52.60103]]]}},{"type":"Feature","properties":{"id":"dogal-lab-47","kind":"district-label","btype":"dogal","name":"Baumberge"},"geometry":{"type":"Point","coordinates":[13.23011,52.59888]}},{"type":"Feature","properties":{"id":"dogal-48","kind":"district","btype":"dogal","name":"Biesenhorster Sand","lab":1},"geometry":{"type":"Polygon","coordinates":[[[13.54289,52.49311],[13.54519,52.49322],[13.54686,52.49075],[13.54996,52.4879],[13.55074,52.48524],[13.55238,52.47369],[13.55154,52.47383],[13.54921,52.47972],[13.54789,52.48022],[13.54833,52.4827],[13.54765,52.48512],[13.54637,52.48505],[13.54592,52.48808],[13.54467,52.48867],[13.5435,52.48855],[13.54289,52.49311]]]}},{"type":"Feature","properties":{"id":"dogal-lab-48","kind":"district-label","btype":"dogal","name":"Biesenhorster Sand"},"geometry":{"type":"Point","coordinates":[13.54947,52.48387]}},{"type":"Feature","properties":{"id":"dogal-49","kind":"district","btype":"dogal","name":"Falkenberger Krugwiesen","lab":1},"geometry":{"type":"Polygon","coordinates":[[[13.535,52.56136],[13.53045,52.55841],[13.52814,52.55965],[13.52873,52.56041],[13.52798,52.56098],[13.52839,52.56156],[13.52766,52.56234],[13.52901,52.56297],[13.52916,52.5634],[13.52809,52.56422],[13.52924,52.56477],[13.52993,52.56436],[13.52971,52.56362],[13.5301,52.56343],[13.53348,52.56509],[13.53355,52.56706],[13.53297,52.5671],[13.53313,52.56784],[13.53476,52.56796],[13.53214,52.57014],[13.53427,52.57056],[13.5342,52.57019],[13.53515,52.57006],[13.535,52.56966],[13.53656,52.56978],[13.53721,52.56893],[13.53865,52.5684],[13.54056,52.5677],[13.54083,52.56814],[13.54185,52.56796],[13.54173,52.5675],[13.54273,52.56722],[13.54311,52.56777],[13.54436,52.56691],[13.54178,52.56618],[13.53789,52.56781],[13.53683,52.56737],[13.53592,52.5678],[13.53456,52.56672],[13.53493,52.5654],[13.53597,52.5649],[13.535,52.56414],[13.53723,52.56309],[13.53654,52.56257],[13.53537,52.56313],[13.53394,52.56202],[13.535,52.56136]]]}},{"type":"Feature","properties":{"id":"dogal-lab-49","kind":"district-label","btype":"dogal","name":"Falkenberger Krugwiesen"},"geometry":{"type":"Point","coordinates":[13.53398,52.56457]}},{"type":"Feature","properties":{"id":"dogal-50","kind":"district","btype":"dogal","name":"Hahneberg und Umgebung","lab":1},"geometry":{"type":"Polygon","coordinates":[[[13.15416,52.51444],[13.15696,52.51692],[13.14935,52.52088],[13.14113,52.52208],[13.14171,52.52053],[13.13862,52.51976],[13.13853,52.5191],[13.14319,52.5197],[13.14436,52.51919],[13.14563,52.51747],[13.1475,52.5172],[13.15416,52.51444]]]}},{"type":"Feature","properties":{"id":"dogal-lab-50","kind":"district-label","btype":"dogal","name":"Hahneberg und Umgebung"},"geometry":{"type":"Point","coordinates":[13.14968,52.51829]}},{"type":"Feature","properties":{"id":"dogal-51","kind":"district","btype":"dogal","name":"Großsiedlung Britz (Hufeisensiedlung)","lab":1},"geometry":{"type":"Polygon","coordinates":[[[13.44983,52.44581],[13.45513,52.4456],[13.45404,52.44826],[13.4549,52.44839],[13.45586,52.44595],[13.45825,52.44586],[13.45877,52.44506],[13.45673,52.44318],[13.45607,52.44325],[13.45536,52.44523],[13.44965,52.44548],[13.44905,52.44399],[13.44762,52.44273],[13.44492,52.44393],[13.44579,52.44511],[13.44585,52.44596],[13.44399,52.4461],[13.44479,52.45078],[13.44546,52.4507],[13.4454,52.45146],[13.44929,52.45177],[13.4499,52.44899],[13.44983,52.44581]]]}},{"type":"Feature","properties":{"id":"dogal-lab-51","kind":"district-label","btype":"dogal","name":"Großsiedlung Britz (Hufeisensiedlung)"},"geometry":{"type":"Point","coordinates":[13.44702,52.44718]}},{"type":"Feature","properties":{"id":"dogal-52","kind":"district","btype":"dogal","name":"LSG Barnimhang","lab":1},"geometry":{"type":"Polygon","coordinates":[[[13.59225,52.50489],[13.59148,52.50269],[13.59652,52.50252],[13.60675,52.50115],[13.60747,52.50208],[13.61173,52.50188],[13.61267,52.50177],[13.61272,52.50055],[13.61446,52.50231],[13.61427,52.50285],[13.61075,52.50206],[13.60854,52.50238],[13.60778,52.50437],[13.60636,52.50434],[13.606,52.50474],[13.59225,52.50489]]]}},{"type":"Feature","properties":{"id":"dogal-lab-52","kind":"district-label","btype":"dogal","name":"LSG Barnimhang"},"geometry":{"type":"Point","coordinates":[13.59995,52.50277]}},{"type":"Feature","properties":{"id":"dogal-53","kind":"district","btype":"dogal","name":"Waldsiedlung Krumme Lanke (ehem. SS-Kameradschaftssiedlung)","lab":1},"geometry":{"type":"Polygon","coordinates":[[[13.24312,52.44465],[13.24247,52.44519],[13.24167,52.4445],[13.24006,52.44584],[13.23933,52.44563],[13.23877,52.447],[13.2381,52.4468],[13.23539,52.4494],[13.23804,52.45116],[13.24071,52.4522],[13.24695,52.44711],[13.24312,52.44465]]]}},{"type":"Feature","properties":{"id":"dogal-lab-53","kind":"district-label","btype":"dogal","name":"Waldsiedlung Krumme Lanke (ehem. SS-Kameradschaftssiedlung)"},"geometry":{"type":"Point","coordinates":[13.24106,52.44826]}},{"type":"Feature","properties":{"id":"dogal-54","kind":"district","btype":"dogal","name":"Wasserwerk Johannisthal","lab":1},"geometry":{"type":"Polygon","coordinates":[[[13.49581,52.44735],[13.49849,52.44656],[13.49767,52.44594],[13.49803,52.44577],[13.49216,52.44118],[13.49415,52.44123],[13.49221,52.43869],[13.49183,52.43904],[13.49003,52.43808],[13.485,52.44056],[13.48984,52.4439],[13.49074,52.44353],[13.49581,52.44735]]]}},{"type":"Feature","properties":{"id":"dogal-lab-54","kind":"district-label","btype":"dogal","name":"Wasserwerk Johannisthal"},"geometry":{"type":"Point","coordinates":[13.49067,52.44238]}},{"type":"Feature","properties":{"id":"dogal-55","kind":"district","btype":"dogal","name":"Grünauer Kreuz","lab":1},"geometry":{"type":"Polygon","coordinates":[[[13.56116,52.41764],[13.56817,52.41551],[13.56856,52.41601],[13.56475,52.41811],[13.5609,52.42162],[13.55428,52.4258],[13.55626,52.42348],[13.55646,52.41966],[13.55578,52.41787],[13.55457,52.41793],[13.55428,52.41749],[13.55777,52.41623],[13.55813,52.41657],[13.55905,52.41625],[13.55962,52.41665],[13.55857,52.41739],[13.55972,52.41801],[13.56041,52.41713],[13.56116,52.41764]]]}},{"type":"Feature","properties":{"id":"dogal-lab-55","kind":"district-label","btype":"dogal","name":"Grünauer Kreuz"},"geometry":{"type":"Point","coordinates":[13.55919,52.42064]}},{"type":"Feature","properties":{"id":"dogal-56","kind":"district","btype":"dogal","name":"Öffentliche und gemeinschaftliche Grünanlagen der Gartenstadt Staaken","lab":1},"geometry":{"type":"Polygon","coordinates":[[[13.14646,52.5386],[13.14293,52.53902],[13.14383,52.54545],[13.15075,52.5436],[13.14976,52.53747],[13.14666,52.53769],[13.14646,52.5386]]]}},{"type":"Feature","properties":{"id":"dogal-lab-56","kind":"district-label","btype":"dogal","name":"Öffentliche und gemeinschaftliche Grünanlagen der Gartenstadt Staaken"},"geometry":{"type":"Point","coordinates":[13.14682,52.54131]}},{"type":"Feature","properties":{"id":"dogal-57","kind":"district","btype":"dogal","name":"Großer und Kleiner Rohrpfuhl","lab":1},"geometry":{"type":"Polygon","coordinates":[[[13.17646,52.5942],[13.18161,52.59134],[13.17796,52.5891],[13.1771,52.58957],[13.17511,52.58946],[13.17308,52.5903],[13.17268,52.59179],[13.17128,52.59162],[13.16775,52.59405],[13.17037,52.59571],[13.17646,52.5942]]]}},{"type":"Feature","properties":{"id":"dogal-lab-57","kind":"district-label","btype":"dogal","name":"Großer und Kleiner Rohrpfuhl"},"geometry":{"type":"Point","coordinates":[13.17408,52.59292]}},{"type":"Feature","properties":{"id":"dogal-58","kind":"district","btype":"dogal","name":"Langes Luch / Dachsheide","lab":1},"geometry":{"type":"Polygon","coordinates":[[[13.25214,52.46335],[13.25272,52.46427],[13.25505,52.46549],[13.2559,52.4651],[13.25495,52.46453],[13.25522,52.46433],[13.25476,52.46365],[13.25476,52.46306],[13.25565,52.46228],[13.25482,52.46065],[13.25507,52.45888],[13.25878,52.45922],[13.25947,52.45785],[13.25436,52.45715],[13.25124,52.45766],[13.25016,52.457],[13.25002,52.45789],[13.24782,52.46025],[13.25011,52.46084],[13.24932,52.46169],[13.24936,52.46238],[13.25049,52.46312],[13.251,52.46244],[13.25091,52.46168],[13.25271,52.46111],[13.25298,52.46181],[13.25214,52.46335]]]}},{"type":"Feature","properties":{"id":"dogal-lab-58","kind":"district-label","btype":"dogal","name":"Langes Luch / Dachsheide"},"geometry":{"type":"Point","coordinates":[13.25401,52.46139]}},{"type":"Feature","properties":{"id":"dogal-59","kind":"district","btype":"dogal","name":"Reichsforschungssiedlung Haselhorst","lab":1},"geometry":{"type":"Polygon","coordinates":[[[13.23993,52.54308],[13.23251,52.54101],[13.23284,52.54235],[13.23249,52.54383],[13.2347,52.54438],[13.2334,52.54554],[13.23201,52.54512],[13.23091,52.54653],[13.23273,52.547],[13.2335,52.54631],[13.23554,52.54706],[13.23506,52.5477],[13.2359,52.54792],[13.23711,52.54626],[13.23822,52.54609],[13.24298,52.54687],[13.24335,52.54515],[13.24068,52.54512],[13.23993,52.54308]]]}},{"type":"Feature","properties":{"id":"dogal-lab-59","kind":"district-label","btype":"dogal","name":"Reichsforschungssiedlung Haselhorst"},"geometry":{"type":"Point","coordinates":[13.23741,52.54475]}},{"type":"Feature","properties":{"id":"dogal-60","kind":"district","btype":"dogal","name":"Pichelswerder","lab":1},"geometry":{"type":"Polygon","coordinates":[[[13.20861,52.51056],[13.20843,52.50942],[13.20729,52.50821],[13.20733,52.50768],[13.20827,52.50703],[13.20691,52.50368],[13.20382,52.50242],[13.19971,52.50334],[13.201,52.50589],[13.2025,52.50616],[13.20453,52.50767],[13.20521,52.50902],[13.20447,52.50951],[13.20549,52.51119],[13.20861,52.51056]]]}},{"type":"Feature","properties":{"id":"dogal-lab-60","kind":"district-label","btype":"dogal","name":"Pichelswerder"},"geometry":{"type":"Point","coordinates":[13.20559,52.5066]}},{"type":"Feature","properties":{"id":"dogal-61","kind":"district","btype":"dogal","name":"Murellenschlucht und Schanzenwald","lab":1},"geometry":{"type":"Polygon","coordinates":[[[13.2231,52.51331],[13.2206,52.51536],[13.22008,52.52008],[13.22411,52.52093],[13.22388,52.51732],[13.22536,52.51715],[13.22626,52.51788],[13.23101,52.51731],[13.22754,52.51615],[13.22791,52.51461],[13.22485,52.51425],[13.2231,52.51331]]]}},{"type":"Feature","properties":{"id":"dogal-lab-61","kind":"district-label","btype":"dogal","name":"Murellenschlucht und Schanzenwald"},"geometry":{"type":"Point","coordinates":[13.22475,52.51665]}},{"type":"Feature","properties":{"id":"dogal-62","kind":"district","btype":"dogal","name":"NSG Fauler See","lab":1},"geometry":{"type":"Polygon","coordinates":[[[13.48692,52.55226],[13.48737,52.5533],[13.49357,52.55746],[13.49573,52.55503],[13.49588,52.55376],[13.49466,52.55074],[13.4923,52.55127],[13.4926,52.55163],[13.49188,52.55217],[13.491,52.55155],[13.48692,52.55226]]]}},{"type":"Feature","properties":{"id":"dogal-lab-62","kind":"district-label","btype":"dogal","name":"NSG Fauler See"},"geometry":{"type":"Point","coordinates":[13.4924,52.55439]}},{"type":"Feature","properties":{"id":"dogal-63","kind":"district","btype":"dogal","name":"Sandgrube Im Jagen 86","lab":1},"geometry":{"type":"Polygon","coordinates":[[[13.24482,52.49019],[13.24532,52.48843],[13.24505,52.48767],[13.24172,52.48504],[13.23536,52.48803],[13.23804,52.49017],[13.24482,52.49019]]]}},{"type":"Feature","properties":{"id":"dogal-lab-63","kind":"district-label","btype":"dogal","name":"Sandgrube Im Jagen 86"},"geometry":{"type":"Point","coordinates":[13.24115,52.48636]}},{"type":"Feature","properties":{"id":"dogal-64","kind":"district","btype":"dogal","name":"Gartenstadt am Südwestkorso mit Künstlerkolonie","lab":1},"geometry":{"type":"Polygon","coordinates":[[[13.31273,52.46727],[13.31929,52.46714],[13.31982,52.46764],[13.31992,52.46988],[13.31845,52.47038],[13.31988,52.47051],[13.31992,52.47103],[13.31854,52.47123],[13.31838,52.47164],[13.31437,52.47206],[13.31257,52.46976],[13.31345,52.46879],[13.31234,52.46835],[13.31273,52.46727]]]}},{"type":"Feature","properties":{"id":"dogal-lab-64","kind":"district-label","btype":"dogal","name":"Gartenstadt am Südwestkorso mit Künstlerkolonie"},"geometry":{"type":"Point","coordinates":[13.31645,52.46927]}},{"type":"Feature","properties":{"id":"dogal-65","kind":"district","btype":"dogal","name":"NSG Malchower Aue","lab":1},"geometry":{"type":"Polygon","coordinates":[[[13.4883,52.58378],[13.48938,52.58379],[13.49352,52.58064],[13.49311,52.58041],[13.49379,52.57969],[13.49338,52.57818],[13.48962,52.57801],[13.48965,52.57852],[13.48869,52.57851],[13.48877,52.57798],[13.48677,52.5779],[13.48654,52.57855],[13.4886,52.57862],[13.48849,52.57932],[13.48972,52.57936],[13.48646,52.57927],[13.48718,52.57946],[13.48666,52.57971],[13.48714,52.58039],[13.48583,52.58039],[13.48666,52.58256],[13.48908,52.58306],[13.4883,52.58378]]]}},{"type":"Feature","properties":{"id":"dogal-lab-65","kind":"district-label","btype":"dogal","name":"NSG Malchower Aue"},"geometry":{"type":"Point","coordinates":[13.48928,52.5816]}},{"type":"Feature","properties":{"id":"dogal-66","kind":"district","btype":"dogal","name":"Siedlung Heerstraße","lab":1},"geometry":{"type":"Polygon","coordinates":[[[13.2573,52.50343],[13.25822,52.50695],[13.25785,52.50759],[13.25834,52.50797],[13.26126,52.50718],[13.2631,52.50605],[13.26466,52.503],[13.26354,52.50197],[13.26294,52.50185],[13.26169,52.50264],[13.26061,52.50185],[13.2573,52.50343]]]}},{"type":"Feature","properties":{"id":"dogal-lab-66","kind":"district-label","btype":"dogal","name":"Siedlung Heerstraße"},"geometry":{"type":"Point","coordinates":[13.26071,52.50474]}},{"type":"Feature","properties":{"id":"dogal-67","kind":"district","btype":"dogal","name":"Siedlung Elsengrund","lab":1},"geometry":{"type":"Polygon","coordinates":[[[13.58664,52.45915],[13.58672,52.46157],[13.58734,52.46156],[13.58742,52.46211],[13.59042,52.46164],[13.59287,52.46231],[13.5934,52.46182],[13.59409,52.46202],[13.59423,52.46321],[13.59637,52.46318],[13.59532,52.45901],[13.58664,52.45915]]]}},{"type":"Feature","properties":{"id":"dogal-lab-67","kind":"district-label","btype":"dogal","name":"Siedlung Elsengrund"},"geometry":{"type":"Point","coordinates":[13.59117,52.46035]}},{"type":"Feature","properties":{"id":"dogal-68","kind":"district","btype":"dogal","name":"Siedlung Grazer Damm","lab":1},"geometry":{"type":"Polygon","coordinates":[[[13.35012,52.46115],[13.34864,52.4611],[13.34814,52.46513],[13.34589,52.46506],[13.3457,52.4703],[13.34458,52.47048],[13.34462,52.47013],[13.34399,52.4701],[13.34386,52.471],[13.34896,52.47023],[13.35012,52.46115]]]}},{"type":"Feature","properties":{"id":"dogal-lab-68","kind":"district-label","btype":"dogal","name":"Siedlung Grazer Damm"},"geometry":{"type":"Point","coordinates":[13.34755,52.46762]}}]}