{"type":"FeatureCollection","features":[{"type":"Feature","properties":{"id":"ticari-2","kind":"district","btype":"ticari","name":"고덕비즈밸리","lab":1},"geometry":{"type":"MultiPolygon","coordinates":[[[[127.1557,37.56704],[127.15684,37.56547],[127.15711,37.5633],[127.16323,37.56296],[127.1612,37.56482],[127.16233,37.56529],[127.16421,37.56553],[127.16735,37.56447],[127.16737,37.56488],[127.16252,37.56667],[127.15964,37.56876],[127.1557,37.56704]]]]}},{"type":"Feature","properties":{"id":"ticari-lab-2","kind":"district-label","btype":"ticari","name":"고덕비즈밸리"},"geometry":{"type":"Point","coordinates":[127.15995,37.56565]}},{"type":"Feature","properties":{"id":"ticari-4","kind":"district","btype":"ticari","name":"Dongdaemun Fashion Town","lab":1},"geometry":{"type":"MultiPolygon","coordinates":[[[[127.00711,37.56926],[127.00721,37.56797],[127.00769,37.56784],[127.00708,37.56702],[127.00663,37.56556],[127.00843,37.5649],[127.00883,37.56565],[127.00986,37.56543],[127.01045,37.56593],[127.01275,37.56631],[127.01271,37.5666],[127.01333,37.56667],[127.01326,37.56711],[127.01425,37.56723],[127.01428,37.5679],[127.01281,37.56778],[127.01246,37.56849],[127.01392,37.56916],[127.0157,37.569],[127.01567,37.56958],[127.00711,37.56926]]]]}},{"type":"Feature","properties":{"id":"ticari-lab-4","kind":"district-label","btype":"ticari","name":"Dongdaemun Fashion Town"},"geometry":{"type":"Point","coordinates":[127.01024,37.56757]}},{"type":"Feature","properties":{"id":"ticari-5","kind":"district","btype":"ticari","name":"일산신도시 중심상업지역","lab":1},"geometry":{"type":"MultiPolygon","coordinates":[[[[126.77356,37.65881],[126.76847,37.65691],[126.77063,37.6533],[126.77565,37.65511],[126.77356,37.65881]]]]}},{"type":"Feature","properties":{"id":"ticari-lab-5","kind":"district-label","btype":"ticari","name":"일산신도시 중심상업지역"},"geometry":{"type":"Point","coordinates":[126.77208,37.65604]}},{"type":"Feature","properties":{"id":"ticari-7","kind":"district","btype":"ticari","name":"압구정로데오거리","lab":1},"geometry":{"type":"MultiPolygon","coordinates":[[[[127.04055,37.5277],[127.03397,37.52899],[127.03351,37.52663],[127.03701,37.52583],[127.03741,37.52285],[127.03903,37.52332],[127.04055,37.5277]]]]}},{"type":"Feature","properties":{"id":"ticari-lab-7","kind":"district-label","btype":"ticari","name":"압구정로데오거리"},"geometry":{"type":"Point","coordinates":[127.03728,37.52647]}},{"type":"Feature","properties":{"id":"ticari-9","kind":"district","btype":"ticari","name":"World Trade Center Seoul","lab":1},"geometry":{"type":"MultiPolygon","coordinates":[[[[127.0598,37.51352],[127.05924,37.51392],[127.05662,37.51334],[127.05948,37.50804],[127.06223,37.5089],[127.06249,37.50937],[127.0598,37.51352]]]]}},{"type":"Feature","properties":{"id":"ticari-lab-9","kind":"district-label","btype":"ticari","name":"World Trade Center Seoul"},"geometry":{"type":"Point","coordinates":[127.05959,37.51103]}},{"type":"Feature","properties":{"id":"ticari-12","kind":"district","btype":"ticari","name":"장안평자동차용품거리","lab":1},"geometry":{"type":"MultiPolygon","coordinates":[[[[127.06806,37.55796],[127.06998,37.55981],[127.06933,37.5606],[127.06538,37.56119],[127.06458,37.56088],[127.06374,37.56145],[127.06109,37.56181],[127.06086,37.56071],[127.06427,37.56022],[127.06806,37.55796]]]]}},{"type":"Feature","properties":{"id":"ticari-lab-12","kind":"district-label","btype":"ticari","name":"장안평자동차용품거리"},"geometry":{"type":"Point","coordinates":[127.06599,37.56016]}},{"type":"Feature","properties":{"id":"ticari-14","kind":"district","btype":"ticari","name":"신사동 가로수길","lab":1},"geometry":{"type":"MultiPolygon","coordinates":[[[[127.02178,37.52364],[127.02264,37.51808],[127.02239,37.51799],[127.02265,37.51756],[127.02516,37.51859],[127.02349,37.52159],[127.02306,37.52427],[127.02178,37.52364]]]]}},{"type":"Feature","properties":{"id":"ticari-lab-14","kind":"district-label","btype":"ticari","name":"신사동 가로수길"},"geometry":{"type":"Point","coordinates":[127.02316,37.52059]}},{"type":"Feature","properties":{"id":"ticari-15","kind":"district","btype":"ticari","name":"삼산농산물도매시장","lab":1},"geometry":{"type":"MultiPolygon","coordinates":[[[[126.74686,37.52084],[126.74685,37.52356],[126.74963,37.52336],[126.75114,37.52377],[126.75056,37.52026],[126.74949,37.52089],[126.74686,37.52084]]]]}},{"type":"Feature","properties":{"id":"ticari-lab-15","kind":"district-label","btype":"ticari","name":"삼산농산물도매시장"},"geometry":{"type":"Point","coordinates":[126.74893,37.52216]}},{"type":"Feature","properties":{"id":"ticari-18","kind":"district","btype":"ticari","name":"한국트럭터미널","lab":1},"geometry":{"type":"MultiPolygon","coordinates":[[[[127.03863,37.46195],[127.0368,37.46064],[127.03897,37.45873],[127.04085,37.45872],[127.04162,37.45948],[127.04061,37.46011],[127.04123,37.4608],[127.04031,37.46167],[127.03863,37.46195]]]]}},{"type":"Feature","properties":{"id":"ticari-lab-18","kind":"district-label","btype":"ticari","name":"한국트럭터미널"},"geometry":{"type":"Point","coordinates":[127.03933,37.46029]}},{"type":"Feature","properties":{"id":"ticari-20","kind":"district","btype":"ticari","name":"황학동 주방거리","lab":1},"geometry":{"type":"MultiPolygon","coordinates":[[[[127.01944,37.56837],[127.01842,37.56833],[127.0185,37.56892],[127.01906,37.56931],[127.01882,37.56965],[127.01938,37.56991],[127.01915,37.57056],[127.01937,37.57067],[127.01986,37.57029],[127.02083,37.57035],[127.02098,37.5697],[127.02215,37.57018],[127.02337,37.56974],[127.02339,37.56738],[127.02314,37.56728],[127.02228,37.56744],[127.02196,37.56789],[127.02127,37.56794],[127.02101,37.5676],[127.02095,37.5683],[127.0196,37.56838],[127.01942,37.56945],[127.01944,37.56837]]]]}},{"type":"Feature","properties":{"id":"ticari-lab-20","kind":"district-label","btype":"ticari","name":"황학동 주방거리"},"geometry":{"type":"Point","coordinates":[127.02124,37.56899]}},{"type":"Feature","properties":{"id":"ticari-22","kind":"district","btype":"ticari","name":"건대 맛의거리","lab":1},"geometry":{"type":"MultiPolygon","coordinates":[[[[127.07046,37.54341],[127.06924,37.54105],[127.06672,37.54191],[127.06611,37.54078],[127.07019,37.53942],[127.07158,37.54228],[127.07046,37.54341]]]]}},{"type":"Feature","properties":{"id":"ticari-lab-22","kind":"district-label","btype":"ticari","name":"건대 맛의거리"},"geometry":{"type":"Point","coordinates":[127.06924,37.54113]}},{"type":"Feature","properties":{"id":"ticari-23","kind":"district","btype":"ticari","name":"현대프리미엄아울렛 스페이스원","lab":1},"geometry":{"type":"MultiPolygon","coordinates":[[[[127.15132,37.61411],[127.15491,37.61531],[127.15436,37.61694],[127.15045,37.61693],[127.15132,37.61499],[127.15132,37.61411]]]]}},{"type":"Feature","properties":{"id":"ticari-lab-23","kind":"district-label","btype":"ticari","name":"현대프리미엄아울렛 스페이스원"},"geometry":{"type":"Point","coordinates":[127.15267,37.61581]}},{"type":"Feature","properties":{"id":"ticari-24","kind":"district","btype":"ticari","name":"Lotte World Tower & Lotte World Mall","lab":1},"geometry":{"type":"MultiPolygon","coordinates":[[[[127.10105,37.51334],[127.10084,37.51279],[127.10202,37.51142],[127.10589,37.51322],[127.10504,37.51466],[127.10105,37.51334]]]]}},{"type":"Feature","properties":{"id":"ticari-lab-24","kind":"district-label","btype":"ticari","name":"Lotte World Tower & Lotte World Mall"},"geometry":{"type":"Point","coordinates":[127.1033,37.51309]}},{"type":"Feature","properties":{"id":"ticari-25","kind":"district","btype":"ticari","name":"철산상업지구","lab":1},"geometry":{"type":"MultiPolygon","coordinates":[[[[126.86611,37.47555],[126.87015,37.47677],[126.87115,37.47386],[126.86883,37.47364],[126.86867,37.47455],[126.86811,37.47482],[126.86697,37.47448],[126.86611,37.47555]]]]}},{"type":"Feature","properties":{"id":"ticari-lab-25","kind":"district-label","btype":"ticari","name":"철산상업지구"},"geometry":{"type":"Point","coordinates":[126.869,37.47515]}},{"type":"Feature","properties":{"id":"ticari-27","kind":"district","btype":"ticari","name":"Boramae Town","lab":1},"geometry":{"type":"MultiPolygon","coordinates":[[[[126.92332,37.49292],[126.92613,37.49251],[126.92667,37.49217],[126.9254,37.49015],[126.92278,37.4902],[126.92332,37.49292]]]]}},{"type":"Feature","properties":{"id":"ticari-lab-27","kind":"district-label","btype":"ticari","name":"Boramae Town"},"geometry":{"type":"Point","coordinates":[126.92455,37.49149]}},{"type":"Feature","properties":{"id":"ticari-28","kind":"district","btype":"ticari","name":"아시아나타운","lab":1},"geometry":{"type":"MultiPolygon","coordinates":[[[[126.79609,37.54545],[126.79691,37.54585],[126.79662,37.5463],[126.7978,37.54736],[126.7987,37.54668],[126.79829,37.54635],[126.79891,37.54623],[126.80008,37.54533],[126.80049,37.54564],[126.80104,37.54481],[126.80066,37.54443],[126.8001,37.54482],[126.79993,37.54383],[126.79844,37.54482],[126.79676,37.54461],[126.79609,37.54545]]]]}},{"type":"Feature","properties":{"id":"ticari-lab-28","kind":"district-label","btype":"ticari","name":"아시아나타운"},"geometry":{"type":"Point","coordinates":[126.7984,37.5455]}},{"type":"Feature","properties":{"id":"ticari-29","kind":"district","btype":"ticari","name":"Chungang Circulation Complex","lab":1},"geometry":{"type":"MultiPolygon","coordinates":[[[[126.87294,37.50149],[126.87371,37.50135],[126.87503,37.50198],[126.87539,37.50275],[126.87658,37.50198],[126.87679,37.50119],[126.87237,37.49916],[126.87294,37.50149]]]]}},{"type":"Feature","properties":{"id":"ticari-lab-29","kind":"district-label","btype":"ticari","name":"Chungang Circulation Complex"},"geometry":{"type":"Point","coordinates":[126.87454,37.50099]}},{"type":"Feature","properties":{"id":"ticari-30","kind":"district","btype":"ticari","name":"Seobu Driver's License Test Center","lab":1},"geometry":{"type":"MultiPolygon","coordinates":[[[[126.87875,37.58083],[126.88213,37.57905],[126.88212,37.57865],[126.88108,37.57753],[126.87761,37.57959],[126.87756,37.57993],[126.87875,37.58083]]]]}},{"type":"Feature","properties":{"id":"ticari-lab-30","kind":"district-label","btype":"ticari","name":"Seobu Driver's License Test Center"},"geometry":{"type":"Point","coordinates":[126.87991,37.57923]}},{"type":"Feature","properties":{"id":"ticari-35","kind":"district","btype":"ticari","name":"하나로마트 양재점","lab":1},"geometry":{"type":"MultiPolygon","coordinates":[[[[127.04176,37.46286],[127.04389,37.46433],[127.04526,37.46325],[127.04591,37.46161],[127.04231,37.46196],[127.04176,37.46286]]]]}},{"type":"Feature","properties":{"id":"ticari-lab-35","kind":"district-label","btype":"ticari","name":"하나로마트 양재점"},"geometry":{"type":"Point","coordinates":[127.04387,37.46277]}},{"type":"Feature","properties":{"id":"ticari-37","kind":"district","btype":"ticari","name":"연신내로데오거리","lab":1},"geometry":{"type":"MultiPolygon","coordinates":[[[[126.91552,37.61914],[126.91614,37.6201],[126.92091,37.61804],[126.92134,37.61754],[126.92051,37.61704],[126.91552,37.61914]]]]}},{"type":"Feature","properties":{"id":"ticari-lab-37","kind":"district-label","btype":"ticari","name":"연신내로데오거리"},"geometry":{"type":"Point","coordinates":[126.91839,37.61853]}},{"type":"Feature","properties":{"id":"ticari-41","kind":"district","btype":"ticari","name":"Garden 5","lab":1},"geometry":{"type":"MultiPolygon","coordinates":[[[[127.1236,37.4784],[127.12365,37.47693],[127.12676,37.47647],[127.1256,37.47916],[127.1236,37.4784]]]]}},{"type":"Feature","properties":{"id":"ticari-lab-41","kind":"district-label","btype":"ticari","name":"Garden 5"},"geometry":{"type":"Point","coordinates":[127.12505,37.4777]}},{"type":"Feature","properties":{"id":"ticari-42","kind":"district","btype":"ticari","name":"하남덕풍전통재래시장","lab":1},"geometry":{"type":"MultiPolygon","coordinates":[[[[127.20318,37.54329],[127.2054,37.54223],[127.20509,37.54186],[127.20414,37.54231],[127.20195,37.53961],[127.20093,37.54038],[127.20318,37.54329]]]]}},{"type":"Feature","properties":{"id":"ticari-lab-42","kind":"district-label","btype":"ticari","name":"하남덕풍전통재래시장"},"geometry":{"type":"Point","coordinates":[127.20284,37.54157]}},{"type":"Feature","properties":{"id":"ticari-43","kind":"district","btype":"ticari","name":"한국도로공사","lab":1},"geometry":{"type":"MultiPolygon","coordinates":[[[[127.15211,37.51497],[127.15196,37.51369],[127.15245,37.51313],[127.1551,37.51343],[127.15555,37.5144],[127.15339,37.51502],[127.15211,37.51497]]]]}},{"type":"Feature","properties":{"id":"ticari-lab-43","kind":"district-label","btype":"ticari","name":"한국도로공사"},"geometry":{"type":"Point","coordinates":[127.15355,37.51408]}},{"type":"Feature","properties":{"id":"ticari-44","kind":"district","btype":"ticari","name":"서래마을 카페거리","lab":1},"geometry":{"type":"MultiPolygon","coordinates":[[[[126.99862,37.50013],[126.99742,37.49967],[126.99779,37.49895],[126.99745,37.49506],[126.99828,37.49501],[126.99858,37.49567],[126.99835,37.49696],[126.99891,37.49746],[126.99904,37.49935],[126.99862,37.50013]]]]}},{"type":"Feature","properties":{"id":"ticari-lab-44","kind":"district-label","btype":"ticari","name":"서래마을 카페거리"},"geometry":{"type":"Point","coordinates":[126.9982,37.49769]}},{"type":"Feature","properties":{"id":"ticari-45","kind":"district","btype":"ticari","name":"Bupyeong Street of Culture","lab":1},"geometry":{"type":"MultiPolygon","coordinates":[[[[126.72318,37.49195],[126.72403,37.49181],[126.7263,37.49435],[126.72284,37.494],[126.72318,37.49195]]]]}},{"type":"Feature","properties":{"id":"ticari-lab-45","kind":"district-label","btype":"ticari","name":"Bupyeong Street of Culture"},"geometry":{"type":"Point","coordinates":[126.72421,37.49325]}},{"type":"Feature","properties":{"id":"ticari-46","kind":"district","btype":"ticari","name":"Times Square","lab":1},"geometry":{"type":"MultiPolygon","coordinates":[[[[126.90248,37.518],[126.90241,37.51756],[126.90189,37.51756],[126.90236,37.51636],[126.90369,37.51615],[126.90497,37.51693],[126.90614,37.517],[126.90558,37.51792],[126.90248,37.518]]]]}},{"type":"Feature","properties":{"id":"ticari-lab-46","kind":"district-label","btype":"ticari","name":"Times Square"},"geometry":{"type":"Point","coordinates":[126.90382,37.5172]}},{"type":"Feature","properties":{"id":"ticari-49","kind":"district","btype":"ticari","name":"용암천 카페거리","lab":1},"geometry":{"type":"MultiPolygon","coordinates":[[[[127.12891,37.656],[127.12965,37.65608],[127.12943,37.65952],[127.12756,37.65942],[127.12795,37.65782],[127.12891,37.656]]]]}},{"type":"Feature","properties":{"id":"ticari-lab-49","kind":"district-label","btype":"ticari","name":"용암천 카페거리"},"geometry":{"type":"Point","coordinates":[127.12877,37.65798]}},{"type":"Feature","properties":{"id":"ticari-51","kind":"district","btype":"ticari","name":"Seoul Trade Exhibition Center(SETEC)","lab":1},"geometry":{"type":"MultiPolygon","coordinates":[[[[127.07032,37.49645],[127.07317,37.49731],[127.07281,37.49557],[127.07162,37.49407],[127.07032,37.49645]]]]}},{"type":"Feature","properties":{"id":"ticari-lab-51","kind":"district-label","btype":"ticari","name":"Seoul Trade Exhibition Center(SETEC)"},"geometry":{"type":"Point","coordinates":[127.07184,37.4959]}},{"type":"Feature","properties":{"id":"ticari-53","kind":"district","btype":"ticari","name":"부천 먹자 골목","lab":1},"geometry":{"type":"MultiPolygon","coordinates":[[[[126.78054,37.48833],[126.78279,37.488],[126.78236,37.48597],[126.78006,37.4863],[126.78054,37.48833]]]]}},{"type":"Feature","properties":{"id":"ticari-lab-53","kind":"district-label","btype":"ticari","name":"부천 먹자 골목"},"geometry":{"type":"Point","coordinates":[126.78143,37.48714]}},{"type":"Feature","properties":{"id":"ticari-54","kind":"district","btype":"ticari","name":"용암천 상업지구","lab":1},"geometry":{"type":"MultiPolygon","coordinates":[[[[127.12594,37.65541],[127.12699,37.65588],[127.1249,37.65882],[127.12407,37.65848],[127.12432,37.65688],[127.12594,37.65541]]]]}},{"type":"Feature","properties":{"id":"ticari-lab-54","kind":"district-label","btype":"ticari","name":"용암천 상업지구"},"geometry":{"type":"Point","coordinates":[127.12535,37.65705]}},{"type":"Feature","properties":{"id":"ticari-55","kind":"district","btype":"ticari","name":"Parc.1","lab":1},"geometry":{"type":"MultiPolygon","coordinates":[[[[126.9287,37.52468],[126.92667,37.52657],[126.92669,37.52677],[126.92793,37.52743],[126.92999,37.52545],[126.9287,37.52468]]]]}},{"type":"Feature","properties":{"id":"ticari-lab-55","kind":"district-label","btype":"ticari","name":"Parc.1"},"geometry":{"type":"Point","coordinates":[126.92829,37.52607]}},{"type":"Feature","properties":{"id":"ticari-57","kind":"district","btype":"ticari","name":"다산현대프리미어캠퍼스몰","lab":1},"geometry":{"type":"MultiPolygon","coordinates":[[[[127.15192,37.61117],[127.15123,37.61375],[127.15263,37.61407],[127.15371,37.61227],[127.15192,37.61117]]]]}},{"type":"Feature","properties":{"id":"ticari-lab-57","kind":"district-label","btype":"ticari","name":"다산현대프리미어캠퍼스몰"},"geometry":{"type":"Point","coordinates":[127.15237,37.61273]}}]}