{"type":"FeatureCollection","features":[{"type":"Feature","properties":{"id":"egitim-0","kind":"district","btype":"egitim","name":"Seoul National University Gwanak Campus","lab":1},"geometry":{"type":"MultiPolygon","coordinates":[[[[126.95708,37.45918],[126.9562,37.45712],[126.95363,37.45379],[126.95241,37.45123],[126.95295,37.45121],[126.95286,37.44807],[126.95204,37.44806],[126.9518,37.44739],[126.95124,37.44709],[126.9495,37.44736],[126.94916,37.44799],[126.94978,37.44943],[126.9498,37.4509],[126.95033,37.45274],[126.94982,37.45523],[126.94888,37.45554],[126.94812,37.45652],[126.94745,37.45944],[126.94849,37.46066],[126.94906,37.46055],[126.94935,37.4614],[126.94811,37.46672],[126.95096,37.46822],[126.95178,37.46906],[126.95214,37.46893],[126.95266,37.46926],[126.95348,37.46876],[126.95317,37.46845],[126.95412,37.46728],[126.95464,37.46714],[126.95533,37.46656],[126.95512,37.46626],[126.95618,37.46571],[126.95563,37.46511],[126.95523,37.46513],[126.95458,37.46189],[126.95484,37.46156],[126.95624,37.46133],[126.95767,37.46278],[126.95789,37.46337],[126.95809,37.46848],[126.96004,37.46821],[126.96106,37.4672],[126.96122,37.46593],[126.96049,37.46477],[126.95977,37.46424],[126.95988,37.46359],[126.95921,37.4628],[126.95929,37.46159],[126.95877,37.46146],[126.9591,37.46082],[126.95708,37.45918]]]]}},{"type":"Feature","properties":{"id":"egitim-lab-0","kind":"district-label","btype":"egitim","name":"Seoul National University Gwanak Campus"},"geometry":{"type":"Point","coordinates":[126.95298,37.45998]}},{"type":"Feature","properties":{"id":"egitim-1","kind":"district","btype":"egitim","name":"Korea Military Academy","lab":1},"geometry":{"type":"MultiPolygon","coordinates":[[[[127.09915,37.62931],[127.09569,37.62503],[127.09122,37.6233],[127.09146,37.62203],[127.09253,37.62112],[127.0918,37.62057],[127.09091,37.61907],[127.09113,37.61881],[127.09333,37.61774],[127.09792,37.61734],[127.09856,37.61807],[127.10024,37.61791],[127.10027,37.6184],[127.10113,37.61881],[127.10183,37.61874],[127.1037,37.6199],[127.10577,37.62049],[127.10758,37.62334],[127.1081,37.6248],[127.10808,37.62574],[127.10967,37.62817],[127.10957,37.629],[127.10862,37.62888],[127.10583,37.62726],[127.10502,37.62717],[127.10089,37.62825],[127.09915,37.62931]]]]}},{"type":"Feature","properties":{"id":"egitim-lab-1","kind":"district-label","btype":"egitim","name":"Korea Military Academy"},"geometry":{"type":"Point","coordinates":[127.09993,37.62302]}},{"type":"Feature","properties":{"id":"egitim-3","kind":"district","btype":"egitim","name":"Yonsei University Sinchon Campus","lab":1},"geometry":{"type":"MultiPolygon","coordinates":[[[[126.94153,37.56871],[126.94505,37.56596],[126.94609,37.56613],[126.94321,37.56387],[126.94178,37.56437],[126.94134,37.56429],[126.94099,37.56338],[126.93964,37.56373],[126.93903,37.56279],[126.93923,37.56259],[126.93773,37.56132],[126.93715,37.5602],[126.93394,37.5607],[126.93156,37.56271],[126.93208,37.56321],[126.93274,37.56297],[126.93375,37.56356],[126.93428,37.56614],[126.93529,37.56666],[126.93632,37.56806],[126.9382,37.56843],[126.93816,37.56941],[126.94023,37.56985],[126.9389,37.57065],[126.9383,37.5724],[126.93862,37.57281],[126.93831,37.57479],[126.94016,37.57529],[126.94041,37.57387],[126.94095,37.57306],[126.94084,37.57187],[126.94142,37.57132],[126.94153,37.56871]]]]}},{"type":"Feature","properties":{"id":"egitim-lab-3","kind":"district-label","btype":"egitim","name":"Yonsei University Sinchon Campus"},"geometry":{"type":"Point","coordinates":[126.93858,37.56617]}},{"type":"Feature","properties":{"id":"egitim-4","kind":"district","btype":"egitim","name":"Korea University Seoul Campus","lab":1},"geometry":{"type":"MultiPolygon","coordinates":[[[[127.02981,37.59132],[127.03106,37.59118],[127.03178,37.59093],[127.03298,37.59124],[127.03241,37.59239],[127.03287,37.59234],[127.03331,37.59134],[127.03557,37.59244],[127.03602,37.59232],[127.03616,37.59173],[127.03585,37.58966],[127.03263,37.58652],[127.03094,37.58645],[127.02991,37.58684],[127.03044,37.58737],[127.03053,37.58799],[127.03027,37.58983],[127.03095,37.59032],[127.03078,37.59063],[127.03109,37.59062],[127.03112,37.59103],[127.03074,37.5911],[127.03078,37.59073],[127.03027,37.59027],[127.02763,37.59078],[127.02722,37.58979],[127.02769,37.58876],[127.02855,37.58809],[127.02878,37.58652],[127.02798,37.58613],[127.02882,37.58537],[127.02888,37.58362],[127.02829,37.5834],[127.02825,37.58249],[127.02791,37.58264],[127.02764,37.58228],[127.02691,37.5822],[127.0265,37.58155],[127.02626,37.5816],[127.02596,37.58182],[127.02596,37.58241],[127.02469,37.58274],[127.02381,37.58474],[127.02449,37.58598],[127.02536,37.58638],[127.02599,37.5882],[127.02454,37.58986],[127.02469,37.59036],[127.02393,37.59083],[127.0239,37.59242],[127.0254,37.59421],[127.02632,37.59447],[127.02725,37.593],[127.02813,37.59289],[127.02981,37.59132]]]]}},{"type":"Feature","properties":{"id":"egitim-lab-4","kind":"district-label","btype":"egitim","name":"Korea University Seoul Campus"},"geometry":{"type":"Point","coordinates":[127.02876,37.58853]}},{"type":"Feature","properties":{"id":"egitim-11","kind":"district","btype":"egitim","name":"Konkuk University Seoul Campus","lab":1},"geometry":{"type":"MultiPolygon","coordinates":[[[[127.07295,37.54449],[127.0718,37.54201],[127.07257,37.54173],[127.07319,37.54094],[127.07245,37.53951],[127.07513,37.53876],[127.07529,37.53933],[127.07997,37.5387],[127.08007,37.53915],[127.08083,37.53904],[127.08096,37.54045],[127.08242,37.54007],[127.08297,37.54133],[127.08143,37.54198],[127.08126,37.5424],[127.07887,37.54253],[127.07869,37.54381],[127.07967,37.54386],[127.08,37.54424],[127.07982,37.54499],[127.07295,37.54449]]]]}},{"type":"Feature","properties":{"id":"egitim-lab-11","kind":"district-label","btype":"egitim","name":"Konkuk University Seoul Campus"},"geometry":{"type":"Point","coordinates":[127.07688,37.54173]}},{"type":"Feature","properties":{"id":"egitim-12","kind":"district","btype":"egitim","name":"Seoul National University of Science and Technology","lab":1},"geometry":{"type":"MultiPolygon","coordinates":[[[[127.07539,37.63083],[127.07646,37.63449],[127.07526,37.63501],[127.07552,37.63617],[127.07593,37.63648],[127.07641,37.63646],[127.07736,37.63569],[127.07925,37.6362],[127.08066,37.63587],[127.08175,37.63501],[127.08295,37.63318],[127.08283,37.63159],[127.08311,37.63099],[127.08239,37.63101],[127.08158,37.62821],[127.08108,37.62854],[127.07754,37.62852],[127.07658,37.63028],[127.07539,37.63083]]]]}},{"type":"Feature","properties":{"id":"egitim-lab-12","kind":"district-label","btype":"egitim","name":"Seoul National University of Science and Technology"},"geometry":{"type":"Point","coordinates":[127.07916,37.63239]}},{"type":"Feature","properties":{"id":"egitim-13","kind":"district","btype":"egitim","name":"Kyung Hee University Seoul Campus","lab":1},"geometry":{"type":"MultiPolygon","coordinates":[[[[127.05621,37.5976],[127.05578,37.59681],[127.05595,37.59502],[127.05635,37.59486],[127.05623,37.59372],[127.055,37.59347],[127.0551,37.59329],[127.05369,37.59396],[127.05255,37.5938],[127.0518,37.59309],[127.05056,37.59307],[127.05045,37.59385],[127.04977,37.5944],[127.04891,37.59415],[127.04849,37.59467],[127.04746,37.59443],[127.04765,37.59589],[127.04729,37.59617],[127.04741,37.59652],[127.04791,37.59729],[127.04882,37.59789],[127.0491,37.59878],[127.05038,37.60013],[127.05047,37.60062],[127.05134,37.60129],[127.05244,37.5996],[127.05399,37.59904],[127.05419,37.59809],[127.05531,37.59818],[127.05537,37.59754],[127.05621,37.5976]]]]}},{"type":"Feature","properties":{"id":"egitim-lab-13","kind":"district-label","btype":"egitim","name":"Kyung Hee University Seoul Campus"},"geometry":{"type":"Point","coordinates":[127.05188,37.59652]}},{"type":"Feature","properties":{"id":"egitim-14","kind":"district","btype":"egitim","name":"Ewha Womans University","lab":1},"geometry":{"type":"MultiPolygon","coordinates":[[[[126.9417,37.56132],[126.94328,37.56251],[126.94399,37.56194],[126.94507,37.56283],[126.9444,37.56342],[126.94643,37.56544],[126.9474,37.56492],[126.94813,37.56609],[126.94783,37.56653],[126.94876,37.56722],[126.94979,37.56902],[126.95154,37.56841],[126.95101,37.56794],[126.95128,37.56766],[126.95127,37.56678],[126.95071,37.56539],[126.95115,37.56383],[126.9501,37.56403],[126.94984,37.56355],[126.94977,37.56209],[126.95035,37.56119],[126.94944,37.56038],[126.94691,37.55984],[126.94342,37.55966],[126.94332,37.56137],[126.94294,37.56171],[126.94208,37.56104],[126.9417,37.56132]]]]}},{"type":"Feature","properties":{"id":"egitim-lab-14","kind":"district-label","btype":"egitim","name":"Ewha Womans University"},"geometry":{"type":"Point","coordinates":[126.9476,37.56339]}},{"type":"Feature","properties":{"id":"egitim-15","kind":"district","btype":"egitim","name":"Sahmyook University","lab":1},"geometry":{"type":"MultiPolygon","coordinates":[[[[127.10998,37.64223],[127.10881,37.64406],[127.10819,37.64395],[127.10775,37.64474],[127.1071,37.64501],[127.10384,37.64509],[127.10275,37.64464],[127.1014,37.64243],[127.0986,37.64158],[127.09858,37.64049],[127.09997,37.64027],[127.1032,37.64169],[127.10572,37.64174],[127.10728,37.63965],[127.10725,37.63852],[127.10776,37.6384],[127.11148,37.64127],[127.11106,37.64246],[127.10998,37.64223]]]]}},{"type":"Feature","properties":{"id":"egitim-lab-15","kind":"district-label","btype":"egitim","name":"Sahmyook University"},"geometry":{"type":"Point","coordinates":[127.10575,37.64224]}},{"type":"Feature","properties":{"id":"egitim-18","kind":"district","btype":"egitim","name":"Hanyang University Seoul Campus","lab":1},"geometry":{"type":"MultiPolygon","coordinates":[[[[127.04789,37.5585],[127.04718,37.55901],[127.04687,37.55978],[127.04643,37.55958],[127.04589,37.55993],[127.04507,37.55952],[127.04615,37.55817],[127.04571,37.55801],[127.04463,37.55919],[127.04349,37.55902],[127.04211,37.55932],[127.04194,37.55822],[127.04138,37.55776],[127.04293,37.55732],[127.0436,37.55665],[127.04403,37.55404],[127.04504,37.55396],[127.04846,37.55477],[127.05078,37.55651],[127.05101,37.55728],[127.0507,37.55736],[127.0498,37.55717],[127.04955,37.55758],[127.04835,37.55708],[127.04794,37.55786],[127.04873,37.55815],[127.04868,37.55857],[127.04859,37.5588],[127.04789,37.5585]]]]}},{"type":"Feature","properties":{"id":"egitim-lab-18","kind":"district-label","btype":"egitim","name":"Hanyang University Seoul Campus"},"geometry":{"type":"Point","coordinates":[127.04609,37.55686]}},{"type":"Feature","properties":{"id":"egitim-19","kind":"district","btype":"egitim","name":"농협대학교","lab":1},"geometry":{"type":"MultiPolygon","coordinates":[[[[126.87096,37.65719],[126.87577,37.65719],[126.8768,37.65831],[126.8766,37.66151],[126.87559,37.66198],[126.87423,37.66175],[126.87225,37.66066],[126.8695,37.66056],[126.86872,37.65989],[126.8687,37.65838],[126.86937,37.65796],[126.87047,37.65779],[126.87095,37.65756],[126.87096,37.65719]]]]}},{"type":"Feature","properties":{"id":"egitim-lab-19","kind":"district-label","btype":"egitim","name":"농협대학교"},"geometry":{"type":"Point","coordinates":[126.87317,37.6593]}},{"type":"Feature","properties":{"id":"egitim-21","kind":"district","btype":"egitim","name":"University of Seoul","lab":1},"geometry":{"type":"MultiPolygon","coordinates":[[[[127.05481,37.58407],[127.056,37.58536],[127.0563,37.58641],[127.05767,37.58594],[127.05776,37.58508],[127.0605,37.58513],[127.06207,37.58549],[127.06422,37.58475],[127.0624,37.58126],[127.06219,37.57979],[127.06152,37.57974],[127.06194,37.58033],[127.06168,37.58035],[127.06182,37.58129],[127.06159,37.58152],[127.06218,37.58163],[127.06283,37.58247],[127.0608,37.58207],[127.06001,37.58251],[127.05901,37.58222],[127.05821,37.58255],[127.05794,37.58194],[127.05617,37.58181],[127.05559,37.5829],[127.05499,37.58296],[127.05481,37.58407]]]]}},{"type":"Feature","properties":{"id":"egitim-lab-21","kind":"district-label","btype":"egitim","name":"University of Seoul"},"geometry":{"type":"Point","coordinates":[127.05936,37.58371]}},{"type":"Feature","properties":{"id":"egitim-22","kind":"district","btype":"egitim","name":"Gachon University Global Campus","lab":1},"geometry":{"type":"MultiPolygon","coordinates":[[[[127.1269,37.44902],[127.12959,37.44894],[127.1304,37.45072],[127.135,37.45298],[127.13485,37.45337],[127.13526,37.45414],[127.13598,37.45455],[127.13578,37.45677],[127.13208,37.45593],[127.13199,37.45501],[127.1325,37.45423],[127.13386,37.45341],[127.13351,37.45307],[127.13179,37.45239],[127.13029,37.45294],[127.12807,37.45231],[127.12788,37.45293],[127.1268,37.45291],[127.1269,37.44902]]]]}},{"type":"Feature","properties":{"id":"egitim-lab-22","kind":"district-label","btype":"egitim","name":"Gachon University Global Campus"},"geometry":{"type":"Point","coordinates":[127.13117,37.45263]}},{"type":"Feature","properties":{"id":"egitim-23","kind":"district","btype":"egitim","name":"Korea National University of Arts Seokgwan-dong Campus","lab":1},"geometry":{"type":"MultiPolygon","coordinates":[[[[127.05512,37.60127],[127.05547,37.601],[127.05776,37.60146],[127.05757,37.60112],[127.05918,37.60103],[127.06061,37.60197],[127.06005,37.60217],[127.06003,37.60246],[127.0608,37.60352],[127.05991,37.60498],[127.05925,37.60566],[127.05869,37.60567],[127.0576,37.60716],[127.05623,37.60725],[127.0568,37.60792],[127.05548,37.60886],[127.05531,37.60732],[127.05436,37.60651],[127.05394,37.60673],[127.05346,37.60586],[127.0541,37.60557],[127.05453,37.60637],[127.05496,37.60587],[127.05582,37.60579],[127.05506,37.60549],[127.05525,37.60524],[127.05485,37.60475],[127.05515,37.60436],[127.05576,37.60433],[127.05512,37.60365],[127.05544,37.60329],[127.05598,37.60331],[127.05738,37.60433],[127.05812,37.60443],[127.05868,37.60407],[127.05608,37.60264],[127.05512,37.60127]]]]}},{"type":"Feature","properties":{"id":"egitim-lab-23","kind":"district-label","btype":"egitim","name":"Korea National University of Arts Seokgwan-dong Campus"},"geometry":{"type":"Point","coordinates":[127.0574,37.6043]}},{"type":"Feature","properties":{"id":"egitim-24","kind":"district","btype":"egitim","name":"Korea Institute of Science and Technology","lab":1},"geometry":{"type":"MultiPolygon","coordinates":[[[[127.04263,37.59792],[127.04536,37.5974],[127.04588,37.59884],[127.04642,37.59898],[127.04773,37.60334],[127.0487,37.60408],[127.0488,37.60439],[127.04836,37.60445],[127.04821,37.60515],[127.04656,37.60487],[127.04392,37.60279],[127.04263,37.59792]]]]}},{"type":"Feature","properties":{"id":"egitim-lab-24","kind":"district-label","btype":"egitim","name":"Korea Institute of Science and Technology"},"geometry":{"type":"Point","coordinates":[127.04545,37.60124]}},{"type":"Feature","properties":{"id":"egitim-25","kind":"district","btype":"egitim","name":"Gyeongin National University of Education Gyeonggi Campus","lab":1},"geometry":{"type":"MultiPolygon","coordinates":[[[[126.91945,37.4364],[126.91957,37.43282],[126.91761,37.43066],[126.91631,37.43014],[126.91482,37.43354],[126.91551,37.4359],[126.9163,37.43639],[126.91945,37.4364]]]]}},{"type":"Feature","properties":{"id":"egitim-lab-25","kind":"district-label","btype":"egitim","name":"Gyeongin National University of Education Gyeonggi Campus"},"geometry":{"type":"Point","coordinates":[126.91728,37.4337]}},{"type":"Feature","properties":{"id":"egitim-27","kind":"district","btype":"egitim","name":"Sogang University","lab":1},"geometry":{"type":"MultiPolygon","coordinates":[[[[126.93931,37.55327],[126.94155,37.55358],[126.94307,37.55447],[126.94289,37.55469],[126.94329,37.55466],[126.94338,37.55396],[126.94297,37.55299],[126.94377,37.55282],[126.94358,37.55236],[126.94423,37.55168],[126.94378,37.55033],[126.94061,37.5496],[126.94018,37.54993],[126.93898,37.54952],[126.93775,37.55186],[126.93931,37.55327]]]]}},{"type":"Feature","properties":{"id":"egitim-lab-27","kind":"district-label","btype":"egitim","name":"Sogang University"},"geometry":{"type":"Point","coordinates":[126.94112,37.55172]}},{"type":"Feature","properties":{"id":"egitim-28","kind":"district","btype":"egitim","name":"Seoul National University Yeongeon Campus","lab":1},"geometry":{"type":"MultiPolygon","coordinates":[[[[127.00026,37.57874],[127.00198,37.57974],[127.00181,37.58173],[127.00096,37.58171],[127.00073,37.58126],[126.99923,37.58117],[126.99789,37.58135],[126.99763,37.5819],[126.99689,37.5812],[126.99665,37.58029],[126.99693,37.57838],[126.9973,37.57726],[126.99774,37.57725],[126.99801,37.5767],[126.99957,37.57718],[127.00064,37.57683],[127.00066,37.57743],[127.00039,37.57762],[127.00112,37.57805],[127.00026,37.57874]]]]}},{"type":"Feature","properties":{"id":"egitim-lab-28","kind":"district-label","btype":"egitim","name":"Seoul National University Yeongeon Campus"},"geometry":{"type":"Point","coordinates":[126.99913,37.57941]}},{"type":"Feature","properties":{"id":"egitim-29","kind":"district","btype":"egitim","name":"Seoul Women's University","lab":1},"geometry":{"type":"MultiPolygon","coordinates":[[[[127.08821,37.62904],[127.08925,37.63149],[127.09034,37.6314],[127.09017,37.62982],[127.091,37.62977],[127.09183,37.62923],[127.09365,37.62741],[127.09406,37.62636],[127.09465,37.62624],[127.0932,37.62544],[127.09196,37.62727],[127.09095,37.62738],[127.09067,37.62733],[127.09038,37.62644],[127.08889,37.62506],[127.08837,37.62526],[127.08885,37.6268],[127.08814,37.62717],[127.088,37.62758],[127.08821,37.62904]]]]}},{"type":"Feature","properties":{"id":"egitim-lab-29","kind":"district-label","btype":"egitim","name":"Seoul Women's University"},"geometry":{"type":"Point","coordinates":[127.0905,37.62807]}},{"type":"Feature","properties":{"id":"egitim-31","kind":"district","btype":"egitim","name":"The Catholic University of Korea Songsim Campus","lab":1},"geometry":{"type":"MultiPolygon","coordinates":[[[[126.79929,37.48539],[126.80061,37.48578],[126.80068,37.48514],[126.80104,37.48491],[126.80207,37.48486],[126.80255,37.48438],[126.80325,37.48434],[126.80338,37.48497],[126.80423,37.48502],[126.80404,37.48563],[126.80456,37.48573],[126.80464,37.48608],[126.80193,37.4879],[126.79966,37.48915],[126.79899,37.4892],[126.79814,37.48761],[126.7985,37.48657],[126.79919,37.48611],[126.79929,37.48539]]]]}},{"type":"Feature","properties":{"id":"egitim-lab-31","kind":"district-label","btype":"egitim","name":"The Catholic University of Korea Songsim Campus"},"geometry":{"type":"Point","coordinates":[126.80114,37.4867]}},{"type":"Feature","properties":{"id":"egitim-33","kind":"district","btype":"egitim","name":"Kookmin University","lab":1},"geometry":{"type":"MultiPolygon","coordinates":[[[[126.99213,37.61256],[126.9932,37.61394],[126.99426,37.61368],[126.99415,37.61257],[126.99508,37.61203],[126.99594,37.61201],[126.99672,37.61268],[126.99725,37.61267],[126.99788,37.6125],[126.99815,37.61207],[126.9995,37.6119],[126.99981,37.61132],[126.99895,37.61067],[126.99918,37.6095],[126.99871,37.60944],[126.99873,37.60963],[126.9985,37.60997],[126.99867,37.60964],[126.99833,37.6092],[126.99673,37.60975],[126.9945,37.61114],[126.99248,37.61174],[126.99213,37.61256]]]]}},{"type":"Feature","properties":{"id":"egitim-lab-33","kind":"district-label","btype":"egitim","name":"Kookmin University"},"geometry":{"type":"Point","coordinates":[126.99615,37.61148]}},{"type":"Feature","properties":{"id":"egitim-34","kind":"district","btype":"egitim","name":"Sungkyunkwan University Humanities and Social Sciences Campus","lab":1},"geometry":{"type":"MultiPolygon","coordinates":[[[[126.99383,37.58713],[126.99052,37.58679],[126.98961,37.58703],[126.98931,37.58754],[126.9896,37.58926],[126.99184,37.58966],[126.99383,37.58853],[126.99482,37.58877],[126.99453,37.58805],[126.99518,37.58718],[126.99539,37.58727],[126.99571,37.58638],[126.9958,37.58666],[126.99645,37.58649],[126.99663,37.58515],[126.99695,37.5851],[126.9968,37.58443],[126.9953,37.58494],[126.99383,37.58713]]]]}},{"type":"Feature","properties":{"id":"egitim-lab-34","kind":"district-label","btype":"egitim","name":"Sungkyunkwan University Humanities and Social Sciences Campus"},"geometry":{"type":"Point","coordinates":[126.99284,37.58751]}},{"type":"Feature","properties":{"id":"egitim-35","kind":"district","btype":"egitim","name":"Duksung Women's University","lab":1},"geometry":{"type":"MultiPolygon","coordinates":[[[[127.01623,37.64911],[127.01863,37.64896],[127.01828,37.64994],[127.01986,37.64979],[127.02013,37.65018],[127.0172,37.65258],[127.01606,37.6541],[127.01468,37.65393],[127.0149,37.6519],[127.0147,37.65065],[127.01529,37.65037],[127.01548,37.64965],[127.01527,37.64952],[127.01623,37.64911]]]]}},{"type":"Feature","properties":{"id":"egitim-lab-35","kind":"district-label","btype":"egitim","name":"Duksung Women's University"},"geometry":{"type":"Point","coordinates":[127.01678,37.65121]}},{"type":"Feature","properties":{"id":"egitim-37","kind":"district","btype":"egitim","name":"Chung-Ang University Seoul Campus","lab":1},"geometry":{"type":"MultiPolygon","coordinates":[[[[126.95388,37.5049],[126.95402,37.50426],[126.95543,37.50375],[126.95555,37.50222],[126.95673,37.50213],[126.95694,37.50177],[126.95761,37.50294],[126.95861,37.50353],[126.95859,37.50446],[126.95963,37.50629],[126.95923,37.50646],[126.95919,37.507],[126.95766,37.50663],[126.95644,37.50529],[126.95464,37.50538],[126.95529,37.50614],[126.95483,37.50617],[126.95388,37.5049]]]]}},{"type":"Feature","properties":{"id":"egitim-lab-37","kind":"district-label","btype":"egitim","name":"Chung-Ang University Seoul Campus"},"geometry":{"type":"Point","coordinates":[126.95688,37.50453]}},{"type":"Feature","properties":{"id":"egitim-39","kind":"district","btype":"egitim","name":"Dongguk University Seoul Campus","lab":1},"geometry":{"type":"MultiPolygon","coordinates":[[[[126.99924,37.56065],[126.99803,37.5599],[126.99827,37.5591],[126.9987,37.55879],[126.99857,37.55848],[126.99797,37.55864],[126.99751,37.55834],[126.99919,37.55741],[126.99914,37.55707],[126.99985,37.55673],[126.99965,37.55623],[127.00123,37.55589],[127.00147,37.55673],[127.0027,37.55646],[127.00332,37.55714],[127.00333,37.55767],[127.00377,37.55785],[127.00356,37.55882],[127.00217,37.55817],[127.00123,37.55828],[126.99998,37.55915],[127.0003,37.55916],[127.00079,37.56028],[126.99924,37.56065]]]]}},{"type":"Feature","properties":{"id":"egitim-lab-39","kind":"district-label","btype":"egitim","name":"Dongguk University Seoul Campus"},"geometry":{"type":"Point","coordinates":[127.00049,37.55814]}},{"type":"Feature","properties":{"id":"egitim-40","kind":"district","btype":"egitim","name":"Korea Aerospace University","lab":1},"geometry":{"type":"MultiPolygon","coordinates":[[[[126.867,37.59961],[126.86744,37.60135],[126.86511,37.60328],[126.86393,37.60105],[126.86394,37.60044],[126.86318,37.60015],[126.86294,37.59948],[126.8642,37.59829],[126.86405,37.59791],[126.86483,37.59733],[126.86527,37.59723],[126.86557,37.59771],[126.86678,37.59727],[126.86714,37.59781],[126.867,37.59846],[126.8661,37.59817],[126.86507,37.59847],[126.86501,37.59891],[126.866,37.59991],[126.867,37.59961]]]]}},{"type":"Feature","properties":{"id":"egitim-lab-40","kind":"district-label","btype":"egitim","name":"Korea Aerospace University"},"geometry":{"type":"Point","coordinates":[126.8653,37.60015]}},{"type":"Feature","properties":{"id":"egitim-42","kind":"district","btype":"egitim","name":"Soongsil University","lab":1},"geometry":{"type":"MultiPolygon","coordinates":[[[[126.95359,37.49668],[126.95525,37.49711],[126.9554,37.49791],[126.95708,37.49786],[126.95895,37.49724],[126.95886,37.4968],[126.96108,37.49515],[126.96047,37.49487],[126.95438,37.49579],[126.95359,37.49668]]]]}},{"type":"Feature","properties":{"id":"egitim-lab-42","kind":"district-label","btype":"egitim","name":"Soongsil University"},"geometry":{"type":"Point","coordinates":[126.95722,37.49636]}},{"type":"Feature","properties":{"id":"egitim-43","kind":"district","btype":"egitim","name":"ShinHan Univ.","lab":1},"geometry":{"type":"MultiPolygon","coordinates":[[[[127.04707,37.71045],[127.04582,37.71098],[127.04463,37.71091],[127.04368,37.71029],[127.04283,37.71047],[127.04232,37.71022],[127.04235,37.71055],[127.04199,37.71057],[127.0412,37.71026],[127.04112,37.70965],[127.0425,37.70855],[127.04333,37.70867],[127.04391,37.70831],[127.04326,37.70741],[127.04414,37.70712],[127.04391,37.70802],[127.04415,37.70826],[127.04728,37.70897],[127.04707,37.71045]]]]}},{"type":"Feature","properties":{"id":"egitim-lab-43","kind":"district-label","btype":"egitim","name":"ShinHan Univ."},"geometry":{"type":"Point","coordinates":[127.04437,37.70955]}},{"type":"Feature","properties":{"id":"egitim-44","kind":"district","btype":"egitim","name":"Sangmyung University","lab":1},"geometry":{"type":"MultiPolygon","coordinates":[[[[126.95757,37.60333],[126.95607,37.60172],[126.9551,37.60178],[126.95581,37.60142],[126.95505,37.60128],[126.95449,37.6006],[126.95354,37.60081],[126.95313,37.60153],[126.9531,37.60294],[126.95348,37.60419],[126.95716,37.60441],[126.95757,37.60333]]]]}},{"type":"Feature","properties":{"id":"egitim-lab-44","kind":"district-label","btype":"egitim","name":"Sangmyung University"},"geometry":{"type":"Point","coordinates":[126.95503,37.60279]}},{"type":"Feature","properties":{"id":"egitim-45","kind":"district","btype":"egitim","name":"Sejong University","lab":1},"geometry":{"type":"MultiPolygon","coordinates":[[[[127.07246,37.55289],[127.0724,37.55237],[127.07307,37.55196],[127.07334,37.55107],[127.07272,37.55039],[127.07339,37.54972],[127.07317,37.54957],[127.07328,37.54834],[127.07299,37.548],[127.07367,37.54798],[127.07369,37.54834],[127.07461,37.54825],[127.07612,37.5511],[127.0748,37.55201],[127.07487,37.55252],[127.07388,37.55363],[127.07246,37.55289]]]]}},{"type":"Feature","properties":{"id":"egitim-lab-45","kind":"district-label","btype":"egitim","name":"Sejong University"},"geometry":{"type":"Point","coordinates":[127.07413,37.55083]}},{"type":"Feature","properties":{"id":"egitim-46","kind":"district","btype":"egitim","name":"Korea National Sport University","lab":1},"geometry":{"type":"MultiPolygon","coordinates":[[[[127.13248,37.5217],[127.13169,37.52097],[127.12892,37.52058],[127.12988,37.51797],[127.13134,37.5173],[127.13161,37.51768],[127.13335,37.52079],[127.13316,37.52136],[127.13248,37.5217]]]]}},{"type":"Feature","properties":{"id":"egitim-lab-46","kind":"district-label","btype":"egitim","name":"Korea National Sport University"},"geometry":{"type":"Point","coordinates":[127.13116,37.5196]}},{"type":"Feature","properties":{"id":"egitim-54","kind":"district","btype":"egitim","name":"중부대학교 고양캠퍼스","lab":1},"geometry":{"type":"MultiPolygon","coordinates":[[[[126.88878,37.71278],[126.88772,37.71392],[126.88955,37.71424],[126.89043,37.71489],[126.89178,37.71412],[126.89281,37.71296],[126.89237,37.71254],[126.89251,37.71212],[126.89186,37.71247],[126.88887,37.71157],[126.88914,37.71203],[126.88868,37.7122],[126.88878,37.71278]]]]}},{"type":"Feature","properties":{"id":"egitim-lab-54","kind":"district-label","btype":"egitim","name":"중부대학교 고양캠퍼스"},"geometry":{"type":"Point","coordinates":[126.89032,37.71324]}},{"type":"Feature","properties":{"id":"egitim-55","kind":"district","btype":"egitim","name":"Hongik University Seoul Campus","lab":1},"geometry":{"type":"MultiPolygon","coordinates":[[[[126.92568,37.54875],[126.9254,37.54927],[126.92426,37.54927],[126.92403,37.55251],[126.92445,37.55286],[126.9252,37.55296],[126.92751,37.5516],[126.9263,37.5499],[126.92653,37.54903],[126.92598,37.54878],[126.926,37.54779],[126.92551,37.5478],[126.92568,37.54875]]]]}},{"type":"Feature","properties":{"id":"egitim-lab-55","kind":"district-label","btype":"egitim","name":"Hongik University Seoul Campus"},"geometry":{"type":"Point","coordinates":[126.92548,37.55087]}},{"type":"Feature","properties":{"id":"egitim-56","kind":"district","btype":"egitim","name":"The Catholic University of Korea Songsin Campus","lab":1},"geometry":{"type":"MultiPolygon","coordinates":[[[[127.00309,37.58653],[127.00298,37.5853],[127.0045,37.58452],[127.00408,37.58393],[127.00585,37.58528],[127.00568,37.58448],[127.00616,37.58404],[127.00642,37.58312],[127.00737,37.58322],[127.00685,37.58464],[127.00701,37.58531],[127.00655,37.58551],[127.0066,37.58604],[127.00587,37.58695],[127.00424,37.58714],[127.00406,37.58749],[127.00309,37.58653]]]]}},{"type":"Feature","properties":{"id":"egitim-lab-56","kind":"district-label","btype":"egitim","name":"The Catholic University of Korea Songsin Campus"},"geometry":{"type":"Point","coordinates":[127.00512,37.58553]}},{"type":"Feature","properties":{"id":"egitim-57","kind":"district","btype":"egitim","name":"Incheon Campus of Korea Polytechnic","lab":1},"geometry":{"type":"MultiPolygon","coordinates":[[[[126.75259,37.47742],[126.7543,37.47706],[126.75432,37.47662],[126.75547,37.47659],[126.75656,37.47951],[126.75598,37.4798],[126.75576,37.48073],[126.75521,37.48091],[126.75259,37.47742]]]]}},{"type":"Feature","properties":{"id":"egitim-lab-57","kind":"district-label","btype":"egitim","name":"Incheon Campus of Korea Polytechnic"},"geometry":{"type":"Point","coordinates":[126.75484,37.47852]}},{"type":"Feature","properties":{"id":"egitim-58","kind":"district","btype":"egitim","name":"Seoul National University of Education","lab":1},"geometry":{"type":"MultiPolygon","coordinates":[[[[127.01432,37.49119],[127.01686,37.49151],[127.01806,37.49103],[127.01875,37.48975],[127.01479,37.48854],[127.01432,37.49119]]]]}},{"type":"Feature","properties":{"id":"egitim-lab-58","kind":"district-label","btype":"egitim","name":"Seoul National University of Education"},"geometry":{"type":"Point","coordinates":[127.01629,37.49018]}},{"type":"Feature","properties":{"id":"egitim-59","kind":"district","btype":"egitim","name":"Hankuk University of Foreign Studies Seoul Campus","lab":1},"geometry":{"type":"MultiPolygon","coordinates":[[[[127.05787,37.59857],[127.06075,37.59756],[127.06051,37.597],[127.06086,37.59686],[127.06068,37.59659],[127.06035,37.59673],[127.05948,37.59547],[127.05835,37.59564],[127.05829,37.59601],[127.05707,37.5959],[127.05694,37.59812],[127.05787,37.59857]]]]}},{"type":"Feature","properties":{"id":"egitim-lab-59","kind":"district-label","btype":"egitim","name":"Hankuk University of Foreign Studies Seoul Campus"},"geometry":{"type":"Point","coordinates":[127.05865,37.59703]}},{"type":"Feature","properties":{"id":"egitim-60","kind":"district","btype":"egitim","name":"Daelim University College","lab":1},"geometry":{"type":"MultiPolygon","coordinates":[[[[126.92825,37.40187],[126.92801,37.40211],[126.92823,37.4025],[126.93003,37.40484],[126.93094,37.40526],[126.93186,37.40493],[126.93193,37.40453],[126.93136,37.40405],[126.93252,37.40342],[126.93064,37.40189],[126.92825,37.40187]]]]}},{"type":"Feature","properties":{"id":"egitim-lab-60","kind":"district-label","btype":"egitim","name":"Daelim University College"},"geometry":{"type":"Point","coordinates":[126.93031,37.40333]}},{"type":"Feature","properties":{"id":"egitim-63","kind":"district","btype":"egitim","name":"Korea Advanced Institute of Science and Technology Seoul Campus","lab":1},"geometry":{"type":"MultiPolygon","coordinates":[[[[127.04509,37.59185],[127.04531,37.59309],[127.04583,37.59355],[127.04579,37.59548],[127.04663,37.59584],[127.04719,37.59561],[127.0481,37.59167],[127.04509,37.59185]]]]}},{"type":"Feature","properties":{"id":"egitim-lab-63","kind":"district-label","btype":"egitim","name":"Korea Advanced Institute of Science and Technology Seoul Campus"},"geometry":{"type":"Point","coordinates":[127.04662,37.59344]}},{"type":"Feature","properties":{"id":"egitim-64","kind":"district","btype":"egitim","name":"연세대학교 삼애캠퍼스","lab":1},"geometry":{"type":"MultiPolygon","coordinates":[[[[126.78222,37.68708],[126.78297,37.68648],[126.78273,37.68579],[126.78333,37.68559],[126.78624,37.68652],[126.78581,37.68878],[126.78506,37.68872],[126.78222,37.68708]]]]}},{"type":"Feature","properties":{"id":"egitim-lab-64","kind":"district-label","btype":"egitim","name":"연세대학교 삼애캠퍼스"},"geometry":{"type":"Point","coordinates":[126.78444,37.68712]}},{"type":"Feature","properties":{"id":"egitim-65","kind":"district","btype":"egitim","name":"Induk University","lab":1},"geometry":{"type":"MultiPolygon","coordinates":[[[[127.05505,37.62918],[127.05637,37.63099],[127.05519,37.6314],[127.05637,37.63294],[127.05502,37.63332],[127.0537,37.63263],[127.05356,37.63214],[127.05301,37.63177],[127.05505,37.62918]]]]}},{"type":"Feature","properties":{"id":"egitim-lab-65","kind":"district-label","btype":"egitim","name":"Induk University"},"geometry":{"type":"Point","coordinates":[127.0548,37.63148]}},{"type":"Feature","properties":{"id":"egitim-69","kind":"district","btype":"egitim","name":"동국대학교 바이오메디융합캠퍼스","lab":1},"geometry":{"type":"MultiPolygon","coordinates":[[[[126.80834,37.67721],[126.80743,37.67767],[126.80791,37.67849],[126.80752,37.67882],[126.80799,37.6794],[126.80786,37.67971],[126.80674,37.68029],[126.80464,37.67891],[126.80493,37.67839],[126.80626,37.67773],[126.80586,37.67732],[126.80735,37.67701],[126.80834,37.67721]]]]}},{"type":"Feature","properties":{"id":"egitim-lab-69","kind":"district-label","btype":"egitim","name":"동국대학교 바이오메디융합캠퍼스"},"geometry":{"type":"Point","coordinates":[126.80659,37.67863]}},{"type":"Feature","properties":{"id":"egitim-72","kind":"district","btype":"egitim","name":"부천대학교 소사캠퍼스","lab":1},"geometry":{"type":"MultiPolygon","coordinates":[[[[126.80373,37.46401],[126.80036,37.46405],[126.80048,37.46381],[126.80134,37.46385],[126.80193,37.46312],[126.80291,37.46284],[126.80599,37.46309],[126.80644,37.46341],[126.80695,37.46467],[126.80747,37.46472],[126.80745,37.46599],[126.80608,37.46607],[126.80612,37.46352],[126.80572,37.46331],[126.8045,37.46329],[126.8045,37.46359],[126.80373,37.46401]]]]}},{"type":"Feature","properties":{"id":"egitim-lab-72","kind":"district-label","btype":"egitim","name":"부천대학교 소사캠퍼스"},"geometry":{"type":"Point","coordinates":[126.80464,37.4641]}},{"type":"Feature","properties":{"id":"egitim-73","kind":"district","btype":"egitim","name":"Hansung University","lab":1},"geometry":{"type":"MultiPolygon","coordinates":[[[[127.00841,37.5828],[127.00987,37.58081],[127.01028,37.58078],[127.01129,37.58155],[127.0122,37.5816],[127.01228,37.58246],[127.01116,37.58236],[127.01114,37.58314],[127.0098,37.5832],[127.0097,37.58363],[127.00873,37.58365],[127.00841,37.5828]]]]}},{"type":"Feature","properties":{"id":"egitim-lab-73","kind":"district-label","btype":"egitim","name":"Hansung University"},"geometry":{"type":"Point","coordinates":[127.01018,37.58227]}},{"type":"Feature","properties":{"id":"egitim-76","kind":"district","btype":"egitim","name":"Korea National Open University","lab":1},"geometry":{"type":"MultiPolygon","coordinates":[[[[127.00256,37.57686],[127.0024,37.57958],[127.00445,37.57995],[127.00453,37.57707],[127.00256,37.57686]]]]}},{"type":"Feature","properties":{"id":"egitim-lab-76","kind":"district-label","btype":"egitim","name":"Korea National Open University"},"geometry":{"type":"Point","coordinates":[127.00349,37.57838]}},{"type":"Feature","properties":{"id":"egitim-77","kind":"district","btype":"egitim","name":"Myongji University Social Science Campus","lab":1},"geometry":{"type":"MultiPolygon","coordinates":[[[[126.921,37.58023],[126.92256,37.57862],[126.92499,37.5803],[126.92481,37.58117],[126.9229,37.58117],[126.92246,37.58059],[126.921,37.58023]]]]}},{"type":"Feature","properties":{"id":"egitim-lab-77","kind":"district-label","btype":"egitim","name":"Myongji University Social Science Campus"},"geometry":{"type":"Point","coordinates":[126.92314,37.58011]}},{"type":"Feature","properties":{"id":"egitim-78","kind":"district","btype":"egitim","name":"Seokyeong University","lab":1},"geometry":{"type":"MultiPolygon","coordinates":[[[[127.01107,37.61634],[127.01136,37.61482],[127.01279,37.61344],[127.0138,37.61408],[127.01438,37.61486],[127.01392,37.61557],[127.01148,37.61639],[127.01107,37.61634]]]]}},{"type":"Feature","properties":{"id":"egitim-lab-78","kind":"district-label","btype":"egitim","name":"Seokyeong University"},"geometry":{"type":"Point","coordinates":[127.01266,37.61501]}},{"type":"Feature","properties":{"id":"egitim-80","kind":"district","btype":"egitim","name":"Sungshin Women's University","lab":1},"geometry":{"type":"MultiPolygon","coordinates":[[[[127.02119,37.59332],[127.0209,37.59058],[127.02159,37.59049],[127.02221,37.59093],[127.02229,37.58968],[127.02398,37.59035],[127.0232,37.59177],[127.02119,37.59332]]]]}},{"type":"Feature","properties":{"id":"egitim-lab-80","kind":"district-label","btype":"egitim","name":"Sungshin Women's University"},"geometry":{"type":"Point","coordinates":[127.02224,37.59133]}},{"type":"Feature","properties":{"id":"egitim-81","kind":"district","btype":"egitim","name":"을지대학교 성남캠퍼스","lab":1},"geometry":{"type":"MultiPolygon","coordinates":[[[[127.16544,37.46202],[127.16352,37.45979],[127.16491,37.45903],[127.16679,37.46104],[127.16654,37.46128],[127.16778,37.46178],[127.16706,37.46238],[127.16614,37.46148],[127.16544,37.46202]]]]}},{"type":"Feature","properties":{"id":"egitim-lab-81","kind":"district-label","btype":"egitim","name":"을지대학교 성남캠퍼스"},"geometry":{"type":"Point","coordinates":[127.16544,37.46069]}},{"type":"Feature","properties":{"id":"egitim-82","kind":"district","btype":"egitim","name":"Dongduk Women's University","lab":1},"geometry":{"type":"MultiPolygon","coordinates":[[[[127.04293,37.60592],[127.04063,37.60516],[127.04057,37.60561],[127.04029,37.60568],[127.04045,37.60599],[127.0409,37.60598],[127.04089,37.60664],[127.04123,37.60703],[127.04187,37.60752],[127.04418,37.6077],[127.04445,37.60645],[127.0438,37.60642],[127.04374,37.60695],[127.04295,37.60683],[127.04293,37.60592]]]]}},{"type":"Feature","properties":{"id":"egitim-lab-82","kind":"district-label","btype":"egitim","name":"Dongduk Women's University"},"geometry":{"type":"Point","coordinates":[127.0423,37.60659]}},{"type":"Feature","properties":{"id":"egitim-88","kind":"district","btype":"egitim","name":"Chongshin University","lab":1},"geometry":{"type":"MultiPolygon","coordinates":[[[[126.96853,37.48797],[126.96942,37.4886],[126.96864,37.48957],[126.96751,37.48968],[126.96664,37.49027],[126.96583,37.4899],[126.96677,37.48776],[126.96743,37.48882],[126.96853,37.48797]]]]}},{"type":"Feature","properties":{"id":"egitim-lab-88","kind":"district-label","btype":"egitim","name":"Chongshin University"},"geometry":{"type":"Point","coordinates":[126.9675,37.48907]}},{"type":"Feature","properties":{"id":"egitim-90","kind":"district","btype":"egitim","name":"Kwangwoon University","lab":1},"geometry":{"type":"MultiPolygon","coordinates":[[[[127.05913,37.62088],[127.06107,37.62036],[127.06144,37.61888],[127.06021,37.61908],[127.05871,37.61847],[127.05806,37.61934],[127.05913,37.62088]]]]}},{"type":"Feature","properties":{"id":"egitim-lab-90","kind":"district-label","btype":"egitim","name":"Kwangwoon University"},"geometry":{"type":"Point","coordinates":[127.05972,37.61967]}},{"type":"Feature","properties":{"id":"egitim-91","kind":"district","btype":"egitim","name":"경인여자대학교SG캠퍼스(예정)","lab":1},"geometry":{"type":"MultiPolygon","coordinates":[[[[126.72162,37.54756],[126.71898,37.54681],[126.7189,37.54698],[126.71953,37.54742],[126.71938,37.54851],[126.72011,37.54916],[126.72088,37.54909],[126.72117,37.5495],[126.72175,37.54962],[126.72196,37.54874],[126.72147,37.54861],[126.72162,37.54756]]]]}},{"type":"Feature","properties":{"id":"egitim-lab-91","kind":"district-label","btype":"egitim","name":"경인여자대학교SG캠퍼스(예정)"},"geometry":{"type":"Point","coordinates":[126.72055,37.54822]}},{"type":"Feature","properties":{"id":"egitim-92","kind":"district","btype":"egitim","name":"Sookmyung Women's University","lab":1},"geometry":{"type":"MultiPolygon","coordinates":[[[[126.96349,37.54519],[126.9634,37.54643],[126.96417,37.54689],[126.96498,37.54688],[126.96502,37.54717],[126.96596,37.5471],[126.96581,37.54643],[126.96667,37.54569],[126.96531,37.54565],[126.96554,37.5452],[126.96349,37.54519]]]]}},{"type":"Feature","properties":{"id":"egitim-lab-92","kind":"district-label","btype":"egitim","name":"Sookmyung Women's University"},"geometry":{"type":"Point","coordinates":[126.96479,37.54609]}},{"type":"Feature","properties":{"id":"egitim-94","kind":"district","btype":"egitim","name":"Bucheon University","lab":1},"geometry":{"type":"MultiPolygon","coordinates":[[[[126.77797,37.49076],[126.77747,37.48884],[126.77955,37.4885],[126.78013,37.49044],[126.77797,37.49076]]]]}},{"type":"Feature","properties":{"id":"egitim-lab-94","kind":"district-label","btype":"egitim","name":"Bucheon University"},"geometry":{"type":"Point","coordinates":[126.77879,37.48964]}},{"type":"Feature","properties":{"id":"egitim-95","kind":"district","btype":"egitim","name":"Korea Polytechnics College","lab":1},"geometry":{"type":"MultiPolygon","coordinates":[[[[127.15272,37.45756],[127.15373,37.45836],[127.15516,37.45878],[127.15524,37.46068],[127.15474,37.46072],[127.15392,37.45946],[127.15238,37.45889],[127.15181,37.45823],[127.15272,37.45756]]]]}},{"type":"Feature","properties":{"id":"egitim-lab-95","kind":"district-label","btype":"egitim","name":"Korea Polytechnics College"},"geometry":{"type":"Point","coordinates":[127.1538,37.45901]}},{"type":"Feature","properties":{"id":"egitim-96","kind":"district","btype":"egitim","name":"Baewha women's university","lab":1},"geometry":{"type":"MultiPolygon","coordinates":[[[[126.96558,37.57805],[126.96723,37.57819],[126.96769,37.57781],[126.96845,37.57814],[126.96807,37.57826],[126.96824,37.57905],[126.96742,37.5789],[126.9674,37.57967],[126.9663,37.5793],[126.96483,37.57948],[126.96494,37.57864],[126.96558,37.57805]]]]}},{"type":"Feature","properties":{"id":"egitim-lab-96","kind":"district-label","btype":"egitim","name":"Baewha women's university"},"geometry":{"type":"Point","coordinates":[126.96655,37.57873]}},{"type":"Feature","properties":{"id":"egitim-98","kind":"district","btype":"egitim","name":"Hanyang Women's University","lab":1},"geometry":{"type":"MultiPolygon","coordinates":[[[[127.04835,37.55708],[127.05084,37.55807],[127.05033,37.55933],[127.04924,37.55929],[127.04927,37.55989],[127.04837,37.5589],[127.04873,37.55815],[127.04794,37.55786],[127.04835,37.55708]]]]}},{"type":"Feature","properties":{"id":"egitim-lab-98","kind":"district-label","btype":"egitim","name":"Hanyang Women's University"},"geometry":{"type":"Point","coordinates":[127.04938,37.55837]}},{"type":"Feature","properties":{"id":"egitim-99","kind":"district","btype":"egitim","name":"Methodist Theological University","lab":1},"geometry":{"type":"MultiPolygon","coordinates":[[[[126.96195,37.5683],[126.96073,37.56785],[126.96056,37.56678],[126.96221,37.56663],[126.96408,37.56707],[126.96352,37.56774],[126.96195,37.5683]]]]}},{"type":"Feature","properties":{"id":"egitim-lab-99","kind":"district-label","btype":"egitim","name":"Methodist Theological University"},"geometry":{"type":"Point","coordinates":[126.96213,37.56738]}},{"type":"Feature","properties":{"id":"egitim-100","kind":"district","btype":"egitim","name":"Korea Defense Researchers","lab":1},"geometry":{"type":"MultiPolygon","coordinates":[[[[127.04064,37.59375],[127.04141,37.59375],[127.04175,37.59275],[127.04173,37.59138],[127.03947,37.59136],[127.04064,37.59375]]]]}},{"type":"Feature","properties":{"id":"egitim-lab-100","kind":"district-label","btype":"egitim","name":"Korea Defense Researchers"},"geometry":{"type":"Point","coordinates":[127.04083,37.59238]}},{"type":"Feature","properties":{"id":"egitim-103","kind":"district","btype":"egitim","name":"Hanshin University","lab":1},"geometry":{"type":"MultiPolygon","coordinates":[[[[127.01337,37.63389],[127.01106,37.63372],[127.01084,37.6338],[127.01101,37.63432],[127.01046,37.6348],[127.0107,37.63511],[127.01313,37.63523],[127.01337,37.63389]]]]}},{"type":"Feature","properties":{"id":"egitim-lab-103","kind":"district-label","btype":"egitim","name":"Hanshin University"},"geometry":{"type":"Point","coordinates":[127.01201,37.6345]}},{"type":"Feature","properties":{"id":"egitim-104","kind":"district","btype":"egitim","name":"한국폴리텍1대학 서울강서캠퍼스","lab":1},"geometry":{"type":"MultiPolygon","coordinates":[[[[126.84019,37.55002],[126.84067,37.54943],[126.8415,37.54912],[126.84369,37.54916],[126.84447,37.54994],[126.84265,37.54993],[126.8425,37.55019],[126.84019,37.55002]]]]}},{"type":"Feature","properties":{"id":"egitim-lab-104","kind":"district-label","btype":"egitim","name":"한국폴리텍1대학 서울강서캠퍼스"},"geometry":{"type":"Point","coordinates":[126.84226,37.54963]}},{"type":"Feature","properties":{"id":"egitim-105","kind":"district","btype":"egitim","name":"Yuhan University","lab":1},"geometry":{"type":"MultiPolygon","coordinates":[[[[126.81978,37.48757],[126.82085,37.48603],[126.82242,37.48685],[126.82172,37.4882],[126.81978,37.48757]]]]}},{"type":"Feature","properties":{"id":"egitim-lab-105","kind":"district-label","btype":"egitim","name":"Yuhan University"},"geometry":{"type":"Point","coordinates":[126.82116,37.48717]}},{"type":"Feature","properties":{"id":"egitim-106","kind":"district","btype":"egitim","name":"성공회대학교","lab":1},"geometry":{"type":"MultiPolygon","coordinates":[[[[126.8244,37.48791],[126.82554,37.48637],[126.8268,37.48671],[126.82697,37.48705],[126.82609,37.48818],[126.8255,37.48843],[126.8247,37.4884],[126.8244,37.48791]]]]}},{"type":"Feature","properties":{"id":"egitim-lab-106","kind":"district-label","btype":"egitim","name":"성공회대학교"},"geometry":{"type":"Point","coordinates":[126.82567,37.48745]}}]}