{"type":"FeatureCollection","features":[{"type":"Feature","properties":{"id":"turistik-0","kind":"district","btype":"turistik","name":"Jongno · Bukchon","lab":1},"geometry":{"type":"MultiPolygon","coordinates":[[[[126.96116,37.5788],[126.96364,37.57878],[126.96531,37.57826],[126.9667,37.57884],[126.96941,37.57807],[126.96999,37.5793],[126.97179,37.5781],[126.97133,37.57955],[126.9739,37.57932],[126.9742,37.57595],[126.97962,37.57604],[126.97967,37.57879],[126.98048,37.58243],[126.97922,37.58343],[126.97907,37.58485],[126.97961,37.58549],[126.97918,37.58712],[126.97704,37.58858],[126.97637,37.58969],[126.97556,37.58968],[126.97368,37.59347],[126.97518,37.59499],[126.97504,37.59589],[126.97663,37.5981],[126.98288,37.59478],[126.98538,37.59449],[126.98668,37.5926],[126.98905,37.59136],[126.98902,37.58957],[126.98802,37.58891],[126.98765,37.58724],[126.98924,37.58759],[126.99048,37.58707],[126.9935,37.58727],[126.99407,37.58558],[126.99626,37.58283],[126.99741,37.58278],[126.99775,37.58215],[126.99632,37.5806],[126.99717,37.57694],[126.99773,37.57707],[126.99806,37.57657],[126.99881,37.57697],[126.9996,37.57603],[126.99795,37.57402],[127.00148,37.5695],[126.98866,37.56811],[126.98265,37.56906],[126.97327,37.56936],[126.97267,37.5692],[126.97256,37.56847],[126.97107,37.56877],[126.9693,37.56807],[126.96795,37.56921],[126.96598,37.56997],[126.96618,37.57121],[126.96546,37.57279],[126.96431,37.57314],[126.96356,37.57405],[126.96311,37.57715],[126.96116,37.5788]]]]}},{"type":"Feature","properties":{"id":"turistik-lab-0","kind":"district-label","btype":"turistik","name":"Jongno · Bukchon"},"geometry":{"type":"Point","coordinates":[126.9832,37.57921]}},{"type":"Feature","properties":{"id":"turistik-1","kind":"district","btype":"turistik","name":"Myeongdong","lab":1},"geometry":{"type":"MultiPolygon","coordinates":[[[[126.98844,37.56027],[126.98694,37.55746],[126.98502,37.55651],[126.98498,37.55586],[126.9847,37.55614],[126.98536,37.55373],[126.98402,37.55306],[126.98309,37.55604],[126.98304,37.55834],[126.98123,37.56183],[126.97589,37.56039],[126.97602,37.55994],[126.97543,37.55934],[126.97335,37.56003],[126.9709,37.55936],[126.96998,37.56208],[126.96814,37.56154],[126.96947,37.56197],[126.96671,37.5658],[126.96904,37.5682],[126.97122,37.56878],[126.97256,37.56847],[126.97304,37.56933],[126.97637,37.56948],[126.98265,37.56906],[126.98675,37.56823],[126.99092,37.5682],[126.99088,37.56683],[126.98971,37.56677],[126.98984,37.56552],[126.98851,37.56522],[126.98879,37.56333],[126.99031,37.56295],[126.99054,37.56119],[126.98774,37.56106],[126.98844,37.56027]]]]}},{"type":"Feature","properties":{"id":"turistik-lab-1","kind":"district-label","btype":"turistik","name":"Myeongdong"},"geometry":{"type":"Point","coordinates":[126.9795,37.56398]}},{"type":"Feature","properties":{"id":"turistik-2","kind":"district","btype":"turistik","name":"Hongdae","lab":1},"geometry":{"type":"MultiPolygon","coordinates":[[[[126.9089,37.55745],[126.91284,37.55841],[126.91537,37.55829],[126.91539,37.55794],[126.91538,37.55829],[126.91707,37.55862],[126.91788,37.55949],[126.91809,37.56129],[126.91762,37.56125],[126.91803,37.56153],[126.91643,37.56674],[126.91679,37.56786],[126.92602,37.56515],[126.92828,37.56338],[126.92677,37.56111],[126.92659,37.55885],[126.93686,37.5551],[126.93394,37.55345],[126.93209,37.5547],[126.93043,37.55471],[126.92857,37.55358],[126.92537,37.55319],[126.92419,37.55262],[126.9242,37.55093],[126.92191,37.54912],[126.92022,37.54833],[126.91874,37.54842],[126.91508,37.54918],[126.91436,37.54979],[126.91462,37.55058],[126.91362,37.54962],[126.91324,37.54994],[126.91264,37.5519],[126.91297,37.55196],[126.91238,37.55188],[126.91166,37.55425],[126.9089,37.55745]]]]}},{"type":"Feature","properties":{"id":"turistik-lab-2","kind":"district-label","btype":"turistik","name":"Hongdae"},"geometry":{"type":"Point","coordinates":[126.92112,37.5571]}},{"type":"Feature","properties":{"id":"turistik-3","kind":"district","btype":"turistik","name":"Itaewon","lab":1},"geometry":{"type":"MultiPolygon","coordinates":[[[[126.9976,37.54107],[126.99486,37.53823],[126.99704,37.53515],[126.99704,37.5332],[126.99797,37.53291],[126.99665,37.53152],[126.99672,37.5305],[126.99573,37.5295],[126.99571,37.52874],[126.99369,37.52869],[126.99293,37.52962],[126.99205,37.52901],[126.98883,37.53327],[126.98713,37.53474],[126.98681,37.53854],[126.98848,37.5431],[126.98989,37.54465],[126.99041,37.54662],[126.99338,37.54875],[126.99522,37.54764],[126.99626,37.54456],[126.99782,37.54207],[126.9976,37.54107]]]]}},{"type":"Feature","properties":{"id":"turistik-lab-3","kind":"district-label","btype":"turistik","name":"Itaewon"},"geometry":{"type":"Point","coordinates":[126.99252,37.53836]}}]}