{"type":"FeatureCollection","features":[{"type":"Feature","properties":{"id":"ke-tarihi-0","kind":"poi","name":"Three Royal Tombs, Paju","theme":"tarihi","lab":1},"geometry":{"type":"Point","coordinates":[126.83403,37.74624]}},{"type":"Feature","properties":{"id":"ke-tarihi-1","kind":"poi","name":"Seoul Millennium Time Capsule","theme":"tarihi","lab":1},"geometry":{"type":"Point","coordinates":[126.99391,37.55729]}},{"type":"Feature","properties":{"id":"ke-tarihi-2","kind":"poi","name":"Seoul Korea Temple","theme":"tarihi","lab":1},"geometry":{"type":"Point","coordinates":[126.9313,37.55887]}},{"type":"Feature","properties":{"id":"ke-tarihi-3","kind":"poi","name":"Salgoji Bridge","theme":"tarihi","lab":1},"geometry":{"type":"Point","coordinates":[127.04633,37.55336]}},{"type":"Feature","properties":{"id":"ke-tarihi-4","kind":"poi","name":"Jangneung Royal Tomb, Paju","theme":"tarihi","lab":1},"geometry":{"type":"Point","coordinates":[126.70989,37.77244]}},{"type":"Feature","properties":{"id":"ke-tarihi-5","kind":"poi","name":"Gwangmyoeng cave","theme":"tarihi","lab":1},"geometry":{"type":"Point","coordinates":[126.86552,37.42681]}},{"type":"Feature","properties":{"id":"ke-tarihi-6","kind":"poi","name":"Amsa-dong Prehistoric Settlement Site","theme":"tarihi","lab":1},"geometry":{"type":"Point","coordinates":[127.13044,37.56125]}},{"type":"Feature","properties":{"id":"ke-tarihi-7","kind":"poi","name":"호암산성","theme":"tarihi","lab":1},"geometry":{"type":"Point","coordinates":[126.92314,37.44594]}},{"type":"Feature","properties":{"id":"ke-tarihi-8","kind":"poi","name":"최혼 선생 묘","theme":"tarihi","lab":1},"geometry":{"type":"Point","coordinates":[126.8527,37.29192]}},{"type":"Feature","properties":{"id":"ke-tarihi-9","kind":"poi","name":"최정걸장군묘","theme":"tarihi","lab":1},"geometry":{"type":"Point","coordinates":[126.85952,37.28858]}},{"type":"Feature","properties":{"id":"ke-tarihi-10","kind":"poi","name":"우등형 전기동차","theme":"tarihi","lab":1},"geometry":{"type":"Point","coordinates":[126.951,37.31335]}},{"type":"Feature","properties":{"id":"ke-tarihi-11","kind":"poi","name":"용흥궁","theme":"tarihi","lab":1},"geometry":{"type":"Point","coordinates":[126.48579,37.74789]}},{"type":"Feature","properties":{"id":"ke-tarihi-12","kind":"poi","name":"영신군이이묘","theme":"tarihi","lab":1},"geometry":{"type":"Point","coordinates":[126.7205,37.53421]}},{"type":"Feature","properties":{"id":"ke-tarihi-13","kind":"poi","name":"여의도순복음교회","theme":"tarihi","lab":1},"geometry":{"type":"Point","coordinates":[126.92331,37.53095]}},{"type":"Feature","properties":{"id":"ke-tarihi-14","kind":"poi","name":"선성군묘역","theme":"tarihi","lab":1},"geometry":{"type":"Point","coordinates":[127.1958,37.5376]}},{"type":"Feature","properties":{"id":"ke-tarihi-15","kind":"poi","name":"별망성지","theme":"tarihi","lab":1},"geometry":{"type":"Point","coordinates":[126.79783,37.29933]}},{"type":"Feature","properties":{"id":"ke-tarihi-16","kind":"poi","name":"박태준 박사 찬송비","theme":"tarihi","lab":1},"geometry":{"type":"Point","coordinates":[126.97486,37.55543]}},{"type":"Feature","properties":{"id":"ke-tarihi-17","kind":"poi","name":"모락산성","theme":"tarihi","lab":1},"geometry":{"type":"Point","coordinates":[126.97717,37.37166]}},{"type":"Feature","properties":{"id":"ke-tarihi-18","kind":"poi","name":"도선사","theme":"tarihi","lab":1},"geometry":{"type":"Point","coordinates":[126.98973,37.65517]}},{"type":"Feature","properties":{"id":"ke-tarihi-19","kind":"poi","name":"대통령특별동차","theme":"tarihi","lab":1},"geometry":{"type":"Point","coordinates":[126.95013,37.31425]}},{"type":"Feature","properties":{"id":"ke-tarihi-20","kind":"poi","name":"금란교회","theme":"tarihi","lab":1},"geometry":{"type":"Point","coordinates":[127.10277,37.6007]}},{"type":"Feature","properties":{"id":"ke-tarihi-21","kind":"poi","name":"국군중앙성당","theme":"tarihi","lab":1},"geometry":{"type":"Point","coordinates":[126.97168,37.52951]}},{"type":"Feature","properties":{"id":"ke-tarihi-22","kind":"poi","name":"광주 이씨 광릉부원군파 묘역","theme":"tarihi","lab":1},"geometry":{"type":"Point","coordinates":[127.14781,37.56459]}},{"type":"Feature","properties":{"id":"ke-tarihi-23","kind":"poi","name":"과천향교","theme":"tarihi","lab":1},"geometry":{"type":"Point","coordinates":[126.98739,37.43387]}},{"type":"Feature","properties":{"id":"ke-tarihi-24","kind":"poi","name":"가운동 지석묘","theme":"tarihi","lab":1},"geometry":{"type":"Point","coordinates":[127.17568,37.59756]}},{"type":"Feature","properties":{"id":"ke-tarihi-25","kind":"poi","name":"Yeonsangun Tomb","theme":"tarihi","lab":1},"geometry":{"type":"Point","coordinates":[127.02253,37.6615]}},{"type":"Feature","properties":{"id":"ke-tarihi-26","kind":"poi","name":"Yakhyeon Catholic Church","theme":"tarihi","lab":1},"geometry":{"type":"Point","coordinates":[126.96744,37.55901]}},{"type":"Feature","properties":{"id":"ke-tarihi-27","kind":"poi","name":"Wongaksa Pagoda","theme":"tarihi","lab":1},"geometry":{"type":"Point","coordinates":[126.98819,37.57157]}},{"type":"Feature","properties":{"id":"ke-tarihi-28","kind":"poi","name":"West Big Gate","theme":"tarihi","lab":1},"geometry":{"type":"Point","coordinates":[126.96921,37.56841]}},{"type":"Feature","properties":{"id":"ke-tarihi-29","kind":"poi","name":"Tomb of Queen Sindeok","theme":"tarihi","lab":1},"geometry":{"type":"Point","coordinates":[127.0056,37.60216]}},{"type":"Feature","properties":{"id":"ke-tarihi-30","kind":"poi","name":"Tomb of Jinsangun Lee Yu-Ryeong","theme":"tarihi","lab":1},"geometry":{"type":"Point","coordinates":[127.01874,37.40776]}},{"type":"Feature","properties":{"id":"ke-tarihi-31","kind":"poi","name":"The Korea Peace Bell","theme":"tarihi","lab":1},"geometry":{"type":"Point","coordinates":[126.97786,37.53502]}},{"type":"Feature","properties":{"id":"ke-tarihi-32","kind":"poi","name":"Taereung, The tomb of Queen Munjeong","theme":"tarihi","lab":1},"geometry":{"type":"Point","coordinates":[127.09687,37.63463]}},{"type":"Feature","properties":{"id":"ke-tarihi-33","kind":"poi","name":"Sunginwon","theme":"tarihi","lab":1},"geometry":{"type":"Point","coordinates":[127.044,37.58881]}},{"type":"Feature","properties":{"id":"ke-tarihi-34","kind":"poi","name":"Sukjeongmun Gate","theme":"tarihi","lab":1},"geometry":{"type":"Point","coordinates":[126.98108,37.59553]}},{"type":"Feature","properties":{"id":"ke-tarihi-35","kind":"poi","name":"Simgokseowon Confucian Academy","theme":"tarihi","lab":1},"geometry":{"type":"Point","coordinates":[127.07669,37.30576]}},{"type":"Feature","properties":{"id":"ke-tarihi-36","kind":"poi","name":"Seoul Central Mosque","theme":"tarihi","lab":1},"geometry":{"type":"Point","coordinates":[126.99752,37.53345]}},{"type":"Feature","properties":{"id":"ke-tarihi-37","kind":"poi","name":"Seollleung, the tomb of King Seongjong","theme":"tarihi","lab":1},"geometry":{"type":"Point","coordinates":[127.04554,37.50876]}},{"type":"Feature","properties":{"id":"ke-tarihi-38","kind":"poi","name":"Sareung Royal Tomb","theme":"tarihi","lab":1},"geometry":{"type":"Point","coordinates":[127.19738,37.64553]}},{"type":"Feature","properties":{"id":"ke-tarihi-39","kind":"poi","name":"Samjeondo Monument","theme":"tarihi","lab":1},"geometry":{"type":"Point","coordinates":[127.10166,37.51057]}},{"type":"Feature","properties":{"id":"ke-tarihi-40","kind":"poi","name":"Pungnaptoseong","theme":"tarihi","lab":1},"geometry":{"type":"Point","coordinates":[127.12129,37.53883]}},{"type":"Feature","properties":{"id":"ke-tarihi-41","kind":"poi","name":"Namhansanseong Fortress","theme":"tarihi","lab":1},"geometry":{"type":"Point","coordinates":[127.18016,37.47914]}},{"type":"Feature","properties":{"id":"ke-tarihi-42","kind":"poi","name":"Mongchontoseong Earthen Fortification","theme":"tarihi","lab":1},"geometry":{"type":"Point","coordinates":[127.11871,37.52274]}},{"type":"Feature","properties":{"id":"ke-tarihi-43","kind":"poi","name":"Joseon White Porcelain Kiln Site","theme":"tarihi","lab":1},"geometry":{"type":"Point","coordinates":[126.92845,37.37496]}},{"type":"Feature","properties":{"id":"ke-tarihi-44","kind":"poi","name":"Jingwan Temple","theme":"tarihi","lab":1},"geometry":{"type":"Point","coordinates":[126.9461,37.63821]}},{"type":"Feature","properties":{"id":"ke-tarihi-45","kind":"poi","name":"Jeongneung, The tomb of King Jungjong","theme":"tarihi","lab":1},"geometry":{"type":"Point","coordinates":[127.05191,37.50888]}},{"type":"Feature","properties":{"id":"ke-tarihi-46","kind":"poi","name":"Jeoldusan Martyrs' Shrine","theme":"tarihi","lab":1},"geometry":{"type":"Point","coordinates":[126.91237,37.54446]}},{"type":"Feature","properties":{"id":"ke-tarihi-47","kind":"poi","name":"Jangneung","theme":"tarihi","lab":1},"geometry":{"type":"Point","coordinates":[126.71115,37.61299]}},{"type":"Feature","properties":{"id":"ke-tarihi-48","kind":"poi","name":"Illeung, The tomb of King Sunjo and Queen Sunwon","theme":"tarihi","lab":1},"geometry":{"type":"Point","coordinates":[127.08058,37.466]}},{"type":"Feature","properties":{"id":"ke-tarihi-49","kind":"poi","name":"Ihwajang","theme":"tarihi","lab":1},"geometry":{"type":"Point","coordinates":[127.00638,37.57822]}},{"type":"Feature","properties":{"id":"ke-tarihi-50","kind":"poi","name":"Hongyureung","theme":"tarihi","lab":1},"geometry":{"type":"Point","coordinates":[127.21061,37.63079]}},{"type":"Feature","properties":{"id":"ke-tarihi-51","kind":"poi","name":"Hongjimun Gate and Tanchungdaesong Fortress","theme":"tarihi","lab":1},"geometry":{"type":"Point","coordinates":[126.95658,37.59878]}},{"type":"Feature","properties":{"id":"ke-tarihi-52","kind":"poi","name":"Hong Jong Moon's Residence in Chaebu-dong","theme":"tarihi","lab":1},"geometry":{"type":"Point","coordinates":[126.97033,37.57738]}},{"type":"Feature","properties":{"id":"ke-tarihi-53","kind":"poi","name":"Heunginjimun Gate","theme":"tarihi","lab":1},"geometry":{"type":"Point","coordinates":[127.00973,37.57111]}},{"type":"Feature","properties":{"id":"ke-tarihi-54","kind":"poi","name":"Heonilleung","theme":"tarihi","lab":1},"geometry":{"type":"Point","coordinates":[127.08207,37.46559]}},{"type":"Feature","properties":{"id":"ke-tarihi-55","kind":"poi","name":"HSR-350X","theme":"tarihi","lab":1},"geometry":{"type":"Point","coordinates":[126.95081,37.30942]}},{"type":"Feature","properties":{"id":"ke-tarihi-56","kind":"poi","name":"Gwangju hyanggyo","theme":"tarihi","lab":1},"geometry":{"type":"Point","coordinates":[127.19838,37.52182]}},{"type":"Feature","properties":{"id":"ke-tarihi-57","kind":"poi","name":"Graveyard for Lady Changbin An","theme":"tarihi","lab":1},"geometry":{"type":"Point","coordinates":[126.97033,37.49691]}},{"type":"Feature","properties":{"id":"ke-tarihi-58","kind":"poi","name":"Gogang dong Church","theme":"tarihi","lab":1},"geometry":{"type":"Point","coordinates":[126.81257,37.52719]}},{"type":"Feature","properties":{"id":"ke-tarihi-59","kind":"poi","name":"Geunjeongjeon Hall","theme":"tarihi","lab":1},"geometry":{"type":"Point","coordinates":[126.97699,37.57855]}},{"type":"Feature","properties":{"id":"ke-tarihi-60","kind":"poi","name":"Gangneung, The tomb of King Myeongjong {Joseon)","theme":"tarihi","lab":1},"geometry":{"type":"Point","coordinates":[127.10521,37.64003]}},{"type":"Feature","properties":{"id":"ke-tarihi-61","kind":"poi","name":"Gaeunsa","theme":"tarihi","lab":1},"geometry":{"type":"Point","coordinates":[127.02845,37.58964]}},{"type":"Feature","properties":{"id":"ke-tarihi-62","kind":"poi","name":"Dongmyo Shrine","theme":"tarihi","lab":1},"geometry":{"type":"Point","coordinates":[127.0183,37.57301]}},{"type":"Feature","properties":{"id":"ke-tarihi-63","kind":"poi","name":"Choi Sunu House","theme":"tarihi","lab":1},"geometry":{"type":"Point","coordinates":[127.00042,37.59299]}},{"type":"Feature","properties":{"id":"ke-tarihi-64","kind":"poi","name":"Changuimun Gate","theme":"tarihi","lab":1},"geometry":{"type":"Point","coordinates":[126.96652,37.59261]}},{"type":"Feature","properties":{"id":"ke-tarihi-65","kind":"poi","name":"Changgyeonggung (Palace)","theme":"tarihi","lab":1},"geometry":{"type":"Point","coordinates":[126.99502,37.58062]}},{"type":"Feature","properties":{"id":"ke-tarihi-66","kind":"poi","name":"Bukchon Hanok Village","theme":"tarihi","lab":1},"geometry":{"type":"Point","coordinates":[126.98586,37.58239]}},{"type":"Feature","properties":{"id":"ke-tarihi-67","kind":"poi","name":"Bosingak Bell Pavilion","theme":"tarihi","lab":1},"geometry":{"type":"Point","coordinates":[126.98239,37.52307]}},{"type":"Feature","properties":{"id":"ke-tarihi-68","kind":"poi","name":"Bongeunsa Temple","theme":"tarihi","lab":1},"geometry":{"type":"Point","coordinates":[127.057,37.51517]}},{"type":"Feature","properties":{"id":"ke-tarihi-69","kind":"poi","name":"Battle of Chemulpo Bay","theme":"tarihi","lab":1},"geometry":{"type":"Point","coordinates":[126.52158,37.34697]}},{"type":"Feature","properties":{"id":"ke-tarihi-70","kind":"poi","name":"Armillary Sphere","theme":"tarihi","lab":1},"geometry":{"type":"Point","coordinates":[126.97691,37.57264]}},{"type":"Feature","properties":{"id":"ke-tarihi-71","kind":"poi","name":"Achasanseong Fortress","theme":"tarihi","lab":1},"geometry":{"type":"Point","coordinates":[127.10485,37.55603]}},{"type":"Feature","properties":{"id":"ke-tarihi-72","kind":"poi","name":"현충탑","theme":"tarihi","lab":1},"geometry":{"type":"Point","coordinates":[126.86494,37.48394]}},{"type":"Feature","properties":{"id":"ke-tarihi-73","kind":"poi","name":"후애돈대","theme":"tarihi","lab":1},"geometry":{"type":"Point","coordinates":[126.48863,37.60113]}},{"type":"Feature","properties":{"id":"ke-tarihi-74","kind":"poi","name":"효성아파트 Rose door","theme":"tarihi","lab":1},"geometry":{"type":"Point","coordinates":[126.90123,37.53144]}},{"type":"Feature","properties":{"id":"ke-tarihi-75","kind":"poi","name":"효사정","theme":"tarihi","lab":1},"geometry":{"type":"Point","coordinates":[126.96291,37.51054]}},{"type":"Feature","properties":{"id":"ke-tarihi-76","kind":"poi","name":"효령대군파 의성군자손묘역","theme":"tarihi","lab":1},"geometry":{"type":"Point","coordinates":[127.21577,37.76302]}},{"type":"Feature","properties":{"id":"ke-tarihi-77","kind":"poi","name":"홍릉","theme":"tarihi","lab":1},"geometry":{"type":"Point","coordinates":[127.2124,37.631]}},{"type":"Feature","properties":{"id":"ke-tarihi-78","kind":"poi","name":"호암사일주문","theme":"tarihi","lab":1},"geometry":{"type":"Point","coordinates":[127.02596,37.72676]}},{"type":"Feature","properties":{"id":"ke-tarihi-79","kind":"poi","name":"호국무공수훈자공적비","theme":"tarihi","lab":1},"geometry":{"type":"Point","coordinates":[127.16418,37.4652]}},{"type":"Feature","properties":{"id":"ke-tarihi-80","kind":"poi","name":"호국국가 유공자공적비","theme":"tarihi","lab":1},"geometry":{"type":"Point","coordinates":[126.81272,37.3233]}},{"type":"Feature","properties":{"id":"ke-tarihi-81","kind":"poi","name":"호국 기념비","theme":"tarihi","lab":1},"geometry":{"type":"Point","coordinates":[127.13177,37.50094]}},{"type":"Feature","properties":{"id":"ke-tarihi-82","kind":"poi","name":"현대아파트 머릿돌","theme":"tarihi","lab":1},"geometry":{"type":"Point","coordinates":[127.1756,37.66035]}},{"type":"Feature","properties":{"id":"ke-tarihi-83","kind":"poi","name":"허난설헌묘","theme":"tarihi","lab":1},"geometry":{"type":"Point","coordinates":[127.29613,37.42562]}},{"type":"Feature","properties":{"id":"ke-tarihi-84","kind":"poi","name":"행주대첩비","theme":"tarihi","lab":1},"geometry":{"type":"Point","coordinates":[126.82891,37.59563]}},{"type":"Feature","properties":{"id":"ke-tarihi-85","kind":"poi","name":"해상초계기","theme":"tarihi","lab":1},"geometry":{"type":"Point","coordinates":[126.53973,37.64101]}},{"type":"Feature","properties":{"id":"ke-tarihi-86","kind":"poi","name":"해병대 전적비","theme":"tarihi","lab":1},"geometry":{"type":"Point","coordinates":[126.59316,37.75248]}},{"type":"Feature","properties":{"id":"ke-tarihi-87","kind":"poi","name":"함석헌기념관","theme":"tarihi","lab":1},"geometry":{"type":"Point","coordinates":[127.03482,37.65293]}},{"type":"Feature","properties":{"id":"ke-tarihi-88","kind":"poi","name":"한경직목사묘","theme":"tarihi","lab":1},"geometry":{"type":"Point","coordinates":[127.21067,37.66502]}},{"type":"Feature","properties":{"id":"ke-tarihi-89","kind":"poi","name":"하남동사지오층석탑","theme":"tarihi","lab":1},"geometry":{"type":"Point","coordinates":[127.18592,37.51694]}},{"type":"Feature","properties":{"id":"ke-modern-0","kind":"poi","name":"토탈미술관","theme":"modern","lab":1},"geometry":{"type":"Point","coordinates":[126.97572,37.61213]}},{"type":"Feature","properties":{"id":"ke-modern-1","kind":"poi","name":"밀알미술관","theme":"modern","lab":1},"geometry":{"type":"Point","coordinates":[127.08268,37.48564]}},{"type":"Feature","properties":{"id":"ke-modern-2","kind":"poi","name":"Woori Capital Art Hall","theme":"modern","lab":1},"geometry":{"type":"Point","coordinates":[127.12505,37.51673]}},{"type":"Feature","properties":{"id":"ke-modern-3","kind":"poi","name":"Seoul National University Museum of Art","theme":"modern","lab":1},"geometry":{"type":"Point","coordinates":[126.94971,37.46644]}},{"type":"Feature","properties":{"id":"ke-modern-4","kind":"poi","name":"Seoul Museum of Art","theme":"modern","lab":1},"geometry":{"type":"Point","coordinates":[126.97381,37.56411]}},{"type":"Feature","properties":{"id":"ke-modern-5","kind":"poi","name":"Seonbawi Art Museum","theme":"modern","lab":1},"geometry":{"type":"Point","coordinates":[126.9993,37.45179]}},{"type":"Feature","properties":{"id":"ke-modern-6","kind":"poi","name":"Savina Museum of Contemporary Art","theme":"modern","lab":1},"geometry":{"type":"Point","coordinates":[126.98459,37.57656]}},{"type":"Feature","properties":{"id":"ke-modern-7","kind":"poi","name":"Poseuko Art Museum","theme":"modern","lab":1},"geometry":{"type":"Point","coordinates":[127.05609,37.50579]}},{"type":"Feature","properties":{"id":"ke-modern-8","kind":"poi","name":"Oil Reservoir Culture Park","theme":"modern","lab":1},"geometry":{"type":"Point","coordinates":[126.89387,37.57078]}},{"type":"Feature","properties":{"id":"ke-modern-9","kind":"poi","name":"Nodeulseom Island","theme":"modern","lab":1},"geometry":{"type":"Point","coordinates":[126.9587,37.5176]}},{"type":"Feature","properties":{"id":"ke-modern-10","kind":"poi","name":"National Theater of Korea","theme":"modern","lab":1},"geometry":{"type":"Point","coordinates":[127.0001,37.5529]}},{"type":"Feature","properties":{"id":"ke-modern-11","kind":"poi","name":"National Museum of Modern and Contemporary Art Gwacheon","theme":"modern","lab":1},"geometry":{"type":"Point","coordinates":[127.0199,37.43098]}},{"type":"Feature","properties":{"id":"ke-modern-12","kind":"poi","name":"National Museum of Modern and Contemporary Art","theme":"modern","lab":1},"geometry":{"type":"Point","coordinates":[126.98071,37.57902]}},{"type":"Feature","properties":{"id":"ke-modern-13","kind":"poi","name":"Gyeonggi Museum of Art","theme":"modern","lab":1},"geometry":{"type":"Point","coordinates":[126.81365,37.32572]}},{"type":"Feature","properties":{"id":"ke-modern-14","kind":"poi","name":"Guri Tower","theme":"modern","lab":1},"geometry":{"type":"Point","coordinates":[127.16029,37.58886]}},{"type":"Feature","properties":{"id":"ke-modern-15","kind":"poi","name":"Gansong Art Museum","theme":"modern","lab":1},"geometry":{"type":"Point","coordinates":[126.99679,37.5936]}},{"type":"Feature","properties":{"id":"ke-modern-17","kind":"poi","name":"Art center nabi","theme":"modern","lab":1},"geometry":{"type":"Point","coordinates":[126.98043,37.56988]}},{"type":"Feature","properties":{"id":"ke-modern-18","kind":"poi","name":"호반 아트리움 미술관","theme":"modern","lab":1},"geometry":{"type":"Point","coordinates":[126.88179,37.41627]}},{"type":"Feature","properties":{"id":"ke-modern-19","kind":"poi","name":"한전갤러리","theme":"modern","lab":1},"geometry":{"type":"Point","coordinates":[127.02801,37.48581]}},{"type":"Feature","properties":{"id":"ke-modern-20","kind":"poi","name":"예송미술관","theme":"modern","lab":1},"geometry":{"type":"Point","coordinates":[127.09327,37.50205]}},{"type":"Feature","properties":{"id":"ke-modern-21","kind":"poi","name":"아트룸 벗이","theme":"modern","lab":1},"geometry":{"type":"Point","coordinates":[127.10981,37.29692]}},{"type":"Feature","properties":{"id":"ke-modern-22","kind":"poi","name":"스페이스K 미술관","theme":"modern","lab":1},"geometry":{"type":"Point","coordinates":[126.83103,37.56109]}},{"type":"Feature","properties":{"id":"ke-modern-23","kind":"poi","name":"소슬금 갤러리","theme":"modern","lab":1},"geometry":{"type":"Point","coordinates":[126.98513,37.54591]}},{"type":"Feature","properties":{"id":"ke-modern-24","kind":"poi","name":"서서울미술관","theme":"modern","lab":1},"geometry":{"type":"Point","coordinates":[126.89539,37.45779]}},{"type":"Feature","properties":{"id":"ke-modern-25","kind":"poi","name":"디뮤지엄","theme":"modern","lab":1},"geometry":{"type":"Point","coordinates":[127.01155,37.53713]}},{"type":"Feature","properties":{"id":"ke-modern-26","kind":"poi","name":"Suwon City Manseok Art Museum","theme":"modern","lab":1},"geometry":{"type":"Point","coordinates":[126.99946,37.29706]}},{"type":"Feature","properties":{"id":"ke-modern-27","kind":"poi","name":"SeMA 창고","theme":"modern","lab":1},"geometry":{"type":"Point","coordinates":[126.9343,37.60928]}},{"type":"Feature","properties":{"id":"ke-modern-28","kind":"poi","name":"Kaywon University Museum of Art","theme":"modern","lab":1},"geometry":{"type":"Point","coordinates":[126.97855,37.37904]}},{"type":"Feature","properties":{"id":"ke-modern-29","kind":"poi","name":"KCDFgallery","theme":"modern","lab":1},"geometry":{"type":"Point","coordinates":[126.98411,37.57397]}},{"type":"Feature","properties":{"id":"ke-modern-30","kind":"poi","name":"Hangaram Museum","theme":"modern","lab":1},"geometry":{"type":"Point","coordinates":[127.0143,37.48023]}},{"type":"Feature","properties":{"id":"ke-modern-31","kind":"poi","name":"Atelier Hermès","theme":"modern","lab":1},"geometry":{"type":"Point","coordinates":[127.03534,37.52274]}},{"type":"Feature","properties":{"id":"ke-modern-32","kind":"poi","name":"호암미술관","theme":"modern","lab":1},"geometry":{"type":"Point","coordinates":[127.19161,37.29452]}},{"type":"Feature","properties":{"id":"ke-modern-33","kind":"poi","name":"한글미술관","theme":"modern","lab":1},"geometry":{"type":"Point","coordinates":[127.06977,37.66609]}},{"type":"Feature","properties":{"id":"ke-modern-34","kind":"poi","name":"한강뮤지엄","theme":"modern","lab":1},"geometry":{"type":"Point","coordinates":[127.23673,37.55344]}},{"type":"Feature","properties":{"id":"ke-modern-35","kind":"poi","name":"청소년커뮤니티센터(140)","theme":"modern","lab":1},"geometry":{"type":"Point","coordinates":[127.109,37.60582]}},{"type":"Feature","properties":{"id":"ke-modern-36","kind":"poi","name":"중랑아트센터","theme":"modern","lab":1},"geometry":{"type":"Point","coordinates":[127.09163,37.59836]}},{"type":"Feature","properties":{"id":"ke-modern-37","kind":"poi","name":"정화 아트센터","theme":"modern","lab":1},"geometry":{"type":"Point","coordinates":[126.98482,37.56032]}},{"type":"Feature","properties":{"id":"ke-modern-38","kind":"poi","name":"정향재","theme":"modern","lab":1},"geometry":{"type":"Point","coordinates":[127.07452,37.60516]}},{"type":"Feature","properties":{"id":"ke-modern-39","kind":"poi","name":"자연당갤러리","theme":"modern","lab":1},"geometry":{"type":"Point","coordinates":[126.51277,37.51196]}},{"type":"Feature","properties":{"id":"ke-modern-40","kind":"poi","name":"인천광역시 서구문화원","theme":"modern","lab":1},"geometry":{"type":"Point","coordinates":[126.67114,37.5265]}},{"type":"Feature","properties":{"id":"ke-modern-41","kind":"poi","name":"이후갤러리","theme":"modern","lab":1},"geometry":{"type":"Point","coordinates":[127.00859,37.64737]}},{"type":"Feature","properties":{"id":"ke-modern-42","kind":"poi","name":"의정부예술의전당","theme":"modern","lab":1},"geometry":{"type":"Point","coordinates":[127.03407,37.7337]}},{"type":"Feature","properties":{"id":"ke-modern-43","kind":"poi","name":"은하수미술관","theme":"modern","lab":1},"geometry":{"type":"Point","coordinates":[126.69203,37.45478]}},{"type":"Feature","properties":{"id":"ke-modern-44","kind":"poi","name":"운중화랑","theme":"modern","lab":1},"geometry":{"type":"Point","coordinates":[127.07862,37.39309]}},{"type":"Feature","properties":{"id":"ke-doga-0","kind":"poi","name":"Hakdong Park","theme":"doga","lab":1},"geometry":{"type":"Point","coordinates":[127.02521,37.51559]}},{"type":"Feature","properties":{"id":"ke-doga-1","kind":"poi","name":"Banpo Hangang Park","theme":"doga","lab":1},"geometry":{"type":"Point","coordinates":[126.99219,37.50912]}},{"type":"Feature","properties":{"id":"ke-doga-2","kind":"poi","name":"Asia Park","theme":"doga","lab":1},"geometry":{"type":"Point","coordinates":[127.0762,37.51027]}},{"type":"Feature","properties":{"id":"ke-doga-4","kind":"poi","name":"호명산","theme":"doga","lab":1},"geometry":{"type":"Point","coordinates":[126.99687,37.77306]}},{"type":"Feature","properties":{"id":"ke-doga-5","kind":"poi","name":"형제봉","theme":"doga","lab":1},"geometry":{"type":"Point","coordinates":[126.9331,37.74543]}},{"type":"Feature","properties":{"id":"ke-doga-6","kind":"poi","name":"철마산","theme":"doga","lab":1},"geometry":{"type":"Point","coordinates":[126.68241,37.53204]}},{"type":"Feature","properties":{"id":"ke-doga-7","kind":"poi","name":"천마산","theme":"doga","lab":1},"geometry":{"type":"Point","coordinates":[127.27335,37.68021]}},{"type":"Feature","properties":{"id":"ke-doga-8","kind":"poi","name":"장군봉","theme":"doga","lab":1},"geometry":{"type":"Point","coordinates":[126.93098,37.44781]}},{"type":"Feature","properties":{"id":"ke-doga-9","kind":"poi","name":"응봉","theme":"doga","lab":1},"geometry":{"type":"Point","coordinates":[127.06719,37.31085]}},{"type":"Feature","properties":{"id":"ke-doga-10","kind":"poi","name":"운유산","theme":"doga","lab":1},"geometry":{"type":"Point","coordinates":[126.65155,37.64479]}},{"type":"Feature","properties":{"id":"ke-doga-11","kind":"poi","name":"용왕산","theme":"doga","lab":1},"geometry":{"type":"Point","coordinates":[126.87862,37.54424]}},{"type":"Feature","properties":{"id":"ke-doga-12","kind":"poi","name":"옥구공원","theme":"doga","lab":1},"geometry":{"type":"Point","coordinates":[126.71331,37.35599]}},{"type":"Feature","properties":{"id":"ke-doga-13","kind":"poi","name":"오성산","theme":"doga","lab":1},"geometry":{"type":"Point","coordinates":[126.42351,37.44424]}},{"type":"Feature","properties":{"id":"ke-doga-14","kind":"poi","name":"오봉산","theme":"doga","lab":1},"geometry":{"type":"Point","coordinates":[126.9622,37.34442]}},{"type":"Feature","properties":{"id":"ke-doga-15","kind":"poi","name":"영장산","theme":"doga","lab":1},"geometry":{"type":"Point","coordinates":[127.13802,37.45394]}},{"type":"Feature","properties":{"id":"ke-doga-16","kind":"poi","name":"시루봉","theme":"doga","lab":1},"geometry":{"type":"Point","coordinates":[127.02445,37.66565]}},{"type":"Feature","properties":{"id":"ke-doga-17","kind":"poi","name":"시루메산","theme":"doga","lab":1},"geometry":{"type":"Point","coordinates":[126.43628,37.75605]}},{"type":"Feature","properties":{"id":"ke-doga-18","kind":"poi","name":"수명산","theme":"doga","lab":1},"geometry":{"type":"Point","coordinates":[126.82753,37.54788]}},{"type":"Feature","properties":{"id":"ke-doga-19","kind":"poi","name":"수리봉","theme":"doga","lab":1},"geometry":{"type":"Point","coordinates":[127.14804,37.74002]}},{"type":"Feature","properties":{"id":"ke-doga-20","kind":"poi","name":"손기정체육공원","theme":"doga","lab":1},"geometry":{"type":"Point","coordinates":[126.96521,37.55603]}},{"type":"Feature","properties":{"id":"ke-doga-21","kind":"poi","name":"소실봉","theme":"doga","lab":1},"geometry":{"type":"Point","coordinates":[127.09308,37.30528]}},{"type":"Feature","properties":{"id":"ke-doga-22","kind":"poi","name":"상장봉","theme":"doga","lab":1},"geometry":{"type":"Point","coordinates":[126.97756,37.68638]}},{"type":"Feature","properties":{"id":"ke-doga-23","kind":"poi","name":"상봉","theme":"doga","lab":1},"geometry":{"type":"Point","coordinates":[126.38856,37.62817]}},{"type":"Feature","properties":{"id":"ke-doga-24","kind":"poi","name":"불곡산","theme":"doga","lab":1},"geometry":{"type":"Point","coordinates":[127.13439,37.3517]}},{"type":"Feature","properties":{"id":"ke-doga-25","kind":"poi","name":"봉제산","theme":"doga","lab":1},"geometry":{"type":"Point","coordinates":[126.85511,37.5431]}},{"type":"Feature","properties":{"id":"ke-doga-26","kind":"poi","name":"백봉","theme":"doga","lab":1},"geometry":{"type":"Point","coordinates":[127.25816,37.63892]}},{"type":"Feature","properties":{"id":"ke-doga-27","kind":"poi","name":"백련산","theme":"doga","lab":1},"geometry":{"type":"Point","coordinates":[126.92782,37.59161]}},{"type":"Feature","properties":{"id":"ke-doga-28","kind":"poi","name":"문형산","theme":"doga","lab":1},"geometry":{"type":"Point","coordinates":[127.19096,37.37038]}},{"type":"Feature","properties":{"id":"ke-doga-29","kind":"poi","name":"문수산","theme":"doga","lab":1},"geometry":{"type":"Point","coordinates":[126.54861,37.73909]}},{"type":"Feature","properties":{"id":"ke-doga-30","kind":"poi","name":"매봉산","theme":"doga","lab":1},"geometry":{"type":"Point","coordinates":[126.83801,37.50415]}},{"type":"Feature","properties":{"id":"ke-doga-31","kind":"poi","name":"말무덤산","theme":"doga","lab":1},"geometry":{"type":"Point","coordinates":[127.07216,37.283]}},{"type":"Feature","properties":{"id":"ke-doga-32","kind":"poi","name":"둔지산","theme":"doga","lab":1},"geometry":{"type":"Point","coordinates":[126.98568,37.53163]}},{"type":"Feature","properties":{"id":"ke-doga-33","kind":"poi","name":"노고산","theme":"doga","lab":1},"geometry":{"type":"Point","coordinates":[126.94414,37.68477]}},{"type":"Feature","properties":{"id":"ke-doga-34","kind":"poi","name":"꾀꼬리봉","theme":"doga","lab":1},"geometry":{"type":"Point","coordinates":[126.96571,37.76792]}},{"type":"Feature","properties":{"id":"ke-doga-35","kind":"poi","name":"국사봉","theme":"doga","lab":1},"geometry":{"type":"Point","coordinates":[126.41755,37.39218]}},{"type":"Feature","properties":{"id":"ke-doga-36","kind":"poi","name":"광나루한강공원","theme":"doga","lab":1},"geometry":{"type":"Point","coordinates":[127.11217,37.53968]}},{"type":"Feature","properties":{"id":"ke-doga-37","kind":"poi","name":"개웅산","theme":"doga","lab":1},"geometry":{"type":"Point","coordinates":[126.84465,37.48659]}},{"type":"Feature","properties":{"id":"ke-doga-38","kind":"poi","name":"Yuldong Park","theme":"doga","lab":1},"geometry":{"type":"Point","coordinates":[127.15036,37.37852]}},{"type":"Feature","properties":{"id":"ke-doga-39","kind":"poi","name":"Yongsan Family Park","theme":"doga","lab":1},"geometry":{"type":"Point","coordinates":[126.98309,37.52243]}},{"type":"Feature","properties":{"id":"ke-doga-40","kind":"poi","name":"Yeouido Saetgang Ecological Park","theme":"doga","lab":1},"geometry":{"type":"Point","coordinates":[126.92731,37.525]}},{"type":"Feature","properties":{"id":"ke-doga-41","kind":"poi","name":"Yeongdeungpo Park","theme":"doga","lab":1},"geometry":{"type":"Point","coordinates":[126.91089,37.51515]}},{"type":"Feature","properties":{"id":"ke-doga-42","kind":"poi","name":"Yebongsan","theme":"doga","lab":1},"geometry":{"type":"Point","coordinates":[127.26113,37.55915]}},{"type":"Feature","properties":{"id":"ke-doga-43","kind":"poi","name":"Yangjae Citizen's Forest","theme":"doga","lab":1},"geometry":{"type":"Point","coordinates":[127.0357,37.46947]}},{"type":"Feature","properties":{"id":"ke-doga-44","kind":"poi","name":"Wonhyobong","theme":"doga","lab":1},"geometry":{"type":"Point","coordinates":[126.96481,37.65755]}},{"type":"Feature","properties":{"id":"ke-doga-45","kind":"poi","name":"West Seoul Lake Park","theme":"doga","lab":1},"geometry":{"type":"Point","coordinates":[126.82992,37.52786]}},{"type":"Feature","properties":{"id":"ke-doga-46","kind":"poi","name":"Wausan Mountain","theme":"doga","lab":1},"geometry":{"type":"Point","coordinates":[126.92858,37.55135]}},{"type":"Feature","properties":{"id":"ke-doga-47","kind":"poi","name":"Waryong Park","theme":"doga","lab":1},"geometry":{"type":"Point","coordinates":[126.99003,37.59049]}},{"type":"Feature","properties":{"id":"ke-doga-48","kind":"poi","name":"Ungilsan","theme":"doga","lab":1},"geometry":{"type":"Point","coordinates":[127.29459,37.5726]}},{"type":"Feature","properties":{"id":"ke-doga-49","kind":"poi","name":"Umyeonsan","theme":"doga","lab":1},"geometry":{"type":"Point","coordinates":[127.00913,37.47048]}},{"type":"Feature","properties":{"id":"ke-doga-50","kind":"poi","name":"Suraksan","theme":"doga","lab":1},"geometry":{"type":"Point","coordinates":[127.08134,37.69926]}},{"type":"Feature","properties":{"id":"ke-doga-51","kind":"poi","name":"Sorae Wetland Ecology Park","theme":"doga","lab":1},"geometry":{"type":"Point","coordinates":[126.7477,37.41201]}},{"type":"Feature","properties":{"id":"ke-doga-52","kind":"poi","name":"Songpa Naru Park","theme":"doga","lab":1},"geometry":{"type":"Point","coordinates":[127.10273,37.50998]}},{"type":"Feature","properties":{"id":"ke-doga-53","kind":"poi","name":"Songdo Moonlight Festival Park","theme":"doga","lab":1},"geometry":{"type":"Point","coordinates":[126.63716,37.40606]}},{"type":"Feature","properties":{"id":"ke-doga-54","kind":"poi","name":"Seoul Plaza","theme":"doga","lab":1},"geometry":{"type":"Point","coordinates":[126.97799,37.56562]}},{"type":"Feature","properties":{"id":"ke-doga-55","kind":"poi","name":"Seoul Children's Grand Park","theme":"doga","lab":1},"geometry":{"type":"Point","coordinates":[127.08202,37.54894]}},{"type":"Feature","properties":{"id":"ke-doga-56","kind":"poi","name":"Seongjibawisan Mountain","theme":"doga","lab":1},"geometry":{"type":"Point","coordinates":[127.0659,37.33783]}},{"type":"Feature","properties":{"id":"ke-doga-57","kind":"poi","name":"Sayuksin Park","theme":"doga","lab":1},"geometry":{"type":"Point","coordinates":[126.94872,37.5137]}},{"type":"Feature","properties":{"id":"ke-doga-58","kind":"poi","name":"Sapaesan","theme":"doga","lab":1},"geometry":{"type":"Point","coordinates":[127.01044,37.72237]}},{"type":"Feature","properties":{"id":"ke-doga-59","kind":"poi","name":"Sang-dong Lake Park","theme":"doga","lab":1},"geometry":{"type":"Point","coordinates":[126.74507,37.50384]}},{"type":"Feature","properties":{"id":"ke-doga-60","kind":"poi","name":"Paris Park","theme":"doga","lab":1},"geometry":{"type":"Point","coordinates":[126.87705,37.53491]}},{"type":"Feature","properties":{"id":"ke-doga-61","kind":"poi","name":"Paldalsan (Mt.)","theme":"doga","lab":1},"geometry":{"type":"Point","coordinates":[127.01009,37.28056]}},{"type":"Feature","properties":{"id":"ke-doga-62","kind":"poi","name":"Ongnyeobong","theme":"doga","lab":1},"geometry":{"type":"Point","coordinates":[127.0358,37.43919]}},{"type":"Feature","properties":{"id":"ke-doga-63","kind":"poi","name":"Nanji Hangang Park","theme":"doga","lab":1},"geometry":{"type":"Point","coordinates":[126.87799,37.5666]}},{"type":"Feature","properties":{"id":"ke-doga-64","kind":"poi","name":"Namsan Mountain","theme":"doga","lab":1},"geometry":{"type":"Point","coordinates":[126.98796,37.55221]}},{"type":"Feature","properties":{"id":"ke-doga-65","kind":"poi","name":"Nakseongdae Park","theme":"doga","lab":1},"geometry":{"type":"Point","coordinates":[126.95992,37.47156]}},{"type":"Feature","properties":{"id":"ke-doga-66","kind":"poi","name":"Mullae Neighborhood Park","theme":"doga","lab":1},"geometry":{"type":"Point","coordinates":[126.89396,37.51688]}},{"type":"Feature","properties":{"id":"ke-doga-67","kind":"poi","name":"Mt. Odu","theme":"doga","lab":1},"geometry":{"type":"Point","coordinates":[126.67759,37.77276]}},{"type":"Feature","properties":{"id":"ke-doga-68","kind":"poi","name":"Mt. Mani","theme":"doga","lab":1},"geometry":{"type":"Point","coordinates":[126.42968,37.61554]}},{"type":"Feature","properties":{"id":"ke-doga-69","kind":"poi","name":"Marronnier Park","theme":"doga","lab":1},"geometry":{"type":"Point","coordinates":[127.00284,37.58026]}},{"type":"Feature","properties":{"id":"ke-doga-70","kind":"poi","name":"Mangyongdae","theme":"doga","lab":1},"geometry":{"type":"Point","coordinates":[126.97975,37.65626]}},{"type":"Feature","properties":{"id":"ke-doga-71","kind":"poi","name":"MT. Bonghwa","theme":"doga","lab":1},"geometry":{"type":"Point","coordinates":[127.0872,37.60851]}},{"type":"Feature","properties":{"id":"ke-doga-72","kind":"poi","name":"Jeokgapsan","theme":"doga","lab":1},"geometry":{"type":"Point","coordinates":[127.25667,37.57242]}},{"type":"Feature","properties":{"id":"ke-doga-73","kind":"poi","name":"Jayu Park","theme":"doga","lab":1},"geometry":{"type":"Point","coordinates":[126.6224,37.47579]}},{"type":"Feature","properties":{"id":"ke-doga-74","kind":"poi","name":"Jangneungsan (Mt.)","theme":"doga","lab":1},"geometry":{"type":"Point","coordinates":[126.70925,37.61616]}},{"type":"Feature","properties":{"id":"ke-doga-75","kind":"poi","name":"Inwangsan (Mt.)","theme":"doga","lab":1},"geometry":{"type":"Point","coordinates":[126.95781,37.58492]}},{"type":"Feature","properties":{"id":"ke-doga-76","kind":"poi","name":"Hyochang Park","theme":"doga","lab":1},"geometry":{"type":"Point","coordinates":[126.96074,37.54467]}},{"type":"Feature","properties":{"id":"ke-doga-77","kind":"poi","name":"Hyeongjebong","theme":"doga","lab":1},"geometry":{"type":"Point","coordinates":[127.03808,37.32829]}},{"type":"Feature","properties":{"id":"ke-doga-79","kind":"poi","name":"Haneul Park","theme":"doga","lab":1},"geometry":{"type":"Point","coordinates":[126.88547,37.56821]}},{"type":"Feature","properties":{"id":"ke-doga-80","kind":"poi","name":"Gwanggyosan Sirubong","theme":"doga","lab":1},"geometry":{"type":"Point","coordinates":[127.03444,37.34494]}},{"type":"Feature","properties":{"id":"ke-doga-81","kind":"poi","name":"Gwanaksan Mountain","theme":"doga","lab":1},"geometry":{"type":"Point","coordinates":[126.96424,37.44514]}},{"type":"Feature","properties":{"id":"ke-doga-82","kind":"poi","name":"Guryongsan Mountain","theme":"doga","lab":1},"geometry":{"type":"Point","coordinates":[127.06122,37.46893]}},{"type":"Feature","properties":{"id":"ke-doga-83","kind":"poi","name":"Gungsan Park","theme":"doga","lab":1},"geometry":{"type":"Point","coordinates":[126.84054,37.57446]}},{"type":"Feature","properties":{"id":"ke-doga-84","kind":"poi","name":"Garden in Seongbuk-dong","theme":"doga","lab":1},"geometry":{"type":"Point","coordinates":[126.99874,37.5969]}},{"type":"Feature","properties":{"id":"ke-gastronomi-0","kind":"poi","name":"Starbucks","theme":"gastronomi","lab":1},"geometry":{"type":"Point","coordinates":[126.98377,37.56501]}},{"type":"Feature","properties":{"id":"ke-gastronomi-1","kind":"poi","name":"Merry King","theme":"gastronomi","lab":1},"geometry":{"type":"Point","coordinates":[127.03097,37.60508]}},{"type":"Feature","properties":{"id":"ke-gastronomi-2","kind":"poi","name":"BonJuk","theme":"gastronomi","lab":1},"geometry":{"type":"Point","coordinates":[127.02019,37.6096]}},{"type":"Feature","properties":{"id":"ke-gastronomi-3","kind":"poi","name":"더카페","theme":"gastronomi","lab":1},"geometry":{"type":"Point","coordinates":[126.87641,37.6415]}},{"type":"Feature","properties":{"id":"ke-gastronomi-4","kind":"poi","name":"Tongin Market","theme":"gastronomi","lab":1},"geometry":{"type":"Point","coordinates":[126.9701,37.58075]}},{"type":"Feature","properties":{"id":"ke-gastronomi-5","kind":"poi","name":"La Yeon","theme":"gastronomi","lab":1},"geometry":{"type":"Point","coordinates":[127.00518,37.55552]}},{"type":"Feature","properties":{"id":"ke-gastronomi-6","kind":"poi","name":"Jincheongyujeom","theme":"gastronomi","lab":1},"geometry":{"type":"Point","coordinates":[126.92629,37.56227]}},{"type":"Feature","properties":{"id":"ke-gastronomi-7","kind":"poi","name":"Hwanghak-dong Flea Market","theme":"gastronomi","lab":1},"geometry":{"type":"Point","coordinates":[127.0185,37.56941]}},{"type":"Feature","properties":{"id":"ke-gastronomi-8","kind":"poi","name":"Gyeongdong Market","theme":"gastronomi","lab":1},"geometry":{"type":"Point","coordinates":[127.03882,37.57935]}},{"type":"Feature","properties":{"id":"ke-gastronomi-9","kind":"poi","name":"Gwangjang Market","theme":"gastronomi","lab":1},"geometry":{"type":"Point","coordinates":[126.99951,37.57022]}},{"type":"Feature","properties":{"id":"ke-gastronomi-10","kind":"poi","name":"Ediya Coffee","theme":"gastronomi","lab":1},"geometry":{"type":"Point","coordinates":[126.98371,37.56487]}},{"type":"Feature","properties":{"id":"ke-gastronomi-11","kind":"poi","name":"Dongdaemun Shopping Complex","theme":"gastronomi","lab":1},"geometry":{"type":"Point","coordinates":[127.00771,37.5704]}},{"type":"Feature","properties":{"id":"ke-gastronomi-12","kind":"poi","name":"Anyang Central Market","theme":"gastronomi","lab":1},"geometry":{"type":"Point","coordinates":[126.92031,37.39736]}},{"type":"Feature","properties":{"id":"ke-gastronomi-13","kind":"poi","name":"황금곱창","theme":"gastronomi","lab":1},"geometry":{"type":"Point","coordinates":[126.72761,37.6074]}},{"type":"Feature","properties":{"id":"ke-gastronomi-14","kind":"poi","name":"화훼공판장","theme":"gastronomi","lab":1},"geometry":{"type":"Point","coordinates":[127.04063,37.46638]}},{"type":"Feature","properties":{"id":"ke-gastronomi-15","kind":"poi","name":"홍콩판점0410","theme":"gastronomi","lab":1},"geometry":{"type":"Point","coordinates":[126.70144,37.63314]}},{"type":"Feature","properties":{"id":"ke-gastronomi-16","kind":"poi","name":"피자스쿨","theme":"gastronomi","lab":1},"geometry":{"type":"Point","coordinates":[126.93107,37.55423]}},{"type":"Feature","properties":{"id":"ke-gastronomi-17","kind":"poi","name":"최미자소머리국법","theme":"gastronomi","lab":1},"geometry":{"type":"Point","coordinates":[127.0683,37.29264]}},{"type":"Feature","properties":{"id":"ke-gastronomi-18","kind":"poi","name":"채선당 자연한가득","theme":"gastronomi","lab":1},"geometry":{"type":"Point","coordinates":[126.73366,37.72888]}},{"type":"Feature","properties":{"id":"ke-gastronomi-19","kind":"poi","name":"정서진중앙시장","theme":"gastronomi","lab":1},"geometry":{"type":"Point","coordinates":[126.67489,37.51872]}},{"type":"Feature","properties":{"id":"ke-gastronomi-20","kind":"poi","name":"윤성피자","theme":"gastronomi","lab":1},"geometry":{"type":"Point","coordinates":[126.73804,37.69723]}},{"type":"Feature","properties":{"id":"ke-gastronomi-21","kind":"poi","name":"유미카츠","theme":"gastronomi","lab":1},"geometry":{"type":"Point","coordinates":[126.67779,37.41428]}},{"type":"Feature","properties":{"id":"ke-gastronomi-22","kind":"poi","name":"얌샘김밥","theme":"gastronomi","lab":1},"geometry":{"type":"Point","coordinates":[127.06504,37.50827]}},{"type":"Feature","properties":{"id":"ke-gastronomi-23","kind":"poi","name":"애슐리퀸즈 공덕점","theme":"gastronomi","lab":1},"geometry":{"type":"Point","coordinates":[126.95361,37.54685]}},{"type":"Feature","properties":{"id":"ke-gastronomi-24","kind":"poi","name":"애슐리퀸즈","theme":"gastronomi","lab":1},"geometry":{"type":"Point","coordinates":[126.71637,37.71241]}},{"type":"Feature","properties":{"id":"ke-gastronomi-25","kind":"poi","name":"아웃백스테이크하우스","theme":"gastronomi","lab":1},"geometry":{"type":"Point","coordinates":[126.69567,37.76927]}},{"type":"Feature","properties":{"id":"ke-gastronomi-26","kind":"poi","name":"송추가마골","theme":"gastronomi","lab":1},"geometry":{"type":"Point","coordinates":[127.19869,37.56496]}},{"type":"Feature","properties":{"id":"ke-gastronomi-27","kind":"poi","name":"샤브올데이","theme":"gastronomi","lab":1},"geometry":{"type":"Point","coordinates":[127.00288,37.29078]}},{"type":"Feature","properties":{"id":"ke-gastronomi-28","kind":"poi","name":"불닭발땡초 동대문엽기떡볶이","theme":"gastronomi","lab":1},"geometry":{"type":"Point","coordinates":[126.72306,37.70968]}},{"type":"Feature","properties":{"id":"ke-gastronomi-29","kind":"poi","name":"봉추찜닭","theme":"gastronomi","lab":1},"geometry":{"type":"Point","coordinates":[126.71754,37.62043]}},{"type":"Feature","properties":{"id":"ke-gastronomi-30","kind":"poi","name":"본죽&비빔밥","theme":"gastronomi","lab":1},"geometry":{"type":"Point","coordinates":[126.75952,37.7115]}},{"type":"Feature","properties":{"id":"ke-gastronomi-31","kind":"poi","name":"본죽","theme":"gastronomi","lab":1},"geometry":{"type":"Point","coordinates":[127.1003,37.59545]}},{"type":"Feature","properties":{"id":"ke-kamu-0","kind":"poi","name":"Embassy of the United Arab Emirates","theme":"kamu","lab":1},"geometry":{"type":"Point","coordinates":[127.01226,37.53657]}},{"type":"Feature","properties":{"id":"ke-kamu-1","kind":"poi","name":"주한 스리랑카 대사관","theme":"kamu","lab":1},"geometry":{"type":"Point","coordinates":[127.01229,37.55561]}},{"type":"Feature","properties":{"id":"ke-kamu-2","kind":"poi","name":"서울소년분류심사원","theme":"kamu","lab":1},"geometry":{"type":"Point","coordinates":[126.96208,37.36763]}},{"type":"Feature","properties":{"id":"ke-kamu-3","kind":"poi","name":"서울서부지방법원","theme":"kamu","lab":1},"geometry":{"type":"Point","coordinates":[126.95535,37.54914]}},{"type":"Feature","properties":{"id":"ke-kamu-4","kind":"poi","name":"구리시의회","theme":"kamu","lab":1},"geometry":{"type":"Point","coordinates":[127.13012,37.59473]}},{"type":"Feature","properties":{"id":"ke-kamu-5","kind":"poi","name":"광명교육청","theme":"kamu","lab":1},"geometry":{"type":"Point","coordinates":[126.84822,37.46981]}},{"type":"Feature","properties":{"id":"ke-kamu-6","kind":"poi","name":"고양교육지원청","theme":"kamu","lab":1},"geometry":{"type":"Point","coordinates":[126.77264,37.6619]}},{"type":"Feature","properties":{"id":"ke-kamu-7","kind":"poi","name":"경기도광주하남교육지원청","theme":"kamu","lab":1},"geometry":{"type":"Point","coordinates":[127.25905,37.42265]}},{"type":"Feature","properties":{"id":"ke-kamu-8","kind":"poi","name":"Supreme Prosecutor's Office","theme":"kamu","lab":1},"geometry":{"type":"Point","coordinates":[127.00455,37.49365]}},{"type":"Feature","properties":{"id":"ke-kamu-9","kind":"poi","name":"Songpa-gu Office","theme":"kamu","lab":1},"geometry":{"type":"Point","coordinates":[127.10599,37.51447]}},{"type":"Feature","properties":{"id":"ke-kamu-10","kind":"poi","name":"Seoul Central District Prosecutor's Office","theme":"kamu","lab":1},"geometry":{"type":"Point","coordinates":[127.00795,37.49493]}},{"type":"Feature","properties":{"id":"ke-kamu-11","kind":"poi","name":"National Assembly of Korea","theme":"kamu","lab":1},"geometry":{"type":"Point","coordinates":[126.91418,37.53185]}},{"type":"Feature","properties":{"id":"ke-kamu-12","kind":"poi","name":"Ministry of Justice","theme":"kamu","lab":1},"geometry":{"type":"Point","coordinates":[126.98329,37.42642]}},{"type":"Feature","properties":{"id":"ke-kamu-13","kind":"poi","name":"KOICA (Korea International Cooperation Agency)","theme":"kamu","lab":1},"geometry":{"type":"Point","coordinates":[127.09869,37.41569]}},{"type":"Feature","properties":{"id":"ke-kamu-14","kind":"poi","name":"Incheon City Hall","theme":"kamu","lab":1},"geometry":{"type":"Point","coordinates":[126.70524,37.45612]}},{"type":"Feature","properties":{"id":"ke-kamu-15","kind":"poi","name":"Hall of Korean academy of science and technology","theme":"kamu","lab":1},"geometry":{"type":"Point","coordinates":[127.10654,37.34962]}},{"type":"Feature","properties":{"id":"ke-kamu-16","kind":"poi","name":"Gyeonggido Seongnam Office of Education","theme":"kamu","lab":1},"geometry":{"type":"Point","coordinates":[127.12012,37.38663]}},{"type":"Feature","properties":{"id":"ke-kamu-17","kind":"poi","name":"Gyeonggi Provincial Office","theme":"kamu","lab":1},"geometry":{"type":"Point","coordinates":[127.05374,37.28894]}},{"type":"Feature","properties":{"id":"ke-kamu-18","kind":"poi","name":"Gwangjang-dong Community Service Center","theme":"kamu","lab":1},"geometry":{"type":"Point","coordinates":[127.10309,37.54683]}},{"type":"Feature","properties":{"id":"ke-kamu-19","kind":"poi","name":"Gwacheon City Hall","theme":"kamu","lab":1},"geometry":{"type":"Point","coordinates":[126.98761,37.42921]}},{"type":"Feature","properties":{"id":"ke-kamu-20","kind":"poi","name":"Guri Namyangju Office of Education","theme":"kamu","lab":1},"geometry":{"type":"Point","coordinates":[127.16983,37.61086]}},{"type":"Feature","properties":{"id":"ke-kamu-21","kind":"poi","name":"Gunpo Uiwang Department of Education","theme":"kamu","lab":1},"geometry":{"type":"Point","coordinates":[126.93289,37.36215]}},{"type":"Feature","properties":{"id":"ke-kamu-22","kind":"poi","name":"Gunjadong Community Service Center","theme":"kamu","lab":1},"geometry":{"type":"Point","coordinates":[127.07595,37.55514]}},{"type":"Feature","properties":{"id":"ke-kamu-23","kind":"poi","name":"French Embassy","theme":"kamu","lab":1},"geometry":{"type":"Point","coordinates":[126.96542,37.5615]}},{"type":"Feature","properties":{"id":"ke-kamu-24","kind":"poi","name":"Employment and Labor Training Institute","theme":"kamu","lab":1},"geometry":{"type":"Point","coordinates":[127.19261,37.36419]}},{"type":"Feature","properties":{"id":"ke-kamu-25","kind":"poi","name":"Embassy of Slovakia","theme":"kamu","lab":1},"geometry":{"type":"Point","coordinates":[127.0096,37.53187]}},{"type":"Feature","properties":{"id":"ke-kamu-26","kind":"poi","name":"Embassy of Singapore in Korea","theme":"kamu","lab":1},"geometry":{"type":"Point","coordinates":[126.97773,37.56837]}},{"type":"Feature","properties":{"id":"ke-kamu-27","kind":"poi","name":"Embassy of Romania in Seoul","theme":"kamu","lab":1},"geometry":{"type":"Point","coordinates":[126.9954,37.52705]}},{"type":"Feature","properties":{"id":"ke-kamu-28","kind":"poi","name":"Embassy of Republic of Tunisia","theme":"kamu","lab":1},"geometry":{"type":"Point","coordinates":[126.99258,37.52805]}},{"type":"Feature","properties":{"id":"ke-kamu-29","kind":"poi","name":"Embassy of Portugal in Seoul","theme":"kamu","lab":1},"geometry":{"type":"Point","coordinates":[126.98852,37.57915]}},{"type":"Feature","properties":{"id":"ke-kamu-30","kind":"poi","name":"Embassy of New Zealand","theme":"kamu","lab":1},"geometry":{"type":"Point","coordinates":[126.97113,37.56743]}},{"type":"Feature","properties":{"id":"ke-kamu-31","kind":"poi","name":"Embassy of Italy in Korea","theme":"kamu","lab":1},"geometry":{"type":"Point","coordinates":[127.00545,37.53717]}},{"type":"Feature","properties":{"id":"ke-kamu-32","kind":"poi","name":"Embassy of Greece","theme":"kamu","lab":1},"geometry":{"type":"Point","coordinates":[126.9867,37.56763]}},{"type":"Feature","properties":{"id":"ke-kamu-33","kind":"poi","name":"Embassy of Chile","theme":"kamu","lab":1},"geometry":{"type":"Point","coordinates":[126.98262,37.56093]}},{"type":"Feature","properties":{"id":"ke-kamu-34","kind":"poi","name":"Embassy of Argentina","theme":"kamu","lab":1},"geometry":{"type":"Point","coordinates":[126.98736,37.53613]}},{"type":"Feature","properties":{"id":"ke-kamu-35","kind":"poi","name":"Cheong Wa Dae","theme":"kamu","lab":1},"geometry":{"type":"Point","coordinates":[126.97618,37.58663]}},{"type":"Feature","properties":{"id":"ke-kamu-36","kind":"poi","name":"Bukahyeondong Community Service Center","theme":"kamu","lab":1},"geometry":{"type":"Point","coordinates":[126.957,37.55944]}},{"type":"Feature","properties":{"id":"ke-kamu-37","kind":"poi","name":"Apostolic Nunciature in Korea","theme":"kamu","lab":1},"geometry":{"type":"Point","coordinates":[126.97272,37.58526]}},{"type":"Feature","properties":{"id":"ke-kamu-38","kind":"poi","name":"Anyang Gwacheon Office of Education","theme":"kamu","lab":1},"geometry":{"type":"Point","coordinates":[126.95989,37.39556]}},{"type":"Feature","properties":{"id":"ke-kamu-39","kind":"poi","name":"포내1리마을회관","theme":"kamu","lab":1},"geometry":{"type":"Point","coordinates":[126.52749,37.72078]}},{"type":"Feature","properties":{"id":"ke-kamu-40","kind":"poi","name":"충훈동행정복지센터","theme":"kamu","lab":1},"geometry":{"type":"Point","coordinates":[126.89955,37.40917]}},{"type":"Feature","properties":{"id":"ke-kamu-41","kind":"poi","name":"중화2동 복합청사","theme":"kamu","lab":1},"geometry":{"type":"Point","coordinates":[127.07725,37.60189]}},{"type":"Feature","properties":{"id":"ke-kamu-42","kind":"poi","name":"중랑구선거관리위원회","theme":"kamu","lab":1},"geometry":{"type":"Point","coordinates":[127.0908,37.61698]}},{"type":"Feature","properties":{"id":"ke-kamu-43","kind":"poi","name":"장곡동 행정복지센터","theme":"kamu","lab":1},"geometry":{"type":"Point","coordinates":[126.78797,37.37756]}},{"type":"Feature","properties":{"id":"ke-kamu-44","kind":"poi","name":"의왕시청 신관","theme":"kamu","lab":1},"geometry":{"type":"Point","coordinates":[126.96827,37.34544]}},{"type":"Feature","properties":{"id":"ke-kamu-45","kind":"poi","name":"신원동 커뮤니티센터","theme":"kamu","lab":1},"geometry":{"type":"Point","coordinates":[126.88707,37.66669]}},{"type":"Feature","properties":{"id":"ke-kamu-46","kind":"poi","name":"신곡1동행정복지센터","theme":"kamu","lab":1},"geometry":{"type":"Point","coordinates":[127.05625,37.73312]}},{"type":"Feature","properties":{"id":"ke-kamu-47","kind":"poi","name":"배곧1동 행정복지센터","theme":"kamu","lab":1},"geometry":{"type":"Point","coordinates":[126.7358,37.37173]}},{"type":"Feature","properties":{"id":"ke-kamu-48","kind":"poi","name":"망우본동 주민센터","theme":"kamu","lab":1},"geometry":{"type":"Point","coordinates":[127.10154,37.60057]}},{"type":"Feature","properties":{"id":"ke-kamu-49","kind":"poi","name":"마을회관","theme":"kamu","lab":1},"geometry":{"type":"Point","coordinates":[127.17259,37.34093]}},{"type":"Feature","properties":{"id":"ke-alisveris-0","kind":"poi","name":"Starfield Hanam","theme":"alisveris","lab":1},"geometry":{"type":"Point","coordinates":[127.22406,37.54545]}},{"type":"Feature","properties":{"id":"ke-alisveris-1","kind":"poi","name":"Star City Mall","theme":"alisveris","lab":1},"geometry":{"type":"Point","coordinates":[127.07298,37.53853]}},{"type":"Feature","properties":{"id":"ke-alisveris-2","kind":"poi","name":"Mecenatpolis","theme":"alisveris","lab":1},"geometry":{"type":"Point","coordinates":[126.91378,37.55089]}},{"type":"Feature","properties":{"id":"ke-alisveris-3","kind":"poi","name":"Lotte World","theme":"alisveris","lab":1},"geometry":{"type":"Point","coordinates":[127.09825,37.51132]}},{"type":"Feature","properties":{"id":"ke-alisveris-4","kind":"poi","name":"1898 square","theme":"alisveris","lab":1},"geometry":{"type":"Point","coordinates":[126.98676,37.5642]}},{"type":"Feature","properties":{"id":"ke-alisveris-5","kind":"poi","name":"회현 지하상가 2번 출입구","theme":"alisveris","lab":1},"geometry":{"type":"Point","coordinates":[126.98182,37.56124]}},{"type":"Feature","properties":{"id":"ke-alisveris-6","kind":"poi","name":"스타필드시티 부천점","theme":"alisveris","lab":1},"geometry":{"type":"Point","coordinates":[126.81394,37.46144]}},{"type":"Feature","properties":{"id":"ke-alisveris-7","kind":"poi","name":"롯데프리미엄아울렛의왕점","theme":"alisveris","lab":1},"geometry":{"type":"Point","coordinates":[127.00959,37.37596]}},{"type":"Feature","properties":{"id":"ke-alisveris-8","kind":"poi","name":"롯데몰성복점","theme":"alisveris","lab":1},"geometry":{"type":"Point","coordinates":[127.0817,37.31273]}},{"type":"Feature","properties":{"id":"ke-alisveris-9","kind":"poi","name":"THE HYUNDAI SEOUL","theme":"alisveris","lab":1},"geometry":{"type":"Point","coordinates":[126.92842,37.52596]}},{"type":"Feature","properties":{"id":"ke-alisveris-10","kind":"poi","name":"Starfield Suwon","theme":"alisveris","lab":1},"geometry":{"type":"Point","coordinates":[126.99165,37.28751]}},{"type":"Feature","properties":{"id":"ke-alisveris-11","kind":"poi","name":"Starfield City Wirye","theme":"alisveris","lab":1},"geometry":{"type":"Point","coordinates":[127.14846,37.48007]}},{"type":"Feature","properties":{"id":"ke-alisveris-12","kind":"poi","name":"Shinsegae Department Store","theme":"alisveris","lab":1},"geometry":{"type":"Point","coordinates":[127.00423,37.50501]}},{"type":"Feature","properties":{"id":"ke-alisveris-13","kind":"poi","name":"Shinsegae","theme":"alisveris","lab":1},"geometry":{"type":"Point","coordinates":[127.10812,37.32501]}},{"type":"Feature","properties":{"id":"ke-alisveris-14","kind":"poi","name":"Save Zone Hwajeong Branch","theme":"alisveris","lab":1},"geometry":{"type":"Point","coordinates":[126.83118,37.63442]}},{"type":"Feature","properties":{"id":"ke-alisveris-15","kind":"poi","name":"NC Department Store","theme":"alisveris","lab":1},"geometry":{"type":"Point","coordinates":[127.12584,37.4775]}},{"type":"Feature","properties":{"id":"ke-alisveris-16","kind":"poi","name":"Muji","theme":"alisveris","lab":1},"geometry":{"type":"Point","coordinates":[127.1054,37.51386]}},{"type":"Feature","properties":{"id":"ke-alisveris-17","kind":"poi","name":"MODA - Bupyeong","theme":"alisveris","lab":1},"geometry":{"type":"Point","coordinates":[126.71966,37.49347]}},{"type":"Feature","properties":{"id":"ke-alisveris-18","kind":"poi","name":"Lotte Duty Free","theme":"alisveris","lab":1},"geometry":{"type":"Point","coordinates":[127.05822,37.51303]}},{"type":"Feature","properties":{"id":"ke-alisveris-19","kind":"poi","name":"Lotte Duty Free","theme":"alisveris","lab":1},"geometry":{"type":"Point","coordinates":[126.80032,37.5658]}},{"type":"Feature","properties":{"id":"ke-alisveris-20","kind":"poi","name":"Lotte Department Store","theme":"alisveris","lab":1},"geometry":{"type":"Point","coordinates":[127.14382,37.60269]}},{"type":"Feature","properties":{"id":"ke-alisveris-21","kind":"poi","name":"Lotte Department Store","theme":"alisveris","lab":1},"geometry":{"type":"Point","coordinates":[127.11431,37.37838]}},{"type":"Feature","properties":{"id":"ke-alisveris-22","kind":"poi","name":"Lotte Department Store","theme":"alisveris","lab":1},"geometry":{"type":"Point","coordinates":[127.07142,37.539]}},{"type":"Feature","properties":{"id":"ke-alisveris-23","kind":"poi","name":"Lotte Department Store","theme":"alisveris","lab":1},"geometry":{"type":"Point","coordinates":[127.05327,37.49694]}},{"type":"Feature","properties":{"id":"ke-alisveris-24","kind":"poi","name":"Lotte Department Store","theme":"alisveris","lab":1},"geometry":{"type":"Point","coordinates":[127.04745,37.58065]}},{"type":"Feature","properties":{"id":"ke-alisveris-25","kind":"poi","name":"Lotte Department Store","theme":"alisveris","lab":1},"geometry":{"type":"Point","coordinates":[127.03048,37.61454]}},{"type":"Feature","properties":{"id":"ke-alisveris-26","kind":"poi","name":"Lotte Department Store","theme":"alisveris","lab":1},"geometry":{"type":"Point","coordinates":[126.95038,37.38995]}},{"type":"Feature","properties":{"id":"ke-alisveris-27","kind":"poi","name":"Lotte Department Store","theme":"alisveris","lab":1},"geometry":{"type":"Point","coordinates":[126.95014,37.38854]}},{"type":"Feature","properties":{"id":"ke-alisveris-28","kind":"poi","name":"Lotte Department Store","theme":"alisveris","lab":1},"geometry":{"type":"Point","coordinates":[126.92493,37.49033]}},{"type":"Feature","properties":{"id":"ke-alisveris-29","kind":"poi","name":"Lotte Department Store","theme":"alisveris","lab":1},"geometry":{"type":"Point","coordinates":[126.90691,37.51581]}},{"type":"Feature","properties":{"id":"ke-alisveris-30","kind":"poi","name":"Lotte Department Store","theme":"alisveris","lab":1},"geometry":{"type":"Point","coordinates":[126.80311,37.56324]}},{"type":"Feature","properties":{"id":"ke-alisveris-31","kind":"poi","name":"Lotte Department Store","theme":"alisveris","lab":1},"geometry":{"type":"Point","coordinates":[126.77536,37.50255]}},{"type":"Feature","properties":{"id":"ke-alisveris-32","kind":"poi","name":"Lotte Department Store","theme":"alisveris","lab":1},"geometry":{"type":"Point","coordinates":[126.70144,37.44231]}},{"type":"Feature","properties":{"id":"ke-alisveris-33","kind":"poi","name":"LOTTE department store","theme":"alisveris","lab":1},"geometry":{"type":"Point","coordinates":[127.06115,37.65504]}},{"type":"Feature","properties":{"id":"ke-alisveris-34","kind":"poi","name":"Hyundai","theme":"alisveris","lab":1},"geometry":{"type":"Point","coordinates":[127.12442,37.5389]}},{"type":"Feature","properties":{"id":"ke-otel-0","kind":"poi","name":"Conrad Seoul","theme":"otel","lab":1},"geometry":{"type":"Point","coordinates":[126.92663,37.52537]}},{"type":"Feature","properties":{"id":"ke-otel-1","kind":"poi","name":"ANdAZ","theme":"otel","lab":1},"geometry":{"type":"Point","coordinates":[127.0289,37.52549]}},{"type":"Feature","properties":{"id":"ke-otel-2","kind":"poi","name":"NOVOTEL ambassador Seoul Yongsan","theme":"otel","lab":1},"geometry":{"type":"Point","coordinates":[126.96187,37.532]}},{"type":"Feature","properties":{"id":"ke-otel-3","kind":"poi","name":"JW Marriott Hotel Seoul","theme":"otel","lab":1},"geometry":{"type":"Point","coordinates":[127.00465,37.50414]}},{"type":"Feature","properties":{"id":"ke-otel-4","kind":"poi","name":"Grand InterContinental Seoul Parnas","theme":"otel","lab":1},"geometry":{"type":"Point","coordinates":[127.06069,37.50913]}},{"type":"Feature","properties":{"id":"ke-otel-5","kind":"poi","name":"보코 서울 명동","theme":"otel","lab":1},"geometry":{"type":"Point","coordinates":[126.97856,37.55846]}},{"type":"Feature","properties":{"id":"ke-otel-6","kind":"poi","name":"The-Ore","theme":"otel","lab":1},"geometry":{"type":"Point","coordinates":[126.92035,37.55552]}},{"type":"Feature","properties":{"id":"ke-otel-7","kind":"poi","name":"Sofitel Ambassador Seoul Hotel & Serviced Residences","theme":"otel","lab":1},"geometry":{"type":"Point","coordinates":[127.10619,37.51383]}},{"type":"Feature","properties":{"id":"ke-otel-8","kind":"poi","name":"Signiel Seoul","theme":"otel","lab":1},"geometry":{"type":"Point","coordinates":[127.10282,37.51257]}},{"type":"Feature","properties":{"id":"ke-otel-9","kind":"poi","name":"Oakwood Premier Coex Center, Seoul","theme":"otel","lab":1},"geometry":{"type":"Point","coordinates":[127.05811,37.51099]}},{"type":"Feature","properties":{"id":"ke-otel-10","kind":"poi","name":"Nine Tree by Parnas","theme":"otel","lab":1},"geometry":{"type":"Point","coordinates":[126.98321,37.57455]}},{"type":"Feature","properties":{"id":"ke-otel-11","kind":"poi","name":"Lotte City Hotel Mapo","theme":"otel","lab":1},"geometry":{"type":"Point","coordinates":[126.95067,37.54476]}},{"type":"Feature","properties":{"id":"ke-otel-12","kind":"poi","name":"Imperial Palace Boutique Hotel Itaewon","theme":"otel","lab":1},"geometry":{"type":"Point","coordinates":[126.99824,37.53529]}},{"type":"Feature","properties":{"id":"ke-otel-13","kind":"poi","name":"Handpicked Hotel & Collection","theme":"otel","lab":1},"geometry":{"type":"Point","coordinates":[126.93348,37.50123]}},{"type":"Feature","properties":{"id":"ke-otel-14","kind":"poi","name":"Hamilton Hotel","theme":"otel","lab":1},"geometry":{"type":"Point","coordinates":[126.9938,37.53475]}},{"type":"Feature","properties":{"id":"ke-otel-15","kind":"poi","name":"Dragon Hill Lodge","theme":"otel","lab":1},"geometry":{"type":"Point","coordinates":[126.9813,37.53176]}},{"type":"Feature","properties":{"id":"ke-otel-16","kind":"poi","name":"DoubleTree by Hilton Seoul Pangyo","theme":"otel","lab":1},"geometry":{"type":"Point","coordinates":[127.10399,37.38082]}},{"type":"Feature","properties":{"id":"ke-otel-17","kind":"poi","name":"Courtyard by Marriott Seoul Pan-gyo branch","theme":"otel","lab":1},"geometry":{"type":"Point","coordinates":[127.11051,37.39738]}},{"type":"Feature","properties":{"id":"ke-otel-18","kind":"poi","name":"BOBO HOTEL","theme":"otel","lab":1},"geometry":{"type":"Point","coordinates":[126.91817,37.55234]}},{"type":"Feature","properties":{"id":"ke-otel-19","kind":"poi","name":"UH Flat the Songdo","theme":"otel","lab":1},"geometry":{"type":"Point","coordinates":[126.62919,37.40573]}},{"type":"Feature","properties":{"id":"ke-otel-20","kind":"poi","name":"Seoul Olympic Parktel","theme":"otel","lab":1},"geometry":{"type":"Point","coordinates":[127.11653,37.52217]}},{"type":"Feature","properties":{"id":"ke-otel-21","kind":"poi","name":"Mayfield Hotel","theme":"otel","lab":1},"geometry":{"type":"Point","coordinates":[126.81863,37.54784]}},{"type":"Feature","properties":{"id":"ke-otel-22","kind":"poi","name":"Best Western Premier Seoul Garden Hotel","theme":"otel","lab":1},"geometry":{"type":"Point","coordinates":[126.94842,37.54071]}},{"type":"Feature","properties":{"id":"ke-otel-23","kind":"poi","name":"첼로호텔","theme":"otel","lab":1},"geometry":{"type":"Point","coordinates":[127.13603,37.59775]}},{"type":"Feature","properties":{"id":"ke-otel-24","kind":"poi","name":"위브스위트 선유 파크사이드","theme":"otel","lab":1},"geometry":{"type":"Point","coordinates":[126.89341,37.53852]}},{"type":"Feature","properties":{"id":"ke-otel-25","kind":"poi","name":"ibis Styles Ambassador Incheon Airport","theme":"otel","lab":1},"geometry":{"type":"Point","coordinates":[126.42017,37.48125]}},{"type":"Feature","properties":{"id":"ke-otel-26","kind":"poi","name":"Toyoko INN","theme":"otel","lab":1},"geometry":{"type":"Point","coordinates":[127.00896,37.56468]}},{"type":"Feature","properties":{"id":"ke-otel-27","kind":"poi","name":"The Prima Hotel Hanok Dambakjae Gyedong","theme":"otel","lab":1},"geometry":{"type":"Point","coordinates":[126.98743,37.58263]}},{"type":"Feature","properties":{"id":"ke-otel-28","kind":"poi","name":"TOYOKO INN Seoul Yeongdeongpo","theme":"otel","lab":1},"geometry":{"type":"Point","coordinates":[126.91198,37.51774]}},{"type":"Feature","properties":{"id":"ke-otel-29","kind":"poi","name":"THE LINK SEOUL","theme":"otel","lab":1},"geometry":{"type":"Point","coordinates":[126.88407,37.50547]}},{"type":"Feature","properties":{"id":"ke-yurt-0","kind":"poi","name":"행복기숙사","theme":"yurt","lab":1},"geometry":{"type":"Point","coordinates":[126.66505,37.37038]}},{"type":"Feature","properties":{"id":"ke-yurt-1","kind":"poi","name":"화랑관","theme":"yurt","lab":1},"geometry":{"type":"Point","coordinates":[127.10134,37.62361]}},{"type":"Feature","properties":{"id":"ke-yurt-2","kind":"poi","name":"홍익대학교 제3기숙사","theme":"yurt","lab":1},"geometry":{"type":"Point","coordinates":[126.91424,37.5597]}},{"type":"Feature","properties":{"id":"ke-yurt-3","kind":"poi","name":"해오름동B","theme":"yurt","lab":1},"geometry":{"type":"Point","coordinates":[126.9365,37.64209]}},{"type":"Feature","properties":{"id":"ke-yurt-4","kind":"poi","name":"해오름동A","theme":"yurt","lab":1},"geometry":{"type":"Point","coordinates":[126.9363,37.64176]}},{"type":"Feature","properties":{"id":"ke-yurt-5","kind":"poi","name":"한전 청운재","theme":"yurt","lab":1},"geometry":{"type":"Point","coordinates":[127.06353,37.48437]}},{"type":"Feature","properties":{"id":"ke-yurt-6","kind":"poi","name":"한도병원생활관","theme":"yurt","lab":1},"geometry":{"type":"Point","coordinates":[126.79503,37.33767]}},{"type":"Feature","properties":{"id":"ke-yurt-7","kind":"poi","name":"학군단","theme":"yurt","lab":1},"geometry":{"type":"Point","coordinates":[127.02638,37.59121]}},{"type":"Feature","properties":{"id":"ke-yurt-8","kind":"poi","name":"퍼블릭가산 C동","theme":"yurt","lab":1},"geometry":{"type":"Point","coordinates":[126.88628,37.47502]}},{"type":"Feature","properties":{"id":"ke-yurt-9","kind":"poi","name":"코레일 블루힐기숙사","theme":"yurt","lab":1},"geometry":{"type":"Point","coordinates":[126.96777,37.55355]}},{"type":"Feature","properties":{"id":"ke-yurt-10","kind":"poi","name":"청운학사","theme":"yurt","lab":1},"geometry":{"type":"Point","coordinates":[127.03009,37.75433]}},{"type":"Feature","properties":{"id":"ke-yurt-11","kind":"poi","name":"철원학사 서울","theme":"yurt","lab":1},"geometry":{"type":"Point","coordinates":[127.07442,37.61795]}},{"type":"Feature","properties":{"id":"ke-yurt-12","kind":"poi","name":"진접고등학교기숙사(정진재)","theme":"yurt","lab":1},"geometry":{"type":"Point","coordinates":[127.19087,37.71528]}},{"type":"Feature","properties":{"id":"ke-yurt-13","kind":"poi","name":"중부대학교 창의캠퍼스 수경재","theme":"yurt","lab":1},"geometry":{"type":"Point","coordinates":[126.88771,37.71561]}},{"type":"Feature","properties":{"id":"ke-yurt-14","kind":"poi","name":"제2생활관","theme":"yurt","lab":1},"geometry":{"type":"Point","coordinates":[126.92618,37.58357]}},{"type":"Feature","properties":{"id":"ke-yurt-15","kind":"poi","name":"제1학생생활관","theme":"yurt","lab":1},"geometry":{"type":"Point","coordinates":[127.13515,37.45628]}},{"type":"Feature","properties":{"id":"ke-yurt-16","kind":"poi","name":"정수캠퍼스 기숙사동","theme":"yurt","lab":1},"geometry":{"type":"Point","coordinates":[126.99656,37.5301]}},{"type":"Feature","properties":{"id":"ke-yurt-17","kind":"poi","name":"전라북도 서울장학숙","theme":"yurt","lab":1},"geometry":{"type":"Point","coordinates":[127.0033,37.479]}},{"type":"Feature","properties":{"id":"ke-yurt-18","kind":"poi","name":"인재관","theme":"yurt","lab":1},"geometry":{"type":"Point","coordinates":[126.83543,37.29241]}},{"type":"Feature","properties":{"id":"ke-yurt-19","kind":"poi","name":"인성관","theme":"yurt","lab":1},"geometry":{"type":"Point","coordinates":[127.13939,37.49736]}},{"type":"Feature","properties":{"id":"ke-yurt-20","kind":"poi","name":"운동부숙소","theme":"yurt","lab":1},"geometry":{"type":"Point","coordinates":[126.87331,37.65975]}},{"type":"Feature","properties":{"id":"ke-yurt-21","kind":"poi","name":"우촌학사","theme":"yurt","lab":1},"geometry":{"type":"Point","coordinates":[127.16852,37.44718]}},{"type":"Feature","properties":{"id":"ke-yurt-22","kind":"poi","name":"우촌학사","theme":"yurt","lab":1},"geometry":{"type":"Point","coordinates":[127.0128,37.5878]}},{"type":"Feature","properties":{"id":"ke-yurt-23","kind":"poi","name":"연촌재","theme":"yurt","lab":1},"geometry":{"type":"Point","coordinates":[127.05671,37.6219]}},{"type":"Feature","properties":{"id":"ke-yurt-24","kind":"poi","name":"연연생활관","theme":"yurt","lab":1},"geometry":{"type":"Point","coordinates":[126.83801,37.3317]}},{"type":"Feature","properties":{"id":"ke-ikonik-0","kind":"poi","name":"Gyeongbokgung Palace","theme":"tarihi","lab":1},"geometry":{"type":"Point","coordinates":[126.9769,37.57977]}},{"type":"Feature","properties":{"id":"ke-ikonik-1","kind":"poi","name":"Changdeokgung Palace","theme":"tarihi","lab":1},"geometry":{"type":"Point","coordinates":[126.99093,37.58256]}},{"type":"Feature","properties":{"id":"ke-ikonik-2","kind":"poi","name":"Deoksugung Palace","theme":"tarihi","lab":1},"geometry":{"type":"Point","coordinates":[126.97505,37.56613]}},{"type":"Feature","properties":{"id":"ke-ikonik-3","kind":"poi","name":"Gyeonghuigung Palace","theme":"tarihi","lab":1},"geometry":{"type":"Point","coordinates":[126.96812,37.57091]}},{"type":"Feature","properties":{"id":"ke-ikonik-4","kind":"poi","name":"Jongmyo Shrine","theme":"tarihi","lab":1},"geometry":{"type":"Point","coordinates":[126.99407,37.57476]}},{"type":"Feature","properties":{"id":"ke-ikonik-5","kind":"poi","name":"Unhyeongung","theme":"tarihi","lab":1},"geometry":{"type":"Point","coordinates":[126.98712,37.57618]}},{"type":"Feature","properties":{"id":"ke-ikonik-6","kind":"poi","name":"Sungnyemun (Namdaemun)","theme":"tarihi","lab":1},"geometry":{"type":"Point","coordinates":[126.97536,37.55999]}},{"type":"Feature","properties":{"id":"ke-ikonik-7","kind":"poi","name":"Namsangol Hanok Village","theme":"tarihi","lab":1},"geometry":{"type":"Point","coordinates":[126.99448,37.55928]}},{"type":"Feature","properties":{"id":"ke-ikonik-8","kind":"poi","name":"Seodaemun Prison History Hall","theme":"tarihi","lab":1},"geometry":{"type":"Point","coordinates":[126.95632,37.57454]}},{"type":"Feature","properties":{"id":"ke-ikonik-9","kind":"poi","name":"War Memorial of Korea","theme":"tarihi","lab":1},"geometry":{"type":"Point","coordinates":[126.97705,37.5363]}},{"type":"Feature","properties":{"id":"ke-ikonik-10","kind":"poi","name":"National Museum of Korea","theme":"tarihi","lab":1},"geometry":{"type":"Point","coordinates":[126.98037,37.52393]}},{"type":"Feature","properties":{"id":"ke-ikonik-11","kind":"poi","name":"Ikseon-dong Hanok Street","theme":"tarihi","lab":1},"geometry":{"type":"Point","coordinates":[126.9897,37.57422]}},{"type":"Feature","properties":{"id":"ke-ikonik-12","kind":"poi","name":"Insa-dong","theme":"tarihi","lab":1},"geometry":{"type":"Point","coordinates":[126.98642,37.57165]}},{"type":"Feature","properties":{"id":"ke-ikonik-13","kind":"poi","name":"Dongdaemun Design Plaza","theme":"modern","lab":1},"geometry":{"type":"Point","coordinates":[127.00967,37.56707]}},{"type":"Feature","properties":{"id":"ke-ikonik-14","kind":"poi","name":"63 Square","theme":"modern","lab":1},"geometry":{"type":"Point","coordinates":[126.94025,37.51985]}},{"type":"Feature","properties":{"id":"ke-ikonik-15","kind":"poi","name":"Sejong Center","theme":"modern","lab":1},"geometry":{"type":"Point","coordinates":[126.9756,37.57232]}},{"type":"Feature","properties":{"id":"ke-ikonik-16","kind":"poi","name":"Banpo Bridge","theme":"modern","lab":1},"geometry":{"type":"Point","coordinates":[126.99603,37.51601]}},{"type":"Feature","properties":{"id":"ke-ikonik-17","kind":"poi","name":"Cheonggyecheon","theme":"doga","lab":1},"geometry":{"type":"Point","coordinates":[126.99395,37.56894]}},{"type":"Feature","properties":{"id":"ke-ikonik-18","kind":"poi","name":"Seoul Forest","theme":"doga","lab":1},"geometry":{"type":"Point","coordinates":[127.03738,37.54463]}},{"type":"Feature","properties":{"id":"ke-ikonik-19","kind":"poi","name":"Olympic Park","theme":"doga","lab":1},"geometry":{"type":"Point","coordinates":[127.12243,37.51898]}},{"type":"Feature","properties":{"id":"ke-ikonik-20","kind":"poi","name":"Bukhansan National Park","theme":"doga","lab":1},"geometry":{"type":"Point","coordinates":[126.98832,37.66763]}},{"type":"Feature","properties":{"id":"ke-ikonik-21","kind":"poi","name":"Naksan Park","theme":"doga","lab":1},"geometry":{"type":"Point","coordinates":[127.00721,37.58055]}},{"type":"Feature","properties":{"id":"ke-ikonik-22","kind":"poi","name":"Namdaemun Market","theme":"gastronomi","lab":1},"geometry":{"type":"Point","coordinates":[126.97744,37.55935]}},{"type":"Feature","properties":{"id":"ke-ikonik-23","kind":"poi","name":"Noryangjin Fish Market","theme":"gastronomi","lab":1},"geometry":{"type":"Point","coordinates":[126.93774,37.51475]}},{"type":"Feature","properties":{"id":"ke-ikonik-r0","kind":"poi","name":"Seoullo 7017","theme":"modern","lab":1},"geometry":{"type":"Point","coordinates":[126.97683,37.55774]}}]}