{"type":"FeatureCollection","features":[{"type":"Feature","properties":{"id":"link-icn","kind":"link","subKey":"se.icn.sub","real":true,"via":"AREX"},"geometry":{"type":"LineString","coordinates":[[126.45278,37.44716],[126.45277,37.44718],[126.46235,37.45261],[126.46372,37.45301],[126.46668,37.45354],[126.46908,37.45419],[126.48106,37.46086],[126.48205,37.4615],[126.48355,37.4628],[126.48462,37.4641],[126.485,37.46489],[126.48565,37.4669],[126.48575,37.46757],[126.48572,37.46899],[126.48452,37.47497],[126.48434,37.47702],[126.48439,37.47802],[126.48478,37.47996],[126.48578,37.48246],[126.48651,37.4837],[126.49077,37.48893],[126.50007,37.50108],[126.50212,37.5031],[126.50415,37.50456],[126.5061,37.50561],[126.50795,37.50637],[126.51731,37.50913],[126.52163,37.51069],[126.53063,37.51439],[126.53355,37.51577],[126.53555,37.51709],[126.54401,37.52339],[126.55103,37.52875],[126.55804,37.5341],[126.56173,37.53724],[126.56333,37.53833],[126.56597,37.53966],[126.57811,37.54359],[126.59026,37.54751],[126.6024,37.55144],[126.60802,37.55269],[126.61568,37.55468],[126.62941,37.55742],[126.63263,37.55826],[126.63464,37.55907],[126.63581,37.55969],[126.63734,37.56058],[126.64021,37.56251],[126.64375,37.56452],[126.64827,37.56632],[126.64996,37.56686],[126.65346,37.56772],[126.65643,37.56826],[126.65998,37.56861],[126.67022,37.56888],[126.67921,37.56939],[126.68897,37.56977],[126.69872,37.57015],[126.70848,37.57053],[126.72012,37.57112],[126.73176,37.57172],[126.74031,37.57179],[126.74242,37.57169],[126.74482,37.57139],[126.75203,37.56998],[126.75638,37.56986],[126.75827,37.57],[126.76146,37.57068],[126.77169,37.57504],[126.77375,37.57549],[126.77519,37.57547],[126.77669,37.57531],[126.77805,37.57498],[126.77916,37.57457],[126.78086,37.57361],[126.78541,37.56921],[126.79241,37.56314],[126.79357,37.56248],[126.79517,37.56216],[126.80573,37.5615],[126.8163,37.56085],[126.81752,37.56087],[126.82001,37.56161],[126.83008,37.56703],[126.83182,37.56828],[126.83298,37.56973],[126.83617,37.57652],[126.83759,37.57863],[126.8487,37.59075],[126.85028,37.59219],[126.85233,37.59343],[126.85538,37.59469],[126.85797,37.59517],[126.86038,37.59522],[126.86246,37.59502],[126.86464,37.59453],[126.87804,37.58982],[126.8831,37.58788],[126.88557,37.58613],[126.88705,37.58433],[126.889,37.58303],[126.89247,37.58118],[126.90349,37.57381],[126.90896,37.57068],[126.91393,37.56868],[126.91907,37.56642],[126.91936,37.56621],[126.92605,37.55797],[126.92753,37.55696],[126.93045,37.55562],[126.93674,37.55117],[126.93748,37.55056],[126.93923,37.54835],[126.94058,37.54724],[126.9417,37.54672],[126.94577,37.54539],[126.95446,37.54139],[126.95719,37.53989],[126.95815,37.53955],[126.96277,37.53842],[126.96552,37.53818],[126.96629,37.53835],[126.96785,37.53925],[126.9705,37.54158],[126.97072,37.54197],[126.97093,37.5431],[126.9701,37.54802],[126.96982,37.5519],[126.96992,37.55313],[126.97257,37.55285]]}},{"type":"Feature","properties":{"id":"link-gmp","kind":"link","subKey":"se.gmp.sub","real":true,"via":"Line 9"},"geometry":{"type":"LineString","coordinates":[[126.80139,37.56192],[126.80141,37.56198],[126.80368,37.56182],[126.80683,37.56181],[126.80811,37.562],[126.81035,37.56352],[126.81326,37.56671],[126.8141,37.56727],[126.8151,37.56757],[126.82113,37.56729],[126.82901,37.56663],[126.83244,37.56662],[126.83317,37.56672],[126.83414,37.56708],[126.83635,37.5686],[126.83738,37.56904],[126.83868,37.56923],[126.84005,37.56908],[126.8407,37.56883],[126.85484,37.56133],[126.86273,37.55703],[126.8631,37.55659],[126.86395,37.55195],[126.86417,37.55155],[126.87073,37.54777],[126.87162,37.54741],[126.87379,37.547],[126.87825,37.54725],[126.87984,37.54704],[126.88116,37.54649],[126.88237,37.54556],[126.88425,37.54269],[126.88505,37.54212],[126.88958,37.54017],[126.89225,37.53874],[126.9033,37.53326],[126.90531,37.53231],[126.91448,37.53047],[126.91599,37.5299],[126.91668,37.52938],[126.92136,37.52478],[126.92959,37.5161],[126.93115,37.51511],[126.93297,37.51422],[126.93432,37.5138],[126.93634,37.51341],[126.94499,37.51379],[126.95002,37.51275],[126.95526,37.51314],[126.95641,37.51311],[126.95802,37.51246],[126.96002,37.51194],[126.9612,37.51139],[126.96175,37.51093],[126.96397,37.5084],[126.96543,37.50747],[126.96984,37.50575],[126.97075,37.50559],[126.97211,37.5056],[126.97298,37.50541],[126.97468,37.50474],[126.98184,37.50117],[126.98342,37.50081],[126.98446,37.50086],[126.99165,37.50236],[126.99641,37.50362],[127.00474,37.50608],[127.00492,37.50504]]}},{"type":"Feature","properties":{"id":"link-suseo","kind":"link","subKey":"se.suseo.sub","real":true,"via":"Line 3"},"geometry":{"type":"LineString","coordinates":[[127.10184,37.48742],[127.10174,37.48737],[127.09929,37.48663],[127.09866,37.48632],[127.09713,37.48514],[127.09597,37.48395],[127.09521,37.48362],[127.08883,37.48294],[127.08697,37.48304],[127.08462,37.48356],[127.08374,37.48409],[127.08324,37.48483],[127.0827,37.48666],[127.07951,37.49365],[127.07846,37.49564],[127.0779,37.49618],[127.07681,37.49671],[127.07548,37.49706],[127.07388,37.49725],[127.07305,37.49719],[127.06991,37.49648],[127.06322,37.49445],[127.05394,37.49024],[127.04466,37.48603],[127.03203,37.48426],[127.01941,37.48249],[127.01873,37.48252],[127.01771,37.48291],[127.01728,37.48341],[127.01475,37.48763],[127.01345,37.49463],[127.01275,37.49785],[127.01254,37.49828],[127.01205,37.49885],[127.01142,37.49931],[127.00795,37.50061],[127.007,37.50122],[127.00643,37.5018],[127.00609,37.5024],[127.0049,37.50504],[127.00492,37.50504]]}},{"type":"Feature","properties":{"id":"gate-icn","kind":"gate","name":"Incheon (ICN)","gtype":"air","mode":"plane","subKey":"se.icn.sub","lab":1},"geometry":{"type":"Point","coordinates":[126.45278,37.44716]}},{"type":"Feature","properties":{"id":"gate-gmp","kind":"gate","name":"Gimpo (GMP)","gtype":"air","mode":"plane","subKey":"se.gmp.sub","lab":1},"geometry":{"type":"Point","coordinates":[126.80139,37.56192]}},{"type":"Feature","properties":{"id":"gate-seoulstation","kind":"gate","name":"Seoul Station","gtype":"rail","mode":"train","subKey":"se.seoulstation.sub","lab":1},"geometry":{"type":"Point","coordinates":[126.97257,37.55285]}},{"type":"Feature","properties":{"id":"gate-yongsan","kind":"gate","name":"Yongsan","gtype":"rail","mode":"train","subKey":"se.yongsan.sub","lab":1},"geometry":{"type":"Point","coordinates":[126.96483,37.52995]}},{"type":"Feature","properties":{"id":"gate-suseo","kind":"gate","name":"Suseo (SRT)","gtype":"rail","mode":"train","subKey":"se.suseo.sub","lab":1},"geometry":{"type":"Point","coordinates":[127.10184,37.48742]}},{"type":"Feature","properties":{"id":"gate-expressbus","kind":"gate","name":"Express Bus Terminal","gtype":"bus","mode":"bus","subKey":"se.expressbus.sub","lab":1},"geometry":{"type":"Point","coordinates":[127.00492,37.50504]}},{"type":"Feature","properties":{"id":"gate-dongseoul","kind":"gate","name":"Dong-Seoul Terminal","gtype":"bus","mode":"bus","subKey":"se.dongseoul.sub","lab":1},"geometry":{"type":"Point","coordinates":[127.09474,37.53511]}}]}