{"type":"FeatureCollection","features":[{"type":"Feature","properties":{"id":"dogal-0","kind":"district","btype":"dogal","name":"Parco regionale di Veio","lab":1},"geometry":{"type":"Polygon","coordinates":[[[12.48833,41.97971],[12.48796,41.9808],[12.48874,41.98148],[12.48919,41.97986],[12.49249,41.98056],[12.49354,41.97886],[12.49273,41.98334],[12.49151,41.98333],[12.49039,41.98203],[12.48993,41.98244],[12.49054,41.98647],[12.49131,41.98742],[12.48721,41.98759],[12.47784,41.99019],[12.4781,41.99119],[12.47257,41.99678],[12.47516,41.99849],[12.47476,41.99889],[12.47677,41.99957],[12.47803,42.00119],[12.47974,42.00108],[12.47737,42.00367],[12.47557,42.00323],[12.4699,42.00474],[12.46933,42.0062],[12.47019,42.00799],[12.47551,42.00765],[12.47535,42.0114],[12.47724,42.01187],[12.47903,42.01062],[12.48159,42.01087],[12.48354,42.00792],[12.48594,42.00682],[12.48725,42.00226],[12.49153,42.00264],[12.49392,42.00128],[12.49639,42.00201],[12.49674,42.00283],[12.49618,42.00429],[12.49347,42.00484],[12.48923,42.01087],[12.48871,42.01203],[12.48979,42.01313],[12.48875,42.01759],[12.48831,42.01888],[12.48773,42.01897],[12.48702,42.02258],[12.4849,42.02689],[12.4841,42.03746],[12.48575,42.04221],[12.4851,42.04735],[12.48621,42.05115],[12.48793,42.05112],[12.4883,42.05351],[12.48684,42.05381],[12.48687,42.05968],[12.48284,42.07288],[12.48269,42.07509],[12.47996,42.07479],[12.48142,42.07711],[12.48158,42.07945],[12.48271,42.0794],[12.48137,42.08354],[12.48183,42.08444],[12.48654,42.08614],[12.48943,42.09228],[12.48769,42.0936],[12.48873,42.09459],[12.48832,42.09537],[12.49179,42.0966],[12.48987,42.09937],[12.49133,42.10067],[12.49088,42.10241],[12.49147,42.10386],[12.49295,42.10481],[12.49197,42.1049],[12.49271,42.10635],[12.49194,42.10703],[12.49055,42.1052],[12.48957,42.10521],[12.48835,42.10419],[12.48742,42.10532],[12.48823,42.10597],[12.48688,42.10708],[12.48753,42.10805],[12.48644,42.10866],[12.48739,42.10932],[12.48706,42.11006],[12.49109,42.11068],[12.49106,42.11144],[12.49012,42.11124],[12.49362,42.11344],[12.49254,42.11543],[12.49367,42.11735],[12.49064,42.11906],[12.48988,42.11891],[12.48888,42.11591],[12.48616,42.11598],[12.48632,42.11886],[12.48727,42.11917],[12.48611,42.11993],[12.48616,42.12079],[12.48732,42.12131],[12.48946,42.12105],[12.48933,42.12195],[12.48696,42.12233],[12.48757,42.12491],[12.48861,42.12522],[12.48762,42.12629],[12.49021,42.12658],[12.49011,42.12894],[12.48826,42.13242],[12.48799,42.1373],[12.48465,42.14173],[12.47997,42.14284],[12.47195,42.14309],[12.46639,42.14487],[12.46452,42.14361],[12.46335,42.14172],[12.46331,42.14036],[12.46454,42.13957],[12.46463,42.13864],[12.46129,42.13811],[12.46044,42.13695],[12.45897,42.13742],[12.45748,42.1365],[12.45551,42.13693],[12.45593,42.13511],[12.45162,42.1349],[12.44963,42.13646],[12.44763,42.13413],[12.44724,42.13276],[12.4439,42.13099],[12.44112,42.13131],[12.43952,42.13269],[12.43894,42.13424],[12.43684,42.13499],[12.43444,42.13477],[12.43036,42.13669],[12.42688,42.13645],[12.42379,42.1379],[12.4232,42.13841],[12.42393,42.13935],[12.42321,42.1427],[12.42536,42.14489],[12.42569,42.14716],[12.42921,42.15403],[12.43131,42.15502],[12.43051,42.15603],[12.43035,42.1583],[12.42952,42.15767],[12.42816,42.1586],[12.42617,42.15873],[12.42402,42.1609],[12.42305,42.1632],[12.42136,42.16378],[12.42077,42.16734],[12.42242,42.1724],[12.42049,42.17436],[12.4185,42.17526],[12.41511,42.17954],[12.41119,42.18195],[12.41025,42.18188],[12.40905,42.18069],[12.40952,42.17783],[12.40879,42.17634],[12.40916,42.17449],[12.40786,42.17324],[12.40407,42.17545],[12.40258,42.17523],[12.40127,42.1743],[12.40077,42.1724],[12.40228,42.16927],[12.40067,42.1689],[12.40012,42.16999],[12.3992,42.16886],[12.397,42.16853],[12.39648,42.16767],[12.39692,42.16439],[12.39902,42.16393],[12.40156,42.15995],[12.40108,42.15817],[12.3992,42.15668],[12.39641,42.1566],[12.39536,42.15927],[12.3898,42.15781],[12.38419,42.15864],[12.38504,42.15712],[12.38464,42.15276],[12.38611,42.14941],[12.38784,42.1475],[12.38751,42.1465],[12.38802,42.14538],[12.38558,42.14215],[12.38595,42.13956],[12.38491,42.13807],[12.38614,42.13581],[12.38659,42.13562],[12.38647,42.13673],[12.3877,42.13662],[12.3895,42.13368],[12.39056,42.13328],[12.39205,42.12949],[12.39362,42.12979],[12.3969,42.13272],[12.39994,42.13295],[12.39974,42.13406],[12.40129,42.13578],[12.4054,42.13461],[12.40721,42.13472],[12.40833,42.13393],[12.40956,42.13399],[12.41064,42.1359],[12.4109,42.13441],[12.41275,42.13235],[12.41375,42.1301],[12.41383,42.12493],[12.41443,42.12381],[12.41662,42.12495],[12.41702,42.12905],[12.42229,42.12824],[12.42114,42.12491],[12.42192,42.12175],[12.42433,42.11951],[12.4246,42.11643],[12.42222,42.11525],[12.42179,42.11728],[12.41839,42.11726],[12.4164,42.11357],[12.41464,42.11305],[12.41492,42.11098],[12.41416,42.11042],[12.4096,42.11581],[12.40967,42.11692],[12.40667,42.11831],[12.40811,42.11725],[12.40975,42.11452],[12.40804,42.11432],[12.40681,42.11597],[12.40753,42.11415],[12.41029,42.11304],[12.41034,42.11242],[12.40969,42.1122],[12.41065,42.11177],[12.41075,42.11088],[12.40691,42.10987],[12.40686,42.11241],[12.40554,42.11283],[12.40622,42.11176],[12.40568,42.11113],[12.40607,42.10898],[12.40184,42.10798],[12.39843,42.11012],[12.3991,42.11139],[12.39812,42.11069],[12.39733,42.11162],[12.39717,42.11496],[12.39595,42.1126],[12.39426,42.11339],[12.39255,42.11623],[12.39247,42.11762],[12.39343,42.1195],[12.39223,42.12124],[12.39288,42.11946],[12.39236,42.11869],[12.39174,42.11895],[12.39148,42.12091],[12.39034,42.12069],[12.39164,42.11787],[12.39153,42.1155],[12.39067,42.11545],[12.38836,42.11876],[12.38988,42.1165],[12.39003,42.11477],[12.38734,42.11587],[12.38701,42.11695],[12.38681,42.11617],[12.38494,42.11613],[12.38459,42.11733],[12.38428,42.11612],[12.38297,42.11612],[12.38886,42.11491],[12.38796,42.11343],[12.39005,42.11386],[12.39819,42.10953],[12.39878,42.10755],[12.39747,42.10771],[12.39584,42.10689],[12.39751,42.10584],[12.39404,42.10376],[12.39229,42.10847],[12.38838,42.11089],[12.38662,42.11095],[12.38981,42.1089],[12.39119,42.10595],[12.39208,42.10563],[12.39253,42.10458],[12.39075,42.10323],[12.39014,42.10351],[12.39043,42.10457],[12.38987,42.10544],[12.38841,42.10724],[12.38649,42.10751],[12.3865,42.10888],[12.38406,42.11091],[12.38306,42.1138],[12.38129,42.11536],[12.38157,42.11313],[12.38061,42.11227],[12.36918,42.11019],[12.36729,42.11199],[12.36615,42.11226],[12.36498,42.11028],[12.3658,42.10788],[12.36416,42.10745],[12.36423,42.1056],[12.36814,42.09816],[12.36788,42.09454],[12.36885,42.09301],[12.37577,42.08672],[12.37577,42.08581],[12.37424,42.08367],[12.37382,42.08066],[12.38115,42.081],[12.38298,42.08205],[12.38474,42.08191],[12.38252,42.08125],[12.38083,42.07957],[12.38064,42.07857],[12.38179,42.07774],[12.38041,42.07586],[12.38051,42.07402],[12.38141,42.07267],[12.38038,42.07124],[12.38073,42.06872],[12.37893,42.06361],[12.37907,42.06157],[12.37851,42.06096],[12.37739,42.06145],[12.37727,42.0581],[12.37805,42.05706],[12.37671,42.05526],[12.37476,42.05456],[12.37948,42.05133],[12.37908,42.05097],[12.37464,42.05241],[12.3758,42.04882],[12.37738,42.03525],[12.37528,42.02998],[12.37677,42.02394],[12.378,42.02536],[12.37865,42.02523],[12.37854,42.0241],[12.38162,42.02394],[12.3811,42.02244],[12.37843,42.02253],[12.37839,42.02181],[12.37885,42.02091],[12.38348,42.02068],[12.38261,42.01986],[12.38381,42.01962],[12.38207,42.01849],[12.38292,42.01808],[12.38403,42.01842],[12.38361,42.01915],[12.38444,42.01907],[12.38744,42.02085],[12.38795,42.02072],[12.38735,42.01913],[12.38852,42.02069],[12.38918,42.0198],[12.38901,42.01892],[12.38734,42.01788],[12.3848,42.01776],[12.38498,42.01737],[12.38272,42.01642],[12.38082,42.01627],[12.38135,42.01516],[12.3831,42.01564],[12.38555,42.01316],[12.3845,42.01178],[12.38466,42.01108],[12.3835,42.01084],[12.3811,42.00887],[12.38169,42.00756],[12.38298,42.00746],[12.38324,42.00675],[12.38254,42.00666],[12.38192,42.00483],[12.38458,42.0032],[12.38553,42.00333],[12.38515,42.00282],[12.3857,42.00156],[12.38508,42.0012],[12.39027,41.99655],[12.38968,41.99748],[12.39081,41.99865],[12.39479,41.99739],[12.3943,41.99573],[12.3914,41.99553],[12.39737,41.99111],[12.39818,41.9936],[12.39781,41.99392],[12.39606,41.99281],[12.39553,41.99366],[12.39593,41.99447],[12.39781,41.99514],[12.39776,41.99777],[12.39935,41.99709],[12.40192,41.99465],[12.40263,41.99281],[12.40685,41.99458],[12.40747,41.99374],[12.40486,41.99317],[12.40535,41.99213],[12.40384,41.99144],[12.40427,41.9908],[12.40518,41.99119],[12.40492,41.98986],[12.40693,41.9898],[12.40707,41.98788],[12.40767,41.98769],[12.4074,41.98666],[12.40933,41.98585],[12.41155,41.98828],[12.41328,41.98773],[12.41363,41.98934],[12.41405,41.98925],[12.41393,41.98879],[12.41516,41.98817],[12.41487,41.9869],[12.41606,41.986],[12.41622,41.98471],[12.41732,41.98403],[12.41667,41.98314],[12.4193,41.98067],[12.41917,41.97985],[12.41984,41.98043],[12.42269,41.98009],[12.42279,41.98116],[12.42366,41.98072],[12.43012,41.98105],[12.42737,41.97985],[12.4275,41.97934],[12.42548,41.97758],[12.42491,41.97618],[12.42636,41.97482],[12.42714,41.97695],[12.42829,41.97794],[12.42838,41.97716],[12.43424,41.97401],[12.43779,41.97534],[12.43845,41.97644],[12.43833,41.97773],[12.43944,41.97858],[12.44056,41.97854],[12.4426,41.97701],[12.4454,41.9782],[12.44422,41.97439],[12.44468,41.97247],[12.44619,41.97163],[12.44651,41.97072],[12.45054,41.96926],[12.45343,41.96958],[12.45999,41.96536],[12.45764,41.96433],[12.45543,41.96462],[12.45866,41.96352],[12.45797,41.96127],[12.46065,41.95971],[12.45747,41.95859],[12.45734,41.95699],[12.45423,41.95753],[12.45357,41.95712],[12.45331,41.95798],[12.45232,41.95707],[12.45375,41.95566],[12.45567,41.95493],[12.45746,41.95257],[12.46166,41.95019],[12.46727,41.95087],[12.46993,41.95186],[12.47388,41.95155],[12.47527,41.95066],[12.48448,41.95272],[12.48381,41.95399],[12.48106,41.95593],[12.48432,41.95697],[12.48509,41.95822],[12.48292,41.95881],[12.48251,41.96138],[12.48328,41.96316],[12.48177,41.964],[12.4834,41.96501],[12.48298,41.96407],[12.48472,41.96353],[12.48486,41.9626],[12.48588,41.96255],[12.48605,41.96156],[12.48873,41.96368],[12.48693,41.96582],[12.48702,41.96775],[12.48762,41.96814],[12.48647,41.96858],[12.48726,41.96986],[12.48661,41.97132],[12.48815,41.97255],[12.48526,41.97372],[12.48478,41.97469],[12.483,41.97545],[12.48306,41.97639],[12.48695,41.97731],[12.48784,41.97682],[12.49093,41.9772],[12.48825,41.97806],[12.48833,41.97971]]]}},{"type":"Feature","properties":{"id":"dogal-0-lbl","kind":"district-label","name":"Parco regionale di Veio","lab":1},"geometry":{"type":"Point","coordinates":[12.43045,42.06607]}},{"type":"Feature","properties":{"id":"dogal-1","kind":"district","btype":"dogal","name":"Parco Regionale dei Castelli Romani","lab":1},"geometry":{"type":"Polygon","coordinates":[[[12.67108,41.7666],[12.67123,41.76299],[12.67442,41.7613],[12.68028,41.75593],[12.68623,41.75381],[12.69132,41.74867],[12.69402,41.75146],[12.69447,41.75321],[12.69734,41.75662],[12.69741,41.75876],[12.69892,41.76123],[12.69845,41.76529],[12.70114,41.76945],[12.69919,41.77368],[12.70128,41.77356],[12.703,41.77438],[12.69812,41.78012],[12.69997,41.78479],[12.69871,41.79061],[12.69524,41.79138],[12.69175,41.79086],[12.67821,41.79197],[12.677,41.79162],[12.67585,41.79389],[12.67447,41.79426],[12.67477,41.7953],[12.67394,41.79548],[12.67418,41.79643],[12.67236,41.79526],[12.66934,41.79598],[12.6718,41.79919],[12.66922,41.80081],[12.66894,41.80159],[12.67115,41.80275],[12.67403,41.80275],[12.67652,41.80478],[12.67936,41.80599],[12.67978,41.80677],[12.67611,41.80849],[12.6784,41.81062],[12.6802,41.81061],[12.68492,41.81207],[12.68545,41.81384],[12.68682,41.81472],[12.68793,41.81662],[12.6898,41.81737],[12.69303,41.81727],[12.69872,41.81984],[12.70082,41.81725],[12.69892,41.81641],[12.69986,41.81528],[12.698,41.81436],[12.70061,41.81184],[12.70222,41.81309],[12.71016,41.81367],[12.71182,41.81533],[12.71339,41.81416],[12.71573,41.81387],[12.71572,41.81471],[12.71299,41.81596],[12.7139,41.81777],[12.71682,41.81867],[12.71951,41.81845],[12.71892,41.81685],[12.71656,41.81478],[12.71676,41.81321],[12.71943,41.81201],[12.72092,41.81258],[12.72226,41.81116],[12.72458,41.81194],[12.72704,41.80882],[12.72942,41.80873],[12.72986,41.81019],[12.73287,41.81072],[12.73448,41.80859],[12.7362,41.80752],[12.73569,41.80909],[12.73695,41.81104],[12.73925,41.81135],[12.73958,41.80953],[12.73819,41.80808],[12.73705,41.80804],[12.73671,41.80712],[12.73803,41.80573],[12.74055,41.80566],[12.74211,41.80634],[12.74398,41.80481],[12.74524,41.80755],[12.7487,41.80712],[12.74553,41.80966],[12.74925,41.80866],[12.75098,41.80651],[12.75159,41.80787],[12.753,41.80825],[12.75247,41.81052],[12.75509,41.81031],[12.75403,41.81356],[12.75636,41.81356],[12.76042,41.81468],[12.7597,41.80729],[12.77287,41.80669],[12.77905,41.80382],[12.78134,41.80111],[12.78399,41.80148],[12.78954,41.80507],[12.79159,41.80483],[12.79441,41.80398],[12.79575,41.80291],[12.79757,41.79771],[12.80068,41.7993],[12.80214,41.79935],[12.80314,41.80057],[12.80418,41.79957],[12.8034,41.79827],[12.80348,41.79666],[12.80434,41.79668],[12.80355,41.79399],[12.80403,41.7935],[12.80574,41.79335],[12.80714,41.79212],[12.81181,41.79326],[12.81231,41.79283],[12.80915,41.78887],[12.81025,41.78352],[12.80518,41.77636],[12.80002,41.77604],[12.7991,41.77463],[12.79551,41.77218],[12.7968,41.76788],[12.7954,41.76414],[12.79682,41.76136],[12.79707,41.75595],[12.8221,41.7572],[12.82154,41.75871],[12.8231,41.7593],[12.82853,41.75904],[12.82851,41.75809],[12.8327,41.7574],[12.84126,41.75723],[12.84173,41.75529],[12.84776,41.75034],[12.84778,41.74818],[12.84682,41.7425],[12.84254,41.73947],[12.84178,41.73694],[12.83996,41.73644],[12.84031,41.73358],[12.83934,41.73272],[12.83469,41.73364],[12.83441,41.73421],[12.83111,41.73409],[12.82557,41.73517],[12.82242,41.73272],[12.82305,41.73216],[12.82193,41.7312],[12.81594,41.73002],[12.81829,41.72859],[12.81779,41.7277],[12.81888,41.72706],[12.81484,41.72505],[12.81042,41.72429],[12.81116,41.723],[12.811,41.72121],[12.80725,41.72231],[12.80645,41.72192],[12.80536,41.72426],[12.80378,41.72368],[12.80377,41.7249],[12.80175,41.7266],[12.80005,41.72529],[12.79997,41.72377],[12.79751,41.72366],[12.79763,41.72248],[12.7989,41.72078],[12.79738,41.7205],[12.79545,41.72108],[12.79493,41.72183],[12.79442,41.72152],[12.79517,41.71993],[12.79465,41.71842],[12.7957,41.71665],[12.79434,41.71658],[12.79342,41.71753],[12.79256,41.71761],[12.79246,41.71713],[12.78859,41.71929],[12.7866,41.71947],[12.7872,41.71677],[12.78845,41.71548],[12.78696,41.71471],[12.78616,41.71288],[12.78422,41.71217],[12.78247,41.71253],[12.78114,41.71601],[12.77805,41.71728],[12.7752,41.71586],[12.77504,41.71436],[12.77338,41.71391],[12.77201,41.71154],[12.77058,41.71208],[12.7696,41.71031],[12.76741,41.71058],[12.76678,41.70816],[12.76908,41.70461],[12.76764,41.7044],[12.7653,41.70691],[12.76349,41.70395],[12.76171,41.70326],[12.75914,41.70345],[12.75815,41.70206],[12.75662,41.70204],[12.75564,41.70128],[12.75437,41.70193],[12.75308,41.70143],[12.7515,41.70325],[12.75026,41.70265],[12.74956,41.69702],[12.75215,41.69547],[12.74684,41.69549],[12.74671,41.69212],[12.74157,41.69255],[12.74486,41.68934],[12.74318,41.68941],[12.74184,41.69044],[12.74159,41.69],[12.74215,41.6892],[12.7417,41.68699],[12.73936,41.68395],[12.73896,41.68249],[12.73891,41.67859],[12.73278,41.67761],[12.72565,41.67751],[12.72316,41.67807],[12.72555,41.67461],[12.72171,41.67411],[12.71481,41.67149],[12.70367,41.6719],[12.69487,41.6697],[12.69207,41.67076],[12.68776,41.6756],[12.6903,41.67815],[12.69294,41.67962],[12.6952,41.67962],[12.69576,41.67906],[12.69756,41.68006],[12.69759,41.67744],[12.69812,41.67744],[12.69836,41.67891],[12.69995,41.68118],[12.70329,41.68255],[12.70186,41.68476],[12.70229,41.69405],[12.70426,41.69284],[12.70222,41.69511],[12.70228,41.69943],[12.6983,41.70275],[12.69592,41.7038],[12.69399,41.70279],[12.69166,41.70337],[12.69212,41.70221],[12.68348,41.70489],[12.6836,41.70807],[12.68134,41.7066],[12.67868,41.70292],[12.67115,41.6976],[12.66818,41.69629],[12.66195,41.69647],[12.65874,41.69803],[12.66001,41.70087],[12.66417,41.69984],[12.66742,41.70517],[12.67472,41.708],[12.67113,41.7143],[12.67157,41.71699],[12.66594,41.71914],[12.66278,41.72493],[12.65606,41.73106],[12.65748,41.73099],[12.65962,41.73247],[12.66561,41.73286],[12.66572,41.7334],[12.66048,41.73618],[12.65407,41.74126],[12.65272,41.74357],[12.65178,41.74806],[12.64874,41.74997],[12.64824,41.74658],[12.64544,41.7449],[12.64338,41.7427],[12.6359,41.74941],[12.64126,41.75397],[12.64357,41.75403],[12.64567,41.75574],[12.64661,41.75541],[12.64696,41.75441],[12.64732,41.7558],[12.64663,41.7575],[12.64696,41.75959],[12.64581,41.75912],[12.64435,41.75962],[12.64347,41.76089],[12.63925,41.76127],[12.63771,41.76338],[12.63615,41.76274],[12.63619,41.7656],[12.63533,41.76827],[12.63933,41.77046],[12.63775,41.77141],[12.63716,41.77325],[12.6391,41.77485],[12.64054,41.77484],[12.6416,41.77569],[12.6417,41.77725],[12.64292,41.77623],[12.6433,41.77373],[12.64691,41.77203],[12.64776,41.77475],[12.65202,41.77505],[12.65519,41.7746],[12.65686,41.77333],[12.65811,41.77384],[12.65982,41.77328],[12.65996,41.77382],[12.66134,41.77391],[12.66386,41.77343],[12.6651,41.77245],[12.66477,41.77192],[12.66617,41.77142],[12.66872,41.77255],[12.66926,41.77088],[12.67495,41.77061],[12.68221,41.77143],[12.6835,41.76872],[12.68309,41.76702],[12.68359,41.76542],[12.68099,41.7641],[12.67863,41.76409],[12.67725,41.76492],[12.67591,41.76437],[12.67108,41.7666]]]}},{"type":"Feature","properties":{"id":"dogal-1-lbl","kind":"district-label","name":"Parco Regionale dei Castelli Romani","lab":1},"geometry":{"type":"Point","coordinates":[12.74155,41.74477]}},{"type":"Feature","properties":{"id":"dogal-2","kind":"district","btype":"dogal","name":"Riserva Naturale Statale del Litorale Romano","lab":1},"geometry":{"type":"Polygon","coordinates":[[[12.25747,41.85399],[12.2587,41.85425],[12.25972,41.85186],[12.26239,41.8517],[12.26413,41.85065],[12.28273,41.80444],[12.28445,41.80356],[12.28701,41.80396],[12.3022,41.81288],[12.29167,41.8233],[12.29829,41.82725],[12.29794,41.82948],[12.30289,41.82979],[12.30615,41.82876],[12.30614,41.82805],[12.32012,41.82844],[12.31501,41.82554],[12.32235,41.81797],[12.31645,41.81466],[12.30766,41.82343],[12.30253,41.82053],[12.31119,41.81193],[12.31012,41.81112],[12.32461,41.81249],[12.33586,41.81726],[12.33202,41.82162],[12.32003,41.82883],[12.30936,41.82899],[12.30136,41.83038],[12.29167,41.82939],[12.2881,41.83036],[12.26805,41.84802],[12.2793,41.84839],[12.28277,41.8456],[12.2839,41.84377],[12.28479,41.84354],[12.28561,41.84419],[12.28644,41.8432],[12.28835,41.84564],[12.29555,41.8489],[12.29971,41.84986],[12.29877,41.85145],[12.29892,41.85463],[12.30675,41.85735],[12.31165,41.85703],[12.31362,41.85989],[12.315,41.86],[12.31471,41.8616],[12.31525,41.86167],[12.31551,41.86455],[12.31926,41.86553],[12.31842,41.86647],[12.3183,41.86802],[12.3165,41.86842],[12.31326,41.87087],[12.31465,41.87821],[12.31729,41.88229],[12.31857,41.88658],[12.31382,41.88793],[12.31523,41.88938],[12.3158,41.89191],[12.31541,41.89262],[12.30814,41.89163],[12.30301,41.89212],[12.2988,41.89388],[12.29523,41.89233],[12.28667,41.8966],[12.28736,41.8991],[12.28696,41.9017],[12.28446,41.90308],[12.27363,41.90287],[12.2654,41.90648],[12.26251,41.89977],[12.25648,41.89721],[12.25646,41.89636],[12.2505,41.89193],[12.2506,41.89057],[12.24599,41.88665],[12.24158,41.88664],[12.23315,41.88273],[12.20769,41.90821],[12.19669,41.91693],[12.18688,41.92213],[12.18407,41.91865],[12.17971,41.92089],[12.18022,41.92272],[12.17955,41.92476],[12.17575,41.92989],[12.17361,41.93106],[12.16022,41.93453],[12.15459,41.93516],[12.15193,41.93126],[12.14396,41.92983],[12.13645,41.93004],[12.13055,41.92825],[12.12897,41.92711],[12.12773,41.92505],[12.12617,41.92549],[12.14066,41.91608],[12.14998,41.90725],[12.15098,41.90764],[12.15012,41.90871],[12.15251,41.9098],[12.15471,41.90835],[12.15825,41.90427],[12.16474,41.9056],[12.16563,41.9051],[12.16673,41.9038],[12.16669,41.90181],[12.16967,41.89902],[12.16997,41.89746],[12.169,41.89706],[12.16435,41.89768],[12.16205,41.89507],[12.16223,41.89408],[12.16142,41.89416],[12.16238,41.89303],[12.16401,41.89382],[12.16937,41.88774],[12.16987,41.88796],[12.17021,41.88652],[12.18,41.8736],[12.1781,41.8724],[12.18079,41.86877],[12.18381,41.86874],[12.18771,41.86239],[12.20073,41.8647],[12.20543,41.85902],[12.20372,41.8582],[12.20244,41.85938],[12.19888,41.8574],[12.19724,41.85717],[12.19986,41.85358],[12.20312,41.85483],[12.20436,41.85405],[12.20994,41.84658],[12.2111,41.84699],[12.20586,41.85361],[12.20829,41.8548],[12.21505,41.84629],[12.21201,41.84504],[12.2132,41.84359],[12.21049,41.84225],[12.21152,41.84081],[12.21114,41.83955],[12.21164,41.83595],[12.20448,41.83277],[12.20453,41.83172],[12.20276,41.83155],[12.20576,41.82701],[12.20599,41.82556],[12.20512,41.8255],[12.2058,41.82404],[12.20533,41.82536],[12.20794,41.82156],[12.20731,41.82084],[12.20788,41.82086],[12.20856,41.81956],[12.20849,41.81902],[12.20744,41.81916],[12.20786,41.81813],[12.20775,41.81874],[12.20899,41.81841],[12.2093,41.81754],[12.20858,41.81735],[12.20998,41.81657],[12.21013,41.81574],[12.20937,41.81567],[12.20989,41.8145],[12.20956,41.81552],[12.21017,41.81542],[12.21056,41.81439],[12.20998,41.81426],[12.21056,41.8143],[12.21109,41.81316],[12.21046,41.81342],[12.21068,41.81291],[12.21137,41.8131],[12.21218,41.81202],[12.21245,41.81106],[12.21162,41.81083],[12.21284,41.81015],[12.2128,41.80933],[12.21217,41.80942],[12.21289,41.80927],[12.2131,41.80796],[12.21177,41.80764],[12.21253,41.8073],[12.21326,41.80538],[12.2127,41.8073],[12.21402,41.80622],[12.21422,41.80532],[12.21331,41.80524],[12.21351,41.80461],[12.21414,41.80505],[12.21524,41.8033],[12.21506,41.80274],[12.2141,41.80287],[12.21462,41.80142],[12.21439,41.80248],[12.21556,41.80269],[12.21628,41.80148],[12.21633,41.8003],[12.21519,41.80012],[12.21469,41.80126],[12.21577,41.79802],[12.21522,41.80006],[12.21641,41.80022],[12.2172,41.79859],[12.21712,41.79769],[12.21585,41.79784],[12.21567,41.7974],[12.21677,41.79746],[12.21865,41.79531],[12.22272,41.78834],[12.22296,41.7867],[12.22213,41.78663],[12.22201,41.78561],[12.22291,41.78539],[12.23243,41.7886],[12.23385,41.78437],[12.23816,41.77619],[12.24025,41.77658],[12.21934,41.81649],[12.21737,41.81856],[12.21979,41.81923],[12.22014,41.81846],[12.23163,41.82094],[12.23194,41.81961],[12.24087,41.80515],[12.25801,41.80975],[12.25932,41.81146],[12.26255,41.81239],[12.25791,41.8345],[12.25779,41.8385],[12.25369,41.84904],[12.2585,41.85155],[12.25747,41.85399]]]}},{"type":"Feature","properties":{"id":"dogal-2-lbl","kind":"district-label","name":"Riserva Naturale Statale del Litorale Romano","lab":1},"geometry":{"type":"Point","coordinates":[12.23101,41.85568]}},{"type":"Feature","properties":{"id":"dogal-3","kind":"district","btype":"dogal","name":"Riserva Naturale di Decima Malafede","lab":1},"geometry":{"type":"Polygon","coordinates":[[[12.40778,41.78333],[12.4099,41.78498],[12.41382,41.78609],[12.41991,41.78634],[12.42374,41.78745],[12.42699,41.78637],[12.42765,41.786],[12.42693,41.78573],[12.42657,41.78359],[12.42718,41.78287],[12.42888,41.78255],[12.42901,41.78173],[12.42782,41.78068],[12.42844,41.78001],[12.42639,41.77716],[12.42843,41.7756],[12.43598,41.77262],[12.43723,41.77099],[12.43889,41.77067],[12.43962,41.77077],[12.4413,41.77282],[12.44467,41.77177],[12.44707,41.7758],[12.44994,41.77528],[12.45101,41.77801],[12.44765,41.77961],[12.44835,41.78072],[12.45142,41.77982],[12.45333,41.78062],[12.4539,41.78229],[12.45037,41.78336],[12.45256,41.78668],[12.45285,41.78911],[12.45466,41.79203],[12.45799,41.79113],[12.45979,41.79267],[12.46231,41.79097],[12.46208,41.78675],[12.473,41.78125],[12.47537,41.78265],[12.47811,41.78558],[12.48146,41.78652],[12.48062,41.77708],[12.48335,41.7739],[12.48107,41.77271],[12.46914,41.7751],[12.46826,41.77484],[12.46512,41.77011],[12.4661,41.76898],[12.46536,41.76776],[12.46625,41.76698],[12.46398,41.76543],[12.46289,41.76296],[12.46181,41.76322],[12.46042,41.7612],[12.46171,41.75977],[12.46776,41.75957],[12.47082,41.76053],[12.47709,41.76051],[12.47686,41.75985],[12.4749,41.75964],[12.47409,41.75875],[12.47473,41.75659],[12.47366,41.7553],[12.47845,41.75529],[12.47958,41.75831],[12.47669,41.75908],[12.47712,41.75992],[12.47966,41.76018],[12.47974,41.76152],[12.48224,41.76156],[12.48219,41.76045],[12.48305,41.76047],[12.48474,41.7613],[12.48479,41.7631],[12.48716,41.76329],[12.48716,41.76602],[12.48248,41.76641],[12.48279,41.76846],[12.4848,41.76828],[12.48494,41.76939],[12.48642,41.76972],[12.48612,41.77002],[12.48702,41.77088],[12.495,41.7674],[12.49771,41.76501],[12.49939,41.76232],[12.49566,41.76266],[12.486,41.75987],[12.48597,41.75942],[12.48812,41.75865],[12.49173,41.75901],[12.49415,41.75823],[12.49708,41.76149],[12.49986,41.76133],[12.50007,41.7599],[12.49873,41.75621],[12.50115,41.75208],[12.49679,41.7514],[12.4974,41.74943],[12.49595,41.74908],[12.49617,41.74843],[12.50159,41.74807],[12.50339,41.74503],[12.50346,41.7428],[12.50314,41.74245],[12.49741,41.7448],[12.49707,41.74572],[12.49052,41.74626],[12.48963,41.74355],[12.4902,41.74146],[12.48968,41.74096],[12.48993,41.74043],[12.49314,41.74053],[12.49519,41.73972],[12.49637,41.74024],[12.50162,41.73842],[12.50396,41.73935],[12.50468,41.73596],[12.50369,41.73281],[12.50435,41.72968],[12.50507,41.72902],[12.50075,41.7249],[12.50118,41.72423],[12.50308,41.72289],[12.50662,41.7217],[12.50915,41.72441],[12.50958,41.7263],[12.51585,41.7201],[12.51654,41.71461],[12.51836,41.71174],[12.52317,41.70907],[12.52369,41.70939],[12.5248,41.70759],[12.52684,41.70845],[12.52754,41.70714],[12.5282,41.7071],[12.53138,41.70848],[12.5312,41.70732],[12.52936,41.70581],[12.53227,41.70581],[12.53501,41.70675],[12.53776,41.70561],[12.53799,41.70741],[12.53703,41.71179],[12.5427,41.71274],[12.54433,41.70889],[12.54547,41.70895],[12.54669,41.7079],[12.54348,41.70392],[12.54137,41.70251],[12.53944,41.70208],[12.53931,41.70074],[12.53573,41.70005],[12.53644,41.69821],[12.52462,41.69596],[12.51473,41.68842],[12.50917,41.68647],[12.50405,41.69021],[12.49991,41.69097],[12.49525,41.69414],[12.49542,41.69344],[12.49394,41.69223],[12.48868,41.69045],[12.4668,41.68752],[12.45197,41.68171],[12.44926,41.68431],[12.44733,41.68764],[12.43736,41.69649],[12.42424,41.71024],[12.43216,41.71276],[12.44042,41.71145],[12.44111,41.71111],[12.44003,41.71027],[12.44043,41.70846],[12.44242,41.70584],[12.44454,41.70019],[12.45113,41.7006],[12.44977,41.70435],[12.45242,41.70643],[12.45494,41.70393],[12.45817,41.70701],[12.45016,41.71957],[12.44834,41.72109],[12.44727,41.71968],[12.44831,41.71897],[12.44706,41.71791],[12.44632,41.71838],[12.44684,41.71883],[12.44623,41.71922],[12.44688,41.71981],[12.44646,41.72018],[12.44404,41.71964],[12.44332,41.71883],[12.44455,41.71788],[12.44408,41.71746],[12.44236,41.71796],[12.44129,41.71747],[12.44121,41.71638],[12.44328,41.71451],[12.44253,41.71397],[12.43398,41.71648],[12.43165,41.71561],[12.43078,41.71444],[12.43077,41.71302],[12.42863,41.71217],[12.42799,41.71348],[12.42316,41.7123],[12.42392,41.71408],[12.42663,41.71622],[12.42829,41.71912],[12.42976,41.72038],[12.4308,41.72482],[12.43173,41.73444],[12.43087,41.73761],[12.43187,41.74354],[12.4353,41.74625],[12.43721,41.74883],[12.43663,41.75089],[12.4344,41.75307],[12.43278,41.7573],[12.43523,41.75828],[12.43527,41.76043],[12.43652,41.7613],[12.43637,41.76286],[12.4374,41.76419],[12.4363,41.7685],[12.43282,41.77172],[12.42692,41.77183],[12.42553,41.77374],[12.42126,41.77502],[12.41602,41.77964],[12.41081,41.7811],[12.40778,41.78333]]]}},{"type":"Feature","properties":{"id":"dogal-3-lbl","kind":"district-label","name":"Riserva Naturale di Decima Malafede","lab":1},"geometry":{"type":"Point","coordinates":[12.47724,41.73719]}},{"type":"Feature","properties":{"id":"dogal-4","kind":"district","btype":"dogal","name":"Riserva Naturale Statale Tenuta di Castelporziano","lab":1},"geometry":{"type":"Polygon","coordinates":[[[12.40058,41.77781],[12.40778,41.78333],[12.41081,41.7811],[12.41602,41.77964],[12.42126,41.77502],[12.42553,41.77374],[12.42692,41.77183],[12.4327,41.77176],[12.43596,41.76926],[12.4374,41.76419],[12.43637,41.76286],[12.43652,41.7613],[12.43527,41.76043],[12.43536,41.75847],[12.43292,41.75758],[12.4328,41.75702],[12.4344,41.75307],[12.43702,41.75026],[12.43721,41.74883],[12.4353,41.74625],[12.43187,41.74354],[12.43087,41.73761],[12.43173,41.73444],[12.4308,41.72482],[12.42976,41.72038],[12.42829,41.71912],[12.42663,41.71622],[12.42392,41.71408],[12.42318,41.71206],[12.42562,41.70793],[12.44688,41.6877],[12.45145,41.68172],[12.41714,41.65678],[12.3776,41.6856],[12.3763,41.68624],[12.37673,41.6825],[12.36296,41.69071],[12.34531,41.69962],[12.34829,41.70223],[12.36326,41.71224],[12.37577,41.71905],[12.38648,41.73651],[12.38458,41.74372],[12.38492,41.7468],[12.38761,41.75121],[12.38797,41.75305],[12.38725,41.75473],[12.38042,41.7595],[12.3765,41.75938],[12.40058,41.77781]]]}},{"type":"Feature","properties":{"id":"dogal-4-lbl","kind":"district-label","name":"Riserva Naturale Statale Tenuta di Castelporziano","lab":1},"geometry":{"type":"Point","coordinates":[12.39838,41.72006]}},{"type":"Feature","properties":{"id":"dogal-5","kind":"district","btype":"dogal","name":"Riserva Naturale della Marcigliana","lab":1},"geometry":{"type":"Polygon","coordinates":[[[12.52713,41.98958],[12.5289,42.00307],[12.5301,42.00471],[12.52926,42.00693],[12.52952,42.01052],[12.52732,42.01086],[12.5248,42.01012],[12.52102,42.0109],[12.52699,42.01378],[12.53034,42.01453],[12.53325,42.01633],[12.5363,42.02063],[12.53998,42.02296],[12.55259,42.03526],[12.5569,42.03822],[12.56084,42.03864],[12.56177,42.04035],[12.57052,42.04703],[12.57393,42.05134],[12.57613,42.05058],[12.57922,42.04675],[12.57913,42.04453],[12.57987,42.04293],[12.58196,42.04152],[12.58587,42.03687],[12.58702,42.03732],[12.58695,42.04239],[12.59121,42.03988],[12.59108,42.03741],[12.59348,42.03472],[12.60013,42.02937],[12.59784,42.02546],[12.59912,42.02416],[12.60192,42.02578],[12.60169,42.02835],[12.60395,42.03376],[12.60834,42.03116],[12.61285,42.03029],[12.61261,42.0215],[12.61143,42.02068],[12.60871,42.02067],[12.60566,42.02177],[12.60475,42.02146],[12.60398,42.01978],[12.60417,42.01505],[12.60718,42.01418],[12.60614,42.01228],[12.60614,42.00722],[12.60409,42.00422],[12.59638,42.00144],[12.61851,41.99012],[12.61797,41.99007],[12.61843,41.98964],[12.61806,41.98731],[12.61012,41.9706],[12.60243,41.96821],[12.59465,41.96337],[12.58742,41.9599],[12.58449,41.95929],[12.57888,41.95989],[12.55805,41.96887],[12.55651,41.97388],[12.55659,41.97552],[12.55862,41.97397],[12.56054,41.97537],[12.55894,41.97654],[12.56239,41.97661],[12.56241,41.97551],[12.56408,41.97437],[12.5698,41.9772],[12.56778,41.9794],[12.56659,41.97884],[12.56349,41.98125],[12.57167,41.98671],[12.56919,41.98672],[12.56743,41.98794],[12.56742,41.98888],[12.563,41.99001],[12.56097,41.99183],[12.55246,41.99195],[12.55151,41.99091],[12.55067,41.98575],[12.54982,41.99044],[12.54595,41.99101],[12.5437,41.98685],[12.54168,41.98757],[12.54031,41.986],[12.54182,41.98355],[12.54374,41.97588],[12.53023,41.98229],[12.52919,41.9834],[12.52713,41.98958]]]}},{"type":"Feature","properties":{"id":"dogal-5-lbl","kind":"district-label","name":"Riserva Naturale della Marcigliana","lab":1},"geometry":{"type":"Point","coordinates":[12.56977,42.00532]}},{"type":"Feature","properties":{"id":"dogal-6","kind":"district","btype":"dogal","name":"Riserva Naturale Statale del Litorale Romano","lab":1},"geometry":{"type":"Polygon","coordinates":[[[12.2486,41.74368],[12.25212,41.74381],[12.25134,41.74407],[12.26262,41.74828],[12.27305,41.751],[12.27848,41.75384],[12.27566,41.75695],[12.27007,41.76008],[12.2564,41.77168],[12.2536,41.77242],[12.24866,41.77049],[12.24494,41.76751],[12.24042,41.76737],[12.23802,41.76795],[12.23794,41.76656],[12.23666,41.76665],[12.23608,41.77054],[12.23505,41.77045],[12.23467,41.77168],[12.23972,41.77196],[12.24422,41.77041],[12.24369,41.77335],[12.24248,41.77575],[12.24119,41.77632],[12.24491,41.77785],[12.24401,41.7842],[12.25266,41.78702],[12.25379,41.78857],[12.25512,41.78863],[12.26127,41.78389],[12.27097,41.78701],[12.27194,41.78576],[12.28252,41.79103],[12.28454,41.78922],[12.31424,41.80368],[12.31679,41.80118],[12.33261,41.80165],[12.33959,41.80517],[12.33898,41.81349],[12.38766,41.81782],[12.39236,41.81563],[12.39488,41.81325],[12.39448,41.81179],[12.39642,41.81231],[12.39979,41.81105],[12.40714,41.81202],[12.41247,41.81115],[12.41486,41.81173],[12.41526,41.81121],[12.41578,41.81234],[12.41632,41.81227],[12.41545,41.8094],[12.41717,41.81013],[12.41816,41.81273],[12.42056,41.81148],[12.41885,41.80342],[12.41604,41.79897],[12.41089,41.79707],[12.39934,41.7951],[12.40128,41.79342],[12.40032,41.79158],[12.40219,41.78891],[12.40447,41.78696],[12.40636,41.78641],[12.4083,41.78591],[12.41041,41.78643],[12.41575,41.78932],[12.41532,41.79031],[12.42119,41.79178],[12.42469,41.78845],[12.4213,41.78691],[12.41334,41.7863],[12.40876,41.78476],[12.37394,41.75844],[12.37193,41.75834],[12.37322,41.76205],[12.37196,41.76303],[12.37825,41.76781],[12.37539,41.76941],[12.38893,41.7789],[12.38805,41.77985],[12.38862,41.78266],[12.38707,41.78553],[12.38742,41.78817],[12.39016,41.78797],[12.38979,41.78615],[12.3905,41.78415],[12.39327,41.78188],[12.3998,41.78765],[12.39963,41.78892],[12.39526,41.79202],[12.39466,41.79338],[12.39511,41.79425],[12.38179,41.79165],[12.38137,41.79331],[12.38198,41.79594],[12.37467,41.79944],[12.37235,41.79342],[12.37028,41.791],[12.37008,41.79273],[12.37069,41.79259],[12.37064,41.79325],[12.36832,41.79306],[12.36788,41.79206],[12.36575,41.79091],[12.36413,41.79227],[12.36275,41.7925],[12.36398,41.79317],[12.36302,41.79446],[12.36102,41.79451],[12.36036,41.7932],[12.35997,41.79359],[12.35932,41.79315],[12.35821,41.79488],[12.35886,41.79511],[12.35811,41.79573],[12.35623,41.79557],[12.35518,41.79419],[12.35231,41.79341],[12.35133,41.79212],[12.35125,41.78999],[12.3485,41.78939],[12.34796,41.79101],[12.34595,41.79239],[12.33767,41.79306],[12.33442,41.79145],[12.33313,41.79266],[12.33327,41.79382],[12.33265,41.79443],[12.32635,41.79169],[12.32646,41.79106],[12.3232,41.78881],[12.32261,41.78944],[12.31977,41.78757],[12.31817,41.7889],[12.31616,41.78759],[12.31581,41.7873],[12.31756,41.78582],[12.31646,41.78512],[12.31821,41.78468],[12.31505,41.78258],[12.31597,41.7812],[12.31879,41.78304],[12.32113,41.77956],[12.32467,41.7819],[12.33301,41.77498],[12.32407,41.77215],[12.32169,41.77031],[12.31723,41.7684],[12.31791,41.76738],[12.31654,41.7668],[12.31587,41.76887],[12.31444,41.76877],[12.31241,41.77597],[12.31054,41.7759],[12.31,41.77728],[12.30528,41.77601],[12.30676,41.77282],[12.30256,41.77241],[12.30482,41.76855],[12.29924,41.76496],[12.29903,41.76425],[12.29932,41.761],[12.3003,41.76107],[12.30062,41.75978],[12.30322,41.76055],[12.3037,41.75981],[12.30326,41.75899],[12.29916,41.75458],[12.28908,41.74742],[12.28347,41.74869],[12.28247,41.74705],[12.2875,41.74533],[12.28408,41.74067],[12.28011,41.74177],[12.2797,41.74115],[12.28083,41.74074],[12.27999,41.73927],[12.27697,41.73948],[12.27685,41.73876],[12.27491,41.73855],[12.27384,41.74152],[12.27056,41.74089],[12.27014,41.74209],[12.26519,41.74204],[12.26469,41.74323],[12.25857,41.7418],[12.25809,41.74108],[12.25243,41.74068],[12.25124,41.73853],[12.24321,41.74008],[12.24301,41.74064],[12.24921,41.74195],[12.2486,41.74368]]]}},{"type":"Feature","properties":{"id":"dogal-6-lbl","kind":"district-label","name":"Riserva Naturale Statale del Litorale Romano","lab":1},"geometry":{"type":"Point","coordinates":[12.32968,41.77817]}},{"type":"Feature","properties":{"id":"dogal-7","kind":"district","btype":"dogal","name":"Parco Naturale Regionale Appia Antica","lab":1},"geometry":{"type":"Polygon","coordinates":[[[12.51064,41.84377],[12.50239,41.84041],[12.49211,41.84374],[12.49223,41.846],[12.49436,41.84696],[12.49386,41.84811],[12.49239,41.84824],[12.49244,41.84904],[12.49336,41.84867],[12.49722,41.85136],[12.50379,41.85159],[12.50643,41.85333],[12.509,41.85405],[12.5135,41.85319],[12.51128,41.85555],[12.51029,41.85779],[12.50546,41.86098],[12.505,41.86236],[12.50305,41.86185],[12.50245,41.86541],[12.49977,41.86694],[12.49685,41.867],[12.49714,41.87328],[12.50103,41.87322],[12.50481,41.87518],[12.50867,41.87426],[12.50771,41.87295],[12.51052,41.87162],[12.51182,41.86954],[12.51408,41.8697],[12.51488,41.86867],[12.52035,41.86741],[12.52069,41.87002],[12.52873,41.86552],[12.52812,41.86453],[12.53126,41.86368],[12.53256,41.86233],[12.53417,41.86496],[12.53552,41.86434],[12.53888,41.86189],[12.53492,41.85926],[12.53923,41.85526],[12.54471,41.85334],[12.54612,41.85464],[12.54377,41.86006],[12.54527,41.86057],[12.55067,41.8542],[12.55336,41.85593],[12.55748,41.8536],[12.55787,41.85306],[12.55739,41.85245],[12.5584,41.85159],[12.55919,41.85213],[12.56002,41.85124],[12.5594,41.85077],[12.55978,41.85029],[12.56331,41.8479],[12.56698,41.84992],[12.56791,41.84933],[12.56878,41.84997],[12.57098,41.84837],[12.57294,41.85007],[12.58091,41.84472],[12.58118,41.84402],[12.57901,41.83905],[12.56984,41.8346],[12.5691,41.83401],[12.56837,41.83143],[12.55927,41.8433],[12.55732,41.84243],[12.5557,41.83992],[12.55307,41.84196],[12.55313,41.84413],[12.55149,41.84418],[12.55141,41.84709],[12.55037,41.84909],[12.5497,41.8469],[12.54914,41.84661],[12.54724,41.84781],[12.54607,41.84737],[12.53885,41.84261],[12.5398,41.84207],[12.53903,41.84134],[12.53962,41.83899],[12.54069,41.83817],[12.54164,41.8377],[12.54267,41.83913],[12.54571,41.83944],[12.55139,41.8359],[12.55865,41.82743],[12.55784,41.82533],[12.55999,41.82454],[12.56012,41.82328],[12.56135,41.82328],[12.56336,41.82146],[12.56473,41.8225],[12.56836,41.81871],[12.57079,41.81438],[12.57695,41.80725],[12.59417,41.79043],[12.5957,41.78824],[12.59408,41.78657],[12.6041,41.77763],[12.60521,41.77821],[12.60598,41.77721],[12.60325,41.77549],[12.59749,41.7766],[12.59441,41.77951],[12.59221,41.77977],[12.59251,41.78045],[12.59163,41.78066],[12.59124,41.77986],[12.5899,41.77999],[12.58869,41.77675],[12.58723,41.77673],[12.57835,41.78231],[12.57282,41.78429],[12.57345,41.78536],[12.56931,41.78596],[12.56942,41.78639],[12.56305,41.79057],[12.56329,41.79368],[12.55704,41.79716],[12.55701,41.79898],[12.55609,41.80016],[12.55163,41.80181],[12.54824,41.80205],[12.54786,41.8028],[12.54511,41.80285],[12.54328,41.80462],[12.54078,41.80536],[12.53935,41.80749],[12.53755,41.80819],[12.53721,41.80898],[12.53094,41.80942],[12.52879,41.81178],[12.52771,41.81132],[12.52653,41.81173],[12.52574,41.81298],[12.52264,41.8152],[12.52173,41.81945],[12.51821,41.82402],[12.51843,41.82677],[12.52327,41.82695],[12.52781,41.82501],[12.53222,41.82698],[12.53003,41.82725],[12.5285,41.82887],[12.52431,41.83016],[12.51804,41.83412],[12.51892,41.83602],[12.51884,41.83746],[12.51581,41.84249],[12.51566,41.84423],[12.51429,41.84292],[12.51282,41.84449],[12.51064,41.84377]]]}},{"type":"Feature","properties":{"id":"dogal-7-lbl","kind":"district-label","name":"Parco Naturale Regionale Appia Antica","lab":1},"geometry":{"type":"Point","coordinates":[12.54904,41.82533]}},{"type":"Feature","properties":{"id":"dogal-8","kind":"district","btype":"dogal","name":"Riserva Naturale Statale del Litorale Romano","lab":1},"geometry":{"type":"Polygon","coordinates":[[[12.34829,41.70223],[12.34176,41.70588],[12.32371,41.71281],[12.32421,41.71341],[12.32681,41.7124],[12.30015,41.72466],[12.30074,41.72555],[12.29939,41.72659],[12.30141,41.72773],[12.30217,41.72729],[12.306,41.73019],[12.30568,41.73075],[12.304,41.73242],[12.30334,41.73194],[12.30198,41.73247],[12.30283,41.73374],[12.29662,41.73746],[12.28774,41.74458],[12.29107,41.74846],[12.30325,41.75668],[12.3058,41.75528],[12.30485,41.75446],[12.30625,41.75343],[12.30757,41.75443],[12.30802,41.75357],[12.30882,41.75397],[12.32019,41.74437],[12.32227,41.74525],[12.32352,41.74655],[12.32144,41.74829],[12.33,41.75345],[12.33005,41.75175],[12.32926,41.75168],[12.32973,41.75043],[12.32164,41.74432],[12.33853,41.73059],[12.3397,41.73149],[12.34334,41.72867],[12.34155,41.72779],[12.34324,41.72632],[12.34566,41.72799],[12.34713,41.72682],[12.35739,41.71816],[12.35524,41.71673],[12.35588,41.71619],[12.36038,41.7192],[12.36255,41.71179],[12.34829,41.70223]]]}},{"type":"Feature","properties":{"id":"dogal-8-lbl","kind":"district-label","name":"Riserva Naturale Statale del Litorale Romano","lab":1},"geometry":{"type":"Point","coordinates":[12.32514,41.72946]}},{"type":"Feature","properties":{"id":"dogal-9","kind":"district","btype":"dogal","name":"Riserva Naturale della Tenuta dei Massimi","lab":1},"geometry":{"type":"Polygon","coordinates":[[[12.38175,41.86832],[12.3828,41.86881],[12.38647,41.86645],[12.38972,41.86638],[12.39152,41.86831],[12.39252,41.87129],[12.39359,41.87221],[12.39879,41.87168],[12.39849,41.87026],[12.40134,41.86807],[12.40289,41.86974],[12.40404,41.86932],[12.4058,41.87044],[12.40728,41.86969],[12.40764,41.86885],[12.40687,41.86775],[12.40848,41.865],[12.40496,41.86275],[12.40214,41.85923],[12.39754,41.85764],[12.39908,41.85598],[12.39925,41.85264],[12.40213,41.84993],[12.4035,41.85137],[12.40571,41.85195],[12.40717,41.85475],[12.40683,41.85536],[12.40836,41.85542],[12.40906,41.85592],[12.40882,41.85665],[12.40984,41.85646],[12.41095,41.85762],[12.41414,41.85724],[12.41138,41.85383],[12.40881,41.84921],[12.40549,41.84695],[12.40726,41.84568],[12.40791,41.84351],[12.40945,41.84317],[12.41443,41.83745],[12.41684,41.83267],[12.41592,41.83227],[12.41852,41.83047],[12.41844,41.83],[12.4144,41.8274],[12.41236,41.82712],[12.41116,41.82763],[12.41042,41.82629],[12.40932,41.8259],[12.40732,41.82848],[12.40787,41.83129],[12.4063,41.83217],[12.40368,41.8269],[12.40598,41.82517],[12.40522,41.82421],[12.40361,41.8253],[12.40089,41.82928],[12.40032,41.83037],[12.40064,41.83187],[12.39676,41.83262],[12.39734,41.83412],[12.39598,41.83838],[12.39198,41.84126],[12.39112,41.8391],[12.3864,41.83443],[12.3802,41.85065],[12.38192,41.85333],[12.38621,41.85333],[12.38814,41.85516],[12.38979,41.85459],[12.39334,41.85596],[12.39013,41.85977],[12.38634,41.85749],[12.38566,41.85779],[12.3885,41.86058],[12.3842,41.86044],[12.38332,41.85918],[12.38092,41.85785],[12.37867,41.85902],[12.38076,41.86162],[12.38329,41.8628],[12.38306,41.86461],[12.38091,41.8655],[12.37942,41.86762],[12.38175,41.86832]]]}},{"type":"Feature","properties":{"id":"dogal-9-lbl","kind":"district-label","name":"Riserva Naturale della Tenuta dei Massimi","lab":1},"geometry":{"type":"Point","coordinates":[12.3986,41.84821]}},{"type":"Feature","properties":{"id":"dogal-10","kind":"district","btype":"dogal","name":"Riserva Naturale dell'Insugherata","lab":1},"geometry":{"type":"Polygon","coordinates":[[[12.43529,41.94285],[12.43441,41.944],[12.43511,41.94461],[12.43466,41.94487],[12.43344,41.94371],[12.43375,41.9431],[12.43262,41.94],[12.4307,41.9416],[12.42912,41.94059],[12.42903,41.94116],[12.42853,41.94056],[12.42718,41.94085],[12.42743,41.94128],[12.42624,41.94237],[12.42697,41.94241],[12.42716,41.94347],[12.42826,41.94262],[12.43003,41.94237],[12.43113,41.94311],[12.43154,41.94456],[12.42985,41.94668],[12.4337,41.94861],[12.43446,41.94979],[12.43392,41.95029],[12.43271,41.94942],[12.43097,41.94942],[12.43099,41.9488],[12.42989,41.94945],[12.4299,41.95103],[12.42803,41.95085],[12.42924,41.9479],[12.42874,41.94764],[12.4266,41.94978],[12.42588,41.95144],[12.42429,41.95012],[12.4248,41.94975],[12.42365,41.94929],[12.42477,41.94774],[12.42334,41.94839],[12.42166,41.9472],[12.42232,41.94642],[12.42388,41.94688],[12.42397,41.9464],[12.4223,41.94534],[12.42177,41.94608],[12.42117,41.94585],[12.42078,41.94719],[12.41969,41.9463],[12.4191,41.9475],[12.42017,41.94823],[12.41845,41.94973],[12.41813,41.95133],[12.4163,41.94975],[12.4164,41.95116],[12.41256,41.95055],[12.41253,41.95148],[12.41341,41.95183],[12.41317,41.9526],[12.41228,41.95249],[12.41217,41.95434],[12.41301,41.95423],[12.4131,41.9549],[12.41477,41.95536],[12.41531,41.95464],[12.41717,41.95516],[12.41689,41.9567],[12.41493,41.95882],[12.41232,41.95881],[12.41181,41.95982],[12.41552,41.95994],[12.41417,41.963],[12.4127,41.96222],[12.41308,41.96304],[12.41221,41.96357],[12.40909,41.96197],[12.40888,41.96374],[12.40928,41.965],[12.41142,41.96459],[12.41331,41.96532],[12.4127,41.96627],[12.41348,41.96835],[12.41583,41.96911],[12.41695,41.96833],[12.41744,41.96869],[12.4166,41.96962],[12.41708,41.96998],[12.41665,41.97054],[12.41333,41.96888],[12.41171,41.96996],[12.40995,41.96975],[12.40947,41.97112],[12.40867,41.97073],[12.40801,41.97593],[12.41452,41.97602],[12.41442,41.97709],[12.4119,41.98043],[12.41385,41.98107],[12.41431,41.98083],[12.41376,41.97985],[12.4145,41.97949],[12.41509,41.97994],[12.41613,41.97887],[12.41674,41.97908],[12.41604,41.97827],[12.41686,41.97788],[12.4161,41.97765],[12.41692,41.97682],[12.41861,41.97742],[12.41809,41.97814],[12.41877,41.97889],[12.42029,41.97877],[12.42099,41.97772],[12.42213,41.97863],[12.42336,41.97747],[12.42209,41.97709],[12.42291,41.97615],[12.42447,41.9763],[12.42668,41.97455],[12.42513,41.97238],[12.42605,41.97155],[12.42721,41.97149],[12.42818,41.97244],[12.43003,41.97189],[12.43056,41.97131],[12.42976,41.9706],[12.43201,41.96957],[12.43289,41.97003],[12.43241,41.96773],[12.43465,41.96651],[12.43619,41.96774],[12.43719,41.9665],[12.43813,41.96681],[12.43846,41.96613],[12.43783,41.96574],[12.43892,41.96519],[12.43942,41.9657],[12.44,41.96509],[12.44103,41.96525],[12.44042,41.96558],[12.44115,41.96618],[12.44336,41.96513],[12.44034,41.96478],[12.43985,41.96302],[12.44062,41.96289],[12.44086,41.96411],[12.44221,41.96451],[12.44253,41.96268],[12.44096,41.96228],[12.44195,41.96161],[12.44143,41.9611],[12.44794,41.95765],[12.44745,41.95698],[12.45026,41.956],[12.45204,41.95688],[12.44853,41.9592],[12.44783,41.96102],[12.44886,41.96094],[12.44955,41.95888],[12.45242,41.95839],[12.45267,41.95651],[12.45045,41.95571],[12.45213,41.95411],[12.45098,41.95344],[12.44986,41.95318],[12.4505,41.95415],[12.44768,41.95296],[12.44713,41.95147],[12.44555,41.95249],[12.44314,41.95274],[12.44165,41.95083],[12.44292,41.95034],[12.4415,41.95022],[12.44122,41.94947],[12.44059,41.94981],[12.44075,41.9517],[12.44029,41.95193],[12.43784,41.94872],[12.43788,41.94718],[12.43709,41.94625],[12.43722,41.94537],[12.43828,41.94509],[12.43814,41.94434],[12.43751,41.94444],[12.43825,41.94277],[12.43762,41.94251],[12.43796,41.94211],[12.4342,41.94226],[12.43529,41.94285]]]}},{"type":"Feature","properties":{"id":"dogal-10-lbl","kind":"district-label","name":"Riserva Naturale dell'Insugherata","lab":1},"geometry":{"type":"Point","coordinates":[12.43034,41.96054]}},{"type":"Feature","properties":{"id":"dogal-11","kind":"district","btype":"dogal","name":"Parco Valle dell'Aniene","lab":1},"geometry":{"type":"Polygon","coordinates":[[[12.56024,41.93036],[12.56086,41.93094],[12.55912,41.9315],[12.55913,41.93202],[12.5554,41.93283],[12.55396,41.93181],[12.5524,41.93205],[12.55194,41.93113],[12.55233,41.93006],[12.54904,41.93094],[12.54843,41.93223],[12.54864,41.93301],[12.54947,41.93324],[12.54859,41.93517],[12.54724,41.93476],[12.54275,41.93519],[12.54257,41.93606],[12.54329,41.93661],[12.54268,41.93762],[12.54148,41.93776],[12.54059,41.93473],[12.53889,41.93275],[12.53945,41.9315],[12.54079,41.93091],[12.54059,41.92964],[12.53961,41.92903],[12.53383,41.92963],[12.53101,41.93194],[12.53207,41.93195],[12.53276,41.93355],[12.53365,41.93384],[12.53389,41.93269],[12.53477,41.93252],[12.53528,41.93465],[12.53362,41.93494],[12.53227,41.93631],[12.52223,41.9417],[12.51778,41.94165],[12.51336,41.94406],[12.50881,41.94172],[12.5085,41.93984],[12.50608,41.93899],[12.50505,41.93958],[12.50524,41.94135],[12.50753,41.94205],[12.50337,41.94195],[12.50199,41.94249],[12.50235,41.94317],[12.50177,41.94362],[12.50042,41.94226],[12.49666,41.94168],[12.49666,41.94039],[12.50022,41.94069],[12.50652,41.93819],[12.5084,41.93861],[12.51212,41.94235],[12.51914,41.93824],[12.52178,41.93418],[12.52311,41.93531],[12.52605,41.93339],[12.52763,41.93461],[12.52659,41.93545],[12.52664,41.93617],[12.52781,41.93702],[12.52888,41.93681],[12.53265,41.93484],[12.5298,41.93334],[12.53094,41.93321],[12.52888,41.9306],[12.52855,41.92889],[12.52951,41.92688],[12.53479,41.92654],[12.53552,41.92837],[12.54012,41.92613],[12.5424,41.92692],[12.54375,41.92835],[12.54372,41.93131],[12.54567,41.93077],[12.54707,41.92934],[12.54914,41.92898],[12.54957,41.92832],[12.54887,41.9276],[12.54834,41.92824],[12.54657,41.92791],[12.54779,41.92394],[12.55142,41.92291],[12.55516,41.92406],[12.55516,41.92241],[12.55731,41.92209],[12.55405,41.92141],[12.55301,41.91959],[12.56088,41.9194],[12.56199,41.92075],[12.56205,41.92292],[12.56368,41.92308],[12.56416,41.92442],[12.56799,41.92255],[12.5672,41.9211],[12.56771,41.91931],[12.57034,41.91779],[12.57314,41.91968],[12.57943,41.9173],[12.58191,41.914],[12.58194,41.91059],[12.59246,41.91294],[12.59147,41.91349],[12.59081,41.91276],[12.58991,41.91338],[12.59086,41.91424],[12.58907,41.91573],[12.58944,41.91845],[12.58882,41.92104],[12.58708,41.92118],[12.58729,41.92318],[12.58662,41.92421],[12.58899,41.92431],[12.59007,41.92321],[12.58983,41.9224],[12.59286,41.92083],[12.59712,41.92266],[12.60153,41.918],[12.60281,41.91864],[12.60185,41.92086],[12.60524,41.92225],[12.60766,41.92024],[12.60934,41.91993],[12.60956,41.92232],[12.60578,41.92729],[12.60124,41.92655],[12.59915,41.92765],[12.59392,41.92867],[12.5937,41.9278],[12.59216,41.92803],[12.58988,41.92992],[12.58909,41.9298],[12.58917,41.93036],[12.58652,41.92949],[12.58097,41.93008],[12.57793,41.92671],[12.57912,41.92606],[12.57886,41.9233],[12.57479,41.92304],[12.57291,41.92123],[12.57227,41.92222],[12.57425,41.92398],[12.57105,41.92359],[12.5704,41.92155],[12.5683,41.92311],[12.56861,41.92399],[12.56613,41.92452],[12.56669,41.92549],[12.56597,41.92643],[12.56497,41.92601],[12.56512,41.92775],[12.56409,41.92792],[12.56218,41.92686],[12.56206,41.92587],[12.55968,41.9257],[12.55934,41.92682],[12.55859,41.92697],[12.55884,41.92879],[12.55706,41.92855],[12.55888,41.92892],[12.55931,41.93019],[12.55832,41.93095],[12.56024,41.93036]]]}},{"type":"Feature","properties":{"id":"dogal-11-lbl","kind":"district-label","name":"Parco Valle dell'Aniene","lab":1},"geometry":{"type":"Point","coordinates":[12.55311,41.92732]}},{"type":"Feature","properties":{"id":"dogal-12","kind":"district","btype":"dogal","name":"Riserva Naturale Valle dei Casali","lab":1},"geometry":{"type":"Polygon","coordinates":[[[12.43611,41.87638],[12.43612,41.87584],[12.43704,41.87578],[12.43842,41.8771],[12.43944,41.87714],[12.43938,41.87628],[12.44056,41.87625],[12.44032,41.87518],[12.43864,41.87537],[12.43808,41.87263],[12.43735,41.87231],[12.438,41.87217],[12.43782,41.87157],[12.43713,41.87165],[12.4368,41.87099],[12.43698,41.87043],[12.43897,41.87019],[12.43865,41.86889],[12.43686,41.86903],[12.43655,41.86808],[12.43568,41.86812],[12.43504,41.86585],[12.43404,41.86585],[12.4339,41.86373],[12.43595,41.8636],[12.43597,41.86293],[12.43404,41.86247],[12.43417,41.86149],[12.4354,41.861],[12.43567,41.86231],[12.43792,41.86237],[12.43883,41.85903],[12.43626,41.85836],[12.43604,41.85751],[12.4347,41.85776],[12.43489,41.85507],[12.43427,41.85511],[12.43412,41.85391],[12.43469,41.85387],[12.43458,41.85255],[12.43021,41.85296],[12.43108,41.85223],[12.43078,41.85152],[12.42788,41.85098],[12.4288,41.8495],[12.4304,41.85008],[12.43111,41.84884],[12.43411,41.84968],[12.43467,41.84791],[12.436,41.84778],[12.43666,41.84881],[12.4355,41.84988],[12.43542,41.85164],[12.43651,41.85219],[12.43663,41.8501],[12.43846,41.84622],[12.43957,41.84655],[12.43929,41.84711],[12.44104,41.84831],[12.44007,41.85219],[12.44081,41.85234],[12.44054,41.85307],[12.4438,41.8548],[12.44245,41.85377],[12.44237,41.85297],[12.44357,41.85234],[12.44316,41.85045],[12.44482,41.84599],[12.44402,41.84574],[12.44442,41.84453],[12.44575,41.84501],[12.4458,41.8462],[12.44775,41.84661],[12.44846,41.8456],[12.45099,41.84656],[12.45311,41.84498],[12.45447,41.84567],[12.45285,41.84308],[12.45196,41.84339],[12.45275,41.84295],[12.45213,41.84208],[12.45056,41.84291],[12.44714,41.84043],[12.44853,41.83994],[12.44889,41.84066],[12.45065,41.8399],[12.44732,41.83538],[12.44432,41.83388],[12.4435,41.83379],[12.44335,41.83468],[12.44237,41.83533],[12.44171,41.83427],[12.43951,41.83411],[12.43829,41.83664],[12.43912,41.8394],[12.44191,41.84011],[12.44239,41.83855],[12.44302,41.83953],[12.44236,41.84016],[12.44303,41.8405],[12.44327,41.8426],[12.44229,41.84588],[12.44073,41.84576],[12.44028,41.84663],[12.43852,41.84612],[12.43885,41.84515],[12.4379,41.84484],[12.43597,41.84757],[12.43097,41.84695],[12.43046,41.84772],[12.42698,41.84797],[12.4264,41.8472],[12.42295,41.84887],[12.42693,41.84964],[12.42646,41.85224],[12.42407,41.85148],[12.42427,41.85101],[12.42328,41.85124],[12.42338,41.85176],[12.42695,41.85317],[12.42522,41.85466],[12.42724,41.85594],[12.42623,41.85708],[12.42432,41.85675],[12.42304,41.85847],[12.42137,41.85861],[12.42016,41.85787],[12.42028,41.85882],[12.41951,41.85879],[12.41986,41.86095],[12.42214,41.86395],[12.42327,41.86349],[12.42563,41.86514],[12.42362,41.86563],[12.42255,41.86964],[12.42271,41.87144],[12.42436,41.87122],[12.42599,41.87195],[12.4253,41.87275],[12.4256,41.87363],[12.42312,41.87398],[12.4267,41.874],[12.42676,41.87519],[12.42809,41.87565],[12.42876,41.87523],[12.42929,41.87567],[12.42989,41.87499],[12.43274,41.87735],[12.42844,41.87993],[12.43006,41.88035],[12.42989,41.88124],[12.4257,41.88279],[12.42505,41.88254],[12.42451,41.88329],[12.42657,41.88409],[12.42596,41.88493],[12.42472,41.88444],[12.42473,41.88504],[12.42196,41.88611],[12.42186,41.88845],[12.42441,41.88914],[12.42494,41.88722],[12.42888,41.88927],[12.42882,41.8862],[12.42957,41.8849],[12.42762,41.88392],[12.42667,41.88438],[12.42789,41.8834],[12.42678,41.88249],[12.42825,41.88265],[12.43052,41.88167],[12.43425,41.87793],[12.43636,41.87771],[12.43611,41.87638]]]}},{"type":"Feature","properties":{"id":"dogal-12-lbl","kind":"district-label","name":"Riserva Naturale Valle dei Casali","lab":1},"geometry":{"type":"Point","coordinates":[12.43699,41.86153]}},{"type":"Feature","properties":{"id":"dogal-13","kind":"district","btype":"dogal","name":"Parco Agricolo di Casal del Marmo","lab":1},"geometry":{"type":"Polygon","coordinates":[[[12.40719,41.94137],[12.40984,41.94089],[12.41119,41.94241],[12.40976,41.94319],[12.41181,41.945],[12.41295,41.94448],[12.41365,41.945],[12.41306,41.94574],[12.41362,41.9464],[12.41166,41.94813],[12.41221,41.94871],[12.41158,41.94913],[12.41228,41.94991],[12.41179,41.9539],[12.41213,41.95714],[12.40898,41.95702],[12.4083,41.95867],[12.40742,41.95883],[12.40626,41.9546],[12.40361,41.95607],[12.39665,41.95103],[12.39816,41.94951],[12.39681,41.94829],[12.39492,41.9498],[12.39443,41.9495],[12.39004,41.94319],[12.38718,41.94132],[12.38577,41.93854],[12.38925,41.9379],[12.3932,41.93395],[12.39654,41.93676],[12.39946,41.93741],[12.40018,41.93705],[12.40248,41.92969],[12.40309,41.92941],[12.40311,41.9302],[12.4051,41.93245],[12.41024,41.93443],[12.40641,41.93599],[12.40656,41.93811],[12.40514,41.93969],[12.40719,41.94137]]]}},{"type":"Feature","properties":{"id":"dogal-13-lbl","kind":"district-label","name":"Parco Agricolo di Casal del Marmo","lab":1},"geometry":{"type":"Point","coordinates":[12.39971,41.94412]}},{"type":"Feature","properties":{"id":"dogal-14","kind":"district","btype":"dogal","name":"Parco della Caffarella","lab":1},"geometry":{"type":"Polygon","coordinates":[[[12.50347,41.86656],[12.50199,41.8708],[12.5053,41.87108],[12.50798,41.87287],[12.51052,41.87162],[12.51182,41.86954],[12.51408,41.8697],[12.51488,41.86867],[12.51691,41.86801],[12.52035,41.86741],[12.52069,41.87002],[12.52333,41.86881],[12.52873,41.86552],[12.52812,41.86453],[12.53192,41.86327],[12.53279,41.86197],[12.53206,41.8617],[12.53371,41.86052],[12.53091,41.85555],[12.52701,41.8526],[12.52516,41.85537],[12.51692,41.85826],[12.51337,41.85864],[12.50555,41.86556],[12.50347,41.86656]]]}},{"type":"Feature","properties":{"id":"dogal-14-lbl","kind":"district-label","name":"Parco della Caffarella","lab":1},"geometry":{"type":"Point","coordinates":[12.51785,41.86274]}},{"type":"Feature","properties":{"id":"dogal-15","kind":"district","btype":"dogal","name":"Riserva Naturale dell'Acquafredda","lab":1},"geometry":{"type":"Polygon","coordinates":[[[12.39601,41.89587],[12.39693,41.89581],[12.39632,41.89717],[12.39767,41.89803],[12.39841,41.90025],[12.40035,41.90123],[12.40033,41.90038],[12.40122,41.90041],[12.4019,41.9011],[12.40203,41.90229],[12.39848,41.90108],[12.39734,41.89966],[12.39624,41.90008],[12.39551,41.89886],[12.39412,41.8995],[12.39816,41.90555],[12.4007,41.90776],[12.40663,41.9083],[12.4084,41.90608],[12.40901,41.9046],[12.40828,41.90367],[12.40897,41.90341],[12.40745,41.90241],[12.40561,41.89963],[12.40531,41.89863],[12.40633,41.89799],[12.40077,41.89379],[12.40164,41.89226],[12.40497,41.89248],[12.40658,41.892],[12.40019,41.89063],[12.39791,41.88765],[12.39442,41.88511],[12.39482,41.88414],[12.39232,41.88445],[12.38919,41.88584],[12.38883,41.88752],[12.3896,41.88775],[12.38944,41.88859],[12.38678,41.88732],[12.3826,41.88791],[12.38231,41.88984],[12.38675,41.89219],[12.38864,41.89635],[12.39082,41.89788],[12.3922,41.89831],[12.39449,41.89597],[12.3951,41.89644],[12.39601,41.89587]]]}},{"type":"Feature","properties":{"id":"dogal-15-lbl","kind":"district-label","name":"Riserva Naturale dell'Acquafredda","lab":1},"geometry":{"type":"Point","coordinates":[12.39566,41.89622]}},{"type":"Feature","properties":{"id":"dogal-16","kind":"district","btype":"dogal","name":"Parco Regionale Urbano del Pineto","lab":1},"geometry":{"type":"Polygon","coordinates":[[[12.42801,41.92463],[12.42871,41.92634],[12.43118,41.92615],[12.43042,41.92859],[12.43192,41.93097],[12.43302,41.93463],[12.43348,41.9336],[12.43284,41.93187],[12.43641,41.93304],[12.43492,41.93538],[12.43623,41.93481],[12.43747,41.93568],[12.43847,41.93492],[12.43752,41.93365],[12.43933,41.93245],[12.44048,41.9333],[12.44203,41.93223],[12.44088,41.93014],[12.43752,41.93059],[12.43387,41.92683],[12.43669,41.92121],[12.43615,41.92059],[12.43457,41.92128],[12.4346,41.91917],[12.43402,41.91885],[12.43531,41.91773],[12.43562,41.91627],[12.4344,41.91679],[12.43379,41.91495],[12.43564,41.91458],[12.43614,41.91379],[12.43663,41.9109],[12.43762,41.91045],[12.4359,41.90981],[12.43778,41.90607],[12.4368,41.90578],[12.43573,41.90667],[12.4334,41.90625],[12.43284,41.90425],[12.43071,41.9056],[12.43075,41.90618],[12.42542,41.9057],[12.42521,41.90872],[12.42349,41.91234],[12.42737,41.91505],[12.42782,41.91601],[12.42561,41.91766],[12.42335,41.91687],[12.42285,41.91885],[12.42342,41.92123],[12.42496,41.92377],[12.42441,41.92269],[12.42521,41.92238],[12.42801,41.92463]]]}},{"type":"Feature","properties":{"id":"dogal-16-lbl","kind":"district-label","name":"Parco Regionale Urbano del Pineto","lab":1},"geometry":{"type":"Point","coordinates":[12.43244,41.91996]}},{"type":"Feature","properties":{"id":"dogal-17","kind":"district","btype":"dogal","name":"Riserva Naturale di Monte Mario","lab":1},"geometry":{"type":"Polygon","coordinates":[[[12.4447,41.93201],[12.44618,41.93328],[12.44543,41.93445],[12.44631,41.93478],[12.44601,41.9354],[12.44353,41.93521],[12.44339,41.93578],[12.44595,41.93648],[12.44662,41.93742],[12.44491,41.93787],[12.44434,41.93892],[12.44319,41.9385],[12.44336,41.93906],[12.44523,41.94098],[12.44684,41.93958],[12.44827,41.94027],[12.44925,41.93934],[12.45059,41.93971],[12.45045,41.94214],[12.44958,41.9433],[12.45001,41.94367],[12.45251,41.94204],[12.45316,41.94431],[12.45264,41.94463],[12.45389,41.94453],[12.45431,41.94415],[12.45332,41.94273],[12.45546,41.94312],[12.45711,41.9418],[12.45786,41.93963],[12.4596,41.93985],[12.46023,41.93929],[12.45265,41.93471],[12.45336,41.9308],[12.45506,41.92857],[12.45642,41.92522],[12.45632,41.92218],[12.45524,41.92159],[12.45443,41.92188],[12.4533,41.92052],[12.45564,41.91829],[12.4552,41.91771],[12.45427,41.91794],[12.45482,41.9174],[12.45439,41.91705],[12.45083,41.91841],[12.44904,41.91757],[12.44907,41.91498],[12.44802,41.91408],[12.44858,41.91401],[12.44813,41.91289],[12.44858,41.91271],[12.44809,41.91181],[12.44569,41.91098],[12.44387,41.91181],[12.4476,41.91262],[12.44654,41.91331],[12.44578,41.91775],[12.4468,41.91758],[12.44804,41.91881],[12.44977,41.9188],[12.44802,41.91963],[12.4475,41.92055],[12.44677,41.92032],[12.44722,41.92231],[12.44796,41.92164],[12.44815,41.92447],[12.44614,41.92859],[12.4474,41.92859],[12.44707,41.92912],[12.44829,41.92979],[12.44803,41.93038],[12.44706,41.93001],[12.44657,41.93104],[12.44537,41.93078],[12.4447,41.93201]]]}},{"type":"Feature","properties":{"id":"dogal-17-lbl","kind":"district-label","name":"Riserva Naturale di Monte Mario","lab":1},"geometry":{"type":"Point","coordinates":[12.45171,41.9278]}},{"type":"Feature","properties":{"id":"dogal-18","kind":"district","btype":"dogal","name":"Riserva Naturale del Laurentino - Acqua Acetosa","lab":1},"geometry":{"type":"Polygon","coordinates":[[[12.4569,41.80678],[12.45965,41.81215],[12.46147,41.81428],[12.46288,41.8138],[12.46855,41.81498],[12.46916,41.81427],[12.4671,41.8134],[12.47083,41.81082],[12.47654,41.8113],[12.48077,41.81321],[12.48293,41.81255],[12.48155,41.81169],[12.48003,41.81188],[12.47856,41.81037],[12.48045,41.80941],[12.48086,41.80985],[12.48257,41.80938],[12.48327,41.80786],[12.48267,41.80734],[12.48119,41.80765],[12.4805,41.80643],[12.47993,41.80732],[12.48148,41.80813],[12.48098,41.80904],[12.47907,41.80863],[12.47771,41.80982],[12.47699,41.80912],[12.47667,41.80967],[12.47592,41.8093],[12.47701,41.80674],[12.47856,41.80711],[12.47957,41.80586],[12.48083,41.806],[12.48272,41.8051],[12.48087,41.80158],[12.47601,41.80266],[12.47684,41.80502],[12.4717,41.80454],[12.46882,41.80815],[12.46683,41.80675],[12.46495,41.80804],[12.46464,41.81128],[12.46235,41.81293],[12.45939,41.81061],[12.46057,41.80978],[12.46185,41.80451],[12.46537,41.79958],[12.45621,41.80108],[12.45456,41.80334],[12.45571,41.80553],[12.45712,41.80609],[12.4569,41.80678]]]}},{"type":"Feature","properties":{"id":"dogal-18-lbl","kind":"district-label","name":"Riserva Naturale del Laurentino - Acqua Acetosa","lab":1},"geometry":{"type":"Point","coordinates":[12.46891,41.80728]}},{"type":"Feature","properties":{"id":"dogal-19","kind":"district","btype":"dogal","name":"Villa Ada","lab":1},"geometry":{"type":"Polygon","coordinates":[[[12.4945,41.92848],[12.49577,41.9307],[12.49558,41.93401],[12.4964,41.93518],[12.49747,41.9402],[12.50099,41.94008],[12.50796,41.93659],[12.50904,41.93056],[12.50308,41.92399],[12.50208,41.92357],[12.49745,41.92575],[12.49599,41.9254],[12.49556,41.9262],[12.49618,41.92615],[12.49681,41.92741],[12.49602,41.92754],[12.49613,41.92819],[12.4945,41.92848]]]}},{"type":"Feature","properties":{"id":"dogal-19-lbl","kind":"district-label","name":"Villa Ada","lab":1},"geometry":{"type":"Point","coordinates":[12.50177,41.93188]}},{"type":"Feature","properties":{"id":"dogal-20","kind":"district","btype":"dogal","name":"Monumento naturale di Mazzalupetto – Quarto degli Ebrei","lab":1},"geometry":{"type":"Polygon","coordinates":[[[12.36281,41.95692],[12.36455,41.95736],[12.36693,41.95638],[12.3675,41.9589],[12.37244,41.96237],[12.37262,41.9661],[12.37443,41.96668],[12.37579,41.96852],[12.37894,41.96911],[12.37696,41.96837],[12.37691,41.96381],[12.37809,41.96152],[12.37743,41.96132],[12.37716,41.95921],[12.37783,41.95809],[12.38178,41.95769],[12.37563,41.95384],[12.36893,41.95065],[12.36392,41.9512],[12.36105,41.95244],[12.36281,41.95692]]]}},{"type":"Feature","properties":{"id":"dogal-20-lbl","kind":"district-label","name":"Monumento naturale di Mazzalupetto – Quarto degli Ebrei","lab":1},"geometry":{"type":"Point","coordinates":[12.37141,41.95988]}},{"type":"Feature","properties":{"id":"dogal-21","kind":"district","btype":"dogal","name":"Parco degli Acquedotti","lab":1},"geometry":{"type":"Polygon","coordinates":[[[12.5594,41.85077],[12.55727,41.85257],[12.55787,41.85306],[12.55748,41.8536],[12.55464,41.85527],[12.55136,41.85364],[12.56155,41.84068],[12.56602,41.83846],[12.56984,41.8346],[12.57423,41.8365],[12.56383,41.84751],[12.5594,41.85077]]]}},{"type":"Feature","properties":{"id":"dogal-21-lbl","kind":"district-label","name":"Parco degli Acquedotti","lab":1},"geometry":{"type":"Point","coordinates":[12.5628,41.84493]}},{"type":"Feature","properties":{"id":"dogal-22","kind":"district","btype":"dogal","name":"Villa Borghese","lab":1},"geometry":{"type":"Polygon","coordinates":[[[12.49314,41.91346],[12.49165,41.91143],[12.48983,41.91034],[12.48504,41.90889],[12.48209,41.91033],[12.48109,41.9131],[12.47702,41.91191],[12.47562,41.91396],[12.47629,41.91497],[12.4753,41.91719],[12.47588,41.91828],[12.47896,41.91938],[12.4837,41.91707],[12.48318,41.91618],[12.48484,41.91844],[12.48769,41.91965],[12.49164,41.91809],[12.49086,41.91734],[12.49401,41.91547],[12.49314,41.91346]]]}},{"type":"Feature","properties":{"id":"dogal-22-lbl","kind":"district-label","name":"Villa Borghese","lab":1},"geometry":{"type":"Point","coordinates":[12.48466,41.91427]}},{"type":"Feature","properties":{"id":"dogal-23","kind":"district","btype":"dogal","name":"Villa Doria Pamphilj","lab":1},"geometry":{"type":"Polygon","coordinates":[[[12.44089,41.88842],[12.4406,41.88288],[12.44136,41.88001],[12.44447,41.87929],[12.44998,41.88036],[12.45872,41.8873],[12.45314,41.88891],[12.44092,41.88918],[12.44089,41.88842]]]}},{"type":"Feature","properties":{"id":"dogal-23-lbl","kind":"district-label","name":"Villa Doria Pamphilj","lab":1},"geometry":{"type":"Point","coordinates":[12.44966,41.88424]}},{"type":"Feature","properties":{"id":"dogal-24","kind":"district","btype":"dogal","name":"Monumento Naturale Parco della Cellulosa","lab":1},"geometry":{"type":"Polygon","coordinates":[[[12.35096,41.90294],[12.35267,41.90425],[12.35551,41.90958],[12.3562,41.91314],[12.35562,41.91718],[12.35624,41.91825],[12.35809,41.91907],[12.36232,41.91899],[12.36444,41.91994],[12.36572,41.91952],[12.36621,41.91878],[12.3638,41.91803],[12.36378,41.91649],[12.36247,41.91659],[12.36094,41.91768],[12.35955,41.91737],[12.35867,41.91821],[12.35657,41.91745],[12.35605,41.91653],[12.3566,41.91331],[12.356,41.91059],[12.359,41.91182],[12.36019,41.91063],[12.36092,41.9113],[12.36382,41.91103],[12.36255,41.91013],[12.35948,41.90362],[12.36086,41.90283],[12.35911,41.89939],[12.35562,41.90087],[12.35326,41.90041],[12.35108,41.90115],[12.35121,41.90183],[12.35066,41.90159],[12.35083,41.90088],[12.34898,41.9015],[12.35096,41.90294]]]}},{"type":"Feature","properties":{"id":"dogal-24-lbl","kind":"district-label","name":"Monumento Naturale Parco della Cellulosa","lab":1},"geometry":{"type":"Point","coordinates":[12.35759,41.90966]}},{"type":"Feature","properties":{"id":"dogal-25","kind":"district","btype":"dogal","name":"Villa Doria Pamphilj","lab":1},"geometry":{"type":"Polygon","coordinates":[[[12.43763,41.88033],[12.43617,41.88047],[12.42927,41.88529],[12.42897,41.88916],[12.42952,41.8892],[12.43012,41.89132],[12.44029,41.88921],[12.43999,41.88318],[12.44089,41.88005],[12.43763,41.88033]]]}},{"type":"Feature","properties":{"id":"dogal-25-lbl","kind":"district-label","name":"Villa Doria Pamphilj","lab":1},"geometry":{"type":"Point","coordinates":[12.43493,41.88568]}},{"type":"Feature","properties":{"id":"dogal-26","kind":"district","btype":"dogal","name":"Parco della Serenissima","lab":1},"geometry":{"type":"Polygon","coordinates":[[[12.56597,41.90478],[12.56661,41.90206],[12.54747,41.89824],[12.54472,41.89803],[12.54455,41.89866],[12.54533,41.89885],[12.54273,41.89907],[12.54417,41.90362],[12.54503,41.9034],[12.54506,41.90544],[12.54328,41.90595],[12.54322,41.90669],[12.54539,41.90627],[12.54592,41.90524],[12.54566,41.90394],[12.54721,41.90373],[12.54716,41.90271],[12.54514,41.90198],[12.54609,41.90054],[12.54803,41.90136],[12.54782,41.90246],[12.55003,41.90288],[12.55033,41.90204],[12.55265,41.90246],[12.5524,41.90351],[12.55809,41.90441],[12.56029,41.90309],[12.56597,41.90478]]]}},{"type":"Feature","properties":{"id":"dogal-26-lbl","kind":"district-label","name":"Parco della Serenissima","lab":1},"geometry":{"type":"Point","coordinates":[12.55467,41.90236]}},{"type":"Feature","properties":{"id":"dogal-27","kind":"district","btype":"dogal","name":"Parco delle Sabine","lab":1},"geometry":{"type":"Polygon","coordinates":[[[12.51918,41.97686],[12.51808,41.97615],[12.52637,41.97087],[12.52731,41.96926],[12.52761,41.9661],[12.5295,41.96575],[12.52966,41.96467],[12.53135,41.96543],[12.52913,41.96779],[12.53007,41.96733],[12.5323,41.96919],[12.53102,41.97042],[12.53337,41.97136],[12.53557,41.97046],[12.53594,41.97108],[12.53486,41.97261],[12.5327,41.97216],[12.53093,41.97323],[12.53111,41.97517],[12.53314,41.97663],[12.53124,41.97776],[12.52986,41.97749],[12.52993,41.97665],[12.5282,41.97589],[12.52778,41.97644],[12.52466,41.97667],[12.52233,41.97881],[12.52204,41.97801],[12.52018,41.97779],[12.51918,41.97686]]]}},{"type":"Feature","properties":{"id":"dogal-27-lbl","kind":"district-label","name":"Parco delle Sabine","lab":1},"geometry":{"type":"Point","coordinates":[12.52701,41.97174]}},{"type":"Feature","properties":{"id":"dogal-28","kind":"district","btype":"dogal","name":"Parco di Centocelle","lab":1},"geometry":{"type":"Polygon","coordinates":[[[12.56262,41.87167],[12.56223,41.87033],[12.55724,41.87035],[12.55537,41.87428],[12.55893,41.87497],[12.56932,41.87385],[12.56813,41.87125],[12.56732,41.86652],[12.56868,41.8625],[12.5622,41.86346],[12.56332,41.86608],[12.56334,41.86846],[12.56536,41.86872],[12.56624,41.87003],[12.56417,41.87159],[12.56262,41.87167]]]}},{"type":"Feature","properties":{"id":"dogal-28-lbl","kind":"district-label","name":"Parco di Centocelle","lab":1},"geometry":{"type":"Point","coordinates":[12.56235,41.86874]}},{"type":"Feature","properties":{"id":"dogal-29","kind":"district","btype":"dogal","name":"Parco regionale urbano di Aguzzano","lab":1},"geometry":{"type":"Polygon","coordinates":[[[12.55753,41.93342],[12.55925,41.93417],[12.55968,41.93301],[12.56083,41.93325],[12.56328,41.93211],[12.56343,41.93121],[12.56537,41.93075],[12.56445,41.93257],[12.56658,41.93263],[12.56737,41.93455],[12.56591,41.9346],[12.56551,41.93547],[12.56673,41.9354],[12.57059,41.937],[12.57198,41.94],[12.5742,41.94112],[12.57212,41.94242],[12.57028,41.94189],[12.57039,41.94135],[12.56608,41.93948],[12.56659,41.93875],[12.5637,41.93765],[12.56244,41.93779],[12.56294,41.93681],[12.56043,41.93585],[12.55995,41.93678],[12.55918,41.93657],[12.55938,41.93617],[12.55682,41.93483],[12.55753,41.93342]]]}},{"type":"Feature","properties":{"id":"dogal-29-lbl","kind":"district-label","name":"Parco regionale urbano di Aguzzano","lab":1},"geometry":{"type":"Point","coordinates":[12.56551,41.93659]}},{"type":"Feature","properties":{"id":"dogal-30","kind":"district","btype":"dogal","name":"Pratone di Torre Spaccata","lab":1},"geometry":{"type":"Polygon","coordinates":[[[12.56935,41.86847],[12.57254,41.86762],[12.57253,41.86696],[12.57411,41.86677],[12.58262,41.86134],[12.58468,41.86149],[12.58512,41.86063],[12.58425,41.85989],[12.58483,41.85996],[12.58438,41.85763],[12.58224,41.85838],[12.58255,41.85771],[12.58086,41.85903],[12.57739,41.86026],[12.57206,41.86426],[12.57164,41.86393],[12.56812,41.86534],[12.5683,41.86876],[12.56935,41.86847]]]}},{"type":"Feature","properties":{"id":"dogal-30-lbl","kind":"district-label","name":"Pratone di Torre Spaccata","lab":1},"geometry":{"type":"Point","coordinates":[12.57662,41.8632]}},{"type":"Feature","properties":{"id":"dogal-31","kind":"district","btype":"dogal","name":"Parco Giovanni Palatucci","lab":1},"geometry":{"type":"Polygon","coordinates":[[[12.58605,41.87692],[12.58576,41.87896],[12.59011,41.87918],[12.5901,41.87971],[12.59117,41.87975],[12.59169,41.88136],[12.59105,41.88167],[12.59047,41.88084],[12.58576,41.88004],[12.58447,41.88029],[12.58422,41.88266],[12.58537,41.88344],[12.58476,41.88342],[12.58471,41.88398],[12.5857,41.88442],[12.58888,41.88382],[12.58899,41.88497],[12.58601,41.88492],[12.58406,41.88583],[12.58336,41.88739],[12.58437,41.88822],[12.58346,41.88835],[12.58386,41.89109],[12.58494,41.89069],[12.58475,41.89134],[12.58106,41.89188],[12.58055,41.88984],[12.57954,41.88994],[12.58015,41.88863],[12.57957,41.88853],[12.58058,41.88782],[12.57946,41.88773],[12.57951,41.88726],[12.58113,41.88668],[12.58133,41.88364],[12.58376,41.88304],[12.58409,41.88213],[12.58341,41.88133],[12.58161,41.88163],[12.58256,41.88182],[12.58269,41.88049],[12.58205,41.87944],[12.58384,41.87954],[12.58605,41.87692]]]}},{"type":"Feature","properties":{"id":"dogal-32","kind":"district","btype":"dogal","name":"Riserva Naturale Statale del Litorale Romano","lab":1},"geometry":{"type":"Polygon","coordinates":[[[12.41503,41.6566],[12.41592,41.65738],[12.40494,41.66499],[12.40259,41.66762],[12.39134,41.67545],[12.3899,41.67427],[12.40289,41.66521],[12.40559,41.66265],[12.41503,41.6566]]]}},{"type":"Feature","properties":{"id":"dogal-33","kind":"district","btype":"dogal","name":"Riserva Naturale dell'Insugherata","lab":1},"geometry":{"type":"Polygon","coordinates":[[[12.40845,41.96993],[12.40538,41.96974],[12.40047,41.96672],[12.39986,41.96901],[12.40012,41.97123],[12.40117,41.97187],[12.40169,41.97314],[12.40649,41.97644],[12.40757,41.97625],[12.40754,41.97299],[12.40845,41.96993]]]}},{"type":"Feature","properties":{"id":"dogal-34","kind":"district","btype":"dogal","name":"Tenuta di Tor Marancia","lab":1},"geometry":{"type":"Polygon","coordinates":[[[12.50865,41.84793],[12.50555,41.8499],[12.50643,41.85333],[12.51014,41.85413],[12.51337,41.85319],[12.51479,41.85087],[12.5148,41.84868],[12.50865,41.84793]]]}},{"type":"Feature","properties":{"id":"dogal-35","kind":"district","btype":"dogal","name":"Parco Valle dell'Aniene","lab":1},"geometry":{"type":"Polygon","coordinates":[[[12.51153,41.94309],[12.51336,41.94406],[12.51778,41.94165],[12.52223,41.94172],[12.52571,41.93956],[12.52493,41.93887],[12.52599,41.93804],[12.52344,41.9356],[12.52149,41.93608],[12.52091,41.93852],[12.51572,41.94089],[12.51418,41.94238],[12.51153,41.94309]]]}},{"type":"Feature","properties":{"id":"dogal-36","kind":"district","btype":"dogal","name":"Monumento Naturale di Galeria Antica","lab":1},"geometry":{"type":"Polygon","coordinates":[[[12.29935,42.03123],[12.30086,42.03171],[12.30178,42.03097],[12.30203,42.02794],[12.30297,42.02637],[12.30196,42.0257],[12.30184,42.02157],[12.30024,42.02045],[12.301,42.01932],[12.30021,42.01987],[12.29909,42.01931],[12.29959,42.01862],[12.29896,42.01743],[12.29809,42.01817],[12.29763,42.02062],[12.29928,42.02225],[12.29797,42.02397],[12.30107,42.02862],[12.3006,42.02967],[12.29789,42.03115],[12.29935,42.03123]]]}},{"type":"Feature","properties":{"id":"dogal-37","kind":"district","btype":"dogal","name":"Parco Talenti","lab":1},"geometry":{"type":"Polygon","coordinates":[[[12.55711,41.95328],[12.55717,41.95681],[12.55637,41.95666],[12.55539,41.95899],[12.55419,41.95914],[12.55458,41.95764],[12.55259,41.95789],[12.55218,41.95745],[12.55249,41.95515],[12.55196,41.95376],[12.55503,41.95332],[12.55405,41.95088],[12.55652,41.94969],[12.56065,41.95164],[12.55711,41.95328]]]}},{"type":"Feature","properties":{"id":"dogal-38","kind":"district","btype":"dogal","name":"Parco Archeologico Ponte Di Nona","lab":1},"geometry":{"type":"Polygon","coordinates":[[[12.65881,41.91552],[12.65954,41.91709],[12.6606,41.91572],[12.65894,41.91459],[12.65932,41.91386],[12.65873,41.91362],[12.66021,41.9122],[12.65804,41.91189],[12.65293,41.91278],[12.65212,41.91341],[12.65012,41.9118],[12.64962,41.91271],[12.65241,41.91616],[12.6566,41.91645],[12.65736,41.9179],[12.65795,41.91773],[12.65757,41.91629],[12.65881,41.91552]]]}},{"type":"Feature","properties":{"id":"dogal-39","kind":"district","btype":"dogal","name":"Riserva Naturale di Monte Mario","lab":1},"geometry":{"type":"Polygon","coordinates":[[[12.44068,41.90882],[12.44054,41.90833],[12.43864,41.90832],[12.43806,41.90883],[12.43807,41.90763],[12.43726,41.90731],[12.43837,41.90468],[12.43996,41.90293],[12.44293,41.90413],[12.44233,41.90661],[12.44422,41.90823],[12.44383,41.90844],[12.44447,41.90885],[12.44449,41.91084],[12.44352,41.91124],[12.44368,41.90951],[12.44249,41.91057],[12.44068,41.90882]]]}},{"type":"Feature","properties":{"id":"dogal-40","kind":"district","btype":"dogal","name":"Parco del Castellaccio","lab":1},"geometry":{"type":"Polygon","coordinates":[[[12.45546,41.8151],[12.45763,41.81525],[12.46046,41.81446],[12.4591,41.81222],[12.45511,41.80937],[12.45188,41.8149],[12.45303,41.8154],[12.45317,41.81495],[12.45546,41.8151]]]}},{"type":"Feature","properties":{"id":"dogal-41","kind":"district","btype":"dogal","name":"Parco Centrale del Lago","lab":1},"geometry":{"type":"Polygon","coordinates":[[[12.46641,41.8296],[12.46933,41.82921],[12.47218,41.82791],[12.47091,41.82591],[12.46917,41.82643],[12.46933,41.8274],[12.46785,41.82565],[12.46582,41.82632],[12.46641,41.82825],[12.46561,41.82745],[12.46279,41.82868],[12.46098,41.82854],[12.46066,41.82942],[12.46134,41.83157],[12.46641,41.8296]]]}},{"type":"Feature","properties":{"id":"dogal-42","kind":"district","btype":"dogal","name":"Comprensorio Santa Maria della Pietà","lab":1},"geometry":{"type":"Polygon","coordinates":[[[12.41238,41.93943],[12.41581,41.94163],[12.41916,41.9414],[12.42024,41.93935],[12.41659,41.93582],[12.41439,41.93688],[12.41437,41.93779],[12.41238,41.93943]]]}},{"type":"Feature","properties":{"id":"dogal-43","kind":"district","btype":"dogal","name":"Villa dei Quintili","lab":1},"geometry":{"type":"Polygon","coordinates":[[[12.54647,41.82921],[12.54881,41.8271],[12.55567,41.8306],[12.55378,41.83268],[12.55271,41.83279],[12.54803,41.83019],[12.54744,41.83099],[12.54501,41.83048],[12.54647,41.82921]]]}},{"type":"Feature","properties":{"id":"dogal-44","kind":"district","btype":"dogal","name":"Villa Mondragone","lab":1},"geometry":{"type":"Polygon","coordinates":[[[12.68856,41.81284],[12.69017,41.81138],[12.68953,41.811],[12.69063,41.81116],[12.69555,41.80789],[12.6942,41.80595],[12.69828,41.80754],[12.69751,41.80914],[12.69873,41.80885],[12.69767,41.8103],[12.69511,41.81101],[12.69215,41.81399],[12.69238,41.81346],[12.69036,41.81244],[12.68856,41.81284]]]}},{"type":"Feature","properties":{"id":"dogal-45","kind":"district","btype":"dogal","name":"Parco Volusia","lab":1},"geometry":{"type":"Polygon","coordinates":[[[12.43412,41.97387],[12.43169,41.97517],[12.4326,41.97582],[12.43295,41.97539],[12.43468,41.97779],[12.43869,41.9801],[12.44325,41.97916],[12.44515,41.97944],[12.44615,41.9784],[12.44291,41.97805],[12.43905,41.979],[12.43771,41.97745],[12.43817,41.97585],[12.43412,41.97387]]]}},{"type":"Feature","properties":{"id":"dogal-46","kind":"district","btype":"dogal","name":"Parco delle Sabine","lab":1},"geometry":{"type":"Polygon","coordinates":[[[12.52445,41.98055],[12.52248,41.97901],[12.52457,41.97699],[12.52642,41.97645],[12.52702,41.97703],[12.52761,41.97665],[12.52671,41.978],[12.52909,41.97748],[12.52661,41.97822],[12.52825,41.97892],[12.52749,41.97904],[12.52787,41.98034],[12.52967,41.97962],[12.53119,41.98028],[12.52417,41.98316],[12.523,41.98129],[12.52445,41.98055]]]}},{"type":"Feature","properties":{"id":"dogal-47","kind":"district","btype":"dogal","name":"Villa Glori","lab":1},"geometry":{"type":"Polygon","coordinates":[[[12.48255,41.92903],[12.48094,41.92845],[12.4775,41.9288],[12.47673,41.93089],[12.4788,41.93317],[12.48031,41.93344],[12.48371,41.93147],[12.48381,41.9302],[12.48255,41.92903]]]}},{"type":"Feature","properties":{"id":"dogal-48","kind":"district","btype":"dogal","name":"Parco dei Fumetti","lab":1},"geometry":{"type":"Polygon","coordinates":[[[12.42296,41.80267],[12.42226,41.80277],[12.42209,41.80371],[12.42082,41.80336],[12.42295,41.80085],[12.42302,41.79792],[12.42542,41.79584],[12.42533,41.79654],[12.42605,41.79662],[12.4265,41.79533],[12.42751,41.7954],[12.42742,41.79744],[12.43031,41.79762],[12.42986,41.79968],[12.42449,41.79922],[12.42361,41.80116],[12.42507,41.80174],[12.42451,41.80242],[12.42296,41.80267]]]}},{"type":"Feature","properties":{"id":"dogal-49","kind":"district","btype":"dogal","name":"Parco delle Sabine","lab":1},"geometry":{"type":"Polygon","coordinates":[[[12.52034,41.97071],[12.52129,41.97251],[12.5219,41.97257],[12.52414,41.96864],[12.52684,41.96629],[12.52333,41.96681],[12.52227,41.9664],[12.52196,41.96722],[12.52086,41.96753],[12.51966,41.96709],[12.51992,41.96829],[12.51866,41.96966],[12.52051,41.96971],[12.52034,41.97071]]]}},{"type":"Feature","properties":{"id":"dogal-50","kind":"district","btype":"dogal","name":"Parco della Madonnetta","lab":1},"geometry":{"type":"Polygon","coordinates":[[[12.37126,41.77211],[12.35785,41.76752],[12.35704,41.76891],[12.37128,41.77336],[12.3719,41.77236],[12.37126,41.77211]]]}},{"type":"Feature","properties":{"id":"dogal-51","kind":"district","btype":"dogal","name":"Riserva Naturale della Tenuta dei Massimi","lab":1},"geometry":{"type":"Polygon","coordinates":[[[12.41601,41.8277],[12.41778,41.82658],[12.41873,41.82742],[12.41978,41.82675],[12.41852,41.82341],[12.41174,41.82474],[12.41601,41.8277]]]}},{"type":"Feature","properties":{"id":"dogal-52","kind":"district","btype":"dogal","name":"Villa Borghese","lab":1},"geometry":{"type":"Polygon","coordinates":[[[12.48023,41.90949],[12.48268,41.90802],[12.4832,41.90674],[12.48405,41.90722],[12.48438,41.90609],[12.48569,41.90628],[12.48606,41.90761],[12.48793,41.90921],[12.48521,41.90777],[12.48166,41.91034],[12.48086,41.91286],[12.47708,41.91173],[12.48023,41.90949]]]}},{"type":"Feature","properties":{"id":"dogal-53","kind":"district","btype":"dogal","name":"Parco Campagna","lab":1},"geometry":{"type":"Polygon","coordinates":[[[12.44498,41.7837],[12.44723,41.78332],[12.44998,41.78764],[12.44918,41.78795],[12.44929,41.78862],[12.44867,41.78868],[12.44825,41.78763],[12.44671,41.78811],[12.44591,41.78755],[12.4483,41.78679],[12.44484,41.78602],[12.4452,41.78504],[12.44379,41.78471],[12.4437,41.78275],[12.44219,41.78212],[12.44161,41.78086],[12.44351,41.78073],[12.44385,41.78142],[12.44469,41.78142],[12.44385,41.78222],[12.44498,41.7837]]]}}]}