{"type":"FeatureCollection","features":[{"type":"Feature","properties":{"id":"otel-termini","kind":"district","name":"Termini","lab":1,"budget":1},"geometry":{"type":"Polygon","coordinates":[[[12.51206,41.899],[12.50851,41.90336],[12.50358,41.90535],[12.49799,41.90641],[12.49355,41.90333],[12.49197,41.899],[12.49407,41.89497],[12.49815,41.89197],[12.5044,41.89064],[12.50953,41.89404],[12.51206,41.899]]]}},{"type":"Feature","properties":{"id":"otel-termini-lbl","kind":"district-label","name":"Termini","lab":1},"geometry":{"type":"Point","coordinates":[12.501,41.899]}},{"type":"Feature","properties":{"id":"otel-centro","kind":"district","name":"Centro Storico","lab":1,"budget":3},"geometry":{"type":"Polygon","coordinates":[[[12.4851,41.8985],[12.48353,41.90427],[12.47706,41.90635],[12.47013,41.90842],[12.46348,41.90487],[12.46389,41.8985],[12.465,41.89305],[12.47057,41.88971],[12.47777,41.88882],[12.4839,41.89251],[12.4851,41.8985]]]}},{"type":"Feature","properties":{"id":"otel-centro-lbl","kind":"district-label","name":"Centro Storico","lab":1},"geometry":{"type":"Point","coordinates":[12.474,41.8985]}},{"type":"Feature","properties":{"id":"otel-prati","kind":"district","name":"Prati","lab":1,"budget":2},"geometry":{"type":"Polygon","coordinates":[[[12.46839,41.9075],[12.46773,41.91327],[12.46213,41.91626],[12.45601,41.91586],[12.45045,41.91315],[12.44827,41.9075],[12.45112,41.9023],[12.45546,41.89758],[12.46179,41.89968],[12.467,41.90222],[12.46839,41.9075]]]}},{"type":"Feature","properties":{"id":"otel-prati-lbl","kind":"district-label","name":"Prati","lab":1},"geometry":{"type":"Point","coordinates":[12.459,41.9075]}},{"type":"Feature","properties":{"id":"otel-monti","kind":"district","name":"Monti","lab":1,"budget":2},"geometry":{"type":"Polygon","coordinates":[[[12.50176,41.8945],[12.49962,41.89871],[12.49533,41.90078],[12.49052,41.90117],[12.48614,41.89886],[12.48582,41.8945],[12.486,41.89005],[12.49026,41.88713],[12.49527,41.88838],[12.49928,41.89051],[12.50176,41.8945]]]}},{"type":"Feature","properties":{"id":"otel-monti-lbl","kind":"district-label","name":"Monti","lab":1},"geometry":{"type":"Point","coordinates":[12.493,41.8945]}},{"type":"Feature","properties":{"id":"otel-trastevere","kind":"district","name":"Trastevere","lab":1,"budget":2},"geometry":{"type":"Polygon","coordinates":[[[12.47722,41.8865],[12.47669,41.89209],[12.47167,41.89472],[12.46621,41.89508],[12.4619,41.89166],[12.4586,41.8865],[12.46102,41.88071],[12.46605,41.87742],[12.47156,41.87861],[12.47619,41.88128],[12.47722,41.8865]]]}},{"type":"Feature","properties":{"id":"otel-trastevere-lbl","kind":"district-label","name":"Trastevere","lab":1},"geometry":{"type":"Point","coordinates":[12.469,41.8865]}},{"type":"Feature","properties":{"id":"otel-eur","kind":"district","name":"EUR","lab":1,"budget":1},"geometry":{"type":"Polygon","coordinates":[[[12.48153,41.834],[12.4785,41.84037],[12.47336,41.84639],[12.46493,41.84555],[12.45885,41.84081],[12.45457,41.834],[12.45814,41.82671],[12.46497,41.82254],[12.47233,41.82453],[12.48037,41.82638],[12.48153,41.834]]]}},{"type":"Feature","properties":{"id":"otel-eur-lbl","kind":"district-label","name":"EUR","lab":1},"geometry":{"type":"Point","coordinates":[12.469,41.834]}}]}