{"type":"FeatureCollection","features":[{"type":"Feature","properties":{"id":"dogal-0-0","kind":"district","btype":"dogal","name":"Central Park","lab":1},"geometry":{"type":"Polygon","coordinates":[[[-73.94961,40.79659],[-73.97265,40.76506],[-73.9732,40.76523],[-73.97375,40.76474],[-73.9812,40.7679],[-73.98141,40.76846],[-73.98032,40.76998],[-73.95906,40.79911],[-73.9577,40.80031],[-73.94961,40.79659]]]}},{"type":"Feature","properties":{"id":"dogal-0-lbl","kind":"district-label","btype":"dogal","name":"Central Park"},"geometry":{"type":"Point","coordinates":[-73.96497,40.78329]}},{"type":"Feature","properties":{"id":"dogal-1-0","kind":"district","btype":"dogal","name":"Randalls Island Park","lab":1},"geometry":{"type":"Polygon","coordinates":[[[-73.92557,40.80193],[-73.92268,40.80186],[-73.92033,40.79937],[-73.91548,40.79698],[-73.914,40.79484],[-73.91388,40.79381],[-73.91634,40.79114],[-73.9204,40.79295],[-73.92289,40.79277],[-73.92334,40.79238],[-73.92292,40.79209],[-73.92571,40.78891],[-73.92599,40.78574],[-73.92817,40.78742],[-73.92336,40.79311],[-73.92226,40.79304],[-73.92003,40.79533],[-73.92041,40.79575],[-73.91946,40.79695],[-73.92004,40.79773],[-73.92166,40.79798],[-73.92562,40.80003],[-73.92612,40.79976],[-73.92626,40.799],[-73.92221,40.79655],[-73.9232,40.79534],[-73.9227,40.79506],[-73.92529,40.79164],[-73.9267,40.79009],[-73.92687,40.79052],[-73.9288,40.7907],[-73.92974,40.79136],[-73.92803,40.79081],[-73.92605,40.79088],[-73.92618,40.79175],[-73.92658,40.79187],[-73.92616,40.79191],[-73.92652,40.79195],[-73.92677,40.79195],[-73.92635,40.79158],[-73.92653,40.79102],[-73.92785,40.79097],[-73.92722,40.79194],[-73.92829,40.79245],[-73.92691,40.79588],[-73.9274,40.7985],[-73.92557,40.80193]]]}},{"type":"Feature","properties":{"id":"dogal-1-lbl","kind":"district-label","btype":"dogal","name":"Randalls Island Park"},"geometry":{"type":"Point","coordinates":[-73.91747,40.79432]}},{"type":"Feature","properties":{"id":"dogal-2-0","kind":"district","btype":"dogal","name":"North Hudson Park","lab":1},"geometry":{"type":"Polygon","coordinates":[[[-74.00087,40.80979],[-73.99977,40.80793],[-73.99631,40.80414],[-73.99698,40.7989],[-73.99812,40.79757],[-74.0066,40.80154],[-74.00087,40.80979]]]}},{"type":"Feature","properties":{"id":"dogal-2-lbl","kind":"district-label","btype":"dogal","name":"North Hudson Park"},"geometry":{"type":"Point","coordinates":[-74.00109,40.80284]}},{"type":"Feature","properties":{"id":"dogal-3-0","kind":"district","btype":"dogal","name":"Riverside Park","lab":1},"geometry":{"type":"Polygon","coordinates":[[[-73.96107,40.81604],[-73.96085,40.81704],[-73.96074,40.81568],[-73.96692,40.80794],[-73.97153,40.80083],[-73.97373,40.79878],[-73.97427,40.79678],[-73.97533,40.79626],[-73.97552,40.79709],[-73.97358,40.8017],[-73.96722,40.81056],[-73.96258,40.81633],[-73.96088,40.81752],[-73.9619,40.81645],[-73.96107,40.81604]]]}},{"type":"Feature","properties":{"id":"dogal-3-lbl","kind":"district-label","btype":"dogal","name":"Riverside Park"},"geometry":{"type":"Point","coordinates":[-73.97014,40.80482]}},{"type":"Feature","properties":{"id":"dogal-4-0","kind":"district","btype":"dogal","name":"Wards Island Park","lab":1},"geometry":{"type":"Polygon","coordinates":[[[-73.92547,40.78578],[-73.9232,40.78328],[-73.92815,40.78094],[-73.93066,40.78226],[-73.93499,40.783],[-73.93606,40.78437],[-73.93572,40.78569],[-73.93242,40.78973],[-73.92974,40.79136],[-73.92946,40.79111],[-73.93224,40.78932],[-73.93319,40.78816],[-73.93281,40.78764],[-73.93464,40.78605],[-73.93268,40.78506],[-73.93315,40.78444],[-73.9319,40.78364],[-73.9313,40.78378],[-73.93045,40.78496],[-73.9304,40.78422],[-73.92924,40.7827],[-73.92887,40.78287],[-73.92981,40.78496],[-73.92675,40.78453],[-73.92547,40.78578]]]}},{"type":"Feature","properties":{"id":"dogal-4-lbl","kind":"district-label","btype":"dogal","name":"Wards Island Park"},"geometry":{"type":"Point","coordinates":[-73.93425,40.78684]}},{"type":"Feature","properties":{"id":"dogal-5-0","kind":"district","btype":"dogal","name":"Brooklyn Bridge Park","lab":1},"geometry":{"type":"Polygon","coordinates":[[[-73.98854,40.70389],[-73.99245,40.7039],[-73.99248,40.70338],[-73.99299,40.70392],[-73.993,40.7034],[-73.99395,40.70343],[-73.99514,40.70248],[-73.9958,40.70252],[-73.99696,40.70023],[-73.99639,40.69996],[-73.99828,40.69608],[-73.99914,40.69595],[-73.99847,40.69574],[-73.99926,40.69398],[-74.00066,40.69432],[-74.00125,40.69316],[-74.00051,40.69253],[-74.00081,40.69188],[-74.00394,40.69319],[-74.0034,40.69403],[-74.00132,40.69331],[-74.00095,40.69406],[-74.00301,40.69477],[-74.0024,40.69571],[-74.00029,40.69497],[-73.9994,40.69589],[-73.99924,40.69655],[-73.9998,40.69658],[-73.99884,40.69678],[-73.99884,40.69716],[-74.00101,40.69793],[-74.00044,40.69876],[-73.99839,40.69805],[-73.99801,40.69866],[-74.00004,40.69946],[-73.9995,40.70033],[-73.99736,40.69961],[-73.99684,40.70098],[-73.99812,40.70155],[-73.99624,40.70335],[-73.99513,40.70298],[-73.99543,40.70328],[-73.9947,40.70344],[-73.99479,40.7041],[-73.99347,40.70463],[-73.99214,40.70469],[-73.991,40.70402],[-73.9902,40.70496],[-73.9885,40.70458],[-73.98818,40.70509],[-73.98702,40.70518],[-73.98645,40.70466],[-73.98806,40.70473],[-73.98854,40.70389]]]}},{"type":"Feature","properties":{"id":"dogal-5-lbl","kind":"district-label","btype":"dogal","name":"Brooklyn Bridge Park"},"geometry":{"type":"Point","coordinates":[-73.99999,40.69835]}},{"type":"Feature","properties":{"id":"dogal-6-0","kind":"district","btype":"dogal","name":"Astoria Park","lab":1},"geometry":{"type":"Polygon","coordinates":[[[-73.92617,40.77808],[-73.92367,40.77917],[-73.91976,40.78242],[-73.91811,40.78126],[-73.92387,40.77657],[-73.92321,40.7754],[-73.92399,40.77475],[-73.92766,40.77675],[-73.92617,40.77808]]]}},{"type":"Feature","properties":{"id":"dogal-6-lbl","kind":"district-label","btype":"dogal","name":"Astoria Park"},"geometry":{"type":"Point","coordinates":[-73.92313,40.77862]}},{"type":"Feature","properties":{"id":"dogal-7-0","kind":"district","btype":"dogal","name":"John V. Lindsay East River Park","lab":1},"geometry":{"type":"Polygon","coordinates":[[[-73.97324,40.71972],[-73.97492,40.71508],[-73.97676,40.71149],[-73.97796,40.71059],[-73.9792,40.71044],[-73.97947,40.71096],[-73.97766,40.71225],[-73.97484,40.71772],[-73.97428,40.72234],[-73.97161,40.7268],[-73.97324,40.71972]]]}},{"type":"Feature","properties":{"id":"dogal-7-lbl","kind":"district-label","btype":"dogal","name":"John V. Lindsay East River Park"},"geometry":{"type":"Point","coordinates":[-73.97416,40.71872]}}]}