{"type":"FeatureCollection","features":[{"type":"Feature","properties":{"id":"egitim-0-0","kind":"district","btype":"egitim","name":"New York U.","lab":1},"geometry":{"type":"Polygon","coordinates":[[[-73.99857,40.73132],[-73.99775,40.73233],[-73.99742,40.7322],[-73.99775,40.73174],[-73.99694,40.73134],[-73.99659,40.73179],[-73.99415,40.73128],[-73.99489,40.73034],[-73.99323,40.72951],[-73.99281,40.73],[-73.99161,40.72983],[-73.99261,40.72865],[-73.99177,40.72828],[-73.99156,40.72765],[-73.99278,40.72846],[-73.99327,40.72788],[-73.99284,40.72736],[-73.99434,40.72821],[-73.99398,40.72863],[-73.99489,40.72908],[-73.99567,40.7282],[-73.99488,40.7278],[-73.99538,40.7272],[-73.99618,40.72759],[-73.99714,40.72649],[-73.9965,40.72587],[-73.9997,40.72704],[-73.99778,40.72933],[-74.0003,40.73014],[-73.99967,40.73186],[-73.99857,40.73132]]]}},{"type":"Feature","properties":{"id":"egitim-0-lbl","kind":"district-label","btype":"egitim","name":"New York U."},"geometry":{"type":"Point","coordinates":[-73.99501,40.72921]}},{"type":"Feature","properties":{"id":"egitim-1-0","kind":"district","btype":"egitim","name":"Stevens Institute of Technology","lab":1},"geometry":{"type":"Polygon","coordinates":[[[-74.02713,40.74571],[-74.02672,40.74563],[-74.02629,40.74697],[-74.02528,40.74679],[-74.02456,40.74793],[-74.02287,40.74553],[-74.02403,40.74311],[-74.02457,40.74321],[-74.02483,40.74236],[-74.02597,40.74268],[-74.02661,40.74179],[-74.02826,40.74207],[-74.02713,40.74571]]]}},{"type":"Feature","properties":{"id":"egitim-1-lbl","kind":"district-label","btype":"egitim","name":"Stevens Institute of Technology"},"geometry":{"type":"Point","coordinates":[-74.02549,40.74437]}},{"type":"Feature","properties":{"id":"egitim-2-0","kind":"district","btype":"egitim","name":"Rockefeller U.","lab":1},"geometry":{"type":"Polygon","coordinates":[[[-73.95623,40.7611],[-73.95762,40.76034],[-73.95814,40.76054],[-73.95555,40.76421],[-73.95376,40.76346],[-73.95623,40.7611]]]}},{"type":"Feature","properties":{"id":"egitim-2-lbl","kind":"district-label","btype":"egitim","name":"Rockefeller U."},"geometry":{"type":"Point","coordinates":[-73.95595,40.76228]}},{"type":"Feature","properties":{"id":"egitim-3-0","kind":"district","btype":"egitim","name":"Weill Medical College of Cornell U.","lab":1},"geometry":{"type":"Polygon","coordinates":[[[-73.95282,40.76547],[-73.95363,40.76464],[-73.95249,40.76452],[-73.95339,40.76345],[-73.95619,40.76463],[-73.95624,40.76528],[-73.95526,40.76506],[-73.95667,40.76598],[-73.9546,40.7654],[-73.95416,40.766],[-73.95282,40.76547]]]}},{"type":"Feature","properties":{"id":"egitim-3-lbl","kind":"district-label","btype":"egitim","name":"Weill Medical College of Cornell U."},"geometry":{"type":"Point","coordinates":[-73.95482,40.76485]}},{"type":"Feature","properties":{"id":"egitim-4-0","kind":"district","btype":"egitim","name":"Cornell Tech","lab":1},"geometry":{"type":"Polygon","coordinates":[[[-73.95442,40.75574],[-73.95725,40.75299],[-73.95841,40.75347],[-73.95579,40.75658],[-73.95442,40.75574]]]}},{"type":"Feature","properties":{"id":"egitim-4-lbl","kind":"district-label","btype":"egitim","name":"Cornell Tech"},"geometry":{"type":"Point","coordinates":[-73.95652,40.7546]}},{"type":"Feature","properties":{"id":"egitim-5-0","kind":"district","btype":"egitim","name":"Fordham U. Lincoln Center Campus","lab":1},"geometry":{"type":"Polygon","coordinates":[[[-73.98363,40.77108],[-73.9844,40.77003],[-73.98662,40.77098],[-73.98659,40.77153],[-73.98582,40.77119],[-73.98578,40.77198],[-73.98363,40.77108]]]}},{"type":"Feature","properties":{"id":"egitim-5-lbl","kind":"district-label","btype":"egitim","name":"Fordham U. Lincoln Center Campus"},"geometry":{"type":"Point","coordinates":[-73.98514,40.77103]}},{"type":"Feature","properties":{"id":"egitim-6-0","kind":"district","btype":"egitim","name":"Fashion Institute of Technology","lab":1},"geometry":{"type":"Polygon","coordinates":[[[-73.99537,40.7474],[-73.99641,40.74783],[-73.99607,40.74829],[-73.99355,40.74723],[-73.99436,40.74612],[-73.99565,40.747],[-73.99537,40.7474]]]}},{"type":"Feature","properties":{"id":"egitim-6-lbl","kind":"district-label","btype":"egitim","name":"Fashion Institute of Technology"},"geometry":{"type":"Point","coordinates":[-73.9946,40.74712]}}]}