{"type":"FeatureCollection","features":[{"type":"Feature","properties":{"id":"turistik-0-0","kind":"district","btype":"turistik","name":"Midtown","lab":1},"geometry":{"type":"Polygon","coordinates":[[[-73.97699,40.75017],[-73.98027,40.75148],[-73.98296,40.74777],[-73.97974,40.74641],[-73.98525,40.73885],[-73.98706,40.73924],[-73.9873,40.7389],[-73.98686,40.73872],[-73.9876,40.7375],[-73.98654,40.73706],[-73.98879,40.73397],[-73.99684,40.73736],[-73.99141,40.74482],[-73.99709,40.74722],[-73.98209,40.76771],[-73.98078,40.7676],[-73.96819,40.76223],[-73.97699,40.75017]]]}},{"type":"Feature","properties":{"id":"turistik-0-lbl","kind":"district-label","btype":"turistik","name":"Midtown"},"geometry":{"type":"Point","coordinates":[-73.98759,40.75082]}},{"type":"Feature","properties":{"id":"turistik-1-0","kind":"district","btype":"turistik","name":"Lower Manhattan","lab":1},"geometry":{"type":"Polygon","coordinates":[[[-74.04602,40.69112],[-74.04389,40.69019],[-74.04346,40.68964],[-74.04363,40.68878],[-74.04478,40.6886],[-74.04627,40.68934],[-74.04721,40.69092],[-74.04602,40.69112]]]}},{"type":"Feature","properties":{"id":"turistik-1-1","kind":"district","btype":"turistik","name":"Lower Manhattan","lab":0},"geometry":{"type":"Polygon","coordinates":[[[-74.0398,40.69898],[-74.0407,40.70022],[-74.03894,40.69965],[-74.03837,40.69869],[-74.04023,40.69883],[-74.0398,40.69898]]]}},{"type":"Feature","properties":{"id":"turistik-1-2","kind":"district","btype":"turistik","name":"Lower Manhattan","lab":0},"geometry":{"type":"Polygon","coordinates":[[[-73.99456,40.70427],[-73.99599,40.70377],[-73.99955,40.70043],[-74.00746,40.68866],[-74.00829,40.68644],[-74.01958,40.67965],[-74.03544,40.68512],[-74.02639,40.7001],[-74.02364,40.71807],[-74.02134,40.72751],[-74.01124,40.72605],[-73.99931,40.71755],[-74.00079,40.71529],[-74.00047,40.71448],[-74.00088,40.71162],[-74.00049,40.711],[-74.00145,40.70973],[-73.99456,40.70427]]]}},{"type":"Feature","properties":{"id":"turistik-1-lbl","kind":"district-label","btype":"turistik","name":"Lower Manhattan"},"geometry":{"type":"Point","coordinates":[-74.01193,40.7021]}}]}