{"type":"FeatureCollection","features":[{"type":"Feature","properties":{"id":"dogal-0","kind":"district","btype":"dogal","name":"Donauinsel","lab":1},"geometry":{"type":"Polygon","coordinates":[[[16.5285524,48.1545157],[16.5182716,48.1600129],[16.508585,48.1640525],[16.5048517,48.1660569],[16.4787714,48.1827877],[16.4780001,48.1829943],[16.4780096,48.1832996],[16.4584306,48.1961769],[16.4572308,48.1968291],[16.4543253,48.1976518],[16.451539,48.1998259],[16.4517618,48.199924],[16.4539468,48.1981962],[16.4547388,48.1980039],[16.4546887,48.1983068],[16.4470609,48.2037263],[16.4445819,48.2047369],[16.4431435,48.2063621],[16.4361302,48.2113738],[16.4321436,48.2140129],[16.4252306,48.2178037],[16.4185194,48.2223821],[16.409032,48.2299303],[16.4072291,48.2307097],[16.4011481,48.2354579],[16.3966585,48.2395064],[16.3922231,48.2453685],[16.3866385,48.2510707],[16.383711,48.2527614],[16.3863065,48.2513756],[16.3806133,48.2573936],[16.3676018,48.2733437],[16.3593487,48.2822702],[16.3514875,48.2927829],[16.3472662,48.2980817],[16.3462127,48.2987804],[16.3473813,48.2950137],[16.3494239,48.2915237],[16.3548539,48.2843625],[16.3609501,48.2774689],[16.3764503,48.2577699],[16.3819196,48.2518021],[16.3822513,48.2519198],[16.3826503,48.2515016],[16.3823523,48.2514037],[16.3850498,48.2485583],[16.3900292,48.2437112],[16.3927886,48.2411494],[16.3932342,48.2410977],[16.3962493,48.2379345],[16.4007265,48.2345315],[16.4056664,48.2299894],[16.4053185,48.2308813],[16.4060619,48.2305162],[16.406438,48.2296291],[16.4070426,48.2291397],[16.4070114,48.2293383],[16.4073919,48.2292186],[16.4089527,48.2277218],[16.4112441,48.2261358],[16.4092796,48.2276928],[16.4097936,48.228007],[16.4103851,48.2277747],[16.4116657,48.2263799],[16.4116772,48.225698],[16.4174085,48.2213819],[16.4204735,48.2191761],[16.4212941,48.2190024],[16.4261894,48.2150419],[16.428729,48.2137406],[16.4307526,48.2122257],[16.4285395,48.2134223],[16.4313936,48.2113812],[16.4317959,48.2112284],[16.4309026,48.2119813],[16.4350972,48.2092446],[16.4370482,48.2074538],[16.4381026,48.2068689],[16.4384006,48.2070895],[16.4383173,48.2066127],[16.4420921,48.2040289],[16.4423925,48.2041169],[16.4423784,48.2038148],[16.4437861,48.2028291],[16.4450457,48.2020125],[16.446361,48.2016666],[16.4495345,48.1993191],[16.4515864,48.1982039],[16.4545263,48.1956056],[16.4665483,48.1875639],[16.4667394,48.1876576],[16.4663723,48.1878847],[16.4667363,48.1877825],[16.4689449,48.1858067],[16.4715368,48.1840587],[16.4784282,48.1800137],[16.4815493,48.1788894],[16.4843069,48.1771579],[16.4861255,48.175381],[16.4864994,48.1754522],[16.4872015,48.1741239],[16.4874752,48.1741444],[16.4876612,48.1748775],[16.4883789,48.1735297],[16.4898649,48.1724116],[16.497595,48.1675465],[16.5031041,48.1646901],[16.5180274,48.1595122],[16.5285524,48.1545157]]]}},{"type":"Feature","properties":{"id":"dogal-lab-0","kind":"district-label","btype":"dogal","name":"Donauinsel"},"geometry":{"type":"Point","coordinates":[16.41187,48.22704]}},{"type":"Feature","properties":{"id":"dogal-1","kind":"district","btype":"dogal","name":"Schlosspark Schönbrunn","lab":1},"geometry":{"type":"Polygon","coordinates":[[[16.3192671,48.1845989],[16.3145324,48.1763953],[16.3107381,48.1764615],[16.3095082,48.1768976],[16.3092736,48.175332],[16.3097657,48.1752169],[16.3091869,48.1741102],[16.3039641,48.1753555],[16.3046598,48.1765163],[16.3031225,48.176818],[16.3032065,48.1770399],[16.3023793,48.1768981],[16.2999521,48.1789158],[16.3000772,48.1793646],[16.2989112,48.1795508],[16.2999166,48.1827865],[16.3004954,48.1830739],[16.3006404,48.1829839],[16.3010345,48.1829208],[16.3003255,48.1802664],[16.3041169,48.179443],[16.3044313,48.1801714],[16.3095302,48.1817103],[16.3012567,48.1837376],[16.3010435,48.182954],[16.3005776,48.1830605],[16.3007754,48.1836629],[16.3002518,48.1837946],[16.3006679,48.1844274],[16.3011208,48.1848759],[16.3023251,48.1846182],[16.3030086,48.1857662],[16.3023608,48.1860152],[16.3028313,48.1860841],[16.3029753,48.1863516],[16.302707,48.1865911],[16.3034905,48.1872602],[16.3130288,48.1868617],[16.3192671,48.1845989]]]}},{"type":"Feature","properties":{"id":"dogal-lab-1","kind":"district-label","btype":"dogal","name":"Schlosspark Schönbrunn"},"geometry":{"type":"Point","coordinates":[16.31216,48.18099]}},{"type":"Feature","properties":{"id":"dogal-2","kind":"district","btype":"dogal","name":"Donaupark","lab":1},"geometry":{"type":"Polygon","coordinates":[[[16.4089049,48.2419356],[16.4113076,48.2432581],[16.4127637,48.2426762],[16.4134791,48.243404],[16.4183609,48.2411693],[16.4178833,48.2409212],[16.4182808,48.2406688],[16.4191597,48.2403715],[16.4194267,48.2406537],[16.4211374,48.2397752],[16.4195054,48.238506],[16.4183857,48.2383339],[16.4169648,48.2371407],[16.4139409,48.2372172],[16.4095112,48.2349546],[16.4074554,48.2365462],[16.4067712,48.2365001],[16.4056984,48.2374703],[16.4041396,48.2390519],[16.4037422,48.2403261],[16.4061331,48.2412389],[16.4067661,48.2408165],[16.4066746,48.2402345],[16.4087244,48.2401912],[16.4099198,48.240867],[16.4089049,48.2419356]]]}},{"type":"Feature","properties":{"id":"dogal-lab-2","kind":"district-label","btype":"dogal","name":"Donaupark"},"geometry":{"type":"Point","coordinates":[16.41235,48.23941]}},{"type":"Feature","properties":{"id":"dogal-3","kind":"district","btype":"dogal","name":"Otto-Wagner-Areal","lab":1},"geometry":{"type":"Polygon","coordinates":[[[16.2856994,48.2085629],[16.2859213,48.2123825],[16.285386,48.2128197],[16.2853711,48.2139273],[16.2827221,48.2144501],[16.2825649,48.2135003],[16.281961,48.2127347],[16.2827596,48.2110509],[16.2809094,48.210529],[16.2793328,48.21055],[16.2790567,48.210943],[16.278339,48.210809],[16.2783809,48.2103598],[16.2777532,48.210339],[16.2770358,48.20973],[16.2762083,48.2098781],[16.2765036,48.2096609],[16.2747084,48.2093904],[16.2749251,48.208751],[16.2722258,48.2083725],[16.2699222,48.2086698],[16.2694385,48.2078226],[16.269101,48.2078764],[16.2684173,48.2070386],[16.268441,48.2067333],[16.2695371,48.2062271],[16.2702759,48.2053858],[16.2719594,48.2052451],[16.2738622,48.2056473],[16.2756401,48.2064368],[16.2783932,48.2068439],[16.278708,48.2066297],[16.2821775,48.2073767],[16.282257,48.2076358],[16.2856994,48.2085629]]]}},{"type":"Feature","properties":{"id":"dogal-lab-3","kind":"district-label","btype":"dogal","name":"Otto-Wagner-Areal"},"geometry":{"type":"Point","coordinates":[16.28145,48.2098]}},{"type":"Feature","properties":{"id":"dogal-4","kind":"district","btype":"dogal","name":"Augarten","lab":1},"geometry":{"type":"Polygon","coordinates":[[[16.3714024,48.2260931],[16.3707049,48.2264456],[16.3721614,48.2278334],[16.3766953,48.2292994],[16.3805247,48.2275926],[16.3825009,48.2250651],[16.381435,48.2241885],[16.3800828,48.2207054],[16.3800738,48.2197048],[16.3761577,48.2228039],[16.3725087,48.2252625],[16.3711252,48.2258244],[16.3714024,48.2260931]]]}},{"type":"Feature","properties":{"id":"dogal-lab-4","kind":"district-label","btype":"dogal","name":"Augarten"},"geometry":{"type":"Point","coordinates":[16.37771,48.22463]}},{"type":"Feature","properties":{"id":"dogal-5","kind":"district","btype":"dogal","name":"Erholungsgebiet Steinhof","lab":1},"geometry":{"type":"Polygon","coordinates":[[[16.271085,48.2113922],[16.2718371,48.210544],[16.2717716,48.2102134],[16.2701614,48.2096199],[16.26831,48.2082442],[16.2694385,48.2078226],[16.2699846,48.2086858],[16.2722258,48.2083725],[16.2749251,48.208751],[16.2747084,48.2093904],[16.2765036,48.2096609],[16.2762083,48.2098781],[16.2770358,48.20973],[16.2777532,48.210339],[16.2783809,48.2103598],[16.278339,48.210809],[16.2790567,48.210943],[16.2793328,48.21055],[16.2809094,48.210529],[16.2821617,48.2108711],[16.2817318,48.2116572],[16.2824595,48.2117855],[16.281961,48.2127347],[16.2825649,48.2135003],[16.2827221,48.2144501],[16.2811554,48.2149212],[16.2785625,48.2150048],[16.278128,48.2147228],[16.2752839,48.2149557],[16.2750561,48.2140994],[16.2735791,48.2140689],[16.271085,48.2113922]]]}},{"type":"Feature","properties":{"id":"dogal-lab-5","kind":"district-label","btype":"dogal","name":"Erholungsgebiet Steinhof"},"geometry":{"type":"Point","coordinates":[16.27651,48.21152]}},{"type":"Feature","properties":{"id":"dogal-6","kind":"district","btype":"dogal","name":"Kurpark Oberlaa","lab":1},"geometry":{"type":"MultiPolygon","coordinates":[[[[16.4000304,48.1519529],[16.40168,48.1515845],[16.4054407,48.1519582],[16.4061303,48.1517361],[16.4062028,48.1507545],[16.4073725,48.1504342],[16.406583,48.1488521],[16.4067641,48.1487071],[16.4053584,48.1467253],[16.408035,48.1456331],[16.4076924,48.1444513],[16.4100583,48.1439212],[16.4096363,48.141771],[16.4064977,48.1421646],[16.403873,48.1430734],[16.4000304,48.1519529]]],[[[16.3977188,48.150926],[16.397379,48.1495167],[16.3973923,48.1496197],[16.3977188,48.150926]]],[[[16.397601,48.1509413],[16.3970488,48.1510607],[16.3973647,48.1518225],[16.3982981,48.1517044],[16.397601,48.1509413]]],[[[16.3987254,48.1520955],[16.4000304,48.1519529],[16.3982981,48.1517044],[16.3987254,48.1520955]]]]}},{"type":"Feature","properties":{"id":"dogal-lab-6","kind":"district-label","btype":"dogal","name":"Kurpark Oberlaa"},"geometry":{"type":"Point","coordinates":[16.40396,48.14772]}},{"type":"Feature","properties":{"id":"dogal-7","kind":"district","btype":"dogal","name":"Pötzleinsdorfer Schlosspark","lab":1},"geometry":{"type":"Polygon","coordinates":[[[16.2945693,48.2423976],[16.2972833,48.2432268],[16.3009879,48.2431454],[16.3035033,48.2434822],[16.3046483,48.2432281],[16.3045913,48.2428441],[16.3055785,48.2421142],[16.3062471,48.2420666],[16.3066164,48.2425136],[16.3103542,48.241351],[16.3094438,48.2403032],[16.3034034,48.2390928],[16.3015965,48.2396185],[16.2979132,48.2396869],[16.297578,48.2404336],[16.2962229,48.2413844],[16.2952188,48.2416554],[16.2945693,48.2423976]]]}},{"type":"Feature","properties":{"id":"dogal-lab-7","kind":"district-label","btype":"dogal","name":"Pötzleinsdorfer Schlosspark"},"geometry":{"type":"Point","coordinates":[16.30344,48.24089]}},{"type":"Feature","properties":{"id":"dogal-8","kind":"district","btype":"dogal","name":"Schwarzenbergpark","lab":1},"geometry":{"type":"MultiPolygon","coordinates":[[[[16.2826266,48.2377202],[16.2783415,48.2400952],[16.2797287,48.2403538],[16.280478,48.2401551],[16.2803559,48.239973],[16.2817028,48.2390223],[16.282625,48.2387694],[16.2836254,48.2389409],[16.2834053,48.2380487],[16.2870886,48.2362246],[16.2888237,48.2358352],[16.289481,48.2352294],[16.2892621,48.2349916],[16.2897211,48.2342893],[16.2879517,48.2342771],[16.2876467,48.23456],[16.2892163,48.2343904],[16.2881777,48.235515],[16.2876093,48.2346326],[16.2871274,48.2352588],[16.2864034,48.2355872],[16.2826266,48.2377202]],[[16.2827527,48.2376568],[16.282649908299263,48.23773898695693],[16.2826266,48.2377202],[16.2827527,48.2376568]],[[16.28472512001447,48.23654931774818],[16.28456210345714,48.2366427712389],[16.2845538,48.2366363],[16.28472512001447,48.23654931774818]]],[[[16.2744961,48.2423647],[16.2787456,48.2403827],[16.2764948,48.2402407],[16.2776576,48.2404828],[16.2767043,48.2408532],[16.2758203,48.2406797],[16.2737924,48.2419312],[16.2739078,48.2424366],[16.2700899,48.2443312],[16.2678599,48.2459809],[16.2665184,48.2464162],[16.2666999,48.2466998],[16.2663148,48.2469776],[16.265185,48.2473879],[16.2659108,48.247788],[16.2680173,48.2465279],[16.2683811,48.2457993],[16.2696461,48.2468366],[16.2730989,48.247248],[16.2721656,48.2460359],[16.2733523,48.2448941],[16.2720104,48.2458175],[16.2713879,48.2452472],[16.2722327,48.2443717],[16.2707162,48.2448651],[16.2731603,48.2438174],[16.2744961,48.2423647]]]]}},{"type":"Feature","properties":{"id":"dogal-lab-8","kind":"district-label","btype":"dogal","name":"Schwarzenbergpark"},"geometry":{"type":"Point","coordinates":[16.27158,48.24407]}},{"type":"Feature","properties":{"id":"dogal-9","kind":"district","btype":"dogal","name":"Volkspark Laaerberg","lab":1},"geometry":{"type":"Polygon","coordinates":[[[16.3831546,48.1578837],[16.3834756,48.1586414],[16.3832185,48.1586851],[16.3823218,48.156447],[16.3830263,48.1564835],[16.382965,48.1562755],[16.3822809,48.156213],[16.3858215,48.1551717],[16.3849286,48.1533969],[16.3870946,48.1525157],[16.3907194,48.15705],[16.3856194,48.1596156],[16.3855547,48.1592366],[16.3860818,48.159144],[16.3857429,48.1585747],[16.3861319,48.1575787],[16.3856799,48.1566977],[16.3845579,48.1565994],[16.3831546,48.1578837]]]}},{"type":"Feature","properties":{"id":"dogal-lab-9","kind":"district-label","btype":"dogal","name":"Volkspark Laaerberg"},"geometry":{"type":"Point","coordinates":[16.38684,48.15569]}},{"type":"Feature","properties":{"id":"dogal-10","kind":"district","btype":"dogal","name":"Löwygrube","lab":1},"geometry":{"type":"Polygon","coordinates":[[[16.4038388,48.162427],[16.4035641,48.1625018],[16.403449,48.1634621],[16.4024049,48.1634379],[16.4025255,48.1648376],[16.4069264,48.1667322],[16.4100167,48.1639201],[16.4076614,48.1614827],[16.4071518,48.161674],[16.4072148,48.1619044],[16.4059155,48.1613697],[16.4050037,48.1619261],[16.40376,48.1617816],[16.4038388,48.162427]]]}},{"type":"Feature","properties":{"id":"dogal-lab-10","kind":"district-label","btype":"dogal","name":"Löwygrube"},"geometry":{"type":"Point","coordinates":[16.406,48.16438]}},{"type":"Feature","properties":{"id":"dogal-11","kind":"district","btype":"dogal","name":"Draschepark","lab":1},"geometry":{"type":"Polygon","coordinates":[[[16.34002,48.1518558],[16.3415396,48.1500385],[16.3427049,48.1493792],[16.342035,48.148843],[16.337366,48.1495035],[16.3385072,48.1506247],[16.3386816,48.1522101],[16.339345,48.153609],[16.3472629,48.1519959],[16.3467641,48.151827],[16.3472823,48.1515858],[16.3481561,48.1519022],[16.3476218,48.1508421],[16.3463944,48.1507977],[16.3460285,48.1499209],[16.3449854,48.150077],[16.3442018,48.1510802],[16.3419794,48.1510577],[16.3404988,48.1521511],[16.34002,48.1518558]]]}},{"type":"Feature","properties":{"id":"dogal-lab-11","kind":"district-label","btype":"dogal","name":"Draschepark"},"geometry":{"type":"Point","coordinates":[16.34474,48.15133]}},{"type":"Feature","properties":{"id":"dogal-12","kind":"district","btype":"dogal","name":"Harry-Glück-Park","lab":1},"geometry":{"type":"Polygon","coordinates":[[[16.3101021,48.1525998],[16.3099377,48.1502259],[16.3106036,48.1495583],[16.3131052,48.1503545],[16.3130947,48.1506792],[16.3133199,48.1504132],[16.3166378,48.1511612],[16.3167717,48.1536913],[16.3164582,48.1536996],[16.3162135,48.1543126],[16.3148565,48.1546149],[16.3147643,48.1538765],[16.3114074,48.1533537],[16.3101021,48.1525998]]]}},{"type":"Feature","properties":{"id":"dogal-lab-12","kind":"district-label","btype":"dogal","name":"Harry-Glück-Park"},"geometry":{"type":"Point","coordinates":[16.31336,48.15188]}},{"type":"Feature","properties":{"id":"dogal-13","kind":"district","btype":"dogal","name":"Belvedere","lab":1},"geometry":{"type":"Polygon","coordinates":[[[16.3814749,48.188538],[16.3825415,48.1886002],[16.3827925,48.1893688],[16.3819543,48.1893729],[16.3820238,48.1908402],[16.3829673,48.1908025],[16.3835251,48.1932083],[16.3825285,48.1932737],[16.3825713,48.1924239],[16.3815804,48.1923281],[16.3806651,48.1968619],[16.3774899,48.1980371],[16.3790732,48.1947494],[16.3793355,48.1947643],[16.3799933,48.1918317],[16.3794365,48.1916951],[16.3814749,48.188538]]]}},{"type":"Feature","properties":{"id":"dogal-lab-13","kind":"district-label","btype":"dogal","name":"Belvedere"},"geometry":{"type":"Point","coordinates":[16.38037,48.19401]}},{"type":"Feature","properties":{"id":"dogal-14","kind":"district","btype":"dogal","name":"Schweizergarten","lab":1},"geometry":{"type":"Polygon","coordinates":[[[16.3817423,48.1882159],[16.3819838,48.1873791],[16.3829737,48.1871739],[16.3827385,48.1868847],[16.3821654,48.1869411],[16.3848275,48.1840057],[16.3874051,48.1854192],[16.3867973,48.1859145],[16.3899349,48.1876703],[16.3903976,48.1871933],[16.3906838,48.1878233],[16.390122,48.1878969],[16.3889058,48.1872994],[16.3872025,48.1870388],[16.3870359,48.1871563],[16.3886997,48.1873552],[16.3900248,48.1879863],[16.3817423,48.1882159]]]}},{"type":"Feature","properties":{"id":"dogal-lab-14","kind":"district-label","btype":"dogal","name":"Schweizergarten"},"geometry":{"type":"Point","coordinates":[16.38516,48.1864]}},{"type":"Feature","properties":{"id":"dogal-15","kind":"district","btype":"dogal","name":"Wasserpark","lab":1},"geometry":{"type":"Polygon","coordinates":[[[16.3944088,48.253241],[16.3978762,48.252068],[16.3969155,48.2496763],[16.3966884,48.2491712],[16.3957126,48.2492189],[16.3956102,48.2489083],[16.3947391,48.248806],[16.3940488,48.249048],[16.3934394,48.2487237],[16.3930331,48.2490801],[16.3931641,48.2493093],[16.3919508,48.2502291],[16.3941627,48.2535875],[16.3944088,48.253241]],[[16.39543117273814,48.251933356589],[16.39579121468427,48.251774941654034],[16.3943666,48.2532786],[16.39543117273814,48.251933356589]],[[16.396969240724136,48.25053155373576],[16.3970149,48.2503639],[16.397171,48.2503186],[16.396969240724136,48.25053155373576]]]}},{"type":"Feature","properties":{"id":"dogal-lab-15","kind":"district-label","btype":"dogal","name":"Wasserpark"},"geometry":{"type":"Point","coordinates":[16.39503,48.25115]}},{"type":"Feature","properties":{"id":"dogal-16","kind":"district","btype":"dogal","name":"Auer-Welsbach-Park","lab":1},"geometry":{"type":"Polygon","coordinates":[[[16.3154064,48.1901427],[16.3201113,48.1900051],[16.3206283,48.187104],[16.3203433,48.1864543],[16.3200502,48.1862143],[16.3149051,48.1878607],[16.3144745,48.1884275],[16.3154064,48.1901427]]]}},{"type":"Feature","properties":{"id":"dogal-lab-16","kind":"district-label","btype":"dogal","name":"Auer-Welsbach-Park"},"geometry":{"type":"Point","coordinates":[16.31757,48.18814]}},{"type":"Feature","properties":{"id":"dogal-17","kind":"district","btype":"dogal","name":"Türkenschanzpark","lab":1},"geometry":{"type":"MultiPolygon","coordinates":[[[[16.3376857,48.2340451],[16.3337397,48.2339381],[16.3302761,48.2340665],[16.3376857,48.2340451]]],[[[16.3302761,48.2340665],[16.3296972,48.2342169],[16.3291356,48.2344211],[16.3302761,48.2340665]]],[[[16.3288066,48.2345488],[16.3307548,48.2359747],[16.333357,48.236992],[16.3344886,48.2369992],[16.3344925,48.2359737],[16.3376813,48.2359501],[16.3376831,48.2347762],[16.3288066,48.2345488]]]]}},{"type":"Feature","properties":{"id":"dogal-lab-17","kind":"district-label","btype":"dogal","name":"Türkenschanzpark"},"geometry":{"type":"Point","coordinates":[16.3338,48.23536]}},{"type":"Feature","properties":{"id":"dogal-18","kind":"district","btype":"dogal","name":"Jedleseer Aupark","lab":1},"geometry":{"type":"Polygon","coordinates":[[[16.3765068,48.2679686],[16.3773384,48.2687276],[16.3795206,48.2692301],[16.3805336,48.2679271],[16.3823445,48.2669699],[16.3797473,48.2649262],[16.3790778,48.2648365],[16.3765068,48.2679686]]]}},{"type":"Feature","properties":{"id":"dogal-lab-18","kind":"district-label","btype":"dogal","name":"Jedleseer Aupark"},"geometry":{"type":"Point","coordinates":[16.37919,48.26745]}},{"type":"Feature","properties":{"id":"dogal-19","kind":"district","btype":"dogal","name":"Neu Steinhof","lab":1},"geometry":{"type":"Polygon","coordinates":[[[16.3329504,48.1538259],[16.3309035,48.1552734],[16.3309662,48.1550138],[16.3294605,48.1535571],[16.3298571,48.1533373],[16.3297358,48.1528522],[16.3290119,48.1529011],[16.328951,48.1526257],[16.3328947,48.1517224],[16.3330333,48.152074],[16.3379764,48.1525686],[16.3358055,48.1526328],[16.335396,48.153052],[16.3329504,48.1538259]]]}},{"type":"Feature","properties":{"id":"dogal-lab-19","kind":"district-label","btype":"dogal","name":"Neu Steinhof"},"geometry":{"type":"Point","coordinates":[16.3319,48.15345]}},{"type":"Feature","properties":{"id":"dogal-20","kind":"district","btype":"dogal","name":"Erholungsgebiet Simmering","lab":1},"geometry":{"type":"Polygon","coordinates":[[[16.4302529,48.163788],[16.4306397,48.1643527],[16.4341424,48.1634471],[16.4345609,48.1640153],[16.4371872,48.1631765],[16.4373672,48.1634777],[16.4384343,48.1632221],[16.4382237,48.1628473],[16.4420725,48.1617327],[16.4417247,48.1617327],[16.4413015,48.1607256],[16.4410498,48.1607136],[16.4395339,48.1610333],[16.4396844,48.1613342],[16.4394683,48.1613945],[16.4393122,48.1610684],[16.4383177,48.1612376],[16.4386109,48.1615861],[16.4321455,48.1638454],[16.4302529,48.163788]]]}},{"type":"Feature","properties":{"id":"dogal-lab-20","kind":"district-label","btype":"dogal","name":"Erholungsgebiet Simmering"},"geometry":{"type":"Point","coordinates":[16.43837,48.16229]}},{"type":"Feature","properties":{"id":"dogal-21","kind":"district","btype":"dogal","name":"Heiligenstädter Park","lab":1},"geometry":{"type":"MultiPolygon","coordinates":[[[[16.3608914,48.2524435],[16.3626819,48.2522427],[16.362232,48.2515963],[16.3575615,48.2511347],[16.3573378,48.2527162],[16.3579875,48.2527544],[16.3579457,48.2531825],[16.3608914,48.2524435]]],[[[16.3607305,48.2527792],[16.3607102,48.2529357],[16.360827,48.252542],[16.3607305,48.2527792]]],[[[16.3607102,48.2529357],[16.3606337,48.2532956],[16.3606809,48.2530889],[16.3607102,48.2529357]]],[[[16.3564136,48.2530956],[16.3556093,48.2527493],[16.3554909,48.2531593],[16.3558524,48.2535848],[16.3550789,48.2538141],[16.3584371,48.2539327],[16.3584629,48.2536195],[16.3595499,48.253369],[16.3600177,48.2538266],[16.36011,48.2533838],[16.3606337,48.2532956],[16.3579457,48.2531825],[16.3564136,48.2530956]]]]}},{"type":"Feature","properties":{"id":"dogal-lab-21","kind":"district-label","btype":"dogal","name":"Heiligenstädter Park"},"geometry":{"type":"Point","coordinates":[16.35995,48.25192]}},{"type":"Feature","properties":{"id":"dogal-22","kind":"district","btype":"dogal","name":"Helmut-Zilk-Park","lab":1},"geometry":{"type":"Polygon","coordinates":[[[16.3880579,48.177116],[16.3885632,48.1765246],[16.3889444,48.1771183],[16.3850997,48.1792294],[16.3818732,48.1824353],[16.3813716,48.1822283],[16.3823145,48.1802174],[16.3814206,48.1787265],[16.3803324,48.1783864],[16.3806425,48.1780315],[16.3825111,48.179136],[16.3859741,48.1780518],[16.3880579,48.177116]]]}},{"type":"Feature","properties":{"id":"dogal-lab-22","kind":"district-label","btype":"dogal","name":"Helmut-Zilk-Park"},"geometry":{"type":"Point","coordinates":[16.38331,48.17972]}},{"type":"Feature","properties":{"id":"dogal-23","kind":"district","btype":"dogal","name":"Stadtpark","lab":1},"geometry":{"type":"Polygon","coordinates":[[[16.377082,48.2031935],[16.3786874,48.2025769],[16.3805893,48.2043987],[16.3821965,48.206596],[16.3807101,48.2069442],[16.377082,48.2031935]]]}},{"type":"Feature","properties":{"id":"dogal-lab-23","kind":"district-label","btype":"dogal","name":"Stadtpark"},"geometry":{"type":"Point","coordinates":[16.38035,48.2055]}},{"type":"Feature","properties":{"id":"dogal-24","kind":"district","btype":"dogal","name":"Parkanlage Per-Albin-Hansson-Straße","lab":1},"geometry":{"type":"Polygon","coordinates":[[[16.374202,48.1502255],[16.3746986,48.1500701],[16.3743255,48.1495384],[16.379732,48.1482115],[16.3795939,48.1478771],[16.3823502,48.1476036],[16.3820435,48.1470876],[16.3823037,48.1471126],[16.3822726,48.1465834],[16.3753098,48.1481524],[16.3747063,48.1487421],[16.3735583,48.1490731],[16.374202,48.1502255]]]}},{"type":"Feature","properties":{"id":"dogal-lab-24","kind":"district-label","btype":"dogal","name":"Parkanlage Per-Albin-Hansson-Straße"},"geometry":{"type":"Point","coordinates":[16.37681,48.14848]}},{"type":"Feature","properties":{"id":"dogal-25","kind":"district","btype":"dogal","name":"Währinger Park","lab":1},"geometry":{"type":"Polygon","coordinates":[[[16.3505096,48.2322383],[16.3508301,48.2336966],[16.349332,48.2338119],[16.3492033,48.2330946],[16.3475135,48.2333164],[16.346187,48.2313483],[16.3493515,48.230664],[16.3496929,48.2323186],[16.3505096,48.2322383]]]}},{"type":"Feature","properties":{"id":"dogal-lab-25","kind":"district-label","btype":"dogal","name":"Währinger Park"},"geometry":{"type":"Point","coordinates":[16.34804,48.23179]}},{"type":"Feature","properties":{"id":"dogal-26","kind":"district","btype":"dogal","name":"Johann-Benda-Park","lab":1},"geometry":{"type":"Polygon","coordinates":[[[16.357498,48.1553079],[16.3580294,48.1550876],[16.3566405,48.1527565],[16.348797,48.1524957],[16.3498814,48.1538356],[16.3509599,48.1535486],[16.356257,48.1536415],[16.357498,48.1553079]]]}},{"type":"Feature","properties":{"id":"dogal-lab-26","kind":"district-label","btype":"dogal","name":"Johann-Benda-Park"},"geometry":{"type":"Point","coordinates":[16.35726,48.15446]}},{"type":"Feature","properties":{"id":"dogal-27","kind":"district","btype":"dogal","name":"Schwarzenberggarten","lab":1},"geometry":{"type":"Polygon","coordinates":[[[16.3790452,48.1922907],[16.3771949,48.1945965],[16.3764386,48.1958223],[16.3767878,48.1962147],[16.3762094,48.1967232],[16.3778978,48.1970017],[16.3790732,48.1947494],[16.3793355,48.1947643],[16.3798562,48.1924626],[16.3790452,48.1922907]]]}},{"type":"Feature","properties":{"id":"dogal-lab-27","kind":"district-label","btype":"dogal","name":"Schwarzenberggarten"},"geometry":{"type":"Point","coordinates":[16.37825,48.19467]}},{"type":"Feature","properties":{"id":"dogal-28","kind":"district","btype":"dogal","name":"Hugo-Wolf-Park","lab":1},"geometry":{"type":"Polygon","coordinates":[[[16.3357611,48.2406234],[16.3350711,48.2389411],[16.3304059,48.2389291],[16.3278304,48.2396601],[16.3315155,48.2394027],[16.3316857,48.2399351],[16.3325304,48.2399672],[16.3327697,48.2406892],[16.333071,48.2407228],[16.3357611,48.2406234]]]}},{"type":"Feature","properties":{"id":"dogal-lab-28","kind":"district-label","btype":"dogal","name":"Hugo-Wolf-Park"},"geometry":{"type":"Point","coordinates":[16.33353,48.2398]}},{"type":"Feature","properties":{"id":"dogal-29","kind":"district","btype":"dogal","name":"Liechtensteinpark","lab":1},"geometry":{"type":"Polygon","coordinates":[[[16.3573166,48.2246901],[16.3600518,48.225108],[16.3605163,48.2242557],[16.3604908,48.2221552],[16.3593075,48.2218886],[16.3580248,48.2232004],[16.3573166,48.2246901]]]}},{"type":"Feature","properties":{"id":"dogal-lab-29","kind":"district-label","btype":"dogal","name":"Liechtensteinpark"},"geometry":{"type":"Point","coordinates":[16.35914,48.22373]}},{"type":"Feature","properties":{"id":"dogal-30","kind":"district","btype":"dogal","name":"Sternwartepark","lab":1},"geometry":{"type":"Polygon","coordinates":[[[16.3321542,48.2327076],[16.3317777,48.2314145],[16.3357736,48.2304997],[16.336043,48.2323101],[16.3346355,48.2327123],[16.3321542,48.2327076]]]}},{"type":"Feature","properties":{"id":"dogal-lab-30","kind":"district-label","btype":"dogal","name":"Sternwartepark"},"geometry":{"type":"Point","coordinates":[16.33394,48.23186]}},{"type":"Feature","properties":{"id":"dogal-31","kind":"district","btype":"dogal","name":"Tangentenpark","lab":1},"geometry":{"type":"Polygon","coordinates":[[[16.402573,48.1698794],[16.3983894,48.1726638],[16.3960248,48.171082],[16.3974649,48.1714097],[16.3977321,48.1709677],[16.3974625,48.1704816],[16.4004133,48.1702183],[16.4021568,48.1696879],[16.402573,48.1698794]]]}},{"type":"Feature","properties":{"id":"dogal-lab-31","kind":"district-label","btype":"dogal","name":"Tangentenpark"},"geometry":{"type":"Point","coordinates":[16.39904,48.17125]}},{"type":"Feature","properties":{"id":"dogal-32","kind":"district","btype":"dogal","name":"Floridsdorfer Aupark","lab":1},"geometry":{"type":"Polygon","coordinates":[[[16.3896553,48.2566979],[16.3905215,48.2570302],[16.39139,48.2560189],[16.3919731,48.2562427],[16.3921728,48.2560092],[16.3902071,48.2554966],[16.3867276,48.255804],[16.3863046,48.2562168],[16.3865658,48.2567123],[16.388084,48.2573287],[16.3880962,48.2578172],[16.3887755,48.2576773],[16.3896553,48.2566979]]]}},{"type":"Feature","properties":{"id":"dogal-lab-32","kind":"district-label","btype":"dogal","name":"Floridsdorfer Aupark"},"geometry":{"type":"Point","coordinates":[16.38872,48.25647]}},{"type":"Feature","properties":{"id":"dogal-33","kind":"district","btype":"dogal","name":"Kongresspark","lab":1},"geometry":{"type":"Polygon","coordinates":[[[16.3084259,48.2233583],[16.3083059,48.222734],[16.306985,48.222584],[16.3074538,48.220447],[16.3098869,48.2207323],[16.3092826,48.2225659],[16.3131455,48.2223613],[16.3097337,48.2230948],[16.3095746,48.2228952],[16.3084259,48.2233583]]]}},{"type":"Feature","properties":{"id":"dogal-lab-33","kind":"district-label","btype":"dogal","name":"Kongresspark"},"geometry":{"type":"Point","coordinates":[16.30842,48.22155]}},{"type":"Feature","properties":{"id":"dogal-34","kind":"district","btype":"dogal","name":"Hetzendorfer Schlosspark","lab":1},"geometry":{"type":"Polygon","coordinates":[[[16.3071692,48.1661906],[16.3063248,48.1649644],[16.3068956,48.1648042],[16.3059891,48.1633888],[16.307433,48.1629981],[16.3093625,48.1653306],[16.3089821,48.165433],[16.3095993,48.1664718],[16.3077764,48.1671306],[16.3074407,48.1666317],[16.309006,48.1662041],[16.3088105,48.1658707],[16.3083911,48.1655826],[16.3071692,48.1661906]]]}},{"type":"Feature","properties":{"id":"dogal-lab-34","kind":"district-label","btype":"dogal","name":"Hetzendorfer Schlosspark"},"geometry":{"type":"Point","coordinates":[16.30783,48.16515]}},{"type":"Feature","properties":{"id":"dogal-35","kind":"district","btype":"dogal","name":"Wertheimsteinpark","lab":1},"geometry":{"type":"MultiPolygon","coordinates":[[[[16.3610476,48.2420169],[16.3609479,48.2417307],[16.3611737,48.2426273],[16.3610476,48.2420169]]],[[[16.3609479,48.2417307],[16.3590098,48.2418706],[16.3591868,48.242861],[16.355955,48.2427376],[16.355968,48.2431341],[16.355538,48.2431266],[16.3555113,48.2440141],[16.3556778,48.2443095],[16.3578508,48.2438066],[16.3609479,48.2417307]]],[[[16.3579533,48.2437971],[16.3610032,48.2435715],[16.3613371,48.2433979],[16.3611737,48.2426273],[16.3579533,48.2437971]]]]}},{"type":"Feature","properties":{"id":"dogal-lab-35","kind":"district-label","btype":"dogal","name":"Wertheimsteinpark"},"geometry":{"type":"Point","coordinates":[16.35751,48.24299]}},{"type":"Feature","properties":{"id":"dogal-36","kind":"district","btype":"dogal","name":"Volksgarten","lab":1},"geometry":{"type":"Polygon","coordinates":[[[16.3607032,48.2093052],[16.3612414,48.2092386],[16.3620025,48.2096471],[16.3633934,48.2079063],[16.3609022,48.2064473],[16.3600618,48.2071171],[16.3607032,48.2093052]]]}},{"type":"Feature","properties":{"id":"dogal-lab-36","kind":"district-label","btype":"dogal","name":"Volksgarten"},"geometry":{"type":"Point","coordinates":[16.36167,48.20857]}},{"type":"Feature","properties":{"id":"dogal-37","kind":"district","btype":"dogal","name":"Herderpark","lab":1},"geometry":{"type":"Polygon","coordinates":[[[16.4080817,48.1727592],[16.4113621,48.1741401],[16.4118464,48.173674],[16.4110617,48.1733092],[16.4113168,48.172665],[16.4110935,48.1719468],[16.4097825,48.1710759],[16.4080817,48.1727592]]]}},{"type":"Feature","properties":{"id":"dogal-lab-37","kind":"district-label","btype":"dogal","name":"Herderpark"},"geometry":{"type":"Point","coordinates":[16.40987,48.17231]}},{"type":"Feature","properties":{"id":"dogal-38","kind":"district","btype":"dogal","name":"Stadtpark-Kinderpark","lab":1},"geometry":{"type":"Polygon","coordinates":[[[16.382998,48.2048445],[16.3821938,48.2060209],[16.3807233,48.2040984],[16.3787433,48.2025368],[16.3800314,48.2020149],[16.3827699,48.2041705],[16.382998,48.2048445]]]}},{"type":"Feature","properties":{"id":"dogal-lab-38","kind":"district-label","btype":"dogal","name":"Stadtpark-Kinderpark"},"geometry":{"type":"Point","coordinates":[16.38071,48.20332]}},{"type":"Feature","properties":{"id":"dogal-39","kind":"district","btype":"dogal","name":"Matzner-Park","lab":1},"geometry":{"type":"Polygon","coordinates":[[[16.299754,48.1946539],[16.3038613,48.1951665],[16.3036858,48.1964234],[16.3016346,48.1963541],[16.3005297,48.1959822],[16.299754,48.1946539]]]}},{"type":"Feature","properties":{"id":"dogal-lab-39","kind":"district-label","btype":"dogal","name":"Matzner-Park"},"geometry":{"type":"Point","coordinates":[16.30205,48.19557]}},{"type":"Feature","properties":{"id":"dogal-40","kind":"district","btype":"dogal","name":"Elfriede-Stumpf-Park","lab":1},"geometry":{"type":"MultiPolygon","coordinates":[[[[16.2781574,48.2063266],[16.2802662,48.2067794],[16.2805649,48.2061056],[16.2778794,48.2055629],[16.2781574,48.2063266]]],[[[16.2807735,48.2068874],[16.2825608,48.2071732],[16.2841044,48.2068741],[16.2810567,48.2062264],[16.2807735,48.2068874]]],[[[16.2869237,48.2085966],[16.2870875,48.208345],[16.2846451,48.2069611],[16.2826948,48.2073514],[16.2859794,48.2080254],[16.2869237,48.2085966]]]]}},{"type":"Feature","properties":{"id":"dogal-lab-40","kind":"district-label","btype":"dogal","name":"Elfriede-Stumpf-Park"},"geometry":{"type":"Point","coordinates":[16.27932,48.20622]}},{"type":"Feature","properties":{"id":"dogal-41","kind":"district","btype":"dogal","name":"Parkanlage Nordbahnhof - Freie Mitte","lab":1},"geometry":{"type":"Polygon","coordinates":[[[16.3918624,48.2304313],[16.3907573,48.2313597],[16.3887586,48.2303277],[16.3896714,48.2293435],[16.3901077,48.228116],[16.3906939,48.2281714],[16.3905703,48.2285373],[16.3916383,48.229108],[16.3912778,48.2300788],[16.3918624,48.2304313]]]}},{"type":"Feature","properties":{"id":"dogal-lab-41","kind":"district-label","btype":"dogal","name":"Parkanlage Nordbahnhof - Freie Mitte"},"geometry":{"type":"Point","coordinates":[16.39037,48.22971]}},{"type":"Feature","properties":{"id":"dogal-42","kind":"district","btype":"dogal","name":"Venediger-Au-Park","lab":1},"geometry":{"type":"Polygon","coordinates":[[[16.3959606,48.21812],[16.3939301,48.218168],[16.3938182,48.2194183],[16.3957388,48.2204933],[16.3968877,48.2189079],[16.3961176,48.2187451],[16.3959606,48.21812]]]}},{"type":"Feature","properties":{"id":"dogal-lab-42","kind":"district-label","btype":"dogal","name":"Venediger-Au-Park"},"geometry":{"type":"Point","coordinates":[16.39527,48.21916]}},{"type":"Feature","properties":{"id":"dogal-43","kind":"district","btype":"dogal","name":"Rathauspark","lab":1},"geometry":{"type":"MultiPolygon","coordinates":[[[[16.3601248,48.2101817],[16.3598435,48.2090314],[16.3580255,48.2090488],[16.3583244,48.2100618],[16.3590556,48.2104395],[16.3601248,48.2101817]]],[[[16.3607459,48.2120877],[16.3601375,48.210641],[16.3591546,48.210773],[16.3586906,48.2113054],[16.358989,48.2123178],[16.3607459,48.2120877]]]]}},{"type":"Feature","properties":{"id":"dogal-lab-43","kind":"district-label","btype":"dogal","name":"Rathauspark"},"geometry":{"type":"Point","coordinates":[16.35907,48.20956]}},{"type":"Feature","properties":{"id":"dogal-44","kind":"district","btype":"dogal","name":"Alfred-Böhm-Park","lab":1},"geometry":{"type":"Polygon","coordinates":[[[16.3841942,48.1659506],[16.3853224,48.1661798],[16.3856592,48.1659792],[16.3855058,48.1656322],[16.385995,48.1656153],[16.3863903,48.1675191],[16.3862495,48.1677433],[16.3859973,48.1674774],[16.3850597,48.16748],[16.3837495,48.1687321],[16.3833114,48.1687215],[16.3837272,48.1664267],[16.3841942,48.1659506]]]}},{"type":"Feature","properties":{"id":"dogal-lab-44","kind":"district-label","btype":"dogal","name":"Alfred-Böhm-Park"},"geometry":{"type":"Point","coordinates":[16.38495,48.16695]}},{"type":"Feature","properties":{"id":"dogal-ic-45","kind":"district","btype":"dogal","name":"Setagayapark","lab":1},"geometry":{"type":"Polygon","coordinates":[[[16.3562034,48.2450871],[16.3569488,48.2451045],[16.3569112,48.2458602],[16.3563494,48.2458475],[16.3562034,48.2450871]]]}},{"type":"Feature","properties":{"id":"dogal-ic-lab-45","kind":"district-label","btype":"dogal","name":"Setagayapark"},"geometry":{"type":"Point","coordinates":[16.3566,48.24548]}}]}