{"type":"FeatureCollection","features":[{"type":"Feature","properties":{"id":"turistik-0","kind":"district","btype":"turistik","name":"Innere Stadt","lab":1},"geometry":{"type":"MultiPolygon","coordinates":[[[[16.3617213,48.2025319],[16.3659409,48.1996821],[16.3615382,48.2026474],[16.3617213,48.2025319]]],[[[16.3615382,48.2026474],[16.3575481,48.2056454],[16.3558875,48.2069081],[16.3615382,48.2026474]]],[[[16.3848893,48.2113281],[16.3844083,48.2090776],[16.3809627,48.2043536],[16.3766526,48.2003186],[16.375215,48.1999528],[16.3848893,48.2113281]]],[[[16.3558875,48.2069081],[16.355211,48.2086487],[16.3565102,48.2143408],[16.3558875,48.2069081]]],[[[16.370149,48.2184891],[16.3604177,48.213814],[16.3565102,48.2143408],[16.370149,48.2184891]]]]}},{"type":"Feature","properties":{"id":"turistik-lab-0","kind":"district-label","btype":"turistik","name":"Innere Stadt"},"geometry":{"type":"Point","coordinates":[16.36458,48.21641]}},{"type":"Feature","properties":{"id":"turistik-1","kind":"district","btype":"turistik","name":"Leopoldstadt","lab":1},"geometry":{"type":"MultiPolygon","coordinates":[[[[16.4952282,48.1650897],[16.4946641,48.1653265],[16.497085,48.1662737],[16.4952282,48.1650897]]],[[[16.4605003,48.1777857],[16.4683386,48.175369],[16.4797577,48.1707483],[16.4797281,48.1706977],[16.4605003,48.1777857]]]]}},{"type":"Feature","properties":{"id":"turistik-lab-1","kind":"district-label","btype":"turistik","name":"Leopoldstadt"},"geometry":{"type":"Point","coordinates":[16.47369,48.17306]}},{"type":"Feature","properties":{"id":"turistik-2","kind":"district","btype":"turistik","name":"Landstraße","lab":1},"geometry":{"type":"MultiPolygon","coordinates":[[[[16.3974184,48.1770185],[16.3978535,48.1785793],[16.4000582,48.1797822],[16.3974184,48.1770185]]],[[[16.4168769,48.1848371],[16.4170573,48.1849399],[16.4169824,48.1848516],[16.4168769,48.1848371]]],[[[16.4168769,48.1848371],[16.4160098,48.1852124],[16.4163374,48.1850845],[16.4168769,48.1848371]]],[[[16.4170954,48.1850065],[16.4171845,48.1852379],[16.4171474,48.1851374],[16.4170954,48.1850065]]],[[[16.417427,48.1855769],[16.417783,48.1858675],[16.4171845,48.1852379],[16.417427,48.1855769]]],[[[16.3809988,48.1881182],[16.3808328,48.1889864],[16.3811296,48.1884798],[16.3809988,48.1881182]]],[[[16.3807315,48.1891543],[16.3808328,48.1889864],[16.3807846,48.1890639],[16.3807315,48.1891543]]],[[[16.3791629,48.1919263],[16.3795795,48.1911946],[16.3799073,48.1906138],[16.3791629,48.1919263]]],[[[16.3788197,48.1924381],[16.3791079,48.1920125],[16.3791629,48.1919263],[16.3788197,48.1924381]]],[[[16.3784877,48.1929243],[16.3785012,48.1929084],[16.3788197,48.1924381],[16.3784877,48.1929243]]],[[[16.3771899,48.194451],[16.3771324,48.1945194],[16.3775246,48.1940572],[16.3771899,48.194451]]],[[[16.3770534,48.1946218],[16.3771324,48.1945194],[16.3771154,48.1945398],[16.3770534,48.1946218]]],[[[16.3770534,48.1946218],[16.3769692,48.1947425],[16.3768589,48.1949211],[16.3770534,48.1946218]]],[[[16.3752048,48.197616],[16.3768589,48.1949211],[16.375602,48.1969573],[16.3752048,48.197616]]],[[[16.384867,48.2112114],[16.3844083,48.2090776],[16.3809627,48.2043536],[16.3766526,48.2003186],[16.375215,48.1999528],[16.384867,48.2112114]]],[[[16.428264,48.1851631],[16.4268618,48.185382],[16.4286306,48.1851861],[16.428264,48.1851631]]],[[[16.4286306,48.1851861],[16.4289492,48.185363],[16.4287834,48.1852404],[16.4286306,48.1851861]]],[[[16.4262365,48.1855059],[16.4261097,48.1855342],[16.4265941,48.185435],[16.4262365,48.1855059]]],[[[16.4294381,48.1857841],[16.4292149,48.1855904],[16.4291152,48.1855052],[16.4294381,48.1857841]]],[[[16.418788,48.1856826],[16.417783,48.1858675],[16.419739,48.1855287],[16.418788,48.1856826]]],[[[16.4261097,48.1855342],[16.4249614,48.1857835],[16.4236347,48.1860848],[16.4261097,48.1855342]]],[[[16.419739,48.1855287],[16.420031,48.1862405],[16.419986,48.1861284],[16.419739,48.1855287]]],[[[16.4299342,48.1860073],[16.4294381,48.1857841],[16.4296637,48.1859289],[16.4299342,48.1860073]]],[[[16.4302726,48.186005],[16.4307803,48.185872],[16.4299342,48.1860073],[16.4300865,48.1860161],[16.4302726,48.186005]]],[[[16.4307803,48.185872],[16.4310992,48.1863419],[16.4308881,48.1860149],[16.4307803,48.185872]]],[[[16.422393,48.1863709],[16.4236347,48.1860848],[16.4227547,48.1862766],[16.422393,48.1863709]]],[[[16.4215654,48.1866623],[16.422393,48.1863709],[16.4222182,48.1864206],[16.4215654,48.1866623]]],[[[16.420031,48.1862405],[16.420052,48.1862934],[16.420283,48.1868579],[16.420031,48.1862405]]],[[[16.4210471,48.1869115],[16.4204532,48.1872713],[16.4215654,48.1866623],[16.4210471,48.1869115]]]]}},{"type":"Feature","properties":{"id":"turistik-lab-2","kind":"district-label","btype":"turistik","name":"Landstraße"},"geometry":{"type":"Point","coordinates":[16.38185,48.20672]}},{"type":"Feature","properties":{"id":"turistik-3","kind":"district","btype":"turistik","name":"Wieden","lab":1},"geometry":{"type":"MultiPolygon","coordinates":[[[[16.3647876,48.1879705],[16.3653946,48.1873423],[16.3646695,48.188067],[16.3647876,48.1879705]]],[[[16.3646695,48.188067],[16.3643074,48.1883139],[16.3630602,48.1894018],[16.3646695,48.188067]]],[[[16.3630602,48.1894018],[16.3621733,48.190138],[16.3622324,48.1901063],[16.3630602,48.1894018]]],[[[16.3624628,48.1903983],[16.362235,48.1901696],[16.3621733,48.190138],[16.3624628,48.1903983]]],[[[16.3627221,48.1906773],[16.3626737,48.1906164],[16.3624628,48.1903983],[16.3627221,48.1906773]]],[[[16.3635613,48.1915446],[16.3627221,48.1906773],[16.3640142,48.1921601],[16.3635613,48.1915446]]],[[[16.3636803,48.1924288],[16.3640142,48.1921601],[16.3626594,48.193213],[16.3636803,48.1924288]]],[[[16.3617097,48.1939332],[16.3618606,48.1940835],[16.3619917,48.1941987],[16.3617097,48.1939332]]],[[[16.3752048,48.197616],[16.3768589,48.1949211],[16.375602,48.1969573],[16.3752048,48.197616]]],[[[16.3659409,48.1996821],[16.3616936,48.1973594],[16.359371,48.1967114],[16.3659409,48.1996821]]],[[[16.3735607,48.1851384],[16.3739627,48.186079],[16.3809988,48.1881182],[16.3735607,48.1851384]]],[[[16.3811296,48.1884798],[16.3809988,48.1881182],[16.3808328,48.1889864],[16.3811296,48.1884798]]],[[[16.3807315,48.1891543],[16.3808328,48.1889864],[16.3807846,48.1890639],[16.3807315,48.1891543]]],[[[16.3791629,48.1919263],[16.3795795,48.1911946],[16.3799073,48.1906138],[16.3791629,48.1919263]]],[[[16.3791629,48.1919263],[16.3788197,48.1924381],[16.3791079,48.1920125],[16.3791629,48.1919263]]],[[[16.3788197,48.1924381],[16.3784877,48.1929243],[16.3785012,48.1929084],[16.3788197,48.1924381]]],[[[16.3775246,48.1940572],[16.3771671,48.1944778],[16.3771324,48.1945194],[16.3775246,48.1940572]]],[[[16.3770534,48.1946218],[16.3771324,48.1945194],[16.3771154,48.1945398],[16.3770534,48.1946218]]],[[[16.3770534,48.1946218],[16.3769692,48.1947425],[16.3768589,48.1949211],[16.3770534,48.1946218]]]]}},{"type":"Feature","properties":{"id":"turistik-lab-3","kind":"district-label","btype":"turistik","name":"Wieden"},"geometry":{"type":"Point","coordinates":[16.37797,48.1871]}},{"type":"Feature","properties":{"id":"turistik-4","kind":"district","btype":"turistik","name":"Margareten","lab":1},"geometry":{"type":"MultiPolygon","coordinates":[[[[16.3494244,48.1797052],[16.349725,48.1792208],[16.3442529,48.1856807],[16.3494244,48.1797052]]],[[[16.3417518,48.1884673],[16.3428126,48.1873135],[16.3442529,48.1856807],[16.3417518,48.1884673]]],[[[16.3526091,48.1903726],[16.3454084,48.1887271],[16.3417518,48.1884673],[16.3526091,48.1903726]]],[[[16.3621733,48.190138],[16.3624628,48.1903983],[16.362235,48.1901696],[16.3621733,48.190138]]],[[[16.3531783,48.1908526],[16.3530265,48.1907148],[16.3526091,48.1903726],[16.3531783,48.1908526]]],[[[16.3539326,48.1917559],[16.3547076,48.1953882],[16.3561454,48.1962834],[16.3591932,48.1969247],[16.3531783,48.1908526],[16.3539326,48.1917559]]],[[[16.3617554,48.193977],[16.3619917,48.1941987],[16.3617097,48.1939332],[16.3617554,48.193977]]],[[[16.3647876,48.1879705],[16.3653946,48.1873423],[16.3646695,48.188067],[16.3647876,48.1879705]]],[[[16.3646695,48.188067],[16.3643074,48.1883139],[16.3630602,48.1894018],[16.3646695,48.188067]]],[[[16.3630602,48.1894018],[16.3621733,48.190138],[16.3622324,48.1901063],[16.3630602,48.1894018]]],[[[16.3624628,48.1903983],[16.3627221,48.1906773],[16.3626737,48.1906164],[16.3624628,48.1903983]]],[[[16.3634541,48.1914096],[16.3627221,48.1906773],[16.3640142,48.1921601],[16.3634541,48.1914096]]],[[[16.3636803,48.1924288],[16.3640142,48.1921601],[16.3626594,48.193213],[16.3636803,48.1924288]]]]}},{"type":"Feature","properties":{"id":"turistik-lab-4","kind":"district-label","btype":"turistik","name":"Margareten"},"geometry":{"type":"Point","coordinates":[16.3551,48.19357]}},{"type":"Feature","properties":{"id":"turistik-5","kind":"district","btype":"turistik","name":"Mariahilf","lab":1},"geometry":{"type":"MultiPolygon","coordinates":[[[[16.3417518,48.1884673],[16.3390566,48.1883152],[16.3401255,48.1884312],[16.3417518,48.1884673]]],[[[16.3390566,48.1883152],[16.3379923,48.1894886],[16.3375751,48.1904053],[16.3390566,48.1883152]]],[[[16.3526091,48.1903726],[16.3454084,48.1887271],[16.3417518,48.1884673],[16.3526091,48.1903726]]],[[[16.3392406,48.1958746],[16.339342,48.1959071],[16.3394071,48.1959238],[16.3392406,48.1958746]]],[[[16.3400547,48.1959719],[16.3394071,48.1959238],[16.339581,48.1959508],[16.3400547,48.1959719]]],[[[16.341808,48.1962902],[16.3423321,48.19639],[16.3440162,48.1966848],[16.341808,48.1962902]]],[[[16.3456276,48.1970179],[16.344301,48.1967369],[16.3459705,48.1971007],[16.3456276,48.1970179]]],[[[16.347702,48.1975026],[16.3466884,48.19726],[16.3459705,48.1971007],[16.347702,48.1975026]]],[[[16.3485832,48.1977719],[16.347702,48.1975026],[16.350123,48.1983097],[16.3485832,48.1977719]]],[[[16.350123,48.1983097],[16.3515558,48.1988997],[16.3529406,48.1994093],[16.350123,48.1983097]]],[[[16.3531783,48.1908526],[16.3530265,48.1907148],[16.3526091,48.1903726],[16.3531783,48.1908526]]],[[[16.3539326,48.1917559],[16.3547076,48.1953882],[16.3561454,48.1962834],[16.3591932,48.1969247],[16.3531783,48.1908526],[16.3539326,48.1917559]]],[[[16.3659409,48.1996821],[16.3616936,48.1973594],[16.359371,48.1967114],[16.3659409,48.1996821]]],[[[16.3529406,48.1994093],[16.3556095,48.2002519],[16.3559068,48.2003248],[16.3529406,48.1994093]]],[[[16.3582771,48.200884],[16.3586442,48.2009586],[16.3569095,48.2005605],[16.3582771,48.200884]]],[[[16.3640387,48.2013262],[16.3659409,48.1996821],[16.3615382,48.2026474],[16.3640387,48.2013262]]],[[[16.3607487,48.201963],[16.3592263,48.2010867],[16.3586442,48.2009586],[16.3607487,48.201963]]],[[[16.3607487,48.201963],[16.3611978,48.202371],[16.3612594,48.2024269],[16.3607487,48.201963]]],[[[16.3613234,48.2024842],[16.3613644,48.2025208],[16.3612594,48.2024269],[16.3613234,48.2024842]]],[[[16.361474,48.2026047],[16.3615382,48.2026474],[16.3615158,48.2026325],[16.361474,48.2026047]]]]}},{"type":"Feature","properties":{"id":"turistik-lab-5","kind":"district-label","btype":"turistik","name":"Mariahilf"},"geometry":{"type":"Point","coordinates":[16.3551,48.19357]}},{"type":"Feature","properties":{"id":"turistik-6","kind":"district","btype":"turistik","name":"Josefstadt","lab":1},"geometry":{"type":"MultiPolygon","coordinates":[[[[16.350804,48.2063433],[16.3514408,48.2063184],[16.3512909,48.2063232],[16.350804,48.2063433]]],[[[16.3499751,48.2063774],[16.3494456,48.2064049],[16.3493514,48.2064152],[16.3499751,48.2063774]]],[[[16.3489273,48.206471],[16.3478595,48.2066463],[16.3493514,48.2064152],[16.3489273,48.206471]]],[[[16.3558875,48.2069081],[16.3544196,48.2067079],[16.3551296,48.2068071],[16.3558875,48.2069081]]],[[[16.3435406,48.2075366],[16.3434482,48.207556],[16.3438752,48.20747],[16.3435406,48.2075366]]],[[[16.339313,48.208421],[16.3391389,48.2084566],[16.339216,48.2084409],[16.339313,48.208421]]],[[[16.3386115,48.2085539],[16.3391389,48.2084566],[16.3384515,48.2085779],[16.3386115,48.2085539]]],[[[16.3558875,48.2069081],[16.355211,48.2086487],[16.3565102,48.2143408],[16.3558875,48.2069081]]],[[[16.3392972,48.2122485],[16.3402594,48.2140439],[16.3408703,48.2151672],[16.3392972,48.2122485]]],[[[16.3408703,48.2151672],[16.3558184,48.2147394],[16.3565102,48.2143408],[16.3408703,48.2151672]]]]}},{"type":"Feature","properties":{"id":"turistik-lab-6","kind":"district-label","btype":"turistik","name":"Josefstadt"},"geometry":{"type":"Point","coordinates":[16.34663,48.21495]}},{"type":"Feature","properties":{"id":"turistik-7","kind":"district","btype":"turistik","name":"Alsergrund","lab":1},"geometry":{"type":"MultiPolygon","coordinates":[[[[16.3408703,48.2151672],[16.3558184,48.2147394],[16.3565102,48.2143408],[16.3408703,48.2151672]]],[[[16.370149,48.2184891],[16.3604177,48.213814],[16.3565102,48.2143408],[16.370149,48.2184891]]],[[[16.3673217,48.2253386],[16.363503,48.2286726],[16.362297,48.2306827],[16.3611488,48.233261],[16.3616214,48.236309],[16.3673217,48.2253386]]],[[[16.3567669,48.2361278],[16.3572299,48.236171],[16.359617,48.236246],[16.3567669,48.2361278]]],[[[16.359617,48.236246],[16.3616214,48.236309],[16.3608583,48.236285],[16.359617,48.236246]]]]}},{"type":"Feature","properties":{"id":"turistik-lab-7","kind":"district-label","btype":"turistik","name":"Alsergrund"},"geometry":{"type":"Point","coordinates":[16.34663,48.21495]}},{"type":"Feature","properties":{"id":"turistik-8","kind":"district","btype":"turistik","name":"Favoriten","lab":1},"geometry":{"type":"MultiPolygon","coordinates":[[[[16.3656377,48.1286732],[16.3659854,48.1286363],[16.3658913,48.1283994],[16.3656377,48.1286732]]],[[[16.375462,48.1479138],[16.3609328,48.1513951],[16.3484592,48.1517777],[16.3411401,48.1532253],[16.3386555,48.1544862],[16.3356406,48.1592699],[16.375462,48.1479138]]],[[[16.3336346,48.162088],[16.3356406,48.1592699],[16.3319178,48.1633398],[16.3336346,48.162088]]],[[[16.3359383,48.1687395],[16.3319178,48.1633398],[16.3372646,48.1709121],[16.3359383,48.1687395]]],[[[16.3434472,48.1702372],[16.3445536,48.1700237],[16.3431117,48.1702951],[16.3434472,48.1702372]]],[[[16.3424389,48.1703933],[16.3430171,48.1703117],[16.3431117,48.1702951],[16.3424389,48.1703933]]],[[[16.3374508,48.1710281],[16.3378783,48.1709788],[16.3383478,48.1709207],[16.3374508,48.1710281]]],[[[16.3460737,48.1742019],[16.3471453,48.1727955],[16.3474909,48.1720558],[16.3460737,48.1742019]]],[[[16.3442952,48.1749835],[16.3433876,48.1753702],[16.3421141,48.1752854],[16.3416042,48.1764188],[16.349725,48.1792208],[16.3454687,48.1739951],[16.3443841,48.1742483],[16.3442952,48.1749835]]],[[[16.3883438,48.1253693],[16.3906452,48.1249032],[16.3910196,48.1244957],[16.3883438,48.1253693]]],[[[16.3844807,48.1261922],[16.3883438,48.1253693],[16.3829747,48.1263617],[16.3844807,48.1261922]]],[[[16.3829747,48.1263617],[16.371572,48.1272881],[16.3658913,48.1283994],[16.3829747,48.1263617]]],[[[16.4328054,48.1316706],[16.4327484,48.1329574],[16.43313,48.1378785],[16.433439,48.1315569],[16.4328054,48.1316706]]],[[[16.3770042,48.1473033],[16.3757599,48.1446893],[16.374245,48.1422088],[16.3770042,48.1473033]]],[[[16.3771178,48.1475247],[16.3770646,48.1474193],[16.3770042,48.1473033],[16.3771178,48.1475247]]],[[[16.376036,48.147792],[16.3771178,48.1475247],[16.375462,48.1479138],[16.376036,48.147792]]],[[[16.3971554,48.1740636],[16.4074349,48.1668459],[16.4299548,48.1473489],[16.4362198,48.1379787],[16.3971554,48.1740636]]],[[[16.3735607,48.1851384],[16.3739627,48.186079],[16.3809988,48.1881182],[16.3735607,48.1851384]]]]}},{"type":"Feature","properties":{"id":"turistik-lab-8","kind":"district-label","btype":"turistik","name":"Favoriten"},"geometry":{"type":"Point","coordinates":[16.34726,48.15386]}}]}