{"type":"FeatureCollection","features":[{"type":"Feature","properties":{"id":"ticari-0","kind":"district","btype":"ticari","name":"Smart Village","lab":1},"geometry":{"type":"MultiPolygon","coordinates":[[[[31.0078,30.07458],[31.01886,30.08897],[31.03569,30.07903],[31.02454,30.06451],[31.02413,30.06445],[31.01842,30.06797],[31.01755,30.06924],[31.01615,30.06948],[31.0078,30.07458]]]]}},{"type":"Feature","properties":{"id":"ticari-lab-0","kind":"district-label","btype":"ticari","name":"Smart Village"},"geometry":{"type":"Point","coordinates":[31.02173,30.07672]}},{"type":"Feature","properties":{"id":"ticari-1","kind":"district","btype":"ticari","name":"Cairo Festival City","lab":1},"geometry":{"type":"MultiPolygon","coordinates":[[[[31.40586,30.03722],[31.41647,30.03745],[31.41646,30.03628],[31.42009,30.03633],[31.41998,30.0351],[31.42022,30.03458],[31.42203,30.03441],[31.42176,30.03233],[31.42105,30.03102],[31.41973,30.02979],[31.41258,30.02612],[31.41128,30.02488],[31.41069,30.02335],[31.41089,30.01706],[31.41061,30.01659],[31.40307,30.01664],[31.40194,30.02008],[31.40294,30.02495],[31.40381,30.02518],[31.40365,30.02568],[31.40441,30.03096],[31.40469,30.03131],[31.40473,30.03333],[31.40503,30.03372],[31.40477,30.03418],[31.40507,30.0365],[31.40586,30.03722]]]]}},{"type":"Feature","properties":{"id":"ticari-lab-1","kind":"district-label","btype":"ticari","name":"Cairo Festival City"},"geometry":{"type":"Point","coordinates":[31.41031,30.02846]}},{"type":"Feature","properties":{"id":"ticari-2","kind":"district","btype":"ticari","name":"The Entertainment Area","lab":1},"geometry":{"type":"MultiPolygon","coordinates":[[[[31.69739,30.13587],[31.69453,30.13881],[31.70626,30.14703],[31.71883,30.14585],[31.72353,30.14908],[31.72624,30.14592],[31.71818,30.1404],[31.70534,30.14138],[31.69739,30.13587]]]]}},{"type":"Feature","properties":{"id":"ticari-lab-2","kind":"district-label","btype":"ticari","name":"The Entertainment Area"},"geometry":{"type":"Point","coordinates":[31.71051,30.14309]}},{"type":"Feature","properties":{"id":"ticari-3","kind":"district","btype":"ticari","name":"Second Sector","lab":1},"geometry":{"type":"MultiPolygon","coordinates":[[[[31.47426,30.02826],[31.46951,30.02861],[31.46569,30.03013],[31.4547,30.03019],[31.45432,30.02983],[31.4546,30.02876],[31.45584,30.02781],[31.45651,30.0254],[31.45814,30.02565],[31.47397,30.02564],[31.47448,30.02612],[31.47426,30.02826]]]]}},{"type":"Feature","properties":{"id":"ticari-lab-3","kind":"district-label","btype":"ticari","name":"Second Sector"},"geometry":{"type":"Point","coordinates":[31.46391,30.02773]}},{"type":"Feature","properties":{"id":"ticari-4","kind":"district","btype":"ticari","name":"Free Zone","lab":1},"geometry":{"type":"MultiPolygon","coordinates":[[[[31.3534,30.03548],[31.33977,30.0341],[31.3407,30.03063],[31.34014,30.03002],[31.34342,30.02704],[31.34606,30.02598],[31.34716,30.02818],[31.35361,30.03518],[31.3534,30.03548]]]]}},{"type":"Feature","properties":{"id":"ticari-lab-4","kind":"district-label","btype":"ticari","name":"Free Zone"},"geometry":{"type":"Point","coordinates":[31.34573,30.03154]}},{"type":"Feature","properties":{"id":"ticari-5","kind":"district","btype":"ticari","name":"Al Obour Market","lab":1},"geometry":{"type":"MultiPolygon","coordinates":[[[[31.46453,30.16692],[31.47506,30.16985],[31.47674,30.16443],[31.46657,30.16144],[31.46453,30.16692]]]]}},{"type":"Feature","properties":{"id":"ticari-lab-5","kind":"district-label","btype":"ticari","name":"Al Obour Market"},"geometry":{"type":"Point","coordinates":[31.4707,30.16567]}},{"type":"Feature","properties":{"id":"ticari-6","kind":"district","btype":"ticari","name":"Central Business District","lab":1},"geometry":{"type":"MultiPolygon","coordinates":[[[[31.69353,30.01515],[31.70211,30.01291],[31.70402,30.01083],[31.70441,30.0089],[31.70241,30.0092],[31.70083,30.00893],[31.69117,30.00926],[31.69353,30.01515]]]]}},{"type":"Feature","properties":{"id":"ticari-lab-6","kind":"district-label","btype":"ticari","name":"Central Business District"},"geometry":{"type":"Point","coordinates":[31.69748,30.01142]}},{"type":"Feature","properties":{"id":"ticari-7","kind":"district","btype":"ticari","name":"Wholesale Vegetable Market","lab":1},"geometry":{"type":"MultiPolygon","coordinates":[[[[31.02513,29.95719],[31.03089,29.95552],[31.03437,29.96388],[31.0284,29.96559],[31.02513,29.95719]]]]}},{"type":"Feature","properties":{"id":"ticari-lab-7","kind":"district-label","btype":"ticari","name":"Wholesale Vegetable Market"},"geometry":{"type":"Point","coordinates":[31.02971,29.96057]}},{"type":"Feature","properties":{"id":"ticari-8","kind":"district","btype":"ticari","name":"Services Area","lab":1},"geometry":{"type":"MultiPolygon","coordinates":[[[[31.60838,30.14592],[31.61012,30.14826],[31.60748,30.14996],[31.60577,30.15774],[31.60685,30.15792],[31.60649,30.15954],[31.60378,30.15907],[31.60442,30.15633],[31.60228,30.15593],[31.60166,30.15539],[31.60268,30.1544],[31.60403,30.14846],[31.60838,30.14592]]]]}},{"type":"Feature","properties":{"id":"ticari-lab-8","kind":"district-label","btype":"ticari","name":"Services Area"},"geometry":{"type":"Point","coordinates":[31.60559,30.15228]}},{"type":"Feature","properties":{"id":"ticari-9","kind":"district","btype":"ticari","name":"Third Sector","lab":1},"geometry":{"type":"MultiPolygon","coordinates":[[[[31.49054,30.02837],[31.47564,30.02855],[31.47527,30.02822],[31.47525,30.02606],[31.47566,30.02576],[31.4905,30.02567],[31.49054,30.02837]]]]}},{"type":"Feature","properties":{"id":"ticari-lab-9","kind":"district-label","btype":"ticari","name":"Third Sector"},"geometry":{"type":"Point","coordinates":[31.48287,30.02709]}},{"type":"Feature","properties":{"id":"ticari-10","kind":"district","btype":"ticari","name":"District 5","lab":1},"geometry":{"type":"MultiPolygon","coordinates":[[[[31.4448,29.95437],[31.44805,29.95055],[31.45622,29.9561],[31.4538,29.95892],[31.44796,29.95527],[31.4448,29.95437]]]]}},{"type":"Feature","properties":{"id":"ticari-lab-10","kind":"district-label","btype":"ticari","name":"District 5"},"geometry":{"type":"Point","coordinates":[31.45064,29.95475]}},{"type":"Feature","properties":{"id":"ticari-11","kind":"district","btype":"ticari","name":"Al Masa New Capital Hotel","lab":1},"geometry":{"type":"MultiPolygon","coordinates":[[[[31.72739,29.99998],[31.72603,30.00088],[31.72616,30.00143],[31.72546,30.00151],[31.72384,30.00339],[31.72444,30.00401],[31.72399,30.00458],[31.72313,30.00425],[31.72044,30.00766],[31.72926,30.00762],[31.72783,30.00002],[31.72739,29.99998]]]]}},{"type":"Feature","properties":{"id":"ticari-lab-11","kind":"district-label","btype":"ticari","name":"Al Masa New Capital Hotel"},"geometry":{"type":"Point","coordinates":[31.72575,30.00487]}},{"type":"Feature","properties":{"id":"ticari-12","kind":"district","btype":"ticari","name":"One 90 Mixed Use Project","lab":1},"geometry":{"type":"MultiPolygon","coordinates":[[[[31.40263,30.01565],[31.40685,30.01578],[31.40752,30.01544],[31.40754,30.01088],[31.40402,30.0108],[31.40181,30.01116],[31.4015,30.01148],[31.40171,30.01307],[31.40263,30.01565]]]]}},{"type":"Feature","properties":{"id":"ticari-lab-12","kind":"district-label","btype":"ticari","name":"One 90 Mixed Use Project"},"geometry":{"type":"Point","coordinates":[31.40474,30.01322]}},{"type":"Feature","properties":{"id":"ticari-13","kind":"district","btype":"ticari","name":"MC 1","lab":1},"geometry":{"type":"MultiPolygon","coordinates":[[[[31.75372,30.28207],[31.74879,30.28066],[31.75051,30.27574],[31.75547,30.27705],[31.75372,30.28207]]]]}},{"type":"Feature","properties":{"id":"ticari-lab-13","kind":"district-label","btype":"ticari","name":"MC 1"},"geometry":{"type":"Point","coordinates":[31.75213,30.27889]}},{"type":"Feature","properties":{"id":"ticari-14","kind":"district","btype":"ticari","name":"Smart Village in Maadi","lab":1},"geometry":{"type":"MultiPolygon","coordinates":[[[[31.27853,29.96811],[31.28163,29.96667],[31.28337,29.96918],[31.2829,29.96954],[31.28321,29.97001],[31.28409,29.96954],[31.28466,29.97016],[31.28526,29.97011],[31.28547,29.97237],[31.28049,29.97229],[31.27853,29.96811]]]]}},{"type":"Feature","properties":{"id":"ticari-lab-14","kind":"district-label","btype":"ticari","name":"Smart Village in Maadi"},"geometry":{"type":"Point","coordinates":[31.28191,29.96999]}},{"type":"Feature","properties":{"id":"ticari-15","kind":"district","btype":"ticari","name":"Hyde Park Mall","lab":1},"geometry":{"type":"MultiPolygon","coordinates":[[[[31.54597,29.97552],[31.54778,29.97546],[31.54886,29.976],[31.54953,29.97683],[31.54987,29.97777],[31.54959,29.9791],[31.54782,29.98044],[31.54565,29.98026],[31.54488,29.97982],[31.54412,29.97855],[31.54402,29.97801],[31.54469,29.97817],[31.54531,29.97726],[31.5446,29.97672],[31.54597,29.97552]]]]}},{"type":"Feature","properties":{"id":"ticari-lab-15","kind":"district-label","btype":"ticari","name":"Hyde Park Mall"},"geometry":{"type":"Point","coordinates":[31.54708,29.97798]}},{"type":"Feature","properties":{"id":"ticari-16","kind":"district","btype":"ticari","name":"Fourth Sector","lab":1},"geometry":{"type":"MultiPolygon","coordinates":[[[[31.49787,30.02857],[31.49836,30.02802],[31.49851,30.02705],[31.4983,30.02606],[31.49781,30.02554],[31.49069,30.02573],[31.49074,30.02839],[31.49787,30.02857]]]]}},{"type":"Feature","properties":{"id":"ticari-lab-16","kind":"district-label","btype":"ticari","name":"Fourth Sector"},"geometry":{"type":"Point","coordinates":[31.4946,30.02706]}},{"type":"Feature","properties":{"id":"ticari-17","kind":"district","btype":"ticari","name":"Urban Walk Mixed Use","lab":1},"geometry":{"type":"MultiPolygon","coordinates":[[[[31.50646,30.0081],[31.50597,30.0091],[31.50706,30.01156],[31.50581,30.01404],[31.50321,30.01313],[31.50357,30.0123],[31.50289,30.01204],[31.50325,30.01015],[31.50327,30.00703],[31.50646,30.0081]]]]}},{"type":"Feature","properties":{"id":"ticari-lab-17","kind":"district-label","btype":"ticari","name":"Urban Walk Mixed Use"},"geometry":{"type":"Point","coordinates":[31.50484,30.01064]}},{"type":"Feature","properties":{"id":"ticari-18","kind":"district","btype":"ticari","name":"Loutos Service area","lab":1},"geometry":{"type":"MultiPolygon","coordinates":[[[[31.5242,30.02441],[31.52438,30.0261],[31.52401,30.0266],[31.52262,30.02646],[31.51854,30.0252],[31.51811,30.02402],[31.52105,30.02274],[31.52275,30.02398],[31.5242,30.02441]]]]}},{"type":"Feature","properties":{"id":"ticari-lab-18","kind":"district-label","btype":"ticari","name":"Loutos Service area"},"geometry":{"type":"Point","coordinates":[31.52143,30.02478]}},{"type":"Feature","properties":{"id":"ticari-19","kind":"district","btype":"ticari","name":"Investment Area","lab":1},"geometry":{"type":"MultiPolygon","coordinates":[[[[31.24977,30.00946],[31.25022,30.00966],[31.25045,30.01025],[31.2526,30.01161],[31.25243,30.01247],[31.25296,30.01273],[31.24821,30.01412],[31.24797,30.01393],[31.24877,30.01021],[31.24927,30.01009],[31.24977,30.00946]]]]}},{"type":"Feature","properties":{"id":"ticari-lab-19","kind":"district-label","btype":"ticari","name":"Investment Area"},"geometry":{"type":"Point","coordinates":[31.25012,30.01198]}},{"type":"Feature","properties":{"id":"ticari-20","kind":"district","btype":"ticari","name":"El Narges Hotel","lab":1},"geometry":{"type":"MultiPolygon","coordinates":[[[[31.65981,29.91937],[31.65946,29.91957],[31.65756,29.91908],[31.65568,29.91734],[31.65573,29.91585],[31.65833,29.91602],[31.65988,29.91748],[31.65981,29.91937]]]]}},{"type":"Feature","properties":{"id":"ticari-lab-20","kind":"district-label","btype":"ticari","name":"El Narges Hotel"},"geometry":{"type":"Point","coordinates":[31.65788,29.91758]}},{"type":"Feature","properties":{"id":"ticari-21","kind":"district","btype":"ticari","name":"Craft Zone","lab":1},"geometry":{"type":"MultiPolygon","coordinates":[[[[31.66853,30.07263],[31.66884,30.07222],[31.6754,30.07209],[31.67557,30.07768],[31.67415,30.07741],[31.67419,30.073],[31.6695,30.073],[31.66853,30.07263]]]]}},{"type":"Feature","properties":{"id":"ticari-lab-21","kind":"district-label","btype":"ticari","name":"Craft Zone"},"geometry":{"type":"Point","coordinates":[31.67358,30.074]}},{"type":"Feature","properties":{"id":"ticari-22","kind":"district","btype":"ticari","name":"Golden Gate","lab":1},"geometry":{"type":"MultiPolygon","coordinates":[[[[31.51167,30.02091],[31.50747,30.02321],[31.50387,30.02467],[31.50366,30.02366],[31.51074,30.01996],[31.51167,30.02091]]]]}},{"type":"Feature","properties":{"id":"ticari-lab-22","kind":"district-label","btype":"ticari","name":"Golden Gate"},"geometry":{"type":"Point","coordinates":[31.50764,30.0223]}},{"type":"Feature","properties":{"id":"ticari-23","kind":"district","btype":"ticari","name":"City Stars Mall","lab":1},"geometry":{"type":"MultiPolygon","coordinates":[[[[31.34348,30.07467],[31.34435,30.07183],[31.34789,30.07208],[31.34787,30.07431],[31.34348,30.07467]]]]}},{"type":"Feature","properties":{"id":"ticari-lab-23","kind":"district-label","btype":"ticari","name":"City Stars Mall"},"geometry":{"type":"Point","coordinates":[31.34581,30.07326]}},{"type":"Feature","properties":{"id":"ticari-24","kind":"district","btype":"ticari","name":"Shopping Area","lab":1},"geometry":{"type":"MultiPolygon","coordinates":[[[[31.23642,30.00832],[31.23479,30.0084],[31.23344,30.0092],[31.2324,30.00856],[31.23415,30.00779],[31.23375,30.0073],[31.23447,30.00673],[31.23457,30.00421],[31.23637,30.0038],[31.236,30.00744],[31.23642,30.00832]]]]}},{"type":"Feature","properties":{"id":"ticari-lab-24","kind":"district-label","btype":"ticari","name":"Shopping Area"},"geometry":{"type":"Point","coordinates":[31.23501,30.00663]}},{"type":"Feature","properties":{"id":"ticari-25","kind":"district","btype":"ticari","name":"El Narges Club","lab":1},"geometry":{"type":"MultiPolygon","coordinates":[[[[31.66196,29.9192],[31.66113,29.91967],[31.66012,29.91967],[31.66016,29.91769],[31.66179,29.91635],[31.6621,29.91517],[31.66371,29.91521],[31.66385,29.9155],[31.66196,29.9192]]]]}},{"type":"Feature","properties":{"id":"ticari-lab-25","kind":"district-label","btype":"ticari","name":"El Narges Club"},"geometry":{"type":"Point","coordinates":[31.66181,29.91745]}},{"type":"Feature","properties":{"id":"ticari-26","kind":"district","btype":"ticari","name":"BADR DRY PORT","lab":1},"geometry":{"type":"MultiPolygon","coordinates":[[[[31.77398,30.10907],[31.77353,30.10601],[31.77395,30.10595],[31.77397,30.10562],[31.77481,30.10543],[31.77498,30.10563],[31.77601,30.10506],[31.77655,30.10884],[31.77398,30.10907]]]]}},{"type":"Feature","properties":{"id":"ticari-lab-26","kind":"district-label","btype":"ticari","name":"BADR DRY PORT"},"geometry":{"type":"Point","coordinates":[31.77505,30.10723]}},{"type":"Feature","properties":{"id":"ticari-27","kind":"district","btype":"ticari","name":"East Hub","lab":1},"geometry":{"type":"MultiPolygon","coordinates":[[[[31.67067,30.07348],[31.67227,30.0753],[31.67313,30.07727],[31.67424,30.07705],[31.6742,30.07323],[31.67084,30.07323],[31.67067,30.07348]]]]}},{"type":"Feature","properties":{"id":"ticari-lab-27","kind":"district-label","btype":"ticari","name":"East Hub"},"geometry":{"type":"Point","coordinates":[31.67297,30.07482]}},{"type":"Feature","properties":{"id":"ticari-28","kind":"district","btype":"ticari","name":"All Seasons Park","lab":1},"geometry":{"type":"MultiPolygon","coordinates":[[[[31.66408,30.07823],[31.66463,30.07769],[31.66384,30.07694],[31.66436,30.07647],[31.66516,30.07712],[31.66596,30.07674],[31.66703,30.07671],[31.66775,30.07939],[31.66749,30.07963],[31.66408,30.07823]]]]}},{"type":"Feature","properties":{"id":"ticari-lab-28","kind":"district-label","btype":"ticari","name":"All Seasons Park"},"geometry":{"type":"Point","coordinates":[31.66599,30.07795]}},{"type":"Feature","properties":{"id":"ticari-29","kind":"district","btype":"ticari","name":"EVERY SLR commercial area 1","lab":1},"geometry":{"type":"MultiPolygon","coordinates":[[[[31.46218,30.08024],[31.46194,30.0814],[31.45637,30.08075],[31.45664,30.07966],[31.46218,30.08024]]]]}},{"type":"Feature","properties":{"id":"ticari-lab-29","kind":"district-label","btype":"ticari","name":"EVERY SLR commercial area 1"},"geometry":{"type":"Point","coordinates":[31.45931,30.08051]}},{"type":"Feature","properties":{"id":"ticari-30","kind":"district","btype":"ticari","name":"EVERY SLR commercial area 2","lab":1},"geometry":{"type":"MultiPolygon","coordinates":[[[[31.47047,30.08109],[31.46442,30.08042],[31.46428,30.08154],[31.47004,30.08202],[31.47047,30.08109]]]]}},{"type":"Feature","properties":{"id":"ticari-lab-30","kind":"district-label","btype":"ticari","name":"EVERY SLR commercial area 2"},"geometry":{"type":"Point","coordinates":[31.46722,30.08126]}},{"type":"Feature","properties":{"id":"ticari-31","kind":"district","btype":"ticari","name":"North loutos Commercial area","lab":1},"geometry":{"type":"MultiPolygon","coordinates":[[[[31.52662,30.03068],[31.52708,30.02717],[31.52771,30.02728],[31.5285,30.02805],[31.52874,30.02879],[31.52847,30.031],[31.52662,30.03068]]]]}},{"type":"Feature","properties":{"id":"ticari-lab-31","kind":"district-label","btype":"ticari","name":"North loutos Commercial area"},"geometry":{"type":"Point","coordinates":[31.52769,30.02922]}},{"type":"Feature","properties":{"id":"ticari-32","kind":"district","btype":"ticari","name":"5th Square commercial area","lab":1},"geometry":{"type":"MultiPolygon","coordinates":[[[[31.5329,30.05295],[31.53416,30.05236],[31.53615,30.05524],[31.53612,30.05568],[31.5352,30.05665],[31.5329,30.05295]]]]}},{"type":"Feature","properties":{"id":"ticari-lab-32","kind":"district-label","btype":"ticari","name":"5th Square commercial area"},"geometry":{"type":"Point","coordinates":[31.53464,30.0544]}},{"type":"Feature","properties":{"id":"ticari-33","kind":"district","btype":"ticari","name":"مدينة الانتاج الإعلامي","lab":1},"geometry":{"type":"MultiPolygon","coordinates":[[[[31.19681,30.00306],[31.19485,30.00227],[31.19446,30.00423],[31.19396,30.0042],[31.19387,30.00624],[31.19447,30.00643],[31.19464,30.0054],[31.19561,30.00529],[31.19581,30.00401],[31.19658,30.00393],[31.19681,30.00306]]]]}},{"type":"Feature","properties":{"id":"ticari-lab-33","kind":"district-label","btype":"ticari","name":"مدينة الانتاج الإعلامي"},"geometry":{"type":"Point","coordinates":[31.19513,30.00415]}},{"type":"Feature","properties":{"id":"ticari-34","kind":"district","btype":"ticari","name":"Khan el-Khalili","lab":1},"geometry":{"type":"MultiPolygon","coordinates":[[[[31.26048,30.04915],[31.25948,30.04679],[31.26037,30.04639],[31.26159,30.04653],[31.2625,30.04878],[31.26048,30.04915]]]]}},{"type":"Feature","properties":{"id":"ticari-lab-34","kind":"district-label","btype":"ticari","name":"Khan el-Khalili"},"geometry":{"type":"Point","coordinates":[31.26097,30.04774]}},{"type":"Feature","properties":{"id":"ticari-35","kind":"district","btype":"ticari","name":"Hyde park Office District","lab":1},"geometry":{"type":"MultiPolygon","coordinates":[[[[31.54312,29.97228],[31.54526,29.97265],[31.5448,29.97456],[31.54419,29.97517],[31.54265,29.97463],[31.54312,29.97228]]]]}},{"type":"Feature","properties":{"id":"ticari-lab-35","kind":"district-label","btype":"ticari","name":"Hyde park Office District"},"geometry":{"type":"Point","coordinates":[31.54392,29.97367]}},{"type":"Feature","properties":{"id":"ticari-36","kind":"district","btype":"ticari","name":"EDNC Commercial area","lab":1},"geometry":{"type":"MultiPolygon","coordinates":[[[[31.51311,30.01506],[31.51468,30.01638],[31.51262,30.01792],[31.51199,30.01802],[31.51133,30.01682],[31.51311,30.01506]]]]}},{"type":"Feature","properties":{"id":"ticari-lab-36","kind":"district-label","btype":"ticari","name":"EDNC Commercial area"},"geometry":{"type":"Point","coordinates":[31.51289,30.01661]}},{"type":"Feature","properties":{"id":"ticari-37","kind":"district","btype":"ticari","name":"Three Sixty Commercial area","lab":1},"geometry":{"type":"MultiPolygon","coordinates":[[[[31.55201,30.02954],[31.55028,30.0289],[31.54898,30.02744],[31.54952,30.02716],[31.5515,30.02723],[31.55223,30.02818],[31.55201,30.02954]]]]}},{"type":"Feature","properties":{"id":"ticari-lab-37","kind":"district-label","btype":"ticari","name":"Three Sixty Commercial area"},"geometry":{"type":"Point","coordinates":[31.55084,30.02815]}},{"type":"Feature","properties":{"id":"ticari-38","kind":"district","btype":"ticari","name":"Mivida Lake District","lab":1},"geometry":{"type":"MultiPolygon","coordinates":[[[[31.53608,30.00638],[31.53706,30.00734],[31.5367,30.0084],[31.53526,30.00933],[31.53395,30.00804],[31.53608,30.00638]]]]}},{"type":"Feature","properties":{"id":"ticari-lab-38","kind":"district-label","btype":"ticari","name":"Mivida Lake District"},"geometry":{"type":"Point","coordinates":[31.53564,30.00788]}}]}