{"type":"FeatureCollection","features":[{"type":"Feature","properties":{"id":"ih-eczane-0","kind":"poi","name":"صيدلية صبري الجديدة الحوامدية","theme":"eczane","lab":1},"geometry":{"type":"Point","coordinates":[31.25909,29.89439]}},{"type":"Feature","properties":{"id":"ih-eczane-1","kind":"poi","name":"s.alkhouly pharmacy","theme":"eczane","lab":1},"geometry":{"type":"Point","coordinates":[31.09285,29.96489]}},{"type":"Feature","properties":{"id":"ih-eczane-2","kind":"poi","name":"elFath Pharmacy","theme":"eczane","lab":1},"geometry":{"type":"Point","coordinates":[31.17656,29.99466]}},{"type":"Feature","properties":{"id":"ih-eczane-3","kind":"poi","name":"Sandy pharmacy","theme":"eczane","lab":1},"geometry":{"type":"Point","coordinates":[31.34299,30.06626]}},{"type":"Feature","properties":{"id":"ih-eczane-4","kind":"poi","name":"El Ezaby Pharmacy","theme":"eczane","lab":1},"geometry":{"type":"Point","coordinates":[31.18779,30.00891]}},{"type":"Feature","properties":{"id":"ih-eczane-5","kind":"poi","name":"El Ezaby Pharmacy","theme":"eczane","lab":1},"geometry":{"type":"Point","coordinates":[31.13588,29.98989]}},{"type":"Feature","properties":{"id":"ih-eczane-6","kind":"poi","name":"Al-Safa pharmacy","theme":"eczane","lab":1},"geometry":{"type":"Point","coordinates":[31.33748,30.08276]}},{"type":"Feature","properties":{"id":"ih-eczane-7","kind":"poi","name":"Al-Marwa Pharmacy","theme":"eczane","lab":1},"geometry":{"type":"Point","coordinates":[31.32683,30.07872]}},{"type":"Feature","properties":{"id":"ih-eczane-8","kind":"poi","name":"مصطفى محمود","theme":"eczane","lab":1},"geometry":{"type":"Point","coordinates":[31.33108,30.05284]}},{"type":"Feature","properties":{"id":"ih-eczane-9","kind":"poi","name":"فضل","theme":"eczane","lab":1},"geometry":{"type":"Point","coordinates":[31.24702,30.04478]}},{"type":"Feature","properties":{"id":"ih-eczane-10","kind":"poi","name":"صيدليه الشنهاب","theme":"eczane","lab":1},"geometry":{"type":"Point","coordinates":[31.17149,30.00299]}},{"type":"Feature","properties":{"id":"ih-eczane-11","kind":"poi","name":"صيدلية نور الإسلام","theme":"eczane","lab":1},"geometry":{"type":"Point","coordinates":[31.19197,30.12383]}},{"type":"Feature","properties":{"id":"ih-eczane-12","kind":"poi","name":"صيدلية محمود","theme":"eczane","lab":1},"geometry":{"type":"Point","coordinates":[31.26185,30.10152]}},{"type":"Feature","properties":{"id":"ih-eczane-13","kind":"poi","name":"صيدلية ليلة","theme":"eczane","lab":1},"geometry":{"type":"Point","coordinates":[31.32895,30.01179]}},{"type":"Feature","properties":{"id":"ih-eczane-14","kind":"poi","name":"صيدلية كارمن","theme":"eczane","lab":1},"geometry":{"type":"Point","coordinates":[31.3615,30.05612]}},{"type":"Feature","properties":{"id":"ih-eczane-15","kind":"poi","name":"صيدلية على ايمدج","theme":"eczane","lab":1},"geometry":{"type":"Point","coordinates":[31.33896,30.09768]}},{"type":"Feature","properties":{"id":"ih-eczane-16","kind":"poi","name":"صيدلية عدنان","theme":"eczane","lab":1},"geometry":{"type":"Point","coordinates":[31.52452,30.27212]}},{"type":"Feature","properties":{"id":"ih-eczane-17","kind":"poi","name":"صيدلية صحة","theme":"eczane","lab":1},"geometry":{"type":"Point","coordinates":[31.64725,30.08775]}},{"type":"Feature","properties":{"id":"ih-eczane-18","kind":"poi","name":"صيدلية شاهبور","theme":"eczane","lab":1},"geometry":{"type":"Point","coordinates":[31.31807,29.99122]}},{"type":"Feature","properties":{"id":"ih-eczane-19","kind":"poi","name":"صيدلية سوسن الحديثة","theme":"eczane","lab":1},"geometry":{"type":"Point","coordinates":[31.38116,30.0543]}},{"type":"Feature","properties":{"id":"ih-eczane-20","kind":"poi","name":"صيدلية سكاي سنتر","theme":"eczane","lab":1},"geometry":{"type":"Point","coordinates":[31.21522,30.01974]}},{"type":"Feature","properties":{"id":"ih-eczane-21","kind":"poi","name":"صيدلية رشدى","theme":"eczane","lab":1},"geometry":{"type":"Point","coordinates":[31.36045,30.06006]}},{"type":"Feature","properties":{"id":"ih-eczane-22","kind":"poi","name":"صيدلية رشدى","theme":"eczane","lab":1},"geometry":{"type":"Point","coordinates":[31.24473,30.05967]}},{"type":"Feature","properties":{"id":"ih-eczane-23","kind":"poi","name":"صيدلية د/هبة بدر","theme":"eczane","lab":1},"geometry":{"type":"Point","coordinates":[31.09582,30.22051]}},{"type":"Feature","properties":{"id":"ih-eczane-24","kind":"poi","name":"صيدلية د.هيثم فتحى رضوان","theme":"eczane","lab":1},"geometry":{"type":"Point","coordinates":[31.04505,29.95564]}},{"type":"Feature","properties":{"id":"ih-eczane-25","kind":"poi","name":"صيدلية د.سارة محي الدين","theme":"eczane","lab":1},"geometry":{"type":"Point","coordinates":[31.03915,29.95806]}},{"type":"Feature","properties":{"id":"ih-eczane-26","kind":"poi","name":"صيدلية د. وليد كشك","theme":"eczane","lab":1},"geometry":{"type":"Point","coordinates":[31.71012,30.11743]}},{"type":"Feature","properties":{"id":"ih-eczane-27","kind":"poi","name":"صيدلية د. نورهان","theme":"eczane","lab":1},"geometry":{"type":"Point","coordinates":[31.25164,30.04026]}},{"type":"Feature","properties":{"id":"ih-eczane-28","kind":"poi","name":"صيدلية خالد الغزلاني","theme":"eczane","lab":1},"geometry":{"type":"Point","coordinates":[31.11849,30.03283]}},{"type":"Feature","properties":{"id":"ih-eczane-29","kind":"poi","name":"صيدلية جون عدلى","theme":"eczane","lab":1},"geometry":{"type":"Point","coordinates":[31.34242,30.11006]}},{"type":"Feature","properties":{"id":"ih-eczane-30","kind":"poi","name":"صيدلية الشيخ","theme":"eczane","lab":1},"geometry":{"type":"Point","coordinates":[31.33734,30.10873]}},{"type":"Feature","properties":{"id":"ih-eczane-31","kind":"poi","name":"صيدلية السداوي","theme":"eczane","lab":1},"geometry":{"type":"Point","coordinates":[31.43201,30.02084]}},{"type":"Feature","properties":{"id":"ih-eczane-32","kind":"poi","name":"صيدلية الخليج","theme":"eczane","lab":1},"geometry":{"type":"Point","coordinates":[31.24968,30.03883]}},{"type":"Feature","properties":{"id":"ih-eczane-33","kind":"poi","name":"صيدلية الاء","theme":"eczane","lab":1},"geometry":{"type":"Point","coordinates":[31.8065,30.16521]}},{"type":"Feature","properties":{"id":"ih-eczane-34","kind":"poi","name":"صيدلية أبو العز","theme":"eczane","lab":1},"geometry":{"type":"Point","coordinates":[31.23264,30.02969]}},{"type":"Feature","properties":{"id":"ih-eczane-35","kind":"poi","name":"دلمار وعطاالله","theme":"eczane","lab":1},"geometry":{"type":"Point","coordinates":[31.24714,29.97187]}},{"type":"Feature","properties":{"id":"ih-eczane-36","kind":"poi","name":"العزبي","theme":"eczane","lab":1},"geometry":{"type":"Point","coordinates":[31.23006,29.98531]}},{"type":"Feature","properties":{"id":"ih-eczane-37","kind":"poi","name":"ابو سنه","theme":"eczane","lab":1},"geometry":{"type":"Point","coordinates":[31.1589,29.97747]}},{"type":"Feature","properties":{"id":"ih-eczane-38","kind":"poi","name":"elezaby","theme":"eczane","lab":1},"geometry":{"type":"Point","coordinates":[31.26263,30.04749]}},{"type":"Feature","properties":{"id":"ih-eczane-39","kind":"poi","name":"Sherif El Akkad Pharmacy","theme":"eczane","lab":1},"geometry":{"type":"Point","coordinates":[31.21487,30.01717]}},{"type":"Feature","properties":{"id":"ih-eczane-40","kind":"poi","name":"Shakshak pharmacy","theme":"eczane","lab":1},"geometry":{"type":"Point","coordinates":[31.48003,30.22227]}},{"type":"Feature","properties":{"id":"ih-eczane-41","kind":"poi","name":"Seif","theme":"eczane","lab":1},"geometry":{"type":"Point","coordinates":[31.4841,30.02495]}},{"type":"Feature","properties":{"id":"ih-eczane-42","kind":"poi","name":"Salem Pharmacies (صيدليات سالم) فرع المريوطية","theme":"eczane","lab":1},"geometry":{"type":"Point","coordinates":[31.14371,29.99888]}},{"type":"Feature","properties":{"id":"ih-eczane-43","kind":"poi","name":"Salem Pharmacies (صيدليات سالم)","theme":"eczane","lab":1},"geometry":{"type":"Point","coordinates":[31.14755,29.99432]}},{"type":"Feature","properties":{"id":"ih-eczane-44","kind":"poi","name":"Salem","theme":"eczane","lab":1},"geometry":{"type":"Point","coordinates":[31.22531,30.01651]}},{"type":"Feature","properties":{"id":"ih-eczane-45","kind":"poi","name":"Sakla","theme":"eczane","lab":1},"geometry":{"type":"Point","coordinates":[31.27867,29.96935]}},{"type":"Feature","properties":{"id":"ih-eczane-46","kind":"poi","name":"Rana Pharmacy","theme":"eczane","lab":1},"geometry":{"type":"Point","coordinates":[31.27256,30.0911]}},{"type":"Feature","properties":{"id":"ih-eczane-47","kind":"poi","name":"Pharmacy 24/7","theme":"eczane","lab":1},"geometry":{"type":"Point","coordinates":[31.21173,30.03445]}},{"type":"Feature","properties":{"id":"ih-eczane-48","kind":"poi","name":"Orthodox Church","theme":"eczane","lab":1},"geometry":{"type":"Point","coordinates":[31.05388,29.93106]}},{"type":"Feature","properties":{"id":"ih-eczane-49","kind":"poi","name":"Normandy","theme":"eczane","lab":1},"geometry":{"type":"Point","coordinates":[31.32274,30.09183]}},{"type":"Feature","properties":{"id":"ih-eczane-50","kind":"poi","name":"Nahla","theme":"eczane","lab":1},"geometry":{"type":"Point","coordinates":[31.1898,30.00611]}},{"type":"Feature","properties":{"id":"ih-eczane-51","kind":"poi","name":"Mira Pharmacy","theme":"eczane","lab":1},"geometry":{"type":"Point","coordinates":[31.21647,30.06603]}},{"type":"Feature","properties":{"id":"ih-eczane-52","kind":"poi","name":"Mekka","theme":"eczane","lab":1},"geometry":{"type":"Point","coordinates":[31.31645,30.09193]}},{"type":"Feature","properties":{"id":"ih-eczane-53","kind":"poi","name":"May Salamouny Pharmacy","theme":"eczane","lab":1},"geometry":{"type":"Point","coordinates":[31.26335,29.95369]}},{"type":"Feature","properties":{"id":"ih-eczane-54","kind":"poi","name":"Mahmoud el Khouly Pharmacy","theme":"eczane","lab":1},"geometry":{"type":"Point","coordinates":[31.27702,29.96136]}},{"type":"Feature","properties":{"id":"ih-market-0","kind":"poi","name":"كشك","theme":"market","lab":1},"geometry":{"type":"Point","coordinates":[31.26519,29.89613]}},{"type":"Feature","properties":{"id":"ih-market-1","kind":"poi","name":"عطارة اهل بيت رسول الله","theme":"market","lab":1},"geometry":{"type":"Point","coordinates":[31.20797,30.08155]}},{"type":"Feature","properties":{"id":"ih-market-2","kind":"poi","name":"سوق الجمله","theme":"market","lab":1},"geometry":{"type":"Point","coordinates":[31.17934,30.08694]}},{"type":"Feature","properties":{"id":"ih-market-3","kind":"poi","name":"سميراميس","theme":"market","lab":1},"geometry":{"type":"Point","coordinates":[31.20613,30.05722]}},{"type":"Feature","properties":{"id":"ih-market-4","kind":"poi","name":"روتانا 2","theme":"market","lab":1},"geometry":{"type":"Point","coordinates":[31.47408,30.25888]}},{"type":"Feature","properties":{"id":"ih-market-5","kind":"poi","name":"خير زمان سوبر ماركت","theme":"market","lab":1},"geometry":{"type":"Point","coordinates":[31.20948,30.03875]}},{"type":"Feature","properties":{"id":"ih-market-6","kind":"poi","name":"جملة الحمد","theme":"market","lab":1},"geometry":{"type":"Point","coordinates":[31.24922,30.05869]}},{"type":"Feature","properties":{"id":"ih-market-7","kind":"poi","name":"تسالي عمر","theme":"market","lab":1},"geometry":{"type":"Point","coordinates":[31.19144,30.0845]}},{"type":"Feature","properties":{"id":"ih-market-8","kind":"poi","name":"بترومين","theme":"market","lab":1},"geometry":{"type":"Point","coordinates":[31.46925,30.25785]}},{"type":"Feature","properties":{"id":"ih-market-9","kind":"poi","name":"اولاد زغلول","theme":"market","lab":1},"geometry":{"type":"Point","coordinates":[31.22159,30.09285]}},{"type":"Feature","properties":{"id":"ih-market-10","kind":"poi","name":"الواحه","theme":"market","lab":1},"geometry":{"type":"Point","coordinates":[31.71986,30.12902]}},{"type":"Feature","properties":{"id":"ih-market-11","kind":"poi","name":"المدينه المنورة","theme":"market","lab":1},"geometry":{"type":"Point","coordinates":[31.71279,30.13232]}},{"type":"Feature","properties":{"id":"ih-market-12","kind":"poi","name":"العسكري","theme":"market","lab":1},"geometry":{"type":"Point","coordinates":[31.23329,30.07756]}},{"type":"Feature","properties":{"id":"ih-market-13","kind":"poi","name":"الصفا","theme":"market","lab":1},"geometry":{"type":"Point","coordinates":[31.47201,30.24901]}},{"type":"Feature","properties":{"id":"ih-market-14","kind":"poi","name":"السروجي","theme":"market","lab":1},"geometry":{"type":"Point","coordinates":[31.65722,30.14704]}},{"type":"Feature","properties":{"id":"ih-market-15","kind":"poi","name":"الباشا","theme":"market","lab":1},"geometry":{"type":"Point","coordinates":[31.30613,30.10293]}},{"type":"Feature","properties":{"id":"ih-market-16","kind":"poi","name":"اسواق الحمد","theme":"market","lab":1},"geometry":{"type":"Point","coordinates":[31.7078,30.12758]}},{"type":"Feature","properties":{"id":"ih-market-17","kind":"poi","name":"ادم","theme":"market","lab":1},"geometry":{"type":"Point","coordinates":[31.45971,30.05467]}},{"type":"Feature","properties":{"id":"ih-market-18","kind":"poi","name":"Zamzam Supermarket","theme":"market","lab":1},"geometry":{"type":"Point","coordinates":[31.34534,30.08519]}},{"type":"Feature","properties":{"id":"ih-market-19","kind":"poi","name":"Seoudi","theme":"market","lab":1},"geometry":{"type":"Point","coordinates":[31.32748,30.05914]}},{"type":"Feature","properties":{"id":"ih-market-20","kind":"poi","name":"Organic and More","theme":"market","lab":1},"geometry":{"type":"Point","coordinates":[31.4292,30.15222]}},{"type":"Feature","properties":{"id":"ih-market-21","kind":"poi","name":"Exeption Market","theme":"market","lab":1},"geometry":{"type":"Point","coordinates":[31.64167,30.09007]}},{"type":"Feature","properties":{"id":"ih-market-22","kind":"poi","name":"Commissary","theme":"market","lab":1},"geometry":{"type":"Point","coordinates":[31.31803,29.9596]}},{"type":"Feature","properties":{"id":"ih-market-23","kind":"poi","name":"Carrefour Market","theme":"market","lab":1},"geometry":{"type":"Point","coordinates":[31.47597,30.17446]}},{"type":"Feature","properties":{"id":"ih-market-24","kind":"poi","name":"Carrefour (Zahraa Medinat Masr)","theme":"market","lab":1},"geometry":{"type":"Point","coordinates":[31.37996,30.05522]}},{"type":"Feature","properties":{"id":"ih-market-25","kind":"poi","name":"Carrefour","theme":"market","lab":1},"geometry":{"type":"Point","coordinates":[31.6445,30.15291]}},{"type":"Feature","properties":{"id":"ih-market-26","kind":"poi","name":"Carrefour","theme":"market","lab":1},"geometry":{"type":"Point","coordinates":[31.62898,30.10672]}},{"type":"Feature","properties":{"id":"ih-market-27","kind":"poi","name":"Carrefour","theme":"market","lab":1},"geometry":{"type":"Point","coordinates":[31.53389,30.01754]}},{"type":"Feature","properties":{"id":"ih-market-28","kind":"poi","name":"Carrefour","theme":"market","lab":1},"geometry":{"type":"Point","coordinates":[31.41332,30.01691]}},{"type":"Feature","properties":{"id":"ih-market-29","kind":"poi","name":"Carrefour","theme":"market","lab":1},"geometry":{"type":"Point","coordinates":[31.40705,30.02736]}},{"type":"Feature","properties":{"id":"ih-market-30","kind":"poi","name":"Carrefour","theme":"market","lab":1},"geometry":{"type":"Point","coordinates":[31.38687,30.10283]}},{"type":"Feature","properties":{"id":"ih-market-31","kind":"poi","name":"Carrefour","theme":"market","lab":1},"geometry":{"type":"Point","coordinates":[31.32158,30.08222]}},{"type":"Feature","properties":{"id":"ih-market-32","kind":"poi","name":"Carrefour","theme":"market","lab":1},"geometry":{"type":"Point","coordinates":[31.17148,29.99826]}},{"type":"Feature","properties":{"id":"ih-market-33","kind":"poi","name":"Carrefour","theme":"market","lab":1},"geometry":{"type":"Point","coordinates":[31.14101,29.9879]}},{"type":"Feature","properties":{"id":"ih-market-34","kind":"poi","name":"Carfour","theme":"market","lab":1},"geometry":{"type":"Point","coordinates":[31.28169,29.92932]}},{"type":"Feature","properties":{"id":"ih-market-35","kind":"poi","name":"Blue Shell sporting goods","theme":"market","lab":1},"geometry":{"type":"Point","coordinates":[31.19367,30.00621]}},{"type":"Feature","properties":{"id":"ih-market-36","kind":"poi","name":"Benda super market","theme":"market","lab":1},"geometry":{"type":"Point","coordinates":[31.34234,30.06967]}},{"type":"Feature","properties":{"id":"ih-market-37","kind":"poi","name":"وليد جاد","theme":"market","lab":1},"geometry":{"type":"Point","coordinates":[31.26281,29.85014]}},{"type":"Feature","properties":{"id":"ih-market-38","kind":"poi","name":"هايبر كينج  ماركت","theme":"market","lab":1},"geometry":{"type":"Point","coordinates":[31.14191,30.00068]}},{"type":"Feature","properties":{"id":"ih-market-39","kind":"poi","name":"هايبر الصالحية","theme":"market","lab":1},"geometry":{"type":"Point","coordinates":[31.81886,30.16361]}},{"type":"Feature","properties":{"id":"ih-market-40","kind":"poi","name":"نور","theme":"market","lab":1},"geometry":{"type":"Point","coordinates":[31.64095,30.18111]}},{"type":"Feature","properties":{"id":"ih-market-41","kind":"poi","name":"نور","theme":"market","lab":1},"geometry":{"type":"Point","coordinates":[31.45827,30.24906]}},{"type":"Feature","properties":{"id":"ih-market-42","kind":"poi","name":"نجمة الهضبه","theme":"market","lab":1},"geometry":{"type":"Point","coordinates":[31.31806,29.99167]}},{"type":"Feature","properties":{"id":"ih-market-43","kind":"poi","name":"نجمة العاصمة","theme":"market","lab":1},"geometry":{"type":"Point","coordinates":[31.80903,30.16149]}},{"type":"Feature","properties":{"id":"ih-market-44","kind":"poi","name":"ميني كارفور","theme":"market","lab":1},"geometry":{"type":"Point","coordinates":[31.3971,29.97541]}},{"type":"Feature","properties":{"id":"ih-market-45","kind":"poi","name":"مول ٦٣","theme":"market","lab":1},"geometry":{"type":"Point","coordinates":[31.65813,30.1375]}},{"type":"Feature","properties":{"id":"ih-market-46","kind":"poi","name":"مول البركة","theme":"market","lab":1},"geometry":{"type":"Point","coordinates":[31.46771,30.06378]}},{"type":"Feature","properties":{"id":"ih-market-47","kind":"poi","name":"منفذ بيع القوات المسلحة","theme":"market","lab":1},"geometry":{"type":"Point","coordinates":[31.40934,30.15531]}},{"type":"Feature","properties":{"id":"ih-market-48","kind":"poi","name":"من خير بلدنا","theme":"market","lab":1},"geometry":{"type":"Point","coordinates":[31.26326,29.90638]}},{"type":"Feature","properties":{"id":"ih-market-49","kind":"poi","name":"مكه","theme":"market","lab":1},"geometry":{"type":"Point","coordinates":[31.47949,30.01862]}},{"type":"Feature","properties":{"id":"ih-market-50","kind":"poi","name":"مكتبة شادى","theme":"market","lab":1},"geometry":{"type":"Point","coordinates":[31.34544,30.13482]}},{"type":"Feature","properties":{"id":"ih-market-51","kind":"poi","name":"مقلة صلاح الدين","theme":"market","lab":1},"geometry":{"type":"Point","coordinates":[31.27576,29.89724]}},{"type":"Feature","properties":{"id":"ih-market-52","kind":"poi","name":"مقلة المنصوريه","theme":"market","lab":1},"geometry":{"type":"Point","coordinates":[31.21792,30.10343]}},{"type":"Feature","properties":{"id":"ih-market-53","kind":"poi","name":"مقلة الشروق","theme":"market","lab":1},"geometry":{"type":"Point","coordinates":[31.60775,30.16196]}},{"type":"Feature","properties":{"id":"ih-market-54","kind":"poi","name":"مترو","theme":"market","lab":1},"geometry":{"type":"Point","coordinates":[31.54604,30.16081]}},{"type":"Feature","properties":{"id":"ih-yakit-0","kind":"poi","name":"محطة موبيل","theme":"yakit","lab":1},"geometry":{"type":"Point","coordinates":[31.43081,30.07154]}},{"type":"Feature","properties":{"id":"ih-yakit-1","kind":"poi","name":"الوطنيه","theme":"yakit","lab":1},"geometry":{"type":"Point","coordinates":[31.31693,30.11343]}},{"type":"Feature","properties":{"id":"ih-yakit-2","kind":"poi","name":"الوطنية","theme":"yakit","lab":1},"geometry":{"type":"Point","coordinates":[31.23368,29.95841]}},{"type":"Feature","properties":{"id":"ih-yakit-3","kind":"poi","name":"Watanya gas station","theme":"yakit","lab":1},"geometry":{"type":"Point","coordinates":[31.31309,29.96795]}},{"type":"Feature","properties":{"id":"ih-yakit-4","kind":"poi","name":"Vitctoria's Gas Station","theme":"yakit","lab":1},"geometry":{"type":"Point","coordinates":[31.25345,30.08815]}},{"type":"Feature","properties":{"id":"ih-yakit-5","kind":"poi","name":"TotalEnergies Gas Station","theme":"yakit","lab":1},"geometry":{"type":"Point","coordinates":[31.3728,30.1096]}},{"type":"Feature","properties":{"id":"ih-yakit-6","kind":"poi","name":"TotalEnergies","theme":"yakit","lab":1},"geometry":{"type":"Point","coordinates":[31.38735,29.99402]}},{"type":"Feature","properties":{"id":"ih-yakit-7","kind":"poi","name":"TotalEnergies","theme":"yakit","lab":1},"geometry":{"type":"Point","coordinates":[31.28103,29.97339]}},{"type":"Feature","properties":{"id":"ih-yakit-8","kind":"poi","name":"TotalEnergies","theme":"yakit","lab":1},"geometry":{"type":"Point","coordinates":[31.25316,29.9564]}},{"type":"Feature","properties":{"id":"ih-yakit-9","kind":"poi","name":"Total Gas station","theme":"yakit","lab":1},"geometry":{"type":"Point","coordinates":[31.36855,29.82177]}},{"type":"Feature","properties":{"id":"ih-yakit-10","kind":"poi","name":"Total","theme":"yakit","lab":1},"geometry":{"type":"Point","coordinates":[31.46172,30.19328]}},{"type":"Feature","properties":{"id":"ih-yakit-11","kind":"poi","name":"Total","theme":"yakit","lab":1},"geometry":{"type":"Point","coordinates":[31.3671,29.98339]}},{"type":"Feature","properties":{"id":"ih-yakit-12","kind":"poi","name":"Total","theme":"yakit","lab":1},"geometry":{"type":"Point","coordinates":[31.34431,30.065]}},{"type":"Feature","properties":{"id":"ih-yakit-13","kind":"poi","name":"Total","theme":"yakit","lab":1},"geometry":{"type":"Point","coordinates":[31.34117,30.08524]}},{"type":"Feature","properties":{"id":"ih-yakit-14","kind":"poi","name":"Total","theme":"yakit","lab":1},"geometry":{"type":"Point","coordinates":[31.28872,29.98239]}},{"type":"Feature","properties":{"id":"ih-yakit-15","kind":"poi","name":"Total","theme":"yakit","lab":1},"geometry":{"type":"Point","coordinates":[31.21505,29.99036]}},{"type":"Feature","properties":{"id":"ih-yakit-16","kind":"poi","name":"Total","theme":"yakit","lab":1},"geometry":{"type":"Point","coordinates":[31.20339,30.0653]}},{"type":"Feature","properties":{"id":"ih-yakit-17","kind":"poi","name":"Total","theme":"yakit","lab":1},"geometry":{"type":"Point","coordinates":[31.20125,30.00966]}},{"type":"Feature","properties":{"id":"ih-yakit-18","kind":"poi","name":"Total","theme":"yakit","lab":1},"geometry":{"type":"Point","coordinates":[31.19157,30.00538]}},{"type":"Feature","properties":{"id":"ih-yakit-19","kind":"poi","name":"Total","theme":"yakit","lab":1},"geometry":{"type":"Point","coordinates":[31.17935,30.00082]}},{"type":"Feature","properties":{"id":"ih-yakit-20","kind":"poi","name":"Total","theme":"yakit","lab":1},"geometry":{"type":"Point","coordinates":[31.15334,29.99158]}},{"type":"Feature","properties":{"id":"ih-yakit-21","kind":"poi","name":"Total","theme":"yakit","lab":1},"geometry":{"type":"Point","coordinates":[31.09661,29.94088]}},{"type":"Feature","properties":{"id":"ih-yakit-22","kind":"poi","name":"Shell","theme":"yakit","lab":1},"geometry":{"type":"Point","coordinates":[31.32408,30.0949]}},{"type":"Feature","properties":{"id":"ih-yakit-23","kind":"poi","name":"Shell","theme":"yakit","lab":1},"geometry":{"type":"Point","coordinates":[31.21463,29.99786]}},{"type":"Feature","properties":{"id":"ih-yakit-24","kind":"poi","name":"Shell","theme":"yakit","lab":1},"geometry":{"type":"Point","coordinates":[31.03231,30.06023]}},{"type":"Feature","properties":{"id":"ih-yakit-25","kind":"poi","name":"Oilibya","theme":"yakit","lab":1},"geometry":{"type":"Point","coordinates":[31.37538,29.84257]}},{"type":"Feature","properties":{"id":"ih-yakit-26","kind":"poi","name":"Oil Libya","theme":"yakit","lab":1},"geometry":{"type":"Point","coordinates":[31.35845,29.98759]}},{"type":"Feature","properties":{"id":"ih-yakit-27","kind":"poi","name":"OiLibya","theme":"yakit","lab":1},"geometry":{"type":"Point","coordinates":[31.42419,30.02218]}},{"type":"Feature","properties":{"id":"ih-yakit-28","kind":"poi","name":"Mobil Gas Station - Nasr Road","theme":"yakit","lab":1},"geometry":{"type":"Point","coordinates":[31.32063,30.06734]}},{"type":"Feature","properties":{"id":"ih-yakit-29","kind":"poi","name":"Mobil Gas Station - Madinaty Gate 2","theme":"yakit","lab":1},"geometry":{"type":"Point","coordinates":[31.63307,30.10883]}},{"type":"Feature","properties":{"id":"ih-kutuphane-0","kind":"poi","name":"Dominican Institute for Oriental Studies in Cairo","theme":"kutuphane","lab":1},"geometry":{"type":"Point","coordinates":[31.27177,30.05699]}},{"type":"Feature","properties":{"id":"ih-kutuphane-1","kind":"poi","name":"The Library The British University in Egypt","theme":"kutuphane","lab":1},"geometry":{"type":"Point","coordinates":[31.6101,30.11897]}},{"type":"Feature","properties":{"id":"ih-kutuphane-2","kind":"poi","name":"Goethe-Institut Library","theme":"kutuphane","lab":1},"geometry":{"type":"Point","coordinates":[31.236,30.04574]}},{"type":"Feature","properties":{"id":"ih-kutuphane-3","kind":"poi","name":"Faculty of Engineering Library","theme":"kutuphane","lab":1},"geometry":{"type":"Point","coordinates":[31.21152,30.02525]}},{"type":"Feature","properties":{"id":"ih-kutuphane-4","kind":"poi","name":"Central Library, Faculty of Agriculture","theme":"kutuphane","lab":1},"geometry":{"type":"Point","coordinates":[31.21124,30.01709]}},{"type":"Feature","properties":{"id":"ih-kutuphane-5","kind":"poi","name":"Central Library","theme":"kutuphane","lab":1},"geometry":{"type":"Point","coordinates":[31.31523,29.86623]}},{"type":"Feature","properties":{"id":"ih-kutuphane-6","kind":"poi","name":"AUC Library","theme":"kutuphane","lab":1},"geometry":{"type":"Point","coordinates":[31.50022,30.01985]}},{"type":"Feature","properties":{"id":"ih-kutuphane-7","kind":"poi","name":"مكتبة دار الطب","theme":"kutuphane","lab":1},"geometry":{"type":"Point","coordinates":[31.28233,30.07423]}},{"type":"Feature","properties":{"id":"ih-kutuphane-8","kind":"poi","name":"طباعه اورق","theme":"kutuphane","lab":1},"geometry":{"type":"Point","coordinates":[31.25287,30.0742]}},{"type":"Feature","properties":{"id":"ih-kutuphane-9","kind":"poi","name":"جمال","theme":"kutuphane","lab":1},"geometry":{"type":"Point","coordinates":[31.28228,30.09424]}},{"type":"Feature","properties":{"id":"ih-kutuphane-10","kind":"poi","name":"The Grand Misr Mosque Public Library","theme":"kutuphane","lab":1},"geometry":{"type":"Point","coordinates":[31.7564,30.00142]}},{"type":"Feature","properties":{"id":"ih-kutuphane-11","kind":"poi","name":"Sahah itqon","theme":"kutuphane","lab":1},"geometry":{"type":"Point","coordinates":[31.26455,30.04894]}},{"type":"Feature","properties":{"id":"ih-kutuphane-12","kind":"poi","name":"National Archives of Egypt","theme":"kutuphane","lab":1},"geometry":{"type":"Point","coordinates":[31.2278,30.06635]}},{"type":"Feature","properties":{"id":"ih-kutuphane-13","kind":"poi","name":"Nasr City Public Library","theme":"kutuphane","lab":1},"geometry":{"type":"Point","coordinates":[31.34834,30.06199]}},{"type":"Feature","properties":{"id":"ih-kutuphane-14","kind":"poi","name":"Music Library","theme":"kutuphane","lab":1},"geometry":{"type":"Point","coordinates":[31.22596,30.04302]}},{"type":"Feature","properties":{"id":"ih-kutuphane-15","kind":"poi","name":"Maadi Public Library","theme":"kutuphane","lab":1},"geometry":{"type":"Point","coordinates":[31.27132,29.97324]}},{"type":"Feature","properties":{"id":"ih-kutuphane-16","kind":"poi","name":"Lovely student","theme":"kutuphane","lab":1},"geometry":{"type":"Point","coordinates":[31.27674,30.12659]}},{"type":"Feature","properties":{"id":"ih-kutuphane-17","kind":"poi","name":"Khaled Ibn ElWaleed","theme":"kutuphane","lab":1},"geometry":{"type":"Point","coordinates":[31.21309,30.06711]}},{"type":"Feature","properties":{"id":"ih-kutuphane-18","kind":"poi","name":"Japanese foundation Cairo office","theme":"kutuphane","lab":1},"geometry":{"type":"Point","coordinates":[31.23005,30.03928]}},{"type":"Feature","properties":{"id":"ih-kutuphane-19","kind":"poi","name":"Harvard","theme":"kutuphane","lab":1},"geometry":{"type":"Point","coordinates":[31.28499,30.08003]}},{"type":"Feature","properties":{"id":"ih-kutuphane-20","kind":"poi","name":"Egypt's Public Library","theme":"kutuphane","lab":1},"geometry":{"type":"Point","coordinates":[31.21797,30.03313]}},{"type":"Feature","properties":{"id":"ih-kutuphane-21","kind":"poi","name":"Dar Al-Kutub","theme":"kutuphane","lab":1},"geometry":{"type":"Point","coordinates":[31.25241,30.04437]}},{"type":"Feature","properties":{"id":"ih-kutuphane-22","kind":"poi","name":"British Council","theme":"kutuphane","lab":1},"geometry":{"type":"Point","coordinates":[31.32356,30.09576]}},{"type":"Feature","properties":{"id":"ih-kutuphane-23","kind":"poi","name":"Awlad Hassounah Library","theme":"kutuphane","lab":1},"geometry":{"type":"Point","coordinates":[31.04661,30.17329]}},{"type":"Feature","properties":{"id":"ih-muze-0","kind":"poi","name":"The Coptic Museum","theme":"muze","lab":1},"geometry":{"type":"Point","coordinates":[31.23036,30.00577]}},{"type":"Feature","properties":{"id":"ih-muze-1","kind":"poi","name":"The Carriage Museum","theme":"muze","lab":1},"geometry":{"type":"Point","coordinates":[31.26351,30.02942]}},{"type":"Feature","properties":{"id":"ih-muze-2","kind":"poi","name":"Om Kalthom Museum","theme":"muze","lab":1},"geometry":{"type":"Point","coordinates":[31.22488,30.00762]}},{"type":"Feature","properties":{"id":"ih-muze-3","kind":"poi","name":"National Museum of Egyptian Civilization","theme":"muze","lab":1},"geometry":{"type":"Point","coordinates":[31.24896,30.00761]}},{"type":"Feature","properties":{"id":"ih-muze-4","kind":"poi","name":"Museum of Islamic Ceramics","theme":"muze","lab":1},"geometry":{"type":"Point","coordinates":[31.2231,30.05649]}},{"type":"Feature","properties":{"id":"ih-muze-5","kind":"poi","name":"Museum of Islamic Art","theme":"muze","lab":1},"geometry":{"type":"Point","coordinates":[31.25272,30.04465]}},{"type":"Feature","properties":{"id":"ih-muze-6","kind":"poi","name":"Mahmoud Mukhtar Museum","theme":"muze","lab":1},"geometry":{"type":"Point","coordinates":[31.22294,30.04064]}},{"type":"Feature","properties":{"id":"ih-muze-7","kind":"poi","name":"Gayer-Anderson Museum","theme":"muze","lab":1},"geometry":{"type":"Point","coordinates":[31.25073,30.02838]}},{"type":"Feature","properties":{"id":"ih-muze-8","kind":"poi","name":"Egyptian Museum","theme":"muze","lab":1},"geometry":{"type":"Point","coordinates":[31.2336,30.04785]}},{"type":"Feature","properties":{"id":"ih-muze-9","kind":"poi","name":"Egyptian Geological Museum","theme":"muze","lab":1},"geometry":{"type":"Point","coordinates":[31.22872,29.99619]}},{"type":"Feature","properties":{"id":"ih-muze-10","kind":"poi","name":"Ahmed Shawqi Museum","theme":"muze","lab":1},"geometry":{"type":"Point","coordinates":[31.2176,30.02145]}},{"type":"Feature","properties":{"id":"ih-muze-11","kind":"poi","name":"Agricultural Museum","theme":"muze","lab":1},"geometry":{"type":"Point","coordinates":[31.20917,30.04669]}},{"type":"Feature","properties":{"id":"ih-muze-12","kind":"poi","name":"Bayt al-Sinnari","theme":"muze","lab":1},"geometry":{"type":"Point","coordinates":[31.24282,30.03296]}},{"type":"Feature","properties":{"id":"ih-muze-13","kind":"poi","name":"Wissa Wassef Art Center","theme":"muze","lab":1},"geometry":{"type":"Point","coordinates":[31.17647,29.9692]}},{"type":"Feature","properties":{"id":"ih-muze-14","kind":"poi","name":"Wax museum","theme":"muze","lab":1},"geometry":{"type":"Point","coordinates":[31.32571,29.8602]}},{"type":"Feature","properties":{"id":"ih-muze-15","kind":"poi","name":"Talaat Harb Culture Center","theme":"muze","lab":1},"geometry":{"type":"Point","coordinates":[31.25241,30.02385]}},{"type":"Feature","properties":{"id":"ih-muze-16","kind":"poi","name":"Royal Carriages Museum","theme":"muze","lab":1},"geometry":{"type":"Point","coordinates":[31.23107,30.05546]}},{"type":"Feature","properties":{"id":"ih-muze-17","kind":"poi","name":"Rokn Farouk","theme":"muze","lab":1},"geometry":{"type":"Point","coordinates":[31.29483,29.84704]}},{"type":"Feature","properties":{"id":"ih-muze-18","kind":"poi","name":"Police Museum","theme":"muze","lab":1},"geometry":{"type":"Point","coordinates":[31.26022,30.0301]}},{"type":"Feature","properties":{"id":"ih-muze-19","kind":"poi","name":"National Military museum","theme":"muze","lab":1},"geometry":{"type":"Point","coordinates":[31.26256,30.03092]}},{"type":"Feature","properties":{"id":"ih-muze-20","kind":"poi","name":"Museum of Egyptian Modern Arts","theme":"muze","lab":1},"geometry":{"type":"Point","coordinates":[31.22308,30.04281]}},{"type":"Feature","properties":{"id":"ih-muze-21","kind":"poi","name":"Mohamed Ali Palace Museum","theme":"muze","lab":1},"geometry":{"type":"Point","coordinates":[31.22948,30.02652]}},{"type":"Feature","properties":{"id":"ih-muze-22","kind":"poi","name":"Mit Rahina Museum","theme":"muze","lab":1},"geometry":{"type":"Point","coordinates":[31.25521,29.84954]}},{"type":"Feature","properties":{"id":"ih-muze-23","kind":"poi","name":"Masallat Al-Matareya","theme":"muze","lab":1},"geometry":{"type":"Point","coordinates":[31.30748,30.1294]}},{"type":"Feature","properties":{"id":"ih-muze-24","kind":"poi","name":"Imhotep Museum","theme":"muze","lab":1},"geometry":{"type":"Point","coordinates":[31.22485,29.86983]}},{"type":"Feature","properties":{"id":"ih-muze-25","kind":"poi","name":"Hunting Hall Museum","theme":"muze","lab":1},"geometry":{"type":"Point","coordinates":[31.22879,30.02855]}},{"type":"Feature","properties":{"id":"ih-muze-26","kind":"poi","name":"Helwan Observatory Museum","theme":"muze","lab":1},"geometry":{"type":"Point","coordinates":[31.34238,29.85874]}},{"type":"Feature","properties":{"id":"ih-muze-27","kind":"poi","name":"Gamal Abdel Nasser Museum","theme":"muze","lab":1},"geometry":{"type":"Point","coordinates":[31.31069,30.08655]}},{"type":"Feature","properties":{"id":"ih-muze-28","kind":"poi","name":"Cleopatra’s Museum","theme":"muze","lab":1},"geometry":{"type":"Point","coordinates":[31.2172,29.99727]}},{"type":"Feature","properties":{"id":"ih-muze-29","kind":"poi","name":"Child Museum","theme":"muze","lab":1},"geometry":{"type":"Point","coordinates":[31.33698,30.10225]}},{"type":"Feature","properties":{"id":"ih-muze-30","kind":"poi","name":"Abdeen Palace Museum","theme":"muze","lab":1},"geometry":{"type":"Point","coordinates":[31.24783,30.04341]}},{"type":"Feature","properties":{"id":"ih-hastane-0","kind":"poi","name":"Abassya Chest Diseases Hospital","theme":"hastane","lab":1},"geometry":{"type":"Point","coordinates":[31.29488,30.05738]}},{"type":"Feature","properties":{"id":"ih-hastane-1","kind":"poi","name":"Nasser Institute","theme":"hastane","lab":1},"geometry":{"type":"Point","coordinates":[31.23965,30.09648]}},{"type":"Feature","properties":{"id":"ih-hastane-2","kind":"poi","name":"Coptic Hospital","theme":"hastane","lab":1},"geometry":{"type":"Point","coordinates":[31.25263,30.0632]}},{"type":"Feature","properties":{"id":"ih-hastane-3","kind":"poi","name":"Children's Cancer Hospital Foundation","theme":"hastane","lab":1},"geometry":{"type":"Point","coordinates":[31.23784,30.02298]}},{"type":"Feature","properties":{"id":"ih-hastane-4","kind":"poi","name":"Abbasseya Mental Health Hospital","theme":"hastane","lab":1},"geometry":{"type":"Point","coordinates":[31.29651,30.0681]}},{"type":"Feature","properties":{"id":"ih-hastane-5","kind":"poi","name":"مستشفى هيئة النقل العام","theme":"hastane","lab":1},"geometry":{"type":"Point","coordinates":[31.23837,30.05139]}},{"type":"Feature","properties":{"id":"ih-hastane-6","kind":"poi","name":"مستشفى جراحات اليوم الواحد","theme":"hastane","lab":1},"geometry":{"type":"Point","coordinates":[31.33725,30.14219]}},{"type":"Feature","properties":{"id":"ih-hastane-7","kind":"poi","name":"مستشفى بولاق الدكرور العام","theme":"hastane","lab":1},"geometry":{"type":"Point","coordinates":[31.1989,30.02793]}},{"type":"Feature","properties":{"id":"ih-hastane-8","kind":"poi","name":"عيادة السكر و عيادة الغدد و عيادة السمنة و التغذية","theme":"hastane","lab":1},"geometry":{"type":"Point","coordinates":[31.22909,30.03203]}},{"type":"Feature","properties":{"id":"ih-hastane-9","kind":"poi","name":"عيادة الذكورة","theme":"hastane","lab":1},"geometry":{"type":"Point","coordinates":[31.22848,30.0316]}},{"type":"Feature","properties":{"id":"ih-hastane-10","kind":"poi","name":"شركة تطبيق حكيمة لخدمات التمريض المنزلي","theme":"hastane","lab":1},"geometry":{"type":"Point","coordinates":[31.33174,30.06413]}},{"type":"Feature","properties":{"id":"ih-hastane-11","kind":"poi","name":"برج معمل الفا لاب الطبى","theme":"hastane","lab":1},"geometry":{"type":"Point","coordinates":[31.37835,30.04929]}},{"type":"Feature","properties":{"id":"ih-hastane-12","kind":"poi","name":"المركز الطبى حدائق العاصمة","theme":"hastane","lab":1},"geometry":{"type":"Point","coordinates":[31.81116,30.15486]}},{"type":"Feature","properties":{"id":"ih-hastane-13","kind":"poi","name":"World Health Organisation","theme":"hastane","lab":1},"geometry":{"type":"Point","coordinates":[31.34734,30.06371]}},{"type":"Feature","properties":{"id":"ih-hastane-14","kind":"poi","name":"Student Hospital","theme":"hastane","lab":1},"geometry":{"type":"Point","coordinates":[31.20887,30.01517]}},{"type":"Feature","properties":{"id":"ih-hastane-15","kind":"poi","name":"Specialized Hospital","theme":"hastane","lab":1},"geometry":{"type":"Point","coordinates":[31.29046,30.0764]}},{"type":"Feature","properties":{"id":"ih-hastane-16","kind":"poi","name":"El-Gomhoria Teaching Hospital","theme":"hastane","lab":1},"geometry":{"type":"Point","coordinates":[31.24854,30.03942]}},{"type":"Feature","properties":{"id":"ih-hastane-17","kind":"poi","name":"Durrah Eye Center","theme":"hastane","lab":1},"geometry":{"type":"Point","coordinates":[31.33263,30.08072]}},{"type":"Feature","properties":{"id":"ih-hastane-18","kind":"poi","name":"Cleopatra Hospital","theme":"hastane","lab":1},"geometry":{"type":"Point","coordinates":[31.32974,30.09315]}},{"type":"Feature","properties":{"id":"ih-hastane-19","kind":"poi","name":"Bright dental center","theme":"hastane","lab":1},"geometry":{"type":"Point","coordinates":[31.32074,30.12929]}},{"type":"Feature","properties":{"id":"ih-hastane-20","kind":"poi","name":"As-Salam International Hospital","theme":"hastane","lab":1},"geometry":{"type":"Point","coordinates":[31.23061,29.98484]}},{"type":"Feature","properties":{"id":"ih-hastane-21","kind":"poi","name":"Al-Azhar University Specialized Hospital","theme":"hastane","lab":1},"geometry":{"type":"Point","coordinates":[31.31428,30.05481]}},{"type":"Feature","properties":{"id":"ih-hastane-22","kind":"poi","name":"Al Demerdash Hospital","theme":"hastane","lab":1},"geometry":{"type":"Point","coordinates":[31.27769,30.07355]}},{"type":"Feature","properties":{"id":"ih-hastane-23","kind":"poi","name":"Ahmed Maher Teaching Hospital","theme":"hastane","lab":1},"geometry":{"type":"Point","coordinates":[31.25154,30.03964]}},{"type":"Feature","properties":{"id":"ih-hastane-24","kind":"poi","name":"9th Street Clinics","theme":"hastane","lab":1},"geometry":{"type":"Point","coordinates":[31.30331,30.01166]}},{"type":"Feature","properties":{"id":"ih-kiralik-arac-0","kind":"poi","name":"Europcar","theme":"kiralik-arac","lab":1},"geometry":{"type":"Point","coordinates":[31.37557,30.10745]}},{"type":"Feature","properties":{"id":"ih-kiralik-arac-1","kind":"poi","name":"Europcar","theme":"kiralik-arac","lab":1},"geometry":{"type":"Point","coordinates":[31.21623,30.06548]}},{"type":"Feature","properties":{"id":"ih-kiralik-arac-2","kind":"poi","name":"limozein","theme":"kiralik-arac","lab":1},"geometry":{"type":"Point","coordinates":[31.19305,30.05331]}},{"type":"Feature","properties":{"id":"ih-kiralik-arac-3","kind":"poi","name":"Korba","theme":"kiralik-arac","lab":1},"geometry":{"type":"Point","coordinates":[31.32405,30.09079]}}]}