{"type":"FeatureCollection","features":[{"type":"Feature","properties":{"id":"ke-tarihi-0","kind":"poi","name":"funerary complex of Sultan Qaytbay","theme":"tarihi","lab":1},"geometry":{"type":"Point","coordinates":[31.27492,30.04397]}},{"type":"Feature","properties":{"id":"ke-tarihi-1","kind":"poi","name":"White Pyramid","theme":"tarihi","lab":1},"geometry":{"type":"Point","coordinates":[31.22328,29.80572]}},{"type":"Feature","properties":{"id":"ke-tarihi-2","kind":"poi","name":"Wadi Degla Protectorate Area","theme":"tarihi","lab":1},"geometry":{"type":"Point","coordinates":[31.39115,29.9394]}},{"type":"Feature","properties":{"id":"ke-tarihi-3","kind":"poi","name":"Unfinished Pyramid of Abusir","theme":"tarihi","lab":1},"geometry":{"type":"Point","coordinates":[31.20167,29.89861]}},{"type":"Feature","properties":{"id":"ke-tarihi-4","kind":"poi","name":"Unfinished Northern Pyramid of Zawyet El Aryan","theme":"tarihi","lab":1},"geometry":{"type":"Point","coordinates":[31.15156,29.94012]}},{"type":"Feature","properties":{"id":"ke-tarihi-5","kind":"poi","name":"Tombs of 3rd Dynasty","theme":"tarihi","lab":1},"geometry":{"type":"Point","coordinates":[31.21328,29.87682]}},{"type":"Feature","properties":{"id":"ke-tarihi-6","kind":"poi","name":"Tomb of Hemiunu","theme":"tarihi","lab":1},"geometry":{"type":"Point","coordinates":[31.12994,29.97937]}},{"type":"Feature","properties":{"id":"ke-tarihi-7","kind":"poi","name":"Sun Temple of Niuserre","theme":"tarihi","lab":1},"geometry":{"type":"Point","coordinates":[31.19412,29.90402]}},{"type":"Feature","properties":{"id":"ke-tarihi-8","kind":"poi","name":"Sultan Alzahir Bebars Mosque","theme":"tarihi","lab":1},"geometry":{"type":"Point","coordinates":[31.26346,30.06239]}},{"type":"Feature","properties":{"id":"ke-tarihi-9","kind":"poi","name":"St George's Orthodox Church","theme":"tarihi","lab":1},"geometry":{"type":"Point","coordinates":[31.33951,30.10811]}},{"type":"Feature","properties":{"id":"ke-tarihi-10","kind":"poi","name":"Sphinx Stele","theme":"tarihi","lab":1},"geometry":{"type":"Point","coordinates":[31.13784,29.97527]}},{"type":"Feature","properties":{"id":"ke-tarihi-11","kind":"poi","name":"Southern South Saqqara pyramid","theme":"tarihi","lab":1},"geometry":{"type":"Point","coordinates":[31.22241,29.83065]}},{"type":"Feature","properties":{"id":"ke-tarihi-12","kind":"poi","name":"Site of the Rabaa Massacre","theme":"tarihi","lab":1},"geometry":{"type":"Point","coordinates":[31.32171,30.06848]}},{"type":"Feature","properties":{"id":"ke-tarihi-13","kind":"poi","name":"Site of the 2013 Egyptian coup d'etat","theme":"tarihi","lab":1},"geometry":{"type":"Point","coordinates":[31.316,30.08288]}},{"type":"Feature","properties":{"id":"ke-tarihi-14","kind":"poi","name":"Sinan Pasha Mosque","theme":"tarihi","lab":1},"geometry":{"type":"Point","coordinates":[31.22946,30.06213]}},{"type":"Feature","properties":{"id":"ke-tarihi-15","kind":"poi","name":"Salah El Din Citadel","theme":"tarihi","lab":1},"geometry":{"type":"Point","coordinates":[31.26212,30.02933]}},{"type":"Feature","properties":{"id":"ke-tarihi-16","kind":"poi","name":"Sakakini Palace","theme":"tarihi","lab":1},"geometry":{"type":"Point","coordinates":[31.26624,30.06586]}},{"type":"Feature","properties":{"id":"ke-tarihi-17","kind":"poi","name":"Saint Samaan The Tanner Monastery","theme":"tarihi","lab":1},"geometry":{"type":"Point","coordinates":[31.27542,30.03167]}},{"type":"Feature","properties":{"id":"ke-tarihi-18","kind":"poi","name":"SAK S 3","theme":"tarihi","lab":1},"geometry":{"type":"Point","coordinates":[31.22377,29.83397]}},{"type":"Feature","properties":{"id":"ke-tarihi-19","kind":"poi","name":"Red Pyramid","theme":"tarihi","lab":1},"geometry":{"type":"Point","coordinates":[31.20624,29.80855]}},{"type":"Feature","properties":{"id":"ke-tarihi-20","kind":"poi","name":"Qubba Palace","theme":"tarihi","lab":1},"geometry":{"type":"Point","coordinates":[31.3026,30.09877]}},{"type":"Feature","properties":{"id":"ke-tarihi-21","kind":"poi","name":"Qasr El-Nile Bridge (The Nile Castle Bridge)","theme":"tarihi","lab":1},"geometry":{"type":"Point","coordinates":[31.22983,30.04369]}},{"type":"Feature","properties":{"id":"ke-tarihi-22","kind":"poi","name":"Qakare Ibi","theme":"tarihi","lab":1},"geometry":{"type":"Point","coordinates":[31.21778,29.84167]}},{"type":"Feature","properties":{"id":"ke-tarihi-23","kind":"poi","name":"Pyramid of Senusret III","theme":"tarihi","lab":1},"geometry":{"type":"Point","coordinates":[31.22573,29.81885]}},{"type":"Feature","properties":{"id":"ke-tarihi-24","kind":"poi","name":"Pyramid of Reherishefnakht","theme":"tarihi","lab":1},"geometry":{"type":"Point","coordinates":[31.21778,29.85389]}},{"type":"Feature","properties":{"id":"ke-tarihi-25","kind":"poi","name":"Pyramid of Pepi I","theme":"tarihi","lab":1},"geometry":{"type":"Point","coordinates":[31.21899,29.85443]}},{"type":"Feature","properties":{"id":"ke-tarihi-26","kind":"poi","name":"Pyramid of Menkaure","theme":"tarihi","lab":1},"geometry":{"type":"Point","coordinates":[31.12826,29.97251]}},{"type":"Feature","properties":{"id":"ke-tarihi-27","kind":"poi","name":"Pyramid of Khentkawes 1","theme":"tarihi","lab":1},"geometry":{"type":"Point","coordinates":[31.13547,29.97339]}},{"type":"Feature","properties":{"id":"ke-tarihi-28","kind":"poi","name":"Pyramid of Djoser","theme":"tarihi","lab":1},"geometry":{"type":"Point","coordinates":[31.21657,29.87122]}},{"type":"Feature","properties":{"id":"ke-tarihi-29","kind":"poi","name":"Pyramid of Djedkare-Isesi","theme":"tarihi","lab":1},"geometry":{"type":"Point","coordinates":[31.22095,29.85096]}},{"type":"Feature","properties":{"id":"ke-tarihi-30","kind":"poi","name":"Pyramid of Djedefre","theme":"tarihi","lab":1},"geometry":{"type":"Point","coordinates":[31.07494,30.03214]}},{"type":"Feature","properties":{"id":"ke-tarihi-31","kind":"poi","name":"Nilometer in Rhoda Island","theme":"tarihi","lab":1},"geometry":{"type":"Point","coordinates":[31.225,30.00693]}},{"type":"Feature","properties":{"id":"ke-tarihi-32","kind":"poi","name":"Mosque-Sabil of Sulayman Agha al-Silahdar","theme":"tarihi","lab":1},"geometry":{"type":"Point","coordinates":[31.26191,30.05257]}},{"type":"Feature","properties":{"id":"ke-tarihi-33","kind":"poi","name":"Mosque of Sultan al-Muayyad","theme":"tarihi","lab":1},"geometry":{"type":"Point","coordinates":[31.25751,30.04335]}},{"type":"Feature","properties":{"id":"ke-tarihi-34","kind":"poi","name":"Memphis","theme":"tarihi","lab":1},"geometry":{"type":"Point","coordinates":[31.25737,29.85448]}},{"type":"Feature","properties":{"id":"ke-tarihi-35","kind":"poi","name":"Mausoleum of Shagar El Dorr","theme":"tarihi","lab":1},"geometry":{"type":"Point","coordinates":[31.25215,30.02592]}},{"type":"Feature","properties":{"id":"ke-tarihi-36","kind":"poi","name":"Mausoleum of Imam al-Shafi'i","theme":"tarihi","lab":1},"geometry":{"type":"Point","coordinates":[31.25808,30.01173]}},{"type":"Feature","properties":{"id":"ke-tarihi-37","kind":"poi","name":"Mausoleum of Gamal Abdel Nasser","theme":"tarihi","lab":1},"geometry":{"type":"Point","coordinates":[31.2943,30.08337]}},{"type":"Feature","properties":{"id":"ke-tarihi-38","kind":"poi","name":"Mausoleum of Anwar Sadat","theme":"tarihi","lab":1},"geometry":{"type":"Point","coordinates":[31.31387,30.0654]}},{"type":"Feature","properties":{"id":"ke-tarihi-39","kind":"poi","name":"Layer Pyramid","theme":"tarihi","lab":1},"geometry":{"type":"Point","coordinates":[31.16126,29.93282]}},{"type":"Feature","properties":{"id":"ke-tarihi-40","kind":"poi","name":"Hussein Mosque","theme":"tarihi","lab":1},"geometry":{"type":"Point","coordinates":[31.26321,30.04784]}},{"type":"Feature","properties":{"id":"ke-tarihi-41","kind":"poi","name":"Heliopolis Presidential Palace","theme":"tarihi","lab":1},"geometry":{"type":"Point","coordinates":[31.31967,30.08899]}},{"type":"Feature","properties":{"id":"ke-tarihi-42","kind":"poi","name":"Grave of Mohammed Morsi","theme":"tarihi","lab":1},"geometry":{"type":"Point","coordinates":[31.35191,30.02945]}},{"type":"Feature","properties":{"id":"ke-tarihi-43","kind":"poi","name":"Gisr el-Mudir","theme":"tarihi","lab":1},"geometry":{"type":"Point","coordinates":[31.20615,29.8668]}},{"type":"Feature","properties":{"id":"ke-tarihi-44","kind":"poi","name":"Double Pyramid","theme":"tarihi","lab":1},"geometry":{"type":"Point","coordinates":[31.20306,29.89306]}},{"type":"Feature","properties":{"id":"ke-tarihi-45","kind":"poi","name":"Coptic Cairo","theme":"tarihi","lab":1},"geometry":{"type":"Point","coordinates":[31.23184,30.00626]}},{"type":"Feature","properties":{"id":"ke-tarihi-46","kind":"poi","name":"Cathedral of the Nativity","theme":"tarihi","lab":1},"geometry":{"type":"Point","coordinates":[31.72043,29.9812]}},{"type":"Feature","properties":{"id":"ke-tarihi-48","kind":"poi","name":"Bubasteion","theme":"tarihi","lab":1},"geometry":{"type":"Point","coordinates":[31.22398,29.87353]}},{"type":"Feature","properties":{"id":"ke-tarihi-49","kind":"poi","name":"Basilica of Our Lady of Fatima","theme":"tarihi","lab":1},"geometry":{"type":"Point","coordinates":[31.3445,30.10587]}},{"type":"Feature","properties":{"id":"ke-tarihi-50","kind":"poi","name":"Baron Empain Palace","theme":"tarihi","lab":1},"geometry":{"type":"Point","coordinates":[31.33025,30.08666]}},{"type":"Feature","properties":{"id":"ke-tarihi-51","kind":"poi","name":"Ancient Heliopolis","theme":"tarihi","lab":1},"geometry":{"type":"Point","coordinates":[31.30793,30.12925]}},{"type":"Feature","properties":{"id":"ke-tarihi-52","kind":"poi","name":"All Saints","theme":"tarihi","lab":1},"geometry":{"type":"Point","coordinates":[31.22376,30.05805]}},{"type":"Feature","properties":{"id":"ke-tarihi-53","kind":"poi","name":"Al-Rifa'i Mosque","theme":"tarihi","lab":1},"geometry":{"type":"Point","coordinates":[31.2571,30.03284]}},{"type":"Feature","properties":{"id":"ke-tarihi-54","kind":"poi","name":"Al-Nour","theme":"tarihi","lab":1},"geometry":{"type":"Point","coordinates":[31.28294,30.07527]}},{"type":"Feature","properties":{"id":"ke-tarihi-55","kind":"poi","name":"Al-Fattah Al-Aleem Mosque","theme":"tarihi","lab":1},"geometry":{"type":"Point","coordinates":[31.60068,30.02103]}},{"type":"Feature","properties":{"id":"ke-tarihi-56","kind":"poi","name":"Abdin Palace","theme":"tarihi","lab":1},"geometry":{"type":"Point","coordinates":[31.24746,30.04276]}},{"type":"Feature","properties":{"id":"ke-tarihi-57","kind":"poi","name":"Abbasiyya Synagogue","theme":"tarihi","lab":1},"geometry":{"type":"Point","coordinates":[31.27439,30.06195]}},{"type":"Feature","properties":{"id":"ke-tarihi-58","kind":"poi","name":"مدفن بابا","theme":"tarihi","lab":1},"geometry":{"type":"Point","coordinates":[31.41241,29.85082]}},{"type":"Feature","properties":{"id":"ke-tarihi-59","kind":"poi","name":"ضريح","theme":"tarihi","lab":1},"geometry":{"type":"Point","coordinates":[31.07524,30.16555]}},{"type":"Feature","properties":{"id":"ke-tarihi-60","kind":"poi","name":"ستيلا هليوبوليس","theme":"tarihi","lab":1},"geometry":{"type":"Point","coordinates":[31.68226,30.21428]}},{"type":"Feature","properties":{"id":"ke-tarihi-61","kind":"poi","name":"حى البنفسج","theme":"tarihi","lab":1},"geometry":{"type":"Point","coordinates":[31.70216,30.17144]}},{"type":"Feature","properties":{"id":"ke-tarihi-62","kind":"poi","name":"بوابة  الشروق 2","theme":"tarihi","lab":1},"geometry":{"type":"Point","coordinates":[31.62527,30.18521]}},{"type":"Feature","properties":{"id":"ke-tarihi-63","kind":"poi","name":"برج الفردوس","theme":"tarihi","lab":1},"geometry":{"type":"Point","coordinates":[31.19266,30.06114]}},{"type":"Feature","properties":{"id":"ke-tarihi-64","kind":"poi","name":"اهداء من شركة امون","theme":"tarihi","lab":1},"geometry":{"type":"Point","coordinates":[31.46753,30.18713]}},{"type":"Feature","properties":{"id":"ke-tarihi-65","kind":"poi","name":"open horse way from town to pyramids","theme":"tarihi","lab":1},"geometry":{"type":"Point","coordinates":[31.21205,29.89067]}},{"type":"Feature","properties":{"id":"ke-tarihi-66","kind":"poi","name":"jacob's ladder","theme":"tarihi","lab":1},"geometry":{"type":"Point","coordinates":[31.37454,29.94566]}},{"type":"Feature","properties":{"id":"ke-tarihi-67","kind":"poi","name":"entrance gate to Sun Temple Palace guesthouse","theme":"tarihi","lab":1},"geometry":{"type":"Point","coordinates":[31.20868,29.89802]}},{"type":"Feature","properties":{"id":"ke-tarihi-68","kind":"poi","name":"Virgin Mary","theme":"tarihi","lab":1},"geometry":{"type":"Point","coordinates":[31.30821,30.12064]}},{"type":"Feature","properties":{"id":"ke-tarihi-69","kind":"poi","name":"Unknown Soldier Monument","theme":"tarihi","lab":1},"geometry":{"type":"Point","coordinates":[31.75494,30.02081]}},{"type":"Feature","properties":{"id":"ke-tarihi-70","kind":"poi","name":"Tomb of Sulayman Pasha al-Fransawi","theme":"tarihi","lab":1},"geometry":{"type":"Point","coordinates":[31.22858,30.00961]}},{"type":"Feature","properties":{"id":"ke-tarihi-71","kind":"poi","name":"The Main Entrance to the Grand Misr Mosque","theme":"tarihi","lab":1},"geometry":{"type":"Point","coordinates":[31.75481,30.00389]}},{"type":"Feature","properties":{"id":"ke-tarihi-72","kind":"poi","name":"The Hanging Obelisk","theme":"tarihi","lab":1},"geometry":{"type":"Point","coordinates":[31.12132,29.99457]}},{"type":"Feature","properties":{"id":"ke-tarihi-73","kind":"poi","name":"Senan Basha","theme":"tarihi","lab":1},"geometry":{"type":"Point","coordinates":[31.31764,30.10465]}},{"type":"Feature","properties":{"id":"ke-tarihi-74","kind":"poi","name":"Sakan Masr EMPC Compound - Main Gate","theme":"tarihi","lab":1},"geometry":{"type":"Point","coordinates":[31.02505,29.95563]}},{"type":"Feature","properties":{"id":"ke-tarihi-75","kind":"poi","name":"Saad Zaghloul Mausoleum","theme":"tarihi","lab":1},"geometry":{"type":"Point","coordinates":[31.23792,30.03755]}},{"type":"Feature","properties":{"id":"ke-tarihi-76","kind":"poi","name":"Rushdy Abaza","theme":"tarihi","lab":1},"geometry":{"type":"Point","coordinates":[31.2426,30.05429]}},{"type":"Feature","properties":{"id":"ke-tarihi-77","kind":"poi","name":"Ramses II Obelisk","theme":"tarihi","lab":1},"geometry":{"type":"Point","coordinates":[31.40066,30.12463]}},{"type":"Feature","properties":{"id":"ke-tarihi-78","kind":"poi","name":"Muhammed Ali Palace","theme":"tarihi","lab":1},"geometry":{"type":"Point","coordinates":[31.2453,30.11458]}},{"type":"Feature","properties":{"id":"ke-tarihi-79","kind":"poi","name":"Mohamed Awad","theme":"tarihi","lab":1},"geometry":{"type":"Point","coordinates":[31.29412,29.99658]}},{"type":"Feature","properties":{"id":"ke-tarihi-80","kind":"poi","name":"Mastaba of Nikauisesi","theme":"tarihi","lab":1},"geometry":{"type":"Point","coordinates":[31.22138,29.8762]}},{"type":"Feature","properties":{"id":"ke-tarihi-81","kind":"poi","name":"Masjid AlPasha","theme":"tarihi","lab":1},"geometry":{"type":"Point","coordinates":[31.22525,30.02111]}},{"type":"Feature","properties":{"id":"ke-tarihi-82","kind":"poi","name":"Magra El Oyoun Wall","theme":"tarihi","lab":1},"geometry":{"type":"Point","coordinates":[31.24353,30.01958]}},{"type":"Feature","properties":{"id":"ke-tarihi-83","kind":"poi","name":"Lepsius L Pyramid","theme":"tarihi","lab":1},"geometry":{"type":"Point","coordinates":[31.21167,29.8108]}},{"type":"Feature","properties":{"id":"ke-tarihi-84","kind":"poi","name":"Ibn Al Hakam Square","theme":"tarihi","lab":1},"geometry":{"type":"Point","coordinates":[31.32028,30.10996]}},{"type":"Feature","properties":{"id":"ke-tarihi-85","kind":"poi","name":"Heritage Gardens","theme":"tarihi","lab":1},"geometry":{"type":"Point","coordinates":[31.24325,30.00659]}},{"type":"Feature","properties":{"id":"ke-tarihi-86","kind":"poi","name":"Helwan necropolis","theme":"tarihi","lab":1},"geometry":{"type":"Point","coordinates":[31.29605,29.8833]}},{"type":"Feature","properties":{"id":"ke-tarihi-87","kind":"poi","name":"Gate 2","theme":"tarihi","lab":1},"geometry":{"type":"Point","coordinates":[31.63217,30.10849]}},{"type":"Feature","properties":{"id":"ke-tarihi-88","kind":"poi","name":"Gate 1","theme":"tarihi","lab":1},"geometry":{"type":"Point","coordinates":[31.61287,30.10067]}},{"type":"Feature","properties":{"id":"ke-tarihi-89","kind":"poi","name":"Bortos","theme":"tarihi","lab":1},"geometry":{"type":"Point","coordinates":[31.13466,30.14756]}},{"type":"Feature","properties":{"id":"ke-tarihi-90","kind":"poi","name":"Bastat al Anqabiyah","theme":"tarihi","lab":1},"geometry":{"type":"Point","coordinates":[31.58333,30.1]}},{"type":"Feature","properties":{"id":"ke-tarihi-91","kind":"poi","name":"Bab Al-Mahrouq","theme":"tarihi","lab":1},"geometry":{"type":"Point","coordinates":[31.26229,30.04006]}},{"type":"Feature","properties":{"id":"ke-modern-0","kind":"poi","name":"Foreign Ministry","theme":"modern","lab":1},"geometry":{"type":"Point","coordinates":[31.2299,30.05546]}},{"type":"Feature","properties":{"id":"ke-modern-1","kind":"poi","name":"El-Sawy Cultural Wheel","theme":"modern","lab":1},"geometry":{"type":"Point","coordinates":[31.21633,30.06241]}},{"type":"Feature","properties":{"id":"ke-modern-2","kind":"poi","name":"Darb 1718","theme":"modern","lab":1},"geometry":{"type":"Point","coordinates":[31.23181,30.00298]}},{"type":"Feature","properties":{"id":"ke-modern-3","kind":"poi","name":"Cairo Tower","theme":"modern","lab":1},"geometry":{"type":"Point","coordinates":[31.22431,30.04603]}},{"type":"Feature","properties":{"id":"ke-modern-4","kind":"poi","name":"Bab al-Azab","theme":"modern","lab":1},"geometry":{"type":"Point","coordinates":[31.25813,30.03105]}},{"type":"Feature","properties":{"id":"ke-modern-5","kind":"poi","name":"Qasr Al-Thaqafa","theme":"modern","lab":1},"geometry":{"type":"Point","coordinates":[31.19759,30.00245]}},{"type":"Feature","properties":{"id":"ke-modern-6","kind":"poi","name":"Falak Art Gallery","theme":"modern","lab":1},"geometry":{"type":"Point","coordinates":[31.23312,30.03714]}},{"type":"Feature","properties":{"id":"ke-modern-7","kind":"poi","name":"Contemporary Image Collective (CIC)","theme":"modern","lab":1},"geometry":{"type":"Point","coordinates":[31.24031,30.04983]}},{"type":"Feature","properties":{"id":"ke-modern-8","kind":"poi","name":"Chinese Cultural Center in Cairo","theme":"modern","lab":1},"geometry":{"type":"Point","coordinates":[31.18336,30.0048]}},{"type":"Feature","properties":{"id":"ke-modern-9","kind":"poi","name":"Cairo Photography Club","theme":"modern","lab":1},"geometry":{"type":"Point","coordinates":[31.25774,29.959]}},{"type":"Feature","properties":{"id":"ke-modern-10","kind":"poi","name":"CFCC","theme":"modern","lab":1},"geometry":{"type":"Point","coordinates":[31.33309,30.08392]}},{"type":"Feature","properties":{"id":"ke-modern-11","kind":"poi","name":"Attar Art","theme":"modern","lab":1},"geometry":{"type":"Point","coordinates":[31.43412,29.99158]}},{"type":"Feature","properties":{"id":"ke-modern-12","kind":"poi","name":"Art al-lewa","theme":"modern","lab":1},"geometry":{"type":"Point","coordinates":[31.18726,30.04982]}},{"type":"Feature","properties":{"id":"ke-modern-13","kind":"poi","name":"Akhenaten Centre Of The Arts","theme":"modern","lab":1},"geometry":{"type":"Point","coordinates":[31.22498,30.05899]}},{"type":"Feature","properties":{"id":"ke-doga-0","kind":"poi","name":"Orman Botanic Garden","theme":"doga","lab":1},"geometry":{"type":"Point","coordinates":[31.21324,30.02943]}},{"type":"Feature","properties":{"id":"ke-doga-1","kind":"poi","name":"El Andalos Park","theme":"doga","lab":1},"geometry":{"type":"Point","coordinates":[31.22746,30.04477]}},{"type":"Feature","properties":{"id":"ke-doga-2","kind":"poi","name":"Salah Al Din Square","theme":"doga","lab":1},"geometry":{"type":"Point","coordinates":[31.25709,30.03132]}},{"type":"Feature","properties":{"id":"ke-doga-3","kind":"poi","name":"El Tahrir Square","theme":"doga","lab":1},"geometry":{"type":"Point","coordinates":[31.23574,30.04441]}},{"type":"Feature","properties":{"id":"ke-doga-4","kind":"poi","name":"Arab Al Mohammedi Park","theme":"doga","lab":1},"geometry":{"type":"Point","coordinates":[31.27906,30.07616]}},{"type":"Feature","properties":{"id":"ke-doga-5","kind":"poi","name":"Aquarium Grotto Garden","theme":"doga","lab":1},"geometry":{"type":"Point","coordinates":[31.21881,30.05652]}},{"type":"Feature","properties":{"id":"ke-doga-6","kind":"poi","name":"Al Azhar Park","theme":"doga","lab":1},"geometry":{"type":"Point","coordinates":[31.26481,30.04012]}},{"type":"Feature","properties":{"id":"ke-doga-8","kind":"poi","name":"جنينة الشطر الثاني","theme":"doga","lab":1},"geometry":{"type":"Point","coordinates":[31.30133,29.96125]}},{"type":"Feature","properties":{"id":"ke-doga-9","kind":"poi","name":"Third Sector Garden","theme":"doga","lab":1},"geometry":{"type":"Point","coordinates":[31.31108,29.95892]}},{"type":"Feature","properties":{"id":"ke-doga-10","kind":"poi","name":"Sixth Sector Garden","theme":"doga","lab":1},"geometry":{"type":"Point","coordinates":[31.32717,29.9673]}},{"type":"Feature","properties":{"id":"ke-doga-11","kind":"poi","name":"Saad Zaghloul Mausoleum Garden","theme":"doga","lab":1},"geometry":{"type":"Point","coordinates":[31.23793,30.03759]}},{"type":"Feature","properties":{"id":"ke-doga-12","kind":"poi","name":"Nile Garden Maadi","theme":"doga","lab":1},"geometry":{"type":"Point","coordinates":[31.2809,29.92921]}},{"type":"Feature","properties":{"id":"ke-doga-13","kind":"poi","name":"Mivida Central Park","theme":"doga","lab":1},"geometry":{"type":"Point","coordinates":[31.53704,30.00901]}},{"type":"Feature","properties":{"id":"ke-doga-14","kind":"poi","name":"Japanese Garden","theme":"doga","lab":1},"geometry":{"type":"Point","coordinates":[31.34034,29.84883]}},{"type":"Feature","properties":{"id":"ke-doga-15","kind":"poi","name":"International Park","theme":"doga","lab":1},"geometry":{"type":"Point","coordinates":[31.33661,30.04892]}},{"type":"Feature","properties":{"id":"ke-doga-16","kind":"poi","name":"Ibn Sendar Garden","theme":"doga","lab":1},"geometry":{"type":"Point","coordinates":[31.30267,30.08954]}},{"type":"Feature","properties":{"id":"ke-doga-17","kind":"poi","name":"Heliopolis Merryland Park","theme":"doga","lab":1},"geometry":{"type":"Point","coordinates":[31.31888,30.09807]}},{"type":"Feature","properties":{"id":"ke-doga-18","kind":"poi","name":"Garden","theme":"doga","lab":1},"geometry":{"type":"Point","coordinates":[31.20041,30.07022]}},{"type":"Feature","properties":{"id":"ke-doga-19","kind":"poi","name":"GREEN BELT","theme":"doga","lab":1},"geometry":{"type":"Point","coordinates":[31.408,29.97347]}},{"type":"Feature","properties":{"id":"ke-doga-20","kind":"poi","name":"Flower Resort Park","theme":"doga","lab":1},"geometry":{"type":"Point","coordinates":[31.0335,29.97644]}},{"type":"Feature","properties":{"id":"ke-doga-21","kind":"poi","name":"Children Center For Civilization And Creativity (Child Museum)","theme":"doga","lab":1},"geometry":{"type":"Point","coordinates":[31.33552,30.10223]}},{"type":"Feature","properties":{"id":"ke-doga-22","kind":"poi","name":"Central Park","theme":"doga","lab":1},"geometry":{"type":"Point","coordinates":[31.63284,30.09323]}},{"type":"Feature","properties":{"id":"ke-doga-23","kind":"poi","name":"Badr Garden","theme":"doga","lab":1},"geometry":{"type":"Point","coordinates":[31.36806,30.13018]}},{"type":"Feature","properties":{"id":"ke-doga-24","kind":"poi","name":"Andalusian Garden","theme":"doga","lab":1},"geometry":{"type":"Point","coordinates":[31.30027,30.06116]}},{"type":"Feature","properties":{"id":"ke-doga-25","kind":"poi","name":"Al Obour Garden","theme":"doga","lab":1},"geometry":{"type":"Point","coordinates":[31.21756,30.05613]}},{"type":"Feature","properties":{"id":"ke-doga-26","kind":"poi","name":"Al Aml Garden","theme":"doga","lab":1},"geometry":{"type":"Point","coordinates":[31.27354,30.08847]}},{"type":"Feature","properties":{"id":"ke-doga-27","kind":"poi","name":"عمارة باناسونيك","theme":"doga","lab":1},"geometry":{"type":"Point","coordinates":[31.23633,30.09358]}},{"type":"Feature","properties":{"id":"ke-doga-28","kind":"poi","name":"حديقة مصر التعمير","theme":"doga","lab":1},"geometry":{"type":"Point","coordinates":[31.36989,30.05838]}},{"type":"Feature","properties":{"id":"ke-doga-29","kind":"poi","name":"حديقة الورد","theme":"doga","lab":1},"geometry":{"type":"Point","coordinates":[31.35294,30.06533]}},{"type":"Feature","properties":{"id":"ke-doga-30","kind":"poi","name":"حديقة الفنون","theme":"doga","lab":1},"geometry":{"type":"Point","coordinates":[31.22286,30.02337]}},{"type":"Feature","properties":{"id":"ke-doga-31","kind":"poi","name":"حديقة الفردوس","theme":"doga","lab":1},"geometry":{"type":"Point","coordinates":[31.32426,30.06184]}},{"type":"Feature","properties":{"id":"ke-doga-32","kind":"poi","name":"حديقة الشهداء","theme":"doga","lab":1},"geometry":{"type":"Point","coordinates":[31.26703,30.09823]}},{"type":"Feature","properties":{"id":"ke-doga-33","kind":"poi","name":"حديقة البانسيه","theme":"doga","lab":1},"geometry":{"type":"Point","coordinates":[31.28435,30.0742]}},{"type":"Feature","properties":{"id":"ke-doga-34","kind":"poi","name":"حديقة","theme":"doga","lab":1},"geometry":{"type":"Point","coordinates":[31.4827,30.23799]}},{"type":"Feature","properties":{"id":"ke-doga-35","kind":"poi","name":"الحديقة المركزية","theme":"doga","lab":1},"geometry":{"type":"Point","coordinates":[31.71462,30.12386]}},{"type":"Feature","properties":{"id":"ke-doga-36","kind":"poi","name":"vinzoula park","theme":"doga","lab":1},"geometry":{"type":"Point","coordinates":[31.25861,30.08821]}},{"type":"Feature","properties":{"id":"ke-doga-37","kind":"poi","name":"palm hills club","theme":"doga","lab":1},"geometry":{"type":"Point","coordinates":[31.03078,30.01512]}},{"type":"Feature","properties":{"id":"ke-doga-38","kind":"poi","name":"giza pyramids view from afar","theme":"doga","lab":1},"geometry":{"type":"Point","coordinates":[31.16482,29.93912]}},{"type":"Feature","properties":{"id":"ke-doga-39","kind":"poi","name":"giza pyramids view","theme":"doga","lab":1},"geometry":{"type":"Point","coordinates":[31.1517,29.95995]}},{"type":"Feature","properties":{"id":"ke-doga-40","kind":"poi","name":"Virgin Mary's Tree Garden","theme":"doga","lab":1},"geometry":{"type":"Point","coordinates":[31.30779,30.12067]}},{"type":"Feature","properties":{"id":"ke-doga-41","kind":"poi","name":"Thw Maidan Gardens","theme":"doga","lab":1},"geometry":{"type":"Point","coordinates":[31.26708,29.95656]}},{"type":"Feature","properties":{"id":"ke-doga-42","kind":"poi","name":"Tenth of Ramadan Park","theme":"doga","lab":1},"geometry":{"type":"Point","coordinates":[31.32601,30.05134]}},{"type":"Feature","properties":{"id":"ke-doga-43","kind":"poi","name":"Sindbad Park","theme":"doga","lab":1},"geometry":{"type":"Point","coordinates":[31.36858,30.11927]}},{"type":"Feature","properties":{"id":"ke-doga-44","kind":"poi","name":"Seasons Country Club","theme":"doga","lab":1},"geometry":{"type":"Point","coordinates":[31.10708,30.01379]}},{"type":"Feature","properties":{"id":"ke-doga-45","kind":"poi","name":"Sawwanat al Dabbah","theme":"doga","lab":1},"geometry":{"type":"Point","coordinates":[31.66667,30.11667]}},{"type":"Feature","properties":{"id":"ke-doga-46","kind":"poi","name":"Saqr Qorish Park","theme":"doga","lab":1},"geometry":{"type":"Point","coordinates":[31.28837,29.98934]}},{"type":"Feature","properties":{"id":"ke-doga-47","kind":"poi","name":"Safari Park","theme":"doga","lab":1},"geometry":{"type":"Point","coordinates":[31.19166,30.07473]}},{"type":"Feature","properties":{"id":"ke-doga-48","kind":"poi","name":"Rod al Farag Park","theme":"doga","lab":1},"geometry":{"type":"Point","coordinates":[31.23421,30.07306]}},{"type":"Feature","properties":{"id":"ke-doga-49","kind":"poi","name":"Rawdat Al Nile Park","theme":"doga","lab":1},"geometry":{"type":"Point","coordinates":[31.22963,30.07914]}},{"type":"Feature","properties":{"id":"ke-doga-50","kind":"poi","name":"Qalat al Rayyan","theme":"doga","lab":1},"geometry":{"type":"Point","coordinates":[31.38333,30.05]}},{"type":"Feature","properties":{"id":"ke-doga-51","kind":"poi","name":"Pyramid alignment viewpoint","theme":"doga","lab":1},"geometry":{"type":"Point","coordinates":[31.12657,29.96881]}},{"type":"Feature","properties":{"id":"ke-doga-52","kind":"poi","name":"Om Kalsoum Park","theme":"doga","lab":1},"geometry":{"type":"Point","coordinates":[31.22502,30.031]}},{"type":"Feature","properties":{"id":"ke-doga-53","kind":"poi","name":"Naguib Mahfouz Garden","theme":"doga","lab":1},"geometry":{"type":"Point","coordinates":[31.34299,30.04974]}},{"type":"Feature","properties":{"id":"ke-doga-54","kind":"poi","name":"Mostafa Mahmoud Mosque Garden","theme":"doga","lab":1},"geometry":{"type":"Point","coordinates":[31.20324,30.05227]}},{"type":"Feature","properties":{"id":"ke-doga-55","kind":"poi","name":"Mohamed Ali Palace","theme":"doga","lab":1},"geometry":{"type":"Point","coordinates":[31.22902,30.02761]}},{"type":"Feature","properties":{"id":"ke-doga-56","kind":"poi","name":"Masjid Al-Wudud Park","theme":"doga","lab":1},"geometry":{"type":"Point","coordinates":[31.46356,30.05473]}},{"type":"Feature","properties":{"id":"ke-doga-57","kind":"poi","name":"Magic Land","theme":"doga","lab":1},"geometry":{"type":"Point","coordinates":[31.02477,29.96277]}},{"type":"Feature","properties":{"id":"ke-doga-58","kind":"poi","name":"Jabal al Muqattam","theme":"doga","lab":1},"geometry":{"type":"Point","coordinates":[31.28333,30.03333]}},{"type":"Feature","properties":{"id":"ke-doga-59","kind":"poi","name":"Jabal al Khashab","theme":"doga","lab":1},"geometry":{"type":"Point","coordinates":[31.45,29.98333]}},{"type":"Feature","properties":{"id":"ke-doga-60","kind":"poi","name":"Jabal al Ghijijah","theme":"doga","lab":1},"geometry":{"type":"Point","coordinates":[31.02534,30.0034]}},{"type":"Feature","properties":{"id":"ke-doga-61","kind":"poi","name":"Hekma Square","theme":"doga","lab":1},"geometry":{"type":"Point","coordinates":[31.19846,30.04579]}},{"type":"Feature","properties":{"id":"ke-doga-62","kind":"poi","name":"Hay el Yasmin Park","theme":"doga","lab":1},"geometry":{"type":"Point","coordinates":[31.64084,30.11986]}},{"type":"Feature","properties":{"id":"ke-doga-63","kind":"poi","name":"Golf Park","theme":"doga","lab":1},"geometry":{"type":"Point","coordinates":[31.33145,30.07986]}},{"type":"Feature","properties":{"id":"ke-doga-64","kind":"poi","name":"Gebel Yahmum al Asmar","theme":"doga","lab":1},"geometry":{"type":"Point","coordinates":[31.63607,29.93378]}},{"type":"Feature","properties":{"id":"ke-doga-65","kind":"poi","name":"Gebel Gibw","theme":"doga","lab":1},"geometry":{"type":"Point","coordinates":[31.55,29.86667]}},{"type":"Feature","properties":{"id":"ke-doga-66","kind":"poi","name":"Fustat Hills Gardens","theme":"doga","lab":1},"geometry":{"type":"Point","coordinates":[31.24253,30.00915]}},{"type":"Feature","properties":{"id":"ke-doga-67","kind":"poi","name":"Ferdous Garden","theme":"doga","lab":1},"geometry":{"type":"Point","coordinates":[31.33004,30.06416]}},{"type":"Feature","properties":{"id":"ke-doga-68","kind":"poi","name":"Family Park","theme":"doga","lab":1},"geometry":{"type":"Point","coordinates":[31.50121,30.08025]}},{"type":"Feature","properties":{"id":"ke-doga-69","kind":"poi","name":"Family And Children's Park","theme":"doga","lab":1},"geometry":{"type":"Point","coordinates":[31.3113,29.86164]}},{"type":"Feature","properties":{"id":"ke-doga-70","kind":"poi","name":"Exercise area","theme":"doga","lab":1},"geometry":{"type":"Point","coordinates":[31.2731,29.94409]}},{"type":"Feature","properties":{"id":"ke-doga-71","kind":"poi","name":"El-Mobdi'een garden","theme":"doga","lab":1},"geometry":{"type":"Point","coordinates":[31.19319,30.05607]}},{"type":"Feature","properties":{"id":"ke-doga-72","kind":"poi","name":"El Tahra Park","theme":"doga","lab":1},"geometry":{"type":"Point","coordinates":[31.3068,30.09847]}},{"type":"Feature","properties":{"id":"ke-doga-73","kind":"poi","name":"Cultural Park","theme":"doga","lab":1},"geometry":{"type":"Point","coordinates":[31.24643,30.03103]}},{"type":"Feature","properties":{"id":"ke-doga-74","kind":"poi","name":"City View Park","theme":"doga","lab":1},"geometry":{"type":"Point","coordinates":[31.08874,30.01122]}},{"type":"Feature","properties":{"id":"ke-doga-75","kind":"poi","name":"Chinese Park","theme":"doga","lab":1},"geometry":{"type":"Point","coordinates":[31.3119,30.06533]}},{"type":"Feature","properties":{"id":"ke-doga-76","kind":"poi","name":"Chillout Park Almaza","theme":"doga","lab":1},"geometry":{"type":"Point","coordinates":[31.34716,30.08973]}},{"type":"Feature","properties":{"id":"ke-doga-77","kind":"poi","name":"Catalan clubhouse","theme":"doga","lab":1},"geometry":{"type":"Point","coordinates":[31.72799,29.95463]}},{"type":"Feature","properties":{"id":"ke-doga-78","kind":"poi","name":"Cairo Lake","theme":"doga","lab":1},"geometry":{"type":"Point","coordinates":[31.25195,30.00976]}},{"type":"Feature","properties":{"id":"ke-doga-79","kind":"poi","name":"Cactus and Succulent Garden","theme":"doga","lab":1},"geometry":{"type":"Point","coordinates":[31.27592,29.96013]}},{"type":"Feature","properties":{"id":"ke-doga-80","kind":"poi","name":"Brezzer","theme":"doga","lab":1},"geometry":{"type":"Point","coordinates":[31.34008,30.06146]}},{"type":"Feature","properties":{"id":"ke-doga-81","kind":"poi","name":"Bab Al-Nasr","theme":"doga","lab":1},"geometry":{"type":"Point","coordinates":[31.2649,30.05423]}},{"type":"Feature","properties":{"id":"ke-doga-82","kind":"poi","name":"Bab Al-Mazhareya","theme":"doga","lab":1},"geometry":{"type":"Point","coordinates":[31.26136,30.05652]}},{"type":"Feature","properties":{"id":"ke-doga-83","kind":"poi","name":"Al Waha Park","theme":"doga","lab":1},"geometry":{"type":"Point","coordinates":[31.37099,30.03869]}},{"type":"Feature","properties":{"id":"ke-gastronomi-0","kind":"poi","name":"Café Riche","theme":"gastronomi","lab":1},"geometry":{"type":"Point","coordinates":[31.23824,30.04697]}},{"type":"Feature","properties":{"id":"ke-gastronomi-1","kind":"poi","name":"بقالة ابو كريم","theme":"gastronomi","lab":1},"geometry":{"type":"Point","coordinates":[31.19344,30.12365]}},{"type":"Feature","properties":{"id":"ke-gastronomi-2","kind":"poi","name":"buffalo burger-Nasr City Ahly","theme":"gastronomi","lab":1},"geometry":{"type":"Point","coordinates":[31.35041,30.06867]}},{"type":"Feature","properties":{"id":"ke-gastronomi-3","kind":"poi","name":"TGI Fridays","theme":"gastronomi","lab":1},"geometry":{"type":"Point","coordinates":[31.21832,30.02569]}},{"type":"Feature","properties":{"id":"ke-gastronomi-4","kind":"poi","name":"Ruby Tuesday","theme":"gastronomi","lab":1},"geometry":{"type":"Point","coordinates":[31.40941,30.02925]}},{"type":"Feature","properties":{"id":"ke-gastronomi-5","kind":"poi","name":"Roma Pizza to Go - Zahraa El Maadi","theme":"gastronomi","lab":1},"geometry":{"type":"Point","coordinates":[31.30887,29.96533]}},{"type":"Feature","properties":{"id":"ke-gastronomi-6","kind":"poi","name":"Roma Pizza to Go - Nasr City Hay 7","theme":"gastronomi","lab":1},"geometry":{"type":"Point","coordinates":[31.32917,30.04459]}},{"type":"Feature","properties":{"id":"ke-gastronomi-7","kind":"poi","name":"Roma Pizza to Go - 1st Settlement","theme":"gastronomi","lab":1},"geometry":{"type":"Point","coordinates":[31.46817,30.05298]}},{"type":"Feature","properties":{"id":"ke-gastronomi-8","kind":"poi","name":"Roma Pizza To Go - Sherouk city","theme":"gastronomi","lab":1},"geometry":{"type":"Point","coordinates":[31.60636,30.11442]}},{"type":"Feature","properties":{"id":"ke-gastronomi-9","kind":"poi","name":"Pizza Hut","theme":"gastronomi","lab":1},"geometry":{"type":"Point","coordinates":[31.72272,30.24148]}},{"type":"Feature","properties":{"id":"ke-gastronomi-10","kind":"poi","name":"Pizza Hut","theme":"gastronomi","lab":1},"geometry":{"type":"Point","coordinates":[31.62666,30.15224]}},{"type":"Feature","properties":{"id":"ke-gastronomi-11","kind":"poi","name":"Pizza Hut","theme":"gastronomi","lab":1},"geometry":{"type":"Point","coordinates":[31.3705,30.12615]}},{"type":"Feature","properties":{"id":"ke-gastronomi-12","kind":"poi","name":"Pizza Hut","theme":"gastronomi","lab":1},"geometry":{"type":"Point","coordinates":[31.3447,30.06802]}},{"type":"Feature","properties":{"id":"ke-gastronomi-13","kind":"poi","name":"Pizza Hut","theme":"gastronomi","lab":1},"geometry":{"type":"Point","coordinates":[31.33641,30.06649]}},{"type":"Feature","properties":{"id":"ke-gastronomi-14","kind":"poi","name":"Pizza Hut","theme":"gastronomi","lab":1},"geometry":{"type":"Point","coordinates":[31.31592,29.98131]}},{"type":"Feature","properties":{"id":"ke-gastronomi-15","kind":"poi","name":"Pizza Hut","theme":"gastronomi","lab":1},"geometry":{"type":"Point","coordinates":[31.28401,29.97609]}},{"type":"Feature","properties":{"id":"ke-gastronomi-16","kind":"poi","name":"Pizza Hut","theme":"gastronomi","lab":1},"geometry":{"type":"Point","coordinates":[31.26074,29.9571]}},{"type":"Feature","properties":{"id":"ke-gastronomi-17","kind":"poi","name":"Pizza Hut","theme":"gastronomi","lab":1},"geometry":{"type":"Point","coordinates":[31.20412,30.05512]}},{"type":"Feature","properties":{"id":"ke-gastronomi-18","kind":"poi","name":"Pizza Hut","theme":"gastronomi","lab":1},"geometry":{"type":"Point","coordinates":[31.16046,29.99427]}},{"type":"Feature","properties":{"id":"ke-gastronomi-19","kind":"poi","name":"Pizza Hut","theme":"gastronomi","lab":1},"geometry":{"type":"Point","coordinates":[31.14113,29.9754]}},{"type":"Feature","properties":{"id":"ke-gastronomi-20","kind":"poi","name":"Fuddruckers","theme":"gastronomi","lab":1},"geometry":{"type":"Point","coordinates":[31.48083,30.02504]}},{"type":"Feature","properties":{"id":"ke-gastronomi-21","kind":"poi","name":"Food Court","theme":"gastronomi","lab":1},"geometry":{"type":"Point","coordinates":[31.50035,30.07976]}},{"type":"Feature","properties":{"id":"ke-gastronomi-22","kind":"poi","name":"Chili's","theme":"gastronomi","lab":1},"geometry":{"type":"Point","coordinates":[31.22847,30.04848]}},{"type":"Feature","properties":{"id":"ke-gastronomi-23","kind":"poi","name":"Chili's","theme":"gastronomi","lab":1},"geometry":{"type":"Point","coordinates":[31.02063,30.02968]}},{"type":"Feature","properties":{"id":"ke-gastronomi-24","kind":"poi","name":"Buffalo Burger - Zamalek","theme":"gastronomi","lab":1},"geometry":{"type":"Point","coordinates":[31.22063,30.0639]}},{"type":"Feature","properties":{"id":"ke-gastronomi-25","kind":"poi","name":"Buffalo Burger - Shobra","theme":"gastronomi","lab":1},"geometry":{"type":"Point","coordinates":[31.24498,30.09331]}},{"type":"Feature","properties":{"id":"ke-gastronomi-26","kind":"poi","name":"Buffalo Burger - Rehab City","theme":"gastronomi","lab":1},"geometry":{"type":"Point","coordinates":[31.5084,30.05849]}},{"type":"Feature","properties":{"id":"ke-gastronomi-27","kind":"poi","name":"Buffalo Burger - Hadayek Al Ahram","theme":"gastronomi","lab":1},"geometry":{"type":"Point","coordinates":[31.10583,29.98132]}},{"type":"Feature","properties":{"id":"ke-gastronomi-28","kind":"poi","name":"Buffalo Burger - Down Town","theme":"gastronomi","lab":1},"geometry":{"type":"Point","coordinates":[31.41178,30.0174]}},{"type":"Feature","properties":{"id":"ke-gastronomi-29","kind":"poi","name":"Buffalo Burger - Dandy Mega Mall","theme":"gastronomi","lab":1},"geometry":{"type":"Point","coordinates":[31.02782,30.06249]}},{"type":"Feature","properties":{"id":"ke-gastronomi-30","kind":"poi","name":"Buffalo Burger - Almaza Avenue","theme":"gastronomi","lab":1},"geometry":{"type":"Point","coordinates":[31.34756,30.09264]}},{"type":"Feature","properties":{"id":"ke-gastronomi-31","kind":"poi","name":"منفذ بيع منتجات القوات المسلحة","theme":"gastronomi","lab":1},"geometry":{"type":"Point","coordinates":[31.17471,30.01629]}},{"type":"Feature","properties":{"id":"ke-gastronomi-32","kind":"poi","name":"small bustling crowded marketplace, mostly greengrocers","theme":"gastronomi","lab":1},"geometry":{"type":"Point","coordinates":[31.22015,29.89198]}},{"type":"Feature","properties":{"id":"ke-gastronomi-33","kind":"poi","name":"Zenien urban market","theme":"gastronomi","lab":1},"geometry":{"type":"Point","coordinates":[31.18338,30.03316]}},{"type":"Feature","properties":{"id":"ke-gastronomi-34","kind":"poi","name":"Walk Way Food Court","theme":"gastronomi","lab":1},"geometry":{"type":"Point","coordinates":[31.13374,29.98693]}},{"type":"Feature","properties":{"id":"ke-gastronomi-35","kind":"poi","name":"Twin Plaza","theme":"gastronomi","lab":1},"geometry":{"type":"Point","coordinates":[31.43095,30.05353]}},{"type":"Feature","properties":{"id":"ke-gastronomi-36","kind":"poi","name":"Town Center Mall","theme":"gastronomi","lab":1},"geometry":{"type":"Point","coordinates":[31.42138,30.01926]}},{"type":"Feature","properties":{"id":"ke-gastronomi-37","kind":"poi","name":"Tanash B-Tech Park","theme":"gastronomi","lab":1},"geometry":{"type":"Point","coordinates":[31.1864,30.12954]}},{"type":"Feature","properties":{"id":"ke-gastronomi-38","kind":"poi","name":"Tabali","theme":"gastronomi","lab":1},"geometry":{"type":"Point","coordinates":[31.49817,30.02157]}},{"type":"Feature","properties":{"id":"ke-gastronomi-39","kind":"poi","name":"Souq Al-Leimoun","theme":"gastronomi","lab":1},"geometry":{"type":"Point","coordinates":[31.26224,30.05317]}},{"type":"Feature","properties":{"id":"ke-alisveris-0","kind":"poi","name":"Talaat Harb Mall","theme":"alisveris","lab":1},"geometry":{"type":"Point","coordinates":[31.23991,30.05019]}},{"type":"Feature","properties":{"id":"ke-alisveris-1","kind":"poi","name":"كانتري مول Country Mall","theme":"alisveris","lab":1},"geometry":{"type":"Point","coordinates":[31.61203,30.16378]}},{"type":"Feature","properties":{"id":"ke-alisveris-2","kind":"poi","name":"XS79 Mall","theme":"alisveris","lab":1},"geometry":{"type":"Point","coordinates":[31.42598,30.00363]}},{"type":"Feature","properties":{"id":"ke-alisveris-3","kind":"poi","name":"Open Air Mall","theme":"alisveris","lab":1},"geometry":{"type":"Point","coordinates":[31.62718,30.10778]}},{"type":"Feature","properties":{"id":"ke-alisveris-4","kind":"poi","name":"Marks & Spencer","theme":"alisveris","lab":1},"geometry":{"type":"Point","coordinates":[31.40937,30.03021]}},{"type":"Feature","properties":{"id":"ke-alisveris-5","kind":"poi","name":"I Business Park | ARQA","theme":"alisveris","lab":1},"geometry":{"type":"Point","coordinates":[31.72901,29.99636]}},{"type":"Feature","properties":{"id":"ke-alisveris-6","kind":"poi","name":"Citadel Plaza","theme":"alisveris","lab":1},"geometry":{"type":"Point","coordinates":[31.26742,30.02816]}},{"type":"Feature","properties":{"id":"ke-alisveris-7","kind":"poi","name":"Cairo Festival City Mall","theme":"alisveris","lab":1},"geometry":{"type":"Point","coordinates":[31.40812,30.02813]}},{"type":"Feature","properties":{"id":"ke-alisveris-8","kind":"poi","name":"Bandar Maadi mall","theme":"alisveris","lab":1},"geometry":{"type":"Point","coordinates":[31.28423,29.97761]}},{"type":"Feature","properties":{"id":"ke-alisveris-9","kind":"poi","name":"All Seasons Park","theme":"alisveris","lab":1},"geometry":{"type":"Point","coordinates":[31.66579,30.07805]}},{"type":"Feature","properties":{"id":"ke-alisveris-10","kind":"poi","name":"ورشة بدوى إصلاح سبارات","theme":"alisveris","lab":1},"geometry":{"type":"Point","coordinates":[31.32324,30.12685]}},{"type":"Feature","properties":{"id":"ke-alisveris-11","kind":"poi","name":"مول تجاري","theme":"alisveris","lab":1},"geometry":{"type":"Point","coordinates":[31.52274,30.04394]}},{"type":"Feature","properties":{"id":"ke-alisveris-12","kind":"poi","name":"مول بداية ۲","theme":"alisveris","lab":1},"geometry":{"type":"Point","coordinates":[31.07995,29.91796]}},{"type":"Feature","properties":{"id":"ke-alisveris-13","kind":"poi","name":"مول","theme":"alisveris","lab":1},"geometry":{"type":"Point","coordinates":[31.80939,30.15797]}},{"type":"Feature","properties":{"id":"ke-alisveris-14","kind":"poi","name":"محطه توزيع سوق دوت كوم","theme":"alisveris","lab":1},"geometry":{"type":"Point","coordinates":[31.03108,30.08293]}},{"type":"Feature","properties":{"id":"ke-alisveris-15","kind":"poi","name":"عمر افندي","theme":"alisveris","lab":1},"geometry":{"type":"Point","coordinates":[31.28215,30.07048]}},{"type":"Feature","properties":{"id":"ke-alisveris-16","kind":"poi","name":"صن مول","theme":"alisveris","lab":1},"geometry":{"type":"Point","coordinates":[31.32167,30.07051]}},{"type":"Feature","properties":{"id":"ke-alisveris-17","kind":"poi","name":"سنتر الميسرة","theme":"alisveris","lab":1},"geometry":{"type":"Point","coordinates":[31.47968,30.24495]}},{"type":"Feature","properties":{"id":"ke-alisveris-18","kind":"poi","name":"دارى","theme":"alisveris","lab":1},"geometry":{"type":"Point","coordinates":[31.18661,30.00411]}},{"type":"Feature","properties":{"id":"ke-alisveris-19","kind":"poi","name":"براميز مول","theme":"alisveris","lab":1},"geometry":{"type":"Point","coordinates":[31.19915,30.00815]}},{"type":"Feature","properties":{"id":"ke-alisveris-20","kind":"poi","name":"بدر بلازا مول - Badr Plaza Mall","theme":"alisveris","lab":1},"geometry":{"type":"Point","coordinates":[31.70349,30.11134]}},{"type":"Feature","properties":{"id":"ke-alisveris-21","kind":"poi","name":"الشركه المصريه لخيوط المكرميه","theme":"alisveris","lab":1},"geometry":{"type":"Point","coordinates":[31.25297,30.04843]}},{"type":"Feature","properties":{"id":"ke-alisveris-22","kind":"poi","name":"الشركة الاسلامية للمعدات الكهربائية","theme":"alisveris","lab":1},"geometry":{"type":"Point","coordinates":[31.24944,30.04821]}},{"type":"Feature","properties":{"id":"ke-alisveris-23","kind":"poi","name":"التوحيد والنور","theme":"alisveris","lab":1},"geometry":{"type":"Point","coordinates":[31.26876,30.07688]}},{"type":"Feature","properties":{"id":"ke-alisveris-24","kind":"poi","name":"التوحيد والنور","theme":"alisveris","lab":1},"geometry":{"type":"Point","coordinates":[31.18819,30.00909]}},{"type":"Feature","properties":{"id":"ke-alisveris-25","kind":"poi","name":"التوحيد والنور","theme":"alisveris","lab":1},"geometry":{"type":"Point","coordinates":[31.15884,29.9979]}},{"type":"Feature","properties":{"id":"ke-alisveris-26","kind":"poi","name":"التوحيد و النور","theme":"alisveris","lab":1},"geometry":{"type":"Point","coordinates":[31.2438,30.06001]}},{"type":"Feature","properties":{"id":"ke-alisveris-27","kind":"poi","name":"اسواق العثيم","theme":"alisveris","lab":1},"geometry":{"type":"Point","coordinates":[31.1843,30.01458]}},{"type":"Feature","properties":{"id":"ke-alisveris-28","kind":"poi","name":"استقبال","theme":"alisveris","lab":1},"geometry":{"type":"Point","coordinates":[31.19799,30.04862]}},{"type":"Feature","properties":{"id":"ke-alisveris-29","kind":"poi","name":"Zanussi","theme":"alisveris","lab":1},"geometry":{"type":"Point","coordinates":[31.24363,30.03159]}},{"type":"Feature","properties":{"id":"ke-alisveris-30","kind":"poi","name":"Value Mall","theme":"alisveris","lab":1},"geometry":{"type":"Point","coordinates":[31.64045,30.1558]}},{"type":"Feature","properties":{"id":"ke-alisveris-31","kind":"poi","name":"Town Center","theme":"alisveris","lab":1},"geometry":{"type":"Point","coordinates":[31.42024,30.14986]}},{"type":"Feature","properties":{"id":"ke-alisveris-32","kind":"poi","name":"Tiba Mall","theme":"alisveris","lab":1},"geometry":{"type":"Point","coordinates":[31.32993,30.06743]}},{"type":"Feature","properties":{"id":"ke-alisveris-33","kind":"poi","name":"The v mall","theme":"alisveris","lab":1},"geometry":{"type":"Point","coordinates":[31.47543,30.0306]}},{"type":"Feature","properties":{"id":"ke-alisveris-34","kind":"poi","name":"The Cultural Commercial Center","theme":"alisveris","lab":1},"geometry":{"type":"Point","coordinates":[31.75375,30.00392]}},{"type":"Feature","properties":{"id":"ke-otel-0","kind":"poi","name":"InterContinental Cairo Semiramis, an IHG Hotel","theme":"otel","lab":1},"geometry":{"type":"Point","coordinates":[31.23234,30.04284]}},{"type":"Feature","properties":{"id":"ke-otel-1","kind":"poi","name":"Hyatt Regency Cairo West","theme":"otel","lab":1},"geometry":{"type":"Point","coordinates":[31.07305,30.01833]}},{"type":"Feature","properties":{"id":"ke-otel-2","kind":"poi","name":"Hyatt Centric Cairo West","theme":"otel","lab":1},"geometry":{"type":"Point","coordinates":[31.07147,30.02078]}},{"type":"Feature","properties":{"id":"ke-otel-3","kind":"poi","name":"Hilton Pyramids Golf","theme":"otel","lab":1},"geometry":{"type":"Point","coordinates":[31.0444,29.96301]}},{"type":"Feature","properties":{"id":"ke-otel-4","kind":"poi","name":"Hilton Cairo Heliopolis","theme":"otel","lab":1},"geometry":{"type":"Point","coordinates":[31.36456,30.10617]}},{"type":"Feature","properties":{"id":"ke-otel-5","kind":"poi","name":"Hilton Cairo Grand Nile","theme":"otel","lab":1},"geometry":{"type":"Point","coordinates":[31.2268,30.03419]}},{"type":"Feature","properties":{"id":"ke-otel-6","kind":"poi","name":"Cairo Marriott Hotel & Omar Khayyam Casino","theme":"otel","lab":1},"geometry":{"type":"Point","coordinates":[31.22456,30.05709]}},{"type":"Feature","properties":{"id":"ke-otel-7","kind":"poi","name":"Windsor","theme":"otel","lab":1},"geometry":{"type":"Point","coordinates":[31.24574,30.05343]}},{"type":"Feature","properties":{"id":"ke-otel-8","kind":"poi","name":"Waldorf Astoria Cairo Heliopolis","theme":"otel","lab":1},"geometry":{"type":"Point","coordinates":[31.36613,30.1072]}},{"type":"Feature","properties":{"id":"ke-otel-9","kind":"poi","name":"Sofitel Cairo","theme":"otel","lab":1},"geometry":{"type":"Point","coordinates":[31.22819,30.06544]}},{"type":"Feature","properties":{"id":"ke-otel-10","kind":"poi","name":"Le Riad Hotel de Charme","theme":"otel","lab":1},"geometry":{"type":"Point","coordinates":[31.26176,30.05219]}},{"type":"Feature","properties":{"id":"ke-otel-11","kind":"poi","name":"Le Méridien Cairo Airport","theme":"otel","lab":1},"geometry":{"type":"Point","coordinates":[31.39535,30.11372]}},{"type":"Feature","properties":{"id":"ke-otel-12","kind":"poi","name":"Holiday Inn Maadi Cairo","theme":"otel","lab":1},"geometry":{"type":"Point","coordinates":[31.24823,29.961]}},{"type":"Feature","properties":{"id":"ke-otel-13","kind":"poi","name":"Four Seasons Hotel Cairo at Nile Plaza","theme":"otel","lab":1},"geometry":{"type":"Point","coordinates":[31.22937,30.03623]}},{"type":"Feature","properties":{"id":"ke-otel-14","kind":"poi","name":"Villa Belle Epoque","theme":"otel","lab":1},"geometry":{"type":"Point","coordinates":[31.26311,29.95958]}},{"type":"Feature","properties":{"id":"ke-otel-15","kind":"poi","name":"Dusit Thani Hotel","theme":"otel","lab":1},"geometry":{"type":"Point","coordinates":[31.45516,30.02596]}},{"type":"Feature","properties":{"id":"ke-otel-16","kind":"poi","name":"pyramids Overlook Inn","theme":"otel","lab":1},"geometry":{"type":"Point","coordinates":[31.14034,29.97579]}},{"type":"Feature","properties":{"id":"ke-otel-17","kind":"poi","name":"The St. Regis Almasa Hotel, Cairo","theme":"otel","lab":1},"geometry":{"type":"Point","coordinates":[31.72398,30.00622]}},{"type":"Feature","properties":{"id":"ke-otel-18","kind":"poi","name":"Royal Maxim Palace Kempinski","theme":"otel","lab":1},"geometry":{"type":"Point","coordinates":[31.41905,30.06039]}},{"type":"Feature","properties":{"id":"ke-otel-19","kind":"poi","name":"Radisson Blu Hotel","theme":"otel","lab":1},"geometry":{"type":"Point","coordinates":[31.37522,30.10639]}},{"type":"Feature","properties":{"id":"ke-otel-20","kind":"poi","name":"Pyramids plateau inn","theme":"otel","lab":1},"geometry":{"type":"Point","coordinates":[31.14182,29.97602]}},{"type":"Feature","properties":{"id":"ke-otel-21","kind":"poi","name":"Novotel Hotel Cairo El Borg","theme":"otel","lab":1},"geometry":{"type":"Point","coordinates":[31.22655,30.0445]}},{"type":"Feature","properties":{"id":"ke-otel-22","kind":"poi","name":"Novotel","theme":"otel","lab":1},"geometry":{"type":"Point","coordinates":[31.40214,30.12135]}},{"type":"Feature","properties":{"id":"ke-otel-23","kind":"poi","name":"NEW ONE SEASON","theme":"otel","lab":1},"geometry":{"type":"Point","coordinates":[31.24002,30.04959]}},{"type":"Feature","properties":{"id":"ke-otel-24","kind":"poi","name":"Movenpick Hotel - Media Production City","theme":"otel","lab":1},"geometry":{"type":"Point","coordinates":[31.02076,29.96323]}},{"type":"Feature","properties":{"id":"ke-otel-25","kind":"poi","name":"Holiday Inn Citystars","theme":"otel","lab":1},"geometry":{"type":"Point","coordinates":[31.344,30.07393]}},{"type":"Feature","properties":{"id":"ke-otel-26","kind":"poi","name":"Golden Tulip Hotel October","theme":"otel","lab":1},"geometry":{"type":"Point","coordinates":[31.05301,29.94814]}},{"type":"Feature","properties":{"id":"ke-otel-27","kind":"poi","name":"Barcelo Cairo Pyramids Hotel","theme":"otel","lab":1},"geometry":{"type":"Point","coordinates":[31.17639,29.99964]}},{"type":"Feature","properties":{"id":"ke-otel-28","kind":"poi","name":"منزلي مصر","theme":"otel","lab":1},"geometry":{"type":"Point","coordinates":[31.1977,30.04461]}},{"type":"Feature","properties":{"id":"ke-otel-29","kind":"poi","name":"فندق ونادي النصر للقوات المسلحة","theme":"otel","lab":1},"geometry":{"type":"Point","coordinates":[31.32373,30.07006]}},{"type":"Feature","properties":{"id":"ke-yurt-0","kind":"poi","name":"المدينة الجامعية بنين - هندسة المطرية","theme":"yurt","lab":1},"geometry":{"type":"Point","coordinates":[31.3252,30.12206]}},{"type":"Feature","properties":{"id":"ke-kamu-0","kind":"poi","name":"Embassy of the United Arab Emirates","theme":"kamu","lab":1},"geometry":{"type":"Point","coordinates":[31.21763,30.02629]}},{"type":"Feature","properties":{"id":"ke-kamu-1","kind":"poi","name":"رئاسه حي الهرم","theme":"kamu","lab":1},"geometry":{"type":"Point","coordinates":[31.17625,30.00909]}},{"type":"Feature","properties":{"id":"ke-kamu-2","kind":"poi","name":"The Octagon","theme":"kamu","lab":1},"geometry":{"type":"Point","coordinates":[31.65409,29.93793]}},{"type":"Feature","properties":{"id":"ke-kamu-3","kind":"poi","name":"Parliament of Egypt","theme":"kamu","lab":1},"geometry":{"type":"Point","coordinates":[31.75926,30.01352]}},{"type":"Feature","properties":{"id":"ke-kamu-4","kind":"poi","name":"New and Renewable Energy NREA Organization","theme":"kamu","lab":1},"geometry":{"type":"Point","coordinates":[31.34172,30.04113]}},{"type":"Feature","properties":{"id":"ke-kamu-5","kind":"poi","name":"National Telecommunications Regulatory Authority","theme":"kamu","lab":1},"geometry":{"type":"Point","coordinates":[31.02157,30.06702]}},{"type":"Feature","properties":{"id":"ke-kamu-6","kind":"poi","name":"Ministry of Military Production","theme":"kamu","lab":1},"geometry":{"type":"Point","coordinates":[31.7458,30.01157]}},{"type":"Feature","properties":{"id":"ke-kamu-7","kind":"poi","name":"Ministry of Health","theme":"kamu","lab":1},"geometry":{"type":"Point","coordinates":[31.7477,30.01155]}},{"type":"Feature","properties":{"id":"ke-kamu-8","kind":"poi","name":"Ministry of Finance","theme":"kamu","lab":1},"geometry":{"type":"Point","coordinates":[31.30092,30.05957]}},{"type":"Feature","properties":{"id":"ke-kamu-9","kind":"poi","name":"Ministry of Culture","theme":"kamu","lab":1},"geometry":{"type":"Point","coordinates":[31.21699,30.06055]}},{"type":"Feature","properties":{"id":"ke-kamu-10","kind":"poi","name":"Embassy of Sweden","theme":"kamu","lab":1},"geometry":{"type":"Point","coordinates":[31.22274,30.06557]}},{"type":"Feature","properties":{"id":"ke-kamu-11","kind":"poi","name":"Embassy of Slovakia","theme":"kamu","lab":1},"geometry":{"type":"Point","coordinates":[31.21519,30.04306]}},{"type":"Feature","properties":{"id":"ke-kamu-12","kind":"poi","name":"Embassy of Singapore","theme":"kamu","lab":1},"geometry":{"type":"Point","coordinates":[31.20239,30.04242]}},{"type":"Feature","properties":{"id":"ke-kamu-13","kind":"poi","name":"Embassy of Serbia","theme":"kamu","lab":1},"geometry":{"type":"Point","coordinates":[31.21779,30.06593]}},{"type":"Feature","properties":{"id":"ke-kamu-14","kind":"poi","name":"Embassy of Peru","theme":"kamu","lab":1},"geometry":{"type":"Point","coordinates":[31.26318,29.96146]}},{"type":"Feature","properties":{"id":"ke-kamu-15","kind":"poi","name":"Embassy of Paraguay","theme":"kamu","lab":1},"geometry":{"type":"Point","coordinates":[31.2516,29.957]}},{"type":"Feature","properties":{"id":"ke-kamu-16","kind":"poi","name":"Embassy of Netherlands","theme":"kamu","lab":1},"geometry":{"type":"Point","coordinates":[31.22096,30.05873]}},{"type":"Feature","properties":{"id":"ke-kamu-17","kind":"poi","name":"Embassy of Mozambique","theme":"kamu","lab":1},"geometry":{"type":"Point","coordinates":[31.20293,30.04027]}},{"type":"Feature","properties":{"id":"ke-kamu-18","kind":"poi","name":"Egyptian Drug Authority - EDA","theme":"kamu","lab":1},"geometry":{"type":"Point","coordinates":[31.22299,30.01212]}},{"type":"Feature","properties":{"id":"ke-kamu-19","kind":"poi","name":"British Embassy","theme":"kamu","lab":1},"geometry":{"type":"Point","coordinates":[31.23126,30.03941]}},{"type":"Feature","properties":{"id":"ke-kamu-20","kind":"poi","name":"Al-Mahkama Al-Dustureya","theme":"kamu","lab":1},"geometry":{"type":"Point","coordinates":[31.23964,29.96879]}},{"type":"Feature","properties":{"id":"ke-kamu-21","kind":"poi","name":"مركز تدريب الضريبي القاهره","theme":"kamu","lab":1},"geometry":{"type":"Point","coordinates":[31.31687,30.10528]}},{"type":"Feature","properties":{"id":"ke-kamu-22","kind":"poi","name":"مركز تدريب  الضريبي الجيزه","theme":"kamu","lab":1},"geometry":{"type":"Point","coordinates":[31.23862,30.04721]}},{"type":"Feature","properties":{"id":"ke-kamu-23","kind":"poi","name":"شركة مياه الشرب بالقاهرة الكبرى - مركز خدمة عملاء االقاهرة الجديدة","theme":"kamu","lab":1},"geometry":{"type":"Point","coordinates":[31.47047,30.02597]}},{"type":"Feature","properties":{"id":"ke-kamu-24","kind":"poi","name":"شركة مياه الشرب بالقاهرة الكبرى - عين الصيرة","theme":"kamu","lab":1},"geometry":{"type":"Point","coordinates":[31.24219,30.01563]}},{"type":"Feature","properties":{"id":"ke-kamu-25","kind":"poi","name":"شركة شمال القاهرة لتوزيع الكهرباء - القاهرة الجديدة","theme":"kamu","lab":1},"geometry":{"type":"Point","coordinates":[31.44014,30.01295]}},{"type":"Feature","properties":{"id":"ke-kamu-26","kind":"poi","name":"Al-Marg District Headquarters","theme":"kamu","lab":1},"geometry":{"type":"Point","coordinates":[31.33599,30.14208]}},{"type":"Feature","properties":{"id":"ke-kamu-27","kind":"poi","name":"وزاره التعليم العالي للتعليم الخاص","theme":"kamu","lab":1},"geometry":{"type":"Point","coordinates":[31.3409,30.03835]}},{"type":"Feature","properties":{"id":"ke-kamu-28","kind":"poi","name":"وحدة مرور حدائق القبة","theme":"kamu","lab":1},"geometry":{"type":"Point","coordinates":[31.28967,30.08866]}},{"type":"Feature","properties":{"id":"ke-kamu-29","kind":"poi","name":"هيئة الاثار","theme":"kamu","lab":1},"geometry":{"type":"Point","coordinates":[31.28658,30.07085]}},{"type":"Feature","properties":{"id":"ke-kamu-30","kind":"poi","name":"نيابة غرب القاهرة العسكرية (م.م.ع)","theme":"kamu","lab":1},"geometry":{"type":"Point","coordinates":[31.28854,29.96862]}},{"type":"Feature","properties":{"id":"ke-kamu-31","kind":"poi","name":"نقابة المهن الزراعية","theme":"kamu","lab":1},"geometry":{"type":"Point","coordinates":[31.24125,30.0578]}},{"type":"Feature","properties":{"id":"ke-kamu-32","kind":"poi","name":"مكتب توثيق الشهر العقاري - فرع الرحاب","theme":"kamu","lab":1},"geometry":{"type":"Point","coordinates":[31.48875,30.06548]}},{"type":"Feature","properties":{"id":"ke-kamu-33","kind":"poi","name":"مكتب تصديقات الميريلاند","theme":"kamu","lab":1},"geometry":{"type":"Point","coordinates":[31.32215,30.10073]}},{"type":"Feature","properties":{"id":"ke-kamu-34","kind":"poi","name":"مكتب تصاريح الصيد البحريه","theme":"kamu","lab":1},"geometry":{"type":"Point","coordinates":[31.31874,30.07464]}},{"type":"Feature","properties":{"id":"ke-kamu-35","kind":"poi","name":"مكتب بريد مصر القديمة","theme":"kamu","lab":1},"geometry":{"type":"Point","coordinates":[31.2269,30.00426]}},{"type":"Feature","properties":{"id":"ke-kamu-36","kind":"poi","name":"مكتب بريد رمسيس","theme":"kamu","lab":1},"geometry":{"type":"Point","coordinates":[31.23903,30.05362]}},{"type":"Feature","properties":{"id":"ke-kamu-37","kind":"poi","name":"مكتب بريد بهتيم","theme":"kamu","lab":1},"geometry":{"type":"Point","coordinates":[31.27037,30.13591]}},{"type":"Feature","properties":{"id":"ke-kamu-38","kind":"poi","name":"مرور حدائق الأهرام","theme":"kamu","lab":1},"geometry":{"type":"Point","coordinates":[31.1362,30.00643]}},{"type":"Feature","properties":{"id":"ke-kamu-39","kind":"poi","name":"محكمة حلوان الابتدائية","theme":"kamu","lab":1},"geometry":{"type":"Point","coordinates":[31.33859,29.84944]}},{"type":"Feature","properties":{"id":"ke-kamu-40","kind":"poi","name":"محافظه الجيزه(سابقآ)","theme":"kamu","lab":1},"geometry":{"type":"Point","coordinates":[31.199,30.00915]}},{"type":"Feature","properties":{"id":"ke-kamu-41","kind":"poi","name":"مجمع الخدمات الحكومية لمركز اوسيم (قسم، مرور، سجل مدني)","theme":"kamu","lab":1},"geometry":{"type":"Point","coordinates":[31.15005,30.12818]}},{"type":"Feature","properties":{"id":"ke-kamu-42","kind":"poi","name":"قطاع الكتب","theme":"kamu","lab":1},"geometry":{"type":"Point","coordinates":[31.17585,30.00465]}},{"type":"Feature","properties":{"id":"ke-kamu-43","kind":"poi","name":"صلاح البنجى","theme":"kamu","lab":1},"geometry":{"type":"Point","coordinates":[31.35739,30.05555]}},{"type":"Feature","properties":{"id":"ke-kamu-44","kind":"poi","name":"سفارة النيجر (بيت السفير)","theme":"kamu","lab":1},"geometry":{"type":"Point","coordinates":[31.18656,30.00657]}},{"type":"Feature","properties":{"id":"ke-kamu-45","kind":"poi","name":"سجل مدني المعادى","theme":"kamu","lab":1},"geometry":{"type":"Point","coordinates":[31.26345,29.96676]}},{"type":"Feature","properties":{"id":"ke-kamu-46","kind":"poi","name":"سجل مدني اللبيني (خدمة مميزة)","theme":"kamu","lab":1},"geometry":{"type":"Point","coordinates":[31.14909,29.98578]}},{"type":"Feature","properties":{"id":"ke-kamu-47","kind":"poi","name":"حى مصر الجديدة","theme":"kamu","lab":1},"geometry":{"type":"Point","coordinates":[31.32996,30.10501]}},{"type":"Feature","properties":{"id":"ke-kamu-48","kind":"poi","name":"جهاز مدينه ١٥ مايو","theme":"kamu","lab":1},"geometry":{"type":"Point","coordinates":[31.36437,29.82646]}},{"type":"Feature","properties":{"id":"ke-nom-0","kind":"poi","name":"Muhammad Ali Mosque","theme":"tarihi","lab":1},"geometry":{"type":"Point","coordinates":[31.25983,30.02907]}},{"type":"Feature","properties":{"id":"ke-nom-1","kind":"poi","name":"Ibn Tulun Mosque","theme":"tarihi","lab":1},"geometry":{"type":"Point","coordinates":[31.25025,30.02871]}},{"type":"Feature","properties":{"id":"ke-nom-2","kind":"poi","name":"Bab al-Futuh","theme":"tarihi","lab":1},"geometry":{"type":"Point","coordinates":[31.26333,30.05547]}},{"type":"Feature","properties":{"id":"ke-nom-3","kind":"poi","name":"Babylon Fortress","theme":"tarihi","lab":1},"geometry":{"type":"Point","coordinates":[31.22989,30.00592]}},{"type":"Feature","properties":{"id":"ke-nom-4","kind":"poi","name":"National Museum of Egyptian Civilization","theme":"tarihi","lab":1},"geometry":{"type":"Point","coordinates":[31.24836,30.00761]}},{"type":"Feature","properties":{"id":"ke-nom-5","kind":"poi","name":"City of the Dead","theme":"tarihi","lab":1},"geometry":{"type":"Point","coordinates":[31.27507,30.04525]}},{"type":"Feature","properties":{"id":"ke-nom-6","kind":"poi","name":"Giza Zoo","theme":"doga","lab":1},"geometry":{"type":"Point","coordinates":[31.21395,30.02419]}},{"type":"Feature","properties":{"id":"ke-nom-7","kind":"poi","name":"Pyramids of Giza","theme":"tarihi","lab":1},"geometry":{"type":"Point","coordinates":[31.13421,29.97916]}},{"type":"Feature","properties":{"id":"ke-nom-8","kind":"poi","name":"Khan el-Khalili","theme":"alisveris","lab":1},"geometry":{"type":"Point","coordinates":[31.26134,30.04894]}},{"type":"Feature","properties":{"id":"ke-nom-9","kind":"poi","name":"Al-Azhar Mosque","theme":"tarihi","lab":1},"geometry":{"type":"Point","coordinates":[31.26268,30.04575]}},{"type":"Feature","properties":{"id":"ke-nom-10","kind":"poi","name":"Museum of Islamic Art","theme":"tarihi","lab":1},"geometry":{"type":"Point","coordinates":[31.25273,30.04479]}},{"type":"Feature","properties":{"id":"ke-nom-11","kind":"poi","name":"Wadi Degla Protectorate","theme":"doga","lab":1},"geometry":{"type":"Point","coordinates":[31.394,29.9394]}},{"type":"Feature","properties":{"id":"ke-nom-12","kind":"poi","name":"Grand Egyptian Museum","theme":"modern","lab":1},"geometry":{"type":"Point","coordinates":[31.11907,29.99458]}},{"type":"Feature","properties":{"id":"ke-nom-13","kind":"poi","name":"Egyptian Museum","theme":"tarihi","lab":1},"geometry":{"type":"Point","coordinates":[31.23361,30.04797]}},{"type":"Feature","properties":{"id":"ke-nom-14","kind":"poi","name":"Wekalet El-Ghouri","theme":"tarihi","lab":1},"geometry":{"type":"Point","coordinates":[31.26087,30.04566]}},{"type":"Feature","properties":{"id":"ke-nom-15","kind":"poi","name":"Cave Church","theme":"tarihi","lab":1},"geometry":{"type":"Point","coordinates":[31.27675,30.03166]}},{"type":"Feature","properties":{"id":"ke-nom-16","kind":"poi","name":"Manial Palace","theme":"tarihi","lab":1},"geometry":{"type":"Point","coordinates":[31.22948,30.0265]}},{"type":"Feature","properties":{"id":"ke-nom-17","kind":"poi","name":"Cairo Opera House","theme":"modern","lab":1},"geometry":{"type":"Point","coordinates":[31.22407,30.04258]}}]}