{"type":"FeatureCollection","features":[{"type":"Feature","properties":{"id":"line-m1","kind":"line","lineRef":"metro","ref":"1"},"geometry":{"type":"MultiLineString","coordinates":[[[31.33822,30.16357],[31.33758,30.1622],[31.33754,30.15914],[31.33728,30.1579],[31.33516,30.15004],[31.33463,30.14845],[31.33412,30.1476],[31.33335,30.14669],[31.32373,30.1386],[31.32244,30.13711],[31.32165,30.13596],[31.3143,30.12225],[31.31362,30.12068],[31.31337,30.11887],[31.31345,30.11721],[31.31394,30.11325],[31.31362,30.11116],[31.31302,30.10967],[31.30992,30.10521],[31.30628,30.10089],[31.30473,30.09808],[31.30117,30.09335],[31.29924,30.09139],[31.29753,30.08987],[31.28622,30.081],[31.27386,30.07548],[31.27095,30.07345],[31.26804,30.07084],[31.26574,30.06943],[31.25603,30.06554],[31.24631,30.06165],[31.24472,30.05936],[31.23492,30.04985],[31.23476,30.04938],[31.23478,30.04753],[31.23568,30.04385],[31.23602,30.04309],[31.23712,30.04192],[31.23818,30.0404],[31.23838,30.03944],[31.23835,30.03802],[31.23661,30.0312],[31.23611,30.03027],[31.23396,30.0277],[31.23326,30.02631],[31.23268,30.02279],[31.23014,30.01428],[31.22988,30.01263],[31.23007,30.00893],[31.23001,30.00824],[31.22932,30.00476],[31.22874,30.00025],[31.22895,29.99913],[31.22949,29.99771],[31.22998,29.99698],[31.23557,29.99089],[31.24034,29.9843],[31.24217,29.98199],[31.24586,29.9767],[31.24586,29.97669],[31.25132,29.96915],[31.25679,29.9616],[31.26225,29.95406],[31.26345,29.95283],[31.2652,29.95139],[31.27355,29.94629],[31.27559,29.94491],[31.27719,29.94341],[31.27795,29.94241],[31.27902,29.94075],[31.28382,29.93254],[31.28862,29.92433],[31.28973,29.92311],[31.29209,29.92103],[31.29331,29.91933],[31.29699,29.91162],[31.30067,29.90391],[31.30486,29.89554],[31.30906,29.88717],[31.31553,29.87564],[31.32116,29.86794],[31.32679,29.86024],[31.3335,29.85223],[31.33388,29.85141],[31.33411,29.84915]],[[31.33443,29.84921],[31.33422,29.85107],[31.33343,29.85255],[31.32567,29.86179],[31.32063,29.86872],[31.3156,29.87564],[31.30913,29.88719],[31.30913,29.88718],[31.30492,29.89555],[31.30072,29.90392],[31.29991,29.90589],[31.29848,29.90865],[31.29336,29.91935],[31.29214,29.92105],[31.28977,29.92314],[31.28871,29.92429],[31.2881,29.92519],[31.28359,29.93298],[31.27907,29.94077],[31.27801,29.94239],[31.27712,29.94353],[31.27518,29.94532],[31.27147,29.9477],[31.26549,29.95125],[31.26366,29.95268],[31.26229,29.95409],[31.26228,29.95409],[31.25622,29.96247],[31.25015,29.97086],[31.24409,29.97924],[31.24278,29.98132],[31.24043,29.98426],[31.23562,29.99092],[31.23002,29.99702],[31.22955,29.99774],[31.22901,29.99914],[31.22881,30.00071],[31.22936,30.00475],[31.23012,30.00895],[31.22994,30.01259],[31.23019,30.01426],[31.23271,30.02277],[31.2333,30.02631],[31.23401,30.02768],[31.23574,30.02953],[31.23677,30.03119],[31.23842,30.03802],[31.23843,30.03946],[31.23811,30.0407],[31.23626,30.04287],[31.23572,30.04396],[31.23484,30.04757],[31.23482,30.04934],[31.23504,30.0499],[31.24475,30.05933],[31.24632,30.06164],[31.26068,30.06728],[31.26576,30.0694],[31.26807,30.07082],[31.27145,30.0738],[31.27387,30.07546],[31.28606,30.08086],[31.28692,30.08143],[31.29788,30.09011],[31.29924,30.0913],[31.30135,30.09349],[31.30478,30.09805],[31.30611,30.10051],[31.30704,30.10181],[31.30995,30.10519],[31.31254,30.1088],[31.31335,30.11024],[31.31379,30.11156],[31.31397,30.11308],[31.31396,30.11396],[31.31347,30.1177],[31.31345,30.11946],[31.31367,30.12064],[31.31469,30.12285],[31.32188,30.13621],[31.32379,30.13859],[31.33333,30.14662],[31.33447,30.14806],[31.33517,30.14987],[31.33755,30.15849],[31.33767,30.16215],[31.33798,30.16296],[31.33838,30.16351]]]}},{"type":"Feature","properties":{"id":"badge-m1","kind":"badge","ref":"1","lineRef":"metro"},"geometry":{"type":"Point","coordinates":[31.23026,30.01449]}},{"type":"Feature","properties":{"id":"line-m2","kind":"line","lineRef":"metro","ref":"2","color":"#FF7000"},"geometry":{"type":"MultiLineString","coordinates":[[[31.24347,30.12408],[31.2459,30.12117],[31.24673,30.11926],[31.24903,30.11641],[31.24921,30.11557],[31.24794,30.11107],[31.24606,30.10697],[31.24611,30.10647],[31.24667,30.10492],[31.24648,30.10442],[31.24583,30.10383],[31.24547,30.10324],[31.24535,30.10198],[31.24541,30.09779],[31.2451,30.09142],[31.24527,30.08985],[31.24538,30.0864],[31.24499,30.07202],[31.24507,30.06539],[31.24481,30.06319],[31.24501,30.06267],[31.24613,30.06173],[31.24629,30.06128],[31.24634,30.0563],[31.2468,30.05348],[31.24684,30.05165],[31.24676,30.05064],[31.2442,30.04528],[31.24393,30.04498],[31.24328,30.04483],[31.23568,30.04393],[31.23226,30.04371],[31.22736,30.04313],[31.22638,30.04273],[31.2222,30.04039],[31.21126,30.03809],[31.20031,30.03579],[31.19957,30.03553],[31.19895,30.03506],[31.1984,30.03441],[31.19795,30.03304],[31.19806,30.03253],[31.2006,30.02771],[31.2033,30.01932],[31.20525,30.01369],[31.20677,30.01124],[31.2076,30.00915],[31.20792,30.00764],[31.20789,30.00577],[31.20808,30.00194],[31.20843,29.99984],[31.20902,29.98729],[31.2098,29.98472],[31.21036,29.98356],[31.21165,29.98143],[31.21254,29.98037]],[[31.24352,30.1241],[31.24607,30.12095],[31.24675,30.11928],[31.24908,30.1164],[31.24924,30.11557],[31.24796,30.11107],[31.24612,30.10705],[31.24615,30.10648],[31.24672,30.1049],[31.24651,30.10439],[31.24566,30.10355],[31.24539,30.10196],[31.24548,30.09779],[31.2452,30.09142],[31.24549,30.08694],[31.24541,30.08057],[31.24507,30.0729],[31.24514,30.06539],[31.24485,30.06334],[31.24504,30.06269],[31.24615,30.06176],[31.24631,30.06141],[31.24637,30.05624],[31.24661,30.05531],[31.24684,30.05349],[31.24688,30.05165],[31.24681,30.05069],[31.24435,30.04541],[31.24405,30.04498],[31.24333,30.04481],[31.22736,30.04304],[31.22644,30.04267],[31.22229,30.04036],[31.21131,30.03805],[31.20032,30.03574],[31.1996,30.03547],[31.199,30.03503],[31.19845,30.03436],[31.19803,30.03309],[31.19814,30.03254],[31.20063,30.02773],[31.20334,30.01932],[31.2053,30.01369],[31.20682,30.01124],[31.20765,30.00918],[31.20798,30.00766],[31.20812,30.00197],[31.20848,29.99982],[31.209,29.9876],[31.20954,29.98559],[31.21024,29.98391],[31.21143,29.98191],[31.21264,29.98043]]]}},{"type":"Feature","properties":{"id":"badge-m2","kind":"badge","ref":"2","lineRef":"metro","color":"#FF7000"},"geometry":{"type":"Point","coordinates":[31.23352,30.04379]}},{"type":"Feature","properties":{"id":"line-m3","kind":"line","lineRef":"metro","ref":"3","color":"#00AF23"},"geometry":{"type":"MultiLineString","coordinates":[[[31.18414,30.10188],[31.18399,30.09943],[31.18445,30.09866],[31.18525,30.09814],[31.18642,30.098],[31.19296,30.09823],[31.19442,30.09805],[31.20303,30.09517],[31.21165,30.09229],[31.21227,30.09203],[31.21276,30.09155],[31.21305,30.09084],[31.21296,30.08999],[31.20898,30.07717],[31.20829,30.07634],[31.20319,30.07358],[31.20279,30.07324],[31.20224,30.07228],[31.20252,30.07141],[31.20328,30.07065],[31.207,30.06911]],[[31.2073,30.06904],[31.20331,30.07068],[31.20256,30.07143],[31.2023,30.07228],[31.20283,30.07322],[31.2032,30.07355],[31.20833,30.07632],[31.20903,30.07716],[31.21299,30.08999],[31.21308,30.09085],[31.2128,30.09156],[31.21229,30.09206],[31.21166,30.09232],[31.20304,30.09521],[31.19443,30.09811],[31.19293,30.09826],[31.18641,30.09804],[31.18526,30.09817],[31.18447,30.09868],[31.18403,30.09944],[31.18419,30.10188]],[[31.207,30.06911],[31.20652,30.06921],[31.20601,30.06912],[31.2056,30.06888],[31.20073,30.06365],[31.20048,30.06312],[31.20045,30.06266],[31.20159,30.05415],[31.20154,30.05333],[31.20137,30.05296],[31.19967,30.05096],[31.19351,30.04412],[31.1931,30.04342],[31.19303,30.04289],[31.19334,30.04149],[31.19549,30.03754],[31.19751,30.03286],[31.19924,30.03001],[31.20028,30.02804],[31.20134,30.02489]],[[31.20138,30.02491],[31.20034,30.02805],[31.19754,30.03288],[31.19582,30.03695],[31.19338,30.0415],[31.19307,30.0429],[31.19314,30.04341],[31.19355,30.0441],[31.1997,30.05095],[31.20141,30.05295],[31.20159,30.05332],[31.20163,30.05415],[31.20048,30.06267],[31.20054,30.06312],[31.20077,30.06363],[31.20563,30.06886],[31.20651,30.06914],[31.20728,30.06899]],[[31.28536,30.07397],[31.27663,30.06541],[31.26798,30.06225],[31.2641,30.06035],[31.26264,30.05931],[31.2579,30.05529],[31.25377,30.05201],[31.25286,30.05168],[31.25165,30.05184],[31.24815,30.05318],[31.24703,30.05344],[31.24663,30.05342],[31.24436,30.05275],[31.24305,30.05256],[31.24103,30.05274],[31.23153,30.0557],[31.22897,30.05682],[31.22788,30.05766],[31.22704,30.05853],[31.22581,30.06031],[31.22508,30.06106],[31.22405,30.06168],[31.21297,30.06676],[31.20728,30.06899]],[[31.2073,30.06904],[31.21472,30.0661],[31.2241,30.06171],[31.22512,30.06108],[31.22586,30.06036],[31.22725,30.0584],[31.22792,30.05769],[31.229,30.05685],[31.2316,30.05574],[31.24113,30.05276],[31.24317,30.05262],[31.24506,30.05296],[31.24665,30.05346],[31.24739,30.05343],[31.25161,30.05189],[31.25278,30.05173],[31.25373,30.05203],[31.25788,30.05533],[31.26261,30.05933],[31.26407,30.06037],[31.26796,30.06228],[31.27666,30.06548],[31.28536,30.07397]],[[31.4216,30.14693],[31.41774,30.14672],[31.41436,30.14591],[31.41123,30.14569],[31.40177,30.14294],[31.39917,30.14167],[31.39124,30.13939],[31.38992,30.13858],[31.38654,30.13586],[31.3851,30.13511],[31.37631,30.13208],[31.36751,30.12904],[31.36596,30.12876],[31.36232,30.12842],[31.35316,30.12674],[31.3509,30.12612],[31.34662,30.1239],[31.34321,30.12175],[31.34005,30.11868],[31.33976,30.11751],[31.3377,30.10532],[31.33242,30.10072],[31.32587,30.09415],[31.3256,30.09315],[31.32619,30.0918],[31.32811,30.08929],[31.32897,30.08728],[31.3293,30.08444],[31.32679,30.08027],[31.32654,30.07935],[31.32644,30.07788],[31.32215,30.07564],[31.31715,30.07278],[31.31631,30.07269],[31.31085,30.07564],[31.31012,30.07593],[31.30953,30.07599],[31.30427,30.07417],[31.30266,30.07381],[31.29925,30.07269],[31.29855,30.07256],[31.29754,30.07262],[31.29688,30.07301],[31.29088,30.07769],[31.2902,30.07786],[31.2894,30.07775],[31.28908,30.07753],[31.28579,30.07436]],[[31.28579,30.07436],[31.28903,30.07756],[31.28938,30.0778],[31.2902,30.0779],[31.29089,30.07773],[31.29692,30.07305],[31.29757,30.07268],[31.29855,30.07261],[31.29923,30.07274],[31.30265,30.07384],[31.30426,30.0742],[31.30953,30.07602],[31.31013,30.07596],[31.31086,30.07567],[31.31632,30.07272],[31.31713,30.07281],[31.32213,30.07567],[31.32641,30.0779],[31.3265,30.07929],[31.32676,30.08028],[31.32927,30.08444],[31.32894,30.08728],[31.32808,30.08927],[31.32611,30.09181],[31.32554,30.09313],[31.32579,30.09408],[31.33296,30.10137],[31.33761,30.1054],[31.33966,30.1175],[31.33996,30.11872],[31.34313,30.12179],[31.34659,30.12394],[31.35089,30.12616],[31.35315,30.12677],[31.36112,30.12825],[31.36356,30.12864],[31.36596,30.1288],[31.36749,30.12908],[31.37636,30.13213],[31.38522,30.13518],[31.38523,30.13518],[31.38652,30.1359],[31.38988,30.13863],[31.39122,30.13944],[31.39914,30.14172],[31.40175,30.14298],[31.41079,30.14564],[31.41478,30.14602],[31.41773,30.14677],[31.4216,30.14698]]]}},{"type":"Feature","properties":{"id":"badge-m3","kind":"badge","ref":"3","lineRef":"metro","color":"#00AF23"},"geometry":{"type":"Point","coordinates":[31.33934,30.11558]}},{"type":"Feature","properties":{"id":"line-mono","kind":"line","lineRef":"metro","ref":"MON","color":"#00309A"},"geometry":{"type":"MultiLineString","coordinates":[[[31.31764,30.07158],[31.31885,30.06991],[31.32035,30.06607],[31.32356,30.06034],[31.32386,30.05931],[31.32484,30.05301],[31.32479,30.05264],[31.32441,30.05226],[31.32108,30.05112],[31.32077,30.05083],[31.32071,30.05039],[31.32159,30.04862],[31.32656,30.04353],[31.32727,30.04337],[31.33604,30.04432],[31.34481,30.04528],[31.35358,30.04623],[31.35416,30.04615],[31.35575,30.04477],[31.35598,30.04412],[31.35493,30.03497],[31.35387,30.02583],[31.35398,30.02491],[31.35458,30.02417],[31.35535,30.02381],[31.35612,30.02377],[31.35992,30.02466],[31.36101,30.02469],[31.36193,30.02457],[31.37298,30.0218],[31.38402,30.01902],[31.39507,30.01625],[31.4057,30.01617],[31.41632,30.01608],[31.41844,30.01622],[31.42728,30.01623],[31.43613,30.01625],[31.44497,30.01626],[31.44567,30.01641],[31.44662,30.017],[31.45512,30.02432],[31.45604,30.02489],[31.45764,30.02538],[31.46751,30.02535],[31.47737,30.02532],[31.48723,30.0253],[31.4971,30.02527],[31.49806,30.02518],[31.49926,30.02486],[31.50232,30.02363],[31.5062,30.02183],[31.50955,30.02002],[31.51437,30.01705],[31.5177,30.01466],[31.52167,30.01151],[31.52241,30.01131],[31.52301,30.01147],[31.52323,30.01165],[31.5239,30.01257],[31.52587,30.01543],[31.52707,30.01774],[31.52824,30.02115],[31.52921,30.02629],[31.52956,30.02671],[31.52995,30.0269],[31.54187,30.02688],[31.55379,30.02685],[31.56571,30.02683],[31.58285,30.02667],[31.58504,30.02622],[31.58641,30.02568],[31.59415,30.02139],[31.59482,30.02114],[31.5955,30.02106],[31.59651,30.02131],[31.59699,30.02171],[31.5983,30.02357],[31.59995,30.02652],[31.60054,30.02721],[31.60241,30.02877],[31.60325,30.02913],[31.60379,30.02917],[31.60427,30.0291],[31.60524,30.02861],[31.60865,30.02601],[31.6117,30.02407],[31.61398,30.02277],[31.61863,30.02048],[31.62327,30.01877],[31.62666,30.0178],[31.6304,30.017],[31.63314,30.01657],[31.63752,30.01613],[31.64352,30.0161],[31.65345,30.01718],[31.66338,30.01825],[31.67331,30.01933],[31.67665,30.01945],[31.67961,30.01933],[31.68529,30.0184],[31.6873,30.01787],[31.69321,30.01584],[31.69814,30.01452],[31.70543,30.01321],[31.70646,30.01276],[31.71349,30.00871],[31.71519,30.00816],[31.72555,30.00807],[31.73592,30.00797],[31.74628,30.00788],[31.74672,30.00754],[31.7469,30.00692],[31.74678,30.00272],[31.74701,30.00104],[31.74741,29.99966],[31.74797,29.99829],[31.74922,29.99618],[31.75168,29.99382],[31.75231,29.9938],[31.75277,29.99402],[31.76144,29.99998],[31.77011,30.00594]],[[31.77005,30.00601],[31.7614,30.00004],[31.75274,29.99407],[31.75235,29.99388],[31.75179,29.99387],[31.75145,29.99406],[31.74932,29.99622],[31.74807,29.99832],[31.7477,29.99916],[31.74711,30.00105],[31.74691,30.00236],[31.74693,30.00734],[31.74666,30.00774],[31.74622,30.00797],[31.73621,30.00803],[31.72621,30.00808],[31.7162,30.00814],[31.71621,30.00814],[31.71471,30.00829],[31.7135,30.00873],[31.70624,30.0129],[31.70545,30.01324],[31.69967,30.01425],[31.69521,30.01532],[31.69323,30.01589],[31.68871,30.01749],[31.68531,30.01845],[31.68342,30.01885],[31.67963,30.01938],[31.67669,30.0195],[31.6733,30.0194],[31.66327,30.01831],[31.65324,30.01723],[31.64321,30.01614],[31.6375,30.01619],[31.63315,30.01664],[31.62968,30.01721],[31.62669,30.01787],[31.62327,30.01883],[31.61867,30.02053],[31.61403,30.02282],[31.61174,30.02413],[31.60869,30.02608],[31.6053,30.02868],[31.60433,30.02918],[31.60377,30.02927],[31.60321,30.02923],[31.60233,30.02884],[31.60048,30.02726],[31.59984,30.02656],[31.59821,30.02361],[31.59692,30.02176],[31.59645,30.02137],[31.59549,30.02114],[31.5942,30.02145],[31.58644,30.02574],[31.58428,30.02649],[31.58232,30.02678],[31.57016,30.02684],[31.55801,30.02691],[31.54585,30.02698],[31.5337,30.02704],[31.52989,30.02695],[31.52926,30.02651],[31.52904,30.02603],[31.52836,30.02193],[31.52738,30.01864],[31.52682,30.0174],[31.52562,30.01517],[31.52332,30.01188],[31.52295,30.01152],[31.52241,30.01136],[31.52169,30.01159],[31.51661,30.0156],[31.50978,30.02008],[31.50733,30.02142],[31.50134,30.02413],[31.49863,30.02513],[31.49709,30.02535],[31.48722,30.02538],[31.47735,30.0254],[31.46749,30.02543],[31.45762,30.02546],[31.45599,30.02495],[31.45505,30.02437],[31.44656,30.01706],[31.44565,30.01649],[31.44497,30.01634],[31.43613,30.01633],[31.42728,30.01632],[31.41844,30.01631],[31.41631,30.01616],[31.41631,30.01617],[31.40569,30.01625],[31.39507,30.01633],[31.38394,30.01911],[31.37281,30.02189],[31.36168,30.02467],[31.35991,30.0247],[31.35613,30.02381],[31.35515,30.02392],[31.35459,30.02424],[31.35406,30.02493],[31.35394,30.02581],[31.35533,30.03726],[31.35604,30.04411],[31.3558,30.04479],[31.35417,30.0462],[31.35357,30.04628],[31.3448,30.04533],[31.33603,30.04438],[31.32726,30.04343],[31.32655,30.04361],[31.32164,30.04865],[31.32082,30.05025],[31.32078,30.05069],[31.321,30.051],[31.32445,30.05221],[31.32486,30.05261],[31.32492,30.05301],[31.32397,30.0591],[31.32364,30.06038],[31.32041,30.06609],[31.31891,30.06994],[31.31771,30.07161]]]}},{"type":"Feature","properties":{"id":"badge-mono","kind":"badge","ref":"MON","lineRef":"metro","color":"#00309A"},"geometry":{"type":"Point","coordinates":[31.52787,30.02008]}},{"type":"Feature","properties":{"id":"line-apm","kind":"line","lineRef":"metro","ref":"APM","color":"#8A8F98"},"geometry":{"type":"MultiLineString","coordinates":[[[31.39841,30.11224],[31.39826,30.11346],[31.39842,30.11406],[31.39882,30.11457],[31.40031,30.11568]],[[31.40031,30.11568],[31.4019,30.11678],[31.40256,30.11757],[31.40269,30.11809],[31.40271,30.12022]],[[31.40271,30.12022],[31.40263,30.11809],[31.4025,30.1176],[31.40217,30.11715],[31.40031,30.11568]],[[31.40271,30.12022],[31.40275,30.12318],[31.40325,30.12726]]]}},{"type":"Feature","properties":{"id":"badge-apm","kind":"badge","ref":"APM","lineRef":"metro","color":"#8A8F98"},"geometry":{"type":"Point","coordinates":[31.40282,30.12375]}},{"type":"Feature","properties":{"id":"line-lrt","kind":"line","lineRef":"train","ref":"LRT","color":"#8B1A1A"},"geometry":{"type":"MultiLineString","coordinates":[[[31.42125,30.14642],[31.43139,30.1492],[31.44154,30.15198],[31.45168,30.15476],[31.46182,30.15753],[31.47197,30.16031],[31.48211,30.16309],[31.48211,30.1631],[31.48556,30.16393],[31.4926,30.16526],[31.50407,30.16673],[31.51555,30.16821],[31.52702,30.16968],[31.5385,30.17116],[31.54997,30.17263],[31.5609,30.17389],[31.5609,30.17388],[31.57203,30.17527],[31.58315,30.17665],[31.59428,30.17804],[31.6054,30.17943],[31.61653,30.18082],[31.62765,30.1822],[31.63878,30.18359],[31.64771,30.18412],[31.65556,30.18389],[31.66698,30.18217],[31.67687,30.18095],[31.68677,30.17972],[31.69666,30.1785],[31.70655,30.17728],[31.71353,30.17573]],[[31.71352,30.1757],[31.70654,30.17725],[31.69665,30.17847],[31.68676,30.17969],[31.67687,30.18091],[31.66698,30.18213],[31.65556,30.18386],[31.64771,30.18408],[31.63879,30.18355],[31.62766,30.18216],[31.61654,30.18078],[31.60541,30.17939],[31.59428,30.17801],[31.58315,30.17662],[31.57203,30.17524],[31.5609,30.17385],[31.54998,30.17259],[31.53851,30.17111],[31.52704,30.16964],[31.51556,30.16816],[31.50409,30.16669],[31.49262,30.16521],[31.48558,30.16389],[31.48153,30.16289],[31.47149,30.16014],[31.46144,30.15739],[31.45139,30.15463],[31.44135,30.15188],[31.43131,30.14913],[31.42126,30.14638]],[[31.71353,30.17573],[31.71532,30.17547],[31.72032,30.17429],[31.72158,30.1741],[31.72335,30.17427],[31.72492,30.1749],[31.72565,30.17543],[31.72645,30.17634],[31.72726,30.17816],[31.72796,30.17932],[31.72863,30.18001],[31.73064,30.18161],[31.73129,30.18236],[31.73166,30.18306],[31.73195,30.18408],[31.73196,30.18504],[31.73173,30.18598],[31.73104,30.18721],[31.72514,30.19392],[31.71924,30.20063],[31.71742,30.20232],[31.71281,30.20618],[31.70531,30.21439],[31.69976,30.22066],[31.6963,30.2253],[31.69147,30.23065]],[[31.69155,30.23069],[31.69673,30.22487],[31.69916,30.22148],[31.70033,30.22007],[31.70586,30.2139],[31.71139,30.20772],[31.71298,30.2061],[31.71823,30.20168],[31.71942,30.20052],[31.72539,30.19369],[31.73136,30.18686],[31.73173,30.18612],[31.73204,30.1847],[31.73187,30.18348],[31.73126,30.18226],[31.73082,30.18172],[31.72847,30.17981],[31.72785,30.17911],[31.72652,30.17624],[31.72579,30.17532],[31.72504,30.1747],[31.72415,30.17423],[31.72319,30.17393],[31.7219,30.17378]],[[31.72172,30.17378],[31.72051,30.17393],[31.7151,30.17517],[31.71352,30.1757]],[[31.72172,30.17378],[31.71352,30.1757]],[[31.71353,30.17573],[31.7219,30.17378]],[[31.72488,30.01365],[31.72499,30.02112],[31.72455,30.02263],[31.72328,30.02506],[31.72273,30.02647],[31.72255,30.02803],[31.72281,30.02988],[31.72576,30.03759],[31.72766,30.04151],[31.72883,30.04347],[31.73084,30.04629],[31.73388,30.04968],[31.73791,30.05316],[31.7407,30.05505],[31.74343,30.05664],[31.75359,30.06167],[31.76376,30.0667],[31.77392,30.07174],[31.78409,30.07677],[31.79425,30.0818],[31.79426,30.0818],[31.79598,30.08299],[31.79712,30.08401],[31.79895,30.08623],[31.79991,30.08797],[31.80054,30.08969],[31.80216,30.09552],[31.80261,30.09786],[31.80372,30.10677],[31.80337,30.11081],[31.80348,30.11227],[31.80384,30.11347],[31.80501,30.11611],[31.80529,30.11739],[31.80588,30.12537],[31.80647,30.13335],[31.80706,30.14133],[31.80683,30.14405],[31.80521,30.15459],[31.80451,30.15697],[31.80173,30.16222],[31.80069,30.16361],[31.79903,30.16508],[31.7966,30.16635],[31.79509,30.16682],[31.79365,30.16704],[31.78848,30.1669],[31.78639,30.16708],[31.77693,30.16949],[31.77517,30.16979],[31.77398,30.16986],[31.7722,30.16975],[31.77039,30.16942],[31.75935,30.16622],[31.75725,30.16591],[31.75527,30.16596],[31.74704,30.16774],[31.73684,30.1701],[31.72665,30.17247],[31.72172,30.17378]],[[31.7219,30.17378],[31.72666,30.1725],[31.72667,30.1725],[31.73687,30.17014],[31.74706,30.16777],[31.75527,30.16599],[31.75724,30.16594],[31.75934,30.16625],[31.77038,30.16946],[31.7722,30.16978],[31.77399,30.1699],[31.77517,30.16983],[31.77694,30.16953],[31.7864,30.16711],[31.78848,30.16693],[31.79209,30.16712],[31.79365,30.16708],[31.7951,30.16685],[31.79662,30.16638],[31.79904,30.16511],[31.80072,30.16363],[31.80176,30.16224],[31.80457,30.157],[31.80527,30.15458],[31.80687,30.14406],[31.8071,30.14133],[31.80654,30.13359],[31.80598,30.12585],[31.80542,30.11811],[31.80513,30.11632],[31.8037,30.1129],[31.80343,30.11151],[31.80376,30.10677],[31.80265,30.09785],[31.8022,30.09551],[31.80058,30.08967],[31.79995,30.08795],[31.79899,30.08622],[31.79778,30.08464],[31.79659,30.08346],[31.79513,30.08232],[31.7936,30.08139],[31.78357,30.07643],[31.77354,30.07148],[31.76352,30.06652],[31.75349,30.06157],[31.74346,30.05661],[31.74072,30.05502],[31.73794,30.05312],[31.7339,30.04966],[31.73164,30.04721],[31.73004,30.04517],[31.7277,30.0415],[31.72581,30.03758],[31.72285,30.02988],[31.72259,30.02804],[31.72277,30.02648],[31.72331,30.02507],[31.72459,30.02264],[31.72502,30.02113],[31.72495,30.01365]]]}},{"type":"Feature","properties":{"id":"badge-lrt","kind":"badge","ref":"LRT","lineRef":"train","color":"#8B1A1A"},"geometry":{"type":"Point","coordinates":[31.56645,30.17458]}},{"type":"Feature","properties":{"id":"stn-0","kind":"node","name":"Ramses Station","lineRef":"metro","lab":1,"color":"#FF7000"},"geometry":{"type":"Point","coordinates":[31.24605,30.06298]}},{"type":"Feature","properties":{"id":"stn-1","kind":"node","name":"Shobra Al-Kheima","lineRef":"metro","lab":1,"color":"#FF7000"},"geometry":{"type":"Point","coordinates":[31.24461,30.12248]}},{"type":"Feature","properties":{"id":"stn-2","kind":"node","name":"Maadi","lineRef":"metro","lab":1},"geometry":{"type":"Point","coordinates":[31.25807,29.95984]}},{"type":"Feature","properties":{"id":"stn-3","kind":"node","name":"Omm El Misryeen","lineRef":"metro","lab":1,"color":"#FF7000"},"geometry":{"type":"Point","coordinates":[31.20796,30.00521]}},{"type":"Feature","properties":{"id":"stn-4","kind":"node","name":"Behooth","lineRef":"metro","lab":1,"color":"#FF7000"},"geometry":{"type":"Point","coordinates":[31.20034,30.03578]}},{"type":"Feature","properties":{"id":"stn-5","kind":"node","name":"Dokki","lineRef":"metro","lab":1,"color":"#FF7000"},"geometry":{"type":"Point","coordinates":[31.21204,30.03822]}},{"type":"Feature","properties":{"id":"stn-6","kind":"node","name":"Opera","lineRef":"metro","lab":1,"color":"#FF7000"},"geometry":{"type":"Point","coordinates":[31.22506,30.04196]}},{"type":"Feature","properties":{"id":"stn-8","kind":"node","name":"Massara","lineRef":"metro","lab":1,"color":"#FF7000"},"geometry":{"type":"Point","coordinates":[31.24502,30.0711]}},{"type":"Feature","properties":{"id":"stn-9","kind":"node","name":"Rawd El-Farag","lineRef":"metro","lab":1,"color":"#FF7000"},"geometry":{"type":"Point","coordinates":[31.24535,30.08056]}},{"type":"Feature","properties":{"id":"stn-10","kind":"node","name":"Sainte Teresa","lineRef":"metro","lab":1,"color":"#FF7000"},"geometry":{"type":"Point","coordinates":[31.24541,30.0883]}},{"type":"Feature","properties":{"id":"stn-11","kind":"node","name":"Al-Mezallat","lineRef":"metro","lab":1,"color":"#FF7000"},"geometry":{"type":"Point","coordinates":[31.24612,30.10409]}},{"type":"Feature","properties":{"id":"stn-12","kind":"node","name":"Helwan","lineRef":"metro","lab":1},"geometry":{"type":"Point","coordinates":[31.3342,29.84888]}},{"type":"Feature","properties":{"id":"stn-13","kind":"node","name":"Tora El-Asmant","lineRef":"metro","lab":1},"geometry":{"type":"Point","coordinates":[31.28769,29.92585]}},{"type":"Feature","properties":{"id":"stn-14","kind":"node","name":"Kozzika","lineRef":"metro","lab":1},"geometry":{"type":"Point","coordinates":[31.28171,29.93615]}},{"type":"Feature","properties":{"id":"stn-15","kind":"node","name":"Thakanat El-Maadi","lineRef":"metro","lab":1},"geometry":{"type":"Point","coordinates":[31.26347,29.95284]}},{"type":"Feature","properties":{"id":"stn-16","kind":"node","name":"Helmeyet Al-Zaitoun","lineRef":"metro","lab":1},"geometry":{"type":"Point","coordinates":[31.3139,30.11435]}},{"type":"Feature","properties":{"id":"stn-17","kind":"node","name":"Mohamed Naguib","lineRef":"metro","lab":1,"color":"#FF7000"},"geometry":{"type":"Point","coordinates":[31.24428,30.04539]}},{"type":"Feature","properties":{"id":"stn-18","kind":"node","name":"Mahattat al Rubayqi","lineRef":"train","lab":1,"color":"#8B1A1A"},"geometry":{"type":"Point","coordinates":[31.77146,30.16906]}},{"type":"Feature","properties":{"id":"stn-19","kind":"node","name":"Darb al Hagg","lineRef":"train","lab":1,"color":"#8B1A1A"},"geometry":{"type":"Point","coordinates":[31.54202,30.17139]}},{"type":"Feature","properties":{"id":"stn-20","kind":"node","name":"Hadayeq El-Maadi","lineRef":"metro","lab":1},"geometry":{"type":"Point","coordinates":[31.25067,29.9701]}},{"type":"Feature","properties":{"id":"stn-21","kind":"node","name":"Al-Khalafawy","lineRef":"metro","lab":1,"color":"#FF7000"},"geometry":{"type":"Point","coordinates":[31.24544,30.09779]}},{"type":"Feature","properties":{"id":"stn-22","kind":"node","name":"Koleyet El Banat subway station","lineRef":"metro","lab":1,"color":"#00AF23"},"geometry":{"type":"Point","coordinates":[31.32925,30.08437]}},{"type":"Feature","properties":{"id":"stn-23","kind":"node","name":"Dar Al-Salam","lineRef":"metro","lab":1},"geometry":{"type":"Point","coordinates":[31.2422,29.98203]}},{"type":"Feature","properties":{"id":"stn-24","kind":"node","name":"Al-Zahraa","lineRef":"metro","lab":1},"geometry":{"type":"Point","coordinates":[31.23136,29.99544]}},{"type":"Feature","properties":{"id":"stn-26","kind":"node","name":"Cairo Fairground","lineRef":"metro","lab":1,"color":"#00AF23"},"geometry":{"type":"Point","coordinates":[31.30115,30.07333]}},{"type":"Feature","properties":{"id":"stn-27","kind":"node","name":"Abbassia","lineRef":"metro","lab":1,"color":"#00AF23"},"geometry":{"type":"Point","coordinates":[31.28409,30.07279]}},{"type":"Feature","properties":{"id":"stn-28","kind":"node","name":"Abdou Pasha","lineRef":"metro","lab":1,"color":"#00AF23"},"geometry":{"type":"Point","coordinates":[31.27644,30.06536]}},{"type":"Feature","properties":{"id":"stn-29","kind":"node","name":"Bab el Shaaria","lineRef":"metro","lab":1,"color":"#00AF23"},"geometry":{"type":"Point","coordinates":[31.25587,30.05371]}},{"type":"Feature","properties":{"id":"stn-30","kind":"node","name":"Al Ahram","lineRef":"metro","lab":1,"color":"#00AF23"},"geometry":{"type":"Point","coordinates":[31.3265,30.09132]}},{"type":"Feature","properties":{"id":"stn-33","kind":"node","name":"Giza Suburbs","lineRef":"metro","lab":1,"color":"#FF7000"},"geometry":{"type":"Point","coordinates":[31.20825,30.00525]}},{"type":"Feature","properties":{"id":"stn-34","kind":"node","name":"Mar Girgis","lineRef":"metro","lab":1},"geometry":{"type":"Point","coordinates":[31.22952,30.00585]}},{"type":"Feature","properties":{"id":"stn-35","kind":"node","name":"Hadayeq Helwan","lineRef":"metro","lab":1},"geometry":{"type":"Point","coordinates":[31.30407,29.89719]}},{"type":"Feature","properties":{"id":"stn-36","kind":"node","name":"Wadi Hof","lineRef":"metro","lab":1},"geometry":{"type":"Point","coordinates":[31.3134,29.87944]}},{"type":"Feature","properties":{"id":"stn-37","kind":"node","name":"Ain Helwan","lineRef":"metro","lab":1},"geometry":{"type":"Point","coordinates":[31.32501,29.86266]}},{"type":"Feature","properties":{"id":"stn-38","kind":"node","name":"Al-Maasara","lineRef":"metro","lab":1},"geometry":{"type":"Point","coordinates":[31.29973,29.9061]}},{"type":"Feature","properties":{"id":"stn-39","kind":"node","name":"Al Marj","lineRef":"metro","lab":1},"geometry":{"type":"Point","coordinates":[31.33577,30.15208]}},{"type":"Feature","properties":{"id":"stn-40","kind":"node","name":"Ezbet en Nakhl","lineRef":"metro","lab":1},"geometry":{"type":"Point","coordinates":[31.32449,30.13928]}},{"type":"Feature","properties":{"id":"stn-41","kind":"node","name":"Ain Shams","lineRef":"metro","lab":1},"geometry":{"type":"Point","coordinates":[31.31908,30.13104]}},{"type":"Feature","properties":{"id":"stn-42","kind":"node","name":"El-Matareyya","lineRef":"metro","lab":1},"geometry":{"type":"Point","coordinates":[31.31397,30.12138]}},{"type":"Feature","properties":{"id":"stn-43","kind":"node","name":"Hadayeq Al-Zaitoun","lineRef":"metro","lab":1},"geometry":{"type":"Point","coordinates":[31.30994,30.1052]}},{"type":"Feature","properties":{"id":"stn-44","kind":"node","name":"Saray Al-Qobba","lineRef":"metro","lab":1},"geometry":{"type":"Point","coordinates":[31.30475,30.09807]}},{"type":"Feature","properties":{"id":"stn-45","kind":"node","name":"Hammamat Al-Qobba","lineRef":"metro","lab":1},"geometry":{"type":"Point","coordinates":[31.29811,30.09034]}},{"type":"Feature","properties":{"id":"stn-46","kind":"node","name":"Kobri Al-Qobba","lineRef":"metro","lab":1},"geometry":{"type":"Point","coordinates":[31.29382,30.08697]}},{"type":"Feature","properties":{"id":"stn-47","kind":"node","name":"Manshiet Al-Sadr","lineRef":"metro","lab":1},"geometry":{"type":"Point","coordinates":[31.28784,30.08221]}},{"type":"Feature","properties":{"id":"stn-48","kind":"node","name":"Al-Demerdash","lineRef":"metro","lab":1},"geometry":{"type":"Point","coordinates":[31.27781,30.07726]}},{"type":"Feature","properties":{"id":"stn-49","kind":"node","name":"Ghamra","lineRef":"metro","lab":1},"geometry":{"type":"Point","coordinates":[31.26467,30.06896]}},{"type":"Feature","properties":{"id":"stn-51","kind":"node","name":"Saad Zaghloul","lineRef":"metro","lab":1},"geometry":{"type":"Point","coordinates":[31.23808,30.03657]}},{"type":"Feature","properties":{"id":"stn-52","kind":"node","name":"Sayyeda Zeinab","lineRef":"metro","lab":1},"geometry":{"type":"Point","coordinates":[31.23539,30.02925]}},{"type":"Feature","properties":{"id":"stn-53","kind":"node","name":"Al-Malek Al-Saleh","lineRef":"metro","lab":1},"geometry":{"type":"Point","coordinates":[31.23121,30.01768]}},{"type":"Feature","properties":{"id":"stn-54","kind":"node","name":"Tora El-Balad","lineRef":"metro","lab":1},"geometry":{"type":"Point","coordinates":[31.27358,29.94633]}},{"type":"Feature","properties":{"id":"stn-55","kind":"node","name":"New El-Marg","lineRef":"metro","lab":1},"geometry":{"type":"Point","coordinates":[31.33827,30.16351]}},{"type":"Feature","properties":{"id":"stn-56","kind":"node","name":"Orabi","lineRef":"metro","lab":1},"geometry":{"type":"Point","coordinates":[31.24254,30.05733]}},{"type":"Feature","properties":{"id":"stn-57","kind":"node","name":"Alf Maskan","lineRef":"metro","lab":1,"color":"#00AF23"},"geometry":{"type":"Point","coordinates":[31.33983,30.11807]}},{"type":"Feature","properties":{"id":"stn-58","kind":"node","name":"El Shams Club","lineRef":"metro","lab":1,"color":"#00AF23"},"geometry":{"type":"Point","coordinates":[31.34397,30.12231]}},{"type":"Feature","properties":{"id":"stn-59","kind":"node","name":"Haroun","lineRef":"metro","lab":1,"color":"#00AF23"},"geometry":{"type":"Point","coordinates":[31.33276,30.10111]}},{"type":"Feature","properties":{"id":"stn-60","kind":"node","name":"Heliopolis","lineRef":"metro","lab":1,"color":"#00AF23"},"geometry":{"type":"Point","coordinates":[31.33818,30.10796]}},{"type":"Feature","properties":{"id":"stn-61","kind":"node","name":"TB2 & TB3","lineRef":"metro","lab":1,"color":"#8A8F98"},"geometry":{"type":"Point","coordinates":[31.39842,30.11219]}},{"type":"Feature","properties":{"id":"stn-62","kind":"node","name":"Air Mall","lineRef":"metro","lab":1,"color":"#8A8F98"},"geometry":{"type":"Point","coordinates":[31.40308,30.12487]}},{"type":"Feature","properties":{"id":"stn-63","kind":"node","name":"Car Park","lineRef":"metro","lab":1,"color":"#8A8F98"},"geometry":{"type":"Point","coordinates":[31.40137,30.11647]}},{"type":"Feature","properties":{"id":"stn-64","kind":"node","name":"TB1","lineRef":"metro","lab":1,"color":"#8A8F98"},"geometry":{"type":"Point","coordinates":[31.40325,30.12728]}},{"type":"Feature","properties":{"id":"stn-66","kind":"node","name":"El Haykestep","lineRef":"metro","lab":1,"color":"#00AF23"},"geometry":{"type":"Point","coordinates":[31.40485,30.14388]}},{"type":"Feature","properties":{"id":"stn-67","kind":"node","name":"Omar Ebn Elkhatab","lineRef":"metro","lab":1,"color":"#00AF23"},"geometry":{"type":"Point","coordinates":[31.39448,30.14041]}},{"type":"Feature","properties":{"id":"stn-68","kind":"node","name":"Qubaa","lineRef":"metro","lab":1,"color":"#00AF23"},"geometry":{"type":"Point","coordinates":[31.38406,30.13476]}},{"type":"Feature","properties":{"id":"stn-69","kind":"node","name":"Hesham Barakat","lineRef":"metro","lab":1,"color":"#00AF23"},"geometry":{"type":"Point","coordinates":[31.37309,30.13097]}},{"type":"Feature","properties":{"id":"stn-70","kind":"node","name":"El Nozha","lineRef":"metro","lab":1,"color":"#00AF23"},"geometry":{"type":"Point","coordinates":[31.36052,30.12812]}},{"type":"Feature","properties":{"id":"stn-72","kind":"node","name":"Sakiat Mekki","lineRef":"metro","lab":1,"color":"#FF7000"},"geometry":{"type":"Point","coordinates":[31.20861,29.99549]}},{"type":"Feature","properties":{"id":"stn-74","kind":"node","name":"Faisal","lineRef":"metro","lab":1,"color":"#FF7000"},"geometry":{"type":"Point","coordinates":[31.20403,30.01729]}},{"type":"Feature","properties":{"id":"stn-76","kind":"node","name":"Koliet El-Zeraa","lineRef":"metro","lab":1,"color":"#FF7000"},"geometry":{"type":"Point","coordinates":[31.24874,30.11376]}},{"type":"Feature","properties":{"id":"stn-77","kind":"node","name":"El Geish","lineRef":"metro","lab":1,"color":"#00AF23"},"geometry":{"type":"Point","coordinates":[31.26797,30.06226]}},{"type":"Feature","properties":{"id":"stn-78","kind":"node","name":"Hadayek al-Assema","lineRef":"train","lab":1,"color":"#8B1A1A"},"geometry":{"type":"Point","coordinates":[31.80678,30.13668]}},{"type":"Feature","properties":{"id":"stn-79","kind":"node","name":"Capital Airport","lineRef":"train","lab":1,"color":"#8B1A1A"},"geometry":{"type":"Point","coordinates":[31.78248,30.07589]}},{"type":"Feature","properties":{"id":"stn-80","kind":"node","name":"Arts and Culture City","lineRef":"train","lab":1,"color":"#8B1A1A"},"geometry":{"type":"Point","coordinates":[31.72505,30.01365]}},{"type":"Feature","properties":{"id":"stn-81","kind":"node","name":"El-Robaiky","lineRef":"train","lab":1,"color":"#8B1A1A"},"geometry":{"type":"Point","coordinates":[31.75245,30.16653]}},{"type":"Feature","properties":{"id":"stn-82","kind":"node","name":"Industrial Park","lineRef":"train","lab":1,"color":"#8B1A1A"},"geometry":{"type":"Point","coordinates":[31.7156,30.20396]}},{"type":"Feature","properties":{"id":"stn-83","kind":"node","name":"Knowledge City Station","lineRef":"train","lab":1,"color":"#8B1A1A"},"geometry":{"type":"Point","coordinates":[31.69161,30.23072]}},{"type":"Feature","properties":{"id":"stn-84","kind":"node","name":"Badr","lineRef":"train","lab":1,"color":"#8B1A1A"},"geometry":{"type":"Point","coordinates":[31.71602,30.17519]}},{"type":"Feature","properties":{"id":"stn-85","kind":"node","name":"Future","lineRef":"train","lab":1,"color":"#8B1A1A"},"geometry":{"type":"Point","coordinates":[31.5541,30.17312]}},{"type":"Feature","properties":{"id":"stn-86","kind":"node","name":"El-Obour","lineRef":"train","lab":1,"color":"#8B1A1A"},"geometry":{"type":"Point","coordinates":[31.48161,30.16293]}},{"type":"Feature","properties":{"id":"stn-87","kind":"node","name":"El-Shorouk","lineRef":"train","lab":1,"color":"#8B1A1A"},"geometry":{"type":"Point","coordinates":[31.6058,30.17963]}},{"type":"Feature","properties":{"id":"stn-88","kind":"node","name":"New Heliopolis","lineRef":"train","lab":1,"color":"#8B1A1A"},"geometry":{"type":"Point","coordinates":[31.65267,30.18373]}},{"type":"Feature","properties":{"id":"stn-89","kind":"node","name":"Masbero","lineRef":"metro","lab":1,"color":"#00AF23"},"geometry":{"type":"Point","coordinates":[31.23221,30.05549]}},{"type":"Feature","properties":{"id":"stn-90","kind":"node","name":"Safaa Hegazy","lineRef":"metro","lab":1,"color":"#00AF23"},"geometry":{"type":"Point","coordinates":[31.22252,30.0624]}},{"type":"Feature","properties":{"id":"stn-92","kind":"node","name":"El-Dabaa Axis Metro Station (Rod El-Farag Axis)","lineRef":"metro","lab":1,"color":"#00AF23"},"geometry":{"type":"Point","coordinates":[31.18421,30.10225]}},{"type":"Feature","properties":{"id":"stn-93","kind":"node","name":"Ring Road","lineRef":"metro","lab":1,"color":"#00AF23"},"geometry":{"type":"Point","coordinates":[31.19958,30.09641]}},{"type":"Feature","properties":{"id":"stn-94","kind":"node","name":"Al-Kawmeiah","lineRef":"metro","lab":1,"color":"#00AF23"},"geometry":{"type":"Point","coordinates":[31.20888,30.0932]}},{"type":"Feature","properties":{"id":"stn-95","kind":"node","name":"Al-Bohy","lineRef":"metro","lab":1,"color":"#00AF23"},"geometry":{"type":"Point","coordinates":[31.21049,30.08212]}},{"type":"Feature","properties":{"id":"stn-96","kind":"node","name":"Imbaba","lineRef":"metro","lab":1,"color":"#00AF23"},"geometry":{"type":"Point","coordinates":[31.20756,30.07595]}},{"type":"Feature","properties":{"id":"stn-97","kind":"node","name":"Sudan","lineRef":"metro","lab":1,"color":"#00AF23"},"geometry":{"type":"Point","coordinates":[31.20534,30.06978]}},{"type":"Feature","properties":{"id":"stn-99","kind":"node","name":"Gamet El Dowel","lineRef":"metro","lab":1,"color":"#00AF23"},"geometry":{"type":"Point","coordinates":[31.19969,30.05095]}},{"type":"Feature","properties":{"id":"stn-100","kind":"node","name":"Bulaq El-Dakroor","lineRef":"metro","lab":1,"color":"#00AF23"},"geometry":{"type":"Point","coordinates":[31.1955,30.03754]}},{"type":"Feature","properties":{"id":"stn-101","kind":"node","name":"Al-Tawfikia","lineRef":"metro","lab":1,"color":"#00AF23"},"geometry":{"type":"Point","coordinates":[31.20216,30.06507]}},{"type":"Feature","properties":{"id":"stn-102","kind":"node","name":"Central Business District","lineRef":"metro","lab":1,"color":"#00309A"},"geometry":{"type":"Point","coordinates":[31.68916,30.01729]}},{"type":"Feature","properties":{"id":"stn-103","kind":"node","name":"Misr Mosque","lineRef":"metro","lab":1,"color":"#00309A"},"geometry":{"type":"Point","coordinates":[31.7501,29.99531]}},{"type":"Feature","properties":{"id":"stn-104","kind":"node","name":"Governmental District","lineRef":"metro","lab":1,"color":"#00309A"},"geometry":{"type":"Point","coordinates":[31.74482,30.00798]}},{"type":"Feature","properties":{"id":"stn-106","kind":"node","name":"Moushir Tantawi","lineRef":"metro","lab":1,"color":"#00309A"},"geometry":{"type":"Point","coordinates":[31.38332,30.01921]}},{"type":"Feature","properties":{"id":"stn-109","kind":"node","name":"Helwan University","lineRef":"metro","lab":1},"geometry":{"type":"Point","coordinates":[31.32037,29.86902]}},{"type":"Feature","properties":{"id":"stn-110","kind":"node","name":"Badr - ENR","lineRef":"train","lab":1,"color":"#8B1A1A"},"geometry":{"type":"Point","coordinates":[31.71691,30.17449]}},{"type":"Feature","properties":{"id":"stn-111","kind":"node","name":"23 July Railway Station","lineRef":"metro","lab":1},"geometry":{"type":"Point","coordinates":[31.33934,30.16456]}},{"type":"Feature","properties":{"id":"stn-112","kind":"node","name":"Justice City","lineRef":"metro","lab":1,"color":"#00309A"},"geometry":{"type":"Point","coordinates":[31.77007,30.00597]}},{"type":"Feature","properties":{"id":"stn-113","kind":"node","name":"R2","lineRef":"metro","lab":1,"color":"#00309A"},"geometry":{"type":"Point","coordinates":[31.66335,30.01828]}},{"type":"Feature","properties":{"id":"stn-114","kind":"node","name":"R1","lineRef":"metro","lab":1,"color":"#00309A"},"geometry":{"type":"Point","coordinates":[31.63099,30.01695]}},{"type":"Feature","properties":{"id":"stn-115","kind":"node","name":"Al-Fattah Al-Aleem","lineRef":"metro","lab":1,"color":"#00309A"},"geometry":{"type":"Point","coordinates":[31.59882,30.02471]}},{"type":"Feature","properties":{"id":"stn-116","kind":"node","name":"El Rabwa","lineRef":"metro","lab":1,"color":"#00309A"},"geometry":{"type":"Point","coordinates":[31.56058,30.02688]}},{"type":"Feature","properties":{"id":"stn-117","kind":"node","name":"Al-Andalus","lineRef":"metro","lab":1,"color":"#00309A"},"geometry":{"type":"Point","coordinates":[31.51957,30.01324]}},{"type":"Feature","properties":{"id":"stn-118","kind":"node","name":"American University","lineRef":"metro","lab":1,"color":"#00309A"},"geometry":{"type":"Point","coordinates":[31.49067,30.02535]}},{"type":"Feature","properties":{"id":"stn-119","kind":"node","name":"El Narges","lineRef":"metro","lab":1,"color":"#00309A"},"geometry":{"type":"Point","coordinates":[31.45987,30.02549]}},{"type":"Feature","properties":{"id":"stn-120","kind":"node","name":"Airforce Hospital","lineRef":"metro","lab":1,"color":"#00309A"},"geometry":{"type":"Point","coordinates":[31.43389,30.01627]}},{"type":"Feature","properties":{"id":"stn-121","kind":"node","name":"190","lineRef":"metro","lab":1,"color":"#00309A"},"geometry":{"type":"Point","coordinates":[31.40899,30.01625]}},{"type":"Feature","properties":{"id":"stn-122","kind":"node","name":"Jehan Sadat","lineRef":"metro","lab":1,"color":"#00309A"},"geometry":{"type":"Point","coordinates":[31.35551,30.03922]}},{"type":"Feature","properties":{"id":"stn-123","kind":"node","name":"Zaker Hussein","lineRef":"metro","lab":1,"color":"#00309A"},"geometry":{"type":"Point","coordinates":[31.34639,30.04548]}},{"type":"Feature","properties":{"id":"stn-124","kind":"node","name":"7th District","lineRef":"metro","lab":1,"color":"#00309A"},"geometry":{"type":"Point","coordinates":[31.33091,30.04379]}},{"type":"Feature","properties":{"id":"stn-125","kind":"node","name":"Al-Azhar University","lineRef":"metro","lab":1,"color":"#00309A"},"geometry":{"type":"Point","coordinates":[31.32476,30.05374]}},{"type":"Feature","properties":{"id":"stn-127","kind":"node","name":"Wadi El Nil","lineRef":"metro","lab":1,"color":"#00AF23"},"geometry":{"type":"Point","coordinates":[31.19971,30.06044]}},{"type":"Feature","properties":{"id":"stn-128","kind":"node","name":"Giza Railway Station","lineRef":"metro","lab":1,"color":"#FF7000"},"geometry":{"type":"Point","coordinates":[31.2079,30.00923]}},{"type":"Feature","properties":{"id":"hub-shuhada","kind":"hub","name":"Shuhada","subKey":"ka.hub.shuhada","lab":1,"modes":["metro","train"]},"geometry":{"type":"Point","coordinates":[31.24602,30.06185]}},{"type":"Feature","properties":{"id":"hub-sadat","kind":"hub","name":"Sadat","subKey":"ka.hub.sadat","lab":1,"modes":["metro"]},"geometry":{"type":"Point","coordinates":[31.23538,30.04395]}},{"type":"Feature","properties":{"id":"hub-attaba","kind":"hub","name":"Attaba","subKey":"ka.hub.attaba","lab":1,"modes":["metro"]},"geometry":{"type":"Point","coordinates":[31.2469,30.05243]}},{"type":"Feature","properties":{"id":"hub-nasser","kind":"hub","name":"Nasser","subKey":"ka.hub.nasser","lab":1,"modes":["metro"]},"geometry":{"type":"Point","coordinates":[31.2388,30.05356]}},{"type":"Feature","properties":{"id":"hub-cairouni","kind":"hub","name":"Cairo University","subKey":"ka.hub.cairouni","lab":1,"modes":["metro"]},"geometry":{"type":"Point","coordinates":[31.2012,30.02599]}},{"type":"Feature","properties":{"id":"hub-kitkat","kind":"hub","name":"Kit-kat","subKey":"ka.hub.kitkat","lab":1,"modes":["metro"]},"geometry":{"type":"Point","coordinates":[31.21299,30.06679]}},{"type":"Feature","properties":{"id":"hub-adlymansour","kind":"hub","name":"Adly Mansour","subKey":"ka.hub.adlymansour","lab":1,"modes":["metro","train"]},"geometry":{"type":"Point","coordinates":[31.42151,30.14703]}},{"type":"Feature","properties":{"id":"hub-giza","kind":"hub","name":"Giza","subKey":"ka.hub.giza","lab":1,"modes":["metro","train"]},"geometry":{"type":"Point","coordinates":[31.20712,30.01057]}},{"type":"Feature","properties":{"id":"hub-stadium","kind":"hub","name":"Stadium","subKey":"ka.hub.stadium","lab":1,"modes":["metro"]},"geometry":{"type":"Point","coordinates":[31.3174,30.07295]}},{"type":"Feature","properties":{"id":"hub-mounib","kind":"hub","name":"Al-Mounib","subKey":"ka.hub.mounib","lab":1,"modes":["metro"]},"geometry":{"type":"Point","coordinates":[31.21197,29.98114]}}]}