{"type":"FeatureCollection","features":[{"type":"Feature","properties":{"id":"gate-cai","kind":"gate","name":"Cairo (CAI) T3","gtype":"air","mode":"plane","subKey":"ka.cai.sub","lab":1},"geometry":{"type":"Point","coordinates":[31.39696,30.11113]}},{"type":"Feature","properties":{"id":"gate-ramses","kind":"gate","name":"Ramses","gtype":"rail","mode":"train","subKey":"ka.ramses.sub","lab":1},"geometry":{"type":"Point","coordinates":[31.24605,30.06298]}},{"type":"Feature","properties":{"id":"gate-giza","kind":"gate","name":"Giza","gtype":"rail","mode":"train","subKey":"ka.giza.sub","lab":1},"geometry":{"type":"Point","coordinates":[31.208,30.00925]}},{"type":"Feature","properties":{"id":"gate-adly","kind":"gate","name":"Adly Mansour","gtype":"rail","mode":"train","subKey":"ka.adly.sub","lab":1},"geometry":{"type":"Point","coordinates":[31.42151,30.14703]}},{"type":"Feature","properties":{"id":"gate-torgoman","kind":"gate","name":"Torgoman","gtype":"bus","mode":"bus","subKey":"ka.torgoman.sub","lab":1},"geometry":{"type":"Point","coordinates":[31.23755,30.06057]}}]}