{"type":"FeatureCollection","features":[{"type":"Feature","properties":{"id":"dogal-0","kind":"district","btype":"dogal","name":"Parque da Bela Vista","lab":1},"geometry":{"type":"Polygon","coordinates":[[[-9.1282848,38.7479929],[-9.1281629,38.7503253],[-9.1284578,38.7505613],[-9.1287875,38.7522177],[-9.1292111,38.7523442],[-9.1294448,38.7531058],[-9.1293184,38.7543339],[-9.1283931,38.7547218],[-9.1276538,38.7544388],[-9.1263905,38.7526295],[-9.1232603,38.7497637],[-9.1228124,38.7489752],[-9.1227159,38.7481469],[-9.1243938,38.7472094],[-9.1260626,38.7470156],[-9.1260586,38.7468078],[-9.1245558,38.7468499],[-9.122858,38.7474524],[-9.1226649,38.7472348],[-9.1231538,38.7463127],[-9.1225281,38.7457202],[-9.1216886,38.7439421],[-9.12112,38.7437057],[-9.1211157,38.7433031],[-9.122272,38.7438761],[-9.1226783,38.7444954],[-9.1248187,38.7447422],[-9.124572,38.7448949],[-9.1254558,38.7457537],[-9.1257508,38.7456742],[-9.1268263,38.7471011],[-9.1282848,38.7479929]]]}},{"type":"Feature","properties":{"id":"dogal-lab-0","kind":"district-label","btype":"dogal","name":"Parque da Bela Vista"},"geometry":{"type":"Point","coordinates":[-9.12562,38.74937]}},{"type":"Feature","properties":{"id":"dogal-1","kind":"district","btype":"dogal","name":"Parque das Artes e do Desporto","lab":1},"geometry":{"type":"Polygon","coordinates":[[[-9.223421,38.7735573],[-9.2231902,38.7720235],[-9.2243314,38.7714641],[-9.2270795,38.772383],[-9.2293524,38.7717352],[-9.2307552,38.7719339],[-9.2300743,38.7758638],[-9.2293681,38.7758473],[-9.2293223,38.7761277],[-9.2298581,38.7763276],[-9.2294161,38.7778229],[-9.2286099,38.7781457],[-9.2279651,38.7778874],[-9.2266481,38.7763576],[-9.2247949,38.7752111],[-9.223421,38.7735573]]]}},{"type":"Feature","properties":{"id":"dogal-lab-1","kind":"district-label","btype":"dogal","name":"Parque das Artes e do Desporto"},"geometry":{"type":"Point","coordinates":[-9.22722,38.77438]}},{"type":"Feature","properties":{"id":"dogal-2","kind":"district","btype":"dogal","name":"Parque Tejo","lab":1},"geometry":{"type":"Polygon","coordinates":[[[-9.0907395,38.7887469],[-9.0937252,38.7892827],[-9.0937524,38.7889629],[-9.0927757,38.7883751],[-9.0931724,38.7870986],[-9.0971251,38.7870638],[-9.0977606,38.7888555],[-9.097998,38.7885921],[-9.096868,38.7862504],[-9.0941739,38.7838728],[-9.093508,38.7845757],[-9.0921196,38.7845315],[-9.0936317,38.7832134],[-9.0932894,38.7813726],[-9.0927905,38.7812293],[-9.0929313,38.7806875],[-9.0920636,38.7789732],[-9.0921635,38.7750034],[-9.0913927,38.7749637],[-9.0908247,38.78148],[-9.0916819,38.7824017],[-9.0912143,38.7827521],[-9.0911376,38.784013],[-9.0916967,38.785588],[-9.090768,38.7872588],[-9.0914028,38.7877419],[-9.0907395,38.7887469]]]}},{"type":"Feature","properties":{"id":"dogal-lab-2","kind":"district-label","btype":"dogal","name":"Parque Tejo"},"geometry":{"type":"Point","coordinates":[-9.09232,38.78194]}},{"type":"Feature","properties":{"id":"dogal-3","kind":"district","btype":"dogal","name":"Tapada da Ajuda","lab":1},"geometry":{"type":"MultiPolygon","coordinates":[[[[-9.1848966,38.7061167],[-9.1852768,38.7064281],[-9.1847332,38.7059835],[-9.1848966,38.7061167]]],[[[-9.1866214,38.7074958],[-9.1864864,38.707392],[-9.1869432,38.7076593],[-9.1866214,38.7074958]]],[[[-9.1875636,38.7081133],[-9.1873681,38.7079711],[-9.1877294,38.70823],[-9.1875636,38.7081133]]],[[[-9.188754,38.7089929],[-9.1877294,38.70823],[-9.1887147,38.7089469],[-9.188754,38.7089929]]],[[[-9.1907795,38.7108718],[-9.1898141,38.7104712],[-9.1897275,38.7102301],[-9.1907795,38.7108718]]],[[[-9.1919348,38.7115027],[-9.1923658,38.7119992],[-9.1925696,38.7123237],[-9.1919348,38.7115027]]],[[[-9.1838832,38.712867],[-9.1837098,38.7121853],[-9.1837604,38.7123836],[-9.1838832,38.712867]]],[[[-9.1926367,38.7123581],[-9.1930897,38.7136591],[-9.1926708,38.7125077],[-9.1926367,38.7123581]]],[[[-9.1837648,38.7131286],[-9.1837997,38.713054],[-9.1837828,38.7130919],[-9.1837648,38.7131286]]],[[[-9.1929474,38.7136615],[-9.1930897,38.7136591],[-9.1929512,38.7138578],[-9.1929474,38.7136615]]],[[[-9.1929546,38.7139634],[-9.1929512,38.7138578],[-9.1929534,38.713907],[-9.1929546,38.7139634]]],[[[-9.1930123,38.7161747],[-9.1941036,38.7162209],[-9.1937381,38.7189875],[-9.1903585,38.7190216],[-9.1892903,38.7185596],[-9.1866068,38.7181604],[-9.1841606,38.717205],[-9.1929546,38.7139634],[-9.1930123,38.7161747]]],[[[-9.1835788,38.7161023],[-9.1835628,38.7160663],[-9.1841606,38.717205],[-9.1835788,38.7161023]]],[[[-9.1809843,38.7060737],[-9.1809295,38.7060763],[-9.1809677,38.7060729],[-9.1809843,38.7060737]]],[[[-9.1825404,38.7061455],[-9.1827084,38.706143],[-9.1826342,38.7061485],[-9.1825404,38.7061455]]],[[[-9.1804526,38.7064759],[-9.1804925,38.7065275],[-9.1803668,38.7063652],[-9.1804526,38.7064759]]],[[[-9.179353,38.7063739],[-9.1788456,38.7065705],[-9.1788209,38.706513],[-9.179353,38.7063739]]],[[[-9.1795924,38.7064769],[-9.1798043,38.7068878],[-9.1796348,38.706612],[-9.1795924,38.7064769]]],[[[-9.1790651,38.7068611],[-9.1788456,38.7065705],[-9.1791311,38.7068028],[-9.1790651,38.7068611]]],[[[-9.1804485,38.7084879],[-9.1790651,38.7068611],[-9.1813126,38.7089557],[-9.1804485,38.7084879]]],[[[-9.1817765,38.709367],[-9.1813126,38.7089557],[-9.181368,38.7089945],[-9.1817765,38.709367]]],[[[-9.1825112,38.7100787],[-9.1826345,38.7103614],[-9.1817765,38.709367],[-9.1825112,38.7100787]]],[[[-9.1835258,38.7115143],[-9.183185,38.7108483],[-9.1834268,38.7111534],[-9.1835258,38.7115143]]],[[[-9.1837237,38.7132114],[-9.1837648,38.7131286],[-9.1837369,38.7131856],[-9.1837237,38.7132114]]],[[[-9.1836011,38.7147597],[-9.1835765,38.7152031],[-9.1835799,38.7150322],[-9.1836011,38.7147597]]]]}},{"type":"Feature","properties":{"id":"dogal-lab-3","kind":"district-label","btype":"dogal","name":"Tapada da Ajuda"},"geometry":{"type":"Point","coordinates":[-9.18977,38.71671]}},{"type":"Feature","properties":{"id":"dogal-4","kind":"district","btype":"dogal","name":"Parque Eduardo VII","lab":1},"geometry":{"type":"Polygon","coordinates":[[[-9.1527038,38.7313255],[-9.1570571,38.7292776],[-9.1535192,38.7252747],[-9.1511715,38.7254997],[-9.1507099,38.726074],[-9.1498439,38.7262509],[-9.1492584,38.7271367],[-9.1492587,38.7274577],[-9.1527038,38.7313255]]]}},{"type":"Feature","properties":{"id":"dogal-lab-4","kind":"district-label","btype":"dogal","name":"Parque Eduardo VII"},"geometry":{"type":"Point","coordinates":[-9.15316,38.72837]}},{"type":"Feature","properties":{"id":"dogal-5","kind":"district","btype":"dogal","name":"Pinhal da Paiã","lab":1},"geometry":{"type":"Polygon","coordinates":[[[-9.2062899,38.778497],[-9.2091501,38.7789132],[-9.2099614,38.7787213],[-9.2113023,38.777748],[-9.2123317,38.7755874],[-9.2123791,38.7729456],[-9.2113129,38.7723765],[-9.2104868,38.7724779],[-9.2087816,38.7743515],[-9.209252,38.7746179],[-9.2088651,38.7752026],[-9.207581,38.7755327],[-9.2072605,38.7753597],[-9.2057201,38.7761769],[-9.2062899,38.778497]]]}},{"type":"Feature","properties":{"id":"dogal-lab-5","kind":"district-label","btype":"dogal","name":"Pinhal da Paiã"},"geometry":{"type":"Point","coordinates":[-9.20923,38.77588]}},{"type":"Feature","properties":{"id":"dogal-6","kind":"district","btype":"dogal","name":"Parque da Quinta das Conchas e dos Lilases","lab":1},"geometry":{"type":"Polygon","coordinates":[[[-9.1560406,38.7710239],[-9.1539984,38.7714559],[-9.1515557,38.7699097],[-9.1492063,38.7691659],[-9.1490632,38.7680566],[-9.1517255,38.767638],[-9.1526303,38.7682368],[-9.1540341,38.7681932],[-9.154361,38.7684362],[-9.155423,38.768192],[-9.155893,38.7692733],[-9.158627,38.7689037],[-9.1602241,38.7713174],[-9.1594481,38.771628],[-9.1594991,38.7718681],[-9.1562719,38.7724177],[-9.1560406,38.7710239]]]}},{"type":"Feature","properties":{"id":"dogal-lab-6","kind":"district-label","btype":"dogal","name":"Parque da Quinta das Conchas e dos Lilases"},"geometry":{"type":"Point","coordinates":[-9.15605,38.77047]}},{"type":"Feature","properties":{"id":"dogal-7","kind":"district","btype":"dogal","name":"Parque Urbano do Vale da Montanha","lab":1},"geometry":{"type":"MultiPolygon","coordinates":[[[[-9.1221877,38.7407538],[-9.1231267,38.7408101],[-9.1219575,38.7409264],[-9.1218217,38.7412902],[-9.1226472,38.7422484],[-9.1242211,38.7429356],[-9.1249475,38.7426118],[-9.1249473,38.7422006],[-9.1264178,38.7418681],[-9.1264676,38.7407652],[-9.1274161,38.7405543],[-9.1279115,38.7415446],[-9.1272501,38.7431496],[-9.1263237,38.7440216],[-9.123572,38.7430444],[-9.122601,38.7422996],[-9.1211562,38.740777],[-9.1216187,38.7411034],[-9.1221877,38.7407538]]],[[[-9.1207805,38.7431584],[-9.1194383,38.7418148],[-9.1196432,38.7416949],[-9.1192829,38.7412898],[-9.1197431,38.7410372],[-9.1202891,38.7415144],[-9.1213263,38.7411269],[-9.1232253,38.7431243],[-9.1287558,38.7457404],[-9.130425,38.7461196],[-9.1303562,38.7467766],[-9.1306459,38.7468017],[-9.1302694,38.7482392],[-9.1305017,38.7485375],[-9.129237,38.7483602],[-9.1269031,38.7468806],[-9.124572,38.7448949],[-9.1248187,38.7447422],[-9.1226783,38.7444954],[-9.1221794,38.7438071],[-9.1207805,38.7431584]]]]}},{"type":"Feature","properties":{"id":"dogal-lab-7","kind":"district-label","btype":"dogal","name":"Parque Urbano do Vale da Montanha"},"geometry":{"type":"Point","coordinates":[-9.12628,38.74227]}},{"type":"Feature","properties":{"id":"dogal-8","kind":"district","btype":"dogal","name":"Quinta das Conchas","lab":1},"geometry":{"type":"Polygon","coordinates":[[[-9.1539984,38.7714559],[-9.1595071,38.770141],[-9.158546,38.7688833],[-9.155893,38.7692733],[-9.155423,38.768192],[-9.154361,38.7684362],[-9.1540341,38.7681932],[-9.1526303,38.7682368],[-9.1517255,38.767638],[-9.1490632,38.7680566],[-9.1492063,38.7691659],[-9.1515557,38.7699097],[-9.1539984,38.7714559]]]}},{"type":"Feature","properties":{"id":"dogal-lab-8","kind":"district-label","btype":"dogal","name":"Quinta das Conchas"},"geometry":{"type":"Point","coordinates":[-9.15482,38.76959]}},{"type":"Feature","properties":{"id":"dogal-9","kind":"district","btype":"dogal","name":"Parque Verde de Carnide","lab":1},"geometry":{"type":"Polygon","coordinates":[[[-9.1951059,38.7629472],[-9.1935458,38.7635578],[-9.1864056,38.7684471],[-9.1889212,38.7688407],[-9.1905225,38.7667772],[-9.192161,38.7673251],[-9.1934514,38.7669379],[-9.1941371,38.7654641],[-9.1967596,38.7634459],[-9.1951059,38.7629472]]]}},{"type":"Feature","properties":{"id":"dogal-lab-9","kind":"district-label","btype":"dogal","name":"Parque Verde de Carnide"},"geometry":{"type":"Point","coordinates":[-9.19182,38.76612]}},{"type":"Feature","properties":{"id":"dogal-10","kind":"district","btype":"dogal","name":"Parque Urbano do Vale de Chelas","lab":1},"geometry":{"type":"Polygon","coordinates":[[[-9.1233046,38.7590185],[-9.1233995,38.7576223],[-9.1225706,38.7570756],[-9.1213359,38.7553257],[-9.1205379,38.7549074],[-9.1194101,38.7550915],[-9.1184405,38.7509195],[-9.1190457,38.7502494],[-9.1196676,38.7517697],[-9.1204715,38.7521515],[-9.120086,38.7526147],[-9.1207984,38.7531046],[-9.121307,38.7525202],[-9.1223514,38.753161],[-9.1218035,38.7536999],[-9.1220057,38.7539795],[-9.1229868,38.7538091],[-9.1239742,38.7549955],[-9.1246823,38.7552887],[-9.1247987,38.7558966],[-9.123695,38.7562736],[-9.1239139,38.7567584],[-9.1234046,38.7570103],[-9.1241799,38.7582657],[-9.1239041,38.7590885],[-9.1233046,38.7590185]]]}},{"type":"Feature","properties":{"id":"dogal-lab-10","kind":"district-label","btype":"dogal","name":"Parque Urbano do Vale de Chelas"},"geometry":{"type":"Point","coordinates":[-9.12139,38.75444]}},{"type":"Feature","properties":{"id":"dogal-11","kind":"district","btype":"dogal","name":"Parque Oeste","lab":1},"geometry":{"type":"Polygon","coordinates":[[[-9.1542144,38.7808896],[-9.152566,38.7797946],[-9.1475386,38.7775357],[-9.1478079,38.7768733],[-9.1516441,38.7776059],[-9.1529605,38.7788927],[-9.1547247,38.7792769],[-9.1554811,38.7791175],[-9.155811,38.7786617],[-9.1562087,38.7770511],[-9.1573405,38.7770229],[-9.1580715,38.77744],[-9.1554737,38.7808101],[-9.154378,38.7811921],[-9.1548711,38.7818935],[-9.1541086,38.7813142],[-9.1531007,38.7813515],[-9.1527831,38.7806144],[-9.1540222,38.7810758],[-9.1542144,38.7808896]]]}},{"type":"Feature","properties":{"id":"dogal-lab-11","kind":"district-label","btype":"dogal","name":"Parque Oeste"},"geometry":{"type":"Point","coordinates":[-9.15422,38.77954]}},{"type":"Feature","properties":{"id":"dogal-12","kind":"district","btype":"dogal","name":"Parque José Gomes Ferreira","lab":1},"geometry":{"type":"Polygon","coordinates":[[[-9.1315952,38.7579886],[-9.1327449,38.7583084],[-9.1332744,38.7589006],[-9.1355773,38.7589273],[-9.1359376,38.759757],[-9.1319655,38.7610395],[-9.1306342,38.7618547],[-9.1303064,38.7616934],[-9.1306767,38.7595848],[-9.1302397,38.7593623],[-9.130997,38.7594052],[-9.1310083,38.7590918],[-9.1306581,38.7586261],[-9.1308309,38.7568244],[-9.1303778,38.7565931],[-9.130904,38.7566202],[-9.1317366,38.755956],[-9.1327834,38.7559703],[-9.132849,38.7573875],[-9.1315678,38.7575162],[-9.1315952,38.7579886]]]}},{"type":"Feature","properties":{"id":"dogal-lab-12","kind":"district-label","btype":"dogal","name":"Parque José Gomes Ferreira"},"geometry":{"type":"Point","coordinates":[-9.13265,38.75891]}},{"type":"Feature","properties":{"id":"dogal-13","kind":"district","btype":"dogal","name":"Jardim Mário Soares","lab":1},"geometry":{"type":"MultiPolygon","coordinates":[[[[-9.1513378,38.7547753],[-9.1483866,38.7492414],[-9.1483208,38.7487764],[-9.1488571,38.7489667],[-9.1526216,38.7543584],[-9.1513378,38.7547753]]],[[[-9.1514832,38.7550316],[-9.1528069,38.7546065],[-9.1557791,38.7586096],[-9.155623,38.7589729],[-9.1547368,38.7588744],[-9.1524392,38.7566913],[-9.1514832,38.7550316]]]]}},{"type":"Feature","properties":{"id":"dogal-lab-13","kind":"district-label","btype":"dogal","name":"Jardim Mário Soares"},"geometry":{"type":"Point","coordinates":[-9.15426,38.75765]}},{"type":"Feature","properties":{"id":"dogal-14","kind":"district","btype":"dogal","name":"Parque Urbano da Bela Flôr","lab":1},"geometry":{"type":"Polygon","coordinates":[[[-9.1694513,38.7213083],[-9.1702758,38.720678],[-9.1722721,38.7200758],[-9.1735079,38.7201382],[-9.1732975,38.7219382],[-9.1718968,38.7249701],[-9.1709919,38.7281011],[-9.1700086,38.7284471],[-9.171106,38.727354],[-9.1709864,38.7264483],[-9.1706642,38.7262411],[-9.1705921,38.7256096],[-9.1700277,38.7253391],[-9.1702394,38.7251219],[-9.1690604,38.725029],[-9.1708676,38.7235553],[-9.1717963,38.7237897],[-9.172206,38.7234831],[-9.1717323,38.7229278],[-9.1697483,38.7229129],[-9.1709179,38.7226378],[-9.1714456,38.72214],[-9.1713466,38.7219114],[-9.170924,38.722029],[-9.1707658,38.7219393],[-9.1705227,38.7220098],[-9.1703065,38.7219298],[-9.1690297,38.7224601],[-9.1700971,38.7219005],[-9.1722905,38.721392],[-9.171695,38.7211626],[-9.1701312,38.7216059],[-9.1698847,38.7211664],[-9.1694513,38.7213083]]]}},{"type":"Feature","properties":{"id":"dogal-lab-14","kind":"district-label","btype":"dogal","name":"Parque Urbano da Bela Flôr"},"geometry":{"type":"Point","coordinates":[-9.17101,38.72438]}},{"type":"Feature","properties":{"id":"dogal-15","kind":"district","btype":"dogal","name":"Parque Botânico do Monteiro-Mor","lab":1},"geometry":{"type":"Polygon","coordinates":[[[-9.1661935,38.7744432],[-9.1694371,38.7740279],[-9.1697903,38.7748098],[-9.1705772,38.7751623],[-9.1672307,38.7770673],[-9.165412,38.7774457],[-9.1647068,38.7771533],[-9.1646605,38.7759352],[-9.1643141,38.7752705],[-9.1661935,38.7744432]]]}},{"type":"Feature","properties":{"id":"dogal-lab-15","kind":"district-label","btype":"dogal","name":"Parque Botânico do Monteiro-Mor"},"geometry":{"type":"Point","coordinates":[-9.16715,38.7756]}},{"type":"Feature","properties":{"id":"dogal-16","kind":"district","btype":"dogal","name":"Jardim do Seminário","lab":1},"geometry":{"type":"Polygon","coordinates":[[[-9.1101792,38.7805289],[-9.1100881,38.7785038],[-9.1089079,38.7785278],[-9.1090237,38.7777118],[-9.1067983,38.7774384],[-9.1064849,38.7776818],[-9.1065074,38.7774082],[-9.1057388,38.7770432],[-9.1055994,38.7789753],[-9.106003,38.7793109],[-9.106109,38.7803506],[-9.1070478,38.7806888],[-9.1101792,38.7805289]]]}},{"type":"Feature","properties":{"id":"dogal-lab-16","kind":"district-label","btype":"dogal","name":"Jardim do Seminário"},"geometry":{"type":"Point","coordinates":[-9.10786,38.77875]}},{"type":"Feature","properties":{"id":"dogal-17","kind":"district","btype":"dogal","name":"Parque Urbano do Alto da Cabreira","lab":1},"geometry":{"type":"Polygon","coordinates":[[[-9.2096002,38.7263719],[-9.2094626,38.7245268],[-9.2099346,38.7235851],[-9.2108077,38.722825],[-9.212708,38.7246801],[-9.21259,38.7264001],[-9.2118605,38.726555],[-9.2119785,38.7262432],[-9.2107312,38.7266267],[-9.2098909,38.7261748],[-9.2096002,38.7263719]]]}},{"type":"Feature","properties":{"id":"dogal-lab-17","kind":"district-label","btype":"dogal","name":"Parque Urbano do Alto da Cabreira"},"geometry":{"type":"Point","coordinates":[-9.21109,38.72543]}},{"type":"Feature","properties":{"id":"dogal-18","kind":"district","btype":"dogal","name":"Parque Urbano da Quinta Conde dos Arcos","lab":1},"geometry":{"type":"Polygon","coordinates":[[[-9.1091481,38.7711291],[-9.1108457,38.7744558],[-9.1100649,38.7752502],[-9.1089449,38.7745482],[-9.1058595,38.7734821],[-9.1059212,38.7730158],[-9.1064745,38.772589],[-9.1066668,38.7730718],[-9.1080965,38.772752],[-9.1076907,38.771675],[-9.1079979,38.771551],[-9.1082276,38.7719321],[-9.1086772,38.7717622],[-9.1084341,38.7713672],[-9.1091481,38.7711291]]]}},{"type":"Feature","properties":{"id":"dogal-lab-18","kind":"district-label","btype":"dogal","name":"Parque Urbano da Quinta Conde dos Arcos"},"geometry":{"type":"Point","coordinates":[-9.10807,38.77328]}},{"type":"Feature","properties":{"id":"dogal-19","kind":"district","btype":"dogal","name":"Parque do Vale do Silêncio","lab":1},"geometry":{"type":"Polygon","coordinates":[[[-9.1188849,38.7644752],[-9.117945,38.7645079],[-9.1180217,38.7653766],[-9.117453,38.7654633],[-9.11774,38.7657236],[-9.1182411,38.7655152],[-9.11756,38.7675421],[-9.1167285,38.7679291],[-9.1150457,38.7678874],[-9.1148876,38.7685963],[-9.1186705,38.7688181],[-9.1196804,38.7664745],[-9.1188849,38.7644752]]]}},{"type":"Feature","properties":{"id":"dogal-lab-19","kind":"district-label","btype":"dogal","name":"Parque do Vale do Silêncio"},"geometry":{"type":"Point","coordinates":[-9.11859,38.76701]}},{"type":"Feature","properties":{"id":"dogal-20","kind":"district","btype":"dogal","name":"Jardim Gulbenkian","lab":1},"geometry":{"type":"Polygon","coordinates":[[[-9.1528734,38.7349409],[-9.1551974,38.7362313],[-9.1559966,38.7371906],[-9.1559194,38.7375754],[-9.1531246,38.738695],[-9.15266,38.7379982],[-9.1522436,38.7350642],[-9.1528734,38.7349409]]]}},{"type":"Feature","properties":{"id":"dogal-lab-20","kind":"district-label","btype":"dogal","name":"Jardim Gulbenkian"},"geometry":{"type":"Point","coordinates":[-9.15404,38.73671]}},{"type":"Feature","properties":{"id":"dogal-21","kind":"district","btype":"dogal","name":"Parque da Encosta do Olival","lab":1},"geometry":{"type":"Polygon","coordinates":[[[-9.1686386,38.7829397],[-9.1705482,38.7828977],[-9.1711105,38.7824686],[-9.1712324,38.7819174],[-9.1726999,38.781359],[-9.1727911,38.7802746],[-9.1723257,38.7800332],[-9.1726641,38.779569],[-9.1729734,38.7801954],[-9.1736893,38.7801008],[-9.1731837,38.7817305],[-9.172099,38.7825683],[-9.1692101,38.7834224],[-9.1676191,38.7828329],[-9.1672627,38.7823643],[-9.1656078,38.7818833],[-9.1652869,38.7811023],[-9.1668996,38.7811374],[-9.166889,38.779458],[-9.1680799,38.7797926],[-9.1672753,38.7815406],[-9.1679969,38.781722],[-9.1680939,38.7826825],[-9.1686386,38.7829397]]]}},{"type":"Feature","properties":{"id":"dogal-lab-21","kind":"district-label","btype":"dogal","name":"Parque da Encosta do Olival"},"geometry":{"type":"Point","coordinates":[-9.16637,38.78145]}},{"type":"Feature","properties":{"id":"dogal-22","kind":"district","btype":"dogal","name":"Parque do Calhau","lab":1},"geometry":{"type":"Polygon","coordinates":[[[-9.1759052,38.7361607],[-9.174329,38.7360081],[-9.1735277,38.7364523],[-9.1733075,38.7372333],[-9.1736642,38.7379353],[-9.1753568,38.7385185],[-9.1772884,38.7377236],[-9.1759052,38.7361607]]]}},{"type":"Feature","properties":{"id":"dogal-lab-22","kind":"district-label","btype":"dogal","name":"Parque do Calhau"},"geometry":{"type":"Point","coordinates":[-9.17525,38.73748]}},{"type":"Feature","properties":{"id":"dogal-23","kind":"district","btype":"dogal","name":"Jardim Botânico Tropical","lab":1},"geometry":{"type":"MultiPolygon","coordinates":[[[[-9.2021507,38.6979306],[-9.2017366,38.6985238],[-9.2011701,38.6991074],[-9.2021507,38.6979306]]],[[[-9.2038321,38.6980544],[-9.2025322,38.7015677],[-9.2015268,38.7013209],[-9.2017252,38.7003123],[-9.200819,38.7005174],[-9.2007238,38.7001824],[-9.2021507,38.6979306],[-9.2038321,38.6980544]]]]}},{"type":"Feature","properties":{"id":"dogal-lab-23","kind":"district-label","btype":"dogal","name":"Jardim Botânico Tropical"},"geometry":{"type":"Point","coordinates":[-9.20242,38.69912]}},{"type":"Feature","properties":{"id":"dogal-24","kind":"district","btype":"dogal","name":"Parque Urbano do Vale Fundão","lab":1},"geometry":{"type":"Polygon","coordinates":[[[-9.1108636,38.7501834],[-9.1080196,38.7501508],[-9.1075476,38.7512887],[-9.1080089,38.7529454],[-9.1104931,38.7539787],[-9.1089416,38.7519811],[-9.1090118,38.7515857],[-9.1108797,38.7508068],[-9.1108636,38.7501834]]]}},{"type":"Feature","properties":{"id":"dogal-lab-24","kind":"district-label","btype":"dogal","name":"Parque Urbano do Vale Fundão"},"geometry":{"type":"Point","coordinates":[-9.1086,38.75246]}},{"type":"Feature","properties":{"id":"dogal-25","kind":"district","btype":"dogal","name":"Jardim Amália Rodrigues","lab":1},"geometry":{"type":"Polygon","coordinates":[[[-9.1571257,38.7294323],[-9.1576302,38.7300216],[-9.1551484,38.7317761],[-9.1545429,38.7330896],[-9.1539343,38.7329811],[-9.1530355,38.7314949],[-9.1571257,38.7294323]]]}},{"type":"Feature","properties":{"id":"dogal-lab-25","kind":"district-label","btype":"dogal","name":"Jardim Amália Rodrigues"},"geometry":{"type":"Point","coordinates":[-9.15554,38.73076]}},{"type":"Feature","properties":{"id":"dogal-26","kind":"district","btype":"dogal","name":"Jardim do Palácio Marquês de Fronteira","lab":1},"geometry":{"type":"Polygon","coordinates":[[[-9.1811859,38.7375165],[-9.1816498,38.7392094],[-9.1806889,38.7398084],[-9.1806731,38.7402735],[-9.1787886,38.7406642],[-9.178408,38.7404378],[-9.1783136,38.7395355],[-9.1811859,38.7375165]]]}},{"type":"Feature","properties":{"id":"dogal-lab-26","kind":"district-label","btype":"dogal","name":"Jardim do Palácio Marquês de Fronteira"},"geometry":{"type":"Point","coordinates":[-9.1807,38.73836]}},{"type":"Feature","properties":{"id":"dogal-27","kind":"district","btype":"dogal","name":"Parque Recreativo dos Moinhos de Santana","lab":1},"geometry":{"type":"MultiPolygon","coordinates":[[[[-9.2048245,38.7081887],[-9.2045222,38.7073627],[-9.2050855,38.7072293],[-9.2061712,38.7084544],[-9.2048245,38.7081887]]],[[[-9.2061807,38.7085437],[-9.2061923,38.7085546],[-9.2061687,38.7085334],[-9.2061807,38.7085437]]],[[[-9.2061923,38.7085546],[-9.2077097,38.7089805],[-9.2082462,38.7098599],[-9.2053818,38.7103466],[-9.2046039,38.7085503],[-9.2047662,38.7083708],[-9.2061923,38.7085546]]]]}},{"type":"Feature","properties":{"id":"dogal-lab-27","kind":"district-label","btype":"dogal","name":"Parque Recreativo dos Moinhos de Santana"},"geometry":{"type":"Point","coordinates":[-9.20648,38.70942]}},{"type":"Feature","properties":{"id":"dogal-28","kind":"district","btype":"dogal","name":"Parque Gonçalo Ribeiro Telles","lab":1},"geometry":{"type":"Polygon","coordinates":[[[-9.1612753,38.7365652],[-9.1604159,38.7366443],[-9.1601978,38.7363723],[-9.1569607,38.7376271],[-9.157859,38.7386014],[-9.1596454,38.7379057],[-9.1595277,38.7372828],[-9.1635802,38.737984],[-9.1636498,38.7377197],[-9.1613829,38.7371564],[-9.1611445,38.7370038],[-9.1612753,38.7365652]]]}},{"type":"Feature","properties":{"id":"dogal-lab-28","kind":"district-label","btype":"dogal","name":"Parque Gonçalo Ribeiro Telles"},"geometry":{"type":"Point","coordinates":[-9.15848,38.73745]}},{"type":"Feature","properties":{"id":"dogal-29","kind":"district","btype":"dogal","name":"Jardim da Alameda Dom Afonso Henriques","lab":1},"geometry":{"type":"Polygon","coordinates":[[[-9.1364294,38.7373241],[-9.1296899,38.7377385],[-9.1292089,38.7373125],[-9.1296817,38.7369377],[-9.1363431,38.7365334],[-9.1364294,38.7373241]]]}},{"type":"Feature","properties":{"id":"dogal-lab-29","kind":"district-label","btype":"dogal","name":"Jardim da Alameda Dom Afonso Henriques"},"geometry":{"type":"Point","coordinates":[-9.13293,38.73713]}},{"type":"Feature","properties":{"id":"dogal-30","kind":"district","btype":"dogal","name":"Quinta dos Lilases","lab":1},"geometry":{"type":"Polygon","coordinates":[[[-9.1594481,38.771628],[-9.1602241,38.7713174],[-9.1595475,38.7702097],[-9.1560695,38.7711049],[-9.1562719,38.7724177],[-9.1594991,38.7718681],[-9.1594481,38.771628]]]}},{"type":"Feature","properties":{"id":"dogal-lab-30","kind":"district-label","btype":"dogal","name":"Quinta dos Lilases"},"geometry":{"type":"Point","coordinates":[-9.15812,38.77121]}},{"type":"Feature","properties":{"id":"dogal-31","kind":"district","btype":"dogal","name":"Quinta dos Condes de Carnide","lab":1},"geometry":{"type":"Polygon","coordinates":[[[-9.1897844,38.7592891],[-9.1881924,38.7588993],[-9.1894347,38.7563383],[-9.1912865,38.7568614],[-9.1897844,38.7592891]]]}},{"type":"Feature","properties":{"id":"dogal-lab-31","kind":"district-label","btype":"dogal","name":"Quinta dos Condes de Carnide"},"geometry":{"type":"Point","coordinates":[-9.18967,38.75788]}},{"type":"Feature","properties":{"id":"dogal-32","kind":"district","btype":"dogal","name":"Jardim Botânico de Lisboa","lab":1},"geometry":{"type":"Polygon","coordinates":[[[-9.1493995,38.7194748],[-9.1471252,38.719104],[-9.1474422,38.7186375],[-9.1466997,38.7184079],[-9.1476691,38.7180842],[-9.1481453,38.7174798],[-9.1498751,38.7177193],[-9.1496969,38.7182424],[-9.1510877,38.7186583],[-9.1506277,38.7195466],[-9.1494946,38.7192427],[-9.1493995,38.7194748]]]}},{"type":"Feature","properties":{"id":"dogal-lab-32","kind":"district-label","btype":"dogal","name":"Jardim Botânico de Lisboa"},"geometry":{"type":"Point","coordinates":[-9.14885,38.71852]}},{"type":"Feature","properties":{"id":"dogal-33","kind":"district","btype":"dogal","name":"Jardim do Cabeço das Rolas","lab":1},"geometry":{"type":"Polygon","coordinates":[[[-9.0982979,38.759732],[-9.09744,38.7595694],[-9.0971564,38.7599084],[-9.0965987,38.7596799],[-9.096457,38.7612793],[-9.0966744,38.7615188],[-9.0971991,38.7615476],[-9.0975776,38.7609385],[-9.0983635,38.7607074],[-9.0991467,38.760949],[-9.0995329,38.7616352],[-9.0997935,38.7589503],[-9.0989527,38.758904],[-9.0982979,38.759732]]]}},{"type":"Feature","properties":{"id":"dogal-lab-33","kind":"district-label","btype":"dogal","name":"Jardim do Cabeço das Rolas"},"geometry":{"type":"Point","coordinates":[-9.0981,38.76031]}},{"type":"Feature","properties":{"id":"dogal-34","kind":"district","btype":"dogal","name":"Quinta das Carmelitas","lab":1},"geometry":{"type":"Polygon","coordinates":[[[-9.1832263,38.7621481],[-9.1852206,38.76156],[-9.1856097,38.7629033],[-9.1848621,38.7640169],[-9.1825721,38.7636982],[-9.1832263,38.7621481]]]}},{"type":"Feature","properties":{"id":"dogal-lab-34","kind":"district-label","btype":"dogal","name":"Quinta das Carmelitas"},"geometry":{"type":"Point","coordinates":[-9.18428,38.76253]}},{"type":"Feature","properties":{"id":"dogal-35","kind":"district","btype":"dogal","name":"Parque Urbano Mar e Vila","lab":1},"geometry":{"type":"Polygon","coordinates":[[[-9.1122128,38.7393854],[-9.111689,38.7394378],[-9.1114283,38.7384053],[-9.1119818,38.7383336],[-9.1119019,38.7378084],[-9.1111715,38.7380068],[-9.1079752,38.7396867],[-9.1059207,38.7418449],[-9.1067868,38.7421732],[-9.1075398,38.7405597],[-9.109334,38.7394429],[-9.1113319,38.7392747],[-9.1114345,38.7398795],[-9.1122128,38.7393854]]]}},{"type":"Feature","properties":{"id":"dogal-lab-35","kind":"district-label","btype":"dogal","name":"Parque Urbano Mar e Vila"},"geometry":{"type":"Point","coordinates":[-9.10778,38.74022]}},{"type":"Feature","properties":{"id":"dogal-36","kind":"district","btype":"dogal","name":"Jardim da Estrela","lab":1},"geometry":{"type":"Polygon","coordinates":[[[-9.1586527,38.7144111],[-9.1578441,38.7139425],[-9.157386,38.7150824],[-9.1588771,38.7156856],[-9.1605638,38.7153859],[-9.1606933,38.7139287],[-9.1595138,38.7135908],[-9.1586527,38.7144111]]]}},{"type":"Feature","properties":{"id":"dogal-lab-36","kind":"district-label","btype":"dogal","name":"Jardim da Estrela"},"geometry":{"type":"Point","coordinates":[-9.15907,38.71475]}},{"type":"Feature","properties":{"id":"dogal-37","kind":"district","btype":"dogal","name":"Parque Aventura","lab":1},"geometry":{"type":"Polygon","coordinates":[[[-9.2298972,38.7606259],[-9.229279,38.7607213],[-9.2287906,38.7613327],[-9.2288752,38.7623918],[-9.2292656,38.7630409],[-9.2299046,38.7633683],[-9.2300203,38.7645154],[-9.2309302,38.7649812],[-9.2313568,38.7661205],[-9.231637,38.7662036],[-9.231216,38.7644019],[-9.2306388,38.7639896],[-9.2298972,38.7606259]]]}},{"type":"Feature","properties":{"id":"dogal-lab-37","kind":"district-label","btype":"dogal","name":"Parque Aventura"},"geometry":{"type":"Point","coordinates":[-9.23025,38.76368]}},{"type":"Feature","properties":{"id":"dogal-38","kind":"district","btype":"dogal","name":"Parque Bensaúde","lab":1},"geometry":{"type":"Polygon","coordinates":[[[-9.1767659,38.7519081],[-9.1768794,38.7522506],[-9.1744822,38.7530834],[-9.1751164,38.7530043],[-9.1758327,38.75404],[-9.1782491,38.7532256],[-9.1777775,38.7513145],[-9.1769843,38.7512527],[-9.1771268,38.7518408],[-9.1767659,38.7519081]]]}},{"type":"Feature","properties":{"id":"dogal-lab-38","kind":"district-label","btype":"dogal","name":"Parque Bensaúde"},"geometry":{"type":"Point","coordinates":[-9.17695,38.75263]}},{"type":"Feature","properties":{"id":"dogal-39","kind":"district","btype":"dogal","name":"Parque do Neudel","lab":1},"geometry":{"type":"Polygon","coordinates":[[[-9.2261269,38.7433002],[-9.2237193,38.7443141],[-9.2221311,38.7429702],[-9.2244602,38.7423565],[-9.2255002,38.7426649],[-9.2261269,38.7433002]]]}},{"type":"Feature","properties":{"id":"dogal-lab-39","kind":"district-label","btype":"dogal","name":"Parque do Neudel"},"geometry":{"type":"Point","coordinates":[-9.22402,38.74381]}},{"type":"Feature","properties":{"id":"dogal-40","kind":"district","btype":"dogal","name":"Jardim António Viana Barreto","lab":1},"geometry":{"type":"Polygon","coordinates":[[[-9.215941,38.6924545],[-9.2167533,38.6923315],[-9.2179442,38.6932609],[-9.2137804,38.6936197],[-9.2137794,38.6921584],[-9.2147947,38.6919777],[-9.215941,38.6924545]]]}},{"type":"Feature","properties":{"id":"dogal-lab-40","kind":"district-label","btype":"dogal","name":"Jardim António Viana Barreto"},"geometry":{"type":"Point","coordinates":[-9.2156,38.69286]}},{"type":"Feature","properties":{"id":"dogal-41","kind":"district","btype":"dogal","name":"Parque Edgar Sampaio Fontes","lab":1},"geometry":{"type":"Polygon","coordinates":[[[-9.1228285,38.7702121],[-9.1225319,38.7695261],[-9.1169585,38.7691558],[-9.1169971,38.7693892],[-9.1201119,38.7699995],[-9.1214315,38.7708291],[-9.1228285,38.7702121]]]}},{"type":"Feature","properties":{"id":"dogal-lab-41","kind":"district-label","btype":"dogal","name":"Parque Edgar Sampaio Fontes"},"geometry":{"type":"Point","coordinates":[-9.12077,38.76976]}},{"type":"Feature","properties":{"id":"dogal-42","kind":"district","btype":"dogal","name":"Jardim Vasco da Gama","lab":1},"geometry":{"type":"Polygon","coordinates":[[[-9.201576,38.6967501],[-9.2013265,38.6958841],[-9.2043467,38.6953364],[-9.205062,38.697088],[-9.201576,38.6967501]]]}},{"type":"Feature","properties":{"id":"dogal-lab-42","kind":"district-label","btype":"dogal","name":"Jardim Vasco da Gama"},"geometry":{"type":"Point","coordinates":[-9.2031,38.69632]}},{"type":"Feature","properties":{"id":"dogal-43","kind":"district","btype":"dogal","name":"Parque da Quinta das Flores","lab":1},"geometry":{"type":"Polygon","coordinates":[[[-9.1070747,38.7444955],[-9.1074217,38.7445472],[-9.1070026,38.744536],[-9.106821,38.7454125],[-9.1070764,38.7464323],[-9.1055507,38.7465382],[-9.1056052,38.7467899],[-9.1050991,38.7465935],[-9.1045297,38.7454595],[-9.1069193,38.7437192],[-9.1070747,38.7444955]]]}},{"type":"Feature","properties":{"id":"dogal-lab-43","kind":"district-label","btype":"dogal","name":"Parque da Quinta das Flores"},"geometry":{"type":"Point","coordinates":[-9.10605,38.74498]}},{"type":"Feature","properties":{"id":"dogal-44","kind":"district","btype":"dogal","name":"Parque da Ribeira de Alfragide","lab":1},"geometry":{"type":"MultiPolygon","coordinates":[[[[-9.2124386,38.7301085],[-9.2126104,38.7293559],[-9.212332,38.7288107],[-9.2128018,38.7276271],[-9.2130803,38.7275784],[-9.2144289,38.7286899],[-9.2124386,38.7301085]]],[[[-9.2126329,38.7318513],[-9.2118251,38.7322585],[-9.2122295,38.7315607],[-9.2122252,38.7302109],[-9.2128745,38.7303893],[-9.2129991,38.7311898],[-9.2126329,38.7318513]]]]}},{"type":"Feature","properties":{"id":"dogal-lab-44","kind":"district-label","btype":"dogal","name":"Parque da Ribeira de Alfragide"},"geometry":{"type":"Point","coordinates":[-9.21317,38.72908]}},{"type":"Feature","properties":{"id":"dogal-ic-45","kind":"district","btype":"dogal","name":"Parque Florestal de Monsanto","lab":1},"geometry":{"type":"Polygon","coordinates":[[[-9.1735236,38.7389143],[-9.1720417,38.7355746],[-9.1709206,38.7342031],[-9.1721249,38.733294],[-9.1749928,38.7325508],[-9.1742975,38.731615],[-9.1752416,38.7311452],[-9.1743806,38.7296941],[-9.1745093,38.7291083],[-9.1721812,38.7292652],[-9.1709353,38.730211],[-9.1694467,38.729012],[-9.1682772,38.7298281],[-9.1679768,38.7293165],[-9.1687144,38.7287703],[-9.1665579,38.7268882],[-9.1668101,38.7264195],[-9.1689237,38.7283309],[-9.1703573,38.7262123],[-9.1713215,38.7270179],[-9.1726305,38.7236029],[-9.1700944,38.7223316],[-9.1682759,38.7227324],[-9.168241,38.722657],[-9.1723609,38.7214245],[-9.1700783,38.7213722],[-9.1703372,38.7205837],[-9.1721329,38.7201814],[-9.1738247,38.7203996],[-9.1749928,38.7196101],[-9.1751853,38.7173667],[-9.1766618,38.7155125],[-9.1770239,38.713811],[-9.1768764,38.7128975],[-9.1745013,38.7096461],[-9.1764868,38.7113932],[-9.1775,38.7108726],[-9.1779292,38.7079507],[-9.1773552,38.7080428],[-9.1771862,38.7070591],[-9.1792327,38.7078042],[-9.1790718,38.7110525],[-9.1797102,38.7125092],[-9.1812927,38.7129446],[-9.182108,38.7137817],[-9.1836973,38.7134437],[-9.1835558,38.7160718],[-9.184286,38.7173311],[-9.1903585,38.7190216],[-9.1937381,38.7189875],[-9.1938856,38.7151358],[-9.1959368,38.714656],[-9.1959194,38.7140506],[-9.1973054,38.7140329],[-9.1973376,38.7150332],[-9.1982979,38.7150291],[-9.1982677,38.7144394],[-9.1975971,38.7144478],[-9.1975857,38.7140213],[-9.2010525,38.7138952],[-9.2008245,38.7126641],[-9.2014656,38.7120279],[-9.2027074,38.712166],[-9.2042631,38.7139157],[-9.2062265,38.7147988],[-9.2059167,38.715254],[-9.2065644,38.7154937],[-9.2076651,38.7145885],[-9.2069024,38.7138361],[-9.2075113,38.7133155],[-9.2091496,38.713607],[-9.2099038,38.712715],[-9.2123292,38.7131852],[-9.2126054,38.7121796],[-9.2135422,38.7123596],[-9.2148927,38.7113477],[-9.2162331,38.7116365],[-9.2175266,38.7101819],[-9.2170559,38.7098993],[-9.2171652,38.7092327],[-9.216034,38.7088957],[-9.2184822,38.7076415],[-9.2186639,38.7065499],[-9.21753,38.7063495],[-9.218224,38.7033501],[-9.2247887,38.7005373],[-9.226343,38.7009136],[-9.2260399,38.7032705],[-9.2224458,38.707574],[-9.2232987,38.7102248],[-9.222419,38.713765],[-9.2187363,38.7182017],[-9.208045,38.7240193],[-9.2099136,38.7300942],[-9.2078921,38.732682],[-9.2076078,38.7319414],[-9.2063845,38.7323588],[-9.2065981,38.7319836],[-9.2042804,38.731492],[-9.2022797,38.7348212],[-9.2022166,38.7365224],[-9.2023408,38.7360548],[-9.20338,38.736015],[-9.2055197,38.7369414],[-9.2042631,38.738806],[-9.2023064,38.7388264],[-9.2026451,38.7395989],[-9.2009982,38.7402281],[-9.2001519,38.74202],[-9.1976159,38.7436481],[-9.1958195,38.7440383],[-9.1853193,38.7444488],[-9.1813946,38.7432041],[-9.1825748,38.7422726],[-9.1811854,38.7404483],[-9.1771547,38.7412339],[-9.1735236,38.7389143]]]}},{"type":"Feature","properties":{"id":"dogal-ic-lab-45","kind":"district-label","btype":"dogal","name":"Parque Florestal de Monsanto"},"geometry":{"type":"Point","coordinates":[-9.19063,38.72249]}},{"type":"Feature","properties":{"id":"dogal-ic-46","kind":"district","btype":"dogal","name":"Jardim do Torel","lab":1},"geometry":{"type":"Polygon","coordinates":[[[-9.1423749,38.7194781],[-9.1409766,38.7185828],[-9.1411802,38.7190482],[-9.140715,38.7192175],[-9.1413678,38.7191582],[-9.1414654,38.7199131],[-9.1416299,38.7199031],[-9.141561,38.7195102],[-9.1423749,38.7194781]]]}},{"type":"Feature","properties":{"id":"dogal-ic-lab-46","kind":"district-label","btype":"dogal","name":"Jardim do Torel"},"geometry":{"type":"Point","coordinates":[-9.14178,38.71935]}},{"type":"Feature","properties":{"id":"dogal-ic-47","kind":"district","btype":"dogal","name":"Jardim da Cerca da Graça","lab":1},"geometry":{"type":"Polygon","coordinates":[[[-9.1315625,38.7166416],[-9.1311983,38.7178533],[-9.1320616,38.7181326],[-9.1328563,38.7176686],[-9.1321632,38.7165943],[-9.1315625,38.7166416]]]}},{"type":"Feature","properties":{"id":"dogal-ic-lab-47","kind":"district-label","btype":"dogal","name":"Jardim da Cerca da Graça"},"geometry":{"type":"Point","coordinates":[-9.13197,38.71716]}}]}