{"type":"FeatureCollection","features":[{"type":"Feature","properties":{"id":"egitim-0","kind":"district","btype":"egitim","name":"Universidade de Lisboa - Cidade Universitária","lab":1},"geometry":{"type":"Polygon","coordinates":[[[-9.1602133,38.7543424],[-9.1579929,38.7550423],[-9.1587948,38.7562394],[-9.1580134,38.7565887],[-9.1587795,38.758208],[-9.1581379,38.7584087],[-9.1574638,38.757431],[-9.1569172,38.7575991],[-9.1566877,38.7572755],[-9.1558716,38.7576311],[-9.1544773,38.7558087],[-9.1557698,38.7548551],[-9.1549526,38.752884],[-9.1542802,38.7527082],[-9.1544832,38.7523676],[-9.1528258,38.7496744],[-9.1522227,38.7497554],[-9.1520777,38.7494776],[-9.152649,38.7492917],[-9.1531581,38.7498301],[-9.1555073,38.7489844],[-9.1551944,38.7481737],[-9.1534658,38.7481922],[-9.1533354,38.7477048],[-9.1560258,38.7473081],[-9.156838,38.7474635],[-9.1602133,38.7543424]]]}},{"type":"Feature","properties":{"id":"egitim-lab-0","kind":"district-label","btype":"egitim","name":"Universidade de Lisboa - Cidade Universitária"},"geometry":{"type":"Point","coordinates":[-9.15704,38.7528]}},{"type":"Feature","properties":{"id":"egitim-1","kind":"district","btype":"egitim","name":"Campus do Instituto Politécnico de Lisboa - Benfica","lab":1},"geometry":{"type":"Polygon","coordinates":[[[-9.1908889,38.7475294],[-9.1908093,38.7468562],[-9.1919221,38.7462116],[-9.1958169,38.7450801],[-9.1966055,38.7450258],[-9.1967155,38.7452853],[-9.1962087,38.7455098],[-9.1967316,38.7454275],[-9.1973649,38.7449505],[-9.1971323,38.7472411],[-9.1965172,38.747197],[-9.1964047,38.7484015],[-9.1955584,38.7483613],[-9.1956049,38.7475444],[-9.1952831,38.747011],[-9.1945151,38.7471713],[-9.194068,38.7463521],[-9.1922406,38.7476784],[-9.1908889,38.7475294]]]}},{"type":"Feature","properties":{"id":"egitim-lab-1","kind":"district-label","btype":"egitim","name":"Campus do Instituto Politécnico de Lisboa - Benfica"},"geometry":{"type":"Point","coordinates":[-9.1957,38.7466]}},{"type":"Feature","properties":{"id":"egitim-2","kind":"district","btype":"egitim","name":"Instituto Superior Técnico","lab":1},"geometry":{"type":"Polygon","coordinates":[[[-9.1407022,38.7378059],[-9.1386937,38.7381202],[-9.1375658,38.7379098],[-9.1367878,38.7374378],[-9.1366786,38.7363378],[-9.1380195,38.7355611],[-9.1404141,38.7353912],[-9.1403417,38.7364393],[-9.13987,38.7367849],[-9.1404116,38.7369105],[-9.1407022,38.7378059]]]}},{"type":"Feature","properties":{"id":"egitim-lab-2","kind":"district-label","btype":"egitim","name":"Instituto Superior Técnico"},"geometry":{"type":"Point","coordinates":[-9.13841,38.73661]}},{"type":"Feature","properties":{"id":"egitim-3","kind":"district","btype":"egitim","name":"Faculdade de Ciências da Universidade de Lisboa","lab":1},"geometry":{"type":"Polygon","coordinates":[[[-9.1574638,38.757431],[-9.1569172,38.7575991],[-9.1566877,38.7572755],[-9.1558716,38.7576311],[-9.1544773,38.7558087],[-9.1555467,38.7549651],[-9.1559508,38.7556859],[-9.158241,38.7551005],[-9.1587948,38.7562394],[-9.1580134,38.7565887],[-9.1587795,38.758208],[-9.1581379,38.7584087],[-9.1574638,38.757431]]]}},{"type":"Feature","properties":{"id":"egitim-lab-3","kind":"district-label","btype":"egitim","name":"Faculdade de Ciências da Universidade de Lisboa"},"geometry":{"type":"Point","coordinates":[-9.15676,38.75693]}},{"type":"Feature","properties":{"id":"egitim-4","kind":"district","btype":"egitim","name":"Instituto Superior de Engenharia de Lisboa","lab":1},"geometry":{"type":"Polygon","coordinates":[[[-9.118302,38.7571321],[-9.1177893,38.7573771],[-9.1138128,38.7560989],[-9.1142942,38.7555132],[-9.1161618,38.7551407],[-9.1174755,38.7553397],[-9.1179802,38.7554741],[-9.118302,38.7571321]]]}},{"type":"Feature","properties":{"id":"egitim-lab-4","kind":"district-label","btype":"egitim","name":"Instituto Superior de Engenharia de Lisboa"},"geometry":{"type":"Point","coordinates":[-9.11681,38.75662]}},{"type":"Feature","properties":{"id":"egitim-5","kind":"district","btype":"egitim","name":"Universidade NOVA de Lisboa - Campus de Campolide","lab":1},"geometry":{"type":"Polygon","coordinates":[[[-9.1616884,38.7325733],[-9.1624672,38.7339777],[-9.1610432,38.7346145],[-9.1609041,38.7343708],[-9.1601934,38.734647],[-9.1590545,38.7325022],[-9.1594941,38.7323455],[-9.1591342,38.7316815],[-9.1597109,38.7312772],[-9.1601764,38.7322042],[-9.1612614,38.7320437],[-9.1612558,38.7325517],[-9.1616884,38.7325733]]]}},{"type":"Feature","properties":{"id":"egitim-lab-5","kind":"district-label","btype":"egitim","name":"Universidade NOVA de Lisboa - Campus de Campolide"},"geometry":{"type":"Point","coordinates":[-9.16077,38.73328]}},{"type":"Feature","properties":{"id":"egitim-6","kind":"district","btype":"egitim","name":"Faculdade de Arquitectura da Universidade de Lisboa","lab":1},"geometry":{"type":"Polygon","coordinates":[[[-9.1926462,38.7123104],[-9.1933126,38.7119394],[-9.1953156,38.7120508],[-9.1953369,38.7133715],[-9.1950172,38.7136572],[-9.1930897,38.7136591],[-9.1926462,38.7123104]]]}},{"type":"Feature","properties":{"id":"egitim-lab-6","kind":"district-label","btype":"egitim","name":"Faculdade de Arquitectura da Universidade de Lisboa"},"geometry":{"type":"Point","coordinates":[-9.19407,38.71284]}},{"type":"Feature","properties":{"id":"egitim-7","kind":"district","btype":"egitim","name":"Universidade Católica Portuguesa Lisboa","lab":1},"geometry":{"type":"Polygon","coordinates":[[[-9.1663315,38.7479715],[-9.164513,38.7482671],[-9.164415,38.7485733],[-9.1655675,38.7499247],[-9.1675989,38.7499143],[-9.1663315,38.7479715]]]}},{"type":"Feature","properties":{"id":"egitim-lab-7","kind":"district-label","btype":"egitim","name":"Universidade Católica Portuguesa Lisboa"},"geometry":{"type":"Point","coordinates":[-9.16607,38.74924]}},{"type":"Feature","properties":{"id":"egitim-8","kind":"district","btype":"egitim","name":"Campus Académico do Lumiar","lab":1},"geometry":{"type":"Polygon","coordinates":[[[-9.1615533,38.7680589],[-9.1615727,38.7694211],[-9.1609063,38.7700749],[-9.1593309,38.7689379],[-9.1590038,38.7689971],[-9.1586307,38.7684485],[-9.1615533,38.7680589]]]}},{"type":"Feature","properties":{"id":"egitim-lab-8","kind":"district-label","btype":"egitim","name":"Campus Académico do Lumiar"},"geometry":{"type":"Point","coordinates":[-9.16064,38.76921]}},{"type":"Feature","properties":{"id":"egitim-9","kind":"district","btype":"egitim","name":"Faculdade de Medicina Veterinária da Universidade de Lisboa","lab":1},"geometry":{"type":"Polygon","coordinates":[[[-9.1959194,38.7140506],[-9.1959368,38.714656],[-9.1938856,38.7151358],[-9.194056,38.7161086],[-9.1930123,38.7161747],[-9.1929581,38.7141025],[-9.1959194,38.7140506]]]}},{"type":"Feature","properties":{"id":"egitim-lab-9","kind":"district-label","btype":"egitim","name":"Faculdade de Medicina Veterinária da Universidade de Lisboa"},"geometry":{"type":"Point","coordinates":[-9.19395,38.7149]}},{"type":"Feature","properties":{"id":"egitim-10","kind":"district","btype":"egitim","name":"Universidade Lusófona de Humanidades e Tecnologias","lab":1},"geometry":{"type":"Polygon","coordinates":[[[-9.1518453,38.7569024],[-9.1503735,38.7578562],[-9.1521522,38.7593023],[-9.1534664,38.7581423],[-9.1518453,38.7569024]]]}},{"type":"Feature","properties":{"id":"egitim-lab-10","kind":"district-label","btype":"egitim","name":"Universidade Lusófona de Humanidades e Tecnologias"},"geometry":{"type":"Point","coordinates":[-9.15191,38.758]}},{"type":"Feature","properties":{"id":"egitim-11","kind":"district","btype":"egitim","name":"Instituto Universitário de Lisboa","lab":1},"geometry":{"type":"Polygon","coordinates":[[[-9.1528126,38.7495865],[-9.1553728,38.7489486],[-9.1551237,38.7481685],[-9.1534658,38.7481922],[-9.1533354,38.7477048],[-9.1515054,38.7479836],[-9.1516522,38.7483604],[-9.1526636,38.7482094],[-9.1531348,38.7491325],[-9.152649,38.7492917],[-9.1528126,38.7495865]]]}},{"type":"Feature","properties":{"id":"egitim-lab-11","kind":"district-label","btype":"egitim","name":"Instituto Universitário de Lisboa"},"geometry":{"type":"Point","coordinates":[-9.15408,38.74865]}}]}