{"type":"FeatureCollection","features":[{"type":"Feature","properties":{"id":"ih-eczane-0","kind":"poi","name":"Farmácia Sacoor do Chiado","theme":"eczane","lab":1},"geometry":{"type":"Point","coordinates":[-9.14148,38.71077]}},{"type":"Feature","properties":{"id":"ih-eczane-1","kind":"poi","name":"Farmácia Aliança","theme":"eczane","lab":1},"geometry":{"type":"Point","coordinates":[-9.13448,38.73281]}},{"type":"Feature","properties":{"id":"ih-eczane-2","kind":"poi","name":"Farmácia Portugal","theme":"eczane","lab":1},"geometry":{"type":"Point","coordinates":[-9.13833,38.73174]}},{"type":"Feature","properties":{"id":"ih-eczane-3","kind":"poi","name":"Farmácia Uruguai","theme":"eczane","lab":1},"geometry":{"type":"Point","coordinates":[-9.19717,38.75175]}},{"type":"Feature","properties":{"id":"ih-eczane-4","kind":"poi","name":"Farmácia Central do Lumiar","theme":"eczane","lab":1},"geometry":{"type":"Point","coordinates":[-9.16073,38.77292]}},{"type":"Feature","properties":{"id":"ih-eczane-5","kind":"poi","name":"Farmácia Nova Luz","theme":"eczane","lab":1},"geometry":{"type":"Point","coordinates":[-9.11874,38.72638]}},{"type":"Feature","properties":{"id":"ih-eczane-6","kind":"poi","name":"My Auchan Saúde e Bem-Estar","theme":"eczane","lab":1},"geometry":{"type":"Point","coordinates":[-9.16485,38.73897]}},{"type":"Feature","properties":{"id":"ih-eczane-7","kind":"poi","name":"Farmácia Avenida Almirante Gago Coutinho","theme":"eczane","lab":1},"geometry":{"type":"Point","coordinates":[-9.13037,38.74983]}},{"type":"Feature","properties":{"id":"ih-eczane-8","kind":"poi","name":"Farmácia Costa Ferreira","theme":"eczane","lab":1},"geometry":{"type":"Point","coordinates":[-9.12181,38.7189]}},{"type":"Feature","properties":{"id":"ih-eczane-9","kind":"poi","name":"Farmácia Celta","theme":"eczane","lab":1},"geometry":{"type":"Point","coordinates":[-9.13608,38.74825]}},{"type":"Feature","properties":{"id":"ih-eczane-10","kind":"poi","name":"Farmácia Damaia","theme":"eczane","lab":1},"geometry":{"type":"Point","coordinates":[-9.21942,38.74573]}},{"type":"Feature","properties":{"id":"ih-eczane-11","kind":"poi","name":"Farmácia Alta de Lisboa","theme":"eczane","lab":1},"geometry":{"type":"Point","coordinates":[-9.15297,38.76738]}},{"type":"Feature","properties":{"id":"ih-eczane-12","kind":"poi","name":"Farmácia Benfiluz","theme":"eczane","lab":1},"geometry":{"type":"Point","coordinates":[-9.19003,38.74914]}},{"type":"Feature","properties":{"id":"ih-eczane-13","kind":"poi","name":"Farmácia São Jorge","theme":"eczane","lab":1},"geometry":{"type":"Point","coordinates":[-9.22923,38.75179]}},{"type":"Feature","properties":{"id":"ih-eczane-14","kind":"poi","name":"Farmácia Confiança","theme":"eczane","lab":1},"geometry":{"type":"Point","coordinates":[-9.15105,38.71516]}},{"type":"Feature","properties":{"id":"ih-eczane-15","kind":"poi","name":"Farmácia Central do Restelo","theme":"eczane","lab":1},"geometry":{"type":"Point","coordinates":[-9.21008,38.70806]}},{"type":"Feature","properties":{"id":"ih-eczane-16","kind":"poi","name":"Miraflores","theme":"eczane","lab":1},"geometry":{"type":"Point","coordinates":[-9.22762,38.70226]}},{"type":"Feature","properties":{"id":"ih-eczane-17","kind":"poi","name":"Farmácia Romeiro","theme":"eczane","lab":1},"geometry":{"type":"Point","coordinates":[-9.23,38.76748]}},{"type":"Feature","properties":{"id":"ih-eczane-18","kind":"poi","name":"Farmácia Brito","theme":"eczane","lab":1},"geometry":{"type":"Point","coordinates":[-9.21338,38.76648]}},{"type":"Feature","properties":{"id":"ih-eczane-19","kind":"poi","name":"Farmácia Heleno","theme":"eczane","lab":1},"geometry":{"type":"Point","coordinates":[-9.22252,38.74998]}},{"type":"Feature","properties":{"id":"ih-eczane-20","kind":"poi","name":"Farmácia Nova","theme":"eczane","lab":1},"geometry":{"type":"Point","coordinates":[-9.21028,38.75382]}},{"type":"Feature","properties":{"id":"ih-eczane-21","kind":"poi","name":"Vidal Reis","theme":"eczane","lab":1},"geometry":{"type":"Point","coordinates":[-9.20416,38.76123]}},{"type":"Feature","properties":{"id":"ih-eczane-22","kind":"poi","name":"Farmácia Vaz Martins","theme":"eczane","lab":1},"geometry":{"type":"Point","coordinates":[-9.20872,38.74215]}},{"type":"Feature","properties":{"id":"ih-eczane-23","kind":"poi","name":"Farmácia Estácio","theme":"eczane","lab":1},"geometry":{"type":"Point","coordinates":[-9.14178,38.71515]}},{"type":"Feature","properties":{"id":"ih-eczane-24","kind":"poi","name":"Farmácia Belo","theme":"eczane","lab":1},"geometry":{"type":"Point","coordinates":[-9.14124,38.74746]}},{"type":"Feature","properties":{"id":"ih-eczane-25","kind":"poi","name":"Farmácia Açoreana","theme":"eczane","lab":1},"geometry":{"type":"Point","coordinates":[-9.15083,38.70879]}},{"type":"Feature","properties":{"id":"ih-eczane-26","kind":"poi","name":"Farmácia Alb","theme":"eczane","lab":1},"geometry":{"type":"Point","coordinates":[-9.16453,38.71177]}},{"type":"Feature","properties":{"id":"ih-eczane-27","kind":"poi","name":"Farmácia Alegria","theme":"eczane","lab":1},"geometry":{"type":"Point","coordinates":[-9.1739,38.74312]}},{"type":"Feature","properties":{"id":"ih-eczane-28","kind":"poi","name":"Farmácia Almeida Vaz","theme":"eczane","lab":1},"geometry":{"type":"Point","coordinates":[-9.1222,38.75732]}},{"type":"Feature","properties":{"id":"ih-eczane-29","kind":"poi","name":"Farmácia Alquimista","theme":"eczane","lab":1},"geometry":{"type":"Point","coordinates":[-9.17836,38.70582]}},{"type":"Feature","properties":{"id":"ih-eczane-30","kind":"poi","name":"Farmácia Alto do Lumiar","theme":"eczane","lab":1},"geometry":{"type":"Point","coordinates":[-9.15186,38.77493]}},{"type":"Feature","properties":{"id":"ih-eczane-31","kind":"poi","name":"Farmácia Almeida","theme":"eczane","lab":1},"geometry":{"type":"Point","coordinates":[-9.16119,38.72011]}},{"type":"Feature","properties":{"id":"ih-eczane-32","kind":"poi","name":"Farmácia Antunes Rosas","theme":"eczane","lab":1},"geometry":{"type":"Point","coordinates":[-9.11606,38.7657]}},{"type":"Feature","properties":{"id":"ih-eczane-33","kind":"poi","name":"Farmácia Apolo 70","theme":"eczane","lab":1},"geometry":{"type":"Point","coordinates":[-9.14801,38.7423]}},{"type":"Feature","properties":{"id":"ih-eczane-34","kind":"poi","name":"Farmácia Barros Gouveia","theme":"eczane","lab":1},"geometry":{"type":"Point","coordinates":[-9.10432,38.74724]}},{"type":"Feature","properties":{"id":"ih-eczane-35","kind":"poi","name":"Farmácia Bastos de Andrade","theme":"eczane","lab":1},"geometry":{"type":"Point","coordinates":[-9.13275,38.71588]}},{"type":"Feature","properties":{"id":"ih-eczane-36","kind":"poi","name":"Farmácia Bruxellas","theme":"eczane","lab":1},"geometry":{"type":"Point","coordinates":[-9.17102,38.74944]}},{"type":"Feature","properties":{"id":"ih-eczane-37","kind":"poi","name":"Farmácia Boa-Hora","theme":"eczane","lab":1},"geometry":{"type":"Point","coordinates":[-9.19417,38.70292]}},{"type":"Feature","properties":{"id":"ih-eczane-38","kind":"poi","name":"Farmácia Conceição","theme":"eczane","lab":1},"geometry":{"type":"Point","coordinates":[-9.10917,38.72855]}},{"type":"Feature","properties":{"id":"ih-eczane-39","kind":"poi","name":"Farmácia Central de Telheiras","theme":"eczane","lab":1},"geometry":{"type":"Point","coordinates":[-9.16494,38.76117]}},{"type":"Feature","properties":{"id":"ih-eczane-40","kind":"poi","name":"Farmácia Central do Areeiro","theme":"eczane","lab":1},"geometry":{"type":"Point","coordinates":[-9.13375,38.74117]}},{"type":"Feature","properties":{"id":"ih-eczane-41","kind":"poi","name":"Farmácia Central de Campolide","theme":"eczane","lab":1},"geometry":{"type":"Point","coordinates":[-9.16287,38.72853]}},{"type":"Feature","properties":{"id":"ih-eczane-42","kind":"poi","name":"Farmácia da Boavista","theme":"eczane","lab":1},"geometry":{"type":"Point","coordinates":[-9.20491,38.73389]}},{"type":"Feature","properties":{"id":"ih-eczane-43","kind":"poi","name":"Farmácia Correia de Azevedo","theme":"eczane","lab":1},"geometry":{"type":"Point","coordinates":[-9.1812,38.70291]}},{"type":"Feature","properties":{"id":"ih-eczane-44","kind":"poi","name":"Farmácia do Cruzeiro","theme":"eczane","lab":1},"geometry":{"type":"Point","coordinates":[-9.19055,38.70638]}},{"type":"Feature","properties":{"id":"ih-eczane-45","kind":"poi","name":"Farmácia São Sebastião","theme":"eczane","lab":1},"geometry":{"type":"Point","coordinates":[-9.15143,38.73216]}},{"type":"Feature","properties":{"id":"ih-eczane-46","kind":"poi","name":"Farmácia dos Jerónimos","theme":"eczane","lab":1},"geometry":{"type":"Point","coordinates":[-9.20307,38.69725]}},{"type":"Feature","properties":{"id":"ih-eczane-47","kind":"poi","name":"Farmácia dos Olivais","theme":"eczane","lab":1},"geometry":{"type":"Point","coordinates":[-9.10851,38.76871]}},{"type":"Feature","properties":{"id":"ih-eczane-48","kind":"poi","name":"Farmácia do Restelo","theme":"eczane","lab":1},"geometry":{"type":"Point","coordinates":[-9.21848,38.6985]}},{"type":"Feature","properties":{"id":"ih-eczane-49","kind":"poi","name":"Farmácia Exposul","theme":"eczane","lab":1},"geometry":{"type":"Point","coordinates":[-9.09586,38.76014]}},{"type":"Feature","properties":{"id":"ih-eczane-50","kind":"poi","name":"Farmácia Freitas","theme":"eczane","lab":1},"geometry":{"type":"Point","coordinates":[-9.10158,38.74599]}},{"type":"Feature","properties":{"id":"ih-eczane-51","kind":"poi","name":"Farmácia Marluz","theme":"eczane","lab":1},"geometry":{"type":"Point","coordinates":[-9.12349,38.73771]}},{"type":"Feature","properties":{"id":"ih-eczane-52","kind":"poi","name":"Farmácia Campo Grande","theme":"eczane","lab":1},"geometry":{"type":"Point","coordinates":[-9.14943,38.75242]}},{"type":"Feature","properties":{"id":"ih-eczane-53","kind":"poi","name":"Farmácia Zenel","theme":"eczane","lab":1},"geometry":{"type":"Point","coordinates":[-9.17088,38.73141]}},{"type":"Feature","properties":{"id":"ih-eczane-54","kind":"poi","name":"Farmácia Rualto","theme":"eczane","lab":1},"geometry":{"type":"Point","coordinates":[-9.17159,38.76901]}},{"type":"Feature","properties":{"id":"ih-eczane-55","kind":"poi","name":"Farmácia Sousa","theme":"eczane","lab":1},"geometry":{"type":"Point","coordinates":[-9.18483,38.74667]}},{"type":"Feature","properties":{"id":"ih-eczane-56","kind":"poi","name":"Farmácia Zira","theme":"eczane","lab":1},"geometry":{"type":"Point","coordinates":[-9.11388,38.77197]}},{"type":"Feature","properties":{"id":"ih-eczane-57","kind":"poi","name":"Farmácia Oriental de Lisboa","theme":"eczane","lab":1},"geometry":{"type":"Point","coordinates":[-9.09645,38.77521]}},{"type":"Feature","properties":{"id":"ih-eczane-58","kind":"poi","name":"Farmácia Teles","theme":"eczane","lab":1},"geometry":{"type":"Point","coordinates":[-9.18514,38.7057]}},{"type":"Feature","properties":{"id":"ih-eczane-59","kind":"poi","name":"Farmácia Padre Cruz","theme":"eczane","lab":1},"geometry":{"type":"Point","coordinates":[-9.19066,38.76846]}},{"type":"Feature","properties":{"id":"ih-eczane-60","kind":"poi","name":"Farmácia Várzea","theme":"eczane","lab":1},"geometry":{"type":"Point","coordinates":[-9.16634,38.75529]}},{"type":"Feature","properties":{"id":"ih-eczane-61","kind":"poi","name":"Farmácia Fénix","theme":"eczane","lab":1},"geometry":{"type":"Point","coordinates":[-9.21358,38.71193]}},{"type":"Feature","properties":{"id":"ih-eczane-62","kind":"poi","name":"Farmácia das Túlipas","theme":"eczane","lab":1},"geometry":{"type":"Point","coordinates":[-9.22814,38.71132]}},{"type":"Feature","properties":{"id":"ih-eczane-63","kind":"poi","name":"Farmácia Maia Palma","theme":"eczane","lab":1},"geometry":{"type":"Point","coordinates":[-9.18115,38.76533]}},{"type":"Feature","properties":{"id":"ih-eczane-64","kind":"poi","name":"Farmácia Santa Apolónia","theme":"eczane","lab":1},"geometry":{"type":"Point","coordinates":[-9.12364,38.71386]}},{"type":"Feature","properties":{"id":"ih-eczane-65","kind":"poi","name":"Farmácia Vila Rio","theme":"eczane","lab":1},"geometry":{"type":"Point","coordinates":[-9.09708,38.75535]}},{"type":"Feature","properties":{"id":"ih-eczane-66","kind":"poi","name":"Farmácia Cruz de Malta","theme":"eczane","lab":1},"geometry":{"type":"Point","coordinates":[-9.12696,38.7117]}},{"type":"Feature","properties":{"id":"ih-eczane-67","kind":"poi","name":"Farmácia Condestável","theme":"eczane","lab":1},"geometry":{"type":"Point","coordinates":[-9.1693,38.71617]}},{"type":"Feature","properties":{"id":"ih-eczane-68","kind":"poi","name":"Farmácia Falcão","theme":"eczane","lab":1},"geometry":{"type":"Point","coordinates":[-9.11077,38.75173]}},{"type":"Feature","properties":{"id":"ih-eczane-69","kind":"poi","name":"Farmácia Aeroporto","theme":"eczane","lab":1},"geometry":{"type":"Point","coordinates":[-9.12943,38.76933]}},{"type":"Feature","properties":{"id":"ih-eczane-70","kind":"poi","name":"Farmácia Central dos Olivais","theme":"eczane","lab":1},"geometry":{"type":"Point","coordinates":[-9.11281,38.77536]}},{"type":"Feature","properties":{"id":"ih-eczane-71","kind":"poi","name":"Farmácia Alegro","theme":"eczane","lab":1},"geometry":{"type":"Point","coordinates":[-9.21913,38.72782]}},{"type":"Feature","properties":{"id":"ih-eczane-72","kind":"poi","name":"Farmácia Avenida do Brasil","theme":"eczane","lab":1},"geometry":{"type":"Point","coordinates":[-9.13857,38.75919]}},{"type":"Feature","properties":{"id":"ih-eczane-73","kind":"poi","name":"Farmácia WTC","theme":"eczane","lab":1},"geometry":{"type":"Point","coordinates":[-9.22281,38.71706]}},{"type":"Feature","properties":{"id":"ih-eczane-74","kind":"poi","name":"Farmácia Estácio Xabregas","theme":"eczane","lab":1},"geometry":{"type":"Point","coordinates":[-9.11257,38.72436]}},{"type":"Feature","properties":{"id":"ih-market-0","kind":"poi","name":"Spar","theme":"market","lab":1},"geometry":{"type":"Point","coordinates":[-9.16066,38.77917]}},{"type":"Feature","properties":{"id":"ih-market-1","kind":"poi","name":"Amanhecer - Super da Boavista","theme":"market","lab":1},"geometry":{"type":"Point","coordinates":[-9.20484,38.73401]}},{"type":"Feature","properties":{"id":"ih-market-2","kind":"poi","name":"Coviran","theme":"market","lab":1},"geometry":{"type":"Point","coordinates":[-9.20802,38.71098]}},{"type":"Feature","properties":{"id":"ih-market-3","kind":"poi","name":"Pingo Doce","theme":"market","lab":1},"geometry":{"type":"Point","coordinates":[-9.21765,38.74254]}},{"type":"Feature","properties":{"id":"ih-market-4","kind":"poi","name":"Pingo Doce","theme":"market","lab":1},"geometry":{"type":"Point","coordinates":[-9.1536,38.76697]}},{"type":"Feature","properties":{"id":"ih-market-5","kind":"poi","name":"Lidl","theme":"market","lab":1},"geometry":{"type":"Point","coordinates":[-9.15936,38.76095]}},{"type":"Feature","properties":{"id":"ih-market-6","kind":"poi","name":"Pingo Doce","theme":"market","lab":1},"geometry":{"type":"Point","coordinates":[-9.21523,38.69553]}},{"type":"Feature","properties":{"id":"ih-market-7","kind":"poi","name":"Lidl","theme":"market","lab":1},"geometry":{"type":"Point","coordinates":[-9.12691,38.72773]}},{"type":"Feature","properties":{"id":"ih-market-8","kind":"poi","name":"Pingo Doce","theme":"market","lab":1},"geometry":{"type":"Point","coordinates":[-9.19067,38.74851]}},{"type":"Feature","properties":{"id":"ih-market-9","kind":"poi","name":"Lidl","theme":"market","lab":1},"geometry":{"type":"Point","coordinates":[-9.2059,38.7461]}},{"type":"Feature","properties":{"id":"ih-market-10","kind":"poi","name":"Continente","theme":"market","lab":1},"geometry":{"type":"Point","coordinates":[-9.1755,38.76486]}},{"type":"Feature","properties":{"id":"ih-market-11","kind":"poi","name":"Pingo Doce","theme":"market","lab":1},"geometry":{"type":"Point","coordinates":[-9.13878,38.72173]}},{"type":"Feature","properties":{"id":"ih-market-12","kind":"poi","name":"Continente Bom Dia","theme":"market","lab":1},"geometry":{"type":"Point","coordinates":[-9.15682,38.71763]}},{"type":"Feature","properties":{"id":"ih-market-13","kind":"poi","name":"Auchan","theme":"market","lab":1},"geometry":{"type":"Point","coordinates":[-9.16152,38.72304]}},{"type":"Feature","properties":{"id":"ih-market-14","kind":"poi","name":"Pingo Doce","theme":"market","lab":1},"geometry":{"type":"Point","coordinates":[-9.15649,38.71014]}},{"type":"Feature","properties":{"id":"ih-market-15","kind":"poi","name":"Lidl","theme":"market","lab":1},"geometry":{"type":"Point","coordinates":[-9.17937,38.70503]}},{"type":"Feature","properties":{"id":"ih-market-16","kind":"poi","name":"My Auchan","theme":"market","lab":1},"geometry":{"type":"Point","coordinates":[-9.21379,38.76687]}},{"type":"Feature","properties":{"id":"ih-market-17","kind":"poi","name":"My Auchan","theme":"market","lab":1},"geometry":{"type":"Point","coordinates":[-9.22618,38.70588]}},{"type":"Feature","properties":{"id":"ih-market-18","kind":"poi","name":"Pingo Doce","theme":"market","lab":1},"geometry":{"type":"Point","coordinates":[-9.1098,38.77748]}},{"type":"Feature","properties":{"id":"ih-market-19","kind":"poi","name":"Lidl","theme":"market","lab":1},"geometry":{"type":"Point","coordinates":[-9.13258,38.72179]}},{"type":"Feature","properties":{"id":"ih-market-20","kind":"poi","name":"Pingo Doce","theme":"market","lab":1},"geometry":{"type":"Point","coordinates":[-9.13633,38.74131]}},{"type":"Feature","properties":{"id":"ih-market-21","kind":"poi","name":"Pingo Doce","theme":"market","lab":1},"geometry":{"type":"Point","coordinates":[-9.14035,38.74808]}},{"type":"Feature","properties":{"id":"ih-market-22","kind":"poi","name":"Pingo Doce","theme":"market","lab":1},"geometry":{"type":"Point","coordinates":[-9.14222,38.73505]}},{"type":"Feature","properties":{"id":"ih-market-23","kind":"poi","name":"Continente Bom Dia","theme":"market","lab":1},"geometry":{"type":"Point","coordinates":[-9.14883,38.74794]}},{"type":"Feature","properties":{"id":"ih-market-24","kind":"poi","name":"Pingo Doce","theme":"market","lab":1},"geometry":{"type":"Point","coordinates":[-9.12482,38.73933]}},{"type":"Feature","properties":{"id":"ih-market-25","kind":"poi","name":"Auchan Supermercado","theme":"market","lab":1},"geometry":{"type":"Point","coordinates":[-9.15832,38.74295]}},{"type":"Feature","properties":{"id":"ih-market-26","kind":"poi","name":"Supercor","theme":"market","lab":1},"geometry":{"type":"Point","coordinates":[-9.09584,38.77437]}},{"type":"Feature","properties":{"id":"ih-market-27","kind":"poi","name":"Pingo Doce","theme":"market","lab":1},"geometry":{"type":"Point","coordinates":[-9.13511,38.71215]}},{"type":"Feature","properties":{"id":"ih-market-28","kind":"poi","name":"Pingo Doce","theme":"market","lab":1},"geometry":{"type":"Point","coordinates":[-9.16586,38.75341]}},{"type":"Feature","properties":{"id":"ih-market-29","kind":"poi","name":"Lidl","theme":"market","lab":1},"geometry":{"type":"Point","coordinates":[-9.15036,38.73771]}},{"type":"Feature","properties":{"id":"ih-market-30","kind":"poi","name":"Pingo Doce","theme":"market","lab":1},"geometry":{"type":"Point","coordinates":[-9.1625,38.72633]}},{"type":"Feature","properties":{"id":"ih-market-31","kind":"poi","name":"Pingo Doce","theme":"market","lab":1},"geometry":{"type":"Point","coordinates":[-9.12211,38.71432]}},{"type":"Feature","properties":{"id":"ih-market-32","kind":"poi","name":"Lidl","theme":"market","lab":1},"geometry":{"type":"Point","coordinates":[-9.17308,38.74949]}},{"type":"Feature","properties":{"id":"ih-market-33","kind":"poi","name":"Pingo Doce","theme":"market","lab":1},"geometry":{"type":"Point","coordinates":[-9.14029,38.7137]}},{"type":"Feature","properties":{"id":"ih-market-34","kind":"poi","name":"Pingo Doce","theme":"market","lab":1},"geometry":{"type":"Point","coordinates":[-9.11401,38.76214]}},{"type":"Feature","properties":{"id":"ih-market-35","kind":"poi","name":"Auchan","theme":"market","lab":1},"geometry":{"type":"Point","coordinates":[-9.21988,38.72791]}},{"type":"Feature","properties":{"id":"ih-market-36","kind":"poi","name":"Pingo Doce","theme":"market","lab":1},"geometry":{"type":"Point","coordinates":[-9.18141,38.75466]}},{"type":"Feature","properties":{"id":"ih-market-37","kind":"poi","name":"Continente Bom Dia","theme":"market","lab":1},"geometry":{"type":"Point","coordinates":[-9.17909,38.74459]}},{"type":"Feature","properties":{"id":"ih-market-38","kind":"poi","name":"Pingo Doce","theme":"market","lab":1},"geometry":{"type":"Point","coordinates":[-9.11751,38.75009]}},{"type":"Feature","properties":{"id":"ih-market-39","kind":"poi","name":"Celeiro","theme":"market","lab":1},"geometry":{"type":"Point","coordinates":[-9.15329,38.73389]}},{"type":"Feature","properties":{"id":"ih-market-40","kind":"poi","name":"Pingo Doce","theme":"market","lab":1},"geometry":{"type":"Point","coordinates":[-9.16157,38.71041]}},{"type":"Feature","properties":{"id":"ih-market-41","kind":"poi","name":"Pingo Doce","theme":"market","lab":1},"geometry":{"type":"Point","coordinates":[-9.22909,38.69995]}},{"type":"Feature","properties":{"id":"ih-market-42","kind":"poi","name":"Pingo Doce","theme":"market","lab":1},"geometry":{"type":"Point","coordinates":[-9.20687,38.7645]}},{"type":"Feature","properties":{"id":"ih-market-43","kind":"poi","name":"My Auchan","theme":"market","lab":1},"geometry":{"type":"Point","coordinates":[-9.17988,38.74486]}},{"type":"Feature","properties":{"id":"ih-market-44","kind":"poi","name":"Meu Super","theme":"market","lab":1},"geometry":{"type":"Point","coordinates":[-9.18113,38.70488]}},{"type":"Feature","properties":{"id":"ih-market-45","kind":"poi","name":"My Auchan","theme":"market","lab":1},"geometry":{"type":"Point","coordinates":[-9.12455,38.75943]}},{"type":"Feature","properties":{"id":"ih-market-46","kind":"poi","name":"Celeiro","theme":"market","lab":1},"geometry":{"type":"Point","coordinates":[-9.22038,38.77727]}},{"type":"Feature","properties":{"id":"ih-market-47","kind":"poi","name":"Meu Super","theme":"market","lab":1},"geometry":{"type":"Point","coordinates":[-9.12137,38.7172]}},{"type":"Feature","properties":{"id":"ih-market-48","kind":"poi","name":"Lidl","theme":"market","lab":1},"geometry":{"type":"Point","coordinates":[-9.20725,38.70147]}},{"type":"Feature","properties":{"id":"ih-market-49","kind":"poi","name":"Continente Bom Dia","theme":"market","lab":1},"geometry":{"type":"Point","coordinates":[-9.20395,38.7539]}},{"type":"Feature","properties":{"id":"ih-market-50","kind":"poi","name":"Pingo Doce","theme":"market","lab":1},"geometry":{"type":"Point","coordinates":[-9.19782,38.74573]}},{"type":"Feature","properties":{"id":"ih-market-51","kind":"poi","name":"Lidl","theme":"market","lab":1},"geometry":{"type":"Point","coordinates":[-9.09851,38.75727]}},{"type":"Feature","properties":{"id":"ih-market-52","kind":"poi","name":"Lidl","theme":"market","lab":1},"geometry":{"type":"Point","coordinates":[-9.11285,38.72428]}},{"type":"Feature","properties":{"id":"ih-market-53","kind":"poi","name":"Pingo Doce","theme":"market","lab":1},"geometry":{"type":"Point","coordinates":[-9.09767,38.7586]}},{"type":"Feature","properties":{"id":"ih-market-54","kind":"poi","name":"Lidl","theme":"market","lab":1},"geometry":{"type":"Point","coordinates":[-9.21812,38.75412]}},{"type":"Feature","properties":{"id":"ih-market-55","kind":"poi","name":"Continente Bom Dia","theme":"market","lab":1},"geometry":{"type":"Point","coordinates":[-9.10956,38.7279]}},{"type":"Feature","properties":{"id":"ih-market-56","kind":"poi","name":"Pingo Doce","theme":"market","lab":1},"geometry":{"type":"Point","coordinates":[-9.1047,38.76652]}},{"type":"Feature","properties":{"id":"ih-market-57","kind":"poi","name":"Lidl","theme":"market","lab":1},"geometry":{"type":"Point","coordinates":[-9.10417,38.75725]}},{"type":"Feature","properties":{"id":"ih-market-58","kind":"poi","name":"Pingo Doce","theme":"market","lab":1},"geometry":{"type":"Point","coordinates":[-9.19355,38.70225]}},{"type":"Feature","properties":{"id":"ih-market-59","kind":"poi","name":"Pingo Doce","theme":"market","lab":1},"geometry":{"type":"Point","coordinates":[-9.22952,38.75054]}},{"type":"Feature","properties":{"id":"ih-market-60","kind":"poi","name":"Continente Modelo","theme":"market","lab":1},"geometry":{"type":"Point","coordinates":[-9.15623,38.77485]}},{"type":"Feature","properties":{"id":"ih-market-61","kind":"poi","name":"Aldi","theme":"market","lab":1},"geometry":{"type":"Point","coordinates":[-9.22613,38.73933]}},{"type":"Feature","properties":{"id":"ih-market-62","kind":"poi","name":"Aldi","theme":"market","lab":1},"geometry":{"type":"Point","coordinates":[-9.22471,38.77006]}},{"type":"Feature","properties":{"id":"ih-market-63","kind":"poi","name":"Lidl","theme":"market","lab":1},"geometry":{"type":"Point","coordinates":[-9.19695,38.75998]}},{"type":"Feature","properties":{"id":"ih-market-64","kind":"poi","name":"Continente Bom Dia","theme":"market","lab":1},"geometry":{"type":"Point","coordinates":[-9.22317,38.71783]}},{"type":"Feature","properties":{"id":"ih-market-65","kind":"poi","name":"Supermercado C.C. Boa-Hora","theme":"market","lab":1},"geometry":{"type":"Point","coordinates":[-9.19545,38.70372]}},{"type":"Feature","properties":{"id":"ih-market-66","kind":"poi","name":"88 D","theme":"market","lab":1},"geometry":{"type":"Point","coordinates":[-9.12168,38.72698]}},{"type":"Feature","properties":{"id":"ih-market-67","kind":"poi","name":"Nunes & Pedro","theme":"market","lab":1},"geometry":{"type":"Point","coordinates":[-9.18833,38.76007]}},{"type":"Feature","properties":{"id":"ih-market-68","kind":"poi","name":"Poupança Cash & Carry","theme":"market","lab":1},"geometry":{"type":"Point","coordinates":[-9.10201,38.74035]}},{"type":"Feature","properties":{"id":"ih-yakit-0","kind":"poi","name":"BP","theme":"yakit","lab":1},"geometry":{"type":"Point","coordinates":[-9.16329,38.7624]}},{"type":"Feature","properties":{"id":"ih-yakit-1","kind":"poi","name":"BP","theme":"yakit","lab":1},"geometry":{"type":"Point","coordinates":[-9.21447,38.71117]}},{"type":"Feature","properties":{"id":"ih-yakit-2","kind":"poi","name":"Galp","theme":"yakit","lab":1},"geometry":{"type":"Point","coordinates":[-9.13962,38.74582]}},{"type":"Feature","properties":{"id":"ih-yakit-3","kind":"poi","name":"BP","theme":"yakit","lab":1},"geometry":{"type":"Point","coordinates":[-9.21217,38.69378]}},{"type":"Feature","properties":{"id":"ih-yakit-4","kind":"poi","name":"Prio","theme":"yakit","lab":1},"geometry":{"type":"Point","coordinates":[-9.12655,38.72993]}},{"type":"Feature","properties":{"id":"ih-yakit-5","kind":"poi","name":"Repsol","theme":"yakit","lab":1},"geometry":{"type":"Point","coordinates":[-9.14098,38.76341]}},{"type":"Feature","properties":{"id":"ih-yakit-6","kind":"poi","name":"Repsol","theme":"yakit","lab":1},"geometry":{"type":"Point","coordinates":[-9.18315,38.75541]}},{"type":"Feature","properties":{"id":"ih-yakit-7","kind":"poi","name":"Moeve","theme":"yakit","lab":1},"geometry":{"type":"Point","coordinates":[-9.20735,38.74852]}},{"type":"Feature","properties":{"id":"ih-yakit-8","kind":"poi","name":"OZ Energia","theme":"yakit","lab":1},"geometry":{"type":"Point","coordinates":[-9.13012,38.72117]}},{"type":"Feature","properties":{"id":"ih-yakit-9","kind":"poi","name":"Repsol","theme":"yakit","lab":1},"geometry":{"type":"Point","coordinates":[-9.20267,38.73896]}},{"type":"Feature","properties":{"id":"ih-yakit-10","kind":"poi","name":"BP","theme":"yakit","lab":1},"geometry":{"type":"Point","coordinates":[-9.10527,38.77354]}},{"type":"Feature","properties":{"id":"ih-yakit-11","kind":"poi","name":"BP","theme":"yakit","lab":1},"geometry":{"type":"Point","coordinates":[-9.16316,38.73856]}},{"type":"Feature","properties":{"id":"ih-yakit-12","kind":"poi","name":"Rede Energia","theme":"yakit","lab":1},"geometry":{"type":"Point","coordinates":[-9.15217,38.75686]}},{"type":"Feature","properties":{"id":"ih-yakit-13","kind":"poi","name":"Galp","theme":"yakit","lab":1},"geometry":{"type":"Point","coordinates":[-9.10098,38.767]}},{"type":"Feature","properties":{"id":"ih-yakit-14","kind":"poi","name":"Galp","theme":"yakit","lab":1},"geometry":{"type":"Point","coordinates":[-9.0931,38.75353]}},{"type":"Feature","properties":{"id":"ih-yakit-15","kind":"poi","name":"Rede Energia","theme":"yakit","lab":1},"geometry":{"type":"Point","coordinates":[-9.10679,38.76316]}},{"type":"Feature","properties":{"id":"ih-yakit-16","kind":"poi","name":"BP","theme":"yakit","lab":1},"geometry":{"type":"Point","coordinates":[-9.18636,38.74702]}},{"type":"Feature","properties":{"id":"ih-yakit-17","kind":"poi","name":"Repsol","theme":"yakit","lab":1},"geometry":{"type":"Point","coordinates":[-9.15272,38.72428]}},{"type":"Feature","properties":{"id":"ih-yakit-18","kind":"poi","name":"BP","theme":"yakit","lab":1},"geometry":{"type":"Point","coordinates":[-9.18037,38.75906]}},{"type":"Feature","properties":{"id":"ih-yakit-19","kind":"poi","name":"Galp","theme":"yakit","lab":1},"geometry":{"type":"Point","coordinates":[-9.17464,38.75384]}},{"type":"Feature","properties":{"id":"ih-yakit-20","kind":"poi","name":"Repsol","theme":"yakit","lab":1},"geometry":{"type":"Point","coordinates":[-9.17519,38.7405]}},{"type":"Feature","properties":{"id":"ih-yakit-21","kind":"poi","name":"Cepsa","theme":"yakit","lab":1},"geometry":{"type":"Point","coordinates":[-9.14471,38.7527]}},{"type":"Feature","properties":{"id":"ih-yakit-22","kind":"poi","name":"Galp","theme":"yakit","lab":1},"geometry":{"type":"Point","coordinates":[-9.14796,38.74331]}},{"type":"Feature","properties":{"id":"ih-yakit-23","kind":"poi","name":"BP","theme":"yakit","lab":1},"geometry":{"type":"Point","coordinates":[-9.10869,38.74941]}},{"type":"Feature","properties":{"id":"ih-yakit-24","kind":"poi","name":"Repsol","theme":"yakit","lab":1},"geometry":{"type":"Point","coordinates":[-9.17597,38.71329]}},{"type":"Feature","properties":{"id":"ih-yakit-25","kind":"poi","name":"Prio","theme":"yakit","lab":1},"geometry":{"type":"Point","coordinates":[-9.22234,38.74254]}},{"type":"Feature","properties":{"id":"ih-yakit-26","kind":"poi","name":"BP","theme":"yakit","lab":1},"geometry":{"type":"Point","coordinates":[-9.11153,38.72513]}},{"type":"Feature","properties":{"id":"ih-yakit-27","kind":"poi","name":"Shell","theme":"yakit","lab":1},"geometry":{"type":"Point","coordinates":[-9.22985,38.69897]}},{"type":"Feature","properties":{"id":"ih-yakit-28","kind":"poi","name":"BP","theme":"yakit","lab":1},"geometry":{"type":"Point","coordinates":[-9.16175,38.71434]}},{"type":"Feature","properties":{"id":"ih-yakit-29","kind":"poi","name":"Prio","theme":"yakit","lab":1},"geometry":{"type":"Point","coordinates":[-9.20385,38.76346]}},{"type":"Feature","properties":{"id":"ih-yakit-30","kind":"poi","name":"BP","theme":"yakit","lab":1},"geometry":{"type":"Point","coordinates":[-9.09591,38.77527]}},{"type":"Feature","properties":{"id":"ih-yakit-31","kind":"poi","name":"OZ Energia","theme":"yakit","lab":1},"geometry":{"type":"Point","coordinates":[-9.15685,38.72853]}},{"type":"Feature","properties":{"id":"ih-yakit-32","kind":"poi","name":"Auchan","theme":"yakit","lab":1},"geometry":{"type":"Point","coordinates":[-9.21624,38.77359]}},{"type":"Feature","properties":{"id":"ih-yakit-33","kind":"poi","name":"Galp","theme":"yakit","lab":1},"geometry":{"type":"Point","coordinates":[-9.19751,38.76415]}},{"type":"Feature","properties":{"id":"ih-yakit-34","kind":"poi","name":"Alves Bandeira","theme":"yakit","lab":1},"geometry":{"type":"Point","coordinates":[-9.21283,38.75401]}},{"type":"Feature","properties":{"id":"ih-yakit-35","kind":"poi","name":"Prio","theme":"yakit","lab":1},"geometry":{"type":"Point","coordinates":[-9.13748,38.72889]}},{"type":"Feature","properties":{"id":"ih-yakit-36","kind":"poi","name":"Galp","theme":"yakit","lab":1},"geometry":{"type":"Point","coordinates":[-9.1652,38.71934]}},{"type":"Feature","properties":{"id":"ih-yakit-37","kind":"poi","name":"BP","theme":"yakit","lab":1},"geometry":{"type":"Point","coordinates":[-9.12538,38.76926]}},{"type":"Feature","properties":{"id":"ih-yakit-38","kind":"poi","name":"Galp","theme":"yakit","lab":1},"geometry":{"type":"Point","coordinates":[-9.21893,38.72223]}},{"type":"Feature","properties":{"id":"ih-yakit-39","kind":"poi","name":"Repsol","theme":"yakit","lab":1},"geometry":{"type":"Point","coordinates":[-9.22454,38.70867]}},{"type":"Feature","properties":{"id":"ih-yakit-40","kind":"poi","name":"Repsol","theme":"yakit","lab":1},"geometry":{"type":"Point","coordinates":[-9.11838,38.74159]}},{"type":"Feature","properties":{"id":"ih-yakit-41","kind":"poi","name":"Galp","theme":"yakit","lab":1},"geometry":{"type":"Point","coordinates":[-9.12397,38.77973]}},{"type":"Feature","properties":{"id":"ih-yakit-42","kind":"poi","name":"Galp","theme":"yakit","lab":1},"geometry":{"type":"Point","coordinates":[-9.22366,38.73333]}},{"type":"Feature","properties":{"id":"ih-yakit-43","kind":"poi","name":"Cepsa","theme":"yakit","lab":1},"geometry":{"type":"Point","coordinates":[-9.1187,38.75518]}},{"type":"Feature","properties":{"id":"ih-yakit-44","kind":"poi","name":"BP","theme":"yakit","lab":1},"geometry":{"type":"Point","coordinates":[-9.13176,38.74396]}},{"type":"Feature","properties":{"id":"ih-yakit-45","kind":"poi","name":"Repsol","theme":"yakit","lab":1},"geometry":{"type":"Point","coordinates":[-9.15916,38.75796]}},{"type":"Feature","properties":{"id":"ih-yakit-46","kind":"poi","name":"Galp","theme":"yakit","lab":1},"geometry":{"type":"Point","coordinates":[-9.13017,38.74908]}},{"type":"Feature","properties":{"id":"ih-yakit-47","kind":"poi","name":"BP","theme":"yakit","lab":1},"geometry":{"type":"Point","coordinates":[-9.23005,38.77703]}},{"type":"Feature","properties":{"id":"ih-yakit-48","kind":"poi","name":"Galp","theme":"yakit","lab":1},"geometry":{"type":"Point","coordinates":[-9.17084,38.76766]}},{"type":"Feature","properties":{"id":"ih-yakit-49","kind":"poi","name":"Galp","theme":"yakit","lab":1},"geometry":{"type":"Point","coordinates":[-9.20431,38.71051]}},{"type":"Feature","properties":{"id":"ih-yakit-50","kind":"poi","name":"Galp","theme":"yakit","lab":1},"geometry":{"type":"Point","coordinates":[-9.21766,38.69382]}},{"type":"Feature","properties":{"id":"ih-yakit-51","kind":"poi","name":"Galp","theme":"yakit","lab":1},"geometry":{"type":"Point","coordinates":[-9.22936,38.75805]}},{"type":"Feature","properties":{"id":"ih-yakit-52","kind":"poi","name":"Galp","theme":"yakit","lab":1},"geometry":{"type":"Point","coordinates":[-9.12137,38.72262]}},{"type":"Feature","properties":{"id":"ih-yakit-53","kind":"poi","name":"Galp","theme":"yakit","lab":1},"geometry":{"type":"Point","coordinates":[-9.19917,38.75552]}},{"type":"Feature","properties":{"id":"ih-yakit-54","kind":"poi","name":"Galp","theme":"yakit","lab":1},"geometry":{"type":"Point","coordinates":[-9.20152,38.77804]}},{"type":"Feature","properties":{"id":"ih-kiralik-arac-0","kind":"poi","name":"Europcar","theme":"kiralik-arac","lab":1},"geometry":{"type":"Point","coordinates":[-9.14933,38.72918]}},{"type":"Feature","properties":{"id":"ih-kiralik-arac-1","kind":"poi","name":"Budget","theme":"kiralik-arac","lab":1},"geometry":{"type":"Point","coordinates":[-9.14233,38.73426]}},{"type":"Feature","properties":{"id":"ih-kiralik-arac-2","kind":"poi","name":"Sixt","theme":"kiralik-arac","lab":1},"geometry":{"type":"Point","coordinates":[-9.1286,38.76877]}},{"type":"Feature","properties":{"id":"ih-kiralik-arac-3","kind":"poi","name":"Ayvens","theme":"kiralik-arac","lab":1},"geometry":{"type":"Point","coordinates":[-9.09641,38.77305]}},{"type":"Feature","properties":{"id":"ih-kiralik-arac-4","kind":"poi","name":"Europcar","theme":"kiralik-arac","lab":1},"geometry":{"type":"Point","coordinates":[-9.14749,38.72055]}},{"type":"Feature","properties":{"id":"ih-kiralik-arac-5","kind":"poi","name":"Avis","theme":"kiralik-arac","lab":1},"geometry":{"type":"Point","coordinates":[-9.13672,38.71496]}},{"type":"Feature","properties":{"id":"ih-kiralik-arac-6","kind":"poi","name":"SIXT","theme":"kiralik-arac","lab":1},"geometry":{"type":"Point","coordinates":[-9.10212,38.76054]}},{"type":"Feature","properties":{"id":"ih-kiralik-arac-7","kind":"poi","name":"Centauro Rent a Car Lisboa Aeroporto","theme":"kiralik-arac","lab":1},"geometry":{"type":"Point","coordinates":[-9.10782,38.76704]}},{"type":"Feature","properties":{"id":"ih-kiralik-arac-8","kind":"poi","name":"Interrent","theme":"kiralik-arac","lab":1},"geometry":{"type":"Point","coordinates":[-9.1233,38.71377]}},{"type":"Feature","properties":{"id":"ih-kiralik-arac-9","kind":"poi","name":"MotoXplorers","theme":"kiralik-arac","lab":1},"geometry":{"type":"Point","coordinates":[-9.15355,38.7471]}},{"type":"Feature","properties":{"id":"ih-kiralik-arac-10","kind":"poi","name":"Olivauto","theme":"kiralik-arac","lab":1},"geometry":{"type":"Point","coordinates":[-9.13889,38.74521]}},{"type":"Feature","properties":{"id":"ih-kiralik-arac-11","kind":"poi","name":"Natividade Car","theme":"kiralik-arac","lab":1},"geometry":{"type":"Point","coordinates":[-9.22058,38.74662]}},{"type":"Feature","properties":{"id":"ih-kiralik-arac-12","kind":"poi","name":"Luxrent","theme":"kiralik-arac","lab":1},"geometry":{"type":"Point","coordinates":[-9.1347,38.74359]}},{"type":"Feature","properties":{"id":"ih-kiralik-arac-13","kind":"poi","name":"Limousines.pt","theme":"kiralik-arac","lab":1},"geometry":{"type":"Point","coordinates":[-9.16197,38.70902]}},{"type":"Feature","properties":{"id":"ih-kiralik-arac-14","kind":"poi","name":"Espaço Automóvel","theme":"kiralik-arac","lab":1},"geometry":{"type":"Point","coordinates":[-9.2084,38.75109]}},{"type":"Feature","properties":{"id":"ih-kiralik-arac-15","kind":"poi","name":"MOVYNG - Car and Van Rental","theme":"kiralik-arac","lab":1},"geometry":{"type":"Point","coordinates":[-9.19759,38.74804]}},{"type":"Feature","properties":{"id":"ih-kiralik-arac-16","kind":"poi","name":"DRIVALIA Lisboa - Benfica","theme":"kiralik-arac","lab":1},"geometry":{"type":"Point","coordinates":[-9.19802,38.7465]}},{"type":"Feature","properties":{"id":"ih-kutuphane-0","kind":"poi","name":"Biblioteca Municipal Orlando Ribeiro","theme":"kutuphane","lab":1},"geometry":{"type":"Point","coordinates":[-9.16931,38.75979]}},{"type":"Feature","properties":{"id":"ih-kutuphane-1","kind":"poi","name":"Biblioteca Camões","theme":"kutuphane","lab":1},"geometry":{"type":"Point","coordinates":[-9.14604,38.7108]}},{"type":"Feature","properties":{"id":"ih-kutuphane-2","kind":"poi","name":"Biblioteca dos Olivais","theme":"kutuphane","lab":1},"geometry":{"type":"Point","coordinates":[-9.11323,38.76356]}},{"type":"Feature","properties":{"id":"ih-kutuphane-3","kind":"poi","name":"Arquivo Histórico da Marinha","theme":"kutuphane","lab":1},"geometry":{"type":"Point","coordinates":[-9.19005,38.69779]}},{"type":"Feature","properties":{"id":"ih-kutuphane-4","kind":"poi","name":"Biblioteca Passos Manuel","theme":"kutuphane","lab":1},"geometry":{"type":"Point","coordinates":[-9.15385,38.71314]}},{"type":"Feature","properties":{"id":"ih-kutuphane-5","kind":"poi","name":"Biblioteca do Exército","theme":"kutuphane","lab":1},"geometry":{"type":"Point","coordinates":[-9.12677,38.71377]}},{"type":"Feature","properties":{"id":"ih-kutuphane-6","kind":"poi","name":"Hemeroteca Municipal de Lisboa","theme":"kutuphane","lab":1},"geometry":{"type":"Point","coordinates":[-9.17259,38.75482]}},{"type":"Feature","properties":{"id":"ih-kutuphane-7","kind":"poi","name":"Arquivo Nacional da Torre do Tombo","theme":"kutuphane","lab":1},"geometry":{"type":"Point","coordinates":[-9.15644,38.75464]}},{"type":"Feature","properties":{"id":"ih-kutuphane-8","kind":"poi","name":"Palácio Galveias","theme":"kutuphane","lab":1},"geometry":{"type":"Point","coordinates":[-9.14365,38.74146]}},{"type":"Feature","properties":{"id":"ih-kutuphane-9","kind":"poi","name":"Arquivo Municipal Fotográfico","theme":"kutuphane","lab":1},"geometry":{"type":"Point","coordinates":[-9.13555,38.71817]}},{"type":"Feature","properties":{"id":"ih-kutuphane-10","kind":"poi","name":"Casa do Jardim da Estrela","theme":"kutuphane","lab":1},"geometry":{"type":"Point","coordinates":[-9.16017,38.71509]}},{"type":"Feature","properties":{"id":"ih-kutuphane-11","kind":"poi","name":"Biblioteca da Penha de França","theme":"kutuphane","lab":1},"geometry":{"type":"Point","coordinates":[-9.12543,38.72734]}},{"type":"Feature","properties":{"id":"ih-kutuphane-12","kind":"poi","name":"Arquivo Diplomático e Biblioteca","theme":"kutuphane","lab":1},"geometry":{"type":"Point","coordinates":[-9.17101,38.70668]}},{"type":"Feature","properties":{"id":"ih-kutuphane-13","kind":"poi","name":"RDA 49","theme":"kutuphane","lab":1},"geometry":{"type":"Point","coordinates":[-9.13599,38.72562]}},{"type":"Feature","properties":{"id":"ih-kutuphane-14","kind":"poi","name":"Biblioteca de Arte Gulbenkian","theme":"kutuphane","lab":1},"geometry":{"type":"Point","coordinates":[-9.1533,38.73753]}},{"type":"Feature","properties":{"id":"ih-kutuphane-15","kind":"poi","name":"Biblioteca da Junta de Freguesia","theme":"kutuphane","lab":1},"geometry":{"type":"Point","coordinates":[-9.20681,38.70562]}},{"type":"Feature","properties":{"id":"ih-kutuphane-16","kind":"poi","name":"Sala de Leitura Clodomiro Alvarenga","theme":"kutuphane","lab":1},"geometry":{"type":"Point","coordinates":[-9.13267,38.72163]}},{"type":"Feature","properties":{"id":"ih-kutuphane-17","kind":"poi","name":"Biblioteca","theme":"kutuphane","lab":1},"geometry":{"type":"Point","coordinates":[-9.18392,38.70847]}},{"type":"Feature","properties":{"id":"ih-kutuphane-18","kind":"poi","name":"Biblioteca de Marvila","theme":"kutuphane","lab":1},"geometry":{"type":"Point","coordinates":[-9.10915,38.74026]}},{"type":"Feature","properties":{"id":"ih-kutuphane-19","kind":"poi","name":"Papelaria Bonifácio","theme":"kutuphane","lab":1},"geometry":{"type":"Point","coordinates":[-9.2131,38.76826]}},{"type":"Feature","properties":{"id":"ih-kutuphane-20","kind":"poi","name":"Mediateca","theme":"kutuphane","lab":1},"geometry":{"type":"Point","coordinates":[-9.19205,38.69848]}},{"type":"Feature","properties":{"id":"ih-kutuphane-21","kind":"poi","name":"Biblioteca do Museu Nacional de Arqueologia","theme":"kutuphane","lab":1},"geometry":{"type":"Point","coordinates":[-9.20715,38.69753]}},{"type":"Feature","properties":{"id":"ih-kutuphane-22","kind":"poi","name":"Biblioteca David Mourão-Ferreira","theme":"kutuphane","lab":1},"geometry":{"type":"Point","coordinates":[-9.10424,38.77241]}},{"type":"Feature","properties":{"id":"ih-kutuphane-23","kind":"poi","name":"Biblioteca Maria Keil","theme":"kutuphane","lab":1},"geometry":{"type":"Point","coordinates":[-9.15222,38.777]}},{"type":"Feature","properties":{"id":"ih-kutuphane-24","kind":"poi","name":"Cartoteca do Centro de Informação Geoespacial do Exército","theme":"kutuphane","lab":1},"geometry":{"type":"Point","coordinates":[-9.11387,38.77835]}},{"type":"Feature","properties":{"id":"ih-kutuphane-25","kind":"poi","name":"Biblioteca do Instituto Geofísico Infante Dom Luiz","theme":"kutuphane","lab":1},"geometry":{"type":"Point","coordinates":[-9.15126,38.71833]}},{"type":"Feature","properties":{"id":"ih-kutuphane-26","kind":"poi","name":"Biblioteca","theme":"kutuphane","lab":1},"geometry":{"type":"Point","coordinates":[-9.11604,38.75622]}},{"type":"Feature","properties":{"id":"ih-kutuphane-27","kind":"poi","name":"Biblioteca da Academia Portuguesa de História","theme":"kutuphane","lab":1},"geometry":{"type":"Point","coordinates":[-9.15965,38.77044]}},{"type":"Feature","properties":{"id":"ih-kutuphane-28","kind":"poi","name":"Biblioteca Almada Negreiros - NOVA IMS / FCSH","theme":"kutuphane","lab":1},"geometry":{"type":"Point","coordinates":[-9.16044,38.73265]}},{"type":"Feature","properties":{"id":"ih-kutuphane-29","kind":"poi","name":"Biblioteca Central do INETI","theme":"kutuphane","lab":1},"geometry":{"type":"Point","coordinates":[-9.17656,38.77262]}},{"type":"Feature","properties":{"id":"ih-kutuphane-30","kind":"poi","name":"Biblioteca Chaves Caminha","theme":"kutuphane","lab":1},"geometry":{"type":"Point","coordinates":[-9.13783,38.75298]}},{"type":"Feature","properties":{"id":"ih-kutuphane-31","kind":"poi","name":"Centro de Documentação e Informação das Relações Públicas do Ministério da Cultura","theme":"kutuphane","lab":1},"geometry":{"type":"Point","coordinates":[-9.19773,38.7077]}},{"type":"Feature","properties":{"id":"ih-kutuphane-32","kind":"poi","name":"Biblioteca Municipal D. Dinis - Polo da Pontinha","theme":"kutuphane","lab":1},"geometry":{"type":"Point","coordinates":[-9.20107,38.76784]}},{"type":"Feature","properties":{"id":"ih-kutuphane-33","kind":"poi","name":"Biblioteca Natália Correia","theme":"kutuphane","lab":1},"geometry":{"type":"Point","coordinates":[-9.19144,38.76977]}},{"type":"Feature","properties":{"id":"ih-kutuphane-34","kind":"poi","name":"Biblioteca dos Operários e empregados","theme":"kutuphane","lab":1},"geometry":{"type":"Point","coordinates":[-9.15893,38.70613]}},{"type":"Feature","properties":{"id":"ih-kutuphane-35","kind":"poi","name":"Biblioteca António Mega Ferreira","theme":"kutuphane","lab":1},"geometry":{"type":"Point","coordinates":[-9.09545,38.76692]}},{"type":"Feature","properties":{"id":"ih-kutuphane-36","kind":"poi","name":"Biblioteca FLUL","theme":"kutuphane","lab":1},"geometry":{"type":"Point","coordinates":[-9.15796,38.75474]}},{"type":"Feature","properties":{"id":"ih-kutuphane-37","kind":"poi","name":"Biblioteca de Benfica","theme":"kutuphane","lab":1},"geometry":{"type":"Point","coordinates":[-9.20071,38.75029]}},{"type":"Feature","properties":{"id":"ih-kutuphane-38","kind":"poi","name":"Arquivo Municipal de Lisboa","theme":"kutuphane","lab":1},"geometry":{"type":"Point","coordinates":[-9.17146,38.73564]}},{"type":"Feature","properties":{"id":"ih-muze-0","kind":"poi","name":"Museu de Arte Contemporânea MAC/CCB","theme":"muze","lab":1},"geometry":{"type":"Point","coordinates":[-9.20931,38.69565]}},{"type":"Feature","properties":{"id":"ih-muze-1","kind":"poi","name":"Museu Geológico","theme":"muze","lab":1},"geometry":{"type":"Point","coordinates":[-9.14975,38.71311]}},{"type":"Feature","properties":{"id":"ih-muze-2","kind":"poi","name":"Museu do Aljube - Resistência e Liberdade","theme":"muze","lab":1},"geometry":{"type":"Point","coordinates":[-9.13255,38.71018]}},{"type":"Feature","properties":{"id":"ih-muze-3","kind":"poi","name":"Museu Arpad Szenes - Vieira da Silva","theme":"muze","lab":1},"geometry":{"type":"Point","coordinates":[-9.15577,38.72224]}},{"type":"Feature","properties":{"id":"ih-muze-4","kind":"poi","name":"Museu João de Deus","theme":"muze","lab":1},"geometry":{"type":"Point","coordinates":[-9.1583,38.71585]}},{"type":"Feature","properties":{"id":"ih-muze-5","kind":"poi","name":"Museu Bordalo Pinheiro","theme":"muze","lab":1},"geometry":{"type":"Point","coordinates":[-9.15415,38.7589]}},{"type":"Feature","properties":{"id":"ih-muze-6","kind":"poi","name":"Museu do Centro Científico e Cultural de Macau","theme":"muze","lab":1},"geometry":{"type":"Point","coordinates":[-9.18244,38.70085]}},{"type":"Feature","properties":{"id":"ih-muze-7","kind":"poi","name":"Museu do Dinheiro","theme":"muze","lab":1},"geometry":{"type":"Point","coordinates":[-9.13879,38.70862]}},{"type":"Feature","properties":{"id":"ih-muze-8","kind":"poi","name":"Museu Nacional do Desporto","theme":"muze","lab":1},"geometry":{"type":"Point","coordinates":[-9.14217,38.71556]}},{"type":"Feature","properties":{"id":"ih-muze-9","kind":"poi","name":"MAAT - A Fábrica da Eletricidade","theme":"muze","lab":1},"geometry":{"type":"Point","coordinates":[-9.1954,38.69574]}},{"type":"Feature","properties":{"id":"ih-muze-10","kind":"poi","name":"Centro Interpretativo do Parque das Nações","theme":"muze","lab":1},"geometry":{"type":"Point","coordinates":[-9.09503,38.76673]}},{"type":"Feature","properties":{"id":"ih-muze-11","kind":"poi","name":"Aqueduto das Águas Livres","theme":"muze","lab":1},"geometry":{"type":"Point","coordinates":[-9.1663,38.72657]}},{"type":"Feature","properties":{"id":"ih-muze-12","kind":"poi","name":"Museu Militar de Lisboa","theme":"muze","lab":1},"geometry":{"type":"Point","coordinates":[-9.12429,38.71305]}},{"type":"Feature","properties":{"id":"ih-muze-13","kind":"poi","name":"Museu Miguel Bombarda","theme":"muze","lab":1},"geometry":{"type":"Point","coordinates":[-9.1421,38.72552]}},{"type":"Feature","properties":{"id":"ih-muze-14","kind":"poi","name":"Museu Nacional de Arte Antiga","theme":"muze","lab":1},"geometry":{"type":"Point","coordinates":[-9.16145,38.70478]}},{"type":"Feature","properties":{"id":"ih-muze-15","kind":"poi","name":"Museu do Oriente","theme":"muze","lab":1},"geometry":{"type":"Point","coordinates":[-9.17056,38.7029]}},{"type":"Feature","properties":{"id":"ih-muze-16","kind":"poi","name":"Museu Nacional de Etnologia","theme":"muze","lab":1},"geometry":{"type":"Point","coordinates":[-9.20845,38.70483]}},{"type":"Feature","properties":{"id":"ih-muze-17","kind":"poi","name":"Museu Calouste Gulbenkian - Centro de Arte Moderna","theme":"muze","lab":1},"geometry":{"type":"Point","coordinates":[-9.15367,38.73594]}},{"type":"Feature","properties":{"id":"ih-muze-18","kind":"poi","name":"Museu da Água","theme":"muze","lab":1},"geometry":{"type":"Point","coordinates":[-9.11966,38.72008]}},{"type":"Feature","properties":{"id":"ih-muze-19","kind":"poi","name":"Pavilhão Julião Sarmento","theme":"muze","lab":1},"geometry":{"type":"Point","coordinates":[-9.2125,38.69426]}},{"type":"Feature","properties":{"id":"ih-muze-20","kind":"poi","name":"Museu Cosme Damião","theme":"muze","lab":1},"geometry":{"type":"Point","coordinates":[-9.18402,38.7515]}},{"type":"Feature","properties":{"id":"ih-muze-21","kind":"poi","name":"Observatório Astronómico de Lisboa","theme":"muze","lab":1},"geometry":{"type":"Point","coordinates":[-9.18743,38.71052]}},{"type":"Feature","properties":{"id":"ih-muze-22","kind":"poi","name":"Museu Calouste Gulbenkian","theme":"muze","lab":1},"geometry":{"type":"Point","coordinates":[-9.15351,38.73781]}},{"type":"Feature","properties":{"id":"ih-muze-23","kind":"poi","name":"Museu do Campo Pequeno","theme":"muze","lab":1},"geometry":{"type":"Point","coordinates":[-9.14523,38.7424]}},{"type":"Feature","properties":{"id":"ih-muze-24","kind":"poi","name":"Museu de São Vicente de Fora","theme":"muze","lab":1},"geometry":{"type":"Point","coordinates":[-9.12788,38.71482]}},{"type":"Feature","properties":{"id":"ih-muze-25","kind":"poi","name":"Museu de Lisboa - Palácio Pimenta","theme":"muze","lab":1},"geometry":{"type":"Point","coordinates":[-9.15707,38.75817]}},{"type":"Feature","properties":{"id":"ih-muze-26","kind":"poi","name":"Biblioteca Museu República e Resistência - Fórum Grandela","theme":"muze","lab":1},"geometry":{"type":"Point","coordinates":[-9.18388,38.74651]}},{"type":"Feature","properties":{"id":"ih-muze-27","kind":"poi","name":"B-MAD (Berardo - Museum Art Deco)","theme":"muze","lab":1},"geometry":{"type":"Point","coordinates":[-9.17928,38.70385]}},{"type":"Feature","properties":{"id":"ih-muze-28","kind":"poi","name":"Museu do Tesouro Real","theme":"muze","lab":1},"geometry":{"type":"Point","coordinates":[-9.19879,38.70761]}},{"type":"Feature","properties":{"id":"ih-muze-29","kind":"poi","name":"Museu dos Combatentes do Ultramar","theme":"muze","lab":1},"geometry":{"type":"Point","coordinates":[-9.2175,38.6922]}},{"type":"Feature","properties":{"id":"ih-muze-30","kind":"poi","name":"Museu Nacional do Traje e da Moda","theme":"muze","lab":1},"geometry":{"type":"Point","coordinates":[-9.16481,38.77515]}},{"type":"Feature","properties":{"id":"ih-muze-31","kind":"poi","name":"Coleção Museológica de Rádio e de Televisão","theme":"muze","lab":1},"geometry":{"type":"Point","coordinates":[-9.11801,38.75883]}},{"type":"Feature","properties":{"id":"ih-muze-32","kind":"poi","name":"Ah Amália Living Experience","theme":"muze","lab":1},"geometry":{"type":"Point","coordinates":[-9.10217,38.74189]}},{"type":"Feature","properties":{"id":"ih-muze-33","kind":"poi","name":"Fórum Luís de Camões","theme":"muze","lab":1},"geometry":{"type":"Point","coordinates":[-9.21373,38.7648]}},{"type":"Feature","properties":{"id":"ih-muze-34","kind":"poi","name":"Posto de Comando do MFA","theme":"muze","lab":1},"geometry":{"type":"Point","coordinates":[-9.19649,38.76728]}},{"type":"Feature","properties":{"id":"ih-muze-35","kind":"poi","name":"Núcleo Museológico da Manutenção Militar - EGEAC","theme":"muze","lab":1},"geometry":{"type":"Point","coordinates":[-9.10664,38.73109]}},{"type":"Feature","properties":{"id":"ih-hastane-0","kind":"poi","name":"Hospital Júlio de Matos","theme":"hastane","lab":1},"geometry":{"type":"Point","coordinates":[-9.1461,38.75705]}},{"type":"Feature","properties":{"id":"ih-hastane-1","kind":"poi","name":"Hospital Pulido Valente","theme":"hastane","lab":1},"geometry":{"type":"Point","coordinates":[-9.16051,38.76514]}},{"type":"Feature","properties":{"id":"ih-hastane-2","kind":"poi","name":"Hospital Santa Maria","theme":"hastane","lab":1},"geometry":{"type":"Point","coordinates":[-9.16096,38.74787]}},{"type":"Feature","properties":{"id":"ih-hastane-3","kind":"poi","name":"Hospital de Santo António dos Capuchos","theme":"hastane","lab":1},"geometry":{"type":"Point","coordinates":[-9.14243,38.7222]}},{"type":"Feature","properties":{"id":"ih-hastane-4","kind":"poi","name":"Hospital Dona Estefânia","theme":"hastane","lab":1},"geometry":{"type":"Point","coordinates":[-9.13907,38.72875]}},{"type":"Feature","properties":{"id":"ih-hastane-5","kind":"poi","name":"Hospital São Francisco Xavier","theme":"hastane","lab":1},"geometry":{"type":"Point","coordinates":[-9.2177,38.7074]}},{"type":"Feature","properties":{"id":"ih-hastane-6","kind":"poi","name":"Hospital Curry Cabral","theme":"hastane","lab":1},"geometry":{"type":"Point","coordinates":[-9.1521,38.74103]}},{"type":"Feature","properties":{"id":"ih-hastane-7","kind":"poi","name":"Instituto Português Oncologia de Lisboa Francisco Gentil","theme":"hastane","lab":1},"geometry":{"type":"Point","coordinates":[-9.16191,38.7396]}},{"type":"Feature","properties":{"id":"ih-hastane-8","kind":"poi","name":"Hospital Saint Louis","theme":"hastane","lab":1},"geometry":{"type":"Point","coordinates":[-9.14573,38.71362]}},{"type":"Feature","properties":{"id":"ih-hastane-9","kind":"poi","name":"Maternidade Doutor Alfredo da Costa","theme":"hastane","lab":1},"geometry":{"type":"Point","coordinates":[-9.14745,38.73263]}},{"type":"Feature","properties":{"id":"ih-hastane-10","kind":"poi","name":"Hospital CUF Tejo","theme":"hastane","lab":1},"geometry":{"type":"Point","coordinates":[-9.17315,38.70347]}},{"type":"Feature","properties":{"id":"ih-hastane-11","kind":"poi","name":"Hospital da Luz Lisboa","theme":"hastane","lab":1},"geometry":{"type":"Point","coordinates":[-9.19244,38.75616]}},{"type":"Feature","properties":{"id":"ih-hastane-12","kind":"poi","name":"Hospital de Egas Moniz","theme":"hastane","lab":1},"geometry":{"type":"Point","coordinates":[-9.18803,38.69953]}},{"type":"Feature","properties":{"id":"ih-hastane-13","kind":"poi","name":"Hospital da Luz Torres de Lisboa","theme":"hastane","lab":1},"geometry":{"type":"Point","coordinates":[-9.17529,38.75672]}},{"type":"Feature","properties":{"id":"ih-hastane-14","kind":"poi","name":"Hospital Cruz Vermelha","theme":"hastane","lab":1},"geometry":{"type":"Point","coordinates":[-9.1751,38.74621]}},{"type":"Feature","properties":{"id":"ih-hastane-15","kind":"poi","name":"Hospital das Forças Armadas – Polo de Lisboa","theme":"hastane","lab":1},"geometry":{"type":"Point","coordinates":[-9.17517,38.76721]}},{"type":"Feature","properties":{"id":"ih-hastane-16","kind":"poi","name":"Centro Clínico de Lisboa do SAMS","theme":"hastane","lab":1},"geometry":{"type":"Point","coordinates":[-9.15808,38.73424]}},{"type":"Feature","properties":{"id":"ih-hastane-17","kind":"poi","name":"Hospital CUF Descobertas","theme":"hastane","lab":1},"geometry":{"type":"Point","coordinates":[-9.099,38.75805]}},{"type":"Feature","properties":{"id":"ih-hastane-18","kind":"poi","name":"Análises Clínicas Affidea Laboratórios - Olivais Norte","theme":"hastane","lab":1},"geometry":{"type":"Point","coordinates":[-9.11332,38.77514]}},{"type":"Feature","properties":{"id":"ih-hastane-19","kind":"poi","name":"Cellulem Block","theme":"hastane","lab":1},"geometry":{"type":"Point","coordinates":[-9.09682,38.76405]}},{"type":"Feature","properties":{"id":"ih-hastane-20","kind":"poi","name":"Cuf Infante Santo","theme":"hastane","lab":1},"geometry":{"type":"Point","coordinates":[-9.16753,38.70632]}},{"type":"Feature","properties":{"id":"ih-hastane-21","kind":"poi","name":"Parque de Saúde de Lisboa","theme":"hastane","lab":1},"geometry":{"type":"Point","coordinates":[-9.14665,38.7585]}},{"type":"Feature","properties":{"id":"ih-hastane-22","kind":"poi","name":"Fundação Dona Anna de Sommer Champalimaud e Doutor Carlos Montez Champalimaud","theme":"hastane","lab":1},"geometry":{"type":"Point","coordinates":[-9.22225,38.69336]}},{"type":"Feature","properties":{"id":"ih-hastane-23","kind":"poi","name":"Hospital do SAMS","theme":"hastane","lab":1},"geometry":{"type":"Point","coordinates":[-9.11467,38.76819]}},{"type":"Feature","properties":{"id":"ih-hastane-24","kind":"poi","name":"Hospital de Jesus","theme":"hastane","lab":1},"geometry":{"type":"Point","coordinates":[-9.15092,38.71259]}},{"type":"Feature","properties":{"id":"ih-hastane-25","kind":"poi","name":"Hospital Lusíadas Alfragide","theme":"hastane","lab":1},"geometry":{"type":"Point","coordinates":[-9.23038,38.74243]}},{"type":"Feature","properties":{"id":"ih-hastane-26","kind":"poi","name":"Trofa Saúde","theme":"hastane","lab":1},"geometry":{"type":"Point","coordinates":[-9.21906,38.77542]}}]}