{"type":"FeatureCollection","features":[{"type":"Feature","properties":{"id":"ke-tarihi-0","kind":"poi","name":"Pastéis de Belém","theme":"tarihi","lab":1},"geometry":{"type":"Point","coordinates":[-9.20332,38.69748]}},{"type":"Feature","properties":{"id":"ke-tarihi-1","kind":"poi","name":"Primeira Travessia Aérea do Atlântico Sul","theme":"tarihi","lab":1},"geometry":{"type":"Point","coordinates":[-9.21394,38.69221]}},{"type":"Feature","properties":{"id":"ke-tarihi-2","kind":"poi","name":"Pelourinho de Lisboa","theme":"tarihi","lab":1},"geometry":{"type":"Point","coordinates":[-9.1392,38.70804]}},{"type":"Feature","properties":{"id":"ke-tarihi-3","kind":"poi","name":"Arco do Rosário","theme":"tarihi","lab":1},"geometry":{"type":"Point","coordinates":[-9.12936,38.71006]}},{"type":"Feature","properties":{"id":"ke-tarihi-4","kind":"poi","name":"Lisboa - Aos Construtores da Cidade","theme":"tarihi","lab":1},"geometry":{"type":"Point","coordinates":[-9.09881,38.74352]}},{"type":"Feature","properties":{"id":"ke-tarihi-5","kind":"poi","name":"Igreja de Santo António","theme":"tarihi","lab":1},"geometry":{"type":"Point","coordinates":[-9.10233,38.77926]}},{"type":"Feature","properties":{"id":"ke-tarihi-6","kind":"poi","name":"Oliveira Martins","theme":"tarihi","lab":1},"geometry":{"type":"Point","coordinates":[-9.14798,38.72328]}},{"type":"Feature","properties":{"id":"ke-tarihi-7","kind":"poi","name":"Bartolomeu de Gusmão","theme":"tarihi","lab":1},"geometry":{"type":"Point","coordinates":[-9.12964,38.76846]}},{"type":"Feature","properties":{"id":"ke-tarihi-8","kind":"poi","name":"Calouste Gulbenkian","theme":"tarihi","lab":1},"geometry":{"type":"Point","coordinates":[-9.15581,38.73731]}},{"type":"Feature","properties":{"id":"ke-tarihi-9","kind":"poi","name":"Santo António","theme":"tarihi","lab":1},"geometry":{"type":"Point","coordinates":[-9.14398,38.75311]}},{"type":"Feature","properties":{"id":"ke-tarihi-10","kind":"poi","name":"José Pinto Peixoto","theme":"tarihi","lab":1},"geometry":{"type":"Point","coordinates":[-9.1557,38.75724]}},{"type":"Feature","properties":{"id":"ke-tarihi-11","kind":"poi","name":"Padrão do Campo Pequeno","theme":"tarihi","lab":1},"geometry":{"type":"Point","coordinates":[-9.14203,38.74006]}},{"type":"Feature","properties":{"id":"ke-tarihi-12","kind":"poi","name":"Dragoeiro","theme":"tarihi","lab":1},"geometry":{"type":"Point","coordinates":[-9.10935,38.77191]}},{"type":"Feature","properties":{"id":"ke-tarihi-13","kind":"poi","name":"Ginkgo","theme":"tarihi","lab":1},"geometry":{"type":"Point","coordinates":[-9.12746,38.73078]}},{"type":"Feature","properties":{"id":"ke-tarihi-14","kind":"poi","name":"Bela-sombra","theme":"tarihi","lab":1},"geometry":{"type":"Point","coordinates":[-9.21624,38.69877]}},{"type":"Feature","properties":{"id":"ke-tarihi-15","kind":"poi","name":"Tipuana","theme":"tarihi","lab":1},"geometry":{"type":"Point","coordinates":[-9.15456,38.7069]}},{"type":"Feature","properties":{"id":"ke-tarihi-16","kind":"poi","name":"Tipuana","theme":"tarihi","lab":1},"geometry":{"type":"Point","coordinates":[-9.16256,38.70458]}},{"type":"Feature","properties":{"id":"ke-tarihi-17","kind":"poi","name":"Bela-sombra","theme":"tarihi","lab":1},"geometry":{"type":"Point","coordinates":[-9.13427,38.72463]}},{"type":"Feature","properties":{"id":"ke-tarihi-18","kind":"poi","name":"Forte de Santa Apolónia","theme":"tarihi","lab":1},"geometry":{"type":"Point","coordinates":[-9.11677,38.72353]}},{"type":"Feature","properties":{"id":"ke-tarihi-19","kind":"poi","name":"Mártires da Pátria (Março de 1994)","theme":"tarihi","lab":1},"geometry":{"type":"Point","coordinates":[-9.14029,38.72107]}},{"type":"Feature","properties":{"id":"ke-tarihi-20","kind":"poi","name":"Árvore-da-Borracha-Australiana","theme":"tarihi","lab":1},"geometry":{"type":"Point","coordinates":[-9.10743,38.73692]}},{"type":"Feature","properties":{"id":"ke-tarihi-21","kind":"poi","name":"Espaço Entre a Palavra e a Cor","theme":"tarihi","lab":1},"geometry":{"type":"Point","coordinates":[-9.19928,38.6957]}},{"type":"Feature","properties":{"id":"ke-tarihi-22","kind":"poi","name":"Teleférico do Parque das Nações","theme":"tarihi","lab":1},"geometry":{"type":"Point","coordinates":[-9.09186,38.7679]}},{"type":"Feature","properties":{"id":"ke-tarihi-23","kind":"poi","name":"Teleférico do Jardim Zoológico de Lisboa","theme":"tarihi","lab":1},"geometry":{"type":"Point","coordinates":[-9.17047,38.74457]}},{"type":"Feature","properties":{"id":"ke-tarihi-24","kind":"poi","name":"Igreja de Santa Isabel","theme":"tarihi","lab":1},"geometry":{"type":"Point","coordinates":[-9.1586,38.7186]}},{"type":"Feature","properties":{"id":"ke-tarihi-25","kind":"poi","name":"Palácio Sotto Mayor","theme":"tarihi","lab":1},"geometry":{"type":"Point","coordinates":[-9.14723,38.72855]}},{"type":"Feature","properties":{"id":"ke-tarihi-26","kind":"poi","name":"Clube Militar Naval","theme":"tarihi","lab":1},"geometry":{"type":"Point","coordinates":[-9.143,38.73475]}},{"type":"Feature","properties":{"id":"ke-tarihi-27","kind":"poi","name":"Igreja São João Baptista","theme":"tarihi","lab":1},"geometry":{"type":"Point","coordinates":[-9.16497,38.77459]}},{"type":"Feature","properties":{"id":"ke-tarihi-28","kind":"poi","name":"Igreja de São Lourenço","theme":"tarihi","lab":1},"geometry":{"type":"Point","coordinates":[-9.19076,38.7603]}},{"type":"Feature","properties":{"id":"ke-tarihi-29","kind":"poi","name":"Palácio Fronteira","theme":"tarihi","lab":1},"geometry":{"type":"Point","coordinates":[-9.18045,38.73997]}},{"type":"Feature","properties":{"id":"ke-tarihi-30","kind":"poi","name":"Igreja de Santo Eugénio","theme":"tarihi","lab":1},"geometry":{"type":"Point","coordinates":[-9.1172,38.77374]}},{"type":"Feature","properties":{"id":"ke-tarihi-31","kind":"poi","name":"Igreja de Nossa Senhora do Amparo","theme":"tarihi","lab":1},"geometry":{"type":"Point","coordinates":[-9.20206,38.75123]}},{"type":"Feature","properties":{"id":"ke-tarihi-32","kind":"poi","name":"Capela de Santo Amaro","theme":"tarihi","lab":1},"geometry":{"type":"Point","coordinates":[-9.18265,38.70212]}},{"type":"Feature","properties":{"id":"ke-tarihi-33","kind":"poi","name":"Restaurante Panorâmico de Monsanto","theme":"tarihi","lab":1},"geometry":{"type":"Point","coordinates":[-9.1846,38.72863]}},{"type":"Feature","properties":{"id":"ke-tarihi-34","kind":"poi","name":"Torre da Paroquial","theme":"tarihi","lab":1},"geometry":{"type":"Point","coordinates":[-9.19644,38.70809]}},{"type":"Feature","properties":{"id":"ke-tarihi-35","kind":"poi","name":"Igreja Paroquial de Santo António de Campolide","theme":"tarihi","lab":1},"geometry":{"type":"Point","coordinates":[-9.16105,38.73238]}},{"type":"Feature","properties":{"id":"ke-tarihi-36","kind":"poi","name":"Palácio de Xabregas","theme":"tarihi","lab":1},"geometry":{"type":"Point","coordinates":[-9.11045,38.72772]}},{"type":"Feature","properties":{"id":"ke-tarihi-37","kind":"poi","name":"Fonte Monumental da Alameda","theme":"tarihi","lab":1},"geometry":{"type":"Point","coordinates":[-9.13031,38.7373]}},{"type":"Feature","properties":{"id":"ke-tarihi-38","kind":"poi","name":"Villa Romana da Quinta da Bolacha","theme":"tarihi","lab":1},"geometry":{"type":"Point","coordinates":[-9.22739,38.76323]}},{"type":"Feature","properties":{"id":"ke-tarihi-39","kind":"poi","name":"Igreja de Caselas","theme":"tarihi","lab":1},"geometry":{"type":"Point","coordinates":[-9.21363,38.71707]}},{"type":"Feature","properties":{"id":"ke-tarihi-40","kind":"poi","name":"Igreja de São Pedro em Alcântara","theme":"tarihi","lab":1},"geometry":{"type":"Point","coordinates":[-9.17606,38.70634]}},{"type":"Feature","properties":{"id":"ke-tarihi-41","kind":"poi","name":"Liga dos Bombeiros Portugueses","theme":"tarihi","lab":1},"geometry":{"type":"Point","coordinates":[-9.17415,38.77168]}},{"type":"Feature","properties":{"id":"ke-tarihi-42","kind":"poi","name":"Forte do Alto do Duque","theme":"tarihi","lab":1},"geometry":{"type":"Point","coordinates":[-9.22209,38.70373]}},{"type":"Feature","properties":{"id":"ke-tarihi-43","kind":"poi","name":"Geomonumento da Rua Sampaio Bruno","theme":"tarihi","lab":1},"geometry":{"type":"Point","coordinates":[-9.16963,38.71626]}},{"type":"Feature","properties":{"id":"ke-tarihi-44","kind":"poi","name":"Palacete Norton de Matos","theme":"tarihi","lab":1},"geometry":{"type":"Point","coordinates":[-9.15787,38.76735]}},{"type":"Feature","properties":{"id":"ke-tarihi-45","kind":"poi","name":"Igreja da Divina Misericórdia - Alfragide","theme":"tarihi","lab":1},"geometry":{"type":"Point","coordinates":[-9.21816,38.73967]}},{"type":"Feature","properties":{"id":"ke-tarihi-46","kind":"poi","name":"Chafariz de Benfica","theme":"tarihi","lab":1},"geometry":{"type":"Point","coordinates":[-9.20094,38.75048]}},{"type":"Feature","properties":{"id":"ke-tarihi-47","kind":"poi","name":"Ponte 25 de Abril","theme":"tarihi","lab":1},"geometry":{"type":"Point","coordinates":[-9.17734,38.69411]}},{"type":"Feature","properties":{"id":"ke-tarihi-48","kind":"poi","name":"Palácio Vale-Flor","theme":"tarihi","lab":1},"geometry":{"type":"Point","coordinates":[-9.18669,38.70371]}},{"type":"Feature","properties":{"id":"ke-tarihi-49","kind":"poi","name":"Palácio do Conde de Vimioso","theme":"tarihi","lab":1},"geometry":{"type":"Point","coordinates":[-9.15561,38.75993]}},{"type":"Feature","properties":{"id":"ke-tarihi-50","kind":"poi","name":"Igreja Paroquial de São Francisco Xavier","theme":"tarihi","lab":1},"geometry":{"type":"Point","coordinates":[-9.21149,38.70888]}},{"type":"Feature","properties":{"id":"ke-tarihi-51","kind":"poi","name":"Igreja de Nossa Senhora Mãe de Deus","theme":"tarihi","lab":1},"geometry":{"type":"Point","coordinates":[-9.21007,38.74161]}},{"type":"Feature","properties":{"id":"ke-tarihi-52","kind":"poi","name":"Norte","theme":"tarihi","lab":1},"geometry":{"type":"Point","coordinates":[-9.09142,38.77341]}},{"type":"Feature","properties":{"id":"ke-tarihi-53","kind":"poi","name":"Convento de Santo Agostinho","theme":"tarihi","lab":1},"geometry":{"type":"Point","coordinates":[-9.118,38.7399]}},{"type":"Feature","properties":{"id":"ke-tarihi-54","kind":"poi","name":"Solar da Quinta dos Lagares d'El-Rei","theme":"tarihi","lab":1},"geometry":{"type":"Point","coordinates":[-9.13488,38.74757]}},{"type":"Feature","properties":{"id":"ke-tarihi-55","kind":"poi","name":"Igreja da Santíssima Trindade de Miraflores","theme":"tarihi","lab":1},"geometry":{"type":"Point","coordinates":[-9.22824,38.70932]}},{"type":"Feature","properties":{"id":"ke-tarihi-56","kind":"poi","name":"Ao Colégio Militar","theme":"tarihi","lab":1},"geometry":{"type":"Point","coordinates":[-9.18373,38.76064]}},{"type":"Feature","properties":{"id":"ke-tarihi-57","kind":"poi","name":"Emigrante Português","theme":"tarihi","lab":1},"geometry":{"type":"Point","coordinates":[-9.12332,38.71324]}},{"type":"Feature","properties":{"id":"ke-tarihi-58","kind":"poi","name":"Kasturba Gandhi & Mahatma Gandhi","theme":"tarihi","lab":1},"geometry":{"type":"Point","coordinates":[-9.17384,38.76924]}},{"type":"Feature","properties":{"id":"ke-tarihi-59","kind":"poi","name":"Artur da Conceição Barreto","theme":"tarihi","lab":1},"geometry":{"type":"Point","coordinates":[-9.17027,38.73059]}},{"type":"Feature","properties":{"id":"ke-tarihi-60","kind":"poi","name":"Escultura Comemorativa do 50º Aniversário do Estádio Universitário","theme":"tarihi","lab":1},"geometry":{"type":"Point","coordinates":[-9.1606,38.75071]}},{"type":"Feature","properties":{"id":"ke-tarihi-61","kind":"poi","name":"Cosme Damião","theme":"tarihi","lab":1},"geometry":{"type":"Point","coordinates":[-9.18149,38.75188]}},{"type":"Feature","properties":{"id":"ke-tarihi-62","kind":"poi","name":"Igreja Matriz de Santa Maria dos Olivais","theme":"tarihi","lab":1},"geometry":{"type":"Point","coordinates":[-9.10699,38.76876]}},{"type":"Feature","properties":{"id":"ke-tarihi-63","kind":"poi","name":"Forte Nossa Senhora da Conceição de Pedrouços","theme":"tarihi","lab":1},"geometry":{"type":"Point","coordinates":[-9.22903,38.69865]}},{"type":"Feature","properties":{"id":"ke-tarihi-64","kind":"poi","name":"Jardim da Serra da Luz","theme":"tarihi","lab":1},"geometry":{"type":"Point","coordinates":[-9.19209,38.77619]}},{"type":"Feature","properties":{"id":"ke-tarihi-65","kind":"poi","name":"Dom António Francisco Marques","theme":"tarihi","lab":1},"geometry":{"type":"Point","coordinates":[-9.18937,38.76955]}},{"type":"Feature","properties":{"id":"ke-tarihi-66","kind":"poi","name":"A Memoria","theme":"tarihi","lab":1},"geometry":{"type":"Point","coordinates":[-9.12443,38.73345]}},{"type":"Feature","properties":{"id":"ke-tarihi-67","kind":"poi","name":"Miradouro da Luneta dos Quartéis","theme":"tarihi","lab":1},"geometry":{"type":"Point","coordinates":[-9.2005,38.73054]}},{"type":"Feature","properties":{"id":"ke-tarihi-68","kind":"poi","name":"Palácio da Quinta das Torres","theme":"tarihi","lab":1},"geometry":{"type":"Point","coordinates":[-9.21324,38.73237]}},{"type":"Feature","properties":{"id":"ke-tarihi-69","kind":"poi","name":"Miradouro de Montes Claros","theme":"tarihi","lab":1},"geometry":{"type":"Point","coordinates":[-9.20217,38.71742]}},{"type":"Feature","properties":{"id":"ke-tarihi-70","kind":"poi","name":"Palacete da Quinta das Rosas","theme":"tarihi","lab":1},"geometry":{"type":"Point","coordinates":[-9.16788,38.74423]}},{"type":"Feature","properties":{"id":"ke-tarihi-71","kind":"poi","name":"Palácio dos Marqueses de Nisa","theme":"tarihi","lab":1},"geometry":{"type":"Point","coordinates":[-9.11343,38.72541]}},{"type":"Feature","properties":{"id":"ke-tarihi-72","kind":"poi","name":"Palácio Bensaúde","theme":"tarihi","lab":1},"geometry":{"type":"Point","coordinates":[-9.1752,38.75394]}},{"type":"Feature","properties":{"id":"ke-doga-0","kind":"poi","name":"Miradouro de São Pedro de Alcântara","theme":"doga","lab":1},"geometry":{"type":"Point","coordinates":[-9.14405,38.71544]}},{"type":"Feature","properties":{"id":"ke-doga-1","kind":"poi","name":"Miradouro de Santa Luzia","theme":"doga","lab":1},"geometry":{"type":"Point","coordinates":[-9.13022,38.71174]}},{"type":"Feature","properties":{"id":"ke-doga-2","kind":"poi","name":"Jardim Vasco da Gama","theme":"doga","lab":1},"geometry":{"type":"Point","coordinates":[-9.20319,38.69628]}},{"type":"Feature","properties":{"id":"ke-doga-3","kind":"poi","name":"Jardim Afonso de Albuquerque","theme":"doga","lab":1},"geometry":{"type":"Point","coordinates":[-9.20027,38.69664]}},{"type":"Feature","properties":{"id":"ke-doga-4","kind":"poi","name":"Jardim da Estrela","theme":"doga","lab":1},"geometry":{"type":"Point","coordinates":[-9.15905,38.71464]}},{"type":"Feature","properties":{"id":"ke-doga-5","kind":"poi","name":"Jardim Fialho de Almeida","theme":"doga","lab":1},"geometry":{"type":"Point","coordinates":[-9.1516,38.71505]}},{"type":"Feature","properties":{"id":"ke-doga-6","kind":"poi","name":"Jardim Sá da Bandeira","theme":"doga","lab":1},"geometry":{"type":"Point","coordinates":[-9.14673,38.70707]}},{"type":"Feature","properties":{"id":"ke-doga-7","kind":"poi","name":"Jardim Cesário Verde","theme":"doga","lab":1},"geometry":{"type":"Point","coordinates":[-9.14075,38.73262]}},{"type":"Feature","properties":{"id":"ke-doga-8","kind":"poi","name":"Parque Oeste","theme":"doga","lab":1},"geometry":{"type":"Point","coordinates":[-9.15281,38.77938]}},{"type":"Feature","properties":{"id":"ke-doga-9","kind":"poi","name":"Jardim da Praça Pasteur","theme":"doga","lab":1},"geometry":{"type":"Point","coordinates":[-9.13561,38.74075]}},{"type":"Feature","properties":{"id":"ke-doga-10","kind":"poi","name":"Jardim do Palácio Marquês de Fronteira","theme":"doga","lab":1},"geometry":{"type":"Point","coordinates":[-9.17995,38.73909]}},{"type":"Feature","properties":{"id":"ke-doga-11","kind":"poi","name":"Parque José Gomes Ferreira","theme":"doga","lab":1},"geometry":{"type":"Point","coordinates":[-9.13308,38.75883]}},{"type":"Feature","properties":{"id":"ke-doga-12","kind":"poi","name":"Parque do Vale do Silêncio","theme":"doga","lab":1},"geometry":{"type":"Point","coordinates":[-9.11728,38.76668]}},{"type":"Feature","properties":{"id":"ke-doga-13","kind":"poi","name":"Parque Infantil do Alvito","theme":"doga","lab":1},"geometry":{"type":"Point","coordinates":[-9.18675,38.71957]}},{"type":"Feature","properties":{"id":"ke-doga-14","kind":"poi","name":"Jardim Augusto Gil","theme":"doga","lab":1},"geometry":{"type":"Point","coordinates":[-9.13101,38.71604]}},{"type":"Feature","properties":{"id":"ke-doga-15","kind":"poi","name":"Jardim Gulbenkian","theme":"doga","lab":1},"geometry":{"type":"Point","coordinates":[-9.15413,38.73683]}},{"type":"Feature","properties":{"id":"ke-doga-16","kind":"poi","name":"Eucaliptal de Benfica","theme":"doga","lab":1},"geometry":{"type":"Point","coordinates":[-9.19956,38.75514]}},{"type":"Feature","properties":{"id":"ke-doga-17","kind":"poi","name":"Parque Urbano do Vale Fundão","theme":"doga","lab":1},"geometry":{"type":"Point","coordinates":[-9.10921,38.75206]}},{"type":"Feature","properties":{"id":"ke-doga-18","kind":"poi","name":"Jardim Roque Gameiro","theme":"doga","lab":1},"geometry":{"type":"Point","coordinates":[-9.14356,38.7057]}},{"type":"Feature","properties":{"id":"ke-doga-19","kind":"poi","name":"Jardim Mário Ruivo","theme":"doga","lab":1},"geometry":{"type":"Point","coordinates":[-9.09432,38.76151]}},{"type":"Feature","properties":{"id":"ke-doga-20","kind":"poi","name":"Jardim da Rocha do Conde de Óbidos","theme":"doga","lab":1},"geometry":{"type":"Point","coordinates":[-9.16277,38.70436]}},{"type":"Feature","properties":{"id":"ke-doga-21","kind":"poi","name":"Jardim da Alameda Dom Afonso Henriques","theme":"doga","lab":1},"geometry":{"type":"Point","coordinates":[-9.13282,38.73713]}},{"type":"Feature","properties":{"id":"ke-doga-22","kind":"poi","name":"Jardim Avelar Brotero","theme":"doga","lab":1},"geometry":{"type":"Point","coordinates":[-9.18455,38.70423]}},{"type":"Feature","properties":{"id":"ke-doga-23","kind":"poi","name":"Jardim Amália Rodrigues","theme":"doga","lab":1},"geometry":{"type":"Point","coordinates":[-9.15535,38.73127]}},{"type":"Feature","properties":{"id":"ke-doga-24","kind":"poi","name":"Quinta dos Condes de Carnide","theme":"doga","lab":1},"geometry":{"type":"Point","coordinates":[-9.18974,38.75781]}},{"type":"Feature","properties":{"id":"ke-doga-25","kind":"poi","name":"Geomonumento da Rua Sampaio Bruno","theme":"doga","lab":1},"geometry":{"type":"Point","coordinates":[-9.16963,38.71626]}},{"type":"Feature","properties":{"id":"ke-doga-26","kind":"poi","name":"Parque Botânico do Monteiro-Mor","theme":"doga","lab":1},"geometry":{"type":"Point","coordinates":[-9.16745,38.77574]}},{"type":"Feature","properties":{"id":"ke-doga-27","kind":"poi","name":"Jardim das Damas","theme":"doga","lab":1},"geometry":{"type":"Point","coordinates":[-9.19875,38.70842]}},{"type":"Feature","properties":{"id":"ke-doga-28","kind":"poi","name":"Quinta do Monte do Carmo","theme":"doga","lab":1},"geometry":{"type":"Point","coordinates":[-9.18831,38.70066]}},{"type":"Feature","properties":{"id":"ke-doga-29","kind":"poi","name":"Senhorio dos Lagares d'El-Rei","theme":"doga","lab":1},"geometry":{"type":"Point","coordinates":[-9.13483,38.74757]}},{"type":"Feature","properties":{"id":"ke-doga-30","kind":"poi","name":"Jardim Manuel Azevedo Coutinho","theme":"doga","lab":1},"geometry":{"type":"Point","coordinates":[-9.13854,38.75488]}},{"type":"Feature","properties":{"id":"ke-doga-31","kind":"poi","name":"Parque Gonçalo Ribeiro Telles","theme":"doga","lab":1},"geometry":{"type":"Point","coordinates":[-9.16031,38.73749]}},{"type":"Feature","properties":{"id":"ke-doga-32","kind":"poi","name":"Praia de Algés","theme":"doga","lab":1},"geometry":{"type":"Point","coordinates":[-9.231,38.69572]}},{"type":"Feature","properties":{"id":"ke-doga-33","kind":"poi","name":"Jardim António Viana Barreto","theme":"doga","lab":1},"geometry":{"type":"Point","coordinates":[-9.21582,38.69281]}},{"type":"Feature","properties":{"id":"ke-doga-34","kind":"poi","name":"Jardim do Caracol da Penha","theme":"doga","lab":1},"geometry":{"type":"Point","coordinates":[-9.13292,38.72926]}},{"type":"Feature","properties":{"id":"ke-doga-35","kind":"poi","name":"Parque Urbano da Quinta Conde dos Arcos","theme":"doga","lab":1},"geometry":{"type":"Point","coordinates":[-9.10834,38.77319]}},{"type":"Feature","properties":{"id":"ke-doga-36","kind":"poi","name":"Jardim Botto Machado","theme":"doga","lab":1},"geometry":{"type":"Point","coordinates":[-9.12417,38.71595]}},{"type":"Feature","properties":{"id":"ke-doga-37","kind":"poi","name":"Jardim Mário Soares","theme":"doga","lab":1},"geometry":{"type":"Point","coordinates":[-9.15205,38.75388]}},{"type":"Feature","properties":{"id":"ke-doga-38","kind":"poi","name":"Parque Florestal de Monsanto","theme":"doga","lab":1},"geometry":{"type":"Point","coordinates":[-9.19648,38.72257]}},{"type":"Feature","properties":{"id":"ke-doga-39","kind":"poi","name":"Tapada das Necessidades","theme":"doga","lab":1},"geometry":{"type":"Point","coordinates":[-9.16937,38.70906]}},{"type":"Feature","properties":{"id":"ke-doga-40","kind":"poi","name":"Jardim Garcia de Orta","theme":"doga","lab":1},"geometry":{"type":"Point","coordinates":[-9.09198,38.77194]}},{"type":"Feature","properties":{"id":"ke-doga-41","kind":"poi","name":"Parque Tejo","theme":"doga","lab":1},"geometry":{"type":"Point","coordinates":[-9.09437,38.78212]}},{"type":"Feature","properties":{"id":"ke-doga-42","kind":"poi","name":"Parque Recreativo dos Moinhos de Santana","theme":"doga","lab":1},"geometry":{"type":"Point","coordinates":[-9.20638,38.7088]}},{"type":"Feature","properties":{"id":"ke-doga-43","kind":"poi","name":"Parque da Mata de Madre de Deus","theme":"doga","lab":1},"geometry":{"type":"Point","coordinates":[-9.11573,38.73265]}},{"type":"Feature","properties":{"id":"ke-doga-44","kind":"poi","name":"Jardim da Amnistia Internacional","theme":"doga","lab":1},"geometry":{"type":"Point","coordinates":[-9.16467,38.73613]}},{"type":"Feature","properties":{"id":"ke-doga-45","kind":"poi","name":"Parque Urbano do Vale de Chelas","theme":"doga","lab":1},"geometry":{"type":"Point","coordinates":[-9.12162,38.75467]}},{"type":"Feature","properties":{"id":"ke-doga-46","kind":"poi","name":"Parque da Quinta das Flores","theme":"doga","lab":1},"geometry":{"type":"Point","coordinates":[-9.10598,38.74525]}},{"type":"Feature","properties":{"id":"ke-doga-47","kind":"poi","name":"Parque do Calhau","theme":"doga","lab":1},"geometry":{"type":"Point","coordinates":[-9.1753,38.73725]}},{"type":"Feature","properties":{"id":"ke-doga-48","kind":"poi","name":"Jardim Mahatma Gandhi","theme":"doga","lab":1},"geometry":{"type":"Point","coordinates":[-9.17515,38.76988]}},{"type":"Feature","properties":{"id":"ke-doga-49","kind":"poi","name":"Parque Verde de Carnide","theme":"doga","lab":1},"geometry":{"type":"Point","coordinates":[-9.19158,38.76587]}},{"type":"Feature","properties":{"id":"ke-doga-50","kind":"poi","name":"Jardim Teixeira Rebelo","theme":"doga","lab":1},"geometry":{"type":"Point","coordinates":[-9.18372,38.76105]}},{"type":"Feature","properties":{"id":"ke-doga-51","kind":"poi","name":"Jardim Professor Francisco Caldeira Cabral","theme":"doga","lab":1},"geometry":{"type":"Point","coordinates":[-9.16588,38.76027]}},{"type":"Feature","properties":{"id":"ke-doga-52","kind":"poi","name":"Jardim de Santo Eugénio","theme":"doga","lab":1},"geometry":{"type":"Point","coordinates":[-9.11757,38.77351]}},{"type":"Feature","properties":{"id":"ke-doga-53","kind":"poi","name":"Parque Poetas de Abril","theme":"doga","lab":1},"geometry":{"type":"Point","coordinates":[-9.1915,38.77219]}},{"type":"Feature","properties":{"id":"ke-doga-54","kind":"poi","name":"Parque Pinheiro Borges","theme":"doga","lab":1},"geometry":{"type":"Point","coordinates":[-9.21885,38.73292]}},{"type":"Feature","properties":{"id":"ke-doga-55","kind":"poi","name":"Alto da Serafina","theme":"doga","lab":1},"geometry":{"type":"Point","coordinates":[-9.17569,38.73339]}},{"type":"Feature","properties":{"id":"ke-doga-56","kind":"poi","name":"Spotters area Lisbon Airport Arrivals (LPPT/LIS)","theme":"doga","lab":1},"geometry":{"type":"Point","coordinates":[-9.14748,38.76701]}},{"type":"Feature","properties":{"id":"ke-doga-57","kind":"poi","name":"Miradouro de Aviões","theme":"doga","lab":1},"geometry":{"type":"Point","coordinates":[-9.14601,38.76168]}},{"type":"Feature","properties":{"id":"ke-doga-58","kind":"poi","name":"Miradouro Panorâmico do Monsanto","theme":"doga","lab":1},"geometry":{"type":"Point","coordinates":[-9.18461,38.72862]}},{"type":"Feature","properties":{"id":"ke-doga-59","kind":"poi","name":"Largo das Garridas","theme":"doga","lab":1},"geometry":{"type":"Point","coordinates":[-9.20158,38.74776]}},{"type":"Feature","properties":{"id":"ke-doga-60","kind":"poi","name":"Miradouro das Olaias","theme":"doga","lab":1},"geometry":{"type":"Point","coordinates":[-9.12402,38.7429]}},{"type":"Feature","properties":{"id":"ke-doga-61","kind":"poi","name":"Miradouro da Torre de Belém","theme":"doga","lab":1},"geometry":{"type":"Point","coordinates":[-9.21591,38.69169]}},{"type":"Feature","properties":{"id":"ke-doga-62","kind":"poi","name":"Babylon 360","theme":"doga","lab":1},"geometry":{"type":"Point","coordinates":[-9.09134,38.77475]}},{"type":"Feature","properties":{"id":"ke-doga-63","kind":"poi","name":"Parque Aventura","theme":"doga","lab":1},"geometry":{"type":"Point","coordinates":[-9.23026,38.76342]}},{"type":"Feature","properties":{"id":"ke-doga-64","kind":"poi","name":"Jardim do Calhariz Novo","theme":"doga","lab":1},"geometry":{"type":"Point","coordinates":[-9.19226,38.74597]}},{"type":"Feature","properties":{"id":"ke-doga-65","kind":"poi","name":"Quinta do Salles","theme":"doga","lab":1},"geometry":{"type":"Point","coordinates":[-9.22541,38.72444]}},{"type":"Feature","properties":{"id":"ke-doga-66","kind":"poi","name":"Parque Urbano Quinta de Santo António","theme":"doga","lab":1},"geometry":{"type":"Point","coordinates":[-9.22994,38.70984]}},{"type":"Feature","properties":{"id":"ke-doga-67","kind":"poi","name":"Jardim das Musas","theme":"doga","lab":1},"geometry":{"type":"Point","coordinates":[-9.09559,38.75551]}},{"type":"Feature","properties":{"id":"ke-doga-68","kind":"poi","name":"Miradouro da Luneta dos Quartéis","theme":"doga","lab":1},"geometry":{"type":"Point","coordinates":[-9.2005,38.73054]}},{"type":"Feature","properties":{"id":"ke-doga-69","kind":"poi","name":"Parque do Neudel","theme":"doga","lab":1},"geometry":{"type":"Point","coordinates":[-9.22413,38.74333]}},{"type":"Feature","properties":{"id":"ke-doga-70","kind":"poi","name":"Largo Coronel Mata Pereira","theme":"doga","lab":1},"geometry":{"type":"Point","coordinates":[-9.11317,38.73062]}},{"type":"Feature","properties":{"id":"ke-doga-71","kind":"poi","name":"Jardim dos Aromas","theme":"doga","lab":1},"geometry":{"type":"Point","coordinates":[-9.2105,38.74268]}},{"type":"Feature","properties":{"id":"ke-doga-72","kind":"poi","name":"Parque da Juventude","theme":"doga","lab":1},"geometry":{"type":"Point","coordinates":[-9.22916,38.7555]}},{"type":"Feature","properties":{"id":"ke-doga-73","kind":"poi","name":"Geomonumento da Rua Virgílio Correia","theme":"doga","lab":1},"geometry":{"type":"Point","coordinates":[-9.17214,38.75298]}},{"type":"Feature","properties":{"id":"ke-doga-74","kind":"poi","name":"Parque Urbano do Alto da Cabreira","theme":"doga","lab":1},"geometry":{"type":"Point","coordinates":[-9.21111,38.72473]}},{"type":"Feature","properties":{"id":"ke-doga-75","kind":"poi","name":"Parque Telheiras","theme":"doga","lab":1},"geometry":{"type":"Point","coordinates":[-9.17031,38.75871]}},{"type":"Feature","properties":{"id":"ke-doga-76","kind":"poi","name":"Jardim Luís de Camões","theme":"doga","lab":1},"geometry":{"type":"Point","coordinates":[-9.21403,38.76558]}},{"type":"Feature","properties":{"id":"ke-doga-77","kind":"poi","name":"Parque Ribeirinho Oriente","theme":"doga","lab":1},"geometry":{"type":"Point","coordinates":[-9.09753,38.74483]}},{"type":"Feature","properties":{"id":"ke-doga-78","kind":"poi","name":"Jardim Carvalho Araújo","theme":"doga","lab":1},"geometry":{"type":"Point","coordinates":[-9.21884,38.74697]}},{"type":"Feature","properties":{"id":"ke-doga-79","kind":"poi","name":"Parque do Rio da Costa","theme":"doga","lab":1},"geometry":{"type":"Point","coordinates":[-9.21644,38.77576]}},{"type":"Feature","properties":{"id":"ke-doga-80","kind":"poi","name":"Parque Linear de Alfornelos","theme":"doga","lab":1},"geometry":{"type":"Point","coordinates":[-9.20711,38.76041]}},{"type":"Feature","properties":{"id":"ke-doga-81","kind":"poi","name":"Parque 25 de Abril","theme":"doga","lab":1},"geometry":{"type":"Point","coordinates":[-9.21637,38.74783]}},{"type":"Feature","properties":{"id":"ke-doga-82","kind":"poi","name":"Parque da Encosta do Olival","theme":"doga","lab":1},"geometry":{"type":"Point","coordinates":[-9.16949,38.78144]}},{"type":"Feature","properties":{"id":"ke-doga-83","kind":"poi","name":"Parque Urbano do Alto da Montanha","theme":"doga","lab":1},"geometry":{"type":"Point","coordinates":[-9.22662,38.72693]}},{"type":"Feature","properties":{"id":"ke-doga-84","kind":"poi","name":"Parque das Artes e do Desporto","theme":"doga","lab":1},"geometry":{"type":"Point","coordinates":[-9.22696,38.7748]}},{"type":"Feature","properties":{"id":"ke-doga-85","kind":"poi","name":"Pinhal da Paiã","theme":"doga","lab":1},"geometry":{"type":"Point","coordinates":[-9.20905,38.77564]}},{"type":"Feature","properties":{"id":"ke-gastronomi-0","kind":"poi","name":"Hard Rock Cafe","theme":"gastronomi","lab":1},"geometry":{"type":"Point","coordinates":[-9.14176,38.71661]}},{"type":"Feature","properties":{"id":"ke-gastronomi-1","kind":"poi","name":"Pastelaria Bénard","theme":"gastronomi","lab":1},"geometry":{"type":"Point","coordinates":[-9.14181,38.71072]}},{"type":"Feature","properties":{"id":"ke-gastronomi-2","kind":"poi","name":"Clube de Fado","theme":"gastronomi","lab":1},"geometry":{"type":"Point","coordinates":[-9.1312,38.70964]}},{"type":"Feature","properties":{"id":"ke-gastronomi-3","kind":"poi","name":"Damas","theme":"gastronomi","lab":1},"geometry":{"type":"Point","coordinates":[-9.12936,38.71646]}},{"type":"Feature","properties":{"id":"ke-gastronomi-4","kind":"poi","name":"Cantina Velha","theme":"gastronomi","lab":1},"geometry":{"type":"Point","coordinates":[-9.16004,38.75129]}},{"type":"Feature","properties":{"id":"ke-gastronomi-5","kind":"poi","name":"Mercado de Arroios","theme":"gastronomi","lab":1},"geometry":{"type":"Point","coordinates":[-9.13266,38.73524]}},{"type":"Feature","properties":{"id":"ke-gastronomi-6","kind":"poi","name":"Eleven","theme":"gastronomi","lab":1},"geometry":{"type":"Point","coordinates":[-9.1558,38.73074]}},{"type":"Feature","properties":{"id":"ke-gastronomi-7","kind":"poi","name":"Mercado de Campo de Ourique","theme":"gastronomi","lab":1},"geometry":{"type":"Point","coordinates":[-9.16678,38.71614]}},{"type":"Feature","properties":{"id":"ke-gastronomi-8","kind":"poi","name":"Mercado Agrobio","theme":"gastronomi","lab":1},"geometry":{"type":"Point","coordinates":[-9.14632,38.7433]}},{"type":"Feature","properties":{"id":"ke-gastronomi-9","kind":"poi","name":"Mercado Olivais Sul (Célula B)","theme":"gastronomi","lab":1},"geometry":{"type":"Point","coordinates":[-9.11935,38.76441]}},{"type":"Feature","properties":{"id":"ke-gastronomi-10","kind":"poi","name":"Mercado São João","theme":"gastronomi","lab":1},"geometry":{"type":"Point","coordinates":[-9.17323,38.75377]}},{"type":"Feature","properties":{"id":"ke-gastronomi-11","kind":"poi","name":"Mercado Municipal da Buraca","theme":"gastronomi","lab":1},"geometry":{"type":"Point","coordinates":[-9.21008,38.7412]}},{"type":"Feature","properties":{"id":"ke-gastronomi-12","kind":"poi","name":"Olaias Mini Mercado","theme":"gastronomi","lab":1},"geometry":{"type":"Point","coordinates":[-9.12541,38.73772]}},{"type":"Feature","properties":{"id":"ke-gastronomi-13","kind":"poi","name":"Valores compra e denda de ouro. Agente Western Union - Lisboa (Expo)","theme":"gastronomi","lab":1},"geometry":{"type":"Point","coordinates":[-9.09834,38.76578]}},{"type":"Feature","properties":{"id":"ke-gastronomi-14","kind":"poi","name":"Mercado D´Santos","theme":"gastronomi","lab":1},"geometry":{"type":"Point","coordinates":[-9.15722,38.70717]}},{"type":"Feature","properties":{"id":"ke-gastronomi-15","kind":"poi","name":"Mini Mercado Lily Super","theme":"gastronomi","lab":1},"geometry":{"type":"Point","coordinates":[-9.19102,38.70351]}},{"type":"Feature","properties":{"id":"ke-gastronomi-16","kind":"poi","name":"Dona Ajuda","theme":"gastronomi","lab":1},"geometry":{"type":"Point","coordinates":[-9.15357,38.7214]}},{"type":"Feature","properties":{"id":"ke-gastronomi-17","kind":"poi","name":"Mercado 31 de Janeiro","theme":"gastronomi","lab":1},"geometry":{"type":"Point","coordinates":[-9.14446,38.73123]}},{"type":"Feature","properties":{"id":"ke-gastronomi-18","kind":"poi","name":"Mercado Alvalade Norte","theme":"gastronomi","lab":1},"geometry":{"type":"Point","coordinates":[-9.1402,38.75551]}},{"type":"Feature","properties":{"id":"ke-gastronomi-19","kind":"poi","name":"Mercado do Bairro de Santos","theme":"gastronomi","lab":1},"geometry":{"type":"Point","coordinates":[-9.15842,38.74302]}},{"type":"Feature","properties":{"id":"ke-gastronomi-20","kind":"poi","name":"Mercado da Picheleira","theme":"gastronomi","lab":1},"geometry":{"type":"Point","coordinates":[-9.1241,38.73647]}},{"type":"Feature","properties":{"id":"ke-gastronomi-21","kind":"poi","name":"Mercado de Algés","theme":"gastronomi","lab":1},"geometry":{"type":"Point","coordinates":[-9.22851,38.70128]}},{"type":"Feature","properties":{"id":"ke-gastronomi-22","kind":"poi","name":"Mercado da Ajuda","theme":"gastronomi","lab":1},"geometry":{"type":"Point","coordinates":[-9.1949,38.70337]}},{"type":"Feature","properties":{"id":"ke-gastronomi-23","kind":"poi","name":"Mercado de Benfica","theme":"gastronomi","lab":1},"geometry":{"type":"Point","coordinates":[-9.20581,38.75071]}},{"type":"Feature","properties":{"id":"ke-gastronomi-24","kind":"poi","name":"Mercado do Bairro Padre Cruz","theme":"gastronomi","lab":1},"geometry":{"type":"Point","coordinates":[-9.19075,38.7699]}},{"type":"Feature","properties":{"id":"ke-gastronomi-25","kind":"poi","name":"Mercado de Moscavide","theme":"gastronomi","lab":1},"geometry":{"type":"Point","coordinates":[-9.10039,38.77947]}},{"type":"Feature","properties":{"id":"ke-gastronomi-26","kind":"poi","name":"Mercado de São Domingos de Benfica","theme":"gastronomi","lab":1},"geometry":{"type":"Point","coordinates":[-9.17949,38.74368]}},{"type":"Feature","properties":{"id":"ke-gastronomi-27","kind":"poi","name":"Mercado Olivais Sul (Célula E)","theme":"gastronomi","lab":1},"geometry":{"type":"Point","coordinates":[-9.10986,38.76017]}},{"type":"Feature","properties":{"id":"ke-gastronomi-28","kind":"poi","name":"Mercado da Damaia","theme":"gastronomi","lab":1},"geometry":{"type":"Point","coordinates":[-9.21967,38.74531]}},{"type":"Feature","properties":{"id":"ke-gastronomi-29","kind":"poi","name":"Feira da Brandoa","theme":"gastronomi","lab":1},"geometry":{"type":"Point","coordinates":[-9.21101,38.76208]}},{"type":"Feature","properties":{"id":"ke-gastronomi-30","kind":"poi","name":"Mercado Municipal Rosa Agulhas","theme":"gastronomi","lab":1},"geometry":{"type":"Point","coordinates":[-9.17933,38.7049]}},{"type":"Feature","properties":{"id":"ke-gastronomi-31","kind":"poi","name":"Mercado da Pontinha","theme":"gastronomi","lab":1},"geometry":{"type":"Point","coordinates":[-9.1983,38.76328]}},{"type":"Feature","properties":{"id":"ke-alisveris-0","kind":"poi","name":"Mercado da Ribeira","theme":"alisveris","lab":1},"geometry":{"type":"Point","coordinates":[-9.14569,38.70706]}},{"type":"Feature","properties":{"id":"ke-alisveris-1","kind":"poi","name":"Centro Comercial Colombo","theme":"alisveris","lab":1},"geometry":{"type":"Point","coordinates":[-9.18867,38.75476]}},{"type":"Feature","properties":{"id":"ke-alisveris-2","kind":"poi","name":"Mercado de Santa Clara","theme":"alisveris","lab":1},"geometry":{"type":"Point","coordinates":[-9.12561,38.71553]}},{"type":"Feature","properties":{"id":"ke-alisveris-3","kind":"poi","name":"Mercado de Arroios","theme":"alisveris","lab":1},"geometry":{"type":"Point","coordinates":[-9.13266,38.73524]}},{"type":"Feature","properties":{"id":"ke-alisveris-4","kind":"poi","name":"Atrium Saldanha","theme":"alisveris","lab":1},"geometry":{"type":"Point","coordinates":[-9.14469,38.73284]}},{"type":"Feature","properties":{"id":"ke-alisveris-5","kind":"poi","name":"Centro Comercial Vasco da Gama","theme":"alisveris","lab":1},"geometry":{"type":"Point","coordinates":[-9.09683,38.76766]}},{"type":"Feature","properties":{"id":"ke-alisveris-6","kind":"poi","name":"Mercado de Campo de Ourique","theme":"alisveris","lab":1},"geometry":{"type":"Point","coordinates":[-9.16678,38.71614]}},{"type":"Feature","properties":{"id":"ke-alisveris-7","kind":"poi","name":"UBBO","theme":"alisveris","lab":1},"geometry":{"type":"Point","coordinates":[-9.22008,38.77693]}},{"type":"Feature","properties":{"id":"ke-alisveris-8","kind":"poi","name":"Mercado Agrobio","theme":"alisveris","lab":1},"geometry":{"type":"Point","coordinates":[-9.14632,38.7433]}},{"type":"Feature","properties":{"id":"ke-alisveris-9","kind":"poi","name":"El Corte Inglés","theme":"alisveris","lab":1},"geometry":{"type":"Point","coordinates":[-9.15349,38.73308]}},{"type":"Feature","properties":{"id":"ke-alisveris-10","kind":"poi","name":"Spacio Shopping","theme":"alisveris","lab":1},"geometry":{"type":"Point","coordinates":[-9.11488,38.76228]}},{"type":"Feature","properties":{"id":"ke-alisveris-11","kind":"poi","name":"Atlanta Park Galerias","theme":"alisveris","lab":1},"geometry":{"type":"Point","coordinates":[-9.17206,38.7503]}},{"type":"Feature","properties":{"id":"ke-alisveris-12","kind":"poi","name":"Duty Free Store","theme":"alisveris","lab":1},"geometry":{"type":"Point","coordinates":[-9.13643,38.76384]}},{"type":"Feature","properties":{"id":"ke-alisveris-13","kind":"poi","name":"Correia Parafusos","theme":"alisveris","lab":1},"geometry":{"type":"Point","coordinates":[-9.22172,38.73738]}},{"type":"Feature","properties":{"id":"ke-alisveris-14","kind":"poi","name":"Mercado Municipal da Buraca","theme":"alisveris","lab":1},"geometry":{"type":"Point","coordinates":[-9.21008,38.7412]}},{"type":"Feature","properties":{"id":"ke-alisveris-15","kind":"poi","name":"StokArea SELF STORAGE 72C","theme":"alisveris","lab":1},"geometry":{"type":"Point","coordinates":[-9.16117,38.72793]}},{"type":"Feature","properties":{"id":"ke-alisveris-16","kind":"poi","name":"Tivoli Fórum","theme":"alisveris","lab":1},"geometry":{"type":"Point","coordinates":[-9.14461,38.72023]}},{"type":"Feature","properties":{"id":"ke-alisveris-17","kind":"poi","name":"Galeria Alvalade","theme":"alisveris","lab":1},"geometry":{"type":"Point","coordinates":[-9.14089,38.75393]}},{"type":"Feature","properties":{"id":"ke-alisveris-18","kind":"poi","name":"Olaias Mini Mercado","theme":"alisveris","lab":1},"geometry":{"type":"Point","coordinates":[-9.12541,38.73772]}},{"type":"Feature","properties":{"id":"ke-alisveris-19","kind":"poi","name":"Galeria Uruguai","theme":"alisveris","lab":1},"geometry":{"type":"Point","coordinates":[-9.19763,38.75075]}},{"type":"Feature","properties":{"id":"ke-alisveris-20","kind":"poi","name":"pingo doce","theme":"alisveris","lab":1},"geometry":{"type":"Point","coordinates":[-9.15371,38.76695]}},{"type":"Feature","properties":{"id":"ke-alisveris-21","kind":"poi","name":"Shopping Place","theme":"alisveris","lab":1},"geometry":{"type":"Point","coordinates":[-9.1519,38.72276]}},{"type":"Feature","properties":{"id":"ke-alisveris-22","kind":"poi","name":"Mercado D´Santos","theme":"alisveris","lab":1},"geometry":{"type":"Point","coordinates":[-9.15722,38.70717]}},{"type":"Feature","properties":{"id":"ke-alisveris-23","kind":"poi","name":"Galeria Comercial","theme":"alisveris","lab":1},"geometry":{"type":"Point","coordinates":[-9.10972,38.72846]}},{"type":"Feature","properties":{"id":"ke-alisveris-24","kind":"poi","name":"Funerária Boa Hora","theme":"alisveris","lab":1},"geometry":{"type":"Point","coordinates":[-9.19958,38.69948]}},{"type":"Feature","properties":{"id":"ke-alisveris-25","kind":"poi","name":"Mini Mercado Lily Super","theme":"alisveris","lab":1},"geometry":{"type":"Point","coordinates":[-9.19102,38.70351]}},{"type":"Feature","properties":{"id":"ke-alisveris-26","kind":"poi","name":"Blue Fantasy","theme":"alisveris","lab":1},"geometry":{"type":"Point","coordinates":[-9.12445,38.73942]}},{"type":"Feature","properties":{"id":"ke-alisveris-27","kind":"poi","name":"Centro Comercial Pingo Doce Bela Vista","theme":"alisveris","lab":1},"geometry":{"type":"Point","coordinates":[-9.11757,38.74932]}},{"type":"Feature","properties":{"id":"ke-alisveris-28","kind":"poi","name":"Mercado do Bairro de Santos","theme":"alisveris","lab":1},"geometry":{"type":"Point","coordinates":[-9.15842,38.74302]}},{"type":"Feature","properties":{"id":"ke-alisveris-29","kind":"poi","name":"Centro Comercial do Lumiar","theme":"alisveris","lab":1},"geometry":{"type":"Point","coordinates":[-9.16033,38.77222]}},{"type":"Feature","properties":{"id":"ke-alisveris-30","kind":"poi","name":"Mercado da Picheleira","theme":"alisveris","lab":1},"geometry":{"type":"Point","coordinates":[-9.1241,38.73647]}},{"type":"Feature","properties":{"id":"ke-alisveris-31","kind":"poi","name":"New Life Miraflores","theme":"alisveris","lab":1},"geometry":{"type":"Point","coordinates":[-9.22848,38.71003]}},{"type":"Feature","properties":{"id":"ke-alisveris-32","kind":"poi","name":"Mercado de Algés","theme":"alisveris","lab":1},"geometry":{"type":"Point","coordinates":[-9.22851,38.70128]}},{"type":"Feature","properties":{"id":"ke-alisveris-33","kind":"poi","name":"Mercado de Benfica","theme":"alisveris","lab":1},"geometry":{"type":"Point","coordinates":[-9.20581,38.75071]}},{"type":"Feature","properties":{"id":"ke-alisveris-34","kind":"poi","name":"Centro Comercial Telheiras","theme":"alisveris","lab":1},"geometry":{"type":"Point","coordinates":[-9.17524,38.7646]}},{"type":"Feature","properties":{"id":"ke-alisveris-35","kind":"poi","name":"Mercado do Bairro Padre Cruz","theme":"alisveris","lab":1},"geometry":{"type":"Point","coordinates":[-9.19075,38.7699]}},{"type":"Feature","properties":{"id":"ke-alisveris-36","kind":"poi","name":"Centro Comercial Alvaláxia","theme":"alisveris","lab":1},"geometry":{"type":"Point","coordinates":[-9.15959,38.7612]}},{"type":"Feature","properties":{"id":"ke-alisveris-37","kind":"poi","name":"Alegro Alfragide","theme":"alisveris","lab":1},"geometry":{"type":"Point","coordinates":[-9.21943,38.72792]}},{"type":"Feature","properties":{"id":"ke-alisveris-38","kind":"poi","name":"Vela Latina","theme":"alisveris","lab":1},"geometry":{"type":"Point","coordinates":[-9.21351,38.69304]}},{"type":"Feature","properties":{"id":"ke-alisveris-39","kind":"poi","name":"Mercado de Moscavide","theme":"alisveris","lab":1},"geometry":{"type":"Point","coordinates":[-9.10039,38.77947]}},{"type":"Feature","properties":{"id":"ke-alisveris-40","kind":"poi","name":"Mercado de São Domingos de Benfica","theme":"alisveris","lab":1},"geometry":{"type":"Point","coordinates":[-9.17949,38.74368]}},{"type":"Feature","properties":{"id":"ke-alisveris-41","kind":"poi","name":"Mercado Olivais Sul (Célula E)","theme":"alisveris","lab":1},"geometry":{"type":"Point","coordinates":[-9.10986,38.76017]}},{"type":"Feature","properties":{"id":"ke-alisveris-42","kind":"poi","name":"Feira da Brandoa","theme":"alisveris","lab":1},"geometry":{"type":"Point","coordinates":[-9.21101,38.76208]}},{"type":"Feature","properties":{"id":"ke-alisveris-43","kind":"poi","name":"Mercado Municipal Rosa Agulhas","theme":"alisveris","lab":1},"geometry":{"type":"Point","coordinates":[-9.17933,38.7049]}},{"type":"Feature","properties":{"id":"ke-alisveris-44","kind":"poi","name":"Mercado da Pontinha","theme":"alisveris","lab":1},"geometry":{"type":"Point","coordinates":[-9.1983,38.76328]}},{"type":"Feature","properties":{"id":"ke-otel-0","kind":"poi","name":"Hotel Britania","theme":"otel","lab":1},"geometry":{"type":"Point","coordinates":[-9.1456,38.72154]}},{"type":"Feature","properties":{"id":"ke-otel-1","kind":"poi","name":"Tandem Palacio Alfama Suites","theme":"otel","lab":1},"geometry":{"type":"Point","coordinates":[-9.12604,38.7131]}},{"type":"Feature","properties":{"id":"ke-otel-2","kind":"poi","name":"Bairro Alto Hotel","theme":"otel","lab":1},"geometry":{"type":"Point","coordinates":[-9.14328,38.71029]}},{"type":"Feature","properties":{"id":"ke-otel-3","kind":"poi","name":"JNcQUOI House","theme":"otel","lab":1},"geometry":{"type":"Point","coordinates":[-9.14742,38.72139]}},{"type":"Feature","properties":{"id":"ke-otel-4","kind":"poi","name":"Lumen Hotel & The Lisbon Light Show","theme":"otel","lab":1},"geometry":{"type":"Point","coordinates":[-9.1455,38.72962]}},{"type":"Feature","properties":{"id":"ke-otel-5","kind":"poi","name":"AltisBelem Hotel & SPA","theme":"otel","lab":1},"geometry":{"type":"Point","coordinates":[-9.21064,38.69339]}},{"type":"Feature","properties":{"id":"ke-otel-6","kind":"poi","name":"Ritz Four Seasons Hotel Lisboa","theme":"otel","lab":1},"geometry":{"type":"Point","coordinates":[-9.15488,38.7258]}},{"type":"Feature","properties":{"id":"ke-otel-7","kind":"poi","name":"Palácio Vale-Flor","theme":"otel","lab":1},"geometry":{"type":"Point","coordinates":[-9.18669,38.70371]}},{"type":"Feature","properties":{"id":"ke-otel-8","kind":"poi","name":"Hotel Dom Pedro","theme":"otel","lab":1},"geometry":{"type":"Point","coordinates":[-9.16035,38.72483]}},{"type":"Feature","properties":{"id":"ke-otel-9","kind":"poi","name":"Hyatt Regency Lisbon","theme":"otel","lab":1},"geometry":{"type":"Point","coordinates":[-9.18663,38.6983]}},{"type":"Feature","properties":{"id":"ke-otel-10","kind":"poi","name":"Hotel Tivoli Oriente","theme":"otel","lab":1},"geometry":{"type":"Point","coordinates":[-9.09838,38.76652]}},{"type":"Feature","properties":{"id":"ke-otel-11","kind":"poi","name":"SANA Malhoa Hotel","theme":"otel","lab":1},"geometry":{"type":"Point","coordinates":[-9.16235,38.73707]}},{"type":"Feature","properties":{"id":"ke-otel-12","kind":"poi","name":"VIP Executive Art's Hotel","theme":"otel","lab":1},"geometry":{"type":"Point","coordinates":[-9.09787,38.7731]}},{"type":"Feature","properties":{"id":"ke-otel-13","kind":"poi","name":"NH Campo Grande","theme":"otel","lab":1},"geometry":{"type":"Point","coordinates":[-9.14953,38.74871]}},{"type":"Feature","properties":{"id":"ke-otel-14","kind":"poi","name":"Olissippo Marquês de Sá","theme":"otel","lab":1},"geometry":{"type":"Point","coordinates":[-9.15173,38.73651]}},{"type":"Feature","properties":{"id":"ke-otel-15","kind":"poi","name":"CZAR Lisbon Hotel","theme":"otel","lab":1},"geometry":{"type":"Point","coordinates":[-9.13483,38.72935]}},{"type":"Feature","properties":{"id":"ke-otel-16","kind":"poi","name":"York House Hotel","theme":"otel","lab":1},"geometry":{"type":"Point","coordinates":[-9.15904,38.70623]}},{"type":"Feature","properties":{"id":"ke-otel-17","kind":"poi","name":"Smy Lisboa","theme":"otel","lab":1},"geometry":{"type":"Point","coordinates":[-9.15924,38.72796]}},{"type":"Feature","properties":{"id":"ke-otel-18","kind":"poi","name":"Holiday Inn Lisboa","theme":"otel","lab":1},"geometry":{"type":"Point","coordinates":[-9.14133,38.73819]}},{"type":"Feature","properties":{"id":"ke-otel-19","kind":"poi","name":"Olissipo Castelo","theme":"otel","lab":1},"geometry":{"type":"Point","coordinates":[-9.13237,38.71466]}},{"type":"Feature","properties":{"id":"ke-otel-20","kind":"poi","name":"Ramada","theme":"otel","lab":1},"geometry":{"type":"Point","coordinates":[-9.12431,38.73964]}},{"type":"Feature","properties":{"id":"ke-otel-21","kind":"poi","name":"DUO Hotel Lisbon, Curio Collection by Hilton","theme":"otel","lab":1},"geometry":{"type":"Point","coordinates":[-9.14942,38.70826]}},{"type":"Feature","properties":{"id":"ke-otel-22","kind":"poi","name":"Upon Lisbon Prime Residences","theme":"otel","lab":1},"geometry":{"type":"Point","coordinates":[-9.18135,38.75402]}},{"type":"Feature","properties":{"id":"ke-otel-23","kind":"poi","name":"Myriad by Sana Hotels","theme":"otel","lab":1},"geometry":{"type":"Point","coordinates":[-9.09107,38.77474]}},{"type":"Feature","properties":{"id":"ke-yurt-0","kind":"poi","name":"Yes! Lisbon Hostel","theme":"yurt","lab":1},"geometry":{"type":"Point","coordinates":[-9.13771,38.70917]}},{"type":"Feature","properties":{"id":"ke-yurt-1","kind":"poi","name":"Residência Universitária Manuel da Maia","theme":"yurt","lab":1},"geometry":{"type":"Point","coordinates":[-9.13623,38.73766]}},{"type":"Feature","properties":{"id":"ke-yurt-2","kind":"poi","name":"Pousada de Juventude de Lisboa","theme":"yurt","lab":1},"geometry":{"type":"Point","coordinates":[-9.14774,38.7303]}},{"type":"Feature","properties":{"id":"ke-yurt-3","kind":"poi","name":"Sant Jordi Hostels Lisbon","theme":"yurt","lab":1},"geometry":{"type":"Point","coordinates":[-9.13219,38.72381]}},{"type":"Feature","properties":{"id":"ke-yurt-4","kind":"poi","name":"Independente Bica, Lisboa","theme":"yurt","lab":1},"geometry":{"type":"Point","coordinates":[-9.14698,38.70841]}},{"type":"Feature","properties":{"id":"ke-yurt-5","kind":"poi","name":"Surfgasm - Olympo","theme":"yurt","lab":1},"geometry":{"type":"Point","coordinates":[-9.15901,38.71083]}},{"type":"Feature","properties":{"id":"ke-yurt-6","kind":"poi","name":"Residência Universitária Alfredo de Sousa","theme":"yurt","lab":1},"geometry":{"type":"Point","coordinates":[-9.1619,38.73313]}},{"type":"Feature","properties":{"id":"ke-yurt-7","kind":"poi","name":"Hostel 4U","theme":"yurt","lab":1},"geometry":{"type":"Point","coordinates":[-9.13536,38.71081]}},{"type":"Feature","properties":{"id":"ke-yurt-8","kind":"poi","name":"The Independente Hostel & Suites","theme":"yurt","lab":1},"geometry":{"type":"Point","coordinates":[-9.1446,38.71488]}},{"type":"Feature","properties":{"id":"ke-yurt-9","kind":"poi","name":"City Hostel Lisbon","theme":"yurt","lab":1},"geometry":{"type":"Point","coordinates":[-9.14077,38.72928]}},{"type":"Feature","properties":{"id":"ke-yurt-10","kind":"poi","name":"We Love Hostel","theme":"yurt","lab":1},"geometry":{"type":"Point","coordinates":[-9.13418,38.72617]}},{"type":"Feature","properties":{"id":"ke-yurt-11","kind":"poi","name":"Lisbon Economy Guest Houses - Old Town I","theme":"yurt","lab":1},"geometry":{"type":"Point","coordinates":[-9.15623,38.72091]}},{"type":"Feature","properties":{"id":"ke-yurt-12","kind":"poi","name":"Train","theme":"yurt","lab":1},"geometry":{"type":"Point","coordinates":[-9.12131,38.71677]}},{"type":"Feature","properties":{"id":"ke-yurt-13","kind":"poi","name":"My Hostel Lisbon","theme":"yurt","lab":1},"geometry":{"type":"Point","coordinates":[-9.14865,38.73699]}},{"type":"Feature","properties":{"id":"ke-yurt-14","kind":"poi","name":"Pousada de Juventude do Parque das Nações (HI)","theme":"yurt","lab":1},"geometry":{"type":"Point","coordinates":[-9.09853,38.77807]}},{"type":"Feature","properties":{"id":"ke-yurt-15","kind":"poi","name":"LX Hostel","theme":"yurt","lab":1},"geometry":{"type":"Point","coordinates":[-9.1787,38.7031]}},{"type":"Feature","properties":{"id":"ke-yurt-16","kind":"poi","name":"7 Luz","theme":"yurt","lab":1},"geometry":{"type":"Point","coordinates":[-9.20086,38.75242]}},{"type":"Feature","properties":{"id":"ke-yurt-17","kind":"poi","name":"Lisbon Terminal 3 Hostel","theme":"yurt","lab":1},"geometry":{"type":"Point","coordinates":[-9.11394,38.77171]}},{"type":"Feature","properties":{"id":"ke-yurt-18","kind":"poi","name":"Spin Hostel","theme":"yurt","lab":1},"geometry":{"type":"Point","coordinates":[-9.18848,38.76997]}},{"type":"Feature","properties":{"id":"ke-yurt-19","kind":"poi","name":"Residência Maria Beatriz","theme":"yurt","lab":1},"geometry":{"type":"Point","coordinates":[-9.11786,38.757]}},{"type":"Feature","properties":{"id":"ke-yurt-20","kind":"poi","name":"SurfLab Lisbon House","theme":"yurt","lab":1},"geometry":{"type":"Point","coordinates":[-9.1288,38.73949]}},{"type":"Feature","properties":{"id":"ke-yurt-21","kind":"poi","name":"RECALL - Residência Estudantil","theme":"yurt","lab":1},"geometry":{"type":"Point","coordinates":[-9.16012,38.76818]}},{"type":"Feature","properties":{"id":"ke-yurt-22","kind":"poi","name":"Residência Universitária António Cruz Serra","theme":"yurt","lab":1},"geometry":{"type":"Point","coordinates":[-9.1544,38.75092]}},{"type":"Feature","properties":{"id":"ke-yurt-23","kind":"poi","name":"Residência de Estudantes Ventura Terra","theme":"yurt","lab":1},"geometry":{"type":"Point","coordinates":[-9.19493,38.71167]}},{"type":"Feature","properties":{"id":"ke-kamu-0","kind":"poi","name":"Ministério da Justiça","theme":"kamu","lab":1},"geometry":{"type":"Point","coordinates":[-9.13722,38.70836]}},{"type":"Feature","properties":{"id":"ke-kamu-1","kind":"poi","name":"Junta de Freguesia de Campolide","theme":"kamu","lab":1},"geometry":{"type":"Point","coordinates":[-9.16229,38.72591]}},{"type":"Feature","properties":{"id":"ke-kamu-2","kind":"poi","name":"Junta de Freguesia de São Domingos de Benfica","theme":"kamu","lab":1},"geometry":{"type":"Point","coordinates":[-9.18784,38.74622]}},{"type":"Feature","properties":{"id":"ke-kamu-3","kind":"poi","name":"Tribunal Central de Instrução Criminal","theme":"kamu","lab":1},"geometry":{"type":"Point","coordinates":[-9.09694,38.77266]}},{"type":"Feature","properties":{"id":"ke-kamu-4","kind":"poi","name":"Ministério do Trabalho, Solidariedade e Segurança Social","theme":"kamu","lab":1},"geometry":{"type":"Point","coordinates":[-9.13806,38.74157]}},{"type":"Feature","properties":{"id":"ke-kamu-5","kind":"poi","name":"Ministério das Finanças","theme":"kamu","lab":1},"geometry":{"type":"Point","coordinates":[-9.13388,38.70767]}},{"type":"Feature","properties":{"id":"ke-kamu-6","kind":"poi","name":"Ministério da Defesa Nacional","theme":"kamu","lab":1},"geometry":{"type":"Point","coordinates":[-9.20673,38.70432]}},{"type":"Feature","properties":{"id":"ke-kamu-7","kind":"poi","name":"Ministério dos Negócios Estrangeiros","theme":"kamu","lab":1},"geometry":{"type":"Point","coordinates":[-9.17016,38.70735]}},{"type":"Feature","properties":{"id":"ke-kamu-8","kind":"poi","name":"Ministério da Saúde","theme":"kamu","lab":1},"geometry":{"type":"Point","coordinates":[-9.14388,38.73614]}},{"type":"Feature","properties":{"id":"ke-kamu-9","kind":"poi","name":"Ministério dos Assuntos Parlamentares","theme":"kamu","lab":1},"geometry":{"type":"Point","coordinates":[-9.15417,38.71326]}},{"type":"Feature","properties":{"id":"ke-kamu-10","kind":"poi","name":"Ministério da Cultura","theme":"kamu","lab":1},"geometry":{"type":"Point","coordinates":[-9.19836,38.70787]}},{"type":"Feature","properties":{"id":"ke-kamu-11","kind":"poi","name":"Ministério da Educação, Ciência e Inovação","theme":"kamu","lab":1},"geometry":{"type":"Point","coordinates":[-9.16782,38.70379]}},{"type":"Feature","properties":{"id":"ke-kamu-12","kind":"poi","name":"Palácio Palmela","theme":"kamu","lab":1},"geometry":{"type":"Point","coordinates":[-9.15343,38.7193]}},{"type":"Feature","properties":{"id":"ke-kamu-13","kind":"poi","name":"Junta de Freguesia de Benfica","theme":"kamu","lab":1},"geometry":{"type":"Point","coordinates":[-9.19745,38.74862]}},{"type":"Feature","properties":{"id":"ke-kamu-14","kind":"poi","name":"Provedor de Justiça","theme":"kamu","lab":1},"geometry":{"type":"Point","coordinates":[-9.15253,38.73422]}},{"type":"Feature","properties":{"id":"ke-kamu-15","kind":"poi","name":"Instituto Nacional de Saúde Doutor Ricardo Jorge","theme":"kamu","lab":1},"geometry":{"type":"Point","coordinates":[-9.16375,38.76479]}},{"type":"Feature","properties":{"id":"ke-kamu-16","kind":"poi","name":"Junta de Freguesia de Avenidas Novas","theme":"kamu","lab":1},"geometry":{"type":"Point","coordinates":[-9.14716,38.74102]}},{"type":"Feature","properties":{"id":"ke-kamu-17","kind":"poi","name":"Serviço de Finanças de Lisboa 11","theme":"kamu","lab":1},"geometry":{"type":"Point","coordinates":[-9.16029,38.77344]}},{"type":"Feature","properties":{"id":"ke-kamu-18","kind":"poi","name":"Banco de Portugal","theme":"kamu","lab":1},"geometry":{"type":"Point","coordinates":[-9.13535,38.72723]}},{"type":"Feature","properties":{"id":"ke-kamu-19","kind":"poi","name":"Junta de Freguesia de Marvila","theme":"kamu","lab":1},"geometry":{"type":"Point","coordinates":[-9.10881,38.74715]}},{"type":"Feature","properties":{"id":"ke-kamu-20","kind":"poi","name":"Entidade Reguladora dos Serviços Energéticos","theme":"kamu","lab":1},"geometry":{"type":"Point","coordinates":[-9.21538,38.69556]}},{"type":"Feature","properties":{"id":"ke-kamu-21","kind":"poi","name":"Serviço de Finanças de Lisboa 1","theme":"kamu","lab":1},"geometry":{"type":"Point","coordinates":[-9.12871,38.72426]}},{"type":"Feature","properties":{"id":"ke-kamu-22","kind":"poi","name":"Espaço Empresa","theme":"kamu","lab":1},"geometry":{"type":"Point","coordinates":[-9.14971,38.74893]}},{"type":"Feature","properties":{"id":"ke-kamu-23","kind":"poi","name":"Serviço de Finanças de Lisboa 6","theme":"kamu","lab":1},"geometry":{"type":"Point","coordinates":[-9.11334,38.77412]}},{"type":"Feature","properties":{"id":"ke-kamu-24","kind":"poi","name":"Loja de Cidadão de Lisboa - Laranjeiras","theme":"kamu","lab":1},"geometry":{"type":"Point","coordinates":[-9.17199,38.75062]}},{"type":"Feature","properties":{"id":"ke-kamu-25","kind":"poi","name":"Loja do Cidadão de Lisboa - Marvila","theme":"kamu","lab":1},"geometry":{"type":"Point","coordinates":[-9.11684,38.74994]}},{"type":"Feature","properties":{"id":"ke-kamu-26","kind":"poi","name":"Junta de Freguesia do Parque das Nações","theme":"kamu","lab":1},"geometry":{"type":"Point","coordinates":[-9.0966,38.76203]}},{"type":"Feature","properties":{"id":"ke-kamu-27","kind":"poi","name":"Junta de Freguesia da Pontinha","theme":"kamu","lab":1},"geometry":{"type":"Point","coordinates":[-9.20036,38.76353]}},{"type":"Feature","properties":{"id":"ke-kamu-28","kind":"poi","name":"ANJE","theme":"kamu","lab":1},"geometry":{"type":"Point","coordinates":[-9.2242,38.70602]}},{"type":"Feature","properties":{"id":"ke-kamu-29","kind":"poi","name":"Doca de Belém","theme":"kamu","lab":1},"geometry":{"type":"Point","coordinates":[-9.20343,38.69505]}},{"type":"Feature","properties":{"id":"ke-kamu-30","kind":"poi","name":"Junta de Freguesia de Campo de Ourique","theme":"kamu","lab":1},"geometry":{"type":"Point","coordinates":[-9.16785,38.71514]}},{"type":"Feature","properties":{"id":"ke-kamu-31","kind":"poi","name":"Junta de Freguesia de Alvalade","theme":"kamu","lab":1},"geometry":{"type":"Point","coordinates":[-9.13623,38.75632]}},{"type":"Feature","properties":{"id":"ke-kamu-32","kind":"poi","name":"Junta de Freguesia do Beato","theme":"kamu","lab":1},"geometry":{"type":"Point","coordinates":[-9.11234,38.72595]}},{"type":"Feature","properties":{"id":"ke-kamu-33","kind":"poi","name":"Direção Geral da Reinserção e Serviços Prisionais","theme":"kamu","lab":1},"geometry":{"type":"Point","coordinates":[-9.14299,38.71638]}},{"type":"Feature","properties":{"id":"ke-kamu-34","kind":"poi","name":"Serviço de Finanças de Lisboa 5","theme":"kamu","lab":1},"geometry":{"type":"Point","coordinates":[-9.20393,38.75261]}},{"type":"Feature","properties":{"id":"ke-kamu-35","kind":"poi","name":"Serviço de Finanças de Lisboa 9","theme":"kamu","lab":1},"geometry":{"type":"Point","coordinates":[-9.11292,38.75314]}},{"type":"Feature","properties":{"id":"ke-kamu-36","kind":"poi","name":"SNS24","theme":"kamu","lab":1},"geometry":{"type":"Point","coordinates":[-9.13531,38.74382]}},{"type":"Feature","properties":{"id":"ke-kamu-37","kind":"poi","name":"IRN - Instituto de Registos e Notariado","theme":"kamu","lab":1},"geometry":{"type":"Point","coordinates":[-9.17627,38.74339]}},{"type":"Feature","properties":{"id":"ke-kamu-38","kind":"poi","name":"Junta de Freguesia da Falagueira-Venda Nova","theme":"kamu","lab":1},"geometry":{"type":"Point","coordinates":[-9.22635,38.75888]}},{"type":"Feature","properties":{"id":"ke-kamu-39","kind":"poi","name":"Junta de Freguesia de Alfragide","theme":"kamu","lab":1},"geometry":{"type":"Point","coordinates":[-9.21718,38.73534]}},{"type":"Feature","properties":{"id":"ke-kamu-40","kind":"poi","name":"posto de limpeza","theme":"kamu","lab":1},"geometry":{"type":"Point","coordinates":[-9.18448,38.70602]}},{"type":"Feature","properties":{"id":"ke-kamu-41","kind":"poi","name":"Gabinete Nacional de Segurança","theme":"kamu","lab":1},"geometry":{"type":"Point","coordinates":[-9.18957,38.69801]}},{"type":"Feature","properties":{"id":"ke-kamu-42","kind":"poi","name":"Espaço de Intervenção Social e Saúde","theme":"kamu","lab":1},"geometry":{"type":"Point","coordinates":[-9.12182,38.73248]}},{"type":"Feature","properties":{"id":"ke-kamu-43","kind":"poi","name":"Junta de Freguesia de Encosta do Sol","theme":"kamu","lab":1},"geometry":{"type":"Point","coordinates":[-9.21377,38.76605]}},{"type":"Feature","properties":{"id":"ke-kamu-44","kind":"poi","name":"Junta de Freguesia de Carnide","theme":"kamu","lab":1},"geometry":{"type":"Point","coordinates":[-9.18559,38.7596]}},{"type":"Feature","properties":{"id":"ke-kamu-45","kind":"poi","name":"Infarmed Expediente","theme":"kamu","lab":1},"geometry":{"type":"Point","coordinates":[-9.1477,38.75888]}},{"type":"Feature","properties":{"id":"ke-kamu-46","kind":"poi","name":"Tribunal de Monsanto","theme":"kamu","lab":1},"geometry":{"type":"Point","coordinates":[-9.19207,38.73341]}},{"type":"Feature","properties":{"id":"ke-kamu-47","kind":"poi","name":"Tribunal Judicial da Comarca de Lisboa Oeste","theme":"kamu","lab":1},"geometry":{"type":"Point","coordinates":[-9.22547,38.73934]}},{"type":"Feature","properties":{"id":"ke-kamu-48","kind":"poi","name":"Junta de Freguesia da Pontinha","theme":"kamu","lab":1},"geometry":{"type":"Point","coordinates":[-9.1926,38.77172]}},{"type":"Feature","properties":{"id":"ke-kamu-49","kind":"poi","name":"Autoridade Nacional da Aviação Civil","theme":"kamu","lab":1},"geometry":{"type":"Point","coordinates":[-9.12652,38.77219]}},{"type":"Feature","properties":{"id":"ke-kamu-50","kind":"poi","name":"Agência Portuguesa do Ambiente","theme":"kamu","lab":1},"geometry":{"type":"Point","coordinates":[-9.20661,38.73841]}},{"type":"Feature","properties":{"id":"ke-ic-tarihi-0","kind":"poi","name":"Torre de Belém","theme":"tarihi","lab":1},"geometry":{"type":"Point","coordinates":[-9.21518,38.69194]}},{"type":"Feature","properties":{"id":"ke-ic-tarihi-1","kind":"poi","name":"Mosteiro dos Jerónimos","theme":"tarihi","lab":1},"geometry":{"type":"Point","coordinates":[-9.20596,38.69759]}},{"type":"Feature","properties":{"id":"ke-ic-modern-0","kind":"poi","name":"Padrão dos Descobrimentos","theme":"modern","lab":1},"geometry":{"type":"Point","coordinates":[-9.20603,38.69447]}},{"type":"Feature","properties":{"id":"ke-ic-tarihi-2","kind":"poi","name":"Castelo de São Jorge","theme":"tarihi","lab":1},"geometry":{"type":"Point","coordinates":[-9.13373,38.71212]}},{"type":"Feature","properties":{"id":"ke-ic-tarihi-3","kind":"poi","name":"Praça do Comércio","theme":"tarihi","lab":1},"geometry":{"type":"Point","coordinates":[-9.13637,38.70836]}},{"type":"Feature","properties":{"id":"ke-ic-tarihi-4","kind":"poi","name":"Elevador de Santa Justa","theme":"tarihi","lab":1},"geometry":{"type":"Point","coordinates":[-9.13699,38.7128]}},{"type":"Feature","properties":{"id":"ke-ic-tarihi-5","kind":"poi","name":"Sé de Lisboa","theme":"tarihi","lab":1},"geometry":{"type":"Point","coordinates":[-9.13423,38.71002]}},{"type":"Feature","properties":{"id":"ke-ic-tarihi-6","kind":"poi","name":"Igreja de São Roque","theme":"tarihi","lab":1},"geometry":{"type":"Point","coordinates":[-9.14295,38.71351]}},{"type":"Feature","properties":{"id":"ke-ic-tarihi-7","kind":"poi","name":"São Vicente de Fora","theme":"tarihi","lab":1},"geometry":{"type":"Point","coordinates":[-9.12602,38.71617]}},{"type":"Feature","properties":{"id":"ke-ic-tarihi-8","kind":"poi","name":"Panteão Nacional","theme":"tarihi","lab":1},"geometry":{"type":"Point","coordinates":[-9.12522,38.71457]}},{"type":"Feature","properties":{"id":"ke-ic-tarihi-9","kind":"poi","name":"Arco da Rua Augusta","theme":"tarihi","lab":1},"geometry":{"type":"Point","coordinates":[-9.13674,38.70838]}},{"type":"Feature","properties":{"id":"ke-ic-tarihi-10","kind":"poi","name":"Praça do Rossio","theme":"tarihi","lab":1},"geometry":{"type":"Point","coordinates":[-9.13927,38.7144]}},{"type":"Feature","properties":{"id":"ke-ic-tarihi-11","kind":"poi","name":"Miradouro de Santa Luzia","theme":"tarihi","lab":1},"geometry":{"type":"Point","coordinates":[-9.13067,38.71132]}},{"type":"Feature","properties":{"id":"ke-ic-doga-0","kind":"poi","name":"Miradouro da Senhora do Monte","theme":"doga","lab":1},"geometry":{"type":"Point","coordinates":[-9.13226,38.71863]}},{"type":"Feature","properties":{"id":"ke-ic-tarihi-12","kind":"poi","name":"Convento do Carmo","theme":"tarihi","lab":1},"geometry":{"type":"Point","coordinates":[-9.13574,38.70849]}},{"type":"Feature","properties":{"id":"ke-ic-tarihi-13","kind":"poi","name":"Aqueduto das Águas Livres","theme":"tarihi","lab":1},"geometry":{"type":"Point","coordinates":[-9.21612,38.74696]}},{"type":"Feature","properties":{"id":"ke-ic-modern-1","kind":"poi","name":"MAAT","theme":"modern","lab":1},"geometry":{"type":"Point","coordinates":[-9.19408,38.69741]}},{"type":"Feature","properties":{"id":"ke-ic-modern-2","kind":"poi","name":"Oceanário de Lisboa","theme":"modern","lab":1},"geometry":{"type":"Point","coordinates":[-9.09644,38.76111]}},{"type":"Feature","properties":{"id":"ke-ic-modern-3","kind":"poi","name":"Torre Vasco da Gama","theme":"modern","lab":1},"geometry":{"type":"Point","coordinates":[-9.09576,38.77187]}},{"type":"Feature","properties":{"id":"ke-ic-modern-4","kind":"poi","name":"Centro Cultural de Belém","theme":"modern","lab":1},"geometry":{"type":"Point","coordinates":[-9.20971,38.69611]}},{"type":"Feature","properties":{"id":"ke-ic-modern-5","kind":"poi","name":"Museu Calouste Gulbenkian","theme":"modern","lab":1},"geometry":{"type":"Point","coordinates":[-9.16076,38.73623]}},{"type":"Feature","properties":{"id":"ke-ic-modern-6","kind":"poi","name":"Ponte 25 de Abril","theme":"modern","lab":1},"geometry":{"type":"Point","coordinates":[-9.14971,38.68437]}},{"type":"Feature","properties":{"id":"ke-ic-tarihi-14","kind":"poi","name":"Cristo Rei","theme":"tarihi","lab":1},"geometry":{"type":"Point","coordinates":[-9.23212,38.70015]}},{"type":"Feature","properties":{"id":"ke-ic-doga-1","kind":"poi","name":"Parque Eduardo VII","theme":"doga","lab":1},"geometry":{"type":"Point","coordinates":[-9.15507,38.72854]}},{"type":"Feature","properties":{"id":"ke-ic-doga-2","kind":"poi","name":"Jardim da Estrela","theme":"doga","lab":1},"geometry":{"type":"Point","coordinates":[-9.16005,38.71555]}},{"type":"Feature","properties":{"id":"ke-ic-doga-3","kind":"poi","name":"Jardim Botânico","theme":"doga","lab":1},"geometry":{"type":"Point","coordinates":[-9.15029,38.71748]}}]}