{"type":"FeatureCollection","features":[{"type":"Feature","properties":{"id":"line-azul","kind":"line","lineRef":"metro","ref":"Azul","color":"#4E84C4"},"geometry":{"type":"MultiLineString","coordinates":[[[-9.18436,38.75078],[-9.19155,38.75473],[-9.19373,38.75573],[-9.19405,38.75602],[-9.19416,38.75621],[-9.19421,38.75669],[-9.19405,38.75709],[-9.19346,38.75815],[-9.19213,38.76],[-9.19194,38.76049],[-9.19191,38.76096],[-9.19219,38.76171],[-9.1927,38.76225],[-9.19348,38.76267],[-9.19445,38.76282],[-9.19526,38.76273],[-9.19864,38.76176],[-9.20272,38.76021],[-9.20375,38.76022],[-9.20673,38.76078],[-9.20905,38.76073],[-9.21083,38.76044],[-9.22058,38.75778],[-9.22143,38.75736],[-9.22207,38.75671],[-9.22324,38.75382],[-9.22414,38.75221]],[[-9.22409,38.75219],[-9.2232,38.7538],[-9.22202,38.75669],[-9.22139,38.75733],[-9.22056,38.75775],[-9.21468,38.75938],[-9.20994,38.76057],[-9.20775,38.76077],[-9.20674,38.76073],[-9.20377,38.76016],[-9.2027,38.76016],[-9.19861,38.76172],[-9.19525,38.76269],[-9.19445,38.76278],[-9.1935,38.76263],[-9.19274,38.76221],[-9.19216,38.76154],[-9.19198,38.76085],[-9.1922,38.76001],[-9.19353,38.75818],[-9.19404,38.75729],[-9.19427,38.75661],[-9.19412,38.75601],[-9.19374,38.75566],[-9.19227,38.75498],[-9.1904,38.75391],[-9.18436,38.75078]],[[-9.15542,38.73611],[-9.15644,38.73693],[-9.15724,38.73729],[-9.16526,38.73888],[-9.16621,38.73915],[-9.16672,38.73945],[-9.16891,38.74209],[-9.16918,38.74258],[-9.16935,38.74475],[-9.16949,38.74532],[-9.16981,38.7459],[-9.1705,38.74645],[-9.1726,38.74777],[-9.17304,38.74825],[-9.17382,38.7494],[-9.17412,38.74963],[-9.17455,38.74975],[-9.17568,38.74984],[-9.1798,38.7499],[-9.18174,38.75007],[-9.18325,38.7503],[-9.18436,38.75078]],[[-9.15542,38.73611],[-9.15031,38.72999],[-9.14999,38.72601],[-9.14889,38.72368],[-9.14171,38.7153],[-9.14073,38.71391],[-9.14041,38.71316],[-9.14017,38.71219],[-9.13992,38.70835],[-9.13983,38.7079],[-9.13942,38.70719],[-9.13873,38.70661],[-9.1376,38.70621],[-9.1364,38.70624],[-9.13569,38.70646],[-9.13179,38.70811],[-9.12983,38.70902],[-9.12718,38.7107],[-9.12548,38.71148],[-9.12412,38.71225],[-9.12339,38.71278],[-9.12204,38.71403]],[[-9.12208,38.71406],[-9.12344,38.7128],[-9.12487,38.71184],[-9.12696,38.71087],[-9.12988,38.70904],[-9.13181,38.70814],[-9.1364,38.70628],[-9.13759,38.70625],[-9.1383,38.70645],[-9.13879,38.70671],[-9.13949,38.70737],[-9.13983,38.70813],[-9.14012,38.7122],[-9.14036,38.71317],[-9.14067,38.71391],[-9.14167,38.71531],[-9.14884,38.7237],[-9.14988,38.72602],[-9.15025,38.73],[-9.15542,38.73611]]]}},{"type":"Feature","properties":{"id":"badge-azul","kind":"badge","ref":"Azul","color":"#4E84C4","lineRef":"metro"},"geometry":{"type":"Point","coordinates":[-9.19348,38.76267]}},{"type":"Feature","properties":{"id":"line-amarela","kind":"line","lineRef":"metro","ref":"Amarela","color":"#F4BC18"},"geometry":{"type":"MultiLineString","coordinates":[[[-9.15485,38.72011],[-9.15285,38.7209],[-9.15252,38.72122],[-9.15006,38.72514],[-9.14556,38.73263],[-9.1452,38.73348],[-9.14517,38.73435],[-9.1482,38.74703],[-9.14849,38.74811],[-9.14894,38.74886],[-9.14974,38.74945],[-9.15075,38.74985],[-9.15171,38.75],[-9.15276,38.74995],[-9.15357,38.74976],[-9.15503,38.74921],[-9.15582,38.74909],[-9.15691,38.74921],[-9.15789,38.74965],[-9.1586,38.7504],[-9.15971,38.75278],[-9.16019,38.75362],[-9.16221,38.75599],[-9.16262,38.75661],[-9.16282,38.75725],[-9.16277,38.75796],[-9.16254,38.75849],[-9.16198,38.7591],[-9.16117,38.75954],[-9.1587,38.76002],[-9.15614,38.76091],[-9.15565,38.76123],[-9.15523,38.76167],[-9.15498,38.76214],[-9.15486,38.76271],[-9.15482,38.7632],[-9.15495,38.7644],[-9.15583,38.76854],[-9.15633,38.76928],[-9.15789,38.77046],[-9.15832,38.77095],[-9.16054,38.7763],[-9.16061,38.77691],[-9.16047,38.77766],[-9.15901,38.78069],[-9.15894,38.78119],[-9.15903,38.78181],[-9.15942,38.78257],[-9.15997,38.78312],[-9.16215,38.78446],[-9.16295,38.78477],[-9.16443,38.78504],[-9.16535,38.78499],[-9.16595,38.78479],[-9.16781,38.78386],[-9.16862,38.78366],[-9.16924,38.78372],[-9.16985,38.7839],[-9.17076,38.78433],[-9.17133,38.78471],[-9.17157,38.785],[-9.17219,38.78649],[-9.17235,38.78747],[-9.17221,38.78801],[-9.17199,38.7884],[-9.17076,38.78994],[-9.17061,38.79046],[-9.17065,38.79116],[-9.17085,38.79164],[-9.17135,38.7922],[-9.173,38.79326]],[[-9.17296,38.79328],[-9.17115,38.79207],[-9.17078,38.79158],[-9.17059,38.79103],[-9.17057,38.79046],[-9.17079,38.7898],[-9.17196,38.78839],[-9.17217,38.788],[-9.17232,38.78747],[-9.17216,38.7865],[-9.17154,38.78501],[-9.17131,38.78473],[-9.17074,38.78435],[-9.16983,38.78393],[-9.16923,38.78374],[-9.16863,38.78368],[-9.16782,38.78389],[-9.16597,38.78481],[-9.16536,38.78501],[-9.16443,38.78507],[-9.16294,38.7848],[-9.16213,38.78448],[-9.15995,38.78314],[-9.15939,38.78258],[-9.159,38.78181],[-9.15891,38.78119],[-9.15897,38.78069],[-9.16044,38.77766],[-9.16057,38.77704],[-9.16051,38.7763],[-9.15829,38.77097],[-9.15787,38.77048],[-9.1563,38.76929],[-9.1558,38.76855],[-9.15481,38.76375],[-9.15486,38.76247],[-9.15494,38.76213],[-9.15524,38.76159],[-9.15563,38.76121],[-9.15616,38.76087],[-9.15869,38.75999],[-9.16116,38.75951],[-9.16195,38.75908],[-9.16251,38.75848],[-9.16274,38.75796],[-9.16279,38.75726],[-9.16259,38.75662],[-9.16218,38.756],[-9.16016,38.75363],[-9.15968,38.75279],[-9.15857,38.75041],[-9.15786,38.74967],[-9.1569,38.74923],[-9.15582,38.74911],[-9.15504,38.74923],[-9.15358,38.74978],[-9.15277,38.74997],[-9.15171,38.75002],[-9.15074,38.74987],[-9.14972,38.74947],[-9.14898,38.74894],[-9.14846,38.74812],[-9.14817,38.74703],[-9.14512,38.73435],[-9.14516,38.73347],[-9.14552,38.73262],[-9.15003,38.72512],[-9.1525,38.7212],[-9.15284,38.72089],[-9.15483,38.72008]]]}},{"type":"Feature","properties":{"id":"badge-amarela","kind":"badge","ref":"Amarela","color":"#F4BC18","lineRef":"metro"},"geometry":{"type":"Point","coordinates":[-9.15482,38.7632]}},{"type":"Feature","properties":{"id":"line-verde","kind":"line","lineRef":"metro","ref":"Verde","color":"#00AAA6"},"geometry":{"type":"MultiLineString","coordinates":[[[-9.16643,38.75994],[-9.16227,38.75912],[-9.16121,38.75907],[-9.16007,38.7593],[-9.15642,38.76057],[-9.1542,38.76154],[-9.15337,38.7618],[-9.15231,38.76193],[-9.15128,38.76194],[-9.15022,38.76176],[-9.14933,38.76142],[-9.14833,38.76082],[-9.14774,38.76004],[-9.14013,38.74598],[-9.13961,38.74558],[-9.13903,38.74539],[-9.13675,38.7455],[-9.13588,38.74535],[-9.13522,38.74502],[-9.13409,38.74415],[-9.13363,38.7435],[-9.1334,38.74076],[-9.13427,38.73336],[-9.13457,38.73033],[-9.13488,38.72729],[-9.13518,38.72426],[-9.13548,38.72123],[-9.13579,38.71819],[-9.13609,38.71516],[-9.13635,38.71471],[-9.1368,38.71437],[-9.13914,38.71373],[-9.13972,38.7134],[-9.14017,38.71291],[-9.14041,38.71211],[-9.14027,38.70871],[-9.14051,38.70803],[-9.14111,38.70738],[-9.14217,38.70663],[-9.14312,38.70633],[-9.14449,38.7061],[-9.14683,38.70614]],[[-9.14683,38.70611],[-9.14449,38.70607],[-9.14306,38.7063],[-9.14201,38.70667],[-9.14106,38.70735],[-9.14046,38.70801],[-9.14022,38.7087],[-9.14036,38.71211],[-9.14013,38.71289],[-9.13968,38.71337],[-9.13912,38.71369],[-9.13676,38.71433],[-9.1363,38.71469],[-9.13606,38.71509],[-9.13577,38.71791],[-9.13549,38.72073],[-9.1352,38.72355],[-9.13491,38.72637],[-9.13463,38.7292],[-9.13434,38.73202],[-9.13406,38.73484],[-9.13377,38.73766],[-9.13337,38.74076],[-9.1336,38.74351],[-9.13385,38.74394],[-9.13419,38.74428],[-9.13519,38.74504],[-9.13586,38.74538],[-9.13675,38.74553],[-9.13902,38.74542],[-9.13959,38.7456],[-9.14011,38.746],[-9.14164,38.74883],[-9.14317,38.75166],[-9.14471,38.75449],[-9.14624,38.75732],[-9.14777,38.76015],[-9.14826,38.7608],[-9.14929,38.76145],[-9.15021,38.7618],[-9.15127,38.76197],[-9.15259,38.76195],[-9.15342,38.76183],[-9.15659,38.76054],[-9.16004,38.75935],[-9.16119,38.7591],[-9.16226,38.75915],[-9.16642,38.75997]]]}},{"type":"Feature","properties":{"id":"badge-verde","kind":"badge","ref":"Verde","color":"#00AAA6","lineRef":"metro"},"geometry":{"type":"Point","coordinates":[-9.13385,38.74394]}},{"type":"Feature","properties":{"id":"line-vermelha","kind":"line","lineRef":"metro","ref":"Vermelha","color":"#DF096F"},"geometry":{"type":"MultiLineString","coordinates":[[[-9.15263,38.73474],[-9.1513,38.73498],[-9.13911,38.73534],[-9.13825,38.73557],[-9.13687,38.73615],[-9.13576,38.73642],[-9.12709,38.73777],[-9.12639,38.73795],[-9.1258,38.73823],[-9.12131,38.74122],[-9.1209,38.74157],[-9.12048,38.74214],[-9.11471,38.75301],[-9.11303,38.75668],[-9.1129,38.75734],[-9.11291,38.75873],[-9.11278,38.75928],[-9.11099,38.76205],[-9.11027,38.76257],[-9.10924,38.7629],[-9.10181,38.76301],[-9.10102,38.7633],[-9.10035,38.7639],[-9.10007,38.76448],[-9.09995,38.76519],[-9.09922,38.77341],[-9.09943,38.77396],[-9.09974,38.77433],[-9.10024,38.77468],[-9.10084,38.7749],[-9.10163,38.77498],[-9.10565,38.7748],[-9.10655,38.77485],[-9.10721,38.77501],[-9.11123,38.77644],[-9.11209,38.77654],[-9.11286,38.77646],[-9.11391,38.77604],[-9.11736,38.77401],[-9.12106,38.77152],[-9.12299,38.76976],[-9.12364,38.76934],[-9.12499,38.76889],[-9.12828,38.76844]],[[-9.15263,38.73474],[-9.15208,38.73493],[-9.15131,38.73502],[-9.13912,38.73537],[-9.13847,38.73553],[-9.13689,38.73618],[-9.13577,38.73646],[-9.1271,38.73781],[-9.1264,38.73799],[-9.12581,38.73827],[-9.12127,38.74129],[-9.12085,38.74167],[-9.12052,38.74216],[-9.11474,38.75301],[-9.11306,38.75668],[-9.11293,38.75734],[-9.11294,38.75873],[-9.11281,38.75928],[-9.11102,38.76206],[-9.1101,38.76268],[-9.10902,38.76295],[-9.10182,38.76304],[-9.10104,38.76332],[-9.10038,38.76391],[-9.1001,38.76449],[-9.09998,38.76519],[-9.09925,38.77341],[-9.09946,38.77395],[-9.09976,38.77431],[-9.10026,38.77466],[-9.10085,38.77487],[-9.10163,38.77495],[-9.10565,38.77477],[-9.10656,38.77482],[-9.10722,38.77499],[-9.11124,38.77641],[-9.11209,38.77651],[-9.11285,38.77643],[-9.11389,38.77602],[-9.11734,38.77399],[-9.12103,38.7715],[-9.12296,38.76975],[-9.12362,38.76931],[-9.12498,38.76886],[-9.12828,38.76842]]]}},{"type":"Feature","properties":{"id":"badge-vermelha","kind":"badge","ref":"Vermelha","color":"#DF096F","lineRef":"metro"},"geometry":{"type":"Point","coordinates":[-9.10104,38.76332]}},{"type":"Feature","properties":{"id":"line-12e","kind":"line","lineRef":"tram","ref":"12E","color":"#B5651D"},"geometry":{"type":"MultiLineString","coordinates":[[[-9.13773,38.7131],[-9.13771,38.71334],[-9.13659,38.71361],[-9.1359,38.71548],[-9.13592,38.71572],[-9.13581,38.71602],[-9.13547,38.71671],[-9.13529,38.7168],[-9.13397,38.71623],[-9.13296,38.71607],[-9.13176,38.7152],[-9.13068,38.71404],[-9.13059,38.71285],[-9.13069,38.71252],[-9.13031,38.71208],[-9.1305,38.71187],[-9.13067,38.71146],[-9.13064,38.71104],[-9.1309,38.71075],[-9.13149,38.71042],[-9.13237,38.71014],[-9.13324,38.71004],[-9.13358,38.70979],[-9.13489,38.71027],[-9.1352,38.7101],[-9.13643,38.70982],[-9.13655,38.7099],[-9.13773,38.7131]]]}},{"type":"Feature","properties":{"id":"badge-12e","kind":"badge","ref":"12E","color":"#B5651D","lineRef":"tram"},"geometry":{"type":"Point","coordinates":[-9.13031,38.71208]}},{"type":"Feature","properties":{"id":"line-15e","kind":"line","lineRef":"tram","ref":"15E","color":"#B5651D"},"geometry":{"type":"MultiLineString","coordinates":[[[-9.13599,38.70847],[-9.13777,38.7132],[-9.13767,38.71336],[-9.13718,38.71345],[-9.13701,38.71334],[-9.13518,38.70889],[-9.13525,38.70873],[-9.13599,38.70847]],[[-9.13599,38.70847],[-9.1372,38.70813],[-9.13785,38.70809],[-9.1415,38.7072],[-9.1417,38.70706],[-9.14164,38.70677],[-9.14171,38.70667],[-9.14335,38.70623],[-9.14955,38.70639],[-9.15045,38.70653],[-9.1553,38.70639],[-9.15612,38.70615],[-9.15991,38.70439],[-9.16117,38.70401],[-9.16371,38.70354],[-9.17094,38.70349],[-9.1716,38.70373],[-9.17426,38.70436],[-9.17675,38.70465],[-9.17727,38.70483],[-9.17797,38.70464],[-9.17896,38.70401],[-9.17984,38.70299],[-9.18071,38.70231],[-9.18184,38.70105],[-9.18302,38.70037],[-9.18726,38.69868],[-9.18954,38.6982],[-9.19413,38.69744],[-9.19533,38.69753],[-9.19933,38.69743],[-9.2011,38.69717],[-9.20429,38.69741],[-9.20802,38.69647],[-9.20887,38.69642],[-9.21296,38.69514],[-9.21456,38.69503],[-9.21619,38.69506],[-9.22055,38.69644],[-9.2233,38.69775],[-9.22526,38.69839],[-9.22542,38.69903],[-9.22564,38.69937],[-9.2261,38.6997],[-9.22653,38.69985],[-9.22736,38.69988],[-9.22963,38.69911],[-9.23141,38.69947],[-9.23236,38.69946],[-9.23254,38.69929],[-9.2323,38.69915],[-9.2317,38.6993],[-9.23102,38.6993],[-9.22954,38.69909],[-9.22735,38.69982],[-9.22666,38.69984],[-9.22621,38.6997],[-9.22571,38.69938],[-9.22543,38.69893],[-9.22531,38.69836],[-9.22332,38.69773],[-9.2216,38.69684],[-9.22056,38.6964],[-9.21623,38.69503],[-9.21455,38.695],[-9.21295,38.69511],[-9.20891,38.69637],[-9.20801,38.69644],[-9.20428,38.69738],[-9.2011,38.69714],[-9.19943,38.69739],[-9.19531,38.6975],[-9.19408,38.69741],[-9.18946,38.69818],[-9.18731,38.69863],[-9.18634,38.69895],[-9.18298,38.70034],[-9.18185,38.701],[-9.18073,38.70226],[-9.17982,38.70296],[-9.17893,38.70399],[-9.17794,38.70463],[-9.17734,38.70479],[-9.17677,38.70463],[-9.17442,38.70431],[-9.17092,38.70344],[-9.1637,38.70351],[-9.16076,38.70406],[-9.1599,38.70435],[-9.15634,38.706],[-9.15528,38.70633],[-9.15447,38.70643],[-9.15217,38.70639],[-9.15133,38.7065],[-9.15042,38.70649],[-9.14955,38.70635],[-9.14339,38.70618],[-9.14162,38.70665],[-9.14155,38.70677],[-9.14163,38.70705],[-9.14152,38.70716],[-9.13784,38.70806],[-9.13708,38.7081],[-9.13621,38.70831],[-9.13599,38.70847]]]}},{"type":"Feature","properties":{"id":"badge-15e","kind":"badge","ref":"15E","color":"#B5651D","lineRef":"tram"},"geometry":{"type":"Point","coordinates":[-9.23102,38.6993]}},{"type":"Feature","properties":{"id":"line-18e","kind":"line","lineRef":"tram","ref":"18E","color":"#B5651D"},"geometry":{"type":"MultiLineString","coordinates":[[[-9.14533,38.70631],[-9.14955,38.70639],[-9.15045,38.70653],[-9.15132,38.70654],[-9.15217,38.70643],[-9.15502,38.70643],[-9.15598,38.70621],[-9.15991,38.70439],[-9.16082,38.7041],[-9.16313,38.70361],[-9.16406,38.70352],[-9.17072,38.70348],[-9.17426,38.70436],[-9.17675,38.70465],[-9.17716,38.70482],[-9.1783,38.70454],[-9.17913,38.70628],[-9.17929,38.70635],[-9.18077,38.70605],[-9.18264,38.70609],[-9.18467,38.70583],[-9.18638,38.70474],[-9.18795,38.70502],[-9.18843,38.70489],[-9.19118,38.70354],[-9.19369,38.70304],[-9.19394,38.7032],[-9.1944,38.70375],[-9.19544,38.70363],[-9.19561,38.70368],[-9.19592,38.70484],[-9.19604,38.70496],[-9.19926,38.70473],[-9.19932,38.70483],[-9.19902,38.70772],[-9.19951,38.70872],[-9.20105,38.70906],[-9.20321,38.70973],[-9.20341,38.70964],[-9.20327,38.70938],[-9.20255,38.70949],[-9.19955,38.70869],[-9.19905,38.70771],[-9.19935,38.70483],[-9.19929,38.70471],[-9.19604,38.70492],[-9.19558,38.70364],[-9.19442,38.70372],[-9.19399,38.7032],[-9.19371,38.70302],[-9.19117,38.70352],[-9.18853,38.70481],[-9.18789,38.705],[-9.18636,38.70471],[-9.18464,38.7058],[-9.18264,38.70606],[-9.18077,38.70602],[-9.17928,38.70632],[-9.17917,38.70627],[-9.17831,38.7045],[-9.17718,38.70479],[-9.17677,38.70463],[-9.17442,38.70431],[-9.17075,38.70344],[-9.16405,38.70349],[-9.16286,38.70362],[-9.16076,38.70406],[-9.1599,38.70435],[-9.15607,38.70611],[-9.15478,38.70641],[-9.15217,38.70639],[-9.15133,38.7065],[-9.15042,38.70649],[-9.14955,38.70635],[-9.14504,38.70626]]]}},{"type":"Feature","properties":{"id":"badge-18e","kind":"badge","ref":"18E","color":"#B5651D","lineRef":"tram"},"geometry":{"type":"Point","coordinates":[-9.20321,38.70973]}},{"type":"Feature","properties":{"id":"line-24e","kind":"line","lineRef":"tram","ref":"24E","color":"#B5651D"},"geometry":{"type":"MultiLineString","coordinates":[[[-9.1438,38.71056],[-9.14364,38.71038],[-9.14299,38.71056],[-9.14294,38.7119],[-9.14326,38.71298],[-9.14478,38.71538],[-9.14733,38.71605],[-9.148,38.7165],[-9.14938,38.71719],[-9.15146,38.71774],[-9.15299,38.71865],[-9.1538,38.71946],[-9.15433,38.72022],[-9.15504,38.72019],[-9.15527,38.72029],[-9.15721,38.72225],[-9.15951,38.72349],[-9.15988,38.72459],[-9.15987,38.72492],[-9.16014,38.72548],[-9.16078,38.72613],[-9.16161,38.72677],[-9.16148,38.72767],[-9.1617,38.72772],[-9.16231,38.72754],[-9.16228,38.72684],[-9.16163,38.72664],[-9.16076,38.72601],[-9.1602,38.7254],[-9.15954,38.72348],[-9.15714,38.72218],[-9.1559,38.72084],[-9.15562,38.72047],[-9.1554,38.71992],[-9.15433,38.72],[-9.15308,38.71867],[-9.15153,38.71774],[-9.1493,38.71711],[-9.14799,38.71647],[-9.14724,38.71598],[-9.14482,38.71538],[-9.14331,38.71298],[-9.14302,38.71209],[-9.14297,38.71086],[-9.14357,38.71077]]]}},{"type":"Feature","properties":{"id":"badge-24e","kind":"badge","ref":"24E","color":"#B5651D","lineRef":"tram"},"geometry":{"type":"Point","coordinates":[-9.16148,38.72767]}},{"type":"Feature","properties":{"id":"line-25e","kind":"line","lineRef":"tram","ref":"25E","color":"#B5651D"},"geometry":{"type":"MultiLineString","coordinates":[[[-9.13599,38.70847],[-9.13777,38.7132],[-9.13767,38.71336],[-9.13718,38.71345],[-9.13701,38.71334],[-9.13518,38.70889],[-9.13525,38.70873],[-9.13599,38.70847]],[[-9.13599,38.70847],[-9.1372,38.70813],[-9.13785,38.70809],[-9.14176,38.70715],[-9.14213,38.70741],[-9.14282,38.70728],[-9.1465,38.70845],[-9.15038,38.70898],[-9.15281,38.70839],[-9.15296,38.70804],[-9.15381,38.70773],[-9.15593,38.70667],[-9.15682,38.70655],[-9.15777,38.7066],[-9.1581,38.70695],[-9.15856,38.70795],[-9.15871,38.70807],[-9.16118,38.70706],[-9.16127,38.70712],[-9.16192,38.70915],[-9.16261,38.70983],[-9.16032,38.71178],[-9.16046,38.71242],[-9.15939,38.71327],[-9.15939,38.71344],[-9.16027,38.71373],[-9.16117,38.71385],[-9.16365,38.71546],[-9.1639,38.71554],[-9.16888,38.71431],[-9.16937,38.71435],[-9.16952,38.71421],[-9.16946,38.71406],[-9.16922,38.71402],[-9.16887,38.71428],[-9.1639,38.71552],[-9.16116,38.71381],[-9.16028,38.71371],[-9.15942,38.71342],[-9.15944,38.71327],[-9.16049,38.71243],[-9.16033,38.7119],[-9.16037,38.71176],[-9.16266,38.70983],[-9.16193,38.70909],[-9.16133,38.70712],[-9.16123,38.70702],[-9.1587,38.70804],[-9.15814,38.70695],[-9.15778,38.70656],[-9.15685,38.70652],[-9.15592,38.70664],[-9.15375,38.70773],[-9.15293,38.70802],[-9.15285,38.7083],[-9.15273,38.70839],[-9.1504,38.70896],[-9.14642,38.7084],[-9.14296,38.70729],[-9.14263,38.70693],[-9.13784,38.70806],[-9.13708,38.7081],[-9.13621,38.70831],[-9.13599,38.70847]]]}},{"type":"Feature","properties":{"id":"badge-25e","kind":"badge","ref":"25E","color":"#B5651D","lineRef":"tram"},"geometry":{"type":"Point","coordinates":[-9.16946,38.71406]}},{"type":"Feature","properties":{"id":"line-28e","kind":"line","lineRef":"tram","ref":"28E","color":"#B5651D"},"geometry":{"type":"MultiLineString","coordinates":[[[-9.13158,38.72318],[-9.13183,38.72368],[-9.13257,38.72426],[-9.13314,38.72414],[-9.13328,38.72346],[-9.13504,38.72358],[-9.13526,38.72348],[-9.13547,38.72151],[-9.13544,38.72095],[-9.13554,38.72077],[-9.13589,38.71742],[-9.13636,38.71683],[-9.13713,38.71528],[-9.13705,38.71515],[-9.13654,38.71499]],[[-9.13613,38.71522],[-9.13545,38.71676],[-9.13579,38.71711],[-9.13515,38.72346],[-9.135,38.72354],[-9.13326,38.72342],[-9.1324,38.72294],[-9.13183,38.72327],[-9.13158,38.72318]],[[-9.13157,38.72317],[-9.13063,38.72173],[-9.12996,38.72135],[-9.13019,38.72088],[-9.1301,38.72051],[-9.12979,38.72007],[-9.12976,38.71985],[-9.12992,38.71889],[-9.12996,38.71747],[-9.12843,38.71436]],[[-9.12843,38.71436],[-9.12993,38.71747],[-9.1299,38.71882],[-9.12974,38.71997],[-9.13006,38.72049],[-9.13015,38.72085],[-9.12992,38.72136],[-9.1306,38.72174],[-9.13157,38.72317]],[[-9.12874,38.71332],[-9.12858,38.71372],[-9.12824,38.71401],[-9.12843,38.71436]],[[-9.12874,38.71332],[-9.12905,38.71283],[-9.12931,38.71286],[-9.13023,38.71329],[-9.13053,38.71314],[-9.13069,38.71252],[-9.13032,38.71205],[-9.1305,38.71187],[-9.13067,38.71146],[-9.13064,38.71104],[-9.1309,38.71075],[-9.13137,38.71047],[-9.13237,38.71014],[-9.13324,38.71004],[-9.13358,38.70979],[-9.13494,38.71026],[-9.1352,38.7101],[-9.13913,38.70914],[-9.1396,38.70877],[-9.14005,38.70802],[-9.14188,38.70796],[-9.14204,38.70808],[-9.14195,38.7091],[-9.14204,38.71037],[-9.14293,38.71061],[-9.14316,38.7108],[-9.14475,38.71067],[-9.14671,38.71097],[-9.14878,38.71111],[-9.15181,38.71073],[-9.15213,38.71088],[-9.15236,38.7111],[-9.15528,38.71233],[-9.15624,38.7126],[-9.15793,38.71281],[-9.15988,38.71364],[-9.16111,38.71382],[-9.16381,38.71553],[-9.16413,38.71552],[-9.16888,38.71431],[-9.16937,38.71435],[-9.16952,38.71417],[-9.16942,38.71404],[-9.16922,38.71402],[-9.16887,38.71428],[-9.16385,38.71551],[-9.16112,38.71379],[-9.15973,38.71356],[-9.15798,38.71279],[-9.15616,38.71256],[-9.15526,38.71229],[-9.15268,38.71119],[-9.15256,38.7098],[-9.15244,38.70962],[-9.15137,38.70994],[-9.14954,38.71098],[-9.14903,38.71107],[-9.14701,38.71097],[-9.1447,38.71064],[-9.14394,38.71069],[-9.14364,38.71038],[-9.14289,38.71055],[-9.14251,38.71052],[-9.1424,38.71038],[-9.14269,38.70808],[-9.14259,38.70797],[-9.14221,38.70795],[-9.14003,38.70799],[-9.13957,38.70875],[-9.13912,38.70911],[-9.13519,38.71008],[-9.1349,38.71025],[-9.13356,38.70976],[-9.13322,38.71001],[-9.13233,38.71012],[-9.13134,38.71045],[-9.13078,38.7108],[-9.13062,38.71102],[-9.13062,38.71147],[-9.13045,38.71188],[-9.13026,38.71208],[-9.13065,38.71252],[-9.13054,38.71309],[-9.13025,38.71327],[-9.12938,38.71286],[-9.12904,38.71283],[-9.12874,38.71332]]]}},{"type":"Feature","properties":{"id":"badge-28e","kind":"badge","ref":"28E","color":"#B5651D","lineRef":"tram"},"geometry":{"type":"Point","coordinates":[-9.16922,38.71402]}},{"type":"Feature","properties":{"id":"line-51e","kind":"line","lineRef":"tram","ref":"51E","color":"#B5651D"},"geometry":{"type":"MultiLineString","coordinates":[[[-9.1427,38.71615],[-9.14315,38.71584],[-9.14396,38.71416]],[[-9.14394,38.71415],[-9.14314,38.71583],[-9.14269,38.71614]]]}},{"type":"Feature","properties":{"id":"badge-51e","kind":"badge","ref":"51E","color":"#B5651D","lineRef":"tram"},"geometry":{"type":"Point","coordinates":[-9.14315,38.71584]}},{"type":"Feature","properties":{"id":"line-52e","kind":"line","lineRef":"tram","ref":"52E","color":"#B5651D"},"geometry":{"type":"MultiLineString","coordinates":[[[-9.14182,38.71784],[-9.14071,38.71814],[-9.14017,38.71865]],[[-9.14015,38.71864],[-9.14034,38.71836],[-9.1407,38.71811],[-9.14181,38.71783]]]}},{"type":"Feature","properties":{"id":"badge-52e","kind":"badge","ref":"52E","color":"#B5651D","lineRef":"tram"},"geometry":{"type":"Point","coordinates":[-9.1407,38.71811]}},{"type":"Feature","properties":{"id":"line-53e","kind":"line","lineRef":"tram","ref":"53E","color":"#B5651D"},"geometry":{"type":"MultiLineString","coordinates":[[[-9.14679,38.70857],[-9.1458,38.71076]],[[-9.14679,38.70857],[-9.14579,38.71075]]]}},{"type":"Feature","properties":{"id":"badge-53e","kind":"badge","ref":"53E","color":"#B5651D","lineRef":"tram"},"geometry":{"type":"Point","coordinates":[-9.1458,38.71076]}},{"type":"Feature","properties":{"id":"hub-0","kind":"hub","name":"Alameda","subKey":"hub.alameda","lab":1},"geometry":{"type":"Point","coordinates":[-9.134,38.737]}},{"type":"Feature","properties":{"id":"hub-1","kind":"hub","name":"Baixa-Chiado","subKey":"hub.baixachiado","lab":1},"geometry":{"type":"Point","coordinates":[-9.14,38.7107]}},{"type":"Feature","properties":{"id":"hub-2","kind":"hub","name":"Marquês de Pombal","subKey":"hub.marques","lab":1},"geometry":{"type":"Point","coordinates":[-9.15,38.725]}},{"type":"Feature","properties":{"id":"hub-3","kind":"hub","name":"São Sebastião","subKey":"hub.saosebastiao","lab":1},"geometry":{"type":"Point","coordinates":[-9.154,38.737]}},{"type":"Feature","properties":{"id":"hub-4","kind":"hub","name":"Campo Grande","subKey":"hub.campogrande","lab":1},"geometry":{"type":"Point","coordinates":[-9.158,38.758]}},{"type":"Feature","properties":{"id":"hub-5","kind":"hub","name":"Saldanha","subKey":"hub.saldanha","lab":1},"geometry":{"type":"Point","coordinates":[-9.145,38.7315]}},{"type":"Feature","properties":{"id":"hub-6","kind":"hub","name":"Cais do Sodré","subKey":"hub.caisdosodre","lab":1},"geometry":{"type":"Point","coordinates":[-9.1447,38.7057]}},{"type":"Feature","properties":{"id":"hub-7","kind":"hub","name":"Oriente","subKey":"hub.oriente","lab":1},"geometry":{"type":"Point","coordinates":[-9.099,38.768]}},{"type":"Feature","properties":{"id":"stn-1","kind":"stop","name":"Sapadores","color":"#B5651D","lineRef":"tram","lab":1},"geometry":{"type":"Point","coordinates":[-9.12991,38.72134]}},{"type":"Feature","properties":{"id":"stn-2","kind":"stop","name":"Rua dos Lagares","color":"#B5651D","lineRef":"tram","lab":1},"geometry":{"type":"Point","coordinates":[-9.13207,38.71549]}},{"type":"Feature","properties":{"id":"stn-3","kind":"node","name":"Odivelas","color":"#F4BC18","lineRef":"metro","lab":1},"geometry":{"type":"Point","coordinates":[-9.173,38.79326]}},{"type":"Feature","properties":{"id":"stn-4","kind":"node","name":"Senhor Roubado","color":"#F4BC18","lineRef":"metro","lab":1},"geometry":{"type":"Point","coordinates":[-9.17183,38.78562]}},{"type":"Feature","properties":{"id":"stn-5","kind":"node","name":"Ameixoeira","color":"#F4BC18","lineRef":"metro","lab":1},"geometry":{"type":"Point","coordinates":[-9.15963,38.77932]}},{"type":"Feature","properties":{"id":"stn-6","kind":"node","name":"Lumiar","color":"#F4BC18","lineRef":"metro","lab":1},"geometry":{"type":"Point","coordinates":[-9.15934,38.7734]}},{"type":"Feature","properties":{"id":"stn-7","kind":"node","name":"Cidade Universitária","color":"#F4BC18","lineRef":"metro","lab":1},"geometry":{"type":"Point","coordinates":[-9.15911,38.7515]}},{"type":"Feature","properties":{"id":"stn-8","kind":"node","name":"Entrecampos","color":"#F4BC18","lineRef":"metro","lab":1},"geometry":{"type":"Point","coordinates":[-9.1482,38.74703]}},{"type":"Feature","properties":{"id":"stn-9","kind":"node","name":"Campo Pequeno","color":"#F4BC18","lineRef":"metro","lab":1},"geometry":{"type":"Point","coordinates":[-9.14679,38.74111]}},{"type":"Feature","properties":{"id":"stn-10","kind":"node","name":"Rato","color":"#F4BC18","lineRef":"metro","lab":1},"geometry":{"type":"Point","coordinates":[-9.15485,38.72011]}},{"type":"Feature","properties":{"id":"stn-11","kind":"stop","name":"Calçada de São Vicente","color":"#B5651D","lineRef":"tram","lab":1},"geometry":{"type":"Point","coordinates":[-9.12869,38.71349]}},{"type":"Feature","properties":{"id":"stn-12","kind":"stop","name":"Estrela (Basílica)","color":"#B5651D","lineRef":"tram","lab":1},"geometry":{"type":"Point","coordinates":[-9.16004,38.71365]}},{"type":"Feature","properties":{"id":"stn-13","kind":"stop","name":"Largo Vitorino Damásio","color":"#B5651D","lineRef":"tram","lab":1},"geometry":{"type":"Point","coordinates":[-9.15344,38.70785]}},{"type":"Feature","properties":{"id":"stn-14","kind":"stop","name":"Rua dos Poiais de São Bento","color":"#B5651D","lineRef":"tram","lab":1},"geometry":{"type":"Point","coordinates":[-9.15181,38.71073]}},{"type":"Feature","properties":{"id":"stn-15","kind":"node","name":"Parque","color":"#4E84C4","lineRef":"metro","lab":1},"geometry":{"type":"Point","coordinates":[-9.15026,38.72952]}},{"type":"Feature","properties":{"id":"stn-16","kind":"node","name":"Olaias","color":"#DF096F","lineRef":"metro","lab":1},"geometry":{"type":"Point","coordinates":[-9.12394,38.73945]}},{"type":"Feature","properties":{"id":"stn-17","kind":"node","name":"Bela Vista","color":"#DF096F","lineRef":"metro","lab":1},"geometry":{"type":"Point","coordinates":[-9.11768,38.74754]}},{"type":"Feature","properties":{"id":"stn-18","kind":"node","name":"Chelas","color":"#DF096F","lineRef":"metro","lab":1},"geometry":{"type":"Point","coordinates":[-9.11389,38.75483]}},{"type":"Feature","properties":{"id":"stn-19","kind":"node","name":"Cabo Ruivo","color":"#DF096F","lineRef":"metro","lab":1},"geometry":{"type":"Point","coordinates":[-9.10406,38.76298]}},{"type":"Feature","properties":{"id":"stn-20","kind":"node","name":"Praça de Espanha","color":"#4E84C4","lineRef":"metro","lab":1},"geometry":{"type":"Point","coordinates":[-9.15925,38.73768]}},{"type":"Feature","properties":{"id":"stn-21","kind":"node","name":"Jardim Zoológico","color":"#4E84C4","lineRef":"metro","lab":1},"geometry":{"type":"Point","coordinates":[-9.16891,38.74209]}},{"type":"Feature","properties":{"id":"stn-22","kind":"node","name":"Laranjeiras","color":"#4E84C4","lineRef":"metro","lab":1},"geometry":{"type":"Point","coordinates":[-9.17304,38.74825]}},{"type":"Feature","properties":{"id":"stn-23","kind":"node","name":"Alto dos Moinhos","color":"#4E84C4","lineRef":"metro","lab":1},"geometry":{"type":"Point","coordinates":[-9.17979,38.7499]}},{"type":"Feature","properties":{"id":"stn-24","kind":"node","name":"Colégio Militar/Luz","color":"#4E84C4","lineRef":"metro","lab":1},"geometry":{"type":"Point","coordinates":[-9.18925,38.75343]}},{"type":"Feature","properties":{"id":"stn-25","kind":"node","name":"Carnide","color":"#4E84C4","lineRef":"metro","lab":1},"geometry":{"type":"Point","coordinates":[-9.19271,38.75923]}},{"type":"Feature","properties":{"id":"stn-26","kind":"node","name":"Alfornelos","color":"#4E84C4","lineRef":"metro","lab":1},"geometry":{"type":"Point","coordinates":[-9.20456,38.76033]}},{"type":"Feature","properties":{"id":"stn-27","kind":"node","name":"Amadora Este","color":"#4E84C4","lineRef":"metro","lab":1},"geometry":{"type":"Point","coordinates":[-9.21833,38.75842]}},{"type":"Feature","properties":{"id":"stn-28","kind":"stop","name":"Praça da Figueira","color":"#B5651D","lineRef":"tram","lab":1},"geometry":{"type":"Point","coordinates":[-9.13774,38.7131]}},{"type":"Feature","properties":{"id":"stn-29","kind":"node","name":"Largo da Academia Nacional das Belas Artes","color":"#00AAA6","lineRef":"metro","lab":1},"geometry":{"type":"Point","coordinates":[-9.14045,38.70802]}},{"type":"Feature","properties":{"id":"stn-30","kind":"stop","name":"Corpo Santo","color":"#B5651D","lineRef":"tram","lab":1},"geometry":{"type":"Point","coordinates":[-9.14199,38.70729]}},{"type":"Feature","properties":{"id":"stn-31","kind":"node","name":"Avenida","color":"#4E84C4","lineRef":"metro","lab":1},"geometry":{"type":"Point","coordinates":[-9.14483,38.71901]}},{"type":"Feature","properties":{"id":"stn-32","kind":"stop","name":"Socorro","color":"#B5651D","lineRef":"tram","lab":1},"geometry":{"type":"Point","coordinates":[-9.13515,38.71674]}},{"type":"Feature","properties":{"id":"stn-33","kind":"stop","name":"Rua de São Paulo (Bica)","color":"#B5651D","lineRef":"tram","lab":1},"geometry":{"type":"Point","coordinates":[-9.14705,38.70847]}},{"type":"Feature","properties":{"id":"stn-35","kind":"stop","name":"Santos-o-Velho","color":"#B5651D","lineRef":"tram","lab":1},"geometry":{"type":"Point","coordinates":[-9.15786,38.70668]}},{"type":"Feature","properties":{"id":"stn-36","kind":"stop","name":"Largo do Terreirinho","color":"#B5651D","lineRef":"tram","lab":1},"geometry":{"type":"Point","coordinates":[-9.13302,38.71609]}},{"type":"Feature","properties":{"id":"stn-37","kind":"stop","name":"Campo de Ourique (Prazeres)","color":"#B5651D","lineRef":"tram","lab":1},"geometry":{"type":"Point","coordinates":[-9.16951,38.71425]}},{"type":"Feature","properties":{"id":"stn-38","kind":"node","name":"Martim Moniz","color":"#00AAA6","lineRef":"metro","lab":1},"geometry":{"type":"Point","coordinates":[-9.13604,38.71519]}},{"type":"Feature","properties":{"id":"stn-39","kind":"stop","name":"Santos","color":"#B5651D","lineRef":"tram","lab":1},"geometry":{"type":"Point","coordinates":[-9.15574,38.70673]}},{"type":"Feature","properties":{"id":"stn-40","kind":"stop","name":"Limoeiro","color":"#B5651D","lineRef":"tram","lab":1},"geometry":{"type":"Point","coordinates":[-9.13165,38.71034]}},{"type":"Feature","properties":{"id":"stn-41","kind":"stop","name":"Sé","color":"#B5651D","lineRef":"tram","lab":1},"geometry":{"type":"Point","coordinates":[-9.13423,38.71002]}},{"type":"Feature","properties":{"id":"stn-42","kind":"stop","name":"Estrela - Rua Domingos Sequeira","color":"#B5651D","lineRef":"tram","lab":1},"geometry":{"type":"Point","coordinates":[-9.16218,38.71451]}},{"type":"Feature","properties":{"id":"stn-43","kind":"stop","name":"Rua de São Bento / Calçada da Estrela","color":"#B5651D","lineRef":"tram","lab":1},"geometry":{"type":"Point","coordinates":[-9.15263,38.71089]}},{"type":"Feature","properties":{"id":"stn-44","kind":"stop","name":"Calçada do Combro","color":"#B5651D","lineRef":"tram","lab":1},"geometry":{"type":"Point","coordinates":[-9.14951,38.71099]}},{"type":"Feature","properties":{"id":"stn-45","kind":"stop","name":"Calçada da Estrela/Rua Borges Carneiro","color":"#B5651D","lineRef":"tram","lab":1},"geometry":{"type":"Point","coordinates":[-9.15632,38.71259]}},{"type":"Feature","properties":{"id":"stn-46","kind":"stop","name":"Calçada da Estrela / Rua Doutor Teófilo Braga","color":"#B5651D","lineRef":"tram","lab":1},"geometry":{"type":"Point","coordinates":[-9.15742,38.71274]}},{"type":"Feature","properties":{"id":"stn-48","kind":"stop","name":"Chiado","color":"#B5651D","lineRef":"tram","lab":1},"geometry":{"type":"Point","coordinates":[-9.14208,38.71041]}},{"type":"Feature","properties":{"id":"stn-50","kind":"stop","name":"Miradouro de Santa Luzia","color":"#B5651D","lineRef":"tram","lab":1},"geometry":{"type":"Point","coordinates":[-9.13067,38.71132]}},{"type":"Feature","properties":{"id":"stn-52","kind":"stop","name":"Rua das Escolas Gerais","color":"#B5651D","lineRef":"tram","lab":1},"geometry":{"type":"Point","coordinates":[-9.12974,38.71306]}},{"type":"Feature","properties":{"id":"stn-53","kind":"stop","name":"Rua da Graça","color":"#B5651D","lineRef":"tram","lab":1},"geometry":{"type":"Point","coordinates":[-9.12985,38.71909]}},{"type":"Feature","properties":{"id":"stn-57","kind":"stop","name":"Rua de São Domingos à Lapa","color":"#B5651D","lineRef":"tram","lab":1},"geometry":{"type":"Point","coordinates":[-9.16233,38.70954]}},{"type":"Feature","properties":{"id":"stn-58","kind":"stop","name":"Graça","color":"#B5651D","lineRef":"tram","lab":1},"geometry":{"type":"Point","coordinates":[-9.12978,38.71725]}},{"type":"Feature","properties":{"id":"stn-60","kind":"stop","name":"Praça Luís de Camões","color":"#B5651D","lineRef":"tram","lab":1},"geometry":{"type":"Point","coordinates":[-9.1438,38.71056]}},{"type":"Feature","properties":{"id":"stn-61","kind":"stop","name":"Rua do Forno do Tijolo","color":"#B5651D","lineRef":"tram","lab":1},"geometry":{"type":"Point","coordinates":[-9.13204,38.72388]}},{"type":"Feature","properties":{"id":"stn-62","kind":"stop","name":"Rua Angelina Vidal","color":"#B5651D","lineRef":"tram","lab":1},"geometry":{"type":"Point","coordinates":[-9.13103,38.72232]}},{"type":"Feature","properties":{"id":"stn-63","kind":"stop","name":"Rua da Conceição / Rua dos Fanqueiros","color":"#B5651D","lineRef":"tram","lab":1},"geometry":{"type":"Point","coordinates":[-9.13595,38.70992]}},{"type":"Feature","properties":{"id":"stn-64","kind":"stop","name":"Praça Luís de Camões (Bairro Alto)","color":"#B5651D","lineRef":"tram","lab":1},"geometry":{"type":"Point","coordinates":[-9.14357,38.71077]}},{"type":"Feature","properties":{"id":"stn-65","kind":"stop","name":"Cemitério da Ajuda","color":"#B5651D","lineRef":"tram","lab":1},"geometry":{"type":"Point","coordinates":[-9.20314,38.70971]}},{"type":"Feature","properties":{"id":"stn-66","kind":"stop","name":"Rua das Açucenas","color":"#B5651D","lineRef":"tram","lab":1},"geometry":{"type":"Point","coordinates":[-9.20021,38.70885]}},{"type":"Feature","properties":{"id":"stn-68","kind":"stop","name":"Calçada da Boa Hora","color":"#B5651D","lineRef":"tram","lab":1},"geometry":{"type":"Point","coordinates":[-9.19333,38.70311]}},{"type":"Feature","properties":{"id":"stn-69","kind":"stop","name":"Rua de Dom Vasco","color":"#B5651D","lineRef":"tram","lab":1},"geometry":{"type":"Point","coordinates":[-9.19671,38.70492]}},{"type":"Feature","properties":{"id":"stn-71","kind":"stop","name":"Calçada da Ajuda (GNR)","color":"#B5651D","lineRef":"tram","lab":1},"geometry":{"type":"Point","coordinates":[-9.19915,38.70639]}},{"type":"Feature","properties":{"id":"stn-72","kind":"stop","name":"Cais do Sodré","color":"#B5651D","lineRef":"tram","lab":1},"geometry":{"type":"Point","coordinates":[-9.14504,38.70626]}},{"type":"Feature","properties":{"id":"stn-74","kind":"stop","name":"Avenida Infante Santo","color":"#B5651D","lineRef":"tram","lab":1},"geometry":{"type":"Point","coordinates":[-9.16772,38.70351]}},{"type":"Feature","properties":{"id":"stn-75","kind":"stop","name":"Alcântara - Avenida 24 de Julho","color":"#B5651D","lineRef":"tram","lab":1},"geometry":{"type":"Point","coordinates":[-9.17384,38.70417]}},{"type":"Feature","properties":{"id":"stn-76","kind":"stop","name":"Alto de Santo Amaro","color":"#B5651D","lineRef":"tram","lab":1},"geometry":{"type":"Point","coordinates":[-9.18746,38.70492]}},{"type":"Feature","properties":{"id":"stn-78","kind":"stop","name":"Boa Hora","color":"#B5651D","lineRef":"tram","lab":1},"geometry":{"type":"Point","coordinates":[-9.19461,38.70373]}},{"type":"Feature","properties":{"id":"stn-79","kind":"stop","name":"Calvário","color":"#B5651D","lineRef":"tram","lab":1},"geometry":{"type":"Point","coordinates":[-9.1775,38.70475]}},{"type":"Feature","properties":{"id":"stn-80","kind":"stop","name":"Calçada da Ajuda (Palácio)","color":"#B5651D","lineRef":"tram","lab":1},"geometry":{"type":"Point","coordinates":[-9.19907,38.7072]}},{"type":"Feature","properties":{"id":"stn-81","kind":"stop","name":"Calçada da Tapada","color":"#B5651D","lineRef":"tram","lab":1},"geometry":{"type":"Point","coordinates":[-9.17943,38.70628]}},{"type":"Feature","properties":{"id":"stn-82","kind":"stop","name":"Pavilhão Desportivo da Ajuda","color":"#B5651D","lineRef":"tram","lab":1},"geometry":{"type":"Point","coordinates":[-9.18226,38.70606]}},{"type":"Feature","properties":{"id":"stn-83","kind":"stop","name":"Rua da Bica do Marquês","color":"#B5651D","lineRef":"tram","lab":1},"geometry":{"type":"Point","coordinates":[-9.19871,38.70474]}},{"type":"Feature","properties":{"id":"stn-84","kind":"stop","name":"Rua João de Barros","color":"#B5651D","lineRef":"tram","lab":1},"geometry":{"type":"Point","coordinates":[-9.1854,38.70531]}},{"type":"Feature","properties":{"id":"stn-85","kind":"stop","name":"Cais da Rocha (Museu Nacional de Arte Antiga)","color":"#B5651D","lineRef":"tram","lab":1},"geometry":{"type":"Point","coordinates":[-9.16277,38.70364]}},{"type":"Feature","properties":{"id":"stn-97","kind":"stop","name":"Rio Seco","color":"#B5651D","lineRef":"tram","lab":1},"geometry":{"type":"Point","coordinates":[-9.19084,38.70371]}},{"type":"Feature","properties":{"id":"stn-98","kind":"stop","name":"Rua Aliança Operária","color":"#B5651D","lineRef":"tram","lab":1},"geometry":{"type":"Point","coordinates":[-9.18954,38.70435]}},{"type":"Feature","properties":{"id":"stn-101","kind":"stop","name":"Conde Barão - Avenida 24 de Julho","color":"#B5651D","lineRef":"tram","lab":1},"geometry":{"type":"Point","coordinates":[-9.14911,38.70638]}},{"type":"Feature","properties":{"id":"stn-102","kind":"stop","name":"Mosteiro dos Jerónimos","color":"#B5651D","lineRef":"tram","lab":1},"geometry":{"type":"Point","coordinates":[-9.20348,38.69735]}},{"type":"Feature","properties":{"id":"stn-103","kind":"stop","name":"Altinho (MAAT)","color":"#B5651D","lineRef":"tram","lab":1},"geometry":{"type":"Point","coordinates":[-9.19408,38.69741]}},{"type":"Feature","properties":{"id":"stn-104","kind":"stop","name":"Hospital de Egas Moniz","color":"#B5651D","lineRef":"tram","lab":1},"geometry":{"type":"Point","coordinates":[-9.18748,38.69859]}},{"type":"Feature","properties":{"id":"stn-105","kind":"stop","name":"Pedrouços","color":"#B5651D","lineRef":"tram","lab":1},"geometry":{"type":"Point","coordinates":[-9.21956,38.69609]}},{"type":"Feature","properties":{"id":"stn-106","kind":"stop","name":"Algés (Jardim)","color":"#B5651D","lineRef":"tram","lab":1},"geometry":{"type":"Point","coordinates":[-9.23199,38.69923]}},{"type":"Feature","properties":{"id":"stn-107","kind":"stop","name":"Algés - Praça Dom Manuel I","color":"#B5651D","lineRef":"tram","lab":1},"geometry":{"type":"Point","coordinates":[-9.22859,38.69942]}},{"type":"Feature","properties":{"id":"stn-108","kind":"stop","name":"Centro Cultural de Belém","color":"#B5651D","lineRef":"tram","lab":1},"geometry":{"type":"Point","coordinates":[-9.20971,38.69611]}},{"type":"Feature","properties":{"id":"stn-109","kind":"stop","name":"Largo da Princesa","color":"#B5651D","lineRef":"tram","lab":1},"geometry":{"type":"Point","coordinates":[-9.21555,38.69502]}},{"type":"Feature","properties":{"id":"stn-110","kind":"stop","name":"Rua Damião de Góis","color":"#B5651D","lineRef":"tram","lab":1},"geometry":{"type":"Point","coordinates":[-9.22503,38.69828]}},{"type":"Feature","properties":{"id":"stn-111","kind":"stop","name":"Belém","color":"#B5651D","lineRef":"tram","lab":1},"geometry":{"type":"Point","coordinates":[-9.19885,38.6974]}},{"type":"Feature","properties":{"id":"stn-113","kind":"stop","name":"Estação de Santo Amaro","color":"#B5651D","lineRef":"tram","lab":1},"geometry":{"type":"Point","coordinates":[-9.18014,38.70273]}},{"type":"Feature","properties":{"id":"stn-114","kind":"stop","name":"Praça do Comércio","color":"#B5651D","lineRef":"tram","lab":1},"geometry":{"type":"Point","coordinates":[-9.13634,38.70827]}},{"type":"Feature","properties":{"id":"stn-115","kind":"stop","name":"Rua Pinto Ferreira","color":"#B5651D","lineRef":"tram","lab":1},"geometry":{"type":"Point","coordinates":[-9.19059,38.69801]}},{"type":"Feature","properties":{"id":"stn-116","kind":"stop","name":"Rua da Junqueira (Centro de Congressos)","color":"#B5651D","lineRef":"tram","lab":1},"geometry":{"type":"Point","coordinates":[-9.18356,38.7001]}},{"type":"Feature","properties":{"id":"stn-128","kind":"stop","name":"Calçada da Estrela","color":"#B5651D","lineRef":"tram","lab":1},"geometry":{"type":"Point","coordinates":[-9.15508,38.71221]}},{"type":"Feature","properties":{"id":"stn-129","kind":"stop","name":"Calçada da Estrela / Rua Borges Carneiro","color":"#B5651D","lineRef":"tram","lab":1},"geometry":{"type":"Point","coordinates":[-9.15539,38.71236]}},{"type":"Feature","properties":{"id":"stn-134","kind":"stop","name":"Igreja de Santa Maria Madalena","color":"#B5651D","lineRef":"tram","lab":1},"geometry":{"type":"Point","coordinates":[-9.13527,38.71006]}},{"type":"Feature","properties":{"id":"stn-135","kind":"stop","name":"Igreja do Santo Condestável","color":"#B5651D","lineRef":"tram","lab":1},"geometry":{"type":"Point","coordinates":[-9.16654,38.71488]}},{"type":"Feature","properties":{"id":"stn-136","kind":"stop","name":"Igreja dos Anjos","color":"#B5651D","lineRef":"tram","lab":1},"geometry":{"type":"Point","coordinates":[-9.1353,38.72199]}},{"type":"Feature","properties":{"id":"stn-140","kind":"stop","name":"Largo das Portas do Sol","color":"#B5651D","lineRef":"tram","lab":1},"geometry":{"type":"Point","coordinates":[-9.13044,38.71225]}},{"type":"Feature","properties":{"id":"stn-143","kind":"stop","name":"Rua Domingos Sequeira","color":"#B5651D","lineRef":"tram","lab":1},"geometry":{"type":"Point","coordinates":[-9.163,38.715]}},{"type":"Feature","properties":{"id":"stn-145","kind":"stop","name":"Rua Maria Andrade","color":"#B5651D","lineRef":"tram","lab":1},"geometry":{"type":"Point","coordinates":[-9.13381,38.72346]}},{"type":"Feature","properties":{"id":"stn-147","kind":"stop","name":"Rua Maria","color":"#B5651D","lineRef":"tram","lab":1},"geometry":{"type":"Point","coordinates":[-9.13319,38.72382]}},{"type":"Feature","properties":{"id":"stn-148","kind":"stop","name":"Rua Saraiva de Carvalho","color":"#B5651D","lineRef":"tram","lab":1},"geometry":{"type":"Point","coordinates":[-9.16466,38.71536]}},{"type":"Feature","properties":{"id":"stn-150","kind":"stop","name":"Rua Vítor Cordon","color":"#B5651D","lineRef":"tram","lab":1},"geometry":{"type":"Point","coordinates":[-9.1426,38.70797]}},{"type":"Feature","properties":{"id":"stn-151","kind":"stop","name":"Rua Vítor Cordon / Rua Serpa Pinto","color":"#B5651D","lineRef":"tram","lab":1},"geometry":{"type":"Point","coordinates":[-9.14153,38.70798]}},{"type":"Feature","properties":{"id":"stn-152","kind":"stop","name":"Rua Vitor Cordon/Rua Serpa Pinto","color":"#B5651D","lineRef":"tram","lab":1},"geometry":{"type":"Point","coordinates":[-9.14202,38.70823]}},{"type":"Feature","properties":{"id":"stn-153","kind":"stop","name":"Rua da Conceição","color":"#B5651D","lineRef":"tram","lab":1},"geometry":{"type":"Point","coordinates":[-9.13819,38.70935]}},{"type":"Feature","properties":{"id":"stn-156","kind":"stop","name":"Rua da Palma","color":"#B5651D","lineRef":"tram","lab":1},"geometry":{"type":"Point","coordinates":[-9.1357,38.71916]}},{"type":"Feature","properties":{"id":"stn-159","kind":"stop","name":"Rua do Poço dos Negros","color":"#B5651D","lineRef":"tram","lab":1},"geometry":{"type":"Point","coordinates":[-9.1517,38.70983]}},{"type":"Feature","properties":{"id":"stn-161","kind":"stop","name":"Voz do Operário","color":"#B5651D","lineRef":"tram","lab":1},"geometry":{"type":"Point","coordinates":[-9.12876,38.715]}},{"type":"Feature","properties":{"id":"stn-162","kind":"stop","name":"Conde Barão","color":"#B5651D","lineRef":"tram","lab":1},"geometry":{"type":"Point","coordinates":[-9.15127,38.7088]}},{"type":"Feature","properties":{"id":"stn-163","kind":"stop","name":"Rua Garcia da Orta","color":"#B5651D","lineRef":"tram","lab":1},"geometry":{"type":"Point","coordinates":[-9.16139,38.70751]}},{"type":"Feature","properties":{"id":"stn-164","kind":"stop","name":"Rua de Buenos Aires","color":"#B5651D","lineRef":"tram","lab":1},"geometry":{"type":"Point","coordinates":[-9.16037,38.71211]}},{"type":"Feature","properties":{"id":"stn-165","kind":"stop","name":"Rua de Santana à Lapa","color":"#B5651D","lineRef":"tram","lab":1},"geometry":{"type":"Point","coordinates":[-9.16143,38.71084]}},{"type":"Feature","properties":{"id":"stn-166","kind":"stop","name":"Rua de São João da Mata","color":"#B5651D","lineRef":"tram","lab":1},"geometry":{"type":"Point","coordinates":[-9.15964,38.7077]}},{"type":"Feature","properties":{"id":"stn-167","kind":"stop","name":"Rua de São Paulo","color":"#B5651D","lineRef":"tram","lab":1},"geometry":{"type":"Point","coordinates":[-9.14414,38.7077]}},{"type":"Feature","properties":{"id":"stn-170","kind":"stop","name":"Rua João de Deus","color":"#B5651D","lineRef":"tram","lab":1},"geometry":{"type":"Point","coordinates":[-9.16021,38.71265]}},{"type":"Feature","properties":{"id":"stn-176","kind":"stop","name":"Rua das Amoreiras","color":"#B5651D","lineRef":"tram","lab":1},"geometry":{"type":"Point","coordinates":[-9.15938,38.72336]}},{"type":"Feature","properties":{"id":"stn-177","kind":"stop","name":"Campolide (Avenida Conselheiro Fernando Sousa)","color":"#B5651D","lineRef":"tram","lab":1},"geometry":{"type":"Point","coordinates":[-9.16154,38.72726]}},{"type":"Feature","properties":{"id":"stn-178","kind":"stop","name":"Jardim das Amoreiras","color":"#B5651D","lineRef":"tram","lab":1},"geometry":{"type":"Point","coordinates":[-9.15639,38.72145]}},{"type":"Feature","properties":{"id":"stn-181","kind":"stop","name":"Martim Moniz","color":"#B5651D","lineRef":"tram","lab":1},"geometry":{"type":"Point","coordinates":[-9.13613,38.71522]}},{"type":"Feature","properties":{"id":"stn-183","kind":"stop","name":"Rua Maria da Fonte","color":"#B5651D","lineRef":"tram","lab":1},"geometry":{"type":"Point","coordinates":[-9.13192,38.72322]}},{"type":"Feature","properties":{"id":"stn-184","kind":"stop","name":"Príncipe Real","color":"#B5651D","lineRef":"tram","lab":1},"geometry":{"type":"Point","coordinates":[-9.14811,38.71655]}},{"type":"Feature","properties":{"id":"stn-185","kind":"stop","name":"Santa Catarina","color":"#B5651D","lineRef":"tram","lab":1},"geometry":{"type":"Point","coordinates":[-9.14699,38.71099]}},{"type":"Feature","properties":{"id":"stn-186","kind":"stop","name":"Calhariz (Bica)","color":"#B5651D","lineRef":"tram","lab":1},"geometry":{"type":"Point","coordinates":[-9.14595,38.71083]}},{"type":"Feature","properties":{"id":"stn-188","kind":"stop","name":"Rua de São Bento/Calçada da Estrela","color":"#B5651D","lineRef":"tram","lab":1},"geometry":{"type":"Point","coordinates":[-9.15319,38.71146]}},{"type":"Feature","properties":{"id":"stn-189","kind":"stop","name":"Largo Trindade Coelho","color":"#B5651D","lineRef":"tram","lab":1},"geometry":{"type":"Point","coordinates":[-9.1434,38.71318]}},{"type":"Feature","properties":{"id":"stn-190","kind":"stop","name":"Ascensor da Glória","color":"#B5651D","lineRef":"tram","lab":1},"geometry":{"type":"Point","coordinates":[-9.14445,38.71485]}},{"type":"Feature","properties":{"id":"stn-191","kind":"stop","name":"Rato","color":"#B5651D","lineRef":"tram","lab":1},"geometry":{"type":"Point","coordinates":[-9.15546,38.72046]}},{"type":"Feature","properties":{"id":"stn-193","kind":"stop","name":"Avenida Conselheiro Fernando Sousa","color":"#B5651D","lineRef":"tram","lab":1},"geometry":{"type":"Point","coordinates":[-9.15997,38.72518]}},{"type":"Feature","properties":{"id":"stn-194","kind":"stop","name":"Campolide","color":"#B5651D","lineRef":"tram","lab":1},"geometry":{"type":"Point","coordinates":[-9.16208,38.7268]}},{"type":"Feature","properties":{"id":"stn-196","kind":"stop","name":"Rua da Escola Politécnica","color":"#B5651D","lineRef":"tram","lab":1},"geometry":{"type":"Point","coordinates":[-9.15101,38.71757]}},{"type":"Feature","properties":{"id":"stn-198","kind":"stop","name":"São Pedro de Alcântara","color":"#B5651D","lineRef":"tram","lab":1},"geometry":{"type":"Point","coordinates":[-9.14509,38.71547]}},{"type":"Feature","properties":{"id":"stn-204","kind":"node","name":"Marquês de Pombal","color":"#F4BC18","lineRef":"metro","lab":1},"geometry":{"type":"Point","coordinates":[-9.15033,38.72472]}},{"type":"Feature","properties":{"id":"stn-207","kind":"node","name":"Lisboa - Oriente","color":"#DF096F","lineRef":"metro","lab":1},"geometry":{"type":"Point","coordinates":[-9.09907,38.76782]}},{"type":"Feature","properties":{"id":"stn-208","kind":"stop","name":"Rua do Alecrim","color":"#B5651D","lineRef":"tram","lab":1},"geometry":{"type":"Point","coordinates":[-9.14337,38.70759]}},{"type":"Feature","properties":{"id":"stn-210","kind":"stop","name":"São Tomé","color":"#B5651D","lineRef":"tram","lab":1},"geometry":{"type":"Point","coordinates":[-9.13062,38.71349]}},{"type":"Feature","properties":{"id":"stn-213","kind":"node","name":"Corpo Santo","color":"#00AAA6","lineRef":"metro","lab":1},"geometry":{"type":"Point","coordinates":[-9.14161,38.70695]}},{"type":"Feature","properties":{"id":"stn-214","kind":"node","name":"Restauradores","color":"#4E84C4","lineRef":"metro","lab":1},"geometry":{"type":"Point","coordinates":[-9.14231,38.716]}},{"type":"Feature","properties":{"id":"stn-216","kind":"node","name":"Sete Rios","color":"#4E84C4","lineRef":"metro","lab":1},"geometry":{"type":"Point","coordinates":[-9.16667,38.74024]}},{"type":"Feature","properties":{"id":"stn-218","kind":"stop","name":"Rua Leão de Oliveira","color":"#B5651D","lineRef":"tram","lab":1},"geometry":{"type":"Point","coordinates":[-9.17847,38.70476]}},{"type":"Feature","properties":{"id":"stn-220","kind":"node","name":"Baixa-Chiado","color":"#4E84C4","lineRef":"metro","lab":1},"geometry":{"type":"Point","coordinates":[-9.14004,38.71042]}},{"type":"Feature","properties":{"id":"stn-222","kind":"node","name":"Terreiro do Paço","color":"#4E84C4","lineRef":"metro","lab":1},"geometry":{"type":"Point","coordinates":[-9.13439,38.70705]}},{"type":"Feature","properties":{"id":"stn-224","kind":"node","name":"Rossio","color":"#00AAA6","lineRef":"metro","lab":1},"geometry":{"type":"Point","coordinates":[-9.1379,38.714]}},{"type":"Feature","properties":{"id":"stn-226","kind":"stop","name":"Intendente","color":"#B5651D","lineRef":"tram","lab":1},"geometry":{"type":"Point","coordinates":[-9.1352,38.72317]}},{"type":"Feature","properties":{"id":"stn-227","kind":"node","name":"Intendente","color":"#00AAA6","lineRef":"metro","lab":1},"geometry":{"type":"Point","coordinates":[-9.13528,38.72317]}},{"type":"Feature","properties":{"id":"stn-228","kind":"node","name":"Alameda","color":"#00AAA6","lineRef":"metro","lab":1},"geometry":{"type":"Point","coordinates":[-9.13384,38.73697]}},{"type":"Feature","properties":{"id":"stn-232","kind":"node","name":"Anjos","color":"#00AAA6","lineRef":"metro","lab":1},"geometry":{"type":"Point","coordinates":[-9.1349,38.72697]}},{"type":"Feature","properties":{"id":"stn-234","kind":"node","name":"Arroios","color":"#00AAA6","lineRef":"metro","lab":1},"geometry":{"type":"Point","coordinates":[-9.13426,38.7327]}},{"type":"Feature","properties":{"id":"stn-235","kind":"node","name":"Campo Grande","color":"#00AAA6","lineRef":"metro","lab":1},"geometry":{"type":"Point","coordinates":[-9.15782,38.76008]}},{"type":"Feature","properties":{"id":"stn-238","kind":"node","name":"Telheiras","color":"#00AAA6","lineRef":"metro","lab":1},"geometry":{"type":"Point","coordinates":[-9.16642,38.75997]}},{"type":"Feature","properties":{"id":"stn-240","kind":"node","name":"Roma","color":"#00AAA6","lineRef":"metro","lab":1},"geometry":{"type":"Point","coordinates":[-9.14121,38.748]}},{"type":"Feature","properties":{"id":"stn-241","kind":"node","name":"Cais do Sodré","color":"#00AAA6","lineRef":"metro","lab":1},"geometry":{"type":"Point","coordinates":[-9.14683,38.70611]}},{"type":"Feature","properties":{"id":"stn-242","kind":"node","name":"Alvalade","color":"#00AAA6","lineRef":"metro","lab":1},"geometry":{"type":"Point","coordinates":[-9.144,38.75312]}},{"type":"Feature","properties":{"id":"stn-243","kind":"node","name":"Areeiro","color":"#00AAA6","lineRef":"metro","lab":1},"geometry":{"type":"Point","coordinates":[-9.13348,38.74233]}},{"type":"Feature","properties":{"id":"stn-244","kind":"node","name":"Quinta das Conchas","color":"#F4BC18","lineRef":"metro","lab":1},"geometry":{"type":"Point","coordinates":[-9.15553,38.76732]}},{"type":"Feature","properties":{"id":"stn-247","kind":"node","name":"Pontinha","color":"#4E84C4","lineRef":"metro","lab":1},"geometry":{"type":"Point","coordinates":[-9.19684,38.76223]}},{"type":"Feature","properties":{"id":"stn-250","kind":"stop","name":"Algés","color":"#B5651D","lineRef":"tram","lab":1},"geometry":{"type":"Point","coordinates":[-9.22939,38.69838]}},{"type":"Feature","properties":{"id":"stn-252","kind":"node","name":"Roma-Areeiro","color":"#00AAA6","lineRef":"metro","lab":1},"geometry":{"type":"Point","coordinates":[-9.13551,38.74569]}},{"type":"Feature","properties":{"id":"stn-253","kind":"node","name":"Lisboa - Santa Apolónia","color":"#4E84C4","lineRef":"metro","lab":1},"geometry":{"type":"Point","coordinates":[-9.12204,38.71463]}},{"type":"Feature","properties":{"id":"stn-254","kind":"node","name":"Lisboa - Rossio","color":"#4E84C4","lineRef":"metro","lab":1},"geometry":{"type":"Point","coordinates":[-9.14184,38.71459]}},{"type":"Feature","properties":{"id":"stn-255","kind":"node","name":"Saldanha","color":"#DF096F","lineRef":"metro","lab":1},"geometry":{"type":"Point","coordinates":[-9.14434,38.73517]}},{"type":"Feature","properties":{"id":"stn-256","kind":"node","name":"São Sebastião","color":"#DF096F","lineRef":"metro","lab":1},"geometry":{"type":"Point","coordinates":[-9.15303,38.73463]}},{"type":"Feature","properties":{"id":"stn-260","kind":"node","name":"Picoas","color":"#F4BC18","lineRef":"metro","lab":1},"geometry":{"type":"Point","coordinates":[-9.14691,38.73034]}},{"type":"Feature","properties":{"id":"stn-269","kind":"node","name":"Santa Apolónia","color":"#4E84C4","lineRef":"metro","lab":1},"geometry":{"type":"Point","coordinates":[-9.12248,38.7137]}},{"type":"Feature","properties":{"id":"stn-274","kind":"node","name":"Oriente","color":"#DF096F","lineRef":"metro","lab":1},"geometry":{"type":"Point","coordinates":[-9.09973,38.76786]}},{"type":"Feature","properties":{"id":"stn-275","kind":"node","name":"Aeroporto","color":"#DF096F","lineRef":"metro","lab":1},"geometry":{"type":"Point","coordinates":[-9.12828,38.76844]}},{"type":"Feature","properties":{"id":"stn-276","kind":"node","name":"Encarnação","color":"#DF096F","lineRef":"metro","lab":1},"geometry":{"type":"Point","coordinates":[-9.11553,38.7751]}},{"type":"Feature","properties":{"id":"stn-277","kind":"node","name":"Moscavide","color":"#DF096F","lineRef":"metro","lab":1},"geometry":{"type":"Point","coordinates":[-9.103,38.77492]}},{"type":"Feature","properties":{"id":"stn-278","kind":"node","name":"Olivais","color":"#DF096F","lineRef":"metro","lab":1},"geometry":{"type":"Point","coordinates":[-9.11198,38.76059]}},{"type":"Feature","properties":{"id":"stn-279","kind":"stop","name":"Amoreiras","color":"#B5651D","lineRef":"tram","lab":1},"geometry":{"type":"Point","coordinates":[-9.15978,38.72412]}},{"type":"Feature","properties":{"id":"stn-281","kind":"node","name":"Reboleira","color":"#4E84C4","lineRef":"metro","lab":1},"geometry":{"type":"Point","coordinates":[-9.22414,38.75221]}}]}