{"type":"FeatureCollection","features":[{"type":"Feature","properties":{"id":"ticari-0","kind":"district","btype":"ticari","name":"59 арсенал","lab":1},"geometry":{"type":"MultiPolygon","coordinates":[[[[37.70584,55.85902],[37.70944,55.86091],[37.71802,55.86061],[37.72164,55.85292],[37.721,55.85221],[37.71195,55.84786],[37.70795,55.84799],[37.70535,55.84846],[37.70181,55.85021],[37.70232,55.85417],[37.70211,55.85445],[37.70242,55.85471],[37.69888,55.85704],[37.70255,55.85927],[37.70366,55.85872],[37.70506,55.85944],[37.70584,55.85902]]]]}},{"type":"Feature","properties":{"id":"ticari-lab-0","kind":"district-label","btype":"ticari","name":"59 арсенал"},"geometry":{"type":"Point","coordinates":[37.71072,55.85457]}},{"type":"Feature","properties":{"id":"ticari-1","kind":"district","btype":"ticari","name":"Food City","lab":1},"geometry":{"type":"MultiPolygon","coordinates":[[[[37.47531,55.5981],[37.47434,55.59844],[37.47217,55.59598],[37.46888,55.59556],[37.46833,55.59461],[37.46774,55.59472],[37.46747,55.59432],[37.46545,55.59383],[37.46459,55.59306],[37.46144,55.59545],[37.46162,55.59586],[37.46045,55.5967],[37.45626,55.59642],[37.45567,55.59689],[37.45563,55.59749],[37.45719,55.59994],[37.45771,55.6003],[37.45876,55.59963],[37.46061,55.60037],[37.46359,55.60065],[37.46488,55.60126],[37.46703,55.60304],[37.47389,55.60144],[37.47655,55.60115],[37.47649,55.60096],[37.47743,55.60075],[37.47531,55.5981]]]]}},{"type":"Feature","properties":{"id":"ticari-lab-1","kind":"district-label","btype":"ticari","name":"Food City"},"geometry":{"type":"Point","coordinates":[37.46654,55.59844]}},{"type":"Feature","properties":{"id":"ticari-2","kind":"district","btype":"ticari","name":"Тематический парк «Остров мечты»","lab":1},"geometry":{"type":"MultiPolygon","coordinates":[[[[37.66725,55.69534],[37.66772,55.69555],[37.668,55.69725],[37.66761,55.69751],[37.6679,55.69955],[37.6683,55.69982],[37.67083,55.69924],[37.67197,55.69816],[37.67228,55.69719],[37.67786,55.69666],[37.6791,55.69693],[37.67895,55.69746],[37.68034,55.69666],[37.68233,55.69636],[37.67819,55.69161],[37.67132,55.68915],[37.67024,55.69004],[37.67106,55.69027],[37.67065,55.6908],[37.66964,55.6912],[37.66976,55.6923],[37.66828,55.69236],[37.66839,55.69306],[37.66698,55.69313],[37.66703,55.69371],[37.66733,55.69369],[37.66736,55.69396],[37.66707,55.69397],[37.66725,55.69534]]]]}},{"type":"Feature","properties":{"id":"ticari-lab-2","kind":"district-label","btype":"ticari","name":"Тематический парк «Остров мечты»"},"geometry":{"type":"Point","coordinates":[37.67346,55.69444]}},{"type":"Feature","properties":{"id":"ticari-3","kind":"district","btype":"ticari","name":"Торговый комплекс «Садовод»","lab":1},"geometry":{"type":"MultiPolygon","coordinates":[[[[37.83642,55.65448],[37.83465,55.65134],[37.83357,55.65117],[37.82836,55.65133],[37.82861,55.6508],[37.82833,55.65065],[37.82932,55.65016],[37.82911,55.64983],[37.82671,55.65036],[37.82615,55.65075],[37.82576,55.65058],[37.82367,55.65198],[37.82168,55.65198],[37.82181,55.65531],[37.823,55.6553],[37.82303,55.65638],[37.82335,55.65673],[37.82435,55.65684],[37.83541,55.6567],[37.83542,55.65627],[37.83642,55.65601],[37.83642,55.65448]]]]}},{"type":"Feature","properties":{"id":"ticari-lab-3","kind":"district-label","btype":"ticari","name":"Торговый комплекс «Садовод»"},"geometry":{"type":"Point","coordinates":[37.82899,55.65392]}},{"type":"Feature","properties":{"id":"ticari-4","kind":"district","btype":"ticari","name":"рынок \"Люблино\"","lab":1},"geometry":{"type":"MultiPolygon","coordinates":[[[[37.78303,55.67873],[37.79089,55.67575],[37.78867,55.67452],[37.7798,55.6713],[37.77914,55.67146],[37.77661,55.67372],[37.77446,55.67509],[37.77814,55.67802],[37.77897,55.6776],[37.78011,55.67801],[37.78093,55.67729],[37.78289,55.678],[37.78253,55.67836],[37.78303,55.67873]]]]}},{"type":"Feature","properties":{"id":"ticari-lab-4","kind":"district-label","btype":"ticari","name":"рынок \"Люблино\""},"geometry":{"type":"Point","coordinates":[37.78206,55.67517]}},{"type":"Feature","properties":{"id":"ticari-5","kind":"district","btype":"ticari","name":"Логистический центр \"Славянский мир\"","lab":1},"geometry":{"type":"MultiPolygon","coordinates":[[[[37.4664,55.62421],[37.46159,55.62255],[37.45844,55.62165],[37.45796,55.62199],[37.455,55.62088],[37.45088,55.62213],[37.45015,55.6238],[37.4484,55.6245],[37.44955,55.62542],[37.4513,55.62509],[37.45947,55.62595],[37.46034,55.62547],[37.46438,55.62585],[37.46676,55.6254],[37.4664,55.62421]]]]}},{"type":"Feature","properties":{"id":"ticari-lab-5","kind":"district-label","btype":"ticari","name":"Логистический центр \"Славянский мир\""},"geometry":{"type":"Point","coordinates":[37.45738,55.62381]}},{"type":"Feature","properties":{"id":"ticari-6","kind":"district","btype":"ticari","name":"Moskau City","lab":1},"geometry":{"type":"MultiPolygon","coordinates":[[[[37.5335,55.74993],[37.54085,55.75211],[37.54472,55.7483],[37.54049,55.74668],[37.53639,55.74586],[37.53401,55.74697],[37.53328,55.74872],[37.5335,55.74993]]]]}},{"type":"Feature","properties":{"id":"ticari-lab-6","kind":"district-label","btype":"ticari","name":"Moskau City"},"geometry":{"type":"Point","coordinates":[37.53857,55.74882]}},{"type":"Feature","properties":{"id":"ticari-7","kind":"district","btype":"ticari","name":"Строительный рынок \"Славянский мир\"","lab":1},"geometry":{"type":"MultiPolygon","coordinates":[[[[37.48034,55.61574],[37.48367,55.61687],[37.48545,55.61538],[37.48601,55.6156],[37.48882,55.61312],[37.48914,55.61166],[37.48874,55.60985],[37.48631,55.60626],[37.48373,55.60468],[37.48226,55.60497],[37.48185,55.60554],[37.4872,55.61102],[37.48668,55.6119],[37.48577,55.61166],[37.48049,55.61495],[37.48034,55.61574]]]]}},{"type":"Feature","properties":{"id":"ticari-lab-7","kind":"district-label","btype":"ticari","name":"Строительный рынок \"Славянский мир\""},"geometry":{"type":"Point","coordinates":[37.48526,55.61134]}},{"type":"Feature","properties":{"id":"ticari-8","kind":"district","btype":"ticari","name":"Технопарк \"IQ-Park\"","lab":1},"geometry":{"type":"MultiPolygon","coordinates":[[[[37.68317,55.71158],[37.69234,55.71428],[37.69363,55.71409],[37.6937,55.71467],[37.69534,55.71513],[37.69628,55.71419],[37.69417,55.71351],[37.69404,55.71256],[37.69333,55.71173],[37.69393,55.71148],[37.69259,55.71039],[37.69016,55.70923],[37.68562,55.70923],[37.68528,55.7096],[37.68463,55.70959],[37.68317,55.71158]]]]}},{"type":"Feature","properties":{"id":"ticari-lab-8","kind":"district-label","btype":"ticari","name":"Технопарк \"IQ-Park\""},"geometry":{"type":"Point","coordinates":[37.68955,55.71168]}},{"type":"Feature","properties":{"id":"ticari-9","kind":"district","btype":"ticari","name":"Бизнес-парк \"GreenWood\"","lab":1},"geometry":{"type":"MultiPolygon","coordinates":[[[[37.40084,55.86524],[37.39814,55.86642],[37.39904,55.86721],[37.40558,55.87149],[37.40668,55.87108],[37.40737,55.87125],[37.40728,55.8723],[37.40648,55.87341],[37.40687,55.87372],[37.41065,55.87118],[37.40895,55.86993],[37.4081,55.87008],[37.40678,55.86929],[37.40679,55.8686],[37.40232,55.86532],[37.40084,55.86524]]]]}},{"type":"Feature","properties":{"id":"ticari-lab-9","kind":"district-label","btype":"ticari","name":"Бизнес-парк \"GreenWood\""},"geometry":{"type":"Point","coordinates":[37.40434,55.86886]}},{"type":"Feature","properties":{"id":"ticari-10","kind":"district","btype":"ticari","name":"Мытищинская ярмарка","lab":1},"geometry":{"type":"MultiPolygon","coordinates":[[[[37.68526,55.8951],[37.67901,55.89537],[37.67894,55.89599],[37.67802,55.896],[37.67853,55.89643],[37.67866,55.89724],[37.6764,55.89818],[37.67542,55.89772],[37.67501,55.89792],[37.67657,55.89887],[37.67733,55.89904],[37.67837,55.89879],[37.68223,55.90033],[37.68506,55.8995],[37.68524,55.8974],[37.68475,55.89739],[37.68515,55.89625],[37.68501,55.89522],[37.68526,55.8951]]]]}},{"type":"Feature","properties":{"id":"ticari-lab-10","kind":"district-label","btype":"ticari","name":"Мытищинская ярмарка"},"geometry":{"type":"Point","coordinates":[37.6815,55.8976]}},{"type":"Feature","properties":{"id":"ticari-11","kind":"district","btype":"ticari","name":"Major City","lab":1},"geometry":{"type":"MultiPolygon","coordinates":[[[[37.25368,55.79154],[37.25472,55.7924],[37.25649,55.79268],[37.2589,55.79245],[37.26019,55.79164],[37.25657,55.78925],[37.25539,55.78889],[37.25469,55.78899],[37.25166,55.78781],[37.2514,55.78803],[37.25004,55.78754],[37.24898,55.78828],[37.25048,55.79151],[37.25368,55.79154]]]]}},{"type":"Feature","properties":{"id":"ticari-lab-11","kind":"district-label","btype":"ticari","name":"Major City"},"geometry":{"type":"Point","coordinates":[37.25413,55.79033]}},{"type":"Feature","properties":{"id":"ticari-12","kind":"district","btype":"ticari","name":"Бизнес-парк «Румянцево»","lab":1},"geometry":{"type":"MultiPolygon","coordinates":[[[[37.44505,55.63476],[37.44574,55.63407],[37.44202,55.63319],[37.44128,55.63374],[37.43828,55.63278],[37.43675,55.63277],[37.43464,55.63633],[37.43373,55.63597],[37.43182,55.6393],[37.43224,55.63936],[37.43585,55.63726],[37.43774,55.63655],[37.43883,55.63564],[37.44239,55.63477],[37.44505,55.63476]]]]}},{"type":"Feature","properties":{"id":"ticari-lab-12","kind":"district-label","btype":"ticari","name":"Бизнес-парк «Румянцево»"},"geometry":{"type":"Point","coordinates":[37.438,55.63524]}},{"type":"Feature","properties":{"id":"ticari-13","kind":"district","btype":"ticari","name":"Бизнес-парк «Орджоникидзе 11»","lab":1},"geometry":{"type":"MultiPolygon","coordinates":[[[[37.59577,55.7051],[37.59926,55.70849],[37.59781,55.70893],[37.5973,55.70988],[37.59362,55.70974],[37.58948,55.70733],[37.59124,55.70647],[37.59577,55.7051]]]]}},{"type":"Feature","properties":{"id":"ticari-lab-13","kind":"district-label","btype":"ticari","name":"Бизнес-парк «Орджоникидзе 11»"},"geometry":{"type":"Point","coordinates":[37.59463,55.70769]}},{"type":"Feature","properties":{"id":"ticari-14","kind":"district","btype":"ticari","name":"Simonov quarter","lab":1},"geometry":{"type":"MultiPolygon","coordinates":[[[[37.65447,55.71293],[37.65802,55.71238],[37.65736,55.71082],[37.65698,55.7107],[37.65721,55.71047],[37.65031,55.70807],[37.64987,55.70825],[37.65069,55.70909],[37.65137,55.71048],[37.65084,55.71205],[37.65216,55.71235],[37.65228,55.71336],[37.65344,55.71468],[37.65334,55.7156],[37.65491,55.71478],[37.65447,55.71293]]]]}},{"type":"Feature","properties":{"id":"ticari-lab-14","kind":"district-label","btype":"ticari","name":"Simonov quarter"},"geometry":{"type":"Point","coordinates":[37.65384,55.71144]}},{"type":"Feature","properties":{"id":"ticari-15","kind":"district","btype":"ticari","name":"Строймастер","lab":1},"geometry":{"type":"MultiPolygon","coordinates":[[[[37.44472,55.62288],[37.44525,55.62284],[37.44698,55.624],[37.4484,55.6245],[37.45015,55.6238],[37.45088,55.62213],[37.455,55.62088],[37.45796,55.62199],[37.45844,55.62165],[37.45733,55.62124],[37.45771,55.62091],[37.4547,55.61957],[37.44915,55.62102],[37.44613,55.62085],[37.4456,55.62221],[37.44472,55.62288]]]]}},{"type":"Feature","properties":{"id":"ticari-lab-15","kind":"district-label","btype":"ticari","name":"Строймастер"},"geometry":{"type":"Point","coordinates":[37.45038,55.62185]}},{"type":"Feature","properties":{"id":"ticari-16","kind":"district","btype":"ticari","name":"Апарт-отель «Нагорное»","lab":1},"geometry":{"type":"MultiPolygon","coordinates":[[[[37.3629,55.8928],[37.35908,55.89555],[37.35895,55.89595],[37.36316,55.89588],[37.36466,55.89409],[37.36574,55.89443],[37.3675,55.89389],[37.36906,55.8941],[37.36932,55.894],[37.36942,55.89239],[37.36842,55.89175],[37.3629,55.8928]]]]}},{"type":"Feature","properties":{"id":"ticari-lab-16","kind":"district-label","btype":"ticari","name":"Апарт-отель «Нагорное»"},"geometry":{"type":"Point","coordinates":[37.36452,55.89385]}},{"type":"Feature","properties":{"id":"ticari-17","kind":"district","btype":"ticari","name":"Гостиничный комплекс Измайлово","lab":1},"geometry":{"type":"MultiPolygon","coordinates":[[[[37.74596,55.78919],[37.74612,55.7896],[37.74577,55.78964],[37.74723,55.79352],[37.75171,55.793],[37.75036,55.78897],[37.74596,55.78919]]]]}},{"type":"Feature","properties":{"id":"ticari-lab-17","kind":"district-label","btype":"ticari","name":"Гостиничный комплекс Измайлово"},"geometry":{"type":"Point","coordinates":[37.74872,55.79118]}},{"type":"Feature","properties":{"id":"ticari-18","kind":"district","btype":"ticari","name":"Former \"Red Proletariat\" works","lab":1},"geometry":{"type":"MultiPolygon","coordinates":[[[[37.5989,55.71447],[37.59659,55.71419],[37.59674,55.71463],[37.59581,55.71504],[37.59604,55.71547],[37.59523,55.71576],[37.59942,55.71925],[37.60279,55.71852],[37.60194,55.71718],[37.60295,55.71681],[37.59941,55.71585],[37.5989,55.71447]]]]}},{"type":"Feature","properties":{"id":"ticari-lab-18","kind":"district-label","btype":"ticari","name":"Former \"Red Proletariat\" works"},"geometry":{"type":"Point","coordinates":[37.59905,55.71681]}},{"type":"Feature","properties":{"id":"ticari-19","kind":"district","btype":"ticari","name":"Министерство спорта Российской Федерации","lab":1},"geometry":{"type":"MultiPolygon","coordinates":[[[[37.66515,55.76308],[37.67146,55.76349],[37.67129,55.76167],[37.67063,55.75938],[37.66996,55.7589],[37.66957,55.75916],[37.66857,55.75885],[37.66716,55.75963],[37.6671,55.76099],[37.66619,55.7614],[37.6665,55.76163],[37.66515,55.76308]]]]}},{"type":"Feature","properties":{"id":"ticari-lab-19","kind":"district-label","btype":"ticari","name":"Министерство спорта Российской Федерации"},"geometry":{"type":"Point","coordinates":[37.66883,55.76145]}},{"type":"Feature","properties":{"id":"ticari-20","kind":"district","btype":"ticari","name":"Бизнес-парк \"Калибр\"","lab":1},"geometry":{"type":"MultiPolygon","coordinates":[[[[37.63043,55.80686],[37.6285,55.80605],[37.6294,55.80555],[37.62811,55.80432],[37.62381,55.80682],[37.62624,55.80789],[37.62742,55.80915],[37.62736,55.80966],[37.62814,55.81011],[37.63055,55.80834],[37.63074,55.80805],[37.63017,55.80785],[37.63061,55.80734],[37.63029,55.80723],[37.63043,55.80686]]]]}},{"type":"Feature","properties":{"id":"ticari-lab-20","kind":"district-label","btype":"ticari","name":"Бизнес-парк \"Калибр\""},"geometry":{"type":"Point","coordinates":[37.62773,55.80716]}},{"type":"Feature","properties":{"id":"ticari-21","kind":"district","btype":"ticari","name":"Стройдвор Яуза","lab":1},"geometry":{"type":"MultiPolygon","coordinates":[[[[37.68223,55.90033],[37.67837,55.89879],[37.67771,55.89883],[37.67699,55.89952],[37.67758,55.89992],[37.67643,55.90105],[37.67788,55.90163],[37.67754,55.90193],[37.67902,55.90235],[37.67935,55.90218],[37.68177,55.90302],[37.68331,55.90217],[37.68441,55.90259],[37.68509,55.90148],[37.68199,55.9004],[37.68223,55.90033]]]]}},{"type":"Feature","properties":{"id":"ticari-lab-21","kind":"district-label","btype":"ticari","name":"Стройдвор Яуза"},"geometry":{"type":"Point","coordinates":[37.68038,55.90104]}},{"type":"Feature","properties":{"id":"ticari-22","kind":"district","btype":"ticari","name":"Институт горного дела","lab":1},"geometry":{"type":"MultiPolygon","coordinates":[[[[37.91884,55.65895],[37.9174,55.66],[37.9173,55.66026],[37.918,55.66055],[37.91752,55.66095],[37.91953,55.66119],[37.92013,55.66171],[37.92505,55.66217],[37.9254,55.66197],[37.92555,55.66116],[37.92513,55.6611],[37.9256,55.65952],[37.91884,55.65895]]]]}},{"type":"Feature","properties":{"id":"ticari-lab-22","kind":"district-label","btype":"ticari","name":"Институт горного дела"},"geometry":{"type":"Point","coordinates":[37.92178,55.66049]}},{"type":"Feature","properties":{"id":"ticari-23","kind":"district","btype":"ticari","name":"Оптовая база \"Кунцевское\"","lab":1},"geometry":{"type":"MultiPolygon","coordinates":[[[[37.43555,55.69383],[37.4356,55.69107],[37.43462,55.69084],[37.43425,55.69137],[37.42822,55.6904],[37.42709,55.6923],[37.43555,55.69383]]]]}},{"type":"Feature","properties":{"id":"ticari-lab-23","kind":"district-label","btype":"ticari","name":"Оптовая база \"Кунцевское\""},"geometry":{"type":"Point","coordinates":[37.43177,55.69203]}},{"type":"Feature","properties":{"id":"ticari-24","kind":"district","btype":"ticari","name":"Бизнес-центр «Красный Богатырь»","lab":1},"geometry":{"type":"MultiPolygon","coordinates":[[[[37.6951,55.81173],[37.69325,55.81061],[37.68514,55.81559],[37.68745,55.81677],[37.6915,55.81336],[37.69366,55.81222],[37.695,55.8121],[37.6951,55.81173]]]]}},{"type":"Feature","properties":{"id":"ticari-lab-24","kind":"district-label","btype":"ticari","name":"Бизнес-центр «Красный Богатырь»"},"geometry":{"type":"Point","coordinates":[37.68993,55.81369]}},{"type":"Feature","properties":{"id":"ticari-25","kind":"district","btype":"ticari","name":"Первый Московский приборостроительный завод им. В. А. Казакова","lab":1},"geometry":{"type":"MultiPolygon","coordinates":[[[[37.52743,55.74164],[37.52878,55.74016],[37.5285,55.74008],[37.52928,55.73933],[37.52689,55.73877],[37.5249,55.7407],[37.52423,55.74052],[37.52324,55.7419],[37.52255,55.74171],[37.5217,55.74227],[37.52484,55.74286],[37.52455,55.74334],[37.52844,55.74267],[37.52841,55.74187],[37.52743,55.74164]]]]}},{"type":"Feature","properties":{"id":"ticari-lab-25","kind":"district-label","btype":"ticari","name":"Первый Московский приборостроительный завод им. В. А. Казакова"},"geometry":{"type":"Point","coordinates":[37.5261,55.74126]}},{"type":"Feature","properties":{"id":"ticari-26","kind":"district","btype":"ticari","name":"Vnukovo Outlet Village","lab":1},"geometry":{"type":"MultiPolygon","coordinates":[[[[37.33536,55.61151],[37.33735,55.60956],[37.33754,55.60725],[37.33457,55.60774],[37.33268,55.60758],[37.33196,55.60847],[37.33315,55.60905],[37.33206,55.61043],[37.33536,55.61151]]]]}},{"type":"Feature","properties":{"id":"ticari-lab-26","kind":"district-label","btype":"ticari","name":"Vnukovo Outlet Village"},"geometry":{"type":"Point","coordinates":[37.3349,55.60922]}},{"type":"Feature","properties":{"id":"ticari-27","kind":"district","btype":"ticari","name":"Торгово-офисный центр «Гефест»","lab":1},"geometry":{"type":"MultiPolygon","coordinates":[[[[37.54097,55.90184],[37.54248,55.90089],[37.54283,55.89847],[37.53702,55.89839],[37.53706,55.89954],[37.53823,55.89965],[37.53829,55.90103],[37.53791,55.90148],[37.53843,55.90181],[37.54097,55.90184]]]]}},{"type":"Feature","properties":{"id":"ticari-lab-27","kind":"district-label","btype":"ticari","name":"Торгово-офисный центр «Гефест»"},"geometry":{"type":"Point","coordinates":[37.54009,55.89995]}},{"type":"Feature","properties":{"id":"ticari-28","kind":"district","btype":"ticari","name":"Автомастер","lab":1},"geometry":{"type":"MultiPolygon","coordinates":[[[[37.43651,55.62486],[37.4395,55.62557],[37.43858,55.62724],[37.43771,55.62781],[37.43399,55.62856],[37.43207,55.62828],[37.43161,55.62793],[37.43162,55.62742],[37.43388,55.62688],[37.43651,55.62486]]]]}},{"type":"Feature","properties":{"id":"ticari-lab-28","kind":"district-label","btype":"ticari","name":"Автомастер"},"geometry":{"type":"Point","coordinates":[37.43586,55.62689]}},{"type":"Feature","properties":{"id":"ticari-29","kind":"district","btype":"ticari","name":"Бизнес-парк «Ростех-Сити»","lab":1},"geometry":{"type":"MultiPolygon","coordinates":[[[[37.42447,55.82348],[37.4282,55.82363],[37.43002,55.82314],[37.42705,55.81989],[37.42567,55.82039],[37.42442,55.82132],[37.42447,55.82348]]]]}},{"type":"Feature","properties":{"id":"ticari-lab-29","kind":"district-label","btype":"ticari","name":"Бизнес-парк «Ростех-Сити»"},"geometry":{"type":"Point","coordinates":[37.42678,55.8221]}},{"type":"Feature","properties":{"id":"ticari-30","kind":"district","btype":"ticari","name":"Трёхгорная мануфактура","lab":1},"geometry":{"type":"MultiPolygon","coordinates":[[[[37.56747,55.75629],[37.56717,55.75631],[37.5662,55.75526],[37.56042,55.75472],[37.55896,55.7565],[37.56071,55.75685],[37.56687,55.75706],[37.56762,55.75702],[37.56747,55.75629]]]]}},{"type":"Feature","properties":{"id":"ticari-lab-30","kind":"district-label","btype":"ticari","name":"Трёхгорная мануфактура"},"geometry":{"type":"Point","coordinates":[37.56325,55.75601]}},{"type":"Feature","properties":{"id":"ticari-31","kind":"district","btype":"ticari","name":"Бизнес-центр «Станколит»","lab":1},"geometry":{"type":"MultiPolygon","coordinates":[[[[37.59527,55.79856],[37.59493,55.79895],[37.59529,55.79913],[37.59342,55.7989],[37.59334,55.79929],[37.59238,55.79922],[37.59122,55.80197],[37.59316,55.80238],[37.59577,55.80242],[37.59613,55.80164],[37.59624,55.79996],[37.59608,55.79881],[37.59527,55.79856]]]]}},{"type":"Feature","properties":{"id":"ticari-lab-31","kind":"district-label","btype":"ticari","name":"Бизнес-центр «Станколит»"},"geometry":{"type":"Point","coordinates":[37.59404,55.80071]}},{"type":"Feature","properties":{"id":"ticari-32","kind":"district","btype":"ticari","name":"Бизнес-центр \"Comcity\"","lab":1},"geometry":{"type":"MultiPolygon","coordinates":[[[[37.43338,55.63166],[37.42891,55.63371],[37.42951,55.63412],[37.42769,55.63498],[37.43261,55.63584],[37.43463,55.63207],[37.43338,55.63166]]]]}},{"type":"Feature","properties":{"id":"ticari-lab-32","kind":"district-label","btype":"ticari","name":"Бизнес-центр \"Comcity\""},"geometry":{"type":"Point","coordinates":[37.43165,55.63389]}},{"type":"Feature","properties":{"id":"ticari-33","kind":"district","btype":"ticari","name":"Кинотелевизионный комплекс «Главкино»","lab":1},"geometry":{"type":"MultiPolygon","coordinates":[[[[37.23452,55.77827],[37.23785,55.77978],[37.23915,55.78],[37.24051,55.78],[37.24189,55.77859],[37.23677,55.77646],[37.23452,55.77827]]]]}},{"type":"Feature","properties":{"id":"ticari-lab-33","kind":"district-label","btype":"ticari","name":"Кинотелевизионный комплекс «Главкино»"},"geometry":{"type":"Point","coordinates":[37.23821,55.77843]}},{"type":"Feature","properties":{"id":"ticari-34","kind":"district","btype":"ticari","name":"ПАО «Газпром»","lab":1},"geometry":{"type":"MultiPolygon","coordinates":[[[[37.55666,55.65718],[37.55537,55.65815],[37.55265,55.65884],[37.55218,55.6595],[37.55479,55.65991],[37.55487,55.66019],[37.55724,55.66095],[37.55987,55.66008],[37.55666,55.65718]]]]}},{"type":"Feature","properties":{"id":"ticari-lab-34","kind":"district-label","btype":"ticari","name":"ПАО «Газпром»"},"geometry":{"type":"Point","coordinates":[37.55629,55.65928]}},{"type":"Feature","properties":{"id":"ticari-35","kind":"district","btype":"ticari","name":"Московский завод «Кристалл»","lab":1},"geometry":{"type":"MultiPolygon","coordinates":[[[[37.6791,55.75695],[37.67862,55.75471],[37.67352,55.7546],[37.67261,55.75634],[37.67417,55.75626],[37.67434,55.75689],[37.67488,55.75684],[37.67515,55.75735],[37.67448,55.75761],[37.67716,55.75741],[37.67704,55.75698],[37.6791,55.75695]]]]}},{"type":"Feature","properties":{"id":"ticari-lab-35","kind":"district-label","btype":"ticari","name":"Московский завод «Кристалл»"},"geometry":{"type":"Point","coordinates":[37.67608,55.7559]}},{"type":"Feature","properties":{"id":"ticari-36","kind":"district","btype":"ticari","name":"Учебный центр авиакомпании S7","lab":1},"geometry":{"type":"MultiPolygon","coordinates":[[[[37.7435,55.38448],[37.74298,55.38561],[37.74297,55.38706],[37.74414,55.38872],[37.74549,55.38857],[37.74508,55.38739],[37.74763,55.38704],[37.74727,55.38498],[37.7435,55.38448]]]]}},{"type":"Feature","properties":{"id":"ticari-lab-36","kind":"district-label","btype":"ticari","name":"Учебный центр авиакомпании S7"},"geometry":{"type":"Point","coordinates":[37.74503,55.38634]}},{"type":"Feature","properties":{"id":"ticari-37","kind":"district","btype":"ticari","name":"ТК \"Тарасовский\"","lab":1},"geometry":{"type":"MultiPolygon","coordinates":[[[[37.82845,55.95733],[37.82875,55.95653],[37.82711,55.9566],[37.82596,55.95509],[37.82552,55.9551],[37.82483,55.95433],[37.82131,55.95643],[37.8222,55.95709],[37.82399,55.95758],[37.82845,55.95733]]]]}},{"type":"Feature","properties":{"id":"ticari-lab-37","kind":"district-label","btype":"ticari","name":"ТК \"Тарасовский\""},"geometry":{"type":"Point","coordinates":[37.82482,55.95634]}},{"type":"Feature","properties":{"id":"ticari-38","kind":"district","btype":"ticari","name":"Арма","lab":1},"geometry":{"type":"MultiPolygon","coordinates":[[[[37.66714,55.76085],[37.66716,55.75963],[37.66814,55.75902],[37.66783,55.75884],[37.66785,55.75836],[37.66496,55.75829],[37.66431,55.75798],[37.66182,55.75999],[37.66318,55.76171],[37.66339,55.76166],[37.66293,55.7611],[37.66365,55.76093],[37.66424,55.76104],[37.66519,55.76067],[37.66566,55.76125],[37.66714,55.76085]]]]}},{"type":"Feature","properties":{"id":"ticari-lab-38","kind":"district-label","btype":"ticari","name":"Арма"},"geometry":{"type":"Point","coordinates":[37.66498,55.75968]}},{"type":"Feature","properties":{"id":"ticari-39","kind":"district","btype":"ticari","name":"Строительный рынок Строймаркет на Рязанке","lab":1},"geometry":{"type":"MultiPolygon","coordinates":[[[[37.92122,55.63846],[37.92052,55.63817],[37.92611,55.63411],[37.92912,55.63405],[37.92255,55.63888],[37.92227,55.63861],[37.92268,55.63829],[37.92203,55.63793],[37.92122,55.63846]]]]}},{"type":"Feature","properties":{"id":"ticari-lab-39","kind":"district-label","btype":"ticari","name":"Строительный рынок Строймаркет на Рязанке"},"geometry":{"type":"Point","coordinates":[37.92472,55.63622]}},{"type":"Feature","properties":{"id":"ticari-40","kind":"district","btype":"ticari","name":"Gazprom Transgaz Moscow","lab":1},"geometry":{"type":"MultiPolygon","coordinates":[[[[37.47129,55.5835],[37.46817,55.58125],[37.47003,55.57873],[37.47171,55.57954],[37.47151,55.57963],[37.47235,55.58027],[37.47169,55.58118],[37.47344,55.58276],[37.47129,55.5835]]]]}},{"type":"Feature","properties":{"id":"ticari-lab-40","kind":"district-label","btype":"ticari","name":"Gazprom Transgaz Moscow"},"geometry":{"type":"Point","coordinates":[37.4707,55.58123]}},{"type":"Feature","properties":{"id":"ticari-41","kind":"district","btype":"ticari","name":"World Trade Center","lab":1},"geometry":{"type":"MultiPolygon","coordinates":[[[[37.55633,55.75328],[37.55388,55.75614],[37.55845,55.75648],[37.56029,55.7543],[37.55633,55.75328]]]]}},{"type":"Feature","properties":{"id":"ticari-lab-41","kind":"district-label","btype":"ticari","name":"World Trade Center"},"geometry":{"type":"Point","coordinates":[37.55714,55.75503]}},{"type":"Feature","properties":{"id":"ticari-42","kind":"district","btype":"ticari","name":"Бизнес-центр \"Верейская Плаза\"","lab":1},"geometry":{"type":"MultiPolygon","coordinates":[[[[37.43923,55.71046],[37.44233,55.71049],[37.44265,55.71145],[37.4439,55.71134],[37.44522,55.71053],[37.44495,55.7098],[37.44361,55.70978],[37.44347,55.70914],[37.44475,55.70881],[37.44467,55.70843],[37.43683,55.70943],[37.43707,55.7103],[37.43915,55.71015],[37.43923,55.71046]]]]}},{"type":"Feature","properties":{"id":"ticari-lab-42","kind":"district-label","btype":"ticari","name":"Бизнес-центр \"Верейская Плаза\""},"geometry":{"type":"Point","coordinates":[37.44158,55.70985]}},{"type":"Feature","properties":{"id":"ticari-43","kind":"district","btype":"ticari","name":"Рынок «Каширский Двор 3»","lab":1},"geometry":{"type":"MultiPolygon","coordinates":[[[[37.60266,55.57541],[37.60012,55.57536],[37.59835,55.57431],[37.59791,55.57374],[37.59831,55.57296],[37.59893,55.57258],[37.60103,55.57268],[37.60362,55.5742],[37.60373,55.5749],[37.60266,55.57541]]]]}},{"type":"Feature","properties":{"id":"ticari-lab-43","kind":"district-label","btype":"ticari","name":"Рынок «Каширский Двор 3»"},"geometry":{"type":"Point","coordinates":[37.60075,55.57406]}},{"type":"Feature","properties":{"id":"ticari-44","kind":"district","btype":"ticari","name":"Бизнес-Центр \"Крылатские Холмы\"","lab":1},"geometry":{"type":"MultiPolygon","coordinates":[[[[37.42056,55.77188],[37.42419,55.77167],[37.42541,55.77113],[37.42519,55.77078],[37.42631,55.77052],[37.42469,55.76944],[37.42113,55.77],[37.41902,55.76972],[37.41906,55.77047],[37.41854,55.77106],[37.42068,55.77159],[37.42056,55.77188]]]]}},{"type":"Feature","properties":{"id":"ticari-lab-44","kind":"district-label","btype":"ticari","name":"Бизнес-Центр \"Крылатские Холмы\""},"geometry":{"type":"Point","coordinates":[37.42238,55.77068]}},{"type":"Feature","properties":{"id":"ticari-45","kind":"district","btype":"ticari","name":"Технопарк Nagatino i-Land","lab":1},"geometry":{"type":"MultiPolygon","coordinates":[[[[37.66321,55.69658],[37.66398,55.69523],[37.66455,55.69162],[37.66381,55.69177],[37.66291,55.6912],[37.66313,55.69092],[37.66062,55.69219],[37.66293,55.69375],[37.66053,55.69503],[37.66321,55.69658]]]]}},{"type":"Feature","properties":{"id":"ticari-lab-45","kind":"district-label","btype":"ticari","name":"Технопарк Nagatino i-Land"},"geometry":{"type":"Point","coordinates":[37.66281,55.69368]}},{"type":"Feature","properties":{"id":"ticari-46","kind":"district","btype":"ticari","name":"Бизнес-центр \"Рига Лэнд\"","lab":1},"geometry":{"type":"MultiPolygon","coordinates":[[[[37.24073,55.7868],[37.24376,55.78614],[37.24379,55.78457],[37.24075,55.78375],[37.2393,55.78276],[37.23771,55.7833],[37.2386,55.78395],[37.23904,55.78388],[37.24073,55.7868]]]]}},{"type":"Feature","properties":{"id":"ticari-lab-46","kind":"district-label","btype":"ticari","name":"Бизнес-центр \"Рига Лэнд\""},"geometry":{"type":"Point","coordinates":[37.24117,55.78488]}},{"type":"Feature","properties":{"id":"ticari-47","kind":"district","btype":"ticari","name":"Национальный космический центр имени Первой в мире женщины-космонавта В.В.Терешковой","lab":1},"geometry":{"type":"MultiPolygon","coordinates":[[[[37.49622,55.76163],[37.48519,55.76117],[37.48508,55.76237],[37.49647,55.76257],[37.49721,55.76232],[37.49616,55.76225],[37.49622,55.76163]]]]}},{"type":"Feature","properties":{"id":"ticari-lab-47","kind":"district-label","btype":"ticari","name":"Национальный космический центр имени Первой в мире женщины-космонавта В.В.Терешковой"},"geometry":{"type":"Point","coordinates":[37.49053,55.76194]}},{"type":"Feature","properties":{"id":"ticari-48","kind":"district","btype":"ticari","name":"Рынок \"Садовод\"","lab":1},"geometry":{"type":"MultiPolygon","coordinates":[[[[37.69934,55.89456],[37.69924,55.89426],[37.69584,55.89505],[37.69629,55.89631],[37.69524,55.89665],[37.69552,55.89719],[37.69785,55.89693],[37.69852,55.89658],[37.6991,55.89741],[37.70408,55.8961],[37.69983,55.89631],[37.69899,55.89459],[37.69934,55.89456]]]]}},{"type":"Feature","properties":{"id":"ticari-lab-48","kind":"district-label","btype":"ticari","name":"Рынок \"Садовод\""},"geometry":{"type":"Point","coordinates":[37.69842,55.89603]}},{"type":"Feature","properties":{"id":"ticari-49","kind":"district","btype":"ticari","name":"Автозапчасти \"КЭМП\"","lab":1},"geometry":{"type":"MultiPolygon","coordinates":[[[[37.61843,55.45008],[37.61903,55.45003],[37.61924,55.45076],[37.61973,55.45072],[37.62094,55.44918],[37.62253,55.44841],[37.62143,55.44734],[37.62005,55.44773],[37.61924,55.44613],[37.61965,55.44609],[37.61946,55.44557],[37.61785,55.44568],[37.61843,55.45008]]]]}},{"type":"Feature","properties":{"id":"ticari-lab-49","kind":"district-label","btype":"ticari","name":"Автозапчасти \"КЭМП\""},"geometry":{"type":"Point","coordinates":[37.61963,55.44818]}},{"type":"Feature","properties":{"id":"ticari-50","kind":"district","btype":"ticari","name":"Globus","lab":1},"geometry":{"type":"MultiPolygon","coordinates":[[[[37.49224,55.5555],[37.4918,55.5566],[37.49234,55.55808],[37.49576,55.55774],[37.4968,55.55702],[37.49597,55.55535],[37.49224,55.5555]]]]}},{"type":"Feature","properties":{"id":"ticari-lab-50","kind":"district-label","btype":"ticari","name":"Globus"},"geometry":{"type":"Point","coordinates":[37.49417,55.55666]}},{"type":"Feature","properties":{"id":"ticari-51","kind":"district","btype":"ticari","name":"Строительный рынок Каширский двор-1","lab":1},"geometry":{"type":"MultiPolygon","coordinates":[[[[37.63024,55.66545],[37.63235,55.66385],[37.63752,55.66457],[37.63623,55.66466],[37.63577,55.66498],[37.63589,55.66519],[37.63489,55.6656],[37.63484,55.66659],[37.63204,55.66644],[37.63213,55.66611],[37.63,55.66597],[37.63024,55.66545]]]]}},{"type":"Feature","properties":{"id":"ticari-lab-51","kind":"district-label","btype":"ticari","name":"Строительный рынок Каширский двор-1"},"geometry":{"type":"Point","coordinates":[37.63326,55.66522]}},{"type":"Feature","properties":{"id":"ticari-52","kind":"district","btype":"ticari","name":"Торговый центр «Савёловский»","lab":1},"geometry":{"type":"MultiPolygon","coordinates":[[[[37.59004,55.79391],[37.5928,55.79663],[37.59538,55.79804],[37.5944,55.7969],[37.59436,55.79464],[37.59315,55.79302],[37.59004,55.79391]]]]}},{"type":"Feature","properties":{"id":"ticari-lab-52","kind":"district-label","btype":"ticari","name":"Торговый центр «Савёловский»"},"geometry":{"type":"Point","coordinates":[37.59282,55.79504]}},{"type":"Feature","properties":{"id":"ticari-53","kind":"district","btype":"ticari","name":"Бизнес-парк «Химки»","lab":1},"geometry":{"type":"MultiPolygon","coordinates":[[[[37.41745,55.90801],[37.41679,55.90708],[37.41739,55.90666],[37.41535,55.90567],[37.41239,55.9076],[37.41299,55.90788],[37.41244,55.90825],[37.41459,55.90928],[37.41745,55.90801]]]]}},{"type":"Feature","properties":{"id":"ticari-lab-53","kind":"district-label","btype":"ticari","name":"Бизнес-парк «Химки»"},"geometry":{"type":"Point","coordinates":[37.41502,55.90754]}},{"type":"Feature","properties":{"id":"ticari-54","kind":"district","btype":"ticari","name":"Строительный рынок \"Тракт-терминал\"","lab":1},"geometry":{"type":"MultiPolygon","coordinates":[[[[37.73283,55.88422],[37.73594,55.88191],[37.73604,55.88184],[37.7342,55.88103],[37.72973,55.88273],[37.72984,55.88326],[37.73097,55.88441],[37.73216,55.88402],[37.73283,55.88422]]]]}},{"type":"Feature","properties":{"id":"ticari-lab-54","kind":"district-label","btype":"ticari","name":"Строительный рынок \"Тракт-терминал\""},"geometry":{"type":"Point","coordinates":[37.73271,55.88272]}},{"type":"Feature","properties":{"id":"ticari-55","kind":"district","btype":"ticari","name":"October 50th Anniversary Ostankino Television Technical Center","lab":1},"geometry":{"type":"MultiPolygon","coordinates":[[[[37.60969,55.82359],[37.60986,55.82206],[37.60411,55.82207],[37.6041,55.82235],[37.60301,55.82207],[37.60272,55.82358],[37.60969,55.82359]]]]}},{"type":"Feature","properties":{"id":"ticari-lab-55","kind":"district-label","btype":"ticari","name":"October 50th Anniversary Ostankino Television Technical Center"},"geometry":{"type":"Point","coordinates":[37.60636,55.82284]}},{"type":"Feature","properties":{"id":"ticari-56","kind":"district","btype":"ticari","name":"Строительный рынок \"Покров\"","lab":1},"geometry":{"type":"MultiPolygon","coordinates":[[[[37.61016,55.43913],[37.60951,55.43923],[37.61196,55.44064],[37.61338,55.44401],[37.61519,55.44383],[37.61585,55.44329],[37.61547,55.44291],[37.61543,55.44258],[37.61575,55.44256],[37.61544,55.44168],[37.61495,55.44179],[37.61437,55.44087],[37.61378,55.44092],[37.61288,55.43985],[37.61111,55.43983],[37.61016,55.43913]]]]}},{"type":"Feature","properties":{"id":"ticari-lab-56","kind":"district-label","btype":"ticari","name":"Строительный рынок \"Покров\""},"geometry":{"type":"Point","coordinates":[37.61353,55.44187]}},{"type":"Feature","properties":{"id":"ticari-57","kind":"district","btype":"ticari","name":"Строительный рынок \"Владимирский тракт\"","lab":1},"geometry":{"type":"MultiPolygon","coordinates":[[[[37.85468,55.77572],[37.85644,55.77634],[37.85693,55.77616],[37.85726,55.77632],[37.8568,55.77655],[37.85752,55.77696],[37.85731,55.77765],[37.85594,55.77931],[37.85265,55.77845],[37.85468,55.77572]]]]}},{"type":"Feature","properties":{"id":"ticari-lab-57","kind":"district-label","btype":"ticari","name":"Строительный рынок \"Владимирский тракт\""},"geometry":{"type":"Point","coordinates":[37.85525,55.77757]}},{"type":"Feature","properties":{"id":"ticari-58","kind":"district","btype":"ticari","name":"Офис-парк \"Шереметьевский\"","lab":1},"geometry":{"type":"MultiPolygon","coordinates":[[[[37.6021,55.79991],[37.60442,55.80028],[37.60789,55.80006],[37.60819,55.79832],[37.60338,55.79814],[37.60319,55.79893],[37.60263,55.79893],[37.6021,55.79991]]]]}},{"type":"Feature","properties":{"id":"ticari-lab-58","kind":"district-label","btype":"ticari","name":"Офис-парк \"Шереметьевский\""},"geometry":{"type":"Point","coordinates":[37.60532,55.79922]}},{"type":"Feature","properties":{"id":"ticari-59","kind":"district","btype":"ticari","name":"Бизнес-центр \"East Gate\"","lab":1},"geometry":{"type":"MultiPolygon","coordinates":[[[[37.83519,55.81308],[37.83581,55.81057],[37.83312,55.81048],[37.83322,55.80994],[37.83172,55.80988],[37.83127,55.81204],[37.8324,55.81226],[37.83231,55.81257],[37.83519,55.81308]]]]}},{"type":"Feature","properties":{"id":"ticari-lab-59","kind":"district-label","btype":"ticari","name":"Бизнес-центр \"East Gate\""},"geometry":{"type":"Point","coordinates":[37.83352,55.81147]}},{"type":"Feature","properties":{"id":"ticari-60","kind":"district","btype":"ticari","name":"Arkhangelskoye outlet","lab":1},"geometry":{"type":"MultiPolygon","coordinates":[[[[37.28427,55.80107],[37.28233,55.80041],[37.28046,55.80066],[37.27768,55.80003],[37.27749,55.80074],[37.27628,55.80154],[37.27707,55.80181],[37.27757,55.80145],[37.28306,55.80229],[37.28427,55.80107]]]]}},{"type":"Feature","properties":{"id":"ticari-lab-60","kind":"district-label","btype":"ticari","name":"Arkhangelskoye outlet"},"geometry":{"type":"Point","coordinates":[37.2805,55.80119]}},{"type":"Feature","properties":{"id":"ticari-61","kind":"district","btype":"ticari","name":"Бизнес-парк «5 Донской проезд»","lab":1},"geometry":{"type":"MultiPolygon","coordinates":[[[[37.60115,55.70649],[37.60097,55.70507],[37.59958,55.70389],[37.59603,55.70496],[37.59727,55.70623],[37.59868,55.70614],[37.59976,55.70731],[37.60086,55.70724],[37.60115,55.70649]]]]}},{"type":"Feature","properties":{"id":"ticari-lab-61","kind":"district-label","btype":"ticari","name":"Бизнес-парк «5 Донской проезд»"},"geometry":{"type":"Point","coordinates":[37.59907,55.70553]}},{"type":"Feature","properties":{"id":"ticari-62","kind":"district","btype":"ticari","name":"Деловой квартал \"Красная Роза\"","lab":1},"geometry":{"type":"MultiPolygon","coordinates":[[[[37.58552,55.73667],[37.58928,55.73427],[37.5909,55.73325],[37.58971,55.7329],[37.58955,55.73276],[37.58998,55.73258],[37.58961,55.73229],[37.58912,55.7325],[37.58455,55.73557],[37.58484,55.73579],[37.58444,55.73612],[37.58552,55.73667]]]]}},{"type":"Feature","properties":{"id":"ticari-lab-62","kind":"district-label","btype":"ticari","name":"Деловой квартал \"Красная Роза\""},"geometry":{"type":"Point","coordinates":[37.58753,55.7345]}},{"type":"Feature","properties":{"id":"ticari-63","kind":"district","btype":"ticari","name":"Торговый комплекс \"Левый берег\"","lab":1},"geometry":{"type":"MultiPolygon","coordinates":[[[[37.50654,55.89756],[37.50658,55.89722],[37.5059,55.8968],[37.50262,55.8954],[37.50058,55.89613],[37.50291,55.89702],[37.50258,55.8984],[37.50543,55.89861],[37.50576,55.89751],[37.50654,55.89756]]]]}},{"type":"Feature","properties":{"id":"ticari-lab-63","kind":"district-label","btype":"ticari","name":"Торговый комплекс \"Левый берег\""},"geometry":{"type":"Point","coordinates":[37.50382,55.89706]}},{"type":"Feature","properties":{"id":"ticari-64","kind":"district","btype":"ticari","name":"Строительный рынок \"Петровский\"","lab":1},"geometry":{"type":"MultiPolygon","coordinates":[[[[37.23766,55.78593],[37.23834,55.78724],[37.2402,55.78683],[37.23884,55.78452],[37.2374,55.78357],[37.23503,55.78435],[37.23656,55.78616],[37.23766,55.78593]]]]}},{"type":"Feature","properties":{"id":"ticari-lab-64","kind":"district-label","btype":"ticari","name":"Строительный рынок \"Петровский\""},"geometry":{"type":"Point","coordinates":[37.23772,55.78532]}},{"type":"Feature","properties":{"id":"ticari-65","kind":"district","btype":"ticari","name":"Bosch HQ","lab":1},"geometry":{"type":"MultiPolygon","coordinates":[[[[37.4156,55.9197],[37.41553,55.91881],[37.41205,55.91975],[37.41247,55.92165],[37.41746,55.92076],[37.41594,55.91954],[37.4156,55.9197]]]]}},{"type":"Feature","properties":{"id":"ticari-lab-65","kind":"district-label","btype":"ticari","name":"Bosch HQ"},"geometry":{"type":"Point","coordinates":[37.41439,55.92031]}},{"type":"Feature","properties":{"id":"ticari-66","kind":"district","btype":"ticari","name":"МУЭГ","lab":1},"geometry":{"type":"MultiPolygon","coordinates":[[[[37.47344,55.58276],[37.47174,55.58103],[37.47487,55.57967],[37.47722,55.58108],[37.47344,55.58276]]]]}},{"type":"Feature","properties":{"id":"ticari-lab-66","kind":"district-label","btype":"ticari","name":"МУЭГ"},"geometry":{"type":"Point","coordinates":[37.47435,55.58116]}}]}