{"type":"FeatureCollection","features":[{"type":"Feature","properties":{"id":"turistik-0","kind":"district","btype":"turistik","name":"Staré Město","lab":1},"geometry":{"type":"Polygon","coordinates":[[[14.41089,50.07867],[14.40982,50.07907],[14.40913,50.08077],[14.40898,50.08213],[14.4106,50.08555],[14.41154,50.08668],[14.41363,50.09075],[14.41489,50.092],[14.4168,50.09298],[14.41864,50.09346],[14.4224,50.094],[14.42677,50.09429],[14.42837,50.08904],[14.42847,50.08761],[14.42801,50.08706],[14.42173,50.08293],[14.41637,50.08162],[14.41174,50.08123],[14.41134,50.0792],[14.41089,50.07867]],[[14.41555,50.08867],[14.41904,50.08785],[14.41869,50.08841],[14.41981,50.08875],[14.41939,50.08944],[14.42018,50.08972],[14.41991,50.09017],[14.4206,50.09023],[14.42084,50.09003],[14.42128,50.09019],[14.42104,50.09066],[14.42048,50.09061],[14.42038,50.09107],[14.41863,50.09085],[14.41814,50.0916],[14.417,50.09103],[14.41632,50.09035],[14.41555,50.08867]]]}},{"type":"Feature","properties":{"id":"turistik-lab-0","kind":"district-label","btype":"turistik","name":"Staré Město"},"geometry":{"type":"Point","coordinates":[14.41882,50.08612]}},{"type":"Feature","properties":{"id":"turistik-1","kind":"district","btype":"turistik","name":"Nové Město","lab":1},"geometry":{"type":"MultiPolygon","coordinates":[[[[14.4134328,50.0670927],[14.4182844,50.0678207],[14.4189037,50.0688734],[14.4207162,50.0684253],[14.4219502,50.0667066],[14.4232551,50.0657291],[14.4134328,50.0670927]]],[[[14.4304442,50.0770881],[14.4303819,50.0737169],[14.431531,50.0738925],[14.4322427,50.0720554],[14.4320495,50.070728],[14.4307754,50.0707319],[14.4310854,50.0681238],[14.4288689,50.0683648],[14.4272748,50.0680364],[14.4251088,50.0672079],[14.4233195,50.0658224],[14.4304442,50.0770881]]],[[[14.4112158,50.0772082],[14.4115121,50.0755917],[14.4108898,50.0786748],[14.4112158,50.0772082]]]]}},{"type":"Feature","properties":{"id":"turistik-lab-1","kind":"district-label","btype":"turistik","name":"Nové Město"},"geometry":{"type":"Point","coordinates":[14.41864,50.06746]}},{"type":"Feature","properties":{"id":"turistik-2","kind":"district","btype":"turistik","name":"Malá Strana","lab":1},"geometry":{"type":"MultiPolygon","coordinates":[[[[14.4081272,50.0805107],[14.4081776,50.0796017],[14.4036086,50.0793722],[14.4030364,50.0802806],[14.4031683,50.080752],[14.4091318,50.0807663],[14.4081272,50.0805107]]],[[[14.4091075,50.0812779],[14.4091217,50.0811772],[14.4091318,50.0807663],[14.4091075,50.0812779]]],[[[14.4089769,50.0821333],[14.4136333,50.0907463],[14.4148902,50.091997],[14.4091075,50.0812779],[14.4089769,50.0821333]]],[[[14.3995878,50.0807573],[14.3977951,50.0813972],[14.3964486,50.0829793],[14.3934168,50.083181],[14.3940874,50.0841313],[14.3931682,50.0843837],[14.3930152,50.0855973],[14.3935029,50.0858091],[14.3927642,50.0873804],[14.3953708,50.0876564],[14.3951721,50.0882926],[14.3967096,50.0884955],[14.3990158,50.0894532],[14.4004295,50.0892302],[14.4018871,50.0897441],[14.4061165,50.0916088],[14.406212,50.0923578],[14.4067573,50.0924929],[14.4062476,50.0930564],[14.4091784,50.0935176],[14.4094783,50.0928966],[14.4092063,50.0926021],[14.4114298,50.0922183],[14.3995878,50.0807573]]],[[[14.4148902,50.091997],[14.4139752,50.0925441],[14.4135103,50.0931672],[14.4148902,50.091997]]],[[[14.4135103,50.0931672],[14.4114298,50.0922183],[14.4123081,50.0927295],[14.4135103,50.0931672]]]]}},{"type":"Feature","properties":{"id":"turistik-lab-2","kind":"district-label","btype":"turistik","name":"Malá Strana"},"geometry":{"type":"Point","coordinates":[14.39938,50.08659]}},{"type":"Feature","properties":{"id":"turistik-3","kind":"district","btype":"turistik","name":"Hradčany","lab":1},"geometry":{"type":"MultiPolygon","coordinates":[[[[14.3995878,50.0807573],[14.3977951,50.0813972],[14.3964486,50.0829793],[14.3934168,50.083181],[14.3940874,50.0841313],[14.3931682,50.0843837],[14.3930152,50.0855973],[14.3935029,50.0858091],[14.3927642,50.0873804],[14.3953708,50.0876564],[14.3951721,50.0882926],[14.3967096,50.0884955],[14.3990158,50.0894532],[14.4004295,50.0892302],[14.4018871,50.0897441],[14.4061165,50.0916088],[14.406212,50.0923578],[14.4067573,50.0924929],[14.4062476,50.0930564],[14.4091784,50.0935176],[14.4094783,50.0928966],[14.4092063,50.0926021],[14.4114298,50.0922183],[14.3995878,50.0807573]]],[[[14.3846904,50.0880623],[14.3861714,50.0893435],[14.385263,50.0908648],[14.3880173,50.0932077],[14.3903631,50.0942346],[14.3962605,50.0949287],[14.384416,50.0861367],[14.3846904,50.0880623]]],[[[14.4094167,50.0951273],[14.4111073,50.0954232],[14.4109415,50.0944918],[14.4105498,50.0944129],[14.4109265,50.0937192],[14.4121417,50.0932175],[14.4114298,50.0922183],[14.4090727,50.0951548],[14.4094167,50.0951273]]],[[[14.4075807,50.097657],[14.4090727,50.0951548],[14.4076765,50.0974921],[14.4075807,50.097657]]]]}},{"type":"Feature","properties":{"id":"turistik-lab-3","kind":"district-label","btype":"turistik","name":"Hradčany"},"geometry":{"type":"Point","coordinates":[14.39938,50.08659]}},{"type":"Feature","properties":{"id":"turistik-4","kind":"district","btype":"turistik","name":"Josefov","lab":1},"geometry":{"type":"Polygon","coordinates":[[[14.4155539,50.0886651],[14.4190354,50.0878531],[14.4186933,50.0884083],[14.4198057,50.0887454],[14.4193852,50.089435],[14.4201837,50.0897159],[14.4199148,50.0901745],[14.421282,50.0901938],[14.4210419,50.0906578],[14.4204836,50.0906076],[14.4203813,50.0910667],[14.4186304,50.0908504],[14.4181417,50.0916042],[14.4163211,50.0903454],[14.4155539,50.0886651]]]}},{"type":"Feature","properties":{"id":"turistik-lab-4","kind":"district-label","btype":"turistik","name":"Josefov"},"geometry":{"type":"Point","coordinates":[14.41809,50.08995]}},{"type":"Feature","properties":{"id":"turistik-5","kind":"district","btype":"turistik","name":"Vinohrady","lab":1},"geometry":{"type":"MultiPolygon","coordinates":[[[[14.435206,50.0660312],[14.4344308,50.0654135],[14.43429,50.0654702],[14.435206,50.0660312]]],[[[14.4436637,50.071454],[14.4479535,50.0696964],[14.448499,50.0689593],[14.4485558,50.0680513],[14.4454181,50.0679346],[14.440865,50.0664193],[14.4436637,50.071454]]],[[[14.4304442,50.0770881],[14.4303819,50.0737169],[14.431531,50.0738925],[14.4322427,50.0720554],[14.4320495,50.070728],[14.4307754,50.0707319],[14.4310854,50.0681238],[14.4288689,50.0683648],[14.4272748,50.0680364],[14.4251088,50.0672079],[14.4233195,50.0658224],[14.4304442,50.0770881]]],[[[14.4787302,50.0778448],[14.4858909,50.077095],[14.4864212,50.0750867],[14.4854885,50.0749841],[14.4865249,50.0726444],[14.4848259,50.07245],[14.4787302,50.0778448]]]]}},{"type":"Feature","properties":{"id":"turistik-lab-5","kind":"district-label","btype":"turistik","name":"Vinohrady"},"geometry":{"type":"Point","coordinates":[14.44528,50.06851]}},{"type":"Feature","properties":{"id":"turistik-6","kind":"district","btype":"turistik","name":"Žižkov","lab":1},"geometry":{"type":"Polygon","coordinates":[[[14.47519,50.09607],[14.47593,50.09658],[14.47622,50.09643],[14.47848,50.09771],[14.47916,50.09657],[14.48048,50.09495],[14.48072,50.09484],[14.48166,50.0951],[14.48217,50.09445],[14.48566,50.09494],[14.49145,50.09508],[14.49596,50.09569],[14.49627,50.09445],[14.49686,50.09346],[14.49829,50.09177],[14.50098,50.09088],[14.50233,50.09064],[14.50142,50.09035],[14.50163,50.09001],[14.50331,50.08966],[14.49167,50.08734],[14.49192,50.08707],[14.49177,50.08682],[14.48749,50.08578],[14.48522,50.08545],[14.48224,50.08541],[14.48175,50.08497],[14.48028,50.0848],[14.47839,50.08357],[14.47921,50.08251],[14.4799,50.08266],[14.48085,50.08149],[14.48211,50.081],[14.48256,50.08046],[14.4771,50.07954],[14.47755,50.07861],[14.47742,50.07796],[14.47316,50.07844],[14.45703,50.07761],[14.45638,50.07921],[14.45507,50.07904],[14.45413,50.08125],[14.45096,50.0799],[14.44819,50.079],[14.44738,50.07997],[14.44557,50.08119],[14.43953,50.08202],[14.44079,50.08516],[14.43806,50.08631],[14.43835,50.08667],[14.43968,50.08714],[14.44184,50.08744],[14.44323,50.08741],[14.44311,50.08844],[14.44325,50.08883],[14.44839,50.08988],[14.44855,50.08959],[14.44956,50.0897],[14.45537,50.09085],[14.45801,50.09155],[14.46581,50.09268],[14.46774,50.09335],[14.46803,50.0933],[14.47017,50.09492],[14.47039,50.09487],[14.47103,50.09532],[14.47388,50.09785],[14.47442,50.09756],[14.47519,50.09607]]]}},{"type":"Feature","properties":{"id":"turistik-lab-6","kind":"district-label","btype":"turistik","name":"Žižkov"},"geometry":{"type":"Point","coordinates":[14.46892,50.08794]}},{"type":"Feature","properties":{"id":"turistik-7","kind":"district","btype":"turistik","name":"Smíchov","lab":1},"geometry":{"type":"Polygon","coordinates":[[[14.41273,50.05068],[14.41125,50.05116],[14.41092,50.05094],[14.41105,50.0512],[14.40993,50.05121],[14.40908,50.05166],[14.40956,50.04961],[14.40888,50.04937],[14.40869,50.04885],[14.40447,50.04843],[14.40531,50.04953],[14.40495,50.05108],[14.40435,50.05164],[14.4041,50.05216],[14.40284,50.05194],[14.40249,50.05231],[14.40092,50.05202],[14.39997,50.05419],[14.40018,50.05443],[14.39882,50.05495],[14.39856,50.05553],[14.3987,50.05623],[14.39965,50.05808],[14.39598,50.05869],[14.39613,50.0597],[14.39595,50.06008],[14.39561,50.06022],[14.39419,50.05919],[14.39349,50.05964],[14.39365,50.05978],[14.39321,50.06038],[14.39213,50.06004],[14.39171,50.06042],[14.39017,50.06032],[14.38784,50.061],[14.38376,50.06054],[14.3835,50.06069],[14.38418,50.06112],[14.38363,50.06224],[14.38739,50.06451],[14.38674,50.0654],[14.38635,50.06543],[14.38411,50.06831],[14.38493,50.06924],[14.38584,50.0689],[14.38632,50.06935],[14.38846,50.06955],[14.39338,50.0705],[14.39312,50.0706],[14.39275,50.07136],[14.38982,50.07089],[14.38935,50.07261],[14.38415,50.07159],[14.38244,50.071],[14.37947,50.07087],[14.37861,50.0705],[14.37624,50.07058],[14.37337,50.07001],[14.36828,50.06997],[14.3614,50.06955],[14.361,50.07104],[14.36022,50.0721],[14.35959,50.07262],[14.35885,50.07533],[14.35843,50.07578],[14.35815,50.07677],[14.35647,50.07692],[14.35682,50.07814],[14.35994,50.07825],[14.36388,50.07871],[14.37328,50.07937],[14.37349,50.07929],[14.37342,50.07911],[14.37278,50.07876],[14.37088,50.07829],[14.37101,50.07804],[14.37428,50.07776],[14.37493,50.07804],[14.37715,50.07808],[14.37803,50.0787],[14.37973,50.07888],[14.37969,50.07938],[14.38782,50.07839],[14.38775,50.07788],[14.38946,50.07782],[14.3925,50.07808],[14.39239,50.07829],[14.39376,50.07878],[14.395,50.07897],[14.39874,50.08025],[14.39884,50.08065],[14.40159,50.08074],[14.40155,50.08061],[14.40189,50.08059],[14.40191,50.08075],[14.40317,50.08075],[14.40304,50.08027],[14.40357,50.07982],[14.40361,50.07937],[14.40818,50.0796],[14.40812,50.08065],[14.40913,50.08077],[14.40982,50.07907],[14.41089,50.07867],[14.41343,50.06709],[14.41479,50.06337],[14.41581,50.0618],[14.41637,50.05918],[14.41631,50.05822],[14.41541,50.0558],[14.41273,50.05068]]]}},{"type":"Feature","properties":{"id":"turistik-lab-7","kind":"district-label","btype":"turistik","name":"Smíchov"},"geometry":{"type":"Point","coordinates":[14.40064,50.06495]}},{"type":"Feature","properties":{"id":"turistik-8","kind":"district","btype":"turistik","name":"Karlín","lab":1},"geometry":{"type":"Polygon","coordinates":[[[14.459882,50.103132],[14.4574881,50.1006712],[14.4552428,50.0994813],[14.4506181,50.0979507],[14.4488189,50.0967513],[14.4445214,50.0952805],[14.4366128,50.0942956],[14.459882,50.103132]]]}},{"type":"Feature","properties":{"id":"turistik-lab-8","kind":"district-label","btype":"turistik","name":"Karlín"},"geometry":{"type":"Point","coordinates":[14.45059,50.09872]}},{"type":"Feature","properties":{"id":"turistik-9","kind":"district","btype":"turistik","name":"Holešovice","lab":1},"geometry":{"type":"Polygon","coordinates":[[[14.44532,50.11342],[14.45311,50.11288],[14.45626,50.11157],[14.45782,50.11047],[14.45898,50.10933],[14.46015,50.1076],[14.46052,50.10614],[14.46051,50.10473],[14.45988,50.10313],[14.45886,50.10175],[14.45749,50.10067],[14.45524,50.09948],[14.45062,50.09795],[14.44882,50.09675],[14.44452,50.09528],[14.44152,50.0947],[14.43556,50.09421],[14.4339,50.09427],[14.43188,50.09402],[14.42927,50.0945],[14.4206,50.0938],[14.4168,50.09298],[14.41489,50.092],[14.41398,50.09254],[14.41351,50.09317],[14.41143,50.09222],[14.41214,50.09322],[14.4113,50.0938],[14.41093,50.09372],[14.41055,50.09441],[14.41094,50.09449],[14.41111,50.09542],[14.40964,50.09541],[14.40942,50.09513],[14.40907,50.09515],[14.40758,50.09766],[14.42059,50.09962],[14.42244,50.09996],[14.42398,50.10053],[14.42685,50.10101],[14.42598,50.10303],[14.42979,50.10346],[14.43088,50.10376],[14.43578,50.10687],[14.43497,50.10773],[14.43304,50.10862],[14.42867,50.10984],[14.42838,50.11037],[14.42803,50.11044],[14.42815,50.11103],[14.43034,50.11101],[14.43051,50.11166],[14.43299,50.11181],[14.4411,50.11312],[14.44532,50.11342]]]}},{"type":"Feature","properties":{"id":"turistik-lab-9","kind":"district-label","btype":"turistik","name":"Holešovice"},"geometry":{"type":"Point","coordinates":[14.44279,50.10239]}}]}