{"type":"FeatureCollection","features":[{"type":"Feature","properties":{"id":"dogal-0","kind":"district","btype":"dogal","name":"Královská obora","lab":1},"geometry":{"type":"MultiPolygon","coordinates":[[[[14.431138,50.103898],[14.428474,50.1033197],[14.421005,50.1036813],[14.419396,50.1036178],[14.4275057,50.1032154],[14.4231339,50.1028262],[14.4202607,50.102983],[14.4180486,50.1032933],[14.4178026,50.1036928],[14.4146927,50.1043672],[14.4147857,50.1046007],[14.4143008,50.1047349],[14.4103158,50.1043972],[14.4073928,50.1047677],[14.4056391,50.1066698],[14.4058222,50.1069105],[14.4082677,50.1064927],[14.4107803,50.1066568],[14.4187433,50.1093898],[14.4226123,50.110127],[14.4225486,50.1090374],[14.4236995,50.1084963],[14.4252702,50.1071272],[14.4278836,50.1063518],[14.4286509,50.1052846],[14.4306178,50.1045015],[14.4305471,50.1039671],[14.431138,50.103898]]],[[[14.4046244,50.1077765],[14.4042853,50.1091324],[14.4049263,50.108458],[14.4059982,50.1083916],[14.407212,50.1073136],[14.4081716,50.1071757],[14.411077,50.1075674],[14.4123364,50.1084261],[14.4125275,50.1102543],[14.4129905,50.1106514],[14.4241302,50.1105655],[14.4199406,50.1099131],[14.4103418,50.1067234],[14.406913,50.1067945],[14.4046244,50.1077765]]]]}},{"type":"Feature","properties":{"id":"dogal-lab-0","kind":"district-label","btype":"dogal","name":"Královská obora"},"geometry":{"type":"Point","coordinates":[14.41676,50.10642]}},{"type":"Feature","properties":{"id":"dogal-1","kind":"district","btype":"dogal","name":"Park Vrch Vítkov","lab":1},"geometry":{"type":"Polygon","coordinates":[[[14.4628213,50.0898457],[14.4610557,50.0898874],[14.4610411,50.0894505],[14.4601476,50.0890503],[14.4564215,50.0882004],[14.4492282,50.0873321],[14.4454772,50.0871816],[14.4454461,50.0879258],[14.4450011,50.0879432],[14.4468854,50.0890055],[14.4610938,50.0917783],[14.4642483,50.0921418],[14.4660059,50.0906017],[14.4628213,50.0898457]]]}},{"type":"Feature","properties":{"id":"dogal-lab-1","kind":"district-label","btype":"dogal","name":"Park Vrch Vítkov"},"geometry":{"type":"Point","coordinates":[14.45561,50.08965]}},{"type":"Feature","properties":{"id":"dogal-2","kind":"district","btype":"dogal","name":"Centrální park","lab":1},"geometry":{"type":"Polygon","coordinates":[[[14.3312976,50.0465061],[14.326055,50.0462457],[14.3260667,50.0465613],[14.3246481,50.0470576],[14.3238658,50.0467267],[14.3234812,50.0460241],[14.3224177,50.0461981],[14.3230836,50.046462],[14.3229056,50.0470867],[14.3224411,50.0470826],[14.321926,50.0477707],[14.3185002,50.0476486],[14.3179441,50.0479226],[14.3181472,50.0487626],[14.3192281,50.0492086],[14.3192439,50.0488019],[14.3207515,50.0488185],[14.3210382,50.0491662],[14.3210864,50.0487884],[14.3226095,50.0485672],[14.3332255,50.0486651],[14.3334607,50.0480723],[14.3341993,50.0478872],[14.3366375,50.0482188],[14.3377217,50.0491935],[14.3400933,50.0485817],[14.340441,50.0472307],[14.341323,50.0460363],[14.3395561,50.0456235],[14.3387615,50.0458879],[14.3379941,50.0466254],[14.3370338,50.0468186],[14.3328129,50.0467886],[14.3318693,50.0461504],[14.3321244,50.0460383],[14.3314695,50.045974],[14.3312976,50.0465061]]]}},{"type":"Feature","properties":{"id":"dogal-lab-2","kind":"district-label","btype":"dogal","name":"Centrální park"},"geometry":{"type":"Point","coordinates":[14.33128,50.04744]}},{"type":"Feature","properties":{"id":"dogal-3","kind":"district","btype":"dogal","name":"park Ladronka","lab":1},"geometry":{"type":"Polygon","coordinates":[[[14.3457332,50.0786593],[14.3466072,50.0782937],[14.3464302,50.0779647],[14.3509291,50.0783607],[14.3544451,50.0771608],[14.3565932,50.0770344],[14.3567937,50.0776745],[14.358624,50.0775665],[14.3589748,50.0779601],[14.3620364,50.0785287],[14.3650862,50.0787612],[14.3648993,50.0784901],[14.367195,50.078914],[14.373434,50.079229],[14.3734792,50.0800936],[14.3537404,50.0795735],[14.3492086,50.0801861],[14.3469379,50.0796133],[14.3474208,50.0793022],[14.3461022,50.0791046],[14.3457332,50.0786593]]]}},{"type":"Feature","properties":{"id":"dogal-lab-3","kind":"district-label","btype":"dogal","name":"park Ladronka"},"geometry":{"type":"Point","coordinates":[14.35439,50.07859]}},{"type":"Feature","properties":{"id":"dogal-4","kind":"district","btype":"dogal","name":"Letenské sady","lab":1},"geometry":{"type":"Polygon","coordinates":[[[14.4197977,50.0964868],[14.4205446,50.0946077],[14.4162865,50.0939896],[14.4151276,50.0942181],[14.4140754,50.0938551],[14.4132137,50.0940138],[14.4126481,50.0933445],[14.4121417,50.0932175],[14.4112984,50.0938],[14.4109265,50.0937192],[14.4105498,50.0944129],[14.4109415,50.0944918],[14.4111068,50.0954235],[14.4092849,50.0951614],[14.4083392,50.0966105],[14.4106701,50.0966864],[14.4106954,50.0979024],[14.4116105,50.0980524],[14.4119666,50.0973159],[14.4122714,50.097452],[14.4119557,50.0980529],[14.4121823,50.0981398],[14.4126018,50.0970749],[14.4183982,50.0977235],[14.4183572,50.0979399],[14.4196949,50.0981401],[14.4194524,50.0992447],[14.421001,50.0995028],[14.4219342,50.097115],[14.4214966,50.0970588],[14.421592,50.0967524],[14.4197977,50.0964868]]]}},{"type":"Feature","properties":{"id":"dogal-lab-4","kind":"district-label","btype":"dogal","name":"Letenské sady"},"geometry":{"type":"Point","coordinates":[14.41439,50.09596]}},{"type":"Feature","properties":{"id":"dogal-5","kind":"district","btype":"dogal","name":"Park Cibulka","lab":1},"geometry":{"type":"Polygon","coordinates":[[[14.3587562,50.0635329],[14.3573496,50.064058],[14.3576782,50.0644265],[14.3573303,50.0651222],[14.3559952,50.0647926],[14.355815,50.0655624],[14.3564874,50.0664107],[14.3561089,50.0669496],[14.355752,50.066874],[14.3559766,50.0663852],[14.355206,50.066058],[14.3549469,50.0664986],[14.3538227,50.0667226],[14.3542088,50.0670517],[14.35611,50.0670388],[14.356022,50.0672212],[14.3580842,50.0673298],[14.358213,50.0670639],[14.3581877,50.0677516],[14.3595177,50.0684114],[14.3609472,50.0687782],[14.3620968,50.0685207],[14.3618113,50.069188],[14.3603903,50.0692755],[14.3567184,50.0680556],[14.3560761,50.0687573],[14.353343,50.0682355],[14.3531299,50.0678085],[14.3554615,50.0678174],[14.3530753,50.067771],[14.3526238,50.0664921],[14.353088,50.0661423],[14.352907,50.06572],[14.3505207,50.0646203],[14.3502099,50.0648896],[14.3488218,50.0642435],[14.3483393,50.0638269],[14.3487893,50.0632273],[14.3486202,50.0627019],[14.3482902,50.0626364],[14.3476116,50.0641386],[14.3473438,50.0640511],[14.3473647,50.0631952],[14.348053,50.0631298],[14.3480574,50.0627169],[14.3472018,50.0625594],[14.3470429,50.0622682],[14.3560596,50.0626049],[14.3587562,50.0635329]]]}},{"type":"Feature","properties":{"id":"dogal-lab-5","kind":"district-label","btype":"dogal","name":"Park Cibulka"},"geometry":{"type":"Point","coordinates":[14.35453,50.06589]}},{"type":"Feature","properties":{"id":"dogal-6","kind":"district","btype":"dogal","name":"Kinského zahrada","lab":1},"geometry":{"type":"Polygon","coordinates":[[[14.396583,50.0781216],[14.395634,50.0776742],[14.3952452,50.0769269],[14.3929323,50.0771973],[14.3923868,50.0782958],[14.398704,50.0802677],[14.3988145,50.0806769],[14.4039781,50.0807933],[14.4039994,50.0799811],[14.4035129,50.0797523],[14.4037948,50.0788423],[14.4019788,50.0782281],[14.3985781,50.0761513],[14.396583,50.0781216]]]}},{"type":"Feature","properties":{"id":"dogal-lab-6","kind":"district-label","btype":"dogal","name":"Kinského zahrada"},"geometry":{"type":"Point","coordinates":[14.39812,50.07857]}},{"type":"Feature","properties":{"id":"dogal-7","kind":"district","btype":"dogal","name":"Petřínské sady – Seminářská zahrada","lab":1},"geometry":{"type":"Polygon","coordinates":[[[14.3976522,50.0821083],[14.3962759,50.0841592],[14.398676,50.0854104],[14.4025641,50.0857261],[14.4028698,50.0844751],[14.4024441,50.084398],[14.4025944,50.0836915],[14.4031729,50.0837078],[14.4032642,50.0826935],[14.3976522,50.0821083]]]}},{"type":"Feature","properties":{"id":"dogal-lab-7","kind":"district-label","btype":"dogal","name":"Petřínské sady – Seminářská zahrada"},"geometry":{"type":"Point","coordinates":[14.39949,50.08393]}},{"type":"Feature","properties":{"id":"dogal-8","kind":"district","btype":"dogal","name":"Havlíčkovy sady","lab":1},"geometry":{"type":"Polygon","coordinates":[[[14.4443438,50.0709323],[14.4479546,50.0696958],[14.448499,50.0689593],[14.4485558,50.0680513],[14.4454832,50.0679448],[14.4423491,50.0669016],[14.4402495,50.0674745],[14.4408861,50.0682629],[14.4420577,50.0680567],[14.4432436,50.0683455],[14.4431088,50.0693023],[14.4418482,50.0694366],[14.4443438,50.0709323]]]}},{"type":"Feature","properties":{"id":"dogal-lab-8","kind":"district-label","btype":"dogal","name":"Havlíčkovy sady"},"geometry":{"type":"Point","coordinates":[14.44586,50.06865]}},{"type":"Feature","properties":{"id":"dogal-9","kind":"district","btype":"dogal","name":"park Přátelství","lab":1},"geometry":{"type":"MultiPolygon","coordinates":[[[[14.4935737,50.124624],[14.4971734,50.1224654],[14.497956,50.1213685],[14.498854,50.1208972],[14.4974675,50.1198676],[14.4922645,50.1238682],[14.4935737,50.124624]]],[[[14.4891177,50.1268512],[14.490197,50.1273123],[14.492737,50.1255872],[14.4930086,50.1256939],[14.4933405,50.1247479],[14.492077,50.1240209],[14.4900712,50.1255769],[14.4904416,50.1258822],[14.4891177,50.1268512]]]]}},{"type":"Feature","properties":{"id":"dogal-lab-9","kind":"district-label","btype":"dogal","name":"park Přátelství"},"geometry":{"type":"Point","coordinates":[14.49618,50.12192]}},{"type":"Feature","properties":{"id":"dogal-10","kind":"district","btype":"dogal","name":"Klášterní zahrada","lab":1},"geometry":{"type":"Polygon","coordinates":[[[14.3537223,50.087547],[14.3598235,50.0873757],[14.3603643,50.0872594],[14.3604372,50.0862036],[14.3573475,50.0857248],[14.3574566,50.0853159],[14.3565318,50.0854381],[14.3565835,50.0852217],[14.355877,50.0851546],[14.3558086,50.0847565],[14.3528256,50.0851],[14.3527709,50.0854419],[14.3523281,50.0855435],[14.3536674,50.0870011],[14.3537223,50.087547]]]}},{"type":"Feature","properties":{"id":"dogal-lab-10","kind":"district-label","btype":"dogal","name":"Klášterní zahrada"},"geometry":{"type":"Point","coordinates":[14.3558,50.08596]}},{"type":"Feature","properties":{"id":"dogal-11","kind":"district","btype":"dogal","name":"Velká strahovská zahrada","lab":1},"geometry":{"type":"Polygon","coordinates":[[[14.3911918,50.0853258],[14.3910398,50.0860363],[14.3900635,50.0871619],[14.393091,50.087958],[14.3950703,50.0882087],[14.3952791,50.0879763],[14.3953389,50.0877513],[14.3927628,50.0873765],[14.3934832,50.0858641],[14.3925854,50.0855527],[14.3932051,50.0850705],[14.3930858,50.0843566],[14.3940874,50.0841313],[14.3934168,50.083181],[14.3901429,50.0841241],[14.3883207,50.0850204],[14.3889726,50.0855841],[14.3902501,50.0855745],[14.3907806,50.0851211],[14.3911918,50.0853258]]]}},{"type":"Feature","properties":{"id":"dogal-lab-11","kind":"district-label","btype":"dogal","name":"Velká strahovská zahrada"},"geometry":{"type":"Point","coordinates":[14.39209,50.08572]}},{"type":"Feature","properties":{"id":"dogal-12","kind":"district","btype":"dogal","name":"Social Impact 2","lab":1},"geometry":{"type":"Polygon","coordinates":[[[14.3849822,50.0586574],[14.3899155,50.0589767],[14.3902107,50.0560849],[14.3858267,50.0558656],[14.3849822,50.0586574]]]}},{"type":"Feature","properties":{"id":"dogal-lab-12","kind":"district-label","btype":"dogal","name":"Social Impact 2"},"geometry":{"type":"Point","coordinates":[14.38773,50.05737]}},{"type":"Feature","properties":{"id":"dogal-13","kind":"district","btype":"dogal","name":"Kavčí hory","lab":1},"geometry":{"type":"Polygon","coordinates":[[[14.4203919,50.0507896],[14.4217511,50.0512498],[14.4230103,50.0511794],[14.4229231,50.0508598],[14.4219473,50.0506356],[14.4234959,50.0484977],[14.4205193,50.047437],[14.4192929,50.0485413],[14.4191103,50.0481664],[14.418418,50.0480479],[14.4180404,50.0484099],[14.4181088,50.0492188],[14.4203919,50.0507896]]]}},{"type":"Feature","properties":{"id":"dogal-lab-13","kind":"district-label","btype":"dogal","name":"Kavčí hory"},"geometry":{"type":"Point","coordinates":[14.4208,50.04993]}},{"type":"Feature","properties":{"id":"dogal-14","kind":"district","btype":"dogal","name":"Parukářka","lab":1},"geometry":{"type":"Polygon","coordinates":[[[14.4653606,50.0858214],[14.4623088,50.0845732],[14.461621,50.0839992],[14.4593244,50.0842089],[14.4581149,50.0840247],[14.4580708,50.0837349],[14.4566379,50.0844864],[14.4574125,50.0850774],[14.4572479,50.0852999],[14.4591675,50.0859938],[14.4597091,50.0853085],[14.4620451,50.0858505],[14.4619746,50.0861588],[14.4648657,50.0864973],[14.4653606,50.0858214]]]}},{"type":"Feature","properties":{"id":"dogal-lab-14","kind":"district-label","btype":"dogal","name":"Parukářka"},"geometry":{"type":"Point","coordinates":[14.46057,50.08519]}},{"type":"Feature","properties":{"id":"dogal-15","kind":"district","btype":"dogal","name":"Malešický park","lab":1},"geometry":{"type":"Polygon","coordinates":[[[14.5026717,50.0851267],[14.4970042,50.0860998],[14.496111,50.0849126],[14.4952045,50.0844011],[14.4957415,50.0836903],[14.498183,50.0840649],[14.49868,50.0838555],[14.4990692,50.0830199],[14.5006851,50.0842397],[14.5027793,50.0848151],[14.5026717,50.0851267]]]}},{"type":"Feature","properties":{"id":"dogal-lab-15","kind":"district-label","btype":"dogal","name":"Malešický park"},"geometry":{"type":"Point","coordinates":[14.4988,50.08461]}},{"type":"Feature","properties":{"id":"dogal-16","kind":"district","btype":"dogal","name":"Park u Chodovské vodní tvrze","lab":1},"geometry":{"type":"Polygon","coordinates":[[[14.4983811,50.0355414],[14.4991682,50.0353242],[14.4999763,50.0337958],[14.4987639,50.0339747],[14.4954566,50.0363911],[14.4972466,50.0374297],[14.4995774,50.0377053],[14.4983811,50.0355414]]]}},{"type":"Feature","properties":{"id":"dogal-lab-16","kind":"district-label","btype":"dogal","name":"Park u Chodovské vodní tvrze"},"geometry":{"type":"Point","coordinates":[14.49733,50.03597]}},{"type":"Feature","properties":{"id":"dogal-17","kind":"district","btype":"dogal","name":"Lobkovická zahrada","lab":1},"geometry":{"type":"Polygon","coordinates":[[[14.3950785,50.0855143],[14.3973952,50.0857343],[14.3960678,50.0859705],[14.3963533,50.0863864],[14.3988729,50.0865692],[14.399145,50.0855127],[14.3962054,50.0840998],[14.3931939,50.0843941],[14.3933765,50.0852805],[14.3930786,50.0854999],[14.3933227,50.0857153],[14.3950498,50.0861437],[14.3950785,50.0855143]]]}},{"type":"Feature","properties":{"id":"dogal-lab-17","kind":"district-label","btype":"dogal","name":"Lobkovická zahrada"},"geometry":{"type":"Point","coordinates":[14.39606,50.08539]}},{"type":"Feature","properties":{"id":"dogal-18","kind":"district","btype":"dogal","name":"Letenské sady","lab":1},"geometry":{"type":"Polygon","coordinates":[[[14.424711,50.0967107],[14.4249482,50.0953559],[14.4309671,50.0963121],[14.4306464,50.0966711],[14.4308877,50.0968941],[14.4306252,50.0975563],[14.424711,50.0967107]]]}},{"type":"Feature","properties":{"id":"dogal-lab-18","kind":"district-label","btype":"dogal","name":"Letenské sady"},"geometry":{"type":"Point","coordinates":[14.42778,50.09649]}},{"type":"Feature","properties":{"id":"dogal-19","kind":"district","btype":"dogal","name":"Petřínské sady – zahrada Nebozízek","lab":1},"geometry":{"type":"Polygon","coordinates":[[[14.401544,50.0807565],[14.3990996,50.0820928],[14.3984507,50.082153],[14.4041238,50.082649],[14.4043811,50.0824436],[14.4044047,50.080801],[14.401544,50.0807565]]]}},{"type":"Feature","properties":{"id":"dogal-lab-19","kind":"district-label","btype":"dogal","name":"Petřínské sady – zahrada Nebozízek"},"geometry":{"type":"Point","coordinates":[14.40234,50.08145]}},{"type":"Feature","properties":{"id":"dogal-20","kind":"district","btype":"dogal","name":"Jezerka","lab":1},"geometry":{"type":"Polygon","coordinates":[[[14.44945,50.0573603],[14.4499143,50.0576638],[14.449622,50.057633],[14.4491211,50.0591141],[14.4483006,50.0593929],[14.4450555,50.058093],[14.4445931,50.0585311],[14.4440601,50.0583569],[14.4434071,50.0577846],[14.4424819,50.0559213],[14.4432743,50.0553022],[14.4435509,50.0555391],[14.4431852,50.0562375],[14.4443872,50.0572193],[14.4479906,50.0583418],[14.4484264,50.0581308],[14.4482619,50.0573718],[14.44945,50.0573603]]]}},{"type":"Feature","properties":{"id":"dogal-lab-20","kind":"district-label","btype":"dogal","name":"Jezerka"},"geometry":{"type":"Point","coordinates":[14.44389,50.05729]}},{"type":"Feature","properties":{"id":"dogal-21","kind":"district","btype":"dogal","name":"Thomayerovy sady","lab":1},"geometry":{"type":"Polygon","coordinates":[[[14.4637588,50.1105261],[14.4651545,50.1097201],[14.4666195,50.10952],[14.4676284,50.1083783],[14.4702898,50.1086476],[14.4702323,50.1089697],[14.4707323,50.1090141],[14.4703123,50.1088386],[14.4702551,50.1077288],[14.470838,50.1076141],[14.4708623,50.1072641],[14.4703906,50.1069852],[14.4666142,50.1078667],[14.4633778,50.1103366],[14.4637588,50.1105261]]]}},{"type":"Feature","properties":{"id":"dogal-lab-21","kind":"district-label","btype":"dogal","name":"Thomayerovy sady"},"geometry":{"type":"Point","coordinates":[14.46639,50.10874]}},{"type":"Feature","properties":{"id":"dogal-22","kind":"district","btype":"dogal","name":"Židovské pece","lab":1},"geometry":{"type":"Polygon","coordinates":[[[14.4740713,50.0881296],[14.4740652,50.0872346],[14.475171,50.0872472],[14.4796971,50.0886421],[14.4834654,50.0903083],[14.4833089,50.0905152],[14.4740713,50.0881296]]]}},{"type":"Feature","properties":{"id":"dogal-lab-22","kind":"district-label","btype":"dogal","name":"Židovské pece"},"geometry":{"type":"Point","coordinates":[14.48043,50.08948]}},{"type":"Feature","properties":{"id":"dogal-23","kind":"district","btype":"dogal","name":"Dolní Jelení příkop","lab":1},"geometry":{"type":"Polygon","coordinates":[[[14.3986583,50.0916781],[14.4055358,50.0934073],[14.4064337,50.093241],[14.4060457,50.0928491],[14.4067478,50.0925188],[14.405299,50.0925133],[14.3988661,50.0910075],[14.3986583,50.0916781]]]}},{"type":"Feature","properties":{"id":"dogal-lab-23","kind":"district-label","btype":"dogal","name":"Dolní Jelení příkop"},"geometry":{"type":"Point","coordinates":[14.40192,50.0921]}},{"type":"Feature","properties":{"id":"dogal-24","kind":"district","btype":"dogal","name":"Klamovka","lab":1},"geometry":{"type":"Polygon","coordinates":[[[14.3774522,50.0707238],[14.3795202,50.0710127],[14.3791551,50.071045],[14.3792674,50.0716455],[14.3781993,50.0728062],[14.3744342,50.0721256],[14.3759382,50.0710309],[14.3774522,50.0707238]]]}},{"type":"Feature","properties":{"id":"dogal-lab-24","kind":"district-label","btype":"dogal","name":"Klamovka"},"geometry":{"type":"Point","coordinates":[14.37691,50.07189]}},{"type":"Feature","properties":{"id":"dogal-25","kind":"district","btype":"dogal","name":"Centrální park","lab":1},"geometry":{"type":"Polygon","coordinates":[[[14.4344654,50.0488991],[14.429739,50.0488083],[14.4293037,50.0493652],[14.4294548,50.0496912],[14.4334359,50.0504973],[14.4341313,50.0500803],[14.4344995,50.0492605],[14.4344654,50.0488991]]]}},{"type":"Feature","properties":{"id":"dogal-lab-25","kind":"district-label","btype":"dogal","name":"Centrální park"},"geometry":{"type":"Point","coordinates":[14.43188,50.04953]}},{"type":"Feature","properties":{"id":"dogal-26","kind":"district","btype":"dogal","name":"Santoška","lab":1},"geometry":{"type":"Polygon","coordinates":[[[14.3977196,50.0646989],[14.3990696,50.0655468],[14.401592,50.0652793],[14.4035085,50.0646873],[14.4040409,50.064143],[14.402485,50.0638193],[14.399609,50.0639319],[14.3997394,50.0641508],[14.3993039,50.0644816],[14.398649,50.0645192],[14.3993636,50.0646421],[14.3982918,50.0647578],[14.3983598,50.0644388],[14.3978148,50.0644593],[14.3977196,50.0646989]]]}},{"type":"Feature","properties":{"id":"dogal-lab-26","kind":"district-label","btype":"dogal","name":"Santoška"},"geometry":{"type":"Point","coordinates":[14.40134,50.06466]}},{"type":"Feature","properties":{"id":"dogal-27","kind":"district","btype":"dogal","name":"Riegrovy sady","lab":1},"geometry":{"type":"MultiPolygon","coordinates":[[[[14.4418919,50.0784971],[14.4387957,50.0789093],[14.4420137,50.0784822],[14.4418919,50.0784971]]],[[[14.4387957,50.0789093],[14.4375072,50.079394],[14.438625,50.0807445],[14.4387957,50.0789093]]],[[[14.4449657,50.0785688],[14.4420137,50.0784822],[14.4439002,50.0813659],[14.4449657,50.0785688]]],[[[14.438625,50.0807445],[14.4389465,50.0811329],[14.4395814,50.0818937],[14.438625,50.0807445]]],[[[14.4413517,50.0817318],[14.4437508,50.0814815],[14.4439002,50.0813659],[14.4413544,50.0817154],[14.4413517,50.0817318]]],[[[14.44135,50.0815488],[14.4406959,50.0817323],[14.4413544,50.0817154],[14.44135,50.0815488]]]]}},{"type":"Feature","properties":{"id":"dogal-lab-27","kind":"district-label","btype":"dogal","name":"Riegrovy sady"},"geometry":{"type":"Point","coordinates":[14.44371,50.07997]}},{"type":"Feature","properties":{"id":"dogal-28","kind":"district","btype":"dogal","name":"Mrázovka","lab":1},"geometry":{"type":"Polygon","coordinates":[[[14.3930935,50.0686031],[14.3948461,50.0692464],[14.3960791,50.0701577],[14.3974034,50.0695026],[14.3987688,50.0692717],[14.3992917,50.069223],[14.3993184,50.0696966],[14.3985091,50.070504],[14.3985063,50.0710637],[14.3961895,50.0709018],[14.3955319,50.0707456],[14.3947748,50.0696074],[14.3936724,50.0692401],[14.3930935,50.0686031]]]}},{"type":"Feature","properties":{"id":"dogal-lab-28","kind":"district-label","btype":"dogal","name":"Mrázovka"},"geometry":{"type":"Point","coordinates":[14.39782,50.06993]}},{"type":"Feature","properties":{"id":"dogal-29","kind":"district","btype":"dogal","name":"Letenské sady","lab":1},"geometry":{"type":"Polygon","coordinates":[[[14.4201577,50.0958687],[14.4248113,50.0963554],[14.4249482,50.0953559],[14.4205446,50.0946077],[14.4201577,50.0958687]]]}},{"type":"Feature","properties":{"id":"dogal-lab-29","kind":"district-label","btype":"dogal","name":"Letenské sady"},"geometry":{"type":"Point","coordinates":[14.42257,50.09561]}},{"type":"Feature","properties":{"id":"dogal-30","kind":"district","btype":"dogal","name":"Růžový sad","lab":1},"geometry":{"type":"Polygon","coordinates":[[[14.3936686,50.0826878],[14.3964,50.0820236],[14.3964798,50.0817012],[14.3960261,50.0819009],[14.395742,50.0815106],[14.3973897,50.0810304],[14.3971096,50.0806456],[14.3976032,50.079959],[14.398704,50.0802677],[14.3988145,50.0806769],[14.399385,50.080672],[14.3974968,50.0813162],[14.3971974,50.0819947],[14.3965532,50.0818951],[14.3964852,50.0821791],[14.397168,50.0820459],[14.3964815,50.082936],[14.3938583,50.0831146],[14.3936686,50.0826878]]]}},{"type":"Feature","properties":{"id":"dogal-lab-30","kind":"district-label","btype":"dogal","name":"Růžový sad"},"geometry":{"type":"Point","coordinates":[14.39659,50.08161]}},{"type":"Feature","properties":{"id":"dogal-31","kind":"district","btype":"dogal","name":"Centrální park Hanspaulka","lab":1},"geometry":{"type":"MultiPolygon","coordinates":[[[[14.3797034,50.1057813],[14.3800178,50.1051351],[14.3788388,50.1050054],[14.3786237,50.106054],[14.3797034,50.1057813]]],[[[14.3821259,50.1063937],[14.3826334,50.1055433],[14.3801942,50.1052142],[14.379738,50.107013],[14.3803025,50.1070782],[14.3801934,50.1064475],[14.3812287,50.1066266],[14.3821259,50.1063937]]],[[[14.3782053,50.106528],[14.3795653,50.1066323],[14.3796463,50.10596],[14.378661767711133,50.10634807379603],[14.3786237,50.106054],[14.3782053,50.106528]]],[[[14.3830528,50.106467],[14.3821259,50.1063937],[14.3825952,50.1064566],[14.3830528,50.106467]]],[[[14.3831741,50.1069792],[14.3840853,50.1072796],[14.38412,50.1072688],[14.3830271,50.1066104],[14.3831741,50.1069792]]],[[[14.3838398,50.1073337],[14.3835895,50.1075228],[14.3841507,50.1074259],[14.3838398,50.1073337]]]]}},{"type":"Feature","properties":{"id":"dogal-lab-31","kind":"district-label","btype":"dogal","name":"Centrální park Hanspaulka"},"geometry":{"type":"Point","coordinates":[14.38119,50.10597]}},{"type":"Feature","properties":{"id":"dogal-32","kind":"district","btype":"dogal","name":"park Podviní","lab":1},"geometry":{"type":"Polygon","coordinates":[[[14.4917395,50.1097711],[14.4914575,50.1107626],[14.4899292,50.1114145],[14.4912937,50.1117448],[14.4937653,50.1116912],[14.4935748,50.1099344],[14.4917395,50.1097711]]]}},{"type":"Feature","properties":{"id":"dogal-lab-32","kind":"district-label","btype":"dogal","name":"park Podviní"},"geometry":{"type":"Point","coordinates":[14.4926,50.11035]}},{"type":"Feature","properties":{"id":"dogal-33","kind":"district","btype":"dogal","name":"park Pod Korábem","lab":1},"geometry":{"type":"Polygon","coordinates":[[[14.469043,50.1135242],[14.4698286,50.1137943],[14.4711207,50.1131631],[14.4726661,50.1131774],[14.4717838,50.1120835],[14.4706643,50.1120061],[14.47059,50.1117165],[14.4690017,50.1117702],[14.469043,50.1135242]]]}},{"type":"Feature","properties":{"id":"dogal-lab-33","kind":"district-label","btype":"dogal","name":"park Pod Korábem"},"geometry":{"type":"Point","coordinates":[14.47062,50.11262]}},{"type":"Feature","properties":{"id":"dogal-34","kind":"district","btype":"dogal","name":"Rokytka","lab":1},"geometry":{"type":"Polygon","coordinates":[[[14.51702,50.1067352],[14.5187518,50.1075388],[14.5216164,50.1075801],[14.5245802,50.1067613],[14.5249741,50.1062155],[14.5244689,50.1061284],[14.5237176,50.1068249],[14.5219397,50.1072676],[14.5210944,50.1073223],[14.5203844,50.1065373],[14.5195799,50.1066997],[14.5174078,50.1063359],[14.51702,50.1067352]]]}},{"type":"Feature","properties":{"id":"dogal-lab-34","kind":"district-label","btype":"dogal","name":"Rokytka"},"geometry":{"type":"Point","coordinates":[14.51927,50.10705]}},{"type":"Feature","properties":{"id":"dogal-35","kind":"district","btype":"dogal","name":"Chotkovy sady","lab":1},"geometry":{"type":"Polygon","coordinates":[[[14.4054256,50.0939715],[14.4055358,50.0934073],[14.4072873,50.0932747],[14.4090637,50.0935397],[14.4094179,50.0943467],[14.4084675,50.094843],[14.4054256,50.0939715]]]}},{"type":"Feature","properties":{"id":"dogal-lab-35","kind":"district-label","btype":"dogal","name":"Chotkovy sady"},"geometry":{"type":"Point","coordinates":[14.40771,50.09416]}},{"type":"Feature","properties":{"id":"dogal-36","kind":"district","btype":"dogal","name":"Husovy sady","lab":1},"geometry":{"type":"Polygon","coordinates":[[[14.3901801,50.0699556],[14.3933428,50.0705039],[14.3886273,50.0695926],[14.3860308,50.0692486],[14.3855889,50.069497],[14.3877007,50.070214],[14.3867285,50.0701883],[14.3869271,50.0706112],[14.3886577,50.0708976],[14.3895847,50.0709247],[14.3901801,50.0699556]]]}},{"type":"Feature","properties":{"id":"dogal-lab-36","kind":"district-label","btype":"dogal","name":"Husovy sady"},"geometry":{"type":"Point","coordinates":[14.3887,50.07007]}},{"type":"Feature","properties":{"id":"dogal-37","kind":"district","btype":"dogal","name":"Lesopark Bílá skála","lab":1},"geometry":{"type":"Polygon","coordinates":[[[14.4520335,50.1156499],[14.4523098,50.1161895],[14.4532241,50.1163118],[14.4538042,50.1158918],[14.4552982,50.1155874],[14.4565095,50.115684],[14.4568131,50.1150544],[14.4537022,50.114647],[14.4520335,50.1156499]]]}},{"type":"Feature","properties":{"id":"dogal-lab-37","kind":"district-label","btype":"dogal","name":"Lesopark Bílá skála"},"geometry":{"type":"Point","coordinates":[14.45463,50.11532]}},{"type":"Feature","properties":{"id":"dogal-38","kind":"district","btype":"dogal","name":"park Maxe van der Stoela","lab":1},"geometry":{"type":"MultiPolygon","coordinates":[[[[14.3876989,50.0888009],[14.3879141,50.089189],[14.3879097,50.0891809],[14.3876989,50.0888009]]],[[[14.3876989,50.0888009],[14.3862518,50.0888986],[14.3863317,50.0895917],[14.3859061,50.0903415],[14.3876989,50.0888009]]],[[[14.3873162,50.0893442],[14.3868742,50.0901398],[14.3879039,50.0906376],[14.3885523,50.0905816],[14.3879141,50.089189],[14.3873162,50.0893442]]],[[[14.3888408,50.0919074],[14.3886205,50.090744],[14.3885523,50.0905816],[14.3888408,50.0919074]]],[[[14.3856445,50.0907359],[14.387631,50.092611],[14.3880595,50.0923585],[14.3859061,50.0903415],[14.3856445,50.0907359]]],[[[14.3880595,50.0923585],[14.3888408,50.0919074],[14.3882825,50.0919567],[14.3880595,50.0923585]]]]}},{"type":"Feature","properties":{"id":"dogal-lab-38","kind":"district-label","btype":"dogal","name":"park Maxe van der Stoela"},"geometry":{"type":"Point","coordinates":[14.38763,50.08974]}},{"type":"Feature","properties":{"id":"dogal-39","kind":"district","btype":"dogal","name":"Sacré Coeur","lab":1},"geometry":{"type":"Polygon","coordinates":[[[14.3986609,50.0742374],[14.3982403,50.0740236],[14.3986441,50.0727248],[14.4006364,50.0731337],[14.4004725,50.0747451],[14.400134,50.0742412],[14.3995683,50.0749853],[14.3986148,50.0746621],[14.3986609,50.0742374]]]}},{"type":"Feature","properties":{"id":"dogal-lab-39","kind":"district-label","btype":"dogal","name":"Sacré Coeur"},"geometry":{"type":"Point","coordinates":[14.39948,50.07358]}},{"type":"Feature","properties":{"id":"dogal-ic-40","kind":"district","btype":"dogal","name":"Vojanovy sady","lab":1},"geometry":{"type":"Polygon","coordinates":[[[14.408428,50.089665],[14.4079671,50.0893466],[14.4081041,50.0888786],[14.4073465,50.0888157],[14.4065902,50.0879702],[14.4088641,50.0878963],[14.409919,50.0892086],[14.408428,50.089665]]]}},{"type":"Feature","properties":{"id":"dogal-ic-lab-40","kind":"district-label","btype":"dogal","name":"Vojanovy sady"},"geometry":{"type":"Point","coordinates":[14.40812,50.08839]}},{"type":"Feature","properties":{"id":"dogal-ic-41","kind":"district","btype":"dogal","name":"Kampa","lab":1},"geometry":{"type":"Polygon","coordinates":[[[14.4082927,50.0840624],[14.407859,50.0822454],[14.4076057,50.082239],[14.4069235,50.0831951],[14.4076848,50.0852544],[14.4085028,50.0854933],[14.4090616,50.0851279],[14.408819,50.0840152],[14.4082927,50.0840624]]]}},{"type":"Feature","properties":{"id":"dogal-ic-lab-41","kind":"district-label","btype":"dogal","name":"Kampa"},"geometry":{"type":"Point","coordinates":[14.40763,50.08361]}}]}