{"type":"FeatureCollection","features":[{"type":"Feature","properties":{"id":"ke-tarihi-0","kind":"poi","name":"Franz Kafka","theme":"tarihi","lab":1},"geometry":{"type":"Point","coordinates":[14.41922,50.08789]}},{"type":"Feature","properties":{"id":"ke-tarihi-1","kind":"poi","name":"Jaroslav Vrchlický","theme":"tarihi","lab":1},"geometry":{"type":"Point","coordinates":[14.39662,50.08506]}},{"type":"Feature","properties":{"id":"ke-tarihi-2","kind":"poi","name":"Jan Masaryk","theme":"tarihi","lab":1},"geometry":{"type":"Point","coordinates":[14.4379,50.07124]}},{"type":"Feature","properties":{"id":"ke-tarihi-3","kind":"poi","name":"František Langer","theme":"tarihi","lab":1},"geometry":{"type":"Point","coordinates":[14.40663,50.07303]}},{"type":"Feature","properties":{"id":"ke-tarihi-4","kind":"poi","name":"Tomáš Garrigue Masaryk","theme":"tarihi","lab":1},"geometry":{"type":"Point","coordinates":[14.39793,50.08949]}},{"type":"Feature","properties":{"id":"ke-tarihi-5","kind":"poi","name":"Johannes Kepler a Tycho Brahe","theme":"tarihi","lab":1},"geometry":{"type":"Point","coordinates":[14.38791,50.08798]}},{"type":"Feature","properties":{"id":"ke-tarihi-6","kind":"poi","name":"Ladislav Vertat","theme":"tarihi","lab":1},"geometry":{"type":"Point","coordinates":[14.39226,50.10464]}},{"type":"Feature","properties":{"id":"ke-tarihi-7","kind":"poi","name":"Antonín Dvořák","theme":"tarihi","lab":1},"geometry":{"type":"Point","coordinates":[14.41517,50.08924]}},{"type":"Feature","properties":{"id":"ke-tarihi-8","kind":"poi","name":"Eliška Krásnohorská","theme":"tarihi","lab":1},"geometry":{"type":"Point","coordinates":[14.4197,50.07609]}},{"type":"Feature","properties":{"id":"ke-tarihi-9","kind":"poi","name":"Mojžíš","theme":"tarihi","lab":1},"geometry":{"type":"Point","coordinates":[14.41858,50.09031]}},{"type":"Feature","properties":{"id":"ke-tarihi-10","kind":"poi","name":"Pamětní deska obětem mučení","theme":"tarihi","lab":1},"geometry":{"type":"Point","coordinates":[14.43155,50.08128]}},{"type":"Feature","properties":{"id":"ke-tarihi-11","kind":"poi","name":"Střešovice svým padlým 1914-1918","theme":"tarihi","lab":1},"geometry":{"type":"Point","coordinates":[14.38094,50.09402]}},{"type":"Feature","properties":{"id":"ke-tarihi-12","kind":"poi","name":"Operace Anthropoid","theme":"tarihi","lab":1},"geometry":{"type":"Point","coordinates":[14.46518,50.11784]}},{"type":"Feature","properties":{"id":"ke-tarihi-13","kind":"poi","name":"Čertův sloup","theme":"tarihi","lab":1},"geometry":{"type":"Point","coordinates":[14.41914,50.06431]}},{"type":"Feature","properties":{"id":"ke-tarihi-14","kind":"poi","name":"Flora","theme":"tarihi","lab":1},"geometry":{"type":"Point","coordinates":[14.4001,50.06491]}},{"type":"Feature","properties":{"id":"ke-tarihi-15","kind":"poi","name":"Jan Bouchal","theme":"tarihi","lab":1},"geometry":{"type":"Point","coordinates":[14.43239,50.0967]}},{"type":"Feature","properties":{"id":"ke-tarihi-16","kind":"poi","name":"Karel a Josef Čapek","theme":"tarihi","lab":1},"geometry":{"type":"Point","coordinates":[14.43645,50.07572]}},{"type":"Feature","properties":{"id":"ke-tarihi-17","kind":"poi","name":"Karel Bendl","theme":"tarihi","lab":1},"geometry":{"type":"Point","coordinates":[14.4077,50.09971]}},{"type":"Feature","properties":{"id":"ke-tarihi-18","kind":"poi","name":"Bedřich Smetana","theme":"tarihi","lab":1},"geometry":{"type":"Point","coordinates":[14.41293,50.08532]}},{"type":"Feature","properties":{"id":"ke-tarihi-19","kind":"poi","name":"František Ladislav Rieger","theme":"tarihi","lab":1},"geometry":{"type":"Point","coordinates":[14.43798,50.07945]}},{"type":"Feature","properties":{"id":"ke-tarihi-20","kind":"poi","name":"Pamětní trolejbusová zastávka Orionka","theme":"tarihi","lab":1},"geometry":{"type":"Point","coordinates":[14.45957,50.07539]}},{"type":"Feature","properties":{"id":"ke-tarihi-21","kind":"poi","name":"svatý Jan Nepomucký","theme":"tarihi","lab":1},"geometry":{"type":"Point","coordinates":[14.40883,50.04763]}},{"type":"Feature","properties":{"id":"ke-tarihi-22","kind":"poi","name":"Radegast","theme":"tarihi","lab":1},"geometry":{"type":"Point","coordinates":[14.40459,50.11846]}},{"type":"Feature","properties":{"id":"ke-tarihi-23","kind":"poi","name":"Obětem komunistické policie","theme":"tarihi","lab":1},"geometry":{"type":"Point","coordinates":[14.39192,50.08963]}},{"type":"Feature","properties":{"id":"ke-tarihi-24","kind":"poi","name":"Karel Havlíček Borovský","theme":"tarihi","lab":1},"geometry":{"type":"Point","coordinates":[14.45426,50.0851]}},{"type":"Feature","properties":{"id":"ke-tarihi-25","kind":"poi","name":"Julius Fučík","theme":"tarihi","lab":1},"geometry":{"type":"Point","coordinates":[14.47424,50.08242]}},{"type":"Feature","properties":{"id":"ke-tarihi-26","kind":"poi","name":"Brána nenávratna","theme":"tarihi","lab":1},"geometry":{"type":"Point","coordinates":[14.43809,50.10252]}},{"type":"Feature","properties":{"id":"ke-tarihi-27","kind":"poi","name":"Hana Kvapilová","theme":"tarihi","lab":1},"geometry":{"type":"Point","coordinates":[14.39913,50.07659]}},{"type":"Feature","properties":{"id":"ke-tarihi-28","kind":"poi","name":"ibisové","theme":"tarihi","lab":1},"geometry":{"type":"Point","coordinates":[14.4014,50.11722]}},{"type":"Feature","properties":{"id":"ke-tarihi-29","kind":"poi","name":"Pamětní deska I.C","theme":"tarihi","lab":1},"geometry":{"type":"Point","coordinates":[14.43923,50.09003]}},{"type":"Feature","properties":{"id":"ke-tarihi-30","kind":"poi","name":"svatá Ája","theme":"tarihi","lab":1},"geometry":{"type":"Point","coordinates":[14.40873,50.06418]}},{"type":"Feature","properties":{"id":"ke-tarihi-31","kind":"poi","name":"svatý Jan Nepomucký","theme":"tarihi","lab":1},"geometry":{"type":"Point","coordinates":[14.4519,50.06936]}},{"type":"Feature","properties":{"id":"ke-tarihi-32","kind":"poi","name":"Přemysl Pitter","theme":"tarihi","lab":1},"geometry":{"type":"Point","coordinates":[14.46173,50.08379]}},{"type":"Feature","properties":{"id":"ke-tarihi-33","kind":"poi","name":"Hradiště Děvín","theme":"tarihi","lab":1},"geometry":{"type":"Point","coordinates":[14.40132,50.04708]}},{"type":"Feature","properties":{"id":"ke-tarihi-34","kind":"poi","name":"Památník bezdomovecké osady","theme":"tarihi","lab":1},"geometry":{"type":"Point","coordinates":[14.48753,50.08556]}},{"type":"Feature","properties":{"id":"ke-tarihi-35","kind":"poi","name":"Obětem náletu 14.2.1945","theme":"tarihi","lab":1},"geometry":{"type":"Point","coordinates":[14.38836,50.05908]}},{"type":"Feature","properties":{"id":"ke-tarihi-36","kind":"poi","name":"Obětem náletu 14.2.1945","theme":"tarihi","lab":1},"geometry":{"type":"Point","coordinates":[14.38079,50.06015]}},{"type":"Feature","properties":{"id":"ke-tarihi-37","kind":"poi","name":"Max Švabinský","theme":"tarihi","lab":1},"geometry":{"type":"Point","coordinates":[14.39631,50.10646]}},{"type":"Feature","properties":{"id":"ke-tarihi-38","kind":"poi","name":"Pomáhat a chránit","theme":"tarihi","lab":1},"geometry":{"type":"Point","coordinates":[14.43152,50.10361]}},{"type":"Feature","properties":{"id":"ke-tarihi-39","kind":"poi","name":"František Thomayer","theme":"tarihi","lab":1},"geometry":{"type":"Point","coordinates":[14.46879,50.10816]}},{"type":"Feature","properties":{"id":"ke-tarihi-40","kind":"poi","name":"npor. Stanislav Hübner","theme":"tarihi","lab":1},"geometry":{"type":"Point","coordinates":[14.41641,50.11119]}},{"type":"Feature","properties":{"id":"ke-tarihi-41","kind":"poi","name":"Tvrz Václava IV.","theme":"tarihi","lab":1},"geometry":{"type":"Point","coordinates":[14.48624,50.05217]}},{"type":"Feature","properties":{"id":"ke-tarihi-42","kind":"poi","name":"Nová libeňská synagoga","theme":"tarihi","lab":1},"geometry":{"type":"Point","coordinates":[14.47404,50.1041]}},{"type":"Feature","properties":{"id":"ke-tarihi-43","kind":"poi","name":"svatý Vojtěch","theme":"tarihi","lab":1},"geometry":{"type":"Point","coordinates":[14.485,50.09516]}},{"type":"Feature","properties":{"id":"ke-tarihi-44","kind":"poi","name":"svatý Pankrác","theme":"tarihi","lab":1},"geometry":{"type":"Point","coordinates":[14.43119,50.05785]}},{"type":"Feature","properties":{"id":"ke-tarihi-45","kind":"poi","name":"svatý Václav","theme":"tarihi","lab":1},"geometry":{"type":"Point","coordinates":[14.48194,50.07675]}},{"type":"Feature","properties":{"id":"ke-tarihi-46","kind":"poi","name":"Narození Panny Marie","theme":"tarihi","lab":1},"geometry":{"type":"Point","coordinates":[14.45239,50.0499]}},{"type":"Feature","properties":{"id":"ke-tarihi-47","kind":"poi","name":"svatý Václav","theme":"tarihi","lab":1},"geometry":{"type":"Point","coordinates":[14.4425,50.0615]}},{"type":"Feature","properties":{"id":"ke-tarihi-48","kind":"poi","name":"Sbor ČCE Praha-Braník","theme":"tarihi","lab":1},"geometry":{"type":"Point","coordinates":[14.41062,50.04078]}},{"type":"Feature","properties":{"id":"ke-tarihi-49","kind":"poi","name":"Branické ledárny","theme":"tarihi","lab":1},"geometry":{"type":"Point","coordinates":[14.40601,50.03249]}},{"type":"Feature","properties":{"id":"ke-tarihi-50","kind":"poi","name":"Michelská synagoga","theme":"tarihi","lab":1},"geometry":{"type":"Point","coordinates":[14.45005,50.05575]}},{"type":"Feature","properties":{"id":"ke-tarihi-51","kind":"poi","name":"Panna Marie Bolestná","theme":"tarihi","lab":1},"geometry":{"type":"Point","coordinates":[14.40387,50.03828]}},{"type":"Feature","properties":{"id":"ke-tarihi-52","kind":"poi","name":"svatý František z Assisi","theme":"tarihi","lab":1},"geometry":{"type":"Point","coordinates":[14.44778,50.04074]}},{"type":"Feature","properties":{"id":"ke-tarihi-53","kind":"poi","name":"Nejsvětější Trojice","theme":"tarihi","lab":1},"geometry":{"type":"Point","coordinates":[14.3917,50.07483]}},{"type":"Feature","properties":{"id":"ke-tarihi-54","kind":"poi","name":"zřícenina Baba","theme":"tarihi","lab":1},"geometry":{"type":"Point","coordinates":[14.39066,50.11881]}},{"type":"Feature","properties":{"id":"ke-tarihi-55","kind":"poi","name":"kaple Panny Marie","theme":"tarihi","lab":1},"geometry":{"type":"Point","coordinates":[14.45692,50.09133]}},{"type":"Feature","properties":{"id":"ke-tarihi-56","kind":"poi","name":"Karlův most","theme":"tarihi","lab":1},"geometry":{"type":"Point","coordinates":[14.41502,49.98084]}},{"type":"Feature","properties":{"id":"ke-tarihi-57","kind":"poi","name":"svatá Anežka","theme":"tarihi","lab":1},"geometry":{"type":"Point","coordinates":[14.47907,50.04406]}},{"type":"Feature","properties":{"id":"ke-tarihi-58","kind":"poi","name":"Jan Žižka","theme":"tarihi","lab":1},"geometry":{"type":"Point","coordinates":[14.38196,50.086]}},{"type":"Feature","properties":{"id":"ke-tarihi-59","kind":"poi","name":"Pomník zpravodajské brigády","theme":"tarihi","lab":1},"geometry":{"type":"Point","coordinates":[14.44332,50.05548]}},{"type":"Feature","properties":{"id":"ke-tarihi-60","kind":"poi","name":"Památník padlých","theme":"tarihi","lab":1},"geometry":{"type":"Point","coordinates":[14.47831,50.04475]}},{"type":"Feature","properties":{"id":"ke-tarihi-61","kind":"poi","name":"Pomník obětem 2. světové války","theme":"tarihi","lab":1},"geometry":{"type":"Point","coordinates":[14.48344,50.06195]}},{"type":"Feature","properties":{"id":"ke-tarihi-62","kind":"poi","name":"Památník utonulých vojáků","theme":"tarihi","lab":1},"geometry":{"type":"Point","coordinates":[14.46109,50.0962]}},{"type":"Feature","properties":{"id":"ke-tarihi-63","kind":"poi","name":"Vavro Šrobár","theme":"tarihi","lab":1},"geometry":{"type":"Point","coordinates":[14.47341,50.07638]}},{"type":"Feature","properties":{"id":"ke-tarihi-64","kind":"poi","name":"5. sjezd KSČ","theme":"tarihi","lab":1},"geometry":{"type":"Point","coordinates":[14.45264,50.1038]}},{"type":"Feature","properties":{"id":"ke-tarihi-65","kind":"poi","name":"Karel Kryl","theme":"tarihi","lab":1},"geometry":{"type":"Point","coordinates":[14.42353,50.09988]}},{"type":"Feature","properties":{"id":"ke-tarihi-66","kind":"poi","name":"Husův kámen","theme":"tarihi","lab":1},"geometry":{"type":"Point","coordinates":[14.47902,50.05778]}},{"type":"Feature","properties":{"id":"ke-tarihi-67","kind":"poi","name":"Pomník Obětem 2. světové války","theme":"tarihi","lab":1},"geometry":{"type":"Point","coordinates":[14.48269,50.10584]}},{"type":"Feature","properties":{"id":"ke-tarihi-68","kind":"poi","name":"Bohumil Kožíšek","theme":"tarihi","lab":1},"geometry":{"type":"Point","coordinates":[14.47103,50.09074]}},{"type":"Feature","properties":{"id":"ke-tarihi-69","kind":"poi","name":"Gustav Adler","theme":"tarihi","lab":1},"geometry":{"type":"Point","coordinates":[14.45461,50.11669]}},{"type":"Feature","properties":{"id":"ke-tarihi-70","kind":"poi","name":"Ota Klein","theme":"tarihi","lab":1},"geometry":{"type":"Point","coordinates":[14.46121,50.06624]}},{"type":"Feature","properties":{"id":"ke-tarihi-71","kind":"poi","name":"Artur Lederer","theme":"tarihi","lab":1},"geometry":{"type":"Point","coordinates":[14.42344,50.05527]}},{"type":"Feature","properties":{"id":"ke-tarihi-72","kind":"poi","name":"Jan Fabera","theme":"tarihi","lab":1},"geometry":{"type":"Point","coordinates":[14.45641,50.0408]}},{"type":"Feature","properties":{"id":"ke-doga-0","kind":"poi","name":"Masarykova vyhlídka","theme":"doga","lab":1},"geometry":{"type":"Point","coordinates":[14.39512,50.09159]}},{"type":"Feature","properties":{"id":"ke-doga-1","kind":"poi","name":"Vávrova vyhlídka","theme":"doga","lab":1},"geometry":{"type":"Point","coordinates":[14.41371,50.04244]}},{"type":"Feature","properties":{"id":"ke-doga-2","kind":"poi","name":"Petřínská rozhledna","theme":"doga","lab":1},"geometry":{"type":"Point","coordinates":[14.3951,50.08351]}},{"type":"Feature","properties":{"id":"ke-doga-3","kind":"poi","name":"Park Portheimka","theme":"doga","lab":1},"geometry":{"type":"Point","coordinates":[14.40514,50.07396]}},{"type":"Feature","properties":{"id":"ke-doga-4","kind":"poi","name":"Vojanovy sady","theme":"doga","lab":1},"geometry":{"type":"Point","coordinates":[14.40825,50.08878]}},{"type":"Feature","properties":{"id":"ke-doga-5","kind":"poi","name":"Prašná brána","theme":"doga","lab":1},"geometry":{"type":"Point","coordinates":[14.42776,50.08724]}},{"type":"Feature","properties":{"id":"ke-doga-6","kind":"poi","name":"Velká strahovská zahrada","theme":"doga","lab":1},"geometry":{"type":"Point","coordinates":[14.39183,50.08569]}},{"type":"Feature","properties":{"id":"ke-doga-7","kind":"poi","name":"park Willyho Brandta","theme":"doga","lab":1},"geometry":{"type":"Point","coordinates":[14.40142,50.10519]}},{"type":"Feature","properties":{"id":"ke-doga-8","kind":"poi","name":"Heroldovy sady","theme":"doga","lab":1},"geometry":{"type":"Point","coordinates":[14.45349,50.07044]}},{"type":"Feature","properties":{"id":"ke-doga-9","kind":"poi","name":"Šalamounka","theme":"doga","lab":1},"geometry":{"type":"Point","coordinates":[14.38224,50.0667]}},{"type":"Feature","properties":{"id":"ke-doga-10","kind":"poi","name":"Karlachovy sady","theme":"doga","lab":1},"geometry":{"type":"Point","coordinates":[14.41987,50.06447]}},{"type":"Feature","properties":{"id":"ke-doga-11","kind":"poi","name":"Radniční věž","theme":"doga","lab":1},"geometry":{"type":"Point","coordinates":[14.42067,50.08705]}},{"type":"Feature","properties":{"id":"ke-doga-12","kind":"poi","name":"Nosticova zahrada","theme":"doga","lab":1},"geometry":{"type":"Point","coordinates":[14.40692,50.08512]}},{"type":"Feature","properties":{"id":"ke-doga-13","kind":"poi","name":"Park Jiřího Karena","theme":"doga","lab":1},"geometry":{"type":"Point","coordinates":[14.4848,50.0831]}},{"type":"Feature","properties":{"id":"ke-doga-14","kind":"poi","name":"Kaizlovy sady","theme":"doga","lab":1},"geometry":{"type":"Point","coordinates":[14.45961,50.09497]}},{"type":"Feature","properties":{"id":"ke-doga-15","kind":"poi","name":"Letenské sady","theme":"doga","lab":1},"geometry":{"type":"Point","coordinates":[14.42255,50.09548]}},{"type":"Feature","properties":{"id":"ke-doga-16","kind":"poi","name":"Kavčí hory","theme":"doga","lab":1},"geometry":{"type":"Point","coordinates":[14.42077,50.04934]}},{"type":"Feature","properties":{"id":"ke-doga-17","kind":"poi","name":"Černínská zahrada","theme":"doga","lab":1},"geometry":{"type":"Point","coordinates":[14.38936,50.0897]}},{"type":"Feature","properties":{"id":"ke-doga-18","kind":"poi","name":"Kateřinská zahrada","theme":"doga","lab":1},"geometry":{"type":"Point","coordinates":[14.42555,50.07262]}},{"type":"Feature","properties":{"id":"ke-doga-19","kind":"poi","name":"národní přírodní památka Barrandovské skály","theme":"doga","lab":1},"geometry":{"type":"Point","coordinates":[14.39785,50.03262]}},{"type":"Feature","properties":{"id":"ke-doga-20","kind":"poi","name":"přírodní památka Baba","theme":"doga","lab":1},"geometry":{"type":"Point","coordinates":[14.39091,50.11884]}},{"type":"Feature","properties":{"id":"ke-doga-21","kind":"poi","name":"přírodní památka Údolí Kunratického potoka","theme":"doga","lab":1},"geometry":{"type":"Point","coordinates":[14.47142,50.02606]}},{"type":"Feature","properties":{"id":"ke-doga-22","kind":"poi","name":"přírodní památka Prosecké skály","theme":"doga","lab":1},"geometry":{"type":"Point","coordinates":[14.48682,50.11656]}},{"type":"Feature","properties":{"id":"ke-doga-23","kind":"poi","name":"přírodní památka U Branického pivovaru","theme":"doga","lab":1},"geometry":{"type":"Point","coordinates":[14.41046,50.0286]}},{"type":"Feature","properties":{"id":"ke-doga-24","kind":"poi","name":"přírodní rezervace Prokopské údolí","theme":"doga","lab":1},"geometry":{"type":"Point","coordinates":[14.37455,50.04315]}},{"type":"Feature","properties":{"id":"ke-doga-25","kind":"poi","name":"přírodní památka Dolní Šárka","theme":"doga","lab":1},"geometry":{"type":"Point","coordinates":[14.37831,50.11875]}},{"type":"Feature","properties":{"id":"ke-doga-26","kind":"poi","name":"přírodní památka Havránka","theme":"doga","lab":1},"geometry":{"type":"Point","coordinates":[14.42151,50.12157]}},{"type":"Feature","properties":{"id":"ke-doga-27","kind":"poi","name":"přírodní památka Ctirad","theme":"doga","lab":1},"geometry":{"type":"Point","coordinates":[14.40297,50.05092]}},{"type":"Feature","properties":{"id":"ke-doga-28","kind":"poi","name":"přírodní památka Královská obora","theme":"doga","lab":1},"geometry":{"type":"Point","coordinates":[14.41852,50.10671]}},{"type":"Feature","properties":{"id":"ke-doga-29","kind":"poi","name":"přírodní památka Bílá skála","theme":"doga","lab":1},"geometry":{"type":"Point","coordinates":[14.45623,50.11503]}},{"type":"Feature","properties":{"id":"ke-doga-30","kind":"poi","name":"přírodní památka Jabloňka","theme":"doga","lab":1},"geometry":{"type":"Point","coordinates":[14.43931,50.11637]}},{"type":"Feature","properties":{"id":"ke-doga-31","kind":"poi","name":"přírodní památka Pecka","theme":"doga","lab":1},"geometry":{"type":"Point","coordinates":[14.40544,50.10813]}},{"type":"Feature","properties":{"id":"ke-doga-32","kind":"poi","name":"přírodní památka Pod Školou","theme":"doga","lab":1},"geometry":{"type":"Point","coordinates":[14.39989,50.03982]}},{"type":"Feature","properties":{"id":"ke-doga-33","kind":"poi","name":"Botanická zahrada Praha","theme":"doga","lab":1},"geometry":{"type":"Point","coordinates":[14.4163,50.12053]}},{"type":"Feature","properties":{"id":"ke-doga-34","kind":"poi","name":"Parukářka","theme":"doga","lab":1},"geometry":{"type":"Point","coordinates":[14.461,50.08516]}},{"type":"Feature","properties":{"id":"ke-doga-35","kind":"poi","name":"Ztracenka","theme":"doga","lab":1},"geometry":{"type":"Point","coordinates":[14.42701,50.06855]}},{"type":"Feature","properties":{"id":"ke-doga-36","kind":"poi","name":"Mahlerovy sady","theme":"doga","lab":1},"geometry":{"type":"Point","coordinates":[14.45106,50.08073]}},{"type":"Feature","properties":{"id":"ke-doga-37","kind":"poi","name":"sady Na Skalce","theme":"doga","lab":1},"geometry":{"type":"Point","coordinates":[14.40102,50.06729]}},{"type":"Feature","properties":{"id":"ke-doga-38","kind":"poi","name":"Bezručovy sady","theme":"doga","lab":1},"geometry":{"type":"Point","coordinates":[14.44625,50.0723]}},{"type":"Feature","properties":{"id":"ke-doga-39","kind":"poi","name":"Riegrovy sady","theme":"doga","lab":1},"geometry":{"type":"Point","coordinates":[14.44124,50.08018]}},{"type":"Feature","properties":{"id":"ke-doga-40","kind":"poi","name":"park Františka Langera","theme":"doga","lab":1},"geometry":{"type":"Point","coordinates":[14.46893,50.06116]}},{"type":"Feature","properties":{"id":"ke-doga-41","kind":"poi","name":"Thomayerovy sady","theme":"doga","lab":1},"geometry":{"type":"Point","coordinates":[14.46712,50.10874]}},{"type":"Feature","properties":{"id":"ke-doga-42","kind":"poi","name":"Letenské sady","theme":"doga","lab":1},"geometry":{"type":"Point","coordinates":[14.42784,50.09646]}},{"type":"Feature","properties":{"id":"ke-doga-43","kind":"poi","name":"Židovské pece","theme":"doga","lab":1},"geometry":{"type":"Point","coordinates":[14.47867,50.08886]}},{"type":"Feature","properties":{"id":"ke-doga-44","kind":"poi","name":"Park Františka Suchého","theme":"doga","lab":1},"geometry":{"type":"Point","coordinates":[14.48605,50.07467]}},{"type":"Feature","properties":{"id":"ke-doga-45","kind":"poi","name":"Jezerka","theme":"doga","lab":1},"geometry":{"type":"Point","coordinates":[14.4462,50.05737]}},{"type":"Feature","properties":{"id":"ke-doga-46","kind":"poi","name":"Husovy sady","theme":"doga","lab":1},"geometry":{"type":"Point","coordinates":[14.38947,50.0701]}},{"type":"Feature","properties":{"id":"ke-doga-47","kind":"poi","name":"Roztylská vyhlídka","theme":"doga","lab":1},"geometry":{"type":"Point","coordinates":[14.48331,50.03905]}},{"type":"Feature","properties":{"id":"ke-doga-48","kind":"poi","name":"Exilvorstand der deutschen Sozialdemokratie 1933 bis 1938","theme":"doga","lab":1},"geometry":{"type":"Point","coordinates":[14.44917,50.09193]}},{"type":"Feature","properties":{"id":"ke-doga-49","kind":"poi","name":"Strouhalák","theme":"doga","lab":1},"geometry":{"type":"Point","coordinates":[14.37852,50.09707]}},{"type":"Feature","properties":{"id":"ke-doga-50","kind":"poi","name":"park Jana Podlipného","theme":"doga","lab":1},"geometry":{"type":"Point","coordinates":[14.47154,50.10764]}},{"type":"Feature","properties":{"id":"ke-doga-51","kind":"poi","name":"Geopark Spořilov","theme":"doga","lab":1},"geometry":{"type":"Point","coordinates":[14.47465,50.04045]}},{"type":"Feature","properties":{"id":"ke-doga-52","kind":"poi","name":"Baarův Park","theme":"doga","lab":1},"geometry":{"type":"Point","coordinates":[14.45538,50.04937]}},{"type":"Feature","properties":{"id":"ke-doga-53","kind":"poi","name":"park Na Pláni","theme":"doga","lab":1},"geometry":{"type":"Point","coordinates":[14.3932,50.06213]}},{"type":"Feature","properties":{"id":"ke-doga-54","kind":"poi","name":"park Mileny Jesenské","theme":"doga","lab":1},"geometry":{"type":"Point","coordinates":[14.47069,50.07732]}},{"type":"Feature","properties":{"id":"ke-doga-55","kind":"poi","name":"Park Adolfa Borna","theme":"doga","lab":1},"geometry":{"type":"Point","coordinates":[14.42393,50.04215]}},{"type":"Feature","properties":{"id":"ke-doga-56","kind":"poi","name":"Dětská zoo","theme":"doga","lab":1},"geometry":{"type":"Point","coordinates":[14.40656,50.11546]}},{"type":"Feature","properties":{"id":"ke-doga-57","kind":"poi","name":"Park Jaroslava Meda","theme":"doga","lab":1},"geometry":{"type":"Point","coordinates":[14.38749,50.10192]}},{"type":"Feature","properties":{"id":"ke-doga-58","kind":"poi","name":"sady Jana Švermy","theme":"doga","lab":1},"geometry":{"type":"Point","coordinates":[14.43831,50.0906]}},{"type":"Feature","properties":{"id":"ke-doga-59","kind":"poi","name":"Centrální park Hanspaulka","theme":"doga","lab":1},"geometry":{"type":"Point","coordinates":[14.38118,50.10626]}},{"type":"Feature","properties":{"id":"ke-doga-60","kind":"poi","name":"Santoška","theme":"doga","lab":1},"geometry":{"type":"Point","coordinates":[14.40088,50.06468]}},{"type":"Feature","properties":{"id":"ke-doga-61","kind":"poi","name":"Centrální park","theme":"doga","lab":1},"geometry":{"type":"Point","coordinates":[14.4319,50.0496]}},{"type":"Feature","properties":{"id":"ke-doga-62","kind":"poi","name":"Ladislavův park","theme":"doga","lab":1},"geometry":{"type":"Point","coordinates":[14.45718,50.10189]}},{"type":"Feature","properties":{"id":"ke-doga-63","kind":"poi","name":"park Pod Korábem","theme":"doga","lab":1},"geometry":{"type":"Point","coordinates":[14.47083,50.11276]}},{"type":"Feature","properties":{"id":"ke-doga-64","kind":"poi","name":"Náměstí Hrdinů","theme":"doga","lab":1},"geometry":{"type":"Point","coordinates":[14.43547,50.05666]}},{"type":"Feature","properties":{"id":"ke-gastronomi-0","kind":"poi","name":"Pivovarský dům Benedict","theme":"gastronomi","lab":1},"geometry":{"type":"Point","coordinates":[14.42374,50.07543]}},{"type":"Feature","properties":{"id":"ke-gastronomi-1","kind":"poi","name":"Cocovanka","theme":"gastronomi","lab":1},"geometry":{"type":"Point","coordinates":[14.40953,50.0885]}},{"type":"Feature","properties":{"id":"ke-gastronomi-2","kind":"poi","name":"Viniční altán","theme":"gastronomi","lab":1},"geometry":{"type":"Point","coordinates":[14.44432,50.06863]}},{"type":"Feature","properties":{"id":"ke-gastronomi-3","kind":"poi","name":"U Fleků","theme":"gastronomi","lab":1},"geometry":{"type":"Point","coordinates":[14.41698,50.0789]}},{"type":"Feature","properties":{"id":"ke-gastronomi-4","kind":"poi","name":"Na Kopečku","theme":"gastronomi","lab":1},"geometry":{"type":"Point","coordinates":[14.45412,50.04313]}},{"type":"Feature","properties":{"id":"ke-gastronomi-5","kind":"poi","name":"ne-SMYSL","theme":"gastronomi","lab":1},"geometry":{"type":"Point","coordinates":[14.46113,50.04295]}},{"type":"Feature","properties":{"id":"ke-gastronomi-6","kind":"poi","name":"U Knoflíčků","theme":"gastronomi","lab":1},"geometry":{"type":"Point","coordinates":[14.40431,50.08264]}},{"type":"Feature","properties":{"id":"ke-gastronomi-7","kind":"poi","name":"Demínka","theme":"gastronomi","lab":1},"geometry":{"type":"Point","coordinates":[14.43142,50.07716]}},{"type":"Feature","properties":{"id":"ke-gastronomi-8","kind":"poi","name":"Kavárna klubu Cross","theme":"gastronomi","lab":1},"geometry":{"type":"Point","coordinates":[14.44325,50.10822]}},{"type":"Feature","properties":{"id":"ke-gastronomi-9","kind":"poi","name":"Starbucks","theme":"gastronomi","lab":1},"geometry":{"type":"Point","coordinates":[14.42999,50.0801]}},{"type":"Feature","properties":{"id":"ke-gastronomi-10","kind":"poi","name":"Sedmý smysl","theme":"gastronomi","lab":1},"geometry":{"type":"Point","coordinates":[14.43523,50.10034]}},{"type":"Feature","properties":{"id":"ke-gastronomi-11","kind":"poi","name":"Shelanu Kosher Restaurant","theme":"gastronomi","lab":1},"geometry":{"type":"Point","coordinates":[14.41747,50.09093]}},{"type":"Feature","properties":{"id":"ke-gastronomi-12","kind":"poi","name":"Café Imperial","theme":"gastronomi","lab":1},"geometry":{"type":"Point","coordinates":[14.43265,50.08982]}},{"type":"Feature","properties":{"id":"ke-gastronomi-13","kind":"poi","name":"U Zábranských","theme":"gastronomi","lab":1},"geometry":{"type":"Point","coordinates":[14.45325,50.09315]}},{"type":"Feature","properties":{"id":"ke-gastronomi-14","kind":"poi","name":"Restaurace Vltava","theme":"gastronomi","lab":1},"geometry":{"type":"Point","coordinates":[14.41367,50.07408]}},{"type":"Feature","properties":{"id":"ke-gastronomi-15","kind":"poi","name":"Občanská plovárna","theme":"gastronomi","lab":1},"geometry":{"type":"Point","coordinates":[14.41491,50.09308]}},{"type":"Feature","properties":{"id":"ke-gastronomi-16","kind":"poi","name":"Lví dvůr","theme":"gastronomi","lab":1},"geometry":{"type":"Point","coordinates":[14.39873,50.0929]}},{"type":"Feature","properties":{"id":"ke-gastronomi-17","kind":"poi","name":"MINT: Weekend Market","theme":"gastronomi","lab":1},"geometry":{"type":"Point","coordinates":[14.44693,50.09902]}},{"type":"Feature","properties":{"id":"ke-gastronomi-18","kind":"poi","name":"Farmářské tržiště Jiřák","theme":"gastronomi","lab":1},"geometry":{"type":"Point","coordinates":[14.44941,50.07831]}},{"type":"Feature","properties":{"id":"ke-gastronomi-19","kind":"poi","name":"Farmářské trhy","theme":"gastronomi","lab":1},"geometry":{"type":"Point","coordinates":[14.43952,50.05091]}},{"type":"Feature","properties":{"id":"ke-gastronomi-20","kind":"poi","name":"Farmářské Trhy","theme":"gastronomi","lab":1},"geometry":{"type":"Point","coordinates":[14.47841,50.07133]}},{"type":"Feature","properties":{"id":"ke-gastronomi-21","kind":"poi","name":"Farmářské trhy na Kulaťáku","theme":"gastronomi","lab":1},"geometry":{"type":"Point","coordinates":[14.39344,50.10166]}},{"type":"Feature","properties":{"id":"ke-alisveris-0","kind":"poi","name":"Máj Národní","theme":"alisveris","lab":1},"geometry":{"type":"Point","coordinates":[14.41977,50.08207]}},{"type":"Feature","properties":{"id":"ke-alisveris-1","kind":"poi","name":"Galerie Harfa","theme":"alisveris","lab":1},"geometry":{"type":"Point","coordinates":[14.49091,50.10429]}},{"type":"Feature","properties":{"id":"ke-alisveris-2","kind":"poi","name":"Bílá labuť","theme":"alisveris","lab":1},"geometry":{"type":"Point","coordinates":[14.43377,50.0903]}},{"type":"Feature","properties":{"id":"ke-alisveris-3","kind":"poi","name":"Slovanský dům","theme":"alisveris","lab":1},"geometry":{"type":"Point","coordinates":[14.42776,50.08596]}},{"type":"Feature","properties":{"id":"ke-alisveris-4","kind":"poi","name":"Arkády Pankrác","theme":"alisveris","lab":1},"geometry":{"type":"Point","coordinates":[14.43796,50.05089]}},{"type":"Feature","properties":{"id":"ke-alisveris-5","kind":"poi","name":"Nový Smíchov","theme":"alisveris","lab":1},"geometry":{"type":"Point","coordinates":[14.40216,50.07315]}},{"type":"Feature","properties":{"id":"ke-alisveris-6","kind":"poi","name":"OC Flora","theme":"alisveris","lab":1},"geometry":{"type":"Point","coordinates":[14.46111,50.07878]}},{"type":"Feature","properties":{"id":"ke-alisveris-7","kind":"poi","name":"Westfield Chodov","theme":"alisveris","lab":1},"geometry":{"type":"Point","coordinates":[14.49029,50.03115]}},{"type":"Feature","properties":{"id":"ke-alisveris-9","kind":"poi","name":"Atrium","theme":"alisveris","lab":1},"geometry":{"type":"Point","coordinates":[14.41844,50.07541]}},{"type":"Feature","properties":{"id":"ke-alisveris-10","kind":"poi","name":"Breno","theme":"alisveris","lab":1},"geometry":{"type":"Point","coordinates":[14.44445,50.04182]}},{"type":"Feature","properties":{"id":"ke-alisveris-11","kind":"poi","name":"Potten & Pannen","theme":"alisveris","lab":1},"geometry":{"type":"Point","coordinates":[14.40429,50.08328]}},{"type":"Feature","properties":{"id":"ke-alisveris-12","kind":"poi","name":"Holešovická tržnice","theme":"alisveris","lab":1},"geometry":{"type":"Point","coordinates":[14.44598,50.09967]}},{"type":"Feature","properties":{"id":"ke-alisveris-14","kind":"poi","name":"Obchodní Centrum DBK","theme":"alisveris","lab":1},"geometry":{"type":"Point","coordinates":[14.44916,50.04382]}},{"type":"Feature","properties":{"id":"ke-alisveris-17","kind":"poi","name":"Farmářské tržiště Náplavka","theme":"alisveris","lab":1},"geometry":{"type":"Point","coordinates":[14.41444,50.0688]}},{"type":"Feature","properties":{"id":"ke-alisveris-18","kind":"poi","name":"Food Story","theme":"alisveris","lab":1},"geometry":{"type":"Point","coordinates":[14.42277,50.08917]}},{"type":"Feature","properties":{"id":"ke-alisveris-19","kind":"poi","name":"Vinohradský Pavilon","theme":"alisveris","lab":1},"geometry":{"type":"Point","coordinates":[14.44233,50.07654]}},{"type":"Feature","properties":{"id":"ke-otel-0","kind":"poi","name":"Hotel Olšanka","theme":"otel","lab":1},"geometry":{"type":"Point","coordinates":[14.45696,50.08293]}},{"type":"Feature","properties":{"id":"ke-otel-1","kind":"poi","name":"Hotel AXA","theme":"otel","lab":1},"geometry":{"type":"Point","coordinates":[14.43574,50.08989]}},{"type":"Feature","properties":{"id":"ke-otel-2","kind":"poi","name":"The Mozart Prague","theme":"otel","lab":1},"geometry":{"type":"Point","coordinates":[14.41409,50.08462]}},{"type":"Feature","properties":{"id":"ke-otel-3","kind":"poi","name":"Hotel Union Praha","theme":"otel","lab":1},"geometry":{"type":"Point","coordinates":[14.42482,50.06512]}},{"type":"Feature","properties":{"id":"ke-otel-4","kind":"poi","name":"Hotel Caesar Prague","theme":"otel","lab":1},"geometry":{"type":"Point","coordinates":[14.41697,50.0778]}},{"type":"Feature","properties":{"id":"ke-otel-5","kind":"poi","name":"Art Nouveau Palace Hotel","theme":"otel","lab":1},"geometry":{"type":"Point","coordinates":[14.4277,50.08392]}},{"type":"Feature","properties":{"id":"ke-otel-6","kind":"poi","name":"Step","theme":"otel","lab":1},"geometry":{"type":"Point","coordinates":[14.4845,50.10161]}},{"type":"Feature","properties":{"id":"ke-otel-7","kind":"poi","name":"Ankora","theme":"otel","lab":1},"geometry":{"type":"Point","coordinates":[14.42847,50.07516]}},{"type":"Feature","properties":{"id":"ke-otel-8","kind":"poi","name":"Holiday Inn Prague Congress Centre","theme":"otel","lab":1},"geometry":{"type":"Point","coordinates":[14.42718,50.06119]}},{"type":"Feature","properties":{"id":"ke-otel-9","kind":"poi","name":"Michle","theme":"otel","lab":1},"geometry":{"type":"Point","coordinates":[14.45169,50.05527]}},{"type":"Feature","properties":{"id":"ke-otel-10","kind":"poi","name":"Hermitage Hotel Prague","theme":"otel","lab":1},"geometry":{"type":"Point","coordinates":[14.41821,50.06805]}},{"type":"Feature","properties":{"id":"ke-otel-11","kind":"poi","name":"Florenc","theme":"otel","lab":1},"geometry":{"type":"Point","coordinates":[14.44075,50.09042]}},{"type":"Feature","properties":{"id":"ke-otel-12","kind":"poi","name":"Absolutum Wellness Hotel","theme":"otel","lab":1},"geometry":{"type":"Point","coordinates":[14.44112,50.10716]}},{"type":"Feature","properties":{"id":"ke-otel-13","kind":"poi","name":"Sporthotel Oáza","theme":"otel","lab":1},"geometry":{"type":"Point","coordinates":[14.43555,50.04383]}},{"type":"Feature","properties":{"id":"ke-otel-14","kind":"poi","name":"Augustine","theme":"otel","lab":1},"geometry":{"type":"Point","coordinates":[14.40672,50.08912]}},{"type":"Feature","properties":{"id":"ke-otel-15","kind":"poi","name":"Hotel Maximilian","theme":"otel","lab":1},"geometry":{"type":"Point","coordinates":[14.42466,50.09096]}},{"type":"Feature","properties":{"id":"ke-otel-16","kind":"poi","name":"Panorama Hotel","theme":"otel","lab":1},"geometry":{"type":"Point","coordinates":[14.43817,50.04907]}},{"type":"Feature","properties":{"id":"ke-otel-17","kind":"poi","name":"Hotel Oya","theme":"otel","lab":1},"geometry":{"type":"Point","coordinates":[14.4371,50.05449]}},{"type":"Feature","properties":{"id":"ke-otel-18","kind":"poi","name":"Chateau St. Havel","theme":"otel","lab":1},"geometry":{"type":"Point","coordinates":[14.44766,50.03532]}},{"type":"Feature","properties":{"id":"ke-otel-19","kind":"poi","name":"Aladin","theme":"otel","lab":1},"geometry":{"type":"Point","coordinates":[14.44962,50.06953]}},{"type":"Feature","properties":{"id":"ke-otel-20","kind":"poi","name":"Masarykova kolej","theme":"otel","lab":1},"geometry":{"type":"Point","coordinates":[14.38649,50.101]}},{"type":"Feature","properties":{"id":"ke-otel-21","kind":"poi","name":"Pyramida","theme":"otel","lab":1},"geometry":{"type":"Point","coordinates":[14.37992,50.08586]}},{"type":"Feature","properties":{"id":"ke-otel-22","kind":"poi","name":"Popelka","theme":"otel","lab":1},"geometry":{"type":"Point","coordinates":[14.38503,50.06897]}},{"type":"Feature","properties":{"id":"ke-otel-23","kind":"poi","name":"Abitohotel","theme":"otel","lab":1},"geometry":{"type":"Point","coordinates":[14.47441,50.05224]}},{"type":"Feature","properties":{"id":"ke-otel-24","kind":"poi","name":"Don Giovanni Hotel Prague","theme":"otel","lab":1},"geometry":{"type":"Point","coordinates":[14.47552,50.07869]}},{"type":"Feature","properties":{"id":"ke-otel-25","kind":"poi","name":"Zleep Hotel Prague","theme":"otel","lab":1},"geometry":{"type":"Point","coordinates":[14.37964,50.05621]}},{"type":"Feature","properties":{"id":"ke-otel-26","kind":"poi","name":"Lindner Hotel Prague Castle","theme":"otel","lab":1},"geometry":{"type":"Point","coordinates":[14.38787,50.08597]}},{"type":"Feature","properties":{"id":"ke-otel-27","kind":"poi","name":"Hotel Ariston & Ariston Patio","theme":"otel","lab":1},"geometry":{"type":"Point","coordinates":[14.4483,50.08476]}},{"type":"Feature","properties":{"id":"ke-otel-28","kind":"poi","name":"Angelo Hotel Prague","theme":"otel","lab":1},"geometry":{"type":"Point","coordinates":[14.40149,50.07059]}},{"type":"Feature","properties":{"id":"ke-otel-29","kind":"poi","name":"Villa","theme":"otel","lab":1},"geometry":{"type":"Point","coordinates":[14.4821,50.08135]}},{"type":"Feature","properties":{"id":"ke-otel-30","kind":"poi","name":"Iris Hotel Eden","theme":"otel","lab":1},"geometry":{"type":"Point","coordinates":[14.47169,50.06828]}},{"type":"Feature","properties":{"id":"ke-otel-31","kind":"poi","name":"Hotel Nosal","theme":"otel","lab":1},"geometry":{"type":"Point","coordinates":[14.46953,50.03617]}},{"type":"Feature","properties":{"id":"ke-otel-32","kind":"poi","name":"Hotel Golden Star","theme":"otel","lab":1},"geometry":{"type":"Point","coordinates":[14.39658,50.08854]}},{"type":"Feature","properties":{"id":"ke-otel-33","kind":"poi","name":"Aria","theme":"otel","lab":1},"geometry":{"type":"Point","coordinates":[14.40267,50.08714]}},{"type":"Feature","properties":{"id":"ke-otel-34","kind":"poi","name":"Hotel Čechie Praha","theme":"otel","lab":1},"geometry":{"type":"Point","coordinates":[14.46938,50.09605]}},{"type":"Feature","properties":{"id":"ke-otel-35","kind":"poi","name":"Residence Trafick","theme":"otel","lab":1},"geometry":{"type":"Point","coordinates":[14.46944,50.06001]}},{"type":"Feature","properties":{"id":"ke-otel-36","kind":"poi","name":"Hotel Schwaiger","theme":"otel","lab":1},"geometry":{"type":"Point","coordinates":[14.40832,50.10342]}},{"type":"Feature","properties":{"id":"ke-otel-37","kind":"poi","name":"Nabucco","theme":"otel","lab":1},"geometry":{"type":"Point","coordinates":[14.44363,50.06507]}},{"type":"Feature","properties":{"id":"ke-otel-38","kind":"poi","name":"Castle Residence","theme":"otel","lab":1},"geometry":{"type":"Point","coordinates":[14.44711,50.11749]}},{"type":"Feature","properties":{"id":"ke-yurt-0","kind":"poi","name":"Onefam Míru Hostel Prague","theme":"yurt","lab":1},"geometry":{"type":"Point","coordinates":[14.43792,50.07597]}},{"type":"Feature","properties":{"id":"ke-yurt-1","kind":"poi","name":"Onefam Arbes Hostel Prague","theme":"yurt","lab":1},"geometry":{"type":"Point","coordinates":[14.40466,50.07615]}},{"type":"Feature","properties":{"id":"ke-yurt-2","kind":"poi","name":"Chilli","theme":"yurt","lab":1},"geometry":{"type":"Point","coordinates":[14.41599,50.07827]}},{"type":"Feature","properties":{"id":"ke-yurt-3","kind":"poi","name":"Onefam Home Hostel Prague","theme":"yurt","lab":1},"geometry":{"type":"Point","coordinates":[14.43356,50.08711]}},{"type":"Feature","properties":{"id":"ke-yurt-4","kind":"poi","name":"Fontána","theme":"yurt","lab":1},"geometry":{"type":"Point","coordinates":[14.39985,50.09952]}},{"type":"Feature","properties":{"id":"ke-yurt-6","kind":"poi","name":"A","theme":"yurt","lab":1},"geometry":{"type":"Point","coordinates":[14.44302,50.1162]}},{"type":"Feature","properties":{"id":"ke-yurt-7","kind":"poi","name":"Hlávkova kolej","theme":"yurt","lab":1},"geometry":{"type":"Point","coordinates":[14.41619,50.07533]}},{"type":"Feature","properties":{"id":"ke-yurt-8","kind":"poi","name":"Koleje Strahov blok 1","theme":"yurt","lab":1},"geometry":{"type":"Point","coordinates":[14.39053,50.07995]}},{"type":"Feature","properties":{"id":"ke-yurt-9","kind":"poi","name":"Budeč","theme":"yurt","lab":1},"geometry":{"type":"Point","coordinates":[14.43254,50.07053]}},{"type":"Feature","properties":{"id":"ke-yurt-10","kind":"poi","name":"The Fizz Prague","theme":"yurt","lab":1},"geometry":{"type":"Point","coordinates":[14.43785,50.1083]}},{"type":"Feature","properties":{"id":"ke-yurt-11","kind":"poi","name":"Garni Hotel Ronni","theme":"yurt","lab":1},"geometry":{"type":"Point","coordinates":[14.45061,50.06837]}},{"type":"Feature","properties":{"id":"ke-yurt-12","kind":"poi","name":"Sir Toby's Midtown","theme":"yurt","lab":1},"geometry":{"type":"Point","coordinates":[14.4496,50.08606]}},{"type":"Feature","properties":{"id":"ke-yurt-13","kind":"poi","name":"Koleje Podolí blok B","theme":"yurt","lab":1},"geometry":{"type":"Point","coordinates":[14.42769,50.05383]}},{"type":"Feature","properties":{"id":"ke-yurt-14","kind":"poi","name":"Plus Prague","theme":"yurt","lab":1},"geometry":{"type":"Point","coordinates":[14.45128,50.10938]}},{"type":"Feature","properties":{"id":"ke-yurt-15","kind":"poi","name":"Arpacay Backpackers","theme":"yurt","lab":1},"geometry":{"type":"Point","coordinates":[14.39796,50.08862]}},{"type":"Feature","properties":{"id":"ke-yurt-16","kind":"poi","name":"PrahaJoa Guesthouse","theme":"yurt","lab":1},"geometry":{"type":"Point","coordinates":[14.40291,50.066]}},{"type":"Feature","properties":{"id":"ke-yurt-17","kind":"poi","name":"Pension Luna","theme":"yurt","lab":1},"geometry":{"type":"Point","coordinates":[14.47809,50.08991]}},{"type":"Feature","properties":{"id":"ke-yurt-18","kind":"poi","name":"Hostel Elf","theme":"yurt","lab":1},"geometry":{"type":"Point","coordinates":[14.44581,50.08704]}},{"type":"Feature","properties":{"id":"ke-yurt-19","kind":"poi","name":"A1 Hotel","theme":"yurt","lab":1},"geometry":{"type":"Point","coordinates":[14.47946,50.10341]}},{"type":"Feature","properties":{"id":"ke-yurt-20","kind":"poi","name":"Hostel Bridge","theme":"yurt","lab":1},"geometry":{"type":"Point","coordinates":[14.41531,50.08588]}},{"type":"Feature","properties":{"id":"ke-yurt-21","kind":"poi","name":"Pension Beta","theme":"yurt","lab":1},"geometry":{"type":"Point","coordinates":[14.43056,50.06494]}},{"type":"Feature","properties":{"id":"ke-yurt-22","kind":"poi","name":"Traveller's Hostel","theme":"yurt","lab":1},"geometry":{"type":"Point","coordinates":[14.4259,50.09075]}},{"type":"Feature","properties":{"id":"ke-yurt-23","kind":"poi","name":"ubytovací zařízení Akademie můzických umění","theme":"yurt","lab":1},"geometry":{"type":"Point","coordinates":[14.40157,50.0875]}},{"type":"Feature","properties":{"id":"ke-yurt-24","kind":"poi","name":"Hostel Marabou","theme":"yurt","lab":1},"geometry":{"type":"Point","coordinates":[14.46034,50.08885]}},{"type":"Feature","properties":{"id":"ke-yurt-25","kind":"poi","name":"Davids Apartments","theme":"yurt","lab":1},"geometry":{"type":"Point","coordinates":[14.44056,50.09036]}},{"type":"Feature","properties":{"id":"ke-yurt-26","kind":"poi","name":"Zastávka Meteor","theme":"yurt","lab":1},"geometry":{"type":"Point","coordinates":[14.46766,50.10879]}},{"type":"Feature","properties":{"id":"ke-yurt-27","kind":"poi","name":"A Plus Hostel","theme":"yurt","lab":1},"geometry":{"type":"Point","coordinates":[14.43706,50.09012]}},{"type":"Feature","properties":{"id":"ke-yurt-28","kind":"poi","name":"Hostel Alia","theme":"yurt","lab":1},"geometry":{"type":"Point","coordinates":[14.44277,50.06248]}},{"type":"Feature","properties":{"id":"ke-yurt-29","kind":"poi","name":"Ubytovna U Svobodárny","theme":"yurt","lab":1},"geometry":{"type":"Point","coordinates":[14.48923,50.10599]}},{"type":"Feature","properties":{"id":"ke-yurt-30","kind":"poi","name":"Palachova B","theme":"yurt","lab":1},"geometry":{"type":"Point","coordinates":[14.48493,50.09207]}},{"type":"Feature","properties":{"id":"ke-yurt-31","kind":"poi","name":"Hostel Seven","theme":"yurt","lab":1},"geometry":{"type":"Point","coordinates":[14.45111,50.11164]}},{"type":"Feature","properties":{"id":"ke-kamu-0","kind":"poi","name":"Agentura ochrany přírody a krajiny České republiky","theme":"kamu","lab":1},"geometry":{"type":"Point","coordinates":[14.48784,50.03442]}},{"type":"Feature","properties":{"id":"ke-kamu-1","kind":"poi","name":"Úřad městské části Praha 4","theme":"kamu","lab":1},"geometry":{"type":"Point","coordinates":[14.45019,50.04307]}},{"type":"Feature","properties":{"id":"ke-kamu-2","kind":"poi","name":"Národní památkový ústav, generální ředitelství","theme":"kamu","lab":1},"geometry":{"type":"Point","coordinates":[14.40513,50.09036]}},{"type":"Feature","properties":{"id":"ke-kamu-3","kind":"poi","name":"Finanční úřad, Praha-západ","theme":"kamu","lab":1},"geometry":{"type":"Point","coordinates":[14.43566,50.05577]}},{"type":"Feature","properties":{"id":"ke-kamu-4","kind":"poi","name":"Česká kosmická kancelář","theme":"kamu","lab":1},"geometry":{"type":"Point","coordinates":[14.44087,50.09155]}},{"type":"Feature","properties":{"id":"ke-kamu-5","kind":"poi","name":"Úřad městské části Praha 1","theme":"kamu","lab":1},"geometry":{"type":"Point","coordinates":[14.4228,50.0794]}},{"type":"Feature","properties":{"id":"ke-kamu-6","kind":"poi","name":"Úřad Městské části Praha 3","theme":"kamu","lab":1},"geometry":{"type":"Point","coordinates":[14.45405,50.08465]}},{"type":"Feature","properties":{"id":"ke-kamu-7","kind":"poi","name":"Úřad městské části Praha 10","theme":"kamu","lab":1},"geometry":{"type":"Point","coordinates":[14.48871,50.07733]}},{"type":"Feature","properties":{"id":"ke-kamu-8","kind":"poi","name":"Ministerstvo kultury","theme":"kamu","lab":1},"geometry":{"type":"Point","coordinates":[14.39294,50.09408]}},{"type":"Feature","properties":{"id":"ke-kamu-9","kind":"poi","name":"Smíchovská radnice","theme":"kamu","lab":1},"geometry":{"type":"Point","coordinates":[14.40359,50.07322]}},{"type":"Feature","properties":{"id":"ke-kamu-10","kind":"poi","name":"Městský úřad Prahy 6","theme":"kamu","lab":1},"geometry":{"type":"Point","coordinates":[14.401,50.10024]}},{"type":"Feature","properties":{"id":"ke-kamu-11","kind":"poi","name":"Ústav pro studium totalitních režimů, Archiv bezpečnostních složek","theme":"kamu","lab":1},"geometry":{"type":"Point","coordinates":[14.4435,50.08357]}},{"type":"Feature","properties":{"id":"ke-kamu-12","kind":"poi","name":"Úřad městské části Praha 5","theme":"kamu","lab":1},"geometry":{"type":"Point","coordinates":[14.40707,50.07291]}},{"type":"Feature","properties":{"id":"ke-kamu-13","kind":"poi","name":"Úřad městské části Praha 2","theme":"kamu","lab":1},"geometry":{"type":"Point","coordinates":[14.4348,50.07508]}},{"type":"Feature","properties":{"id":"ke-kamu-14","kind":"poi","name":"Ministerstvo životního prostředí","theme":"kamu","lab":1},"geometry":{"type":"Point","coordinates":[14.46771,50.06971]}},{"type":"Feature","properties":{"id":"ke-kamu-15","kind":"poi","name":"Grabova vila","theme":"kamu","lab":1},"geometry":{"type":"Point","coordinates":[14.46866,50.11046]}},{"type":"Feature","properties":{"id":"ke-kamu-16","kind":"poi","name":"Okresní soud Praha-východ","theme":"kamu","lab":1},"geometry":{"type":"Point","coordinates":[14.43282,50.08941]}},{"type":"Feature","properties":{"id":"ke-kamu-17","kind":"poi","name":"Úřad městské části Praha 7","theme":"kamu","lab":1},"geometry":{"type":"Point","coordinates":[14.4513,50.10487]}},{"type":"Feature","properties":{"id":"ke-kamu-18","kind":"poi","name":"Česká národní banka","theme":"kamu","lab":1},"geometry":{"type":"Point","coordinates":[14.42866,50.08661]}},{"type":"Feature","properties":{"id":"ke-kamu-19","kind":"poi","name":"AOB","theme":"kamu","lab":1},"geometry":{"type":"Point","coordinates":[14.44428,50.1084]}},{"type":"Feature","properties":{"id":"ke-kamu-20","kind":"poi","name":"Ministerstvo školství, mládeže a tělovýchovy","theme":"kamu","lab":1},"geometry":{"type":"Point","coordinates":[14.40484,50.08544]}},{"type":"Feature","properties":{"id":"ke-kamu-21","kind":"poi","name":"Ministerstvo práce a sociálních věcí","theme":"kamu","lab":1},"geometry":{"type":"Point","coordinates":[14.41572,50.07178]}},{"type":"Feature","properties":{"id":"ke-kamu-22","kind":"poi","name":"Odbor azylové a migrační politiky","theme":"kamu","lab":1},"geometry":{"type":"Point","coordinates":[14.47606,50.06119]}},{"type":"Feature","properties":{"id":"ke-kamu-23","kind":"poi","name":"Posádkové velitelství","theme":"kamu","lab":1},"geometry":{"type":"Point","coordinates":[14.39144,50.10894]}},{"type":"Feature","properties":{"id":"ke-kamu-24","kind":"poi","name":"Úřad pro ochranu osobních údajů","theme":"kamu","lab":1},"geometry":{"type":"Point","coordinates":[14.43254,50.0997]}},{"type":"Feature","properties":{"id":"ke-kamu-25","kind":"poi","name":"Úřad práce","theme":"kamu","lab":1},"geometry":{"type":"Point","coordinates":[14.47467,50.09186]}},{"type":"Feature","properties":{"id":"ke-kamu-26","kind":"poi","name":"Radnice Prahy 4","theme":"kamu","lab":1},"geometry":{"type":"Point","coordinates":[14.44163,50.06264]}},{"type":"Feature","properties":{"id":"ke-kamu-27","kind":"poi","name":"Finanční úřad pro Prahu 4","theme":"kamu","lab":1},"geometry":{"type":"Point","coordinates":[14.44199,50.0499]}},{"type":"Feature","properties":{"id":"ke-kamu-28","kind":"poi","name":"Finanční úřad","theme":"kamu","lab":1},"geometry":{"type":"Point","coordinates":[14.44079,50.07736]}},{"type":"Feature","properties":{"id":"ke-kamu-29","kind":"poi","name":"Poslanecká sněmovna Parlamentu ČR","theme":"kamu","lab":1},"geometry":{"type":"Point","coordinates":[14.40435,50.08963]}},{"type":"Feature","properties":{"id":"ke-kamu-30","kind":"poi","name":"Finanční úřad pro Středočeský kraj, Územní pracoviště Praha-východ","theme":"kamu","lab":1},"geometry":{"type":"Point","coordinates":[14.451,50.09437]}},{"type":"Feature","properties":{"id":"ke-kamu-31","kind":"poi","name":"Úřad městské části Praha-Troja","theme":"kamu","lab":1},"geometry":{"type":"Point","coordinates":[14.42789,50.11781]}},{"type":"Feature","properties":{"id":"ke-kamu-32","kind":"poi","name":"Jablotron","theme":"kamu","lab":1},"geometry":{"type":"Point","coordinates":[14.44696,50.11105]}},{"type":"Feature","properties":{"id":"ke-kamu-33","kind":"poi","name":"Czech POINT","theme":"kamu","lab":1},"geometry":{"type":"Point","coordinates":[14.48821,50.04765]}},{"type":"Feature","properties":{"id":"ke-kamu-34","kind":"poi","name":"Úřad městské části Praha 8","theme":"kamu","lab":1},"geometry":{"type":"Point","coordinates":[14.47174,50.10962]}},{"type":"Feature","properties":{"id":"ke-kamu-35","kind":"poi","name":"Ministerstvo vnitra","theme":"kamu","lab":1},"geometry":{"type":"Point","coordinates":[14.42177,50.0985]}},{"type":"Feature","properties":{"id":"ke-kamu-36","kind":"poi","name":"Ministerstvo školství, mládeže a tělovýchovy","theme":"kamu","lab":1},"geometry":{"type":"Point","coordinates":[14.4041,50.08524]}},{"type":"Feature","properties":{"id":"ke-kamu-37","kind":"poi","name":"Uřad městský části praha 8 - 3","theme":"kamu","lab":1},"geometry":{"type":"Point","coordinates":[14.47031,50.11098]}},{"type":"Feature","properties":{"id":"ke-kamu-38","kind":"poi","name":"Uřad městský části praha 8 - 2","theme":"kamu","lab":1},"geometry":{"type":"Point","coordinates":[14.47059,50.1107]}},{"type":"Feature","properties":{"id":"ke-kamu-39","kind":"poi","name":"Finanční úřad pro Prahu 10","theme":"kamu","lab":1},"geometry":{"type":"Point","coordinates":[14.45392,50.06336]}},{"type":"Feature","properties":{"id":"ke-kamu-40","kind":"poi","name":"Radiokomunikační a měřící středisko MV ČR","theme":"kamu","lab":1},"geometry":{"type":"Point","coordinates":[14.40155,50.06319]}},{"type":"Feature","properties":{"id":"ke-kamu-41","kind":"poi","name":"Finanční úřad Praha 5","theme":"kamu","lab":1},"geometry":{"type":"Point","coordinates":[14.38307,50.06146]}},{"type":"Feature","properties":{"id":"ke-kamu-42","kind":"poi","name":"Státní zdravotní ústav","theme":"kamu","lab":1},"geometry":{"type":"Point","coordinates":[14.47154,50.07491]}},{"type":"Feature","properties":{"id":"ke-ic-tarihi-0","kind":"poi","name":"Pražský hrad","theme":"tarihi","lab":1},"geometry":{"type":"Point","coordinates":[14.39855,50.09335]}},{"type":"Feature","properties":{"id":"ke-ic-tarihi-1","kind":"poi","name":"Karlův most","theme":"tarihi","lab":1},"geometry":{"type":"Point","coordinates":[14.41175,50.08648]}},{"type":"Feature","properties":{"id":"ke-ic-tarihi-2","kind":"poi","name":"Staroměstské náměstí","theme":"tarihi","lab":1},"geometry":{"type":"Point","coordinates":[14.42113,50.08803]}},{"type":"Feature","properties":{"id":"ke-ic-tarihi-3","kind":"poi","name":"Staroměstský orloj","theme":"tarihi","lab":1},"geometry":{"type":"Point","coordinates":[14.42071,50.08698]}},{"type":"Feature","properties":{"id":"ke-ic-tarihi-4","kind":"poi","name":"Katedrála svatého Víta","theme":"tarihi","lab":1},"geometry":{"type":"Point","coordinates":[14.40055,50.09086]}},{"type":"Feature","properties":{"id":"ke-ic-tarihi-5","kind":"poi","name":"Týnský chrám","theme":"tarihi","lab":1},"geometry":{"type":"Point","coordinates":[14.42271,50.08771]}},{"type":"Feature","properties":{"id":"ke-ic-tarihi-6","kind":"poi","name":"Prašná brána","theme":"tarihi","lab":1},"geometry":{"type":"Point","coordinates":[14.42784,50.08737]}},{"type":"Feature","properties":{"id":"ke-ic-tarihi-7","kind":"poi","name":"Václavské náměstí","theme":"tarihi","lab":1},"geometry":{"type":"Point","coordinates":[14.42832,50.08117]}},{"type":"Feature","properties":{"id":"ke-ic-tarihi-8","kind":"poi","name":"Národní divadlo","theme":"tarihi","lab":1},"geometry":{"type":"Point","coordinates":[14.41401,50.08144]}},{"type":"Feature","properties":{"id":"ke-ic-tarihi-9","kind":"poi","name":"Národní muzeum","theme":"tarihi","lab":1},"geometry":{"type":"Point","coordinates":[14.43062,50.07913]}},{"type":"Feature","properties":{"id":"ke-ic-tarihi-10","kind":"poi","name":"Staronová synagoga","theme":"tarihi","lab":1},"geometry":{"type":"Point","coordinates":[14.4186,50.09007]}},{"type":"Feature","properties":{"id":"ke-ic-tarihi-11","kind":"poi","name":"Vyšehrad","theme":"tarihi","lab":1},"geometry":{"type":"Point","coordinates":[14.43052,50.06317]}},{"type":"Feature","properties":{"id":"ke-ic-tarihi-12","kind":"poi","name":"Loreta","theme":"tarihi","lab":1},"geometry":{"type":"Point","coordinates":[14.39016,50.09955]}},{"type":"Feature","properties":{"id":"ke-ic-tarihi-13","kind":"poi","name":"Strahovský klášter","theme":"tarihi","lab":1},"geometry":{"type":"Point","coordinates":[14.38924,50.07992]}},{"type":"Feature","properties":{"id":"ke-ic-tarihi-14","kind":"poi","name":"Petřínská rozhledna","theme":"tarihi","lab":1},"geometry":{"type":"Point","coordinates":[14.39501,50.08353]}},{"type":"Feature","properties":{"id":"ke-ic-tarihi-15","kind":"poi","name":"Klementinum","theme":"tarihi","lab":1},"geometry":{"type":"Point","coordinates":[14.41591,50.08665]}},{"type":"Feature","properties":{"id":"ke-ic-tarihi-16","kind":"poi","name":"Obecní dům","theme":"tarihi","lab":1},"geometry":{"type":"Point","coordinates":[14.42801,50.08749]}},{"type":"Feature","properties":{"id":"ke-ic-tarihi-17","kind":"poi","name":"Rudolfinum","theme":"tarihi","lab":1},"geometry":{"type":"Point","coordinates":[14.41482,50.08967]}},{"type":"Feature","properties":{"id":"ke-ic-tarihi-18","kind":"poi","name":"Kostel svatého Mikuláše","theme":"tarihi","lab":1},"geometry":{"type":"Point","coordinates":[14.40428,50.08752]}},{"type":"Feature","properties":{"id":"ke-ic-modern-0","kind":"poi","name":"Tančící dům","theme":"modern","lab":1},"geometry":{"type":"Point","coordinates":[14.41407,50.07533]}},{"type":"Feature","properties":{"id":"ke-ic-modern-1","kind":"poi","name":"Žižkovská televizní věž","theme":"modern","lab":1},"geometry":{"type":"Point","coordinates":[14.45106,50.08102]}},{"type":"Feature","properties":{"id":"ke-ic-modern-2","kind":"poi","name":"DOX","theme":"modern","lab":1},"geometry":{"type":"Point","coordinates":[14.44755,50.10679]}},{"type":"Feature","properties":{"id":"ke-ic-doga-0","kind":"poi","name":"Petřín","theme":"doga","lab":1},"geometry":{"type":"Point","coordinates":[14.40054,50.07794]}},{"type":"Feature","properties":{"id":"ke-ic-doga-1","kind":"poi","name":"Letenské sady","theme":"doga","lab":1},"geometry":{"type":"Point","coordinates":[14.41118,50.0946]}},{"type":"Feature","properties":{"id":"ke-ic-doga-2","kind":"poi","name":"Stromovka","theme":"doga","lab":1},"geometry":{"type":"Point","coordinates":[14.42931,50.10196]}},{"type":"Feature","properties":{"id":"ke-ic-doga-3","kind":"poi","name":"Kampa","theme":"doga","lab":1},"geometry":{"type":"Point","coordinates":[14.40785,50.0857]}},{"type":"Feature","properties":{"id":"ke-modern-f0","kind":"poi","name":"Millennium","theme":"modern","lab":1},"geometry":{"type":"Point","coordinates":[14.40292,50.0871]}},{"type":"Feature","properties":{"id":"ke-modern-f1","kind":"poi","name":"Galerie Roberta Guttmanna","theme":"modern","lab":1},"geometry":{"type":"Point","coordinates":[14.42089,50.09057]}},{"type":"Feature","properties":{"id":"ke-modern-f2","kind":"poi","name":"Dům fotografie","theme":"modern","lab":1},"geometry":{"type":"Point","coordinates":[14.4277,50.09001]}},{"type":"Feature","properties":{"id":"ke-modern-f3","kind":"poi","name":"Galerie Jakubská","theme":"modern","lab":1},"geometry":{"type":"Point","coordinates":[14.42498,50.08809]}},{"type":"Feature","properties":{"id":"ke-modern-f4","kind":"poi","name":"Pelléova vila","theme":"modern","lab":1},"geometry":{"type":"Point","coordinates":[14.40779,50.09902]}},{"type":"Feature","properties":{"id":"ke-modern-f5","kind":"poi","name":"Slovenský institut v Praze","theme":"modern","lab":1},"geometry":{"type":"Point","coordinates":[14.42987,50.08732]}},{"type":"Feature","properties":{"id":"ke-modern-f7","kind":"poi","name":"Sovovy mlýny","theme":"modern","lab":1},"geometry":{"type":"Point","coordinates":[14.40823,50.08376]}},{"type":"Feature","properties":{"id":"ke-modern-f8","kind":"poi","name":"Vzlet","theme":"modern","lab":1},"geometry":{"type":"Point","coordinates":[14.45482,50.07008]}},{"type":"Feature","properties":{"id":"ke-modern-f9","kind":"poi","name":"Forum Karlín","theme":"modern","lab":1},"geometry":{"type":"Point","coordinates":[14.45484,50.09181]}},{"type":"Feature","properties":{"id":"ke-modern-f10","kind":"poi","name":"MeetFactory","theme":"modern","lab":1},"geometry":{"type":"Point","coordinates":[14.4082,50.05324]}},{"type":"Feature","properties":{"id":"ke-modern-f11","kind":"poi","name":"Kufřík","theme":"modern","lab":1},"geometry":{"type":"Point","coordinates":[14.39828,50.09862]}},{"type":"Feature","properties":{"id":"ke-modern-f12","kind":"poi","name":"hunt kastner","theme":"modern","lab":1},"geometry":{"type":"Point","coordinates":[14.44769,50.08269]}},{"type":"Feature","properties":{"id":"ke-modern-f13","kind":"poi","name":"CAMP - Centrum architektury a městského plánování","theme":"modern","lab":1},"geometry":{"type":"Point","coordinates":[14.41797,50.07298]}},{"type":"Feature","properties":{"id":"ke-modern-f14","kind":"poi","name":"Moderní galerie AVU","theme":"modern","lab":1},"geometry":{"type":"Point","coordinates":[14.42997,50.10519]}},{"type":"Feature","properties":{"id":"ke-modern-f15","kind":"poi","name":"Tusculum","theme":"modern","lab":1},"geometry":{"type":"Point","coordinates":[14.40063,50.10667]}},{"type":"Feature","properties":{"id":"ke-modern-f16","kind":"poi","name":"ARTERY","theme":"modern","lab":1},"geometry":{"type":"Point","coordinates":[14.41479,50.07455]}},{"type":"Feature","properties":{"id":"ke-modern-f17","kind":"poi","name":"Galerie PRE","theme":"modern","lab":1},"geometry":{"type":"Point","coordinates":[14.48136,50.0694]}},{"type":"Feature","properties":{"id":"ke-modern-f18","kind":"poi","name":"Trafo Gallery","theme":"modern","lab":1},"geometry":{"type":"Point","coordinates":[14.44778,50.09882]}},{"type":"Feature","properties":{"id":"ke-modern-f19","kind":"poi","name":"Galerie ES","theme":"modern","lab":1},"geometry":{"type":"Point","coordinates":[14.44237,50.06376]}},{"type":"Feature","properties":{"id":"ke-modern-f20","kind":"poi","name":"Del arte gallery","theme":"modern","lab":1},"geometry":{"type":"Point","coordinates":[14.44569,50.10802]}},{"type":"Feature","properties":{"id":"ke-modern-f21","kind":"poi","name":"Arthouse Hejtmánek","theme":"modern","lab":1},"geometry":{"type":"Point","coordinates":[14.40765,50.10452]}},{"type":"Feature","properties":{"id":"ke-modern-f22","kind":"poi","name":"Studentská galerie Světova 1","theme":"modern","lab":1},"geometry":{"type":"Point","coordinates":[14.47317,50.10595]}},{"type":"Feature","properties":{"id":"ke-modern-f23","kind":"poi","name":"400 ASA","theme":"modern","lab":1},"geometry":{"type":"Point","coordinates":[14.39963,50.0711]}},{"type":"Feature","properties":{"id":"ke-modern-f24","kind":"poi","name":"Magnus art gallery","theme":"modern","lab":1},"geometry":{"type":"Point","coordinates":[14.46379,50.09768]}},{"type":"Feature","properties":{"id":"ke-modern-f25","kind":"poi","name":"Platforma 15","theme":"modern","lab":1},"geometry":{"type":"Point","coordinates":[14.46469,50.07722]}},{"type":"Feature","properties":{"id":"ke-modern-f26","kind":"poi","name":"Galerie U lávky","theme":"modern","lab":1},"geometry":{"type":"Point","coordinates":[14.41864,50.11597]}},{"type":"Feature","properties":{"id":"ke-modern-f27","kind":"poi","name":"SPOT Gallery","theme":"modern","lab":1},"geometry":{"type":"Point","coordinates":[14.44253,50.07431]}},{"type":"Feature","properties":{"id":"ke-modern-f28","kind":"poi","name":"Beseder Gallery","theme":"modern","lab":1},"geometry":{"type":"Point","coordinates":[14.48622,50.10498]}},{"type":"Feature","properties":{"id":"ke-modern-f29","kind":"poi","name":"Keramika Labounek","theme":"modern","lab":1},"geometry":{"type":"Point","coordinates":[14.41384,50.03564]}},{"type":"Feature","properties":{"id":"ke-modern-f30","kind":"poi","name":"Kreativní malování","theme":"modern","lab":1},"geometry":{"type":"Point","coordinates":[14.48045,50.09237]}},{"type":"Feature","properties":{"id":"ke-modern-f31","kind":"poi","name":"Staré purkrabství","theme":"modern","lab":1},"geometry":{"type":"Point","coordinates":[14.41754,50.06301]}}]}